<?xml version="1.0" encoding="UTF-8"?>
<!-- track-length = 18934 filtered ascend = 0 plain-ascend = 0 cost=53176 energy=0.0kwh time=3h 45m 31s -->
<gpx 
 xmlns="http://www.topografix.com/GPX/1/1" 
 xmlns:xsi="http://www.w3.org/2001/XMLSchema-instance" 
 xsi:schemaLocation="http://www.topografix.com/GPX/1/1 http://www.topografix.com/GPX/1/1/gpx.xsd" 
 version="1.1" 
 creator="BRouter-Web 0.18.1">
 <trk>
  <name>Puttgarden -&gt; Rødbyhavn (Trajekt)</name>
  <trkseg>
   <trkpt lat="54.502549" lon="11.228016"><ele>2.5</ele></trkpt>
   <trkpt lat="54.502816" lon="11.228221"><ele>1.75</ele></trkpt>
   <trkpt lat="54.505038" lon="11.229918"><ele>1.5</ele></trkpt>
   <trkpt lat="54.507015" lon="11.23217"><ele>1.5</ele></trkpt>
   <trkpt lat="54.514607" lon="11.237694"><ele>1.5</ele></trkpt>
   <trkpt lat="54.521057" lon="11.241139"><ele>1.5</ele></trkpt>
   <trkpt lat="54.528711" lon="11.246067"><ele>1.5</ele></trkpt>
   <trkpt lat="54.556484" lon="11.264594"><ele>1.5</ele></trkpt>
   <trkpt lat="54.576832" lon="11.27735"><ele>1.5</ele></trkpt>
   <trkpt lat="54.624344" lon="11.307156"><ele>1.5</ele></trkpt>
   <trkpt lat="54.637755" lon="11.318609"><ele>1.5</ele></trkpt>
   <trkpt lat="54.645346" lon="11.335549"><ele>1.5</ele></trkpt>
   <trkpt lat="54.649542" lon="11.343746"><ele>1.5</ele></trkpt>
   <trkpt lat="54.651283" lon="11.346627"><ele>1.5</ele></trkpt>
   <trkpt lat="54.6525" lon="11.349418"><ele>1.5</ele></trkpt>
   <trkpt lat="54.653391" lon="11.351224"><ele>1.5</ele></trkpt>
   <trkpt lat="54.653559" lon="11.351565"><ele>1.5</ele></trkpt>
   <trkpt lat="54.653566" lon="11.351579"><ele>1.5</ele></trkpt>
  </trkseg>
 </trk>
</gpx>