<?xml version="1.0" encoding="UTF-8"?>
<!-- track-length = 60906 filtered ascend = 4 plain-ascend = -5 cost=170964 energy=0.2kwh time=12h 5m 26s -->
<gpx 
 xmlns="http://www.topografix.com/GPX/1/1" 
 xmlns:xsi="http://www.w3.org/2001/XMLSchema-instance" 
 xsi:schemaLocation="http://www.topografix.com/GPX/1/1 http://www.topografix.com/GPX/1/1/gpx.xsd" 
 version="1.1" 
 creator="BRouter-Web 0.18.1">
 <trk>
  <name>Finnhamn - Strömkajen</name>
  <trkseg>
   <trkpt lat="59.482695" lon="18.826356"/>
   <trkpt lat="59.482758" lon="18.826578"/>
   <trkpt lat="59.48283" lon="18.826733"/>
   <trkpt lat="59.483406" lon="18.826683"/>
   <trkpt lat="59.4916" lon="18.819451"/>
   <trkpt lat="59.493114" lon="18.817863"/>
   <trkpt lat="59.493887" lon="18.814744"/>
   <trkpt lat="59.493983" lon="18.807179"/>
   <trkpt lat="59.494492" lon="18.806751"/>
   <trkpt lat="59.493996" lon="18.806169"/>
   <trkpt lat="59.494171" lon="18.789496"/>
   <trkpt lat="59.493757" lon="18.78425"/>
   <trkpt lat="59.494062" lon="18.77748"/>
   <trkpt lat="59.493364" lon="18.774487"/>
   <trkpt lat="59.490979" lon="18.773425"/>
   <trkpt lat="59.48916" lon="18.768468"/>
   <trkpt lat="59.486548" lon="18.758488"/>
   <trkpt lat="59.485695" lon="18.754735"/>
   <trkpt lat="59.484131" lon="18.752506"/>
   <trkpt lat="59.479561" lon="18.749746"/>
   <trkpt lat="59.477109" lon="18.749006"/>
   <trkpt lat="59.47955" lon="18.747268"/>
   <trkpt lat="59.482826" lon="18.733271"/>
   <trkpt lat="59.483679" lon="18.72963"/>
   <trkpt lat="59.48544" lon="18.725223"/>
   <trkpt lat="59.4843" lon="18.724705"/>
   <trkpt lat="59.483233" lon="18.723707"/>
   <trkpt lat="59.480944" lon="18.711863"/>
   <trkpt lat="59.477632" lon="18.701692"/>
   <trkpt lat="59.468367" lon="18.680899"/>
   <trkpt lat="59.458851" lon="18.676736"/>
   <trkpt lat="59.460714" lon="18.673625"/>
   <trkpt lat="59.461019" lon="18.669934"/>
   <trkpt lat="59.460038" lon="18.663368"/>
   <trkpt lat="59.456505" lon="18.647017"/>
   <trkpt lat="59.456134" lon="18.641267"/>
   <trkpt lat="59.45668" lon="18.637447"/>
   <trkpt lat="59.458773" lon="18.633885"/>
   <trkpt lat="59.461259" lon="18.632383"/>
   <trkpt lat="59.463549" lon="18.632727"/>
   <trkpt lat="59.465478" lon="18.633564"/>
   <trkpt lat="59.466643" lon="18.632893"/>
   <trkpt lat="59.465642" lon="18.631761"/>
   <trkpt lat="59.463366" lon="18.626001"><ele>10</ele></trkpt>
   <trkpt lat="59.462786" lon="18.62453"><ele>10</ele></trkpt>
   <trkpt lat="59.457988" lon="18.612771"><ele>10</ele></trkpt>
   <trkpt lat="59.455633" lon="18.606505"><ele>10</ele></trkpt>
   <trkpt lat="59.455498" lon="18.602157"><ele>10</ele></trkpt>
   <trkpt lat="59.455581" lon="18.599018"><ele>10</ele></trkpt>
   <trkpt lat="59.455318" lon="18.599528"><ele>10</ele></trkpt>
   <trkpt lat="59.454842" lon="18.59998"><ele>10</ele></trkpt>
   <trkpt lat="59.453811" lon="18.599819"><ele>10</ele></trkpt>
   <trkpt lat="59.452574" lon="18.598353"><ele>10</ele></trkpt>
   <trkpt lat="59.45097" lon="18.595373"><ele>10</ele></trkpt>
   <trkpt lat="59.449774" lon="18.591249"><ele>10</ele></trkpt>
   <trkpt lat="59.448833" lon="18.58822"><ele>10</ele></trkpt>
   <trkpt lat="59.448866" lon="18.578976"><ele>10</ele></trkpt>
   <trkpt lat="59.448716" lon="18.578382"><ele>10</ele></trkpt>
   <trkpt lat="59.448734" lon="18.578655"><ele>10</ele></trkpt>
   <trkpt lat="59.448758" lon="18.579408"><ele>10</ele></trkpt>
   <trkpt lat="59.448633" lon="18.580166"><ele>10</ele></trkpt>
   <trkpt lat="59.448141" lon="18.582279"><ele>10</ele></trkpt>
   <trkpt lat="59.446731" lon="18.585318"><ele>10</ele></trkpt>
   <trkpt lat="59.445473" lon="18.587105"><ele>10</ele></trkpt>
   <trkpt lat="59.444697" lon="18.587902"><ele>10</ele></trkpt>
   <trkpt lat="59.443921" lon="18.588199"><ele>10</ele></trkpt>
   <trkpt lat="59.443996" lon="18.588829"><ele>10</ele></trkpt>
   <trkpt lat="59.443707" lon="18.588415"><ele>10</ele></trkpt>
   <trkpt lat="59.443059" lon="18.587868"><ele>10</ele></trkpt>
   <trkpt lat="59.441265" lon="18.586156"><ele>10</ele></trkpt>
   <trkpt lat="59.441298" lon="18.584576"><ele>10</ele></trkpt>
   <trkpt lat="59.44081" lon="18.585552"><ele>10</ele></trkpt>
   <trkpt lat="59.440147" lon="18.584724"><ele>10</ele></trkpt>
   <trkpt lat="59.438435" lon="18.583838"><ele>10</ele></trkpt>
   <trkpt lat="59.432785" lon="18.585011"><ele>10</ele></trkpt>
   <trkpt lat="59.431786" lon="18.585446"><ele>11.25</ele></trkpt>
   <trkpt lat="59.431837" lon="18.585998"><ele>13.75</ele></trkpt>
   <trkpt lat="59.431433" lon="18.585341"><ele>10</ele></trkpt>
   <trkpt lat="59.429805" lon="18.584943"/>
   <trkpt lat="59.428992" lon="18.583396"/>
   <trkpt lat="59.428925" lon="18.581078"/>
   <trkpt lat="59.430245" lon="18.578739"/>
   <trkpt lat="59.427988" lon="18.579769"/>
   <trkpt lat="59.424045" lon="18.57328"/>
   <trkpt lat="59.422433" lon="18.56972"/>
   <trkpt lat="59.419726" lon="18.563744"/>
   <trkpt lat="59.419275" lon="18.562049"/>
   <trkpt lat="59.419213" lon="18.560865"/>
   <trkpt lat="59.419426" lon="18.558996"/>
   <trkpt lat="59.419168" lon="18.558674"/>
   <trkpt lat="59.420326" lon="18.55627"/>
   <trkpt lat="59.420926" lon="18.553194"/>
   <trkpt lat="59.421069" lon="18.544538"/>
   <trkpt lat="59.419737" lon="18.522177"/>
   <trkpt lat="59.416303" lon="18.506925"/>
   <trkpt lat="59.418943" lon="18.494923"/>
   <trkpt lat="59.421452" lon="18.4827"/>
   <trkpt lat="59.422485" lon="18.476406"/>
   <trkpt lat="59.422767" lon="18.469422"/>
   <trkpt lat="59.42279" lon="18.469037"/>
   <trkpt lat="59.422997" lon="18.465655"/>
   <trkpt lat="59.424346" lon="18.443587"><ele>7.5</ele></trkpt>
   <trkpt lat="59.424422" lon="18.442348"><ele>7.5</ele></trkpt>
   <trkpt lat="59.426077" lon="18.415274"><ele>7.5</ele></trkpt>
   <trkpt lat="59.425834" lon="18.411938"><ele>7.5</ele></trkpt>
   <trkpt lat="59.42592" lon="18.407636"><ele>7.5</ele></trkpt>
   <trkpt lat="59.425675" lon="18.403945"><ele>7.5</ele></trkpt>
   <trkpt lat="59.422138" lon="18.389225"><ele>7.5</ele></trkpt>
   <trkpt lat="59.420686" lon="18.384783"><ele>7.5</ele></trkpt>
   <trkpt lat="59.418394" lon="18.375385"><ele>7.5</ele></trkpt>
   <trkpt lat="59.416852" lon="18.372767"><ele>7.5</ele></trkpt>
   <trkpt lat="59.415479" lon="18.373019"><ele>7.5</ele></trkpt>
   <trkpt lat="59.414341" lon="18.37127"><ele>7.5</ele></trkpt>
   <trkpt lat="59.413969" lon="18.37068"><ele>7.5</ele></trkpt>
   <trkpt lat="59.41282" lon="18.368905"><ele>7.5</ele></trkpt>
   <trkpt lat="59.412422" lon="18.368154"><ele>7.5</ele></trkpt>
   <trkpt lat="59.410189" lon="18.361244"><ele>7.5</ele></trkpt>
   <trkpt lat="59.404712" lon="18.35794"><ele>7.5</ele></trkpt>
   <trkpt lat="59.40232" lon="18.357511"><ele>7.5</ele></trkpt>
   <trkpt lat="59.401467" lon="18.355199"><ele>7.5</ele></trkpt>
   <trkpt lat="59.40186" lon="18.353538"><ele>7.5</ele></trkpt>
   <trkpt lat="59.401815" lon="18.353707"><ele>7.5</ele></trkpt>
   <trkpt lat="59.40186" lon="18.353538"><ele>7.5</ele></trkpt>
   <trkpt lat="59.398486" lon="18.351674"/>
   <trkpt lat="59.398094" lon="18.35109"/>
   <trkpt lat="59.3937" lon="18.34455"/>
   <trkpt lat="59.392937" lon="18.343413"/>
   <trkpt lat="59.388431" lon="18.341058"/>
   <trkpt lat="59.387064" lon="18.342008"/>
   <trkpt lat="59.38697" lon="18.342189"/>
   <trkpt lat="59.386943" lon="18.342363"/>
   <trkpt lat="59.38689" lon="18.342339"/>
   <trkpt lat="59.386943" lon="18.342363"/>
   <trkpt lat="59.386784" lon="18.342393"/>
   <trkpt lat="59.384458" lon="18.342973"/>
   <trkpt lat="59.384175" lon="18.343446"/>
   <trkpt lat="59.384159" lon="18.343271"/>
   <trkpt lat="59.382138" lon="18.337497"/>
   <trkpt lat="59.379328" lon="18.333183"/>
   <trkpt lat="59.378926" lon="18.33203"/>
   <trkpt lat="59.375412" lon="18.319495"/>
   <trkpt lat="59.375128" lon="18.318482"/>
   <trkpt lat="59.376185" lon="18.315411"/>
   <trkpt lat="59.376236" lon="18.308907"/>
   <trkpt lat="59.376205" lon="18.308652"/>
   <trkpt lat="59.375858" lon="18.308683"/>
   <trkpt lat="59.374973" lon="18.307926"/>
   <trkpt lat="59.374811" lon="18.307637"><ele>6.5</ele></trkpt>
   <trkpt lat="59.3681" lon="18.295691"><ele>6.5</ele></trkpt>
   <trkpt lat="59.362959" lon="18.263863"><ele>6.5</ele></trkpt>
   <trkpt lat="59.35714" lon="18.235207"><ele>6.5</ele></trkpt>
   <trkpt lat="59.357164" lon="18.235453"><ele>6.5</ele></trkpt>
   <trkpt lat="59.35714" lon="18.235207"><ele>6.5</ele></trkpt>
   <trkpt lat="59.355718" lon="18.237979"/>
   <trkpt lat="59.350214" lon="18.243705"/>
   <trkpt lat="59.348676" lon="18.244464"/>
   <trkpt lat="59.349499" lon="18.238163"/>
   <trkpt lat="59.345226" lon="18.227477"/>
   <trkpt lat="59.34411" lon="18.224795"/>
   <trkpt lat="59.343865" lon="18.224214"/>
   <trkpt lat="59.342464" lon="18.220899"/>
   <trkpt lat="59.336969" lon="18.207895"/>
   <trkpt lat="59.326653" lon="18.18107"/>
   <trkpt lat="59.320787" lon="18.157172"/>
   <trkpt lat="59.318083" lon="18.156974"/>
   <trkpt lat="59.318072" lon="18.15696"/>
   <trkpt lat="59.318083" lon="18.156974"/>
   <trkpt lat="59.320065" lon="18.154959"/>
   <trkpt lat="59.320152" lon="18.154536"/>
   <trkpt lat="59.320091" lon="18.152123"/>
   <trkpt lat="59.319858" lon="18.142892"/>
   <trkpt lat="59.319029" lon="18.129788"/>
   <trkpt lat="59.318808" lon="18.126301"/>
   <trkpt lat="59.317718" lon="18.109073"/>
   <trkpt lat="59.318215" lon="18.105179"/>
   <trkpt lat="59.319307" lon="18.096631"/>
   <trkpt lat="59.319989" lon="18.091212"><ele>16.5</ele></trkpt>
   <trkpt lat="59.32088" lon="18.084144"><ele>16.5</ele></trkpt>
   <trkpt lat="59.321174" lon="18.083239"><ele>16.5</ele></trkpt>
   <trkpt lat="59.322519" lon="18.08185"><ele>16.5</ele></trkpt>
   <trkpt lat="59.32359" lon="18.076177"><ele>16.5</ele></trkpt>
   <trkpt lat="59.32359" lon="18.076172"><ele>16.5</ele></trkpt>
   <trkpt lat="59.32359" lon="18.076177"><ele>16.5</ele></trkpt>
   <trkpt lat="59.323567" lon="18.076821"><ele>14.5</ele></trkpt>
   <trkpt lat="59.326426" lon="18.07769"><ele>13.5</ele></trkpt>
   <trkpt lat="59.326837" lon="18.077194"><ele>8.25</ele></trkpt>
   <trkpt lat="59.327582" lon="18.076297"><ele>8.25</ele></trkpt>
   <trkpt lat="59.329175" lon="18.075238"><ele>12</ele></trkpt>
   <trkpt lat="59.329213" lon="18.075275"><ele>12.75</ele></trkpt>
   <trkpt lat="59.329228" lon="18.075219"><ele>13.25</ele></trkpt>
  </trkseg>
 </trk>
</gpx>