<?xml version="1.0" encoding="UTF-8"?>
<!-- track-length = 3363 filtered ascend = 0 plain-ascend = 0 cost=19615 energy=0.0kwh time=9m 25s -->
<gpx 
 xmlns="http://www.topografix.com/GPX/1/1" 
 xmlns:xsi="http://www.w3.org/2001/XMLSchema-instance" 
 xsi:schemaLocation="http://www.topografix.com/GPX/1/1 http://www.topografix.com/GPX/1/1/gpx.xsd" 
 version="1.1" 
 creator="BRouter-Web 0.18.1">
 <trk>
  <name>Peenemünde - Freest</name>
  <trkseg>
   <trkpt lat="54.134544" lon="13.767256"/>
   <trkpt lat="54.134572" lon="13.767264"/>
   <trkpt lat="54.1323" lon="13.766235"/>
   <trkpt lat="54.131616" lon="13.762123"/>
   <trkpt lat="54.133286" lon="13.758207"/>
   <trkpt lat="54.136438" lon="13.753017"/>
   <trkpt lat="54.140187" lon="13.75135"/>
   <trkpt lat="54.141196" lon="13.749378"/>
   <trkpt lat="54.141446" lon="13.747846"/>
   <trkpt lat="54.141349" lon="13.745979"/>
   <trkpt lat="54.137467" lon="13.734184"/>
   <trkpt lat="54.137414" lon="13.734038"/>
   <trkpt lat="54.137245" lon="13.731534"/>
   <trkpt lat="54.137376" lon="13.730402"/>
   <trkpt lat="54.137815" lon="13.730204"/>
   <trkpt lat="54.137807" lon="13.730204"/>
  </trkseg>
 </trk>
</gpx>