<?xml version="1.0" encoding="UTF-8"?>
<!-- track-length = 15478 filtered ascend = 15 plain-ascend = -5 cost=88038 energy=0.1kwh time=43m 22s -->
<gpx 
 xmlns="http://www.topografix.com/GPX/1/1" 
 xmlns:xsi="http://www.w3.org/2001/XMLSchema-instance" 
 xsi:schemaLocation="http://www.topografix.com/GPX/1/1 http://www.topografix.com/GPX/1/1/gpx.xsd" 
 version="1.1" 
 creator="BRouter-Web 0.18.1">
 <trk>
  <name>Pendelbat 89</name>
  <trkseg>
   <trkpt lat="59.292558" lon="17.811441"><ele>7</ele></trkpt>
   <trkpt lat="59.292508" lon="17.811881"><ele>3</ele></trkpt>
   <trkpt lat="59.292446" lon="17.812444"><ele>3</ele></trkpt>
   <trkpt lat="59.291992" lon="17.816497"><ele>3</ele></trkpt>
   <trkpt lat="59.291594" lon="17.820053"><ele>3</ele></trkpt>
   <trkpt lat="59.290589" lon="17.829039"><ele>3</ele></trkpt>
   <trkpt lat="59.287862" lon="17.881009"><ele>3</ele></trkpt>
   <trkpt lat="59.289538" lon="17.885329"><ele>3</ele></trkpt>
   <trkpt lat="59.300498" lon="17.913585"><ele>3</ele></trkpt>
   <trkpt lat="59.301842" lon="17.91705"><ele>3</ele></trkpt>
   <trkpt lat="59.302932" lon="17.930404"><ele>3</ele></trkpt>
   <trkpt lat="59.310616" lon="17.963392"><ele>3</ele></trkpt>
   <trkpt lat="59.31523" lon="17.983197"><ele>3</ele></trkpt>
   <trkpt lat="59.315875" lon="17.985965"><ele>3</ele></trkpt>
   <trkpt lat="59.315625" lon="17.988162"><ele>7.25</ele></trkpt>
   <trkpt lat="59.316095" lon="17.98953"><ele>4</ele></trkpt>
   <trkpt lat="59.316543" lon="17.990833"><ele>4</ele></trkpt>
   <trkpt lat="59.317883" lon="17.99631"><ele>3</ele></trkpt>
   <trkpt lat="59.32048" lon="18.006923"><ele>3</ele></trkpt>
   <trkpt lat="59.320715" lon="18.007882"><ele>3</ele></trkpt>
   <trkpt lat="59.323098" lon="18.008641"><ele>7.75</ele></trkpt>
   <trkpt lat="59.32312" lon="18.008648"><ele>7.75</ele></trkpt>
   <trkpt lat="59.322996" lon="18.015739"><ele>3</ele></trkpt>
   <trkpt lat="59.322984" lon="18.016434"><ele>3</ele></trkpt>
   <trkpt lat="59.324048" lon="18.029372"><ele>3</ele></trkpt>
   <trkpt lat="59.325253" lon="18.04403"><ele>3</ele></trkpt>
   <trkpt lat="59.326263" lon="18.056311"><ele>3</ele></trkpt>
   <trkpt lat="59.326413" lon="18.058129"><ele>3</ele></trkpt>
   <trkpt lat="59.327656" lon="18.05805"><ele>10.25</ele></trkpt>
  </trkseg>
 </trk>
</gpx>