<?xml version="1.0" encoding="UTF-8"?>
<!-- track-length = 9978 filtered ascend = 0 plain-ascend = 0 cost=66583 energy=0.0kwh time=27m 56s -->
<gpx 
 xmlns="http://www.topografix.com/GPX/1/1" 
 xmlns:xsi="http://www.w3.org/2001/XMLSchema-instance" 
 xsi:schemaLocation="http://www.topografix.com/GPX/1/1 http://www.topografix.com/GPX/1/1/gpx.xsd" 
 version="1.1" 
 creator="BRouter-Web 0.18.1">
 <trk>
  <name>Ropsten - Bogesund</name>
  <trkseg>
   <trkpt lat="59.358415" lon="18.106216"/>
   <trkpt lat="59.358415" lon="18.106233"/>
   <trkpt lat="59.358513" lon="18.108456"/>
   <trkpt lat="59.360766" lon="18.106815"/>
   <trkpt lat="59.365671" lon="18.108254"/>
   <trkpt lat="59.368401" lon="18.109055"/>
   <trkpt lat="59.374525" lon="18.103317"/>
   <trkpt lat="59.375422" lon="18.102738"/>
   <trkpt lat="59.376438" lon="18.100721"/>
   <trkpt lat="59.376473" lon="18.100534"><ele>5.75</ele></trkpt>
   <trkpt lat="59.377061" lon="18.097438"><ele>5.75</ele></trkpt>
   <trkpt lat="59.377247" lon="18.09473"><ele>5.75</ele></trkpt>
   <trkpt lat="59.37712" lon="18.092852"><ele>5.75</ele></trkpt>
   <trkpt lat="59.376519" lon="18.092034"><ele>5.75</ele></trkpt>
   <trkpt lat="59.389954" lon="18.091004"/>
   <trkpt lat="59.393422" lon="18.102319"/>
   <trkpt lat="59.393494" lon="18.103233"/>
   <trkpt lat="59.393326" lon="18.104289"/>
   <trkpt lat="59.392246" lon="18.109704"/>
   <trkpt lat="59.392001" lon="18.110145"/>
   <trkpt lat="59.39047" lon="18.109607"/>
   <trkpt lat="59.393434" lon="18.113655"/>
   <trkpt lat="59.393521" lon="18.113987"><ele>3.25</ele></trkpt>
   <trkpt lat="59.393621" lon="18.114366"><ele>3.25</ele></trkpt>
   <trkpt lat="59.393664" lon="18.115966"><ele>3.25</ele></trkpt>
   <trkpt lat="59.393676" lon="18.115977"><ele>3.25</ele></trkpt>
   <trkpt lat="59.39282" lon="18.132614"><ele>3.25</ele></trkpt>
   <trkpt lat="59.393356" lon="18.13421"><ele>3.25</ele></trkpt>
   <trkpt lat="59.392751" lon="18.133825"/>
   <trkpt lat="59.392358" lon="18.134909"/>
   <trkpt lat="59.391541" lon="18.136046"/>
   <trkpt lat="59.3907" lon="18.137618"/>
   <trkpt lat="59.390135" lon="18.138093"/>
   <trkpt lat="59.389792" lon="18.138243"/>
   <trkpt lat="59.390511" lon="18.13831"/>
   <trkpt lat="59.390514" lon="18.139442"/>
   <trkpt lat="59.390714" lon="18.140531"/>
   <trkpt lat="59.391003" lon="18.141754"/>
   <trkpt lat="59.392139" lon="18.143728"/>
   <trkpt lat="59.392729" lon="18.144436"/>
   <trkpt lat="59.393199" lon="18.145294"/>
   <trkpt lat="59.393669" lon="18.14568"/>
   <trkpt lat="59.394335" lon="18.146174"/>
   <trkpt lat="59.3956" lon="18.146295"/>
   <trkpt lat="59.396813" lon="18.145565"/>
   <trkpt lat="59.396892" lon="18.145303"/>
   <trkpt lat="59.396931" lon="18.144516"/>
   <trkpt lat="59.397229" lon="18.146138"/>
   <trkpt lat="59.397546" lon="18.146728"/>
   <trkpt lat="59.397882" lon="18.146753"/>
   <trkpt lat="59.398689" lon="18.145979"/>
   <trkpt lat="59.401583" lon="18.146709"/>
   <trkpt lat="59.402221" lon="18.148037"/>
   <trkpt lat="59.403243" lon="18.153963"/>
  </trkseg>
 </trk>
</gpx>