<?xml version="1.0" encoding="UTF-8"?>
<!-- track-length = 85282 filtered ascend = 0 plain-ascend = -5 cost=407350 energy=6.6kwh time=8h 31m 45s -->
<gpx 
 xmlns="http://www.topografix.com/GPX/1/1" 
 xmlns:xsi="http://www.w3.org/2001/XMLSchema-instance" 
 xsi:schemaLocation="http://www.topografix.com/GPX/1/1 http://www.topografix.com/GPX/1/1/gpx.xsd" 
 version="1.1" 
 creator="BRouter-Web 0.18.1">
 <trk>
  <name>Tallinn - Helsinki</name>
  <trkseg>
   <trkpt lat="59.445394" lon="24.76257"><ele>7.5</ele></trkpt>
   <trkpt lat="59.445802" lon="24.763645"><ele>7.25</ele></trkpt>
   <trkpt lat="59.448698" lon="24.775662"><ele>7.25</ele></trkpt>
   <trkpt lat="59.449222" lon="24.776422"><ele>7.25</ele></trkpt>
   <trkpt lat="59.450264" lon="24.776927"><ele>7.25</ele></trkpt>
   <trkpt lat="59.471082" lon="24.765499"><ele>7</ele></trkpt>
   <trkpt lat="59.606411" lon="24.686136"><ele>5.5</ele></trkpt>
   <trkpt lat="60.1036" lon="24.982787"><ele>0</ele></trkpt>
   <trkpt lat="60.11869" lon="24.981451"><ele>0</ele></trkpt>
   <trkpt lat="60.139806" lon="24.993289"><ele>0</ele></trkpt>
   <trkpt lat="60.14315" lon="24.996643"><ele>0</ele></trkpt>
   <trkpt lat="60.149457" lon="25.000149"><ele>0</ele></trkpt>
   <trkpt lat="60.155603" lon="24.99976"><ele>0</ele></trkpt>
   <trkpt lat="60.159257" lon="24.982482"><ele>0</ele></trkpt>
   <trkpt lat="60.162481" lon="24.970663"><ele>0</ele></trkpt>
   <trkpt lat="60.16338" lon="24.966685"><ele>0</ele></trkpt>
   <trkpt lat="60.164034" lon="24.964357"><ele>0</ele></trkpt>
   <trkpt lat="60.164201" lon="24.964047"><ele>0</ele></trkpt>
   <trkpt lat="60.164284" lon="24.964041"><ele>0.25</ele></trkpt>
   <trkpt lat="60.164355" lon="24.964185"><ele>0.5</ele></trkpt>
   <trkpt lat="60.164318" lon="24.964731"><ele>0.25</ele></trkpt>
   <trkpt lat="60.163997" lon="24.965823"><ele>1.5</ele></trkpt>
  </trkseg>
 </trk>
</gpx>