<?xml version="1.0" encoding="UTF-8"?>
<!-- track-length = 32764 filtered ascend = 87 plain-ascend = -39 cost=32764 energy=.4kwh time=43m 41s -->
<gpx 
 xmlns="http://www.topografix.com/GPX/1/1" 
 xmlns:xsi="http://www.w3.org/2001/XMLSchema-instance" 
 xsi:schemaLocation="http://www.topografix.com/GPX/1/1 http://www.topografix.com/GPX/1/1/gpx.xsd" 
 creator="BRouter-1.7.0" version="1.1">
 <trk>
  <name>Adorf - Plauen</name>
  <trkseg>
   <trkpt lon="12.260990" lat="50.323864"><ele>444.75</ele></trkpt>
   <trkpt lon="12.260964" lat="50.324012"><ele>445.0</ele></trkpt>
   <trkpt lon="12.260848" lat="50.324645"><ele>447.25</ele></trkpt>
   <trkpt lon="12.260467" lat="50.326701"><ele>454.0</ele></trkpt>
   <trkpt lon="12.260397" lat="50.326976"><ele>453.25</ele></trkpt>
   <trkpt lon="12.260299" lat="50.327281"><ele>452.0</ele></trkpt>
   <trkpt lon="12.260082" lat="50.327807"><ele>449.25</ele></trkpt>
   <trkpt lon="12.259654" lat="50.328565"><ele>449.0</ele></trkpt>
   <trkpt lon="12.258379" lat="50.330828"><ele>446.25</ele></trkpt>
   <trkpt lon="12.257835" lat="50.331797"><ele>445.0</ele></trkpt>
   <trkpt lon="12.257818" lat="50.331825"><ele>445.0</ele></trkpt>
   <trkpt lon="12.257395" lat="50.332584"><ele>443.25</ele></trkpt>
   <trkpt lon="12.257237" lat="50.332897"><ele>443.25</ele></trkpt>
   <trkpt lon="12.256738" lat="50.334064"><ele>443.25</ele></trkpt>
   <trkpt lon="12.256388" lat="50.334807"><ele>445.0</ele></trkpt>
   <trkpt lon="12.256219" lat="50.335121"><ele>445.25</ele></trkpt>
   <trkpt lon="12.256038" lat="50.335430"><ele>445.25</ele></trkpt>
   <trkpt lon="12.255542" lat="50.336130"><ele>445.25</ele></trkpt>
   <trkpt lon="12.254933" lat="50.336833"><ele>445.5</ele></trkpt>
   <trkpt lon="12.252939" lat="50.339047"><ele>446.25</ele></trkpt>
   <trkpt lon="12.252603" lat="50.339398"><ele>447.5</ele></trkpt>
   <trkpt lon="12.252337" lat="50.339633"><ele>447.5</ele></trkpt>
   <trkpt lon="12.252096" lat="50.339828"><ele>447.0</ele></trkpt>
   <trkpt lon="12.251821" lat="50.340019"><ele>445.5</ele></trkpt>
   <trkpt lon="12.251590" lat="50.340170"><ele>445.0</ele></trkpt>
   <trkpt lon="12.250412" lat="50.340887"><ele>444.5</ele></trkpt>
   <trkpt lon="12.249864" lat="50.341226"><ele>447.0</ele></trkpt>
   <trkpt lon="12.249569" lat="50.341424"><ele>447.75</ele></trkpt>
   <trkpt lon="12.249215" lat="50.341702"><ele>447.25</ele></trkpt>
   <trkpt lon="12.248293" lat="50.342516"><ele>443.0</ele></trkpt>
   <trkpt lon="12.247209" lat="50.343544"><ele>446.25</ele></trkpt>
   <trkpt lon="12.246527" lat="50.343907"><ele>444.5</ele></trkpt>
   <trkpt lon="12.246022" lat="50.344088"><ele>444.25</ele></trkpt>
   <trkpt lon="12.245707" lat="50.344178"><ele>443.0</ele></trkpt>
   <trkpt lon="12.245127" lat="50.344279"><ele>439.75</ele></trkpt>
   <trkpt lon="12.244552" lat="50.344320"><ele>437.25</ele></trkpt>
   <trkpt lon="12.243608" lat="50.344320"><ele>433.5</ele></trkpt>
   <trkpt lon="12.242899" lat="50.344352"><ele>431.5</ele></trkpt>
   <trkpt lon="12.242349" lat="50.344412"><ele>430.25</ele></trkpt>
   <trkpt lon="12.241984" lat="50.344479"><ele>429.75</ele></trkpt>
   <trkpt lon="12.241741" lat="50.344536"><ele>429.5</ele></trkpt>
   <trkpt lon="12.241456" lat="50.344623"><ele>429.5</ele></trkpt>
   <trkpt lon="12.241227" lat="50.344703"><ele>429.5</ele></trkpt>
   <trkpt lon="12.240950" lat="50.344821"><ele>429.25</ele></trkpt>
   <trkpt lon="12.240679" lat="50.344958"><ele>428.5</ele></trkpt>
   <trkpt lon="12.240449" lat="50.345097"><ele>428.25</ele></trkpt>
   <trkpt lon="12.240205" lat="50.345270"><ele>428.0</ele></trkpt>
   <trkpt lon="12.239995" lat="50.345442"><ele>428.0</ele></trkpt>
   <trkpt lon="12.239733" lat="50.345677"><ele>428.25</ele></trkpt>
   <trkpt lon="12.239446" lat="50.345948"><ele>427.5</ele></trkpt>
   <trkpt lon="12.238442" lat="50.346902"><ele>426.0</ele></trkpt>
   <trkpt lon="12.238370" lat="50.346970"><ele>426.0</ele></trkpt>
   <trkpt lon="12.237369" lat="50.347913"><ele>426.5</ele></trkpt>
   <trkpt lon="12.237074" lat="50.348166"><ele>426.5</ele></trkpt>
   <trkpt lon="12.236775" lat="50.348410"><ele>426.5</ele></trkpt>
   <trkpt lon="12.236334" lat="50.348749"><ele>428.75</ele></trkpt>
   <trkpt lon="12.236291" lat="50.348781"><ele>429.0</ele></trkpt>
   <trkpt lon="12.235981" lat="50.349014"><ele>430.5</ele></trkpt>
   <trkpt lon="12.235092" lat="50.349670"><ele>431.75</ele></trkpt>
   <trkpt lon="12.234877" lat="50.349808"><ele>431.25</ele></trkpt>
   <trkpt lon="12.234669" lat="50.349924"><ele>430.5</ele></trkpt>
   <trkpt lon="12.234401" lat="50.350059"><ele>429.5</ele></trkpt>
   <trkpt lon="12.234138" lat="50.350172"><ele>428.75</ele></trkpt>
   <trkpt lon="12.233834" lat="50.350280"><ele>428.25</ele></trkpt>
   <trkpt lon="12.233565" lat="50.350364"><ele>427.75</ele></trkpt>
   <trkpt lon="12.233260" lat="50.350441"><ele>427.25</ele></trkpt>
   <trkpt lon="12.232580" lat="50.350591"><ele>426.0</ele></trkpt>
   <trkpt lon="12.231982" lat="50.350700"><ele>425.0</ele></trkpt>
   <trkpt lon="12.231650" lat="50.350746"><ele>424.5</ele></trkpt>
   <trkpt lon="12.231366" lat="50.350776"><ele>424.0</ele></trkpt>
   <trkpt lon="12.231070" lat="50.350797"><ele>423.5</ele></trkpt>
   <trkpt lon="12.230514" lat="50.350808"><ele>423.0</ele></trkpt>
   <trkpt lon="12.230138" lat="50.350793"><ele>423.25</ele></trkpt>
   <trkpt lon="12.229769" lat="50.350770"><ele>423.25</ele></trkpt>
   <trkpt lon="12.229634" lat="50.350762"><ele>423.25</ele></trkpt>
   <trkpt lon="12.228321" lat="50.350660"><ele>423.75</ele></trkpt>
   <trkpt lon="12.227917" lat="50.350638"><ele>423.75</ele></trkpt>
   <trkpt lon="12.227570" lat="50.350630"><ele>423.5</ele></trkpt>
   <trkpt lon="12.227174" lat="50.350644"><ele>423.5</ele></trkpt>
   <trkpt lon="12.226836" lat="50.350669"><ele>423.5</ele></trkpt>
   <trkpt lon="12.226517" lat="50.350707"><ele>424.0</ele></trkpt>
   <trkpt lon="12.226161" lat="50.350764"><ele>425.25</ele></trkpt>
   <trkpt lon="12.225814" lat="50.350840"><ele>426.0</ele></trkpt>
   <trkpt lon="12.225455" lat="50.350941"><ele>426.75</ele></trkpt>
   <trkpt lon="12.225056" lat="50.351080"><ele>426.5</ele></trkpt>
   <trkpt lon="12.224730" lat="50.351217"><ele>430.0</ele></trkpt>
   <trkpt lon="12.224463" lat="50.351349"><ele>432.25</ele></trkpt>
   <trkpt lon="12.224123" lat="50.351556"><ele>432.25</ele></trkpt>
   <trkpt lon="12.223835" lat="50.351762"><ele>431.25</ele></trkpt>
   <trkpt lon="12.223611" lat="50.351957"><ele>430.0</ele></trkpt>
   <trkpt lon="12.223423" lat="50.352148"><ele>427.75</ele></trkpt>
   <trkpt lon="12.223292" lat="50.352299"><ele>425.75</ele></trkpt>
   <trkpt lon="12.223173" lat="50.352464"><ele>424.25</ele></trkpt>
   <trkpt lon="12.223064" lat="50.352638"><ele>424.25</ele></trkpt>
   <trkpt lon="12.222909" lat="50.352976"><ele>424.25</ele></trkpt>
   <trkpt lon="12.222859" lat="50.353133"><ele>423.75</ele></trkpt>
   <trkpt lon="12.222790" lat="50.353478"><ele>423.0</ele></trkpt>
   <trkpt lon="12.222468" lat="50.356346"><ele>424.0</ele></trkpt>
   <trkpt lon="12.222194" lat="50.358730"><ele>431.0</ele></trkpt>
   <trkpt lon="12.222134" lat="50.359056"><ele>430.25</ele></trkpt>
   <trkpt lon="12.222030" lat="50.359313"><ele>429.75</ele></trkpt>
   <trkpt lon="12.221358" lat="50.360553"><ele>424.0</ele></trkpt>
   <trkpt lon="12.221352" lat="50.360563"><ele>424.0</ele></trkpt>
   <trkpt lon="12.220539" lat="50.362096"><ele>422.0</ele></trkpt>
   <trkpt lon="12.220514" lat="50.362145"><ele>421.75</ele></trkpt>
   <trkpt lon="12.220239" lat="50.362617"><ele>421.0</ele></trkpt>
   <trkpt lon="12.220051" lat="50.362884"><ele>420.75</ele></trkpt>
   <trkpt lon="12.219849" lat="50.363131"><ele>421.75</ele></trkpt>
   <trkpt lon="12.219635" lat="50.363348"><ele>422.5</ele></trkpt>
   <trkpt lon="12.219382" lat="50.363565"><ele>422.5</ele></trkpt>
   <trkpt lon="12.219054" lat="50.363793"><ele>422.0</ele></trkpt>
   <trkpt lon="12.218736" lat="50.363972"><ele>421.25</ele></trkpt>
   <trkpt lon="12.218484" lat="50.364095"><ele>420.5</ele></trkpt>
   <trkpt lon="12.218084" lat="50.364260"><ele>421.0</ele></trkpt>
   <trkpt lon="12.217600" lat="50.364414"><ele>422.75</ele></trkpt>
   <trkpt lon="12.217248" lat="50.364498"><ele>423.5</ele></trkpt>
   <trkpt lon="12.216697" lat="50.364597"><ele>424.5</ele></trkpt>
   <trkpt lon="12.215172" lat="50.364794"><ele>427.5</ele></trkpt>
   <trkpt lon="12.214543" lat="50.364879"><ele>428.5</ele></trkpt>
   <trkpt lon="12.214159" lat="50.364946"><ele>429.5</ele></trkpt>
   <trkpt lon="12.213822" lat="50.365020"><ele>430.0</ele></trkpt>
   <trkpt lon="12.213465" lat="50.365119"><ele>430.0</ele></trkpt>
   <trkpt lon="12.213113" lat="50.365240"><ele>428.75</ele></trkpt>
   <trkpt lon="12.212751" lat="50.365398"><ele>427.25</ele></trkpt>
   <trkpt lon="12.212460" lat="50.365542"><ele>425.75</ele></trkpt>
   <trkpt lon="12.212222" lat="50.365682"><ele>424.5</ele></trkpt>
   <trkpt lon="12.212016" lat="50.365817"><ele>423.25</ele></trkpt>
   <trkpt lon="12.211802" lat="50.365980"><ele>423.5</ele></trkpt>
   <trkpt lon="12.211623" lat="50.366142"><ele>423.25</ele></trkpt>
   <trkpt lon="12.211405" lat="50.366364"><ele>422.25</ele></trkpt>
   <trkpt lon="12.211197" lat="50.366622"><ele>421.5</ele></trkpt>
   <trkpt lon="12.211149" lat="50.366690"><ele>421.5</ele></trkpt>
   <trkpt lon="12.210467" lat="50.367727"><ele>421.75</ele></trkpt>
   <trkpt lon="12.210457" lat="50.367742"><ele>421.75</ele></trkpt>
   <trkpt lon="12.209785" lat="50.368764"><ele>418.75</ele></trkpt>
   <trkpt lon="12.209625" lat="50.368973"><ele>419.25</ele></trkpt>
   <trkpt lon="12.209445" lat="50.369178"><ele>420.5</ele></trkpt>
   <trkpt lon="12.209220" lat="50.369394"><ele>421.75</ele></trkpt>
   <trkpt lon="12.208905" lat="50.369638"><ele>422.75</ele></trkpt>
   <trkpt lon="12.208677" lat="50.369786"><ele>423.0</ele></trkpt>
   <trkpt lon="12.208469" lat="50.369906"><ele>423.25</ele></trkpt>
   <trkpt lon="12.208233" lat="50.370029"><ele>423.0</ele></trkpt>
   <trkpt lon="12.208002" lat="50.370140"><ele>422.75</ele></trkpt>
   <trkpt lon="12.205292" lat="50.371362"><ele>415.75</ele></trkpt>
   <trkpt lon="12.205084" lat="50.371453"><ele>415.0</ele></trkpt>
   <trkpt lon="12.204831" lat="50.371569"><ele>415.25</ele></trkpt>
   <trkpt lon="12.203678" lat="50.372087"><ele>417.5</ele></trkpt>
   <trkpt lon="12.203301" lat="50.372266"><ele>416.25</ele></trkpt>
   <trkpt lon="12.202942" lat="50.372442"><ele>417.5</ele></trkpt>
   <trkpt lon="12.202722" lat="50.372562"><ele>418.75</ele></trkpt>
   <trkpt lon="12.202278" lat="50.372864"><ele>420.75</ele></trkpt>
   <trkpt lon="12.202055" lat="50.373051"><ele>421.0</ele></trkpt>
   <trkpt lon="12.201790" lat="50.373321"><ele>420.25</ele></trkpt>
   <trkpt lon="12.201618" lat="50.373546"><ele>420.25</ele></trkpt>
   <trkpt lon="12.201525" lat="50.373686"><ele>420.5</ele></trkpt>
   <trkpt lon="12.201356" lat="50.373973"><ele>420.5</ele></trkpt>
   <trkpt lon="12.200680" lat="50.375296"><ele>418.5</ele></trkpt>
   <trkpt lon="12.200516" lat="50.375584"><ele>417.5</ele></trkpt>
   <trkpt lon="12.200267" lat="50.375965"><ele>416.5</ele></trkpt>
   <trkpt lon="12.199903" lat="50.376434"><ele>416.75</ele></trkpt>
   <trkpt lon="12.198112" lat="50.378671"><ele>416.0</ele></trkpt>
   <trkpt lon="12.197896" lat="50.378963"><ele>415.25</ele></trkpt>
   <trkpt lon="12.197240" lat="50.380078"><ele>414.0</ele></trkpt>
   <trkpt lon="12.197173" lat="50.380180"><ele>414.0</ele></trkpt>
   <trkpt lon="12.196963" lat="50.380476"><ele>413.75</ele></trkpt>
   <trkpt lon="12.196686" lat="50.380783"><ele>413.0</ele></trkpt>
   <trkpt lon="12.196410" lat="50.381024"><ele>413.25</ele></trkpt>
   <trkpt lon="12.196023" lat="50.381312"><ele>414.25</ele></trkpt>
   <trkpt lon="12.195584" lat="50.381606"><ele>416.0</ele></trkpt>
   <trkpt lon="12.195227" lat="50.381858"><ele>416.0</ele></trkpt>
   <trkpt lon="12.194925" lat="50.382097"><ele>414.75</ele></trkpt>
   <trkpt lon="12.194707" lat="50.382284"><ele>413.75</ele></trkpt>
   <trkpt lon="12.193761" lat="50.383218"><ele>410.75</ele></trkpt>
   <trkpt lon="12.193427" lat="50.383521"><ele>410.75</ele></trkpt>
   <trkpt lon="12.193049" lat="50.383820"><ele>411.25</ele></trkpt>
   <trkpt lon="12.192195" lat="50.384440"><ele>411.0</ele></trkpt>
   <trkpt lon="12.191928" lat="50.384670"><ele>410.25</ele></trkpt>
   <trkpt lon="12.191767" lat="50.384822"><ele>409.75</ele></trkpt>
   <trkpt lon="12.191518" lat="50.385109"><ele>410.75</ele></trkpt>
   <trkpt lon="12.190955" lat="50.385879"><ele>415.0</ele></trkpt>
   <trkpt lon="12.190199" lat="50.387033"><ele>414.5</ele></trkpt>
   <trkpt lon="12.189945" lat="50.387504"><ele>410.25</ele></trkpt>
   <trkpt lon="12.188944" lat="50.389528"><ele>405.75</ele></trkpt>
   <trkpt lon="12.188676" lat="50.389995"><ele>405.0</ele></trkpt>
   <trkpt lon="12.188130" lat="50.390613"><ele>404.25</ele></trkpt>
   <trkpt lon="12.187183" lat="50.391309"><ele>403.75</ele></trkpt>
   <trkpt lon="12.186278" lat="50.391886"><ele>403.25</ele></trkpt>
   <trkpt lon="12.185880" lat="50.392149"><ele>404.5</ele></trkpt>
   <trkpt lon="12.185301" lat="50.392563"><ele>405.5</ele></trkpt>
   <trkpt lon="12.184809" lat="50.393036"><ele>405.75</ele></trkpt>
   <trkpt lon="12.184472" lat="50.393549"><ele>407.0</ele></trkpt>
   <trkpt lon="12.184298" lat="50.394187"><ele>410.25</ele></trkpt>
   <trkpt lon="12.184041" lat="50.397562"><ele>413.75</ele></trkpt>
   <trkpt lon="12.183754" lat="50.398366"><ele>415.5</ele></trkpt>
   <trkpt lon="12.183619" lat="50.398616"><ele>413.75</ele></trkpt>
   <trkpt lon="12.183495" lat="50.398819"><ele>412.25</ele></trkpt>
   <trkpt lon="12.183303" lat="50.399086"><ele>409.75</ele></trkpt>
   <trkpt lon="12.183075" lat="50.399352"><ele>410.25</ele></trkpt>
   <trkpt lon="12.182929" lat="50.399506"><ele>410.5</ele></trkpt>
   <trkpt lon="12.182704" lat="50.399719"><ele>410.75</ele></trkpt>
   <trkpt lon="12.182461" lat="50.399923"><ele>410.75</ele></trkpt>
   <trkpt lon="12.182168" lat="50.400140"><ele>410.5</ele></trkpt>
   <trkpt lon="12.181940" lat="50.400290"><ele>409.75</ele></trkpt>
   <trkpt lon="12.181552" lat="50.400532"><ele>407.0</ele></trkpt>
   <trkpt lon="12.179440" lat="50.401777"><ele>408.25</ele></trkpt>
   <trkpt lon="12.178961" lat="50.402084"><ele>411.25</ele></trkpt>
   <trkpt lon="12.178565" lat="50.402382"><ele>410.25</ele></trkpt>
   <trkpt lon="12.178214" lat="50.402683"><ele>409.75</ele></trkpt>
   <trkpt lon="12.174127" lat="50.406459"><ele>401.75</ele></trkpt>
   <trkpt lon="12.172138" lat="50.408308"><ele>400.25</ele></trkpt>
   <trkpt lon="12.171217" lat="50.409147"><ele>395.25</ele></trkpt>
   <trkpt lon="12.170542" lat="50.409780"><ele>393.0</ele></trkpt>
   <trkpt lon="12.169108" lat="50.411099"><ele>392.25</ele></trkpt>
   <trkpt lon="12.168658" lat="50.411402"><ele>392.0</ele></trkpt>
   <trkpt lon="12.168028" lat="50.411699"><ele>394.0</ele></trkpt>
   <trkpt lon="12.167795" lat="50.411792"><ele>395.25</ele></trkpt>
   <trkpt lon="12.167454" lat="50.411908"><ele>396.5</ele></trkpt>
   <trkpt lon="12.167150" lat="50.411996"><ele>397.0</ele></trkpt>
   <trkpt lon="12.166820" lat="50.412074"><ele>397.5</ele></trkpt>
   <trkpt lon="12.166528" lat="50.412126"><ele>397.75</ele></trkpt>
   <trkpt lon="12.166241" lat="50.412168"><ele>397.75</ele></trkpt>
   <trkpt lon="12.165789" lat="50.412211"><ele>398.25</ele></trkpt>
   <trkpt lon="12.165566" lat="50.412225"><ele>398.5</ele></trkpt>
   <trkpt lon="12.164073" lat="50.412282"><ele>398.25</ele></trkpt>
   <trkpt lon="12.163724" lat="50.412309"><ele>397.75</ele></trkpt>
   <trkpt lon="12.163476" lat="50.412333"><ele>397.25</ele></trkpt>
   <trkpt lon="12.162936" lat="50.412389"><ele>395.25</ele></trkpt>
   <trkpt lon="12.162636" lat="50.412426"><ele>394.25</ele></trkpt>
   <trkpt lon="12.162279" lat="50.412483"><ele>392.75</ele></trkpt>
   <trkpt lon="12.161643" lat="50.412627"><ele>391.5</ele></trkpt>
   <trkpt lon="12.161228" lat="50.412726"><ele>392.25</ele></trkpt>
   <trkpt lon="12.160820" lat="50.412820"><ele>393.0</ele></trkpt>
   <trkpt lon="12.160064" lat="50.412968"><ele>393.5</ele></trkpt>
   <trkpt lon="12.159005" lat="50.413220"><ele>392.0</ele></trkpt>
   <trkpt lon="12.156164" lat="50.413896"><ele>394.0</ele></trkpt>
   <trkpt lon="12.155597" lat="50.414041"><ele>392.25</ele></trkpt>
   <trkpt lon="12.154571" lat="50.414319"><ele>389.25</ele></trkpt>
   <trkpt lon="12.152449" lat="50.414826"><ele>388.25</ele></trkpt>
   <trkpt lon="12.152233" lat="50.414878"><ele>388.25</ele></trkpt>
   <trkpt lon="12.151563" lat="50.415064"><ele>387.5</ele></trkpt>
   <trkpt lon="12.151123" lat="50.415182"><ele>387.0</ele></trkpt>
   <trkpt lon="12.151068" lat="50.415195"><ele>387.0</ele></trkpt>
   <trkpt lon="12.150929" lat="50.415227"><ele>387.0</ele></trkpt>
   <trkpt lon="12.150841" lat="50.415248"><ele>387.0</ele></trkpt>
   <trkpt lon="12.150411" lat="50.415342"><ele>387.0</ele></trkpt>
   <trkpt lon="12.150034" lat="50.415413"><ele>387.25</ele></trkpt>
   <trkpt lon="12.149602" lat="50.415504"><ele>387.5</ele></trkpt>
   <trkpt lon="12.148075" lat="50.415870"><ele>386.0</ele></trkpt>
   <trkpt lon="12.147004" lat="50.416126"><ele>385.5</ele></trkpt>
   <trkpt lon="12.146071" lat="50.416361"><ele>385.0</ele></trkpt>
   <trkpt lon="12.140598" lat="50.417919"><ele>386.75</ele></trkpt>
   <trkpt lon="12.138955" lat="50.418358"><ele>385.25</ele></trkpt>
   <trkpt lon="12.135826" lat="50.419151"><ele>392.0</ele></trkpt>
   <trkpt lon="12.135139" lat="50.419310"><ele>392.5</ele></trkpt>
   <trkpt lon="12.134596" lat="50.419404"><ele>391.0</ele></trkpt>
   <trkpt lon="12.134217" lat="50.419464"><ele>390.0</ele></trkpt>
   <trkpt lon="12.133775" lat="50.419509"><ele>389.25</ele></trkpt>
   <trkpt lon="12.133359" lat="50.419534"><ele>389.0</ele></trkpt>
   <trkpt lon="12.132857" lat="50.419546"><ele>388.25</ele></trkpt>
   <trkpt lon="12.131937" lat="50.419532"><ele>387.5</ele></trkpt>
   <trkpt lon="12.130023" lat="50.419439"><ele>389.5</ele></trkpt>
   <trkpt lon="12.129161" lat="50.419414"><ele>392.0</ele></trkpt>
   <trkpt lon="12.128463" lat="50.419423"><ele>393.0</ele></trkpt>
   <trkpt lon="12.127928" lat="50.419461"><ele>392.25</ele></trkpt>
   <trkpt lon="12.127291" lat="50.419541"><ele>390.5</ele></trkpt>
   <trkpt lon="12.126643" lat="50.419650"><ele>388.75</ele></trkpt>
   <trkpt lon="12.123344" lat="50.420329"><ele>392.0</ele></trkpt>
   <trkpt lon="12.122727" lat="50.420472"><ele>393.25</ele></trkpt>
   <trkpt lon="12.122138" lat="50.420640"><ele>395.0</ele></trkpt>
   <trkpt lon="12.121814" lat="50.420753"><ele>396.25</ele></trkpt>
   <trkpt lon="12.121343" lat="50.420961"><ele>397.75</ele></trkpt>
   <trkpt lon="12.120851" lat="50.421193"><ele>399.0</ele></trkpt>
   <trkpt lon="12.120191" lat="50.421587"><ele>401.25</ele></trkpt>
   <trkpt lon="12.119758" lat="50.421879"><ele>402.5</ele></trkpt>
   <trkpt lon="12.118292" lat="50.423033"><ele>406.5</ele></trkpt>
   <trkpt lon="12.117554" lat="50.423549"><ele>406.5</ele></trkpt>
   <trkpt lon="12.116862" lat="50.423951"><ele>405.25</ele></trkpt>
   <trkpt lon="12.116231" lat="50.424246"><ele>399.25</ele></trkpt>
   <trkpt lon="12.115561" lat="50.424485"><ele>395.25</ele></trkpt>
   <trkpt lon="12.114935" lat="50.424649"><ele>392.0</ele></trkpt>
   <trkpt lon="12.114358" lat="50.424767"><ele>390.5</ele></trkpt>
   <trkpt lon="12.113498" lat="50.424896"><ele>387.75</ele></trkpt>
   <trkpt lon="12.106307" lat="50.425854"><ele>386.25</ele></trkpt>
   <trkpt lon="12.100451" lat="50.426634"><ele>387.5</ele></trkpt>
   <trkpt lon="12.099436" lat="50.426744"><ele>386.5</ele></trkpt>
   <trkpt lon="12.098647" lat="50.426798"><ele>386.5</ele></trkpt>
   <trkpt lon="12.097825" lat="50.426820"><ele>385.25</ele></trkpt>
   <trkpt lon="12.096827" lat="50.426821"><ele>383.5</ele></trkpt>
   <trkpt lon="12.095109" lat="50.426796"><ele>380.0</ele></trkpt>
   <trkpt lon="12.093389" lat="50.426771"><ele>374.5</ele></trkpt>
   <trkpt lon="12.092628" lat="50.426740"><ele>373.5</ele></trkpt>
   <trkpt lon="12.092154" lat="50.426717"><ele>373.5</ele></trkpt>
   <trkpt lon="12.091561" lat="50.426669"><ele>373.75</ele></trkpt>
   <trkpt lon="12.090551" lat="50.426549"><ele>375.0</ele></trkpt>
   <trkpt lon="12.089756" lat="50.426420"><ele>377.25</ele></trkpt>
   <trkpt lon="12.089029" lat="50.426288"><ele>379.25</ele></trkpt>
   <trkpt lon="12.086585" lat="50.425813"><ele>378.75</ele></trkpt>
   <trkpt lon="12.086025" lat="50.425727"><ele>377.5</ele></trkpt>
   <trkpt lon="12.085572" lat="50.425674"><ele>376.75</ele></trkpt>
   <trkpt lon="12.085153" lat="50.425638"><ele>376.0</ele></trkpt>
   <trkpt lon="12.084686" lat="50.425623"><ele>375.25</ele></trkpt>
   <trkpt lon="12.084148" lat="50.425623"><ele>374.75</ele></trkpt>
   <trkpt lon="12.083669" lat="50.425649"><ele>373.5</ele></trkpt>
   <trkpt lon="12.083161" lat="50.425705"><ele>372.0</ele></trkpt>
   <trkpt lon="12.082635" lat="50.425792"><ele>369.75</ele></trkpt>
   <trkpt lon="12.082018" lat="50.425914"><ele>369.75</ele></trkpt>
   <trkpt lon="12.081385" lat="50.426075"><ele>371.75</ele></trkpt>
   <trkpt lon="12.080181" lat="50.426405"><ele>372.5</ele></trkpt>
   <trkpt lon="12.079985" lat="50.426466"><ele>372.25</ele></trkpt>
   <trkpt lon="12.079533" lat="50.426621"><ele>372.0</ele></trkpt>
   <trkpt lon="12.078977" lat="50.426797"><ele>372.25</ele></trkpt>
   <trkpt lon="12.078923" lat="50.426803"><ele>372.25</ele></trkpt>
   <trkpt lon="12.076640" lat="50.427459"><ele>369.25</ele></trkpt>
   <trkpt lon="12.076465" lat="50.427509"><ele>369.25</ele></trkpt>
   <trkpt lon="12.076174" lat="50.427593"><ele>371.75</ele></trkpt>
   <trkpt lon="12.074715" lat="50.428001"><ele>378.5</ele></trkpt>
   <trkpt lon="12.073086" lat="50.428469"><ele>384.25</ele></trkpt>
   <trkpt lon="12.071064" lat="50.429071"><ele>383.25</ele></trkpt>
   <trkpt lon="12.065728" lat="50.431054"><ele>379.75</ele></trkpt>
   <trkpt lon="12.065187" lat="50.431226"><ele>380.25</ele></trkpt>
   <trkpt lon="12.064597" lat="50.431334"><ele>378.75</ele></trkpt>
   <trkpt lon="12.063795" lat="50.431401"><ele>373.0</ele></trkpt>
   <trkpt lon="12.063186" lat="50.431444"><ele>369.25</ele></trkpt>
   <trkpt lon="12.054620" lat="50.432012"><ele>381.75</ele></trkpt>
   <trkpt lon="12.053491" lat="50.432102"><ele>384.5</ele></trkpt>
   <trkpt lon="12.053049" lat="50.432186"><ele>383.25</ele></trkpt>
   <trkpt lon="12.051923" lat="50.432527"><ele>377.0</ele></trkpt>
   <trkpt lon="12.051508" lat="50.432707"><ele>374.25</ele></trkpt>
   <trkpt lon="12.050874" lat="50.433077"><ele>371.25</ele></trkpt>
   <trkpt lon="12.050381" lat="50.433421"><ele>371.0</ele></trkpt>
   <trkpt lon="12.049995" lat="50.433733"><ele>371.25</ele></trkpt>
   <trkpt lon="12.049670" lat="50.434010"><ele>374.25</ele></trkpt>
   <trkpt lon="12.049303" lat="50.434451"><ele>377.75</ele></trkpt>
   <trkpt lon="12.049070" lat="50.434853"><ele>379.25</ele></trkpt>
   <trkpt lon="12.048983" lat="50.435075"><ele>380.0</ele></trkpt>
   <trkpt lon="12.048855" lat="50.435449"><ele>383.5</ele></trkpt>
   <trkpt lon="12.048806" lat="50.435816"><ele>385.75</ele></trkpt>
   <trkpt lon="12.048810" lat="50.436115"><ele>386.25</ele></trkpt>
   <trkpt lon="12.048863" lat="50.436463"><ele>385.75</ele></trkpt>
   <trkpt lon="12.048954" lat="50.436781"><ele>384.5</ele></trkpt>
   <trkpt lon="12.049090" lat="50.437087"><ele>382.25</ele></trkpt>
   <trkpt lon="12.049241" lat="50.437334"><ele>379.5</ele></trkpt>
   <trkpt lon="12.049406" lat="50.437577"><ele>377.25</ele></trkpt>
   <trkpt lon="12.049627" lat="50.437837"><ele>376.0</ele></trkpt>
   <trkpt lon="12.050169" lat="50.438379"><ele>374.75</ele></trkpt>
   <trkpt lon="12.054283" lat="50.442378"><ele>362.0</ele></trkpt>
   <trkpt lon="12.054734" lat="50.442809"><ele>361.5</ele></trkpt>
   <trkpt lon="12.055013" lat="50.443051"><ele>361.25</ele></trkpt>
   <trkpt lon="12.055313" lat="50.443286"><ele>361.5</ele></trkpt>
   <trkpt lon="12.055727" lat="50.443558"><ele>360.75</ele></trkpt>
   <trkpt lon="12.056103" lat="50.443769"><ele>359.75</ele></trkpt>
   <trkpt lon="12.056693" lat="50.444051"><ele>357.5</ele></trkpt>
   <trkpt lon="12.057624" lat="50.444457"><ele>359.5</ele></trkpt>
   <trkpt lon="12.057879" lat="50.444566"><ele>359.75</ele></trkpt>
   <trkpt lon="12.058124" lat="50.444673"><ele>360.0</ele></trkpt>
   <trkpt lon="12.058478" lat="50.444832"><ele>360.25</ele></trkpt>
   <trkpt lon="12.058776" lat="50.444977"><ele>360.25</ele></trkpt>
   <trkpt lon="12.059026" lat="50.445111"><ele>360.25</ele></trkpt>
   <trkpt lon="12.059277" lat="50.445269"><ele>360.25</ele></trkpt>
   <trkpt lon="12.059537" lat="50.445464"><ele>359.75</ele></trkpt>
   <trkpt lon="12.059708" lat="50.445621"><ele>359.25</ele></trkpt>
   <trkpt lon="12.059904" lat="50.445824"><ele>358.25</ele></trkpt>
   <trkpt lon="12.060027" lat="50.445986"><ele>358.0</ele></trkpt>
   <trkpt lon="12.060130" lat="50.446138"><ele>358.0</ele></trkpt>
   <trkpt lon="12.060226" lat="50.446317"><ele>358.0</ele></trkpt>
   <trkpt lon="12.060300" lat="50.446496"><ele>358.0</ele></trkpt>
   <trkpt lon="12.060368" lat="50.446713"><ele>357.75</ele></trkpt>
   <trkpt lon="12.060402" lat="50.446862"><ele>357.75</ele></trkpt>
   <trkpt lon="12.060426" lat="50.447009"><ele>357.75</ele></trkpt>
   <trkpt lon="12.060470" lat="50.447333"><ele>357.5</ele></trkpt>
   <trkpt lon="12.060502" lat="50.447779"><ele>357.5</ele></trkpt>
   <trkpt lon="12.060524" lat="50.448233"><ele>357.75</ele></trkpt>
   <trkpt lon="12.060567" lat="50.449006"><ele>358.0</ele></trkpt>
   <trkpt lon="12.060707" lat="50.451563"><ele>355.0</ele></trkpt>
   <trkpt lon="12.060759" lat="50.451971"><ele>355.25</ele></trkpt>
   <trkpt lon="12.060801" lat="50.452159"><ele>355.5</ele></trkpt>
   <trkpt lon="12.060852" lat="50.452336"><ele>355.75</ele></trkpt>
   <trkpt lon="12.060915" lat="50.452532"><ele>355.75</ele></trkpt>
   <trkpt lon="12.061017" lat="50.452781"><ele>355.75</ele></trkpt>
   <trkpt lon="12.061114" lat="50.452997"><ele>355.75</ele></trkpt>
   <trkpt lon="12.061306" lat="50.453329"><ele>355.75</ele></trkpt>
   <trkpt lon="12.061455" lat="50.453548"><ele>355.25</ele></trkpt>
   <trkpt lon="12.061630" lat="50.453772"><ele>354.5</ele></trkpt>
   <trkpt lon="12.062125" lat="50.454324"><ele>353.75</ele></trkpt>
   <trkpt lon="12.062202" lat="50.454408"><ele>353.75</ele></trkpt>
   <trkpt lon="12.064684" lat="50.457137"><ele>353.25</ele></trkpt>
   <trkpt lon="12.068242" lat="50.461044"><ele>355.75</ele></trkpt>
   <trkpt lon="12.069305" lat="50.462195"><ele>356.25</ele></trkpt>
   <trkpt lon="12.069512" lat="50.462435"><ele>356.0</ele></trkpt>
   <trkpt lon="12.069763" lat="50.462719"><ele>355.0</ele></trkpt>
   <trkpt lon="12.070057" lat="50.463060"><ele>353.75</ele></trkpt>
   <trkpt lon="12.070296" lat="50.463377"><ele>353.5</ele></trkpt>
   <trkpt lon="12.070459" lat="50.463638"><ele>353.5</ele></trkpt>
   <trkpt lon="12.070621" lat="50.463940"><ele>353.25</ele></trkpt>
   <trkpt lon="12.070686" lat="50.464079"><ele>353.25</ele></trkpt>
   <trkpt lon="12.070754" lat="50.464245"><ele>353.0</ele></trkpt>
   <trkpt lon="12.070864" lat="50.464575"><ele>352.75</ele></trkpt>
   <trkpt lon="12.070949" lat="50.464876"><ele>352.5</ele></trkpt>
   <trkpt lon="12.071923" lat="50.468512"><ele>349.25</ele></trkpt>
   <trkpt lon="12.072056" lat="50.468980"><ele>350.75</ele></trkpt>
   <trkpt lon="12.072228" lat="50.469460"><ele>351.75</ele></trkpt>
   <trkpt lon="12.072424" lat="50.469849"><ele>352.0</ele></trkpt>
   <trkpt lon="12.072609" lat="50.470155"><ele>352.0</ele></trkpt>
   <trkpt lon="12.072812" lat="50.470434"><ele>352.0</ele></trkpt>
   <trkpt lon="12.073122" lat="50.470794"><ele>352.25</ele></trkpt>
   <trkpt lon="12.073436" lat="50.471108"><ele>352.75</ele></trkpt>
   <trkpt lon="12.073678" lat="50.471324"><ele>353.5</ele></trkpt>
   <trkpt lon="12.074712" lat="50.472187"><ele>360.5</ele></trkpt>
   <trkpt lon="12.077243" lat="50.474266"><ele>355.5</ele></trkpt>
   <trkpt lon="12.077543" lat="50.474500"><ele>355.25</ele></trkpt>
   <trkpt lon="12.077900" lat="50.474759"><ele>355.25</ele></trkpt>
   <trkpt lon="12.078385" lat="50.475068"><ele>355.0</ele></trkpt>
   <trkpt lon="12.078804" lat="50.475310"><ele>355.0</ele></trkpt>
   <trkpt lon="12.079259" lat="50.475539"><ele>355.0</ele></trkpt>
   <trkpt lon="12.079704" lat="50.475743"><ele>358.5</ele></trkpt>
   <trkpt lon="12.080130" lat="50.475920"><ele>361.75</ele></trkpt>
   <trkpt lon="12.083295" lat="50.477128"><ele>362.25</ele></trkpt>
   <trkpt lon="12.083644" lat="50.477258"><ele>362.5</ele></trkpt>
   <trkpt lon="12.086079" lat="50.478183"><ele>362.0</ele></trkpt>
   <trkpt lon="12.086430" lat="50.478312"><ele>361.5</ele></trkpt>
   <trkpt lon="12.086792" lat="50.478430"><ele>361.25</ele></trkpt>
   <trkpt lon="12.087193" lat="50.478547"><ele>361.75</ele></trkpt>
   <trkpt lon="12.087550" lat="50.478638"><ele>362.5</ele></trkpt>
   <trkpt lon="12.089903" lat="50.479185"><ele>365.0</ele></trkpt>
   <trkpt lon="12.090579" lat="50.479372"><ele>364.75</ele></trkpt>
   <trkpt lon="12.090895" lat="50.479483"><ele>365.0</ele></trkpt>
   <trkpt lon="12.091179" lat="50.479596"><ele>365.25</ele></trkpt>
   <trkpt lon="12.091456" lat="50.479721"><ele>365.5</ele></trkpt>
   <trkpt lon="12.091694" lat="50.479837"><ele>366.0</ele></trkpt>
   <trkpt lon="12.092147" lat="50.480072"><ele>366.75</ele></trkpt>
   <trkpt lon="12.092189" lat="50.480094"><ele>366.75</ele></trkpt>
   <trkpt lon="12.093025" lat="50.480534"><ele>369.25</ele></trkpt>
   <trkpt lon="12.098926" lat="50.483634"><ele>375.25</ele></trkpt>
   <trkpt lon="12.099453" lat="50.483880"><ele>375.5</ele></trkpt>
   <trkpt lon="12.099855" lat="50.484039"><ele>376.0</ele></trkpt>
   <trkpt lon="12.100242" lat="50.484168"><ele>376.75</ele></trkpt>
   <trkpt lon="12.101295" lat="50.484488"><ele>376.25</ele></trkpt>
   <trkpt lon="12.101753" lat="50.484651"><ele>376.75</ele></trkpt>
   <trkpt lon="12.102067" lat="50.484779"><ele>376.75</ele></trkpt>
   <trkpt lon="12.102349" lat="50.484913"><ele>377.25</ele></trkpt>
   <trkpt lon="12.102598" lat="50.485043"><ele>377.25</ele></trkpt>
   <trkpt lon="12.102796" lat="50.485160"><ele>376.5</ele></trkpt>
   <trkpt lon="12.102995" lat="50.485290"><ele>376.0</ele></trkpt>
   <trkpt lon="12.103206" lat="50.485441"><ele>375.75</ele></trkpt>
   <trkpt lon="12.103413" lat="50.485609"><ele>375.75</ele></trkpt>
   <trkpt lon="12.103600" lat="50.485780"><ele>376.25</ele></trkpt>
   <trkpt lon="12.103776" lat="50.485965"><ele>375.75</ele></trkpt>
   <trkpt lon="12.103916" lat="50.486129"><ele>375.25</ele></trkpt>
   <trkpt lon="12.104029" lat="50.486274"><ele>375.0</ele></trkpt>
   <trkpt lon="12.104711" lat="50.487213"><ele>374.5</ele></trkpt>
   <trkpt lon="12.104829" lat="50.487381"><ele>374.75</ele></trkpt>
   <trkpt lon="12.104966" lat="50.487570"><ele>375.75</ele></trkpt>
   <trkpt lon="12.105345" lat="50.488094"><ele>379.75</ele></trkpt>
   <trkpt lon="12.106632" lat="50.489875"><ele>382.5</ele></trkpt>
   <trkpt lon="12.106858" lat="50.490176"><ele>381.0</ele></trkpt>
   <trkpt lon="12.107070" lat="50.490423"><ele>379.5</ele></trkpt>
   <trkpt lon="12.107270" lat="50.490619"><ele>378.5</ele></trkpt>
   <trkpt lon="12.107472" lat="50.490791"><ele>378.0</ele></trkpt>
   <trkpt lon="12.107773" lat="50.491018"><ele>378.75</ele></trkpt>
   <trkpt lon="12.108050" lat="50.491195"><ele>380.0</ele></trkpt>
   <trkpt lon="12.108344" lat="50.491370"><ele>382.0</ele></trkpt>
   <trkpt lon="12.108761" lat="50.491598"><ele>383.5</ele></trkpt>
   <trkpt lon="12.108936" lat="50.491685"><ele>384.0</ele></trkpt>
   <trkpt lon="12.109043" lat="50.491738"><ele>384.0</ele></trkpt>
   <trkpt lon="12.111308" lat="50.492799"><ele>386.25</ele></trkpt>
   <trkpt lon="12.111335" lat="50.492812"><ele>386.25</ele></trkpt>
   <trkpt lon="12.111625" lat="50.492961"><ele>385.5</ele></trkpt>
   <trkpt lon="12.112023" lat="50.493191"><ele>387.0</ele></trkpt>
   <trkpt lon="12.112314" lat="50.493388"><ele>388.25</ele></trkpt>
   <trkpt lon="12.112674" lat="50.493661"><ele>389.75</ele></trkpt>
   <trkpt lon="12.112878" lat="50.493828"><ele>390.5</ele></trkpt>
   <trkpt lon="12.113041" lat="50.493974"><ele>390.75</ele></trkpt>
   <trkpt lon="12.113233" lat="50.494153"><ele>391.0</ele></trkpt>
   <trkpt lon="12.113344" lat="50.494269"><ele>391.75</ele></trkpt>
   <trkpt lon="12.113559" lat="50.494537"><ele>394.5</ele></trkpt>
   <trkpt lon="12.113703" lat="50.494741"><ele>396.0</ele></trkpt>
   <trkpt lon="12.113857" lat="50.495012"><ele>397.5</ele></trkpt>
   <trkpt lon="12.113994" lat="50.495315"><ele>398.5</ele></trkpt>
   <trkpt lon="12.114082" lat="50.495551"><ele>399.25</ele></trkpt>
   <trkpt lon="12.114162" lat="50.495802"><ele>399.75</ele></trkpt>
   <trkpt lon="12.114215" lat="50.496009"><ele>399.75</ele></trkpt>
   <trkpt lon="12.114266" lat="50.496366"><ele>399.75</ele></trkpt>
   <trkpt lon="12.114264" lat="50.496554"><ele>399.5</ele></trkpt>
   <trkpt lon="12.114218" lat="50.496862"><ele>399.25</ele></trkpt>
   <trkpt lon="12.114139" lat="50.497175"><ele>398.75</ele></trkpt>
   <trkpt lon="12.113601" lat="50.498641"><ele>395.5</ele></trkpt>
   <trkpt lon="12.113539" lat="50.498821"><ele>395.25</ele></trkpt>
   <trkpt lon="12.113447" lat="50.499161"><ele>395.0</ele></trkpt>
   <trkpt lon="12.113413" lat="50.499389"><ele>395.25</ele></trkpt>
   <trkpt lon="12.113402" lat="50.499601"><ele>395.25</ele></trkpt>
   <trkpt lon="12.113414" lat="50.499852"><ele>395.25</ele></trkpt>
   <trkpt lon="12.113472" lat="50.500157"><ele>393.75</ele></trkpt>
   <trkpt lon="12.113538" lat="50.500372"><ele>392.0</ele></trkpt>
   <trkpt lon="12.113612" lat="50.500549"><ele>392.75</ele></trkpt>
   <trkpt lon="12.113799" lat="50.500886"><ele>394.25</ele></trkpt>
   <trkpt lon="12.113912" lat="50.501046"><ele>395.0</ele></trkpt>
   <trkpt lon="12.114434" lat="50.501694"><ele>398.25</ele></trkpt>
   <trkpt lon="12.114864" lat="50.502244"><ele>401.0</ele></trkpt>
   <trkpt lon="12.115570" lat="50.503120"><ele>401.0</ele></trkpt>
   <trkpt lon="12.115911" lat="50.503583"><ele>401.25</ele></trkpt>
   <trkpt lon="12.116056" lat="50.503851"><ele>401.5</ele></trkpt>
   <trkpt lon="12.116182" lat="50.504183"><ele>402.0</ele></trkpt>
   <trkpt lon="12.116269" lat="50.504607"><ele>403.5</ele></trkpt>
   <trkpt lon="12.116409" lat="50.505582"><ele>402.75</ele></trkpt>
   <trkpt lon="12.116426" lat="50.505694"><ele>402.25</ele></trkpt>
   <trkpt lon="12.116496" lat="50.506063"><ele>400.75</ele></trkpt>
   <trkpt lon="12.116552" lat="50.506242"><ele>400.0</ele></trkpt>
   <trkpt lon="12.116621" lat="50.506414"><ele>399.25</ele></trkpt>
   <trkpt lon="12.116719" lat="50.506604"><ele>398.75</ele></trkpt>
   <trkpt lon="12.116821" lat="50.506765"><ele>398.5</ele></trkpt>
   <trkpt lon="12.116915" lat="50.506893"><ele>398.25</ele></trkpt>
   <trkpt lon="12.117010" lat="50.507006"><ele>398.25</ele></trkpt>
   <trkpt lon="12.117251" lat="50.507254"><ele>398.25</ele></trkpt>
   <trkpt lon="12.117429" lat="50.507405"><ele>398.5</ele></trkpt>
   <trkpt lon="12.117646" lat="50.507568"><ele>399.5</ele></trkpt>
   <trkpt lon="12.117824" lat="50.507688"><ele>400.0</ele></trkpt>
   <trkpt lon="12.117941" lat="50.507764"><ele>400.25</ele></trkpt>
   <trkpt lon="12.118109" lat="50.507860"><ele>400.75</ele></trkpt>
   <trkpt lon="12.118306" lat="50.507963"><ele>401.25</ele></trkpt>
   <trkpt lon="12.118536" lat="50.508071"><ele>401.75</ele></trkpt>
   <trkpt lon="12.118784" lat="50.508171"><ele>402.5</ele></trkpt>
   <trkpt lon="12.119095" lat="50.508277"><ele>403.5</ele></trkpt>
   <trkpt lon="12.119390" lat="50.508360"><ele>404.75</ele></trkpt>
   <trkpt lon="12.119686" lat="50.508429"><ele>406.5</ele></trkpt>
   <trkpt lon="12.120048" lat="50.508493"><ele>408.25</ele></trkpt>
   <trkpt lon="12.120323" lat="50.508529"><ele>408.25</ele></trkpt>
   <trkpt lon="12.120833" lat="50.508568"><ele>408.0</ele></trkpt>
   <trkpt lon="12.121085" lat="50.508575"><ele>407.5</ele></trkpt>
   <trkpt lon="12.121353" lat="50.508574"><ele>407.0</ele></trkpt>
   <trkpt lon="12.121815" lat="50.508558"><ele>406.5</ele></trkpt>
   <trkpt lon="12.122359" lat="50.508511"><ele>406.25</ele></trkpt>
   <trkpt lon="12.122470" lat="50.508498"><ele>406.25</ele></trkpt>
   <trkpt lon="12.122813" lat="50.508451"><ele>406.0</ele></trkpt>
   <trkpt lon="12.123079" lat="50.508406"><ele>406.0</ele></trkpt>
   <trkpt lon="12.123375" lat="50.508348"><ele>406.0</ele></trkpt>
   <trkpt lon="12.123654" lat="50.508280"><ele>405.75</ele></trkpt>
   <trkpt lon="12.124032" lat="50.508165"><ele>405.25</ele></trkpt>
   <trkpt lon="12.124416" lat="50.508018"><ele>405.75</ele></trkpt>
   <trkpt lon="12.124627" lat="50.507921"><ele>406.0</ele></trkpt>
   <trkpt lon="12.124806" lat="50.507831"><ele>406.25</ele></trkpt>
   <trkpt lon="12.125410" lat="50.507506"><ele>407.0</ele></trkpt>
   <trkpt lon="12.125747" lat="50.507331"><ele>406.75</ele></trkpt>
   <trkpt lon="12.126075" lat="50.507179"><ele>407.0</ele></trkpt>
   <trkpt lon="12.126333" lat="50.507069"><ele>407.25</ele></trkpt>
   <trkpt lon="12.126706" lat="50.506928"><ele>407.5</ele></trkpt>
   <trkpt lon="12.127391" lat="50.506693"><ele>407.75</ele></trkpt>
   <trkpt lon="12.128154" lat="50.506397"><ele>406.75</ele></trkpt>
   <trkpt lon="12.128500" lat="50.506275"><ele>406.5</ele></trkpt>
   <trkpt lon="12.128718" lat="50.506204"><ele>406.25</ele></trkpt>
   <trkpt lon="12.128988" lat="50.506126"><ele>406.25</ele></trkpt>
   <trkpt lon="12.129280" lat="50.506052"><ele>406.0</ele></trkpt>
   <trkpt lon="12.129800" lat="50.505942"><ele>405.5</ele></trkpt>
   <trkpt lon="12.130180" lat="50.505883"><ele>405.0</ele></trkpt>
  </trkseg>
 </trk>
</gpx>
