<?xml version="1.0" encoding="UTF-8"?>
<!-- track-length = 39179 filtered ascend = 88 plain-ascend = 15 cost=39179 energy=0.5kwh time=52m 14s -->
<gpx 
 xmlns="http://www.topografix.com/GPX/1/1" 
 xmlns:xsi="http://www.w3.org/2001/XMLSchema-instance" 
 xsi:schemaLocation="http://www.topografix.com/GPX/1/1 http://www.topografix.com/GPX/1/1/gpx.xsd" 
 version="1.1" 
 creator="BRouter-Web 0.18.1">
 <trk>
  <name>arlanda express</name>
  <trkseg>
   <trkpt lat="59.329859" lon="18.057466"><ele>16.25</ele></trkpt>
   <trkpt lat="59.329899" lon="18.057414"><ele>16.5</ele></trkpt>
   <trkpt lat="59.32996" lon="18.05732"><ele>17</ele></trkpt>
   <trkpt lat="59.330157" lon="18.05702"><ele>17.75</ele></trkpt>
   <trkpt lat="59.330168" lon="18.057003"><ele>17.75</ele></trkpt>
   <trkpt lat="59.330222" lon="18.056921"><ele>17.5</ele></trkpt>
   <trkpt lat="59.331033" lon="18.055879"><ele>15.75</ele></trkpt>
   <trkpt lat="59.331937" lon="18.054828"><ele>13.75</ele></trkpt>
   <trkpt lat="59.332177" lon="18.054545"><ele>13.25</ele></trkpt>
   <trkpt lat="59.332698" lon="18.053953"><ele>12.25</ele></trkpt>
   <trkpt lat="59.332884" lon="18.053818"><ele>12</ele></trkpt>
   <trkpt lat="59.333135" lon="18.053497"><ele>11.25</ele></trkpt>
   <trkpt lat="59.333189" lon="18.053449"><ele>11.5</ele></trkpt>
   <trkpt lat="59.333332" lon="18.053283"><ele>10</ele></trkpt>
   <trkpt lat="59.333465" lon="18.053107"><ele>9.5</ele></trkpt>
   <trkpt lat="59.333678" lon="18.052762"><ele>9.25</ele></trkpt>
   <trkpt lat="59.333692" lon="18.052737"><ele>9.25</ele></trkpt>
   <trkpt lat="59.333839" lon="18.052473"><ele>9.25</ele></trkpt>
   <trkpt lat="59.33398" lon="18.052195"><ele>9</ele></trkpt>
   <trkpt lat="59.334118" lon="18.051911"><ele>9</ele></trkpt>
   <trkpt lat="59.334232" lon="18.051717"><ele>9</ele></trkpt>
   <trkpt lat="59.334422" lon="18.051358"><ele>9.5</ele></trkpt>
   <trkpt lat="59.334612" lon="18.05095"><ele>9.5</ele></trkpt>
   <trkpt lat="59.334764" lon="18.050583"><ele>9.25</ele></trkpt>
   <trkpt lat="59.3349" lon="18.050223"><ele>8.5</ele></trkpt>
   <trkpt lat="59.33517" lon="18.049395"><ele>9</ele></trkpt>
   <trkpt lat="59.335352" lon="18.048762"><ele>9.75</ele></trkpt>
   <trkpt lat="59.335423" lon="18.048486"><ele>9.75</ele></trkpt>
   <trkpt lat="59.335506" lon="18.048155"><ele>9.75</ele></trkpt>
   <trkpt lat="59.335656" lon="18.047453"><ele>10.25</ele></trkpt>
   <trkpt lat="59.335779" lon="18.046822"><ele>10</ele></trkpt>
   <trkpt lat="59.335971" lon="18.04572"><ele>11</ele></trkpt>
   <trkpt lat="59.336191" lon="18.044345"><ele>11.75</ele></trkpt>
   <trkpt lat="59.336241" lon="18.044059"><ele>12</ele></trkpt>
   <trkpt lat="59.336289" lon="18.043834"><ele>12</ele></trkpt>
   <trkpt lat="59.336478" lon="18.043064"><ele>12.5</ele></trkpt>
   <trkpt lat="59.336644" lon="18.042257"><ele>13.25</ele></trkpt>
   <trkpt lat="59.336773" lon="18.041512"><ele>13.75</ele></trkpt>
   <trkpt lat="59.336881" lon="18.040751"><ele>14.25</ele></trkpt>
   <trkpt lat="59.336971" lon="18.040085"><ele>14.25</ele></trkpt>
   <trkpt lat="59.33706" lon="18.039323"><ele>14</ele></trkpt>
   <trkpt lat="59.337129" lon="18.038838"><ele>13.5</ele></trkpt>
   <trkpt lat="59.337202" lon="18.038392"><ele>13</ele></trkpt>
   <trkpt lat="59.337495" lon="18.036732"><ele>13.75</ele></trkpt>
   <trkpt lat="59.337847" lon="18.03493"><ele>16.5</ele></trkpt>
   <trkpt lat="59.337989" lon="18.034291"><ele>18.25</ele></trkpt>
   <trkpt lat="59.338155" lon="18.033582"><ele>18</ele></trkpt>
   <trkpt lat="59.338314" lon="18.032953"><ele>16</ele></trkpt>
   <trkpt lat="59.338402" lon="18.032655"><ele>15.5</ele></trkpt>
   <trkpt lat="59.338697" lon="18.031592"><ele>15</ele></trkpt>
   <trkpt lat="59.338962" lon="18.030876"><ele>15.5</ele></trkpt>
   <trkpt lat="59.339209" lon="18.030287"><ele>15</ele></trkpt>
   <trkpt lat="59.339433" lon="18.029751"><ele>17</ele></trkpt>
   <trkpt lat="59.339481" lon="18.029637"><ele>17.25</ele></trkpt>
   <trkpt lat="59.339736" lon="18.029071"><ele>18.5</ele></trkpt>
   <trkpt lat="59.33984" lon="18.028846"><ele>18.75</ele></trkpt>
   <trkpt lat="59.340113" lon="18.028313"><ele>19.75</ele></trkpt>
   <trkpt lat="59.340386" lon="18.027827"><ele>20.5</ele></trkpt>
   <trkpt lat="59.340688" lon="18.02735"><ele>20.75</ele></trkpt>
   <trkpt lat="59.340892" lon="18.027055"><ele>21</ele></trkpt>
   <trkpt lat="59.341115" lon="18.026746"><ele>21.25</ele></trkpt>
   <trkpt lat="59.34152" lon="18.026248"><ele>21.75</ele></trkpt>
   <trkpt lat="59.342542" lon="18.025086"><ele>16.25</ele></trkpt>
   <trkpt lat="59.343212" lon="18.024274"><ele>18.25</ele></trkpt>
   <trkpt lat="59.343381" lon="18.024068"><ele>19</ele></trkpt>
   <trkpt lat="59.344255" lon="18.023089"><ele>22.25</ele></trkpt>
   <trkpt lat="59.344315" lon="18.02302"><ele>22.5</ele></trkpt>
   <trkpt lat="59.344753" lon="18.022471"><ele>22.75</ele></trkpt>
   <trkpt lat="59.345535" lon="18.021493"><ele>22</ele></trkpt>
   <trkpt lat="59.346003" lon="18.02093"><ele>22.25</ele></trkpt>
   <trkpt lat="59.346817" lon="18.02007"><ele>20.5</ele></trkpt>
   <trkpt lat="59.34804" lon="18.018811"><ele>22.25</ele></trkpt>
   <trkpt lat="59.348267" lon="18.018603"><ele>22.25</ele></trkpt>
   <trkpt lat="59.348504" lon="18.018417"><ele>22.5</ele></trkpt>
   <trkpt lat="59.348832" lon="18.018189"><ele>23</ele></trkpt>
   <trkpt lat="59.349058" lon="18.018063"><ele>23.5</ele></trkpt>
   <trkpt lat="59.349478" lon="18.017862"><ele>22.25</ele></trkpt>
   <trkpt lat="59.350213" lon="18.017524"><ele>20.25</ele></trkpt>
   <trkpt lat="59.351135" lon="18.017103"><ele>19.75</ele></trkpt>
   <trkpt lat="59.35145" lon="18.016942"><ele>19.5</ele></trkpt>
   <trkpt lat="59.351822" lon="18.016721"><ele>18.5</ele></trkpt>
   <trkpt lat="59.352194" lon="18.01646"><ele>16.75</ele></trkpt>
   <trkpt lat="59.352536" lon="18.016178"><ele>15.75</ele></trkpt>
   <trkpt lat="59.352556" lon="18.016163"><ele>15.75</ele></trkpt>
   <trkpt lat="59.35279" lon="18.015962"><ele>15.5</ele></trkpt>
   <trkpt lat="59.353138" lon="18.015631"><ele>15.5</ele></trkpt>
   <trkpt lat="59.353953" lon="18.014709"><ele>15</ele></trkpt>
   <trkpt lat="59.354157" lon="18.014485"><ele>15.25</ele></trkpt>
   <trkpt lat="59.354412" lon="18.014227"><ele>15.75</ele></trkpt>
   <trkpt lat="59.354699" lon="18.013982"><ele>16</ele></trkpt>
   <trkpt lat="59.354928" lon="18.013816"><ele>16</ele></trkpt>
   <trkpt lat="59.355367" lon="18.013561"><ele>17.25</ele></trkpt>
   <trkpt lat="59.356321" lon="18.013149"><ele>19.5</ele></trkpt>
   <trkpt lat="59.356649" lon="18.013013"><ele>19.75</ele></trkpt>
   <trkpt lat="59.35688" lon="18.012903"><ele>19.25</ele></trkpt>
   <trkpt lat="59.358031" lon="18.012298"><ele>16</ele></trkpt>
   <trkpt lat="59.359114" lon="18.011831"><ele>15</ele></trkpt>
   <trkpt lat="59.359571" lon="18.011646"><ele>16</ele></trkpt>
   <trkpt lat="59.359589" lon="18.011639"><ele>16</ele></trkpt>
   <trkpt lat="59.360038" lon="18.011484"><ele>17.75</ele></trkpt>
   <trkpt lat="59.360416" lon="18.011387"><ele>18.25</ele></trkpt>
   <trkpt lat="59.361386" lon="18.011103"><ele>19.75</ele></trkpt>
   <trkpt lat="59.361882" lon="18.010915"><ele>20.75</ele></trkpt>
   <trkpt lat="59.362466" lon="18.010763"><ele>21.5</ele></trkpt>
   <trkpt lat="59.363252" lon="18.010556"><ele>23</ele></trkpt>
   <trkpt lat="59.364029" lon="18.010356"><ele>24.25</ele></trkpt>
   <trkpt lat="59.364164" lon="18.010321"><ele>24.5</ele></trkpt>
   <trkpt lat="59.364267" lon="18.010286"><ele>24.5</ele></trkpt>
   <trkpt lat="59.364401" lon="18.010247"><ele>23</ele></trkpt>
   <trkpt lat="59.364706" lon="18.010147"><ele>19.5</ele></trkpt>
   <trkpt lat="59.364741" lon="18.010136"><ele>19.25</ele></trkpt>
   <trkpt lat="59.365159" lon="18.009907"><ele>15.5</ele></trkpt>
   <trkpt lat="59.365624" lon="18.009583"><ele>14.25</ele></trkpt>
   <trkpt lat="59.365952" lon="18.009435"><ele>13</ele></trkpt>
   <trkpt lat="59.366697" lon="18.009095"><ele>10.75</ele></trkpt>
   <trkpt lat="59.36718" lon="18.008873"><ele>9.5</ele></trkpt>
   <trkpt lat="59.367652" lon="18.008656"><ele>8</ele></trkpt>
   <trkpt lat="59.367814" lon="18.008582"><ele>7.75</ele></trkpt>
   <trkpt lat="59.368946" lon="18.008058"><ele>8</ele></trkpt>
   <trkpt lat="59.369387" lon="18.007856"><ele>8.25</ele></trkpt>
   <trkpt lat="59.369396" lon="18.007852"><ele>8.25</ele></trkpt>
   <trkpt lat="59.369557" lon="18.007783"><ele>8.5</ele></trkpt>
   <trkpt lat="59.369941" lon="18.007651"><ele>9</ele></trkpt>
   <trkpt lat="59.370786" lon="18.007291"><ele>9.5</ele></trkpt>
   <trkpt lat="59.371134" lon="18.007122"><ele>9.25</ele></trkpt>
   <trkpt lat="59.371468" lon="18.00697"><ele>9</ele></trkpt>
   <trkpt lat="59.371827" lon="18.006783"><ele>8.75</ele></trkpt>
   <trkpt lat="59.372532" lon="18.00638"><ele>7.5</ele></trkpt>
   <trkpt lat="59.372887" lon="18.00615"><ele>7</ele></trkpt>
   <trkpt lat="59.373045" lon="18.006048"><ele>6.75</ele></trkpt>
   <trkpt lat="59.373557" lon="18.005678"><ele>7</ele></trkpt>
   <trkpt lat="59.375037" lon="18.004527"><ele>9.5</ele></trkpt>
   <trkpt lat="59.375295" lon="18.004325"><ele>10</ele></trkpt>
   <trkpt lat="59.375425" lon="18.004224"><ele>10</ele></trkpt>
   <trkpt lat="59.375545" lon="18.00413"><ele>10</ele></trkpt>
   <trkpt lat="59.375826" lon="18.003909"><ele>10.25</ele></trkpt>
   <trkpt lat="59.376063" lon="18.003724"><ele>11.25</ele></trkpt>
   <trkpt lat="59.376935" lon="18.003171"><ele>15</ele></trkpt>
   <trkpt lat="59.377297" lon="18.002897"><ele>16.5</ele></trkpt>
   <trkpt lat="59.377523" lon="18.002703"><ele>17.25</ele></trkpt>
   <trkpt lat="59.378054" lon="18.002379"><ele>18.5</ele></trkpt>
   <trkpt lat="59.37824" lon="18.002242"><ele>18.75</ele></trkpt>
   <trkpt lat="59.378821" lon="18.001781"><ele>16.75</ele></trkpt>
   <trkpt lat="59.380077" lon="18.000801"><ele>16.75</ele></trkpt>
   <trkpt lat="59.380238" lon="18.000679"><ele>16.75</ele></trkpt>
   <trkpt lat="59.380744" lon="18.000265"><ele>16.75</ele></trkpt>
   <trkpt lat="59.38119" lon="17.999901"><ele>15.5</ele></trkpt>
   <trkpt lat="59.38171" lon="17.999512"><ele>15.75</ele></trkpt>
   <trkpt lat="59.382193" lon="17.999063"><ele>16.25</ele></trkpt>
   <trkpt lat="59.382934" lon="17.998383"><ele>14.75</ele></trkpt>
   <trkpt lat="59.383157" lon="17.998125"><ele>14</ele></trkpt>
   <trkpt lat="59.383885" lon="17.997154"><ele>13.75</ele></trkpt>
   <trkpt lat="59.384698" lon="17.995953"><ele>15.75</ele></trkpt>
   <trkpt lat="59.385083" lon="17.995357"><ele>16</ele></trkpt>
   <trkpt lat="59.385506" lon="17.99478"><ele>16</ele></trkpt>
   <trkpt lat="59.385912" lon="17.994142"><ele>16.75</ele></trkpt>
   <trkpt lat="59.386804" lon="17.992769"><ele>20.25</ele></trkpt>
   <trkpt lat="59.387262" lon="17.992125"><ele>23</ele></trkpt>
   <trkpt lat="59.38766" lon="17.991583"><ele>23.5</ele></trkpt>
   <trkpt lat="59.388201" lon="17.990921"><ele>27.75</ele></trkpt>
   <trkpt lat="59.388611" lon="17.990467"><ele>27.25</ele></trkpt>
   <trkpt lat="59.389022" lon="17.990049"><ele>23.25</ele></trkpt>
   <trkpt lat="59.389782" lon="17.989352"><ele>23</ele></trkpt>
   <trkpt lat="59.390198" lon="17.98903"><ele>20.75</ele></trkpt>
   <trkpt lat="59.390632" lon="17.988716"><ele>18</ele></trkpt>
   <trkpt lat="59.391069" lon="17.988426"><ele>16.25</ele></trkpt>
   <trkpt lat="59.3915" lon="17.988166"><ele>15</ele></trkpt>
   <trkpt lat="59.39198" lon="17.987914"><ele>14.75</ele></trkpt>
   <trkpt lat="59.392379" lon="17.987718"><ele>15.75</ele></trkpt>
   <trkpt lat="59.392766" lon="17.987506"><ele>17.25</ele></trkpt>
   <trkpt lat="59.393551" lon="17.987125"><ele>21.25</ele></trkpt>
   <trkpt lat="59.394164" lon="17.9868"><ele>24.25</ele></trkpt>
   <trkpt lat="59.394715" lon="17.986459"><ele>24.75</ele></trkpt>
   <trkpt lat="59.395171" lon="17.986148"><ele>25</ele></trkpt>
   <trkpt lat="59.395626" lon="17.985802"><ele>24</ele></trkpt>
   <trkpt lat="59.396019" lon="17.985467"><ele>22.75</ele></trkpt>
   <trkpt lat="59.396065" lon="17.985424"><ele>22.75</ele></trkpt>
   <trkpt lat="59.396509" lon="17.985011"><ele>22</ele></trkpt>
   <trkpt lat="59.396906" lon="17.984602"><ele>23.75</ele></trkpt>
   <trkpt lat="59.397327" lon="17.984131"><ele>25.25</ele></trkpt>
   <trkpt lat="59.397738" lon="17.983629"><ele>25.5</ele></trkpt>
   <trkpt lat="59.398136" lon="17.983106"><ele>26.5</ele></trkpt>
   <trkpt lat="59.398521" lon="17.982548"><ele>27.75</ele></trkpt>
   <trkpt lat="59.398885" lon="17.981977"><ele>28.75</ele></trkpt>
   <trkpt lat="59.399176" lon="17.9815"><ele>29.5</ele></trkpt>
   <trkpt lat="59.399517" lon="17.980891"><ele>31.25</ele></trkpt>
   <trkpt lat="59.399852" lon="17.980244"><ele>30.75</ele></trkpt>
   <trkpt lat="59.400536" lon="17.978847"><ele>34.25</ele></trkpt>
   <trkpt lat="59.401071" lon="17.977693"><ele>35</ele></trkpt>
   <trkpt lat="59.402066" lon="17.975564"><ele>36</ele></trkpt>
   <trkpt lat="59.402749" lon="17.974115"><ele>36.5</ele></trkpt>
   <trkpt lat="59.40276" lon="17.974091"><ele>36.5</ele></trkpt>
   <trkpt lat="59.4032" lon="17.973174"><ele>36.5</ele></trkpt>
   <trkpt lat="59.405164" lon="17.968974"><ele>39.75</ele></trkpt>
   <trkpt lat="59.405534" lon="17.968196"><ele>40.5</ele></trkpt>
   <trkpt lat="59.405881" lon="17.967488"><ele>40</ele></trkpt>
   <trkpt lat="59.406223" lon="17.96682"><ele>40.25</ele></trkpt>
   <trkpt lat="59.406583" lon="17.966159"><ele>40</ele></trkpt>
   <trkpt lat="59.40692" lon="17.96557"><ele>41</ele></trkpt>
   <trkpt lat="59.407205" lon="17.965103"><ele>41.25</ele></trkpt>
   <trkpt lat="59.407676" lon="17.964387"><ele>43</ele></trkpt>
   <trkpt lat="59.407935" lon="17.964012"><ele>44</ele></trkpt>
   <trkpt lat="59.408336" lon="17.96347"><ele>43.75</ele></trkpt>
   <trkpt lat="59.408749" lon="17.962951"><ele>45</ele></trkpt>
   <trkpt lat="59.409169" lon="17.962459"><ele>44.75</ele></trkpt>
   <trkpt lat="59.409359" lon="17.962255"><ele>43</ele></trkpt>
   <trkpt lat="59.409571" lon="17.96203"><ele>41.25</ele></trkpt>
   <trkpt lat="59.410022" lon="17.961568"><ele>39</ele></trkpt>
   <trkpt lat="59.410436" lon="17.961182"><ele>39.5</ele></trkpt>
   <trkpt lat="59.410886" lon="17.960796"><ele>40</ele></trkpt>
   <trkpt lat="59.411346" lon="17.960439"><ele>40.5</ele></trkpt>
   <trkpt lat="59.411854" lon="17.960082"><ele>40.75</ele></trkpt>
   <trkpt lat="59.412397" lon="17.959728"><ele>40.25</ele></trkpt>
   <trkpt lat="59.414058" lon="17.95876"><ele>38.5</ele></trkpt>
   <trkpt lat="59.414643" lon="17.958404"><ele>36</ele></trkpt>
   <trkpt lat="59.415561" lon="17.95787"><ele>33.25</ele></trkpt>
   <trkpt lat="59.416414" lon="17.957379"><ele>33.75</ele></trkpt>
   <trkpt lat="59.417153" lon="17.956938"><ele>34.5</ele></trkpt>
   <trkpt lat="59.417682" lon="17.956625"><ele>34.5</ele></trkpt>
   <trkpt lat="59.418548" lon="17.956043"><ele>34.75</ele></trkpt>
   <trkpt lat="59.419417" lon="17.955533"><ele>33.25</ele></trkpt>
   <trkpt lat="59.419838" lon="17.955294"><ele>32.25</ele></trkpt>
   <trkpt lat="59.420375" lon="17.954962"><ele>30.75</ele></trkpt>
   <trkpt lat="59.421445" lon="17.954353"><ele>28.75</ele></trkpt>
   <trkpt lat="59.422504" lon="17.953709"><ele>24.25</ele></trkpt>
   <trkpt lat="59.422927" lon="17.95343"><ele>23.5</ele></trkpt>
   <trkpt lat="59.423943" lon="17.952706"><ele>23</ele></trkpt>
   <trkpt lat="59.424825" lon="17.952006"><ele>22.5</ele></trkpt>
   <trkpt lat="59.425361" lon="17.951547"><ele>21.75</ele></trkpt>
   <trkpt lat="59.425919" lon="17.951043"><ele>23</ele></trkpt>
   <trkpt lat="59.426238" lon="17.950736"><ele>24.25</ele></trkpt>
   <trkpt lat="59.426861" lon="17.950125"><ele>23.75</ele></trkpt>
   <trkpt lat="59.427897" lon="17.949085"><ele>22.25</ele></trkpt>
   <trkpt lat="59.428425" lon="17.948584"><ele>22.5</ele></trkpt>
   <trkpt lat="59.428924" lon="17.948081"><ele>23.25</ele></trkpt>
   <trkpt lat="59.431939" lon="17.94509"><ele>21.25</ele></trkpt>
   <trkpt lat="59.432357" lon="17.944666"><ele>20</ele></trkpt>
   <trkpt lat="59.432878" lon="17.944159"><ele>19.25</ele></trkpt>
   <trkpt lat="59.433403" lon="17.943623"><ele>19.25</ele></trkpt>
   <trkpt lat="59.434292" lon="17.942752"><ele>18.25</ele></trkpt>
   <trkpt lat="59.435481" lon="17.941566"><ele>19</ele></trkpt>
   <trkpt lat="59.435968" lon="17.941053"><ele>19.5</ele></trkpt>
   <trkpt lat="59.436486" lon="17.940525"><ele>19</ele></trkpt>
   <trkpt lat="59.436997" lon="17.940007"><ele>19</ele></trkpt>
   <trkpt lat="59.438369" lon="17.938588"><ele>19.25</ele></trkpt>
   <trkpt lat="59.438771" lon="17.938188"><ele>19.5</ele></trkpt>
   <trkpt lat="59.439266" lon="17.937761"><ele>19.5</ele></trkpt>
   <trkpt lat="59.440974" lon="17.936007"><ele>21.5</ele></trkpt>
   <trkpt lat="59.441907" lon="17.935049"><ele>19.75</ele></trkpt>
   <trkpt lat="59.442369" lon="17.934587"><ele>20.75</ele></trkpt>
   <trkpt lat="59.443833" lon="17.933066"><ele>23.5</ele></trkpt>
   <trkpt lat="59.444306" lon="17.932565"><ele>23.25</ele></trkpt>
   <trkpt lat="59.445085" lon="17.93176"><ele>22.25</ele></trkpt>
   <trkpt lat="59.447339" lon="17.929452"><ele>22.25</ele></trkpt>
   <trkpt lat="59.448334" lon="17.928469"><ele>21.5</ele></trkpt>
   <trkpt lat="59.448806" lon="17.928053"><ele>20</ele></trkpt>
   <trkpt lat="59.449274" lon="17.927675"><ele>20</ele></trkpt>
   <trkpt lat="59.449783" lon="17.927287"><ele>18.75</ele></trkpt>
   <trkpt lat="59.450139" lon="17.927035"><ele>17.25</ele></trkpt>
   <trkpt lat="59.450762" lon="17.92663"><ele>14.25</ele></trkpt>
   <trkpt lat="59.451229" lon="17.926365"><ele>13</ele></trkpt>
   <trkpt lat="59.451989" lon="17.925994"><ele>12.5</ele></trkpt>
   <trkpt lat="59.452378" lon="17.925823"><ele>13</ele></trkpt>
   <trkpt lat="59.452858" lon="17.92565"><ele>12.5</ele></trkpt>
   <trkpt lat="59.453375" lon="17.925482"><ele>12</ele></trkpt>
   <trkpt lat="59.45441" lon="17.925244"><ele>11.5</ele></trkpt>
   <trkpt lat="59.456036" lon="17.92497"><ele>11</ele></trkpt>
   <trkpt lat="59.457211" lon="17.924795"><ele>11.75</ele></trkpt>
   <trkpt lat="59.458407" lon="17.92459"><ele>11.5</ele></trkpt>
   <trkpt lat="59.458473" lon="17.924579"><ele>11.5</ele></trkpt>
   <trkpt lat="59.459123" lon="17.924481"><ele>11.75</ele></trkpt>
   <trkpt lat="59.460587" lon="17.924251"><ele>13.5</ele></trkpt>
   <trkpt lat="59.461637" lon="17.924074"><ele>12.75</ele></trkpt>
   <trkpt lat="59.4627" lon="17.92382"><ele>10.5</ele></trkpt>
   <trkpt lat="59.463232" lon="17.923661"><ele>10.75</ele></trkpt>
   <trkpt lat="59.463752" lon="17.923468"><ele>11</ele></trkpt>
   <trkpt lat="59.464299" lon="17.923244"><ele>11.25</ele></trkpt>
   <trkpt lat="59.464822" lon="17.922984"><ele>12</ele></trkpt>
   <trkpt lat="59.465331" lon="17.922713"><ele>13.5</ele></trkpt>
   <trkpt lat="59.465871" lon="17.922402"><ele>14.75</ele></trkpt>
   <trkpt lat="59.466649" lon="17.921954"><ele>13.5</ele></trkpt>
   <trkpt lat="59.467221" lon="17.921609"><ele>13.25</ele></trkpt>
   <trkpt lat="59.468493" lon="17.920881"><ele>15.25</ele></trkpt>
   <trkpt lat="59.468932" lon="17.920601"><ele>15.5</ele></trkpt>
   <trkpt lat="59.469806" lon="17.92008"><ele>13</ele></trkpt>
   <trkpt lat="59.470756" lon="17.919446"><ele>15.5</ele></trkpt>
   <trkpt lat="59.471254" lon="17.919074"><ele>15.5</ele></trkpt>
   <trkpt lat="59.47171" lon="17.918703"><ele>13.75</ele></trkpt>
   <trkpt lat="59.472142" lon="17.918332"><ele>13.25</ele></trkpt>
   <trkpt lat="59.472979" lon="17.917573"><ele>12.75</ele></trkpt>
   <trkpt lat="59.474188" lon="17.916432"><ele>13.25</ele></trkpt>
   <trkpt lat="59.47433" lon="17.916299"><ele>13</ele></trkpt>
   <trkpt lat="59.474674" lon="17.915976"><ele>12.5</ele></trkpt>
   <trkpt lat="59.47587" lon="17.914841"><ele>12</ele></trkpt>
   <trkpt lat="59.47682" lon="17.913945"><ele>11.75</ele></trkpt>
   <trkpt lat="59.479442" lon="17.911517"><ele>10</ele></trkpt>
   <trkpt lat="59.480534" lon="17.91053"><ele>9.75</ele></trkpt>
   <trkpt lat="59.482032" lon="17.909126"><ele>11</ele></trkpt>
   <trkpt lat="59.4827" lon="17.908533"><ele>9.5</ele></trkpt>
   <trkpt lat="59.483002" lon="17.908266"><ele>8.75</ele></trkpt>
   <trkpt lat="59.483882" lon="17.907447"><ele>8.25</ele></trkpt>
   <trkpt lat="59.484348" lon="17.906953"><ele>8</ele></trkpt>
   <trkpt lat="59.48455" lon="17.906739"><ele>8</ele></trkpt>
   <trkpt lat="59.484892" lon="17.906427"><ele>8.25</ele></trkpt>
   <trkpt lat="59.486272" lon="17.905174"><ele>9</ele></trkpt>
   <trkpt lat="59.486783" lon="17.904725"><ele>8.75</ele></trkpt>
   <trkpt lat="59.489218" lon="17.902483"><ele>12.25</ele></trkpt>
   <trkpt lat="59.490206" lon="17.901582"><ele>15.25</ele></trkpt>
   <trkpt lat="59.491206" lon="17.900691"><ele>14.75</ele></trkpt>
   <trkpt lat="59.4925" lon="17.899494"><ele>15.5</ele></trkpt>
   <trkpt lat="59.493167" lon="17.898881"><ele>17.75</ele></trkpt>
   <trkpt lat="59.49419" lon="17.897961"><ele>19.25</ele></trkpt>
   <trkpt lat="59.495214" lon="17.897022"><ele>20</ele></trkpt>
   <trkpt lat="59.496276" lon="17.896019"><ele>25.5</ele></trkpt>
   <trkpt lat="59.496755" lon="17.895583"><ele>26.75</ele></trkpt>
   <trkpt lat="59.497262" lon="17.895122"><ele>24.25</ele></trkpt>
   <trkpt lat="59.497753" lon="17.894707"><ele>21.5</ele></trkpt>
   <trkpt lat="59.498261" lon="17.894275"><ele>21.25</ele></trkpt>
   <trkpt lat="59.499288" lon="17.893551"><ele>18.25</ele></trkpt>
   <trkpt lat="59.499813" lon="17.893219"><ele>18.5</ele></trkpt>
   <trkpt lat="59.50032" lon="17.892897"><ele>19.25</ele></trkpt>
   <trkpt lat="59.500723" lon="17.892701"><ele>18</ele></trkpt>
   <trkpt lat="59.500786" lon="17.892675"><ele>17.75</ele></trkpt>
   <trkpt lat="59.50216" lon="17.892124"><ele>16.5</ele></trkpt>
   <trkpt lat="59.50299" lon="17.891915"><ele>16.25</ele></trkpt>
   <trkpt lat="59.504254" lon="17.891684"><ele>13.5</ele></trkpt>
   <trkpt lat="59.504793" lon="17.891636"><ele>10.75</ele></trkpt>
   <trkpt lat="59.505378" lon="17.891663"><ele>9.5</ele></trkpt>
   <trkpt lat="59.50644" lon="17.891744"><ele>9</ele></trkpt>
   <trkpt lat="59.506973" lon="17.891824"><ele>9.25</ele></trkpt>
   <trkpt lat="59.507537" lon="17.891985"><ele>10</ele></trkpt>
   <trkpt lat="59.508535" lon="17.892317"><ele>10</ele></trkpt>
   <trkpt lat="59.509495" lon="17.892719"><ele>9.5</ele></trkpt>
   <trkpt lat="59.509557" lon="17.892749"><ele>9.5</ele></trkpt>
   <trkpt lat="59.510582" lon="17.893304"><ele>9.5</ele></trkpt>
   <trkpt lat="59.511102" lon="17.8936"><ele>9.5</ele></trkpt>
   <trkpt lat="59.511452" lon="17.893801"><ele>9.25</ele></trkpt>
   <trkpt lat="59.512206" lon="17.894141"><ele>9</ele></trkpt>
   <trkpt lat="59.512736" lon="17.894441"><ele>8.75</ele></trkpt>
   <trkpt lat="59.513387" lon="17.894716"><ele>8.75</ele></trkpt>
   <trkpt lat="59.513891" lon="17.895008"><ele>8.25</ele></trkpt>
   <trkpt lat="59.51518" lon="17.895732"><ele>8</ele></trkpt>
   <trkpt lat="59.515882" lon="17.896113"><ele>8.5</ele></trkpt>
   <trkpt lat="59.516813" lon="17.896649"><ele>8.25</ele></trkpt>
   <trkpt lat="59.517523" lon="17.897019"><ele>10</ele></trkpt>
   <trkpt lat="59.51815" lon="17.897317"><ele>12</ele></trkpt>
   <trkpt lat="59.518345" lon="17.897411"><ele>12.25</ele></trkpt>
   <trkpt lat="59.519632" lon="17.898119"><ele>8.5</ele></trkpt>
   <trkpt lat="59.520922" lon="17.89881"><ele>8</ele></trkpt>
   <trkpt lat="59.521526" lon="17.899116"><ele>8.75</ele></trkpt>
   <trkpt lat="59.522511" lon="17.899675"><ele>9</ele></trkpt>
   <trkpt lat="59.523801" lon="17.900367"><ele>10</ele></trkpt>
   <trkpt lat="59.524343" lon="17.900639"><ele>10.75</ele></trkpt>
   <trkpt lat="59.524889" lon="17.900882"><ele>11.5</ele></trkpt>
   <trkpt lat="59.525723" lon="17.901181"><ele>7.75</ele></trkpt>
   <trkpt lat="59.526226" lon="17.901327"><ele>7.25</ele></trkpt>
   <trkpt lat="59.526876" lon="17.901482"><ele>7.25</ele></trkpt>
   <trkpt lat="59.527326" lon="17.90152"><ele>7.5</ele></trkpt>
   <trkpt lat="59.528133" lon="17.90159"><ele>8.5</ele></trkpt>
   <trkpt lat="59.528704" lon="17.901595"><ele>9.25</ele></trkpt>
   <trkpt lat="59.529255" lon="17.901569"><ele>9.75</ele></trkpt>
   <trkpt lat="59.530758" lon="17.901266"><ele>15</ele></trkpt>
   <trkpt lat="59.532081" lon="17.900839"><ele>15.5</ele></trkpt>
   <trkpt lat="59.533444" lon="17.900345"><ele>16</ele></trkpt>
   <trkpt lat="59.535174" lon="17.899651"><ele>20.25</ele></trkpt>
   <trkpt lat="59.53568" lon="17.899461"><ele>20.25</ele></trkpt>
   <trkpt lat="59.537074" lon="17.898932"><ele>24.5</ele></trkpt>
   <trkpt lat="59.538209" lon="17.898517"><ele>27</ele></trkpt>
   <trkpt lat="59.538625" lon="17.898366"><ele>26.5</ele></trkpt>
   <trkpt lat="59.540239" lon="17.897834"><ele>28.25</ele></trkpt>
   <trkpt lat="59.541602" lon="17.897316"><ele>34.5</ele></trkpt>
   <trkpt lat="59.543259" lon="17.896725"><ele>33</ele></trkpt>
   <trkpt lat="59.544154" lon="17.896417"><ele>32.5</ele></trkpt>
   <trkpt lat="59.544498" lon="17.896334"><ele>31.25</ele></trkpt>
   <trkpt lat="59.544903" lon="17.896238"><ele>30</ele></trkpt>
   <trkpt lat="59.545398" lon="17.896165"><ele>28.25</ele></trkpt>
   <trkpt lat="59.545922" lon="17.89609"><ele>26</ele></trkpt>
   <trkpt lat="59.546483" lon="17.896035"><ele>22.75</ele></trkpt>
   <trkpt lat="59.547073" lon="17.895971"><ele>20.25</ele></trkpt>
   <trkpt lat="59.548121" lon="17.895941"><ele>18.5</ele></trkpt>
   <trkpt lat="59.550132" lon="17.895756"><ele>12.75</ele></trkpt>
   <trkpt lat="59.551069" lon="17.895651"><ele>13.25</ele></trkpt>
   <trkpt lat="59.551697" lon="17.895655"><ele>13.25</ele></trkpt>
   <trkpt lat="59.552663" lon="17.895581"><ele>8.25</ele></trkpt>
   <trkpt lat="59.553447" lon="17.895571"><ele>9</ele></trkpt>
   <trkpt lat="59.5539" lon="17.895565"><ele>9</ele></trkpt>
   <trkpt lat="59.554546" lon="17.895489"><ele>9</ele></trkpt>
   <trkpt lat="59.555308" lon="17.895397"><ele>9</ele></trkpt>
   <trkpt lat="59.556519" lon="17.895253"><ele>10.5</ele></trkpt>
   <trkpt lat="59.557825" lon="17.895152"><ele>13.5</ele></trkpt>
   <trkpt lat="59.559753" lon="17.894958"><ele>15.25</ele></trkpt>
   <trkpt lat="59.560416" lon="17.894866"><ele>15.75</ele></trkpt>
   <trkpt lat="59.561262" lon="17.894781"><ele>14.75</ele></trkpt>
   <trkpt lat="59.562416" lon="17.894665"><ele>12</ele></trkpt>
   <trkpt lat="59.562955" lon="17.894613"><ele>10.5</ele></trkpt>
   <trkpt lat="59.564127" lon="17.894517"><ele>11.5</ele></trkpt>
   <trkpt lat="59.564801" lon="17.894531"><ele>12.75</ele></trkpt>
   <trkpt lat="59.565614" lon="17.894568"><ele>14.5</ele></trkpt>
   <trkpt lat="59.566721" lon="17.894757"><ele>15.25</ele></trkpt>
   <trkpt lat="59.567677" lon="17.894981"><ele>15.25</ele></trkpt>
   <trkpt lat="59.568949" lon="17.895429"><ele>17.25</ele></trkpt>
   <trkpt lat="59.569528" lon="17.895704"><ele>17.5</ele></trkpt>
   <trkpt lat="59.569938" lon="17.895895"><ele>17</ele></trkpt>
   <trkpt lat="59.571232" lon="17.89653"><ele>15.5</ele></trkpt>
   <trkpt lat="59.571862" lon="17.896839"><ele>14.75</ele></trkpt>
   <trkpt lat="59.572336" lon="17.897076"><ele>14.75</ele></trkpt>
   <trkpt lat="59.572878" lon="17.897367"><ele>15</ele></trkpt>
   <trkpt lat="59.573943" lon="17.897929"><ele>15</ele></trkpt>
   <trkpt lat="59.574726" lon="17.898298"><ele>16.75</ele></trkpt>
   <trkpt lat="59.574768" lon="17.898319"><ele>17</ele></trkpt>
   <trkpt lat="59.575281" lon="17.898567"><ele>18.75</ele></trkpt>
   <trkpt lat="59.57612" lon="17.898908"><ele>22.5</ele></trkpt>
   <trkpt lat="59.57695" lon="17.899171"><ele>24.75</ele></trkpt>
   <trkpt lat="59.578344" lon="17.899466"><ele>21.75</ele></trkpt>
   <trkpt lat="59.580139" lon="17.899628"><ele>21</ele></trkpt>
   <trkpt lat="59.583739" lon="17.899973"><ele>20.5</ele></trkpt>
   <trkpt lat="59.585667" lon="17.899902"><ele>20</ele></trkpt>
   <trkpt lat="59.587433" lon="17.899345"><ele>20</ele></trkpt>
   <trkpt lat="59.588472" lon="17.898947"><ele>20</ele></trkpt>
   <trkpt lat="59.588762" lon="17.89882"><ele>20</ele></trkpt>
   <trkpt lat="59.58908" lon="17.89868"><ele>20</ele></trkpt>
   <trkpt lat="59.589783" lon="17.898396"><ele>20.75</ele></trkpt>
   <trkpt lat="59.590993" lon="17.897933"><ele>22.75</ele></trkpt>
   <trkpt lat="59.591783" lon="17.897725"><ele>25</ele></trkpt>
   <trkpt lat="59.592597" lon="17.897567"><ele>28.25</ele></trkpt>
   <trkpt lat="59.593341" lon="17.897502"><ele>27.75</ele></trkpt>
   <trkpt lat="59.594113" lon="17.897467"><ele>26</ele></trkpt>
   <trkpt lat="59.594932" lon="17.897568"><ele>24.25</ele></trkpt>
   <trkpt lat="59.595634" lon="17.89767"><ele>24</ele></trkpt>
   <trkpt lat="59.596728" lon="17.897952"><ele>25</ele></trkpt>
   <trkpt lat="59.59731" lon="17.898147"><ele>25.75</ele></trkpt>
   <trkpt lat="59.597938" lon="17.89841"><ele>27.25</ele></trkpt>
   <trkpt lat="59.598587" lon="17.898743"><ele>28.5</ele></trkpt>
   <trkpt lat="59.599145" lon="17.899066"><ele>28</ele></trkpt>
   <trkpt lat="59.599664" lon="17.899395"><ele>27.5</ele></trkpt>
   <trkpt lat="59.600156" lon="17.899745"><ele>27</ele></trkpt>
   <trkpt lat="59.600663" lon="17.900132"><ele>28.25</ele></trkpt>
   <trkpt lat="59.601134" lon="17.900524"><ele>30</ele></trkpt>
   <trkpt lat="59.601666" lon="17.901007"><ele>30.25</ele></trkpt>
   <trkpt lat="59.602312" lon="17.901652"><ele>30.25</ele></trkpt>
   <trkpt lat="59.602591" lon="17.901945"><ele>30.75</ele></trkpt>
   <trkpt lat="59.603475" lon="17.9029"><ele>31.25</ele></trkpt>
   <trkpt lat="59.604702" lon="17.904284"><ele>29.25</ele></trkpt>
   <trkpt lat="59.606014" lon="17.90577"><ele>30</ele></trkpt>
   <trkpt lat="59.609863" lon="17.91013"><ele>33.25</ele></trkpt>
   <trkpt lat="59.610542" lon="17.910881"><ele>34.75</ele></trkpt>
   <trkpt lat="59.610782" lon="17.911163"><ele>34.5</ele></trkpt>
   <trkpt lat="59.612372" lon="17.912964"><ele>32.75</ele></trkpt>
   <trkpt lat="59.613184" lon="17.913868"><ele>32.75</ele></trkpt>
   <trkpt lat="59.613733" lon="17.914485"><ele>33.25</ele></trkpt>
   <trkpt lat="59.614086" lon="17.914867"><ele>33</ele></trkpt>
   <trkpt lat="59.614271" lon="17.915064"><ele>33.25</ele></trkpt>
   <trkpt lat="59.614821" lon="17.915613"><ele>37</ele></trkpt>
   <trkpt lat="59.615438" lon="17.916208"><ele>39.75</ele></trkpt>
   <trkpt lat="59.616651" lon="17.917269"><ele>38.5</ele></trkpt>
   <trkpt lat="59.617136" lon="17.917665"><ele>41.5</ele></trkpt>
   <trkpt lat="59.617655" lon="17.918059"><ele>41</ele></trkpt>
   <trkpt lat="59.618738" lon="17.918821"><ele>40.75</ele></trkpt>
   <trkpt lat="59.61968" lon="17.9194"><ele>39.25</ele></trkpt>
   <trkpt lat="59.620309" lon="17.919746"><ele>38.5</ele></trkpt>
   <trkpt lat="59.62086" lon="17.920016"><ele>37</ele></trkpt>
   <trkpt lat="59.621461" lon="17.920335"><ele>37.75</ele></trkpt>
   <trkpt lat="59.622053" lon="17.920557"><ele>36.25</ele></trkpt>
   <trkpt lat="59.622353" lon="17.920651"><ele>35.25</ele></trkpt>
   <trkpt lat="59.622792" lon="17.920817"><ele>34.25</ele></trkpt>
   <trkpt lat="59.623216" lon="17.92096"><ele>33.5</ele></trkpt>
   <trkpt lat="59.62375" lon="17.921125"><ele>33.5</ele></trkpt>
   <trkpt lat="59.62432" lon="17.92128"><ele>33.5</ele></trkpt>
   <trkpt lat="59.6254" lon="17.921542"><ele>31.25</ele></trkpt>
   <trkpt lat="59.62578" lon="17.921618"><ele>30</ele></trkpt>
   <trkpt lat="59.625808" lon="17.921625"><ele>30</ele></trkpt>
   <trkpt lat="59.626879" lon="17.921906"><ele>29</ele></trkpt>
   <trkpt lat="59.627305" lon="17.92199"><ele>29.25</ele></trkpt>
   <trkpt lat="59.628381" lon="17.922259"><ele>30.75</ele></trkpt>
   <trkpt lat="59.628604" lon="17.922329"/>
   <trkpt lat="59.62936" lon="17.922439"/>
   <trkpt lat="59.630086" lon="17.922653"/>
   <trkpt lat="59.630933" lon="17.922642"/>
   <trkpt lat="59.632214" lon="17.922645"/>
   <trkpt lat="59.632731" lon="17.922629"/>
   <trkpt lat="59.633479" lon="17.922786"/>
   <trkpt lat="59.634552" lon="17.923101"/>
   <trkpt lat="59.63549" lon="17.923431"/>
   <trkpt lat="59.636659" lon="17.924155"/>
   <trkpt lat="59.638607" lon="17.925429"/>
   <trkpt lat="59.639668" lon="17.925886"/>
   <trkpt lat="59.641058" lon="17.926494"/>
   <trkpt lat="59.648165" lon="17.928927"/>
   <trkpt lat="59.649096" lon="17.929293"/>
   <trkpt lat="59.649637" lon="17.929541"/>
   <trkpt lat="59.650135" lon="17.929883"/>
   <trkpt lat="59.650431" lon="17.930238"/>
   <trkpt lat="59.650611" lon="17.930485"/>
   <trkpt lat="59.651531" lon="17.932124"/>
  </trkseg>
 </trk>
</gpx>