<?xml version="1.0" encoding="UTF-8"?>
<!-- track-length = 43325 filtered ascend = 419 plain-ascend = 244 cost=43325 energy=.6kwh time=57m 46s -->
<gpx 
 xmlns="http://www.topografix.com/GPX/1/1" 
 xmlns:xsi="http://www.w3.org/2001/XMLSchema-instance" 
 xsi:schemaLocation="http://www.topografix.com/GPX/1/1 http://www.topografix.com/GPX/1/1/gpx.xsd" 
 creator="BRouter-1.7.0" version="1.1">
 <trk>
  <name>badschandaurumburk</name>
  <trkseg>
   <trkpt lon="14.145432" lat="50.917172"><ele>144.75</ele></trkpt>
   <trkpt lon="14.145222" lat="50.917227"><ele>144.5</ele></trkpt>
   <trkpt lon="14.144176" lat="50.917572"><ele>139.0</ele></trkpt>
   <trkpt lon="14.143762" lat="50.917688"><ele>140.0</ele></trkpt>
   <trkpt lon="14.142158" lat="50.918131"><ele>136.0</ele></trkpt>
   <trkpt lon="14.141459" lat="50.918322"><ele>131.75</ele></trkpt>
   <trkpt lon="14.140482" lat="50.918585"><ele>135.75</ele></trkpt>
   <trkpt lon="14.139418" lat="50.918862"><ele>137.0</ele></trkpt>
   <trkpt lon="14.138965" lat="50.918984"><ele>136.25</ele></trkpt>
   <trkpt lon="14.138224" lat="50.919178"><ele>132.75</ele></trkpt>
   <trkpt lon="14.137186" lat="50.919455"><ele>136.25</ele></trkpt>
   <trkpt lon="14.136832" lat="50.919549"><ele>136.5</ele></trkpt>
   <trkpt lon="14.136305" lat="50.919685"><ele>137.25</ele></trkpt>
   <trkpt lon="14.136073" lat="50.919745"><ele>137.0</ele></trkpt>
   <trkpt lon="14.135326" lat="50.919938"><ele>132.5</ele></trkpt>
   <trkpt lon="14.135248" lat="50.919958"><ele>131.75</ele></trkpt>
   <trkpt lon="14.135030" lat="50.920014"><ele>129.75</ele></trkpt>
   <trkpt lon="14.134693" lat="50.920119"><ele>132.75</ele></trkpt>
   <trkpt lon="14.134562" lat="50.920170"><ele>133.5</ele></trkpt>
   <trkpt lon="14.134117" lat="50.920356"><ele>135.0</ele></trkpt>
   <trkpt lon="14.133607" lat="50.920531"><ele>135.0</ele></trkpt>
   <trkpt lon="14.133551" lat="50.920546"><ele>135.0</ele></trkpt>
   <trkpt lon="14.133367" lat="50.920595"><ele>134.75</ele></trkpt>
   <trkpt lon="14.133066" lat="50.920684"><ele>134.0</ele></trkpt>
   <trkpt lon="14.132740" lat="50.920801"><ele>131.5</ele></trkpt>
   <trkpt lon="14.132488" lat="50.920913"><ele>130.25</ele></trkpt>
   <trkpt lon="14.132385" lat="50.920969"><ele>130.0</ele></trkpt>
   <trkpt lon="14.132309" lat="50.921013"><ele>129.75</ele></trkpt>
   <trkpt lon="14.132103" lat="50.921155"><ele>128.75</ele></trkpt>
   <trkpt lon="14.131949" lat="50.921285"><ele>128.0</ele></trkpt>
   <trkpt lon="14.131831" lat="50.921411"><ele>127.0</ele></trkpt>
   <trkpt lon="14.131699" lat="50.921597"><ele>125.5</ele></trkpt>
   <trkpt lon="14.131693" lat="50.921604"><ele>125.5</ele></trkpt>
   <trkpt lon="14.131659" lat="50.921664"><ele>125.0</ele></trkpt>
   <trkpt lon="14.131632" lat="50.921717"><ele>124.5</ele></trkpt>
   <trkpt lon="14.131625" lat="50.921733"><ele>124.5</ele></trkpt>
   <trkpt lon="14.131621" lat="50.921741"><ele>124.5</ele></trkpt>
   <trkpt lon="14.131612" lat="50.921762"><ele>124.25</ele></trkpt>
   <trkpt lon="14.131591" lat="50.921804"><ele>124.0</ele></trkpt>
   <trkpt lon="14.131525" lat="50.921950"><ele>123.75</ele></trkpt>
   <trkpt lon="14.131497" lat="50.922098"><ele>123.5</ele></trkpt>
   <trkpt lon="14.131468" lat="50.922534"><ele>123.0</ele></trkpt>
   <trkpt lon="14.131470" lat="50.923157"><ele>122.0</ele></trkpt>
   <trkpt lon="14.131451" lat="50.924287"><ele>120.25</ele></trkpt>
   <trkpt lon="14.131450" lat="50.924312"><ele>120.5</ele></trkpt>
   <trkpt lon="14.131445" lat="50.924552"><ele>121.0</ele></trkpt>
   <trkpt lon="14.131414" lat="50.924844"><ele>121.5</ele></trkpt>
   <trkpt lon="14.131357" lat="50.925123"><ele>121.75</ele></trkpt>
   <trkpt lon="14.131318" lat="50.925286"><ele>121.5</ele></trkpt>
   <trkpt lon="14.131257" lat="50.925501"><ele>121.0</ele></trkpt>
   <trkpt lon="14.131233" lat="50.925599"><ele>121.0</ele></trkpt>
   <trkpt lon="14.131186" lat="50.925766"><ele>120.75</ele></trkpt>
   <trkpt lon="14.131172" lat="50.925825"><ele>120.75</ele></trkpt>
   <trkpt lon="14.131118" lat="50.926028"><ele>121.75</ele></trkpt>
   <trkpt lon="14.131115" lat="50.926043"><ele>122.0</ele></trkpt>
   <trkpt lon="14.131085" lat="50.926161"><ele>122.5</ele></trkpt>
   <trkpt lon="14.130855" lat="50.927012"><ele>129.25</ele></trkpt>
   <trkpt lon="14.130849" lat="50.927030"><ele>129.25</ele></trkpt>
   <trkpt lon="14.130625" lat="50.927868"><ele>132.0</ele></trkpt>
   <trkpt lon="14.130255" lat="50.929283"><ele>125.5</ele></trkpt>
   <trkpt lon="14.130151" lat="50.929614"><ele>125.75</ele></trkpt>
   <trkpt lon="14.129926" lat="50.930272"><ele>126.75</ele></trkpt>
   <trkpt lon="14.129877" lat="50.930515"><ele>129.0</ele></trkpt>
   <trkpt lon="14.129867" lat="50.930581"><ele>129.5</ele></trkpt>
   <trkpt lon="14.129840" lat="50.930778"><ele>131.5</ele></trkpt>
   <trkpt lon="14.129814" lat="50.931246"><ele>131.5</ele></trkpt>
   <trkpt lon="14.129824" lat="50.931434"><ele>132.25</ele></trkpt>
   <trkpt lon="14.129879" lat="50.931789"><ele>133.5</ele></trkpt>
   <trkpt lon="14.129924" lat="50.931983"><ele>134.25</ele></trkpt>
   <trkpt lon="14.129997" lat="50.932234"><ele>135.0</ele></trkpt>
   <trkpt lon="14.130071" lat="50.932457"><ele>137.0</ele></trkpt>
   <trkpt lon="14.130192" lat="50.932758"><ele>139.5</ele></trkpt>
   <trkpt lon="14.130456" lat="50.933267"><ele>142.75</ele></trkpt>
   <trkpt lon="14.131024" lat="50.934322"><ele>137.5</ele></trkpt>
   <trkpt lon="14.131114" lat="50.934489"><ele>136.0</ele></trkpt>
   <trkpt lon="14.131139" lat="50.934540"><ele>135.5</ele></trkpt>
   <trkpt lon="14.131229" lat="50.934706"><ele>134.75</ele></trkpt>
   <trkpt lon="14.131325" lat="50.934890"><ele>134.5</ele></trkpt>
   <trkpt lon="14.131418" lat="50.935057"><ele>137.0</ele></trkpt>
   <trkpt lon="14.131656" lat="50.935538"><ele>157.0</ele></trkpt>
   <trkpt lon="14.133396" lat="50.938807"><ele>164.0</ele></trkpt>
   <trkpt lon="14.133636" lat="50.939234"><ele>154.25</ele></trkpt>
   <trkpt lon="14.133791" lat="50.939560"><ele>153.5</ele></trkpt>
   <trkpt lon="14.133924" lat="50.939952"><ele>150.75</ele></trkpt>
   <trkpt lon="14.134226" lat="50.940979"><ele>154.0</ele></trkpt>
   <trkpt lon="14.134327" lat="50.941196"><ele>154.0</ele></trkpt>
   <trkpt lon="14.134460" lat="50.941442"><ele>153.5</ele></trkpt>
   <trkpt lon="14.134576" lat="50.941603"><ele>153.0</ele></trkpt>
   <trkpt lon="14.134959" lat="50.942022"><ele>149.0</ele></trkpt>
   <trkpt lon="14.135384" lat="50.942311"><ele>151.75</ele></trkpt>
   <trkpt lon="14.135667" lat="50.942471"><ele>153.75</ele></trkpt>
   <trkpt lon="14.136694" lat="50.942892"><ele>156.0</ele></trkpt>
   <trkpt lon="14.137039" lat="50.942981"><ele>156.75</ele></trkpt>
   <trkpt lon="14.137381" lat="50.943041"><ele>157.5</ele></trkpt>
   <trkpt lon="14.138306" lat="50.943154"><ele>157.5</ele></trkpt>
   <trkpt lon="14.140264" lat="50.943399"><ele>154.0</ele></trkpt>
   <trkpt lon="14.140477" lat="50.943426"><ele>155.75</ele></trkpt>
   <trkpt lon="14.141021" lat="50.943498"><ele>158.5</ele></trkpt>
   <trkpt lon="14.141612" lat="50.943567"><ele>159.0</ele></trkpt>
   <trkpt lon="14.141969" lat="50.943588"><ele>159.5</ele></trkpt>
   <trkpt lon="14.142379" lat="50.943566"><ele>160.25</ele></trkpt>
   <trkpt lon="14.143043" lat="50.943480"><ele>158.25</ele></trkpt>
   <trkpt lon="14.143506" lat="50.943386"><ele>157.25</ele></trkpt>
   <trkpt lon="14.143913" lat="50.943289"><ele>163.0</ele></trkpt>
   <trkpt lon="14.144302" lat="50.943145"><ele>169.5</ele></trkpt>
   <trkpt lon="14.144716" lat="50.942975"><ele>171.25</ele></trkpt>
   <trkpt lon="14.146689" lat="50.942145"><ele>172.5</ele></trkpt>
   <trkpt lon="14.147238" lat="50.941883"><ele>173.75</ele></trkpt>
   <trkpt lon="14.147422" lat="50.941778"><ele>172.0</ele></trkpt>
   <trkpt lon="14.147515" lat="50.941721"><ele>170.5</ele></trkpt>
   <trkpt lon="14.148009" lat="50.941357"><ele>170.5</ele></trkpt>
   <trkpt lon="14.148911" lat="50.940505"><ele>172.75</ele></trkpt>
   <trkpt lon="14.149786" lat="50.939893"><ele>168.5</ele></trkpt>
   <trkpt lon="14.150350" lat="50.939631"><ele>170.75</ele></trkpt>
   <trkpt lon="14.150642" lat="50.939520"><ele>171.25</ele></trkpt>
   <trkpt lon="14.151384" lat="50.939339"><ele>167.5</ele></trkpt>
   <trkpt lon="14.152097" lat="50.939232"><ele>161.75</ele></trkpt>
   <trkpt lon="14.152665" lat="50.939229"><ele>160.75</ele></trkpt>
   <trkpt lon="14.153156" lat="50.939258"><ele>161.0</ele></trkpt>
   <trkpt lon="14.153777" lat="50.939327"><ele>165.25</ele></trkpt>
   <trkpt lon="14.154253" lat="50.939448"><ele>168.0</ele></trkpt>
   <trkpt lon="14.154701" lat="50.939590"><ele>167.0</ele></trkpt>
   <trkpt lon="14.157445" lat="50.940484"><ele>166.75</ele></trkpt>
   <trkpt lon="14.158073" lat="50.940691"><ele>160.75</ele></trkpt>
   <trkpt lon="14.158270" lat="50.940755"><ele>157.75</ele></trkpt>
   <trkpt lon="14.158770" lat="50.940911"><ele>155.75</ele></trkpt>
   <trkpt lon="14.159216" lat="50.941040"><ele>159.5</ele></trkpt>
   <trkpt lon="14.159687" lat="50.941144"><ele>161.5</ele></trkpt>
   <trkpt lon="14.160110" lat="50.941212"><ele>162.25</ele></trkpt>
   <trkpt lon="14.160617" lat="50.941270"><ele>163.0</ele></trkpt>
   <trkpt lon="14.161025" lat="50.941290"><ele>162.75</ele></trkpt>
   <trkpt lon="14.161585" lat="50.941290"><ele>161.5</ele></trkpt>
   <trkpt lon="14.162109" lat="50.941264"><ele>157.75</ele></trkpt>
   <trkpt lon="14.163556" lat="50.941212"><ele>151.25</ele></trkpt>
   <trkpt lon="14.164578" lat="50.941164"><ele>151.25</ele></trkpt>
   <trkpt lon="14.165672" lat="50.941115"><ele>154.0</ele></trkpt>
   <trkpt lon="14.165751" lat="50.941111"><ele>154.25</ele></trkpt>
   <trkpt lon="14.165824" lat="50.941108"><ele>154.5</ele></trkpt>
   <trkpt lon="14.166055" lat="50.941099"><ele>155.25</ele></trkpt>
   <trkpt lon="14.166581" lat="50.941086"><ele>157.25</ele></trkpt>
   <trkpt lon="14.166892" lat="50.941090"><ele>160.0</ele></trkpt>
   <trkpt lon="14.167250" lat="50.941106"><ele>163.5</ele></trkpt>
   <trkpt lon="14.167767" lat="50.941149"><ele>167.75</ele></trkpt>
   <trkpt lon="14.168280" lat="50.941225"><ele>170.0</ele></trkpt>
   <trkpt lon="14.169411" lat="50.941506"><ele>170.0</ele></trkpt>
   <trkpt lon="14.171009" lat="50.941947"><ele>167.75</ele></trkpt>
   <trkpt lon="14.171496" lat="50.942081"><ele>166.25</ele></trkpt>
   <trkpt lon="14.172485" lat="50.942348"><ele>155.5</ele></trkpt>
   <trkpt lon="14.174292" lat="50.942799"><ele>157.25</ele></trkpt>
   <trkpt lon="14.174638" lat="50.942897"><ele>160.25</ele></trkpt>
   <trkpt lon="14.174948" lat="50.943003"><ele>163.75</ele></trkpt>
   <trkpt lon="14.175316" lat="50.943159"><ele>165.5</ele></trkpt>
   <trkpt lon="14.175593" lat="50.943305"><ele>165.75</ele></trkpt>
   <trkpt lon="14.175855" lat="50.943464"><ele>167.0</ele></trkpt>
   <trkpt lon="14.176145" lat="50.943680"><ele>167.25</ele></trkpt>
   <trkpt lon="14.177202" lat="50.944624"><ele>166.75</ele></trkpt>
   <trkpt lon="14.177382" lat="50.944774"><ele>166.75</ele></trkpt>
   <trkpt lon="14.177643" lat="50.945009"><ele>166.0</ele></trkpt>
   <trkpt lon="14.177850" lat="50.945160"><ele>166.0</ele></trkpt>
   <trkpt lon="14.178058" lat="50.945288"><ele>164.25</ele></trkpt>
   <trkpt lon="14.178362" lat="50.945453"><ele>160.5</ele></trkpt>
   <trkpt lon="14.178659" lat="50.945591"><ele>165.0</ele></trkpt>
   <trkpt lon="14.178945" lat="50.945695"><ele>168.25</ele></trkpt>
   <trkpt lon="14.179219" lat="50.945784"><ele>170.5</ele></trkpt>
   <trkpt lon="14.179465" lat="50.945851"><ele>172.0</ele></trkpt>
   <trkpt lon="14.179923" lat="50.945951"><ele>174.75</ele></trkpt>
   <trkpt lon="14.180128" lat="50.945974"><ele>175.0</ele></trkpt>
   <trkpt lon="14.180575" lat="50.946016"><ele>175.25</ele></trkpt>
   <trkpt lon="14.180901" lat="50.946024"><ele>175.75</ele></trkpt>
   <trkpt lon="14.181148" lat="50.946020"><ele>176.25</ele></trkpt>
   <trkpt lon="14.181548" lat="50.946007"><ele>177.25</ele></trkpt>
   <trkpt lon="14.181876" lat="50.945969"><ele>178.0</ele></trkpt>
   <trkpt lon="14.182102" lat="50.945936"><ele>178.25</ele></trkpt>
   <trkpt lon="14.185439" lat="50.945345"><ele>178.25</ele></trkpt>
   <trkpt lon="14.185589" lat="50.945318"><ele>178.0</ele></trkpt>
   <trkpt lon="14.186067" lat="50.945246"><ele>177.5</ele></trkpt>
   <trkpt lon="14.186480" lat="50.945198"><ele>177.5</ele></trkpt>
   <trkpt lon="14.187503" lat="50.945197"><ele>180.5</ele></trkpt>
   <trkpt lon="14.189294" lat="50.945469"><ele>187.25</ele></trkpt>
   <trkpt lon="14.190586" lat="50.945966"><ele>189.0</ele></trkpt>
   <trkpt lon="14.191999" lat="50.946659"><ele>191.5</ele></trkpt>
   <trkpt lon="14.192581" lat="50.946924"><ele>195.75</ele></trkpt>
   <trkpt lon="14.193070" lat="50.947107"><ele>195.0</ele></trkpt>
   <trkpt lon="14.193210" lat="50.947149"><ele>194.0</ele></trkpt>
   <trkpt lon="14.193520" lat="50.947213"><ele>193.5</ele></trkpt>
   <trkpt lon="14.194040" lat="50.947292"><ele>193.75</ele></trkpt>
   <trkpt lon="14.194289" lat="50.947314"><ele>193.25</ele></trkpt>
   <trkpt lon="14.194846" lat="50.947362"><ele>191.25</ele></trkpt>
   <trkpt lon="14.195401" lat="50.947325"><ele>192.75</ele></trkpt>
   <trkpt lon="14.196122" lat="50.947217"><ele>196.0</ele></trkpt>
   <trkpt lon="14.196725" lat="50.947054"><ele>199.25</ele></trkpt>
   <trkpt lon="14.197095" lat="50.946945"><ele>202.75</ele></trkpt>
   <trkpt lon="14.198730" lat="50.946450"><ele>202.25</ele></trkpt>
   <trkpt lon="14.198871" lat="50.946416"><ele>202.5</ele></trkpt>
   <trkpt lon="14.199429" lat="50.946327"><ele>203.5</ele></trkpt>
   <trkpt lon="14.199761" lat="50.946293"><ele>203.5</ele></trkpt>
   <trkpt lon="14.200102" lat="50.946264"><ele>203.5</ele></trkpt>
   <trkpt lon="14.200631" lat="50.946258"><ele>203.0</ele></trkpt>
   <trkpt lon="14.201131" lat="50.946300"><ele>203.0</ele></trkpt>
   <trkpt lon="14.201532" lat="50.946349"><ele>202.75</ele></trkpt>
   <trkpt lon="14.202361" lat="50.946539"><ele>202.25</ele></trkpt>
   <trkpt lon="14.202609" lat="50.946622"><ele>201.0</ele></trkpt>
   <trkpt lon="14.204631" lat="50.947455"><ele>206.5</ele></trkpt>
   <trkpt lon="14.204938" lat="50.947582"><ele>207.75</ele></trkpt>
   <trkpt lon="14.206617" lat="50.948277"><ele>212.5</ele></trkpt>
   <trkpt lon="14.206964" lat="50.948421"><ele>216.75</ele></trkpt>
   <trkpt lon="14.209260" lat="50.949369"><ele>226.25</ele></trkpt>
   <trkpt lon="14.209567" lat="50.949507"><ele>231.0</ele></trkpt>
   <trkpt lon="14.209909" lat="50.949669"><ele>235.5</ele></trkpt>
   <trkpt lon="14.210501" lat="50.950071"><ele>240.75</ele></trkpt>
   <trkpt lon="14.211316" lat="50.950787"><ele>234.5</ele></trkpt>
   <trkpt lon="14.211495" lat="50.950941"><ele>231.25</ele></trkpt>
   <trkpt lon="14.211556" lat="50.950992"><ele>230.25</ele></trkpt>
   <trkpt lon="14.212092" lat="50.951653"><ele>230.75</ele></trkpt>
   <trkpt lon="14.212491" lat="50.952496"><ele>232.0</ele></trkpt>
   <trkpt lon="14.212589" lat="50.952694"><ele>236.25</ele></trkpt>
   <trkpt lon="14.212800" lat="50.953115"><ele>243.25</ele></trkpt>
   <trkpt lon="14.213289" lat="50.953985"><ele>236.5</ele></trkpt>
   <trkpt lon="14.213370" lat="50.954098"><ele>235.0</ele></trkpt>
   <trkpt lon="14.213576" lat="50.954321"><ele>233.75</ele></trkpt>
   <trkpt lon="14.213868" lat="50.954568"><ele>232.75</ele></trkpt>
   <trkpt lon="14.214181" lat="50.954786"><ele>232.75</ele></trkpt>
   <trkpt lon="14.214479" lat="50.954947"><ele>233.5</ele></trkpt>
   <trkpt lon="14.214762" lat="50.955074"><ele>234.5</ele></trkpt>
   <trkpt lon="14.215064" lat="50.955196"><ele>235.0</ele></trkpt>
   <trkpt lon="14.215369" lat="50.955291"><ele>236.0</ele></trkpt>
   <trkpt lon="14.215767" lat="50.955394"><ele>236.75</ele></trkpt>
   <trkpt lon="14.216266" lat="50.955487"><ele>237.75</ele></trkpt>
   <trkpt lon="14.216583" lat="50.955521"><ele>238.25</ele></trkpt>
   <trkpt lon="14.216919" lat="50.955536"><ele>238.25</ele></trkpt>
   <trkpt lon="14.217544" lat="50.955571"><ele>238.0</ele></trkpt>
   <trkpt lon="14.219089" lat="50.955601"><ele>237.25</ele></trkpt>
   <trkpt lon="14.219880" lat="50.955608"><ele>235.25</ele></trkpt>
   <trkpt lon="14.220149" lat="50.955619"><ele>235.0</ele></trkpt>
   <trkpt lon="14.220405" lat="50.955632"><ele>235.0</ele></trkpt>
   <trkpt lon="14.220778" lat="50.955677"><ele>234.75</ele></trkpt>
   <trkpt lon="14.221073" lat="50.955727"><ele>234.0</ele></trkpt>
   <trkpt lon="14.221351" lat="50.955805"><ele>232.5</ele></trkpt>
   <trkpt lon="14.221658" lat="50.955894"><ele>232.0</ele></trkpt>
   <trkpt lon="14.221751" lat="50.955920"><ele>232.75</ele></trkpt>
   <trkpt lon="14.222059" lat="50.956008"><ele>234.75</ele></trkpt>
   <trkpt lon="14.224707" lat="50.956796"><ele>246.25</ele></trkpt>
   <trkpt lon="14.224945" lat="50.956888"><ele>247.5</ele></trkpt>
   <trkpt lon="14.225300" lat="50.957042"><ele>249.25</ele></trkpt>
   <trkpt lon="14.225637" lat="50.957233"><ele>249.25</ele></trkpt>
   <trkpt lon="14.226136" lat="50.957594"><ele>249.25</ele></trkpt>
   <trkpt lon="14.226404" lat="50.957871"><ele>249.25</ele></trkpt>
   <trkpt lon="14.226640" lat="50.958189"><ele>249.25</ele></trkpt>
   <trkpt lon="14.226797" lat="50.958499"><ele>249.5</ele></trkpt>
   <trkpt lon="14.226891" lat="50.958783"><ele>249.5</ele></trkpt>
   <trkpt lon="14.226917" lat="50.959010"><ele>246.0</ele></trkpt>
   <trkpt lon="14.226931" lat="50.959311"><ele>244.25</ele></trkpt>
   <trkpt lon="14.226864" lat="50.959591"><ele>245.25</ele></trkpt>
   <trkpt lon="14.226781" lat="50.959822"><ele>245.5</ele></trkpt>
   <trkpt lon="14.226700" lat="50.959996"><ele>245.25</ele></trkpt>
   <trkpt lon="14.226317" lat="50.960596"><ele>250.75</ele></trkpt>
   <trkpt lon="14.226184" lat="50.960789"><ele>252.75</ele></trkpt>
   <trkpt lon="14.225935" lat="50.961178"><ele>255.75</ele></trkpt>
   <trkpt lon="14.225742" lat="50.961565"><ele>257.75</ele></trkpt>
   <trkpt lon="14.225599" lat="50.961972"><ele>260.25</ele></trkpt>
   <trkpt lon="14.225547" lat="50.962366"><ele>262.0</ele></trkpt>
   <trkpt lon="14.225575" lat="50.962636"><ele>265.75</ele></trkpt>
   <trkpt lon="14.225614" lat="50.962826"><ele>266.0</ele></trkpt>
   <trkpt lon="14.225780" lat="50.963232"><ele>266.75</ele></trkpt>
   <trkpt lon="14.226138" lat="50.963733"><ele>267.75</ele></trkpt>
   <trkpt lon="14.226259" lat="50.963865"><ele>268.0</ele></trkpt>
   <trkpt lon="14.226392" lat="50.964002"><ele>262.75</ele></trkpt>
   <trkpt lon="14.227030" lat="50.964470"><ele>260.25</ele></trkpt>
   <trkpt lon="14.227488" lat="50.964703"><ele>265.0</ele></trkpt>
   <trkpt lon="14.227968" lat="50.964890"><ele>268.75</ele></trkpt>
   <trkpt lon="14.228188" lat="50.964967"><ele>268.5</ele></trkpt>
   <trkpt lon="14.228579" lat="50.965076"><ele>268.5</ele></trkpt>
   <trkpt lon="14.229483" lat="50.965280"><ele>268.25</ele></trkpt>
   <trkpt lon="14.229841" lat="50.965360"><ele>268.5</ele></trkpt>
   <trkpt lon="14.230457" lat="50.965509"><ele>262.5</ele></trkpt>
   <trkpt lon="14.231077" lat="50.965683"><ele>256.75</ele></trkpt>
   <trkpt lon="14.231588" lat="50.965881"><ele>254.0</ele></trkpt>
   <trkpt lon="14.231904" lat="50.966029"><ele>256.0</ele></trkpt>
   <trkpt lon="14.232214" lat="50.966208"><ele>258.0</ele></trkpt>
   <trkpt lon="14.232498" lat="50.966404"><ele>259.5</ele></trkpt>
   <trkpt lon="14.232802" lat="50.966647"><ele>260.25</ele></trkpt>
   <trkpt lon="14.233607" lat="50.967432"><ele>267.0</ele></trkpt>
   <trkpt lon="14.233793" lat="50.967624"><ele>268.0</ele></trkpt>
   <trkpt lon="14.233955" lat="50.967759"><ele>268.75</ele></trkpt>
   <trkpt lon="14.234188" lat="50.967937"><ele>269.0</ele></trkpt>
   <trkpt lon="14.234630" lat="50.968180"><ele>267.5</ele></trkpt>
   <trkpt lon="14.234967" lat="50.968351"><ele>265.75</ele></trkpt>
   <trkpt lon="14.235263" lat="50.968460"><ele>267.0</ele></trkpt>
   <trkpt lon="14.235583" lat="50.968559"><ele>268.25</ele></trkpt>
   <trkpt lon="14.236249" lat="50.968724"><ele>269.75</ele></trkpt>
   <trkpt lon="14.236591" lat="50.968764"><ele>269.5</ele></trkpt>
   <trkpt lon="14.236916" lat="50.968793"><ele>269.25</ele></trkpt>
   <trkpt lon="14.237624" lat="50.968817"><ele>268.0</ele></trkpt>
   <trkpt lon="14.239048" lat="50.968847"><ele>267.0</ele></trkpt>
   <trkpt lon="14.239416" lat="50.968866"><ele>267.75</ele></trkpt>
   <trkpt lon="14.239883" lat="50.968907"><ele>270.0</ele></trkpt>
   <trkpt lon="14.240163" lat="50.968941"><ele>271.5</ele></trkpt>
   <trkpt lon="14.240444" lat="50.968993"><ele>273.25</ele></trkpt>
   <trkpt lon="14.240784" lat="50.969074"><ele>273.25</ele></trkpt>
   <trkpt lon="14.241100" lat="50.969162"><ele>275.0</ele></trkpt>
   <trkpt lon="14.241444" lat="50.969274"><ele>276.0</ele></trkpt>
   <trkpt lon="14.243094" lat="50.969882"><ele>281.25</ele></trkpt>
   <trkpt lon="14.246505" lat="50.971091"><ele>275.25</ele></trkpt>
   <trkpt lon="14.247404" lat="50.971291"><ele>277.5</ele></trkpt>
   <trkpt lon="14.247779" lat="50.971336"><ele>277.75</ele></trkpt>
   <trkpt lon="14.248273" lat="50.971366"><ele>277.5</ele></trkpt>
   <trkpt lon="14.248634" lat="50.971366"><ele>280.25</ele></trkpt>
   <trkpt lon="14.249255" lat="50.971332"><ele>285.5</ele></trkpt>
   <trkpt lon="14.249885" lat="50.971208"><ele>286.5</ele></trkpt>
   <trkpt lon="14.250438" lat="50.971048"><ele>286.75</ele></trkpt>
   <trkpt lon="14.252654" lat="50.970229"><ele>285.0</ele></trkpt>
   <trkpt lon="14.253268" lat="50.970069"><ele>285.5</ele></trkpt>
   <trkpt lon="14.254268" lat="50.969809"><ele>282.0</ele></trkpt>
   <trkpt lon="14.254855" lat="50.969694"><ele>281.25</ele></trkpt>
   <trkpt lon="14.256526" lat="50.969337"><ele>284.25</ele></trkpt>
   <trkpt lon="14.256602" lat="50.969323"><ele>284.5</ele></trkpt>
   <trkpt lon="14.259323" lat="50.968787"><ele>290.0</ele></trkpt>
   <trkpt lon="14.259395" lat="50.968777"><ele>290.25</ele></trkpt>
   <trkpt lon="14.260132" lat="50.968687"><ele>291.0</ele></trkpt>
   <trkpt lon="14.260871" lat="50.968625"><ele>290.75</ele></trkpt>
   <trkpt lon="14.261422" lat="50.968592"><ele>291.5</ele></trkpt>
   <trkpt lon="14.262116" lat="50.968571"><ele>292.5</ele></trkpt>
   <trkpt lon="14.262921" lat="50.968570"><ele>294.25</ele></trkpt>
   <trkpt lon="14.263788" lat="50.968593"><ele>296.5</ele></trkpt>
   <trkpt lon="14.264577" lat="50.968655"><ele>300.5</ele></trkpt>
   <trkpt lon="14.264994" lat="50.968718"><ele>304.0</ele></trkpt>
   <trkpt lon="14.265624" lat="50.968848"><ele>309.25</ele></trkpt>
   <trkpt lon="14.266362" lat="50.969079"><ele>311.5</ele></trkpt>
   <trkpt lon="14.266641" lat="50.969186"><ele>312.25</ele></trkpt>
   <trkpt lon="14.266973" lat="50.969355"><ele>313.5</ele></trkpt>
   <trkpt lon="14.267231" lat="50.969530"><ele>314.5</ele></trkpt>
   <trkpt lon="14.267468" lat="50.969859"><ele>316.25</ele></trkpt>
   <trkpt lon="14.267657" lat="50.970179"><ele>317.75</ele></trkpt>
   <trkpt lon="14.267804" lat="50.970477"><ele>317.75</ele></trkpt>
   <trkpt lon="14.267902" lat="50.970838"><ele>313.0</ele></trkpt>
   <trkpt lon="14.267926" lat="50.971075"><ele>310.75</ele></trkpt>
   <trkpt lon="14.267918" lat="50.971312"><ele>308.75</ele></trkpt>
   <trkpt lon="14.267867" lat="50.971505"><ele>307.75</ele></trkpt>
   <trkpt lon="14.267784" lat="50.971785"><ele>306.0</ele></trkpt>
   <trkpt lon="14.267435" lat="50.972717"><ele>306.5</ele></trkpt>
   <trkpt lon="14.267377" lat="50.972904"><ele>306.75</ele></trkpt>
   <trkpt lon="14.267339" lat="50.973105"><ele>306.75</ele></trkpt>
   <trkpt lon="14.267338" lat="50.973288"><ele>307.0</ele></trkpt>
   <trkpt lon="14.267355" lat="50.973413"><ele>307.0</ele></trkpt>
   <trkpt lon="14.267391" lat="50.973584"><ele>307.25</ele></trkpt>
   <trkpt lon="14.267481" lat="50.973838"><ele>307.5</ele></trkpt>
   <trkpt lon="14.267647" lat="50.974164"><ele>307.5</ele></trkpt>
   <trkpt lon="14.267828" lat="50.974386"><ele>307.75</ele></trkpt>
   <trkpt lon="14.268016" lat="50.974561"><ele>309.25</ele></trkpt>
   <trkpt lon="14.268145" lat="50.974669"><ele>310.5</ele></trkpt>
   <trkpt lon="14.268426" lat="50.974859"><ele>312.25</ele></trkpt>
   <trkpt lon="14.268672" lat="50.975006"><ele>313.5</ele></trkpt>
   <trkpt lon="14.268952" lat="50.975135"><ele>314.25</ele></trkpt>
   <trkpt lon="14.269271" lat="50.975253"><ele>314.75</ele></trkpt>
   <trkpt lon="14.269517" lat="50.975325"><ele>314.75</ele></trkpt>
   <trkpt lon="14.270037" lat="50.975457"><ele>314.0</ele></trkpt>
   <trkpt lon="14.270645" lat="50.975580"><ele>314.25</ele></trkpt>
   <trkpt lon="14.270801" lat="50.975606"><ele>314.25</ele></trkpt>
   <trkpt lon="14.272052" lat="50.975814"><ele>314.25</ele></trkpt>
   <trkpt lon="14.272741" lat="50.975929"><ele>314.5</ele></trkpt>
   <trkpt lon="14.273599" lat="50.976073"><ele>315.5</ele></trkpt>
   <trkpt lon="14.274183" lat="50.976167"><ele>316.75</ele></trkpt>
   <trkpt lon="14.274798" lat="50.976255"><ele>317.5</ele></trkpt>
   <trkpt lon="14.275026" lat="50.976296"><ele>317.75</ele></trkpt>
   <trkpt lon="14.275296" lat="50.976355"><ele>318.5</ele></trkpt>
   <trkpt lon="14.275837" lat="50.976472"><ele>319.75</ele></trkpt>
   <trkpt lon="14.276281" lat="50.976599"><ele>320.5</ele></trkpt>
   <trkpt lon="14.276554" lat="50.976698"><ele>321.0</ele></trkpt>
   <trkpt lon="14.276914" lat="50.976879"><ele>321.25</ele></trkpt>
   <trkpt lon="14.277053" lat="50.976966"><ele>321.25</ele></trkpt>
   <trkpt lon="14.277178" lat="50.977055"><ele>321.25</ele></trkpt>
   <trkpt lon="14.277437" lat="50.977279"><ele>321.5</ele></trkpt>
   <trkpt lon="14.277632" lat="50.977507"><ele>322.25</ele></trkpt>
   <trkpt lon="14.277732" lat="50.977657"><ele>322.0</ele></trkpt>
   <trkpt lon="14.277815" lat="50.977809"><ele>321.75</ele></trkpt>
   <trkpt lon="14.277878" lat="50.977951"><ele>321.5</ele></trkpt>
   <trkpt lon="14.277927" lat="50.978094"><ele>321.25</ele></trkpt>
   <trkpt lon="14.277971" lat="50.978407"><ele>320.75</ele></trkpt>
   <trkpt lon="14.277971" lat="50.978763"><ele>320.0</ele></trkpt>
   <trkpt lon="14.277965" lat="50.978899"><ele>320.0</ele></trkpt>
   <trkpt lon="14.277945" lat="50.979279"><ele>320.5</ele></trkpt>
   <trkpt lon="14.277946" lat="50.979516"><ele>322.25</ele></trkpt>
   <trkpt lon="14.277967" lat="50.979722"><ele>323.75</ele></trkpt>
   <trkpt lon="14.278008" lat="50.979889"><ele>324.75</ele></trkpt>
   <trkpt lon="14.278053" lat="50.980008"><ele>325.5</ele></trkpt>
   <trkpt lon="14.278156" lat="50.980222"><ele>327.25</ele></trkpt>
   <trkpt lon="14.278219" lat="50.980318"><ele>328.0</ele></trkpt>
   <trkpt lon="14.278355" lat="50.980500"><ele>329.75</ele></trkpt>
   <trkpt lon="14.278511" lat="50.980663"><ele>331.75</ele></trkpt>
   <trkpt lon="14.278665" lat="50.980801"><ele>333.25</ele></trkpt>
   <trkpt lon="14.278859" lat="50.980945"><ele>333.0</ele></trkpt>
   <trkpt lon="14.279066" lat="50.981076"><ele>332.0</ele></trkpt>
   <trkpt lon="14.279098" lat="50.981099"><ele>331.75</ele></trkpt>
   <trkpt lon="14.279580" lat="50.981373"><ele>329.75</ele></trkpt>
   <trkpt lon="14.280608" lat="50.981958"><ele>326.0</ele></trkpt>
   <trkpt lon="14.281065" lat="50.982217"><ele>326.0</ele></trkpt>
   <trkpt lon="14.281980" lat="50.982740"><ele>326.75</ele></trkpt>
   <trkpt lon="14.282552" lat="50.983068"><ele>327.5</ele></trkpt>
   <trkpt lon="14.282893" lat="50.983265"><ele>328.75</ele></trkpt>
   <trkpt lon="14.283170" lat="50.983415"><ele>330.0</ele></trkpt>
   <trkpt lon="14.283589" lat="50.983656"><ele>331.25</ele></trkpt>
   <trkpt lon="14.285910" lat="50.984981"><ele>327.25</ele></trkpt>
   <trkpt lon="14.286317" lat="50.985214"><ele>327.0</ele></trkpt>
   <trkpt lon="14.286638" lat="50.985366"><ele>327.0</ele></trkpt>
   <trkpt lon="14.286835" lat="50.985445"><ele>327.25</ele></trkpt>
   <trkpt lon="14.287784" lat="50.985791"><ele>328.25</ele></trkpt>
   <trkpt lon="14.287935" lat="50.985852"><ele>328.5</ele></trkpt>
   <trkpt lon="14.288239" lat="50.986010"><ele>329.5</ele></trkpt>
   <trkpt lon="14.288529" lat="50.986206"><ele>329.75</ele></trkpt>
   <trkpt lon="14.288659" lat="50.986315"><ele>329.5</ele></trkpt>
   <trkpt lon="14.288793" lat="50.986448"><ele>329.5</ele></trkpt>
   <trkpt lon="14.288914" lat="50.986592"><ele>329.25</ele></trkpt>
   <trkpt lon="14.289072" lat="50.986827"><ele>329.25</ele></trkpt>
   <trkpt lon="14.289141" lat="50.986983"><ele>329.5</ele></trkpt>
   <trkpt lon="14.289209" lat="50.987209"><ele>330.25</ele></trkpt>
   <trkpt lon="14.289243" lat="50.987495"><ele>331.75</ele></trkpt>
   <trkpt lon="14.289275" lat="50.987691"><ele>332.5</ele></trkpt>
   <trkpt lon="14.289308" lat="50.987829"><ele>332.75</ele></trkpt>
   <trkpt lon="14.289389" lat="50.988039"><ele>332.75</ele></trkpt>
   <trkpt lon="14.289465" lat="50.988174"><ele>332.5</ele></trkpt>
   <trkpt lon="14.289546" lat="50.988293"><ele>331.75</ele></trkpt>
   <trkpt lon="14.289836" lat="50.988689"><ele>332.0</ele></trkpt>
   <trkpt lon="14.289932" lat="50.988843"><ele>332.25</ele></trkpt>
   <trkpt lon="14.289995" lat="50.988976"><ele>332.75</ele></trkpt>
   <trkpt lon="14.290044" lat="50.989128"><ele>334.0</ele></trkpt>
   <trkpt lon="14.290148" lat="50.989601"><ele>336.0</ele></trkpt>
   <trkpt lon="14.290216" lat="50.990032"><ele>337.75</ele></trkpt>
   <trkpt lon="14.290362" lat="50.990433"><ele>339.5</ele></trkpt>
   <trkpt lon="14.290464" lat="50.990590"><ele>339.5</ele></trkpt>
   <trkpt lon="14.290596" lat="50.990758"><ele>339.25</ele></trkpt>
   <trkpt lon="14.290712" lat="50.990877"><ele>339.0</ele></trkpt>
   <trkpt lon="14.290868" lat="50.991006"><ele>339.0</ele></trkpt>
   <trkpt lon="14.291072" lat="50.991153"><ele>338.5</ele></trkpt>
   <trkpt lon="14.291266" lat="50.991265"><ele>337.0</ele></trkpt>
   <trkpt lon="14.292368" lat="50.991831"><ele>331.75</ele></trkpt>
   <trkpt lon="14.292708" lat="50.992004"><ele>330.0</ele></trkpt>
   <trkpt lon="14.293035" lat="50.992174"><ele>328.0</ele></trkpt>
   <trkpt lon="14.293708" lat="50.992524"><ele>328.75</ele></trkpt>
   <trkpt lon="14.295167" lat="50.993280"><ele>335.5</ele></trkpt>
   <trkpt lon="14.295390" lat="50.993389"><ele>335.25</ele></trkpt>
   <trkpt lon="14.295639" lat="50.993492"><ele>335.0</ele></trkpt>
   <trkpt lon="14.295854" lat="50.993560"><ele>335.0</ele></trkpt>
   <trkpt lon="14.296121" lat="50.993632"><ele>334.5</ele></trkpt>
   <trkpt lon="14.296931" lat="50.993830"><ele>334.5</ele></trkpt>
   <trkpt lon="14.297155" lat="50.993896"><ele>335.0</ele></trkpt>
   <trkpt lon="14.297311" lat="50.993951"><ele>335.25</ele></trkpt>
   <trkpt lon="14.297527" lat="50.994048"><ele>336.0</ele></trkpt>
   <trkpt lon="14.297710" lat="50.994144"><ele>336.5</ele></trkpt>
   <trkpt lon="14.297913" lat="50.994269"><ele>337.0</ele></trkpt>
   <trkpt lon="14.298202" lat="50.994507"><ele>338.25</ele></trkpt>
   <trkpt lon="14.298331" lat="50.994650"><ele>338.75</ele></trkpt>
   <trkpt lon="14.298449" lat="50.994809"><ele>339.5</ele></trkpt>
   <trkpt lon="14.298548" lat="50.994982"><ele>340.0</ele></trkpt>
   <trkpt lon="14.298771" lat="50.995487"><ele>341.25</ele></trkpt>
   <trkpt lon="14.298854" lat="50.995633"><ele>341.75</ele></trkpt>
   <trkpt lon="14.298955" lat="50.995771"><ele>342.0</ele></trkpt>
   <trkpt lon="14.299064" lat="50.995896"><ele>342.25</ele></trkpt>
   <trkpt lon="14.299166" lat="50.995994"><ele>342.25</ele></trkpt>
   <trkpt lon="14.299333" lat="50.996131"><ele>342.0</ele></trkpt>
   <trkpt lon="14.299520" lat="50.996265"><ele>341.75</ele></trkpt>
   <trkpt lon="14.299755" lat="50.996419"><ele>341.75</ele></trkpt>
   <trkpt lon="14.299957" lat="50.996539"><ele>341.5</ele></trkpt>
   <trkpt lon="14.300366" lat="50.996728"><ele>341.25</ele></trkpt>
   <trkpt lon="14.300581" lat="50.996809"><ele>341.25</ele></trkpt>
   <trkpt lon="14.300878" lat="50.996896"><ele>341.25</ele></trkpt>
   <trkpt lon="14.304538" lat="50.997959"><ele>340.75</ele></trkpt>
   <trkpt lon="14.304615" lat="50.997982"><ele>340.75</ele></trkpt>
   <trkpt lon="14.307116" lat="50.998704"><ele>346.5</ele></trkpt>
   <trkpt lon="14.307611" lat="50.998846"><ele>347.5</ele></trkpt>
   <trkpt lon="14.307930" lat="50.998923"><ele>347.75</ele></trkpt>
   <trkpt lon="14.308474" lat="50.999022"><ele>348.5</ele></trkpt>
   <trkpt lon="14.308723" lat="50.999053"><ele>349.0</ele></trkpt>
   <trkpt lon="14.308951" lat="50.999071"><ele>349.25</ele></trkpt>
   <trkpt lon="14.309198" lat="50.999077"><ele>349.5</ele></trkpt>
   <trkpt lon="14.309484" lat="50.999074"><ele>350.25</ele></trkpt>
   <trkpt lon="14.309966" lat="50.999038"><ele>351.25</ele></trkpt>
   <trkpt lon="14.310385" lat="50.998980"><ele>351.25</ele></trkpt>
   <trkpt lon="14.310630" lat="50.998936"><ele>351.25</ele></trkpt>
   <trkpt lon="14.310890" lat="50.998877"><ele>351.25</ele></trkpt>
   <trkpt lon="14.311196" lat="50.998795"><ele>351.0</ele></trkpt>
   <trkpt lon="14.312410" lat="50.998424"><ele>350.25</ele></trkpt>
   <trkpt lon="14.313331" lat="50.998153"><ele>352.25</ele></trkpt>
   <trkpt lon="14.315540" lat="50.997476"><ele>356.75</ele></trkpt>
   <trkpt lon="14.315802" lat="50.997386"><ele>357.0</ele></trkpt>
   <trkpt lon="14.316034" lat="50.997289"><ele>357.25</ele></trkpt>
   <trkpt lon="14.316239" lat="50.997195"><ele>357.25</ele></trkpt>
   <trkpt lon="14.316437" lat="50.997091"><ele>357.0</ele></trkpt>
   <trkpt lon="14.316640" lat="50.996974"><ele>356.5</ele></trkpt>
   <trkpt lon="14.316912" lat="50.996782"><ele>355.25</ele></trkpt>
   <trkpt lon="14.316979" lat="50.996732"><ele>354.75</ele></trkpt>
   <trkpt lon="14.317268" lat="50.996467"><ele>354.5</ele></trkpt>
   <trkpt lon="14.317418" lat="50.996302"><ele>354.5</ele></trkpt>
   <trkpt lon="14.317539" lat="50.996148"><ele>354.25</ele></trkpt>
   <trkpt lon="14.317638" lat="50.995985"><ele>354.25</ele></trkpt>
   <trkpt lon="14.317759" lat="50.995730"><ele>354.25</ele></trkpt>
   <trkpt lon="14.318141" lat="50.994747"><ele>356.0</ele></trkpt>
   <trkpt lon="14.318285" lat="50.994438"><ele>357.0</ele></trkpt>
   <trkpt lon="14.318522" lat="50.994089"><ele>357.75</ele></trkpt>
   <trkpt lon="14.318666" lat="50.993938"><ele>358.0</ele></trkpt>
   <trkpt lon="14.318819" lat="50.993803"><ele>358.25</ele></trkpt>
   <trkpt lon="14.319105" lat="50.993596"><ele>358.25</ele></trkpt>
   <trkpt lon="14.320739" lat="50.992516"><ele>360.0</ele></trkpt>
   <trkpt lon="14.320952" lat="50.992361"><ele>359.5</ele></trkpt>
   <trkpt lon="14.321220" lat="50.992143"><ele>359.0</ele></trkpt>
   <trkpt lon="14.321341" lat="50.992029"><ele>358.75</ele></trkpt>
   <trkpt lon="14.321451" lat="50.991912"><ele>358.75</ele></trkpt>
   <trkpt lon="14.321553" lat="50.991788"><ele>358.75</ele></trkpt>
   <trkpt lon="14.321718" lat="50.991549"><ele>359.0</ele></trkpt>
   <trkpt lon="14.321830" lat="50.991321"><ele>359.5</ele></trkpt>
   <trkpt lon="14.322838" lat="50.988969"><ele>349.0</ele></trkpt>
   <trkpt lon="14.323666" lat="50.987002"><ele>348.0</ele></trkpt>
   <trkpt lon="14.323903" lat="50.986456"><ele>353.5</ele></trkpt>
   <trkpt lon="14.324002" lat="50.986286"><ele>356.25</ele></trkpt>
   <trkpt lon="14.324111" lat="50.986136"><ele>359.0</ele></trkpt>
   <trkpt lon="14.324205" lat="50.986031"><ele>360.75</ele></trkpt>
   <trkpt lon="14.324358" lat="50.985889"><ele>363.5</ele></trkpt>
   <trkpt lon="14.324564" lat="50.985728"><ele>366.25</ele></trkpt>
   <trkpt lon="14.324742" lat="50.985612"><ele>368.0</ele></trkpt>
   <trkpt lon="14.325104" lat="50.985433"><ele>370.25</ele></trkpt>
   <trkpt lon="14.325324" lat="50.985353"><ele>371.0</ele></trkpt>
   <trkpt lon="14.325587" lat="50.985266"><ele>372.5</ele></trkpt>
   <trkpt lon="14.325913" lat="50.985191"><ele>374.0</ele></trkpt>
   <trkpt lon="14.326206" lat="50.985147"><ele>375.75</ele></trkpt>
   <trkpt lon="14.326373" lat="50.985131"><ele>376.5</ele></trkpt>
   <trkpt lon="14.326567" lat="50.985121"><ele>377.5</ele></trkpt>
   <trkpt lon="14.326916" lat="50.985121"><ele>379.25</ele></trkpt>
   <trkpt lon="14.327111" lat="50.985132"><ele>380.0</ele></trkpt>
   <trkpt lon="14.327297" lat="50.985151"><ele>380.75</ele></trkpt>
   <trkpt lon="14.327625" lat="50.985204"><ele>382.0</ele></trkpt>
   <trkpt lon="14.327799" lat="50.985240"><ele>382.5</ele></trkpt>
   <trkpt lon="14.328082" lat="50.985318"><ele>382.75</ele></trkpt>
   <trkpt lon="14.328198" lat="50.985357"><ele>382.75</ele></trkpt>
   <trkpt lon="14.330511" lat="50.986254"><ele>378.75</ele></trkpt>
   <trkpt lon="14.330790" lat="50.986343"><ele>377.5</ele></trkpt>
   <trkpt lon="14.330983" lat="50.986395"><ele>377.0</ele></trkpt>
   <trkpt lon="14.331167" lat="50.986438"><ele>376.5</ele></trkpt>
   <trkpt lon="14.331372" lat="50.986477"><ele>376.0</ele></trkpt>
   <trkpt lon="14.331600" lat="50.986509"><ele>375.75</ele></trkpt>
   <trkpt lon="14.331836" lat="50.986525"><ele>375.75</ele></trkpt>
   <trkpt lon="14.332262" lat="50.986535"><ele>375.75</ele></trkpt>
   <trkpt lon="14.332538" lat="50.986516"><ele>376.5</ele></trkpt>
   <trkpt lon="14.332849" lat="50.986478"><ele>377.75</ele></trkpt>
   <trkpt lon="14.333026" lat="50.986449"><ele>378.5</ele></trkpt>
   <trkpt lon="14.333222" lat="50.986405"><ele>379.5</ele></trkpt>
   <trkpt lon="14.333474" lat="50.986336"><ele>380.75</ele></trkpt>
   <trkpt lon="14.333719" lat="50.986253"><ele>382.0</ele></trkpt>
   <trkpt lon="14.333926" lat="50.986167"><ele>383.0</ele></trkpt>
   <trkpt lon="14.334317" lat="50.985958"><ele>384.25</ele></trkpt>
   <trkpt lon="14.334834" lat="50.985627"><ele>384.25</ele></trkpt>
   <trkpt lon="14.335158" lat="50.985370"><ele>384.75</ele></trkpt>
   <trkpt lon="14.335333" lat="50.985247"><ele>384.75</ele></trkpt>
   <trkpt lon="14.335594" lat="50.985077"><ele>384.5</ele></trkpt>
   <trkpt lon="14.336851" lat="50.984269"><ele>382.0</ele></trkpt>
   <trkpt lon="14.336980" lat="50.984192"><ele>382.0</ele></trkpt>
   <trkpt lon="14.337193" lat="50.984083"><ele>382.25</ele></trkpt>
   <trkpt lon="14.337468" lat="50.983967"><ele>382.25</ele></trkpt>
   <trkpt lon="14.337682" lat="50.983894"><ele>382.0</ele></trkpt>
   <trkpt lon="14.337870" lat="50.983832"><ele>381.75</ele></trkpt>
   <trkpt lon="14.338093" lat="50.983768"><ele>381.25</ele></trkpt>
   <trkpt lon="14.338324" lat="50.983713"><ele>380.5</ele></trkpt>
   <trkpt lon="14.338575" lat="50.983668"><ele>380.5</ele></trkpt>
   <trkpt lon="14.338825" lat="50.983637"><ele>380.5</ele></trkpt>
   <trkpt lon="14.339134" lat="50.983619"><ele>380.5</ele></trkpt>
   <trkpt lon="14.339321" lat="50.983614"><ele>380.5</ele></trkpt>
   <trkpt lon="14.339436" lat="50.983616"><ele>380.5</ele></trkpt>
   <trkpt lon="14.339667" lat="50.983632"><ele>380.25</ele></trkpt>
   <trkpt lon="14.339871" lat="50.983655"><ele>380.0</ele></trkpt>
   <trkpt lon="14.340021" lat="50.983675"><ele>379.75</ele></trkpt>
   <trkpt lon="14.340181" lat="50.983706"><ele>379.5</ele></trkpt>
   <trkpt lon="14.340385" lat="50.983751"><ele>379.25</ele></trkpt>
   <trkpt lon="14.340594" lat="50.983812"><ele>378.75</ele></trkpt>
   <trkpt lon="14.340796" lat="50.983889"><ele>378.25</ele></trkpt>
   <trkpt lon="14.340952" lat="50.983956"><ele>377.75</ele></trkpt>
   <trkpt lon="14.341104" lat="50.984036"><ele>377.25</ele></trkpt>
   <trkpt lon="14.341342" lat="50.984180"><ele>376.25</ele></trkpt>
   <trkpt lon="14.341490" lat="50.984293"><ele>376.25</ele></trkpt>
   <trkpt lon="14.341648" lat="50.984444"><ele>376.5</ele></trkpt>
   <trkpt lon="14.341751" lat="50.984550"><ele>377.75</ele></trkpt>
   <trkpt lon="14.341833" lat="50.984667"><ele>378.75</ele></trkpt>
   <trkpt lon="14.341922" lat="50.984826"><ele>379.75</ele></trkpt>
   <trkpt lon="14.341983" lat="50.984972"><ele>380.5</ele></trkpt>
   <trkpt lon="14.342042" lat="50.985148"><ele>381.0</ele></trkpt>
   <trkpt lon="14.342088" lat="50.985389"><ele>381.25</ele></trkpt>
   <trkpt lon="14.342121" lat="50.985748"><ele>381.0</ele></trkpt>
   <trkpt lon="14.342180" lat="50.985965"><ele>380.5</ele></trkpt>
   <trkpt lon="14.342254" lat="50.986137"><ele>380.0</ele></trkpt>
   <trkpt lon="14.342320" lat="50.986264"><ele>379.5</ele></trkpt>
   <trkpt lon="14.342452" lat="50.986446"><ele>379.0</ele></trkpt>
   <trkpt lon="14.342569" lat="50.986583"><ele>378.75</ele></trkpt>
   <trkpt lon="14.342673" lat="50.986689"><ele>378.5</ele></trkpt>
   <trkpt lon="14.342851" lat="50.986827"><ele>377.75</ele></trkpt>
   <trkpt lon="14.343024" lat="50.986943"><ele>377.0</ele></trkpt>
   <trkpt lon="14.343198" lat="50.987032"><ele>376.75</ele></trkpt>
   <trkpt lon="14.343401" lat="50.987127"><ele>376.75</ele></trkpt>
   <trkpt lon="14.343620" lat="50.987208"><ele>376.75</ele></trkpt>
   <trkpt lon="14.343789" lat="50.987269"><ele>376.75</ele></trkpt>
   <trkpt lon="14.343954" lat="50.987310"><ele>377.0</ele></trkpt>
   <trkpt lon="14.344209" lat="50.987362"><ele>377.25</ele></trkpt>
   <trkpt lon="14.344466" lat="50.987399"><ele>377.75</ele></trkpt>
   <trkpt lon="14.344720" lat="50.987428"><ele>378.25</ele></trkpt>
   <trkpt lon="14.345857" lat="50.987533"><ele>379.25</ele></trkpt>
   <trkpt lon="14.346187" lat="50.987575"><ele>379.0</ele></trkpt>
   <trkpt lon="14.346373" lat="50.987605"><ele>378.5</ele></trkpt>
   <trkpt lon="14.346563" lat="50.987646"><ele>377.75</ele></trkpt>
   <trkpt lon="14.346834" lat="50.987719"><ele>376.75</ele></trkpt>
   <trkpt lon="14.347183" lat="50.987848"><ele>374.5</ele></trkpt>
   <trkpt lon="14.347343" lat="50.987916"><ele>373.25</ele></trkpt>
   <trkpt lon="14.347644" lat="50.988087"><ele>370.0</ele></trkpt>
   <trkpt lon="14.348587" lat="50.988807"><ele>359.0</ele></trkpt>
   <trkpt lon="14.348769" lat="50.988928"><ele>357.25</ele></trkpt>
   <trkpt lon="14.348951" lat="50.989038"><ele>355.75</ele></trkpt>
   <trkpt lon="14.349154" lat="50.989144"><ele>354.25</ele></trkpt>
   <trkpt lon="14.349376" lat="50.989240"><ele>353.5</ele></trkpt>
   <trkpt lon="14.349581" lat="50.989315"><ele>353.25</ele></trkpt>
   <trkpt lon="14.349859" lat="50.989397"><ele>352.75</ele></trkpt>
   <trkpt lon="14.350736" lat="50.989638"><ele>350.0</ele></trkpt>
   <trkpt lon="14.351264" lat="50.989776"><ele>348.5</ele></trkpt>
   <trkpt lon="14.351517" lat="50.989851"><ele>347.75</ele></trkpt>
   <trkpt lon="14.351745" lat="50.989932"><ele>347.0</ele></trkpt>
   <trkpt lon="14.351961" lat="50.990024"><ele>346.5</ele></trkpt>
   <trkpt lon="14.352130" lat="50.990112"><ele>346.0</ele></trkpt>
   <trkpt lon="14.352330" lat="50.990241"><ele>345.5</ele></trkpt>
   <trkpt lon="14.352488" lat="50.990362"><ele>344.75</ele></trkpt>
   <trkpt lon="14.352639" lat="50.990499"><ele>344.0</ele></trkpt>
   <trkpt lon="14.352780" lat="50.990658"><ele>343.0</ele></trkpt>
   <trkpt lon="14.352849" lat="50.990751"><ele>342.5</ele></trkpt>
   <trkpt lon="14.352969" lat="50.990986"><ele>341.25</ele></trkpt>
   <trkpt lon="14.353057" lat="50.991179"><ele>340.75</ele></trkpt>
   <trkpt lon="14.353234" lat="50.991577"><ele>339.25</ele></trkpt>
   <trkpt lon="14.353306" lat="50.991734"><ele>339.25</ele></trkpt>
   <trkpt lon="14.353344" lat="50.991816"><ele>339.75</ele></trkpt>
   <trkpt lon="14.353421" lat="50.991982"><ele>340.75</ele></trkpt>
   <trkpt lon="14.353592" lat="50.992373"><ele>343.0</ele></trkpt>
   <trkpt lon="14.354028" lat="50.993318"><ele>347.0</ele></trkpt>
   <trkpt lon="14.354114" lat="50.993473"><ele>347.25</ele></trkpt>
   <trkpt lon="14.354194" lat="50.993586"><ele>347.5</ele></trkpt>
   <trkpt lon="14.354324" lat="50.993742"><ele>347.75</ele></trkpt>
   <trkpt lon="14.354464" lat="50.993877"><ele>347.75</ele></trkpt>
   <trkpt lon="14.354663" lat="50.994030"><ele>348.0</ele></trkpt>
   <trkpt lon="14.354835" lat="50.994137"><ele>348.0</ele></trkpt>
   <trkpt lon="14.355058" lat="50.994257"><ele>348.0</ele></trkpt>
   <trkpt lon="14.355209" lat="50.994321"><ele>347.75</ele></trkpt>
   <trkpt lon="14.355463" lat="50.994411"><ele>347.75</ele></trkpt>
   <trkpt lon="14.355761" lat="50.994494"><ele>347.75</ele></trkpt>
   <trkpt lon="14.356100" lat="50.994561"><ele>347.75</ele></trkpt>
   <trkpt lon="14.356445" lat="50.994602"><ele>347.5</ele></trkpt>
   <trkpt lon="14.356636" lat="50.994610"><ele>347.5</ele></trkpt>
   <trkpt lon="14.358136" lat="50.994641"><ele>350.75</ele></trkpt>
   <trkpt lon="14.358531" lat="50.994650"><ele>351.25</ele></trkpt>
   <trkpt lon="14.361070" lat="50.994711"><ele>350.75</ele></trkpt>
   <trkpt lon="14.361355" lat="50.994713"><ele>351.0</ele></trkpt>
   <trkpt lon="14.361557" lat="50.994707"><ele>351.0</ele></trkpt>
   <trkpt lon="14.361780" lat="50.994691"><ele>351.25</ele></trkpt>
   <trkpt lon="14.362017" lat="50.994664"><ele>351.25</ele></trkpt>
   <trkpt lon="14.362240" lat="50.994629"><ele>351.25</ele></trkpt>
   <trkpt lon="14.362649" lat="50.994556"><ele>351.5</ele></trkpt>
   <trkpt lon="14.363663" lat="50.994356"><ele>351.5</ele></trkpt>
   <trkpt lon="14.363968" lat="50.994306"><ele>351.5</ele></trkpt>
   <trkpt lon="14.364215" lat="50.994275"><ele>351.5</ele></trkpt>
   <trkpt lon="14.364456" lat="50.994258"><ele>351.75</ele></trkpt>
   <trkpt lon="14.364719" lat="50.994252"><ele>352.0</ele></trkpt>
   <trkpt lon="14.364954" lat="50.994257"><ele>352.25</ele></trkpt>
   <trkpt lon="14.365199" lat="50.994271"><ele>352.5</ele></trkpt>
   <trkpt lon="14.365590" lat="50.994317"><ele>352.75</ele></trkpt>
   <trkpt lon="14.365804" lat="50.994355"><ele>353.0</ele></trkpt>
   <trkpt lon="14.366005" lat="50.994399"><ele>353.25</ele></trkpt>
   <trkpt lon="14.366297" lat="50.994478"><ele>353.5</ele></trkpt>
   <trkpt lon="14.367368" lat="50.994819"><ele>355.0</ele></trkpt>
   <trkpt lon="14.367819" lat="50.994945"><ele>355.5</ele></trkpt>
   <trkpt lon="14.368088" lat="50.994995"><ele>355.75</ele></trkpt>
   <trkpt lon="14.368184" lat="50.995011"><ele>356.0</ele></trkpt>
   <trkpt lon="14.368403" lat="50.995039"><ele>356.25</ele></trkpt>
   <trkpt lon="14.368639" lat="50.995059"><ele>356.25</ele></trkpt>
   <trkpt lon="14.368850" lat="50.995070"><ele>356.5</ele></trkpt>
   <trkpt lon="14.369093" lat="50.995070"><ele>356.5</ele></trkpt>
   <trkpt lon="14.369316" lat="50.995062"><ele>356.5</ele></trkpt>
   <trkpt lon="14.369539" lat="50.995045"><ele>356.5</ele></trkpt>
   <trkpt lon="14.369771" lat="50.995019"><ele>356.75</ele></trkpt>
   <trkpt lon="14.369941" lat="50.994993"><ele>356.75</ele></trkpt>
   <trkpt lon="14.370076" lat="50.994967"><ele>356.75</ele></trkpt>
   <trkpt lon="14.370300" lat="50.994917"><ele>356.75</ele></trkpt>
   <trkpt lon="14.370592" lat="50.994833"><ele>356.75</ele></trkpt>
   <trkpt lon="14.370790" lat="50.994768"><ele>356.75</ele></trkpt>
   <trkpt lon="14.371013" lat="50.994677"><ele>357.25</ele></trkpt>
   <trkpt lon="14.371231" lat="50.994574"><ele>357.5</ele></trkpt>
   <trkpt lon="14.371393" lat="50.994486"><ele>358.0</ele></trkpt>
   <trkpt lon="14.371581" lat="50.994368"><ele>358.5</ele></trkpt>
   <trkpt lon="14.372033" lat="50.994043"><ele>359.0</ele></trkpt>
   <trkpt lon="14.372509" lat="50.993684"><ele>359.25</ele></trkpt>
   <trkpt lon="14.372732" lat="50.993526"><ele>359.75</ele></trkpt>
   <trkpt lon="14.372893" lat="50.993426"><ele>360.0</ele></trkpt>
   <trkpt lon="14.373071" lat="50.993329"><ele>360.25</ele></trkpt>
   <trkpt lon="14.373295" lat="50.993216"><ele>361.0</ele></trkpt>
   <trkpt lon="14.373531" lat="50.993116"><ele>361.75</ele></trkpt>
   <trkpt lon="14.373750" lat="50.993033"><ele>362.5</ele></trkpt>
   <trkpt lon="14.374003" lat="50.992951"><ele>363.5</ele></trkpt>
   <trkpt lon="14.374224" lat="50.992890"><ele>364.0</ele></trkpt>
   <trkpt lon="14.374414" lat="50.992843"><ele>364.75</ele></trkpt>
   <trkpt lon="14.374741" lat="50.992781"><ele>366.0</ele></trkpt>
   <trkpt lon="14.375042" lat="50.992737"><ele>367.0</ele></trkpt>
   <trkpt lon="14.375357" lat="50.992709"><ele>367.0</ele></trkpt>
   <trkpt lon="14.375790" lat="50.992694"><ele>366.75</ele></trkpt>
   <trkpt lon="14.376019" lat="50.992697"><ele>366.5</ele></trkpt>
   <trkpt lon="14.376310" lat="50.992711"><ele>366.5</ele></trkpt>
   <trkpt lon="14.376647" lat="50.992748"><ele>366.5</ele></trkpt>
   <trkpt lon="14.376956" lat="50.992791"><ele>366.25</ele></trkpt>
   <trkpt lon="14.377117" lat="50.992814"><ele>366.25</ele></trkpt>
   <trkpt lon="14.377542" lat="50.992875"><ele>365.75</ele></trkpt>
   <trkpt lon="14.377665" lat="50.992890"><ele>365.75</ele></trkpt>
   <trkpt lon="14.379821" lat="50.993200"><ele>363.0</ele></trkpt>
   <trkpt lon="14.379869" lat="50.993207"><ele>363.0</ele></trkpt>
   <trkpt lon="14.379970" lat="50.993222"><ele>363.0</ele></trkpt>
   <trkpt lon="14.380646" lat="50.993320"><ele>362.75</ele></trkpt>
   <trkpt lon="14.382284" lat="50.993559"><ele>364.25</ele></trkpt>
   <trkpt lon="14.383020" lat="50.993664"><ele>365.5</ele></trkpt>
   <trkpt lon="14.384243" lat="50.993837"><ele>366.75</ele></trkpt>
   <trkpt lon="14.384556" lat="50.993889"><ele>366.75</ele></trkpt>
   <trkpt lon="14.384902" lat="50.993967"><ele>367.0</ele></trkpt>
   <trkpt lon="14.385209" lat="50.994054"><ele>367.0</ele></trkpt>
   <trkpt lon="14.385448" lat="50.994132"><ele>367.25</ele></trkpt>
   <trkpt lon="14.385745" lat="50.994246"><ele>367.0</ele></trkpt>
   <trkpt lon="14.385994" lat="50.994366"><ele>367.0</ele></trkpt>
   <trkpt lon="14.386233" lat="50.994497"><ele>366.75</ele></trkpt>
   <trkpt lon="14.386469" lat="50.994648"><ele>366.75</ele></trkpt>
   <trkpt lon="14.386695" lat="50.994817"><ele>366.5</ele></trkpt>
   <trkpt lon="14.386878" lat="50.994977"><ele>366.5</ele></trkpt>
   <trkpt lon="14.387039" lat="50.995144"><ele>366.5</ele></trkpt>
   <trkpt lon="14.387161" lat="50.995291"><ele>366.75</ele></trkpt>
   <trkpt lon="14.387282" lat="50.995464"><ele>366.75</ele></trkpt>
   <trkpt lon="14.387374" lat="50.995630"><ele>366.75</ele></trkpt>
   <trkpt lon="14.387542" lat="50.996008"><ele>367.5</ele></trkpt>
   <trkpt lon="14.388339" lat="50.998043"><ele>369.5</ele></trkpt>
   <trkpt lon="14.388358" lat="50.998091"><ele>369.5</ele></trkpt>
   <trkpt lon="14.388773" lat="50.999152"><ele>373.75</ele></trkpt>
   <trkpt lon="14.388905" lat="50.999454"><ele>374.25</ele></trkpt>
   <trkpt lon="14.389103" lat="50.999801"><ele>374.75</ele></trkpt>
   <trkpt lon="14.389241" lat="50.999993"><ele>374.75</ele></trkpt>
   <trkpt lon="14.389391" lat="51.000170"><ele>374.25</ele></trkpt>
   <trkpt lon="14.389562" lat="51.000342"><ele>374.0</ele></trkpt>
   <trkpt lon="14.389759" lat="51.000521"><ele>373.5</ele></trkpt>
   <trkpt lon="14.389974" lat="51.000695"><ele>373.0</ele></trkpt>
   <trkpt lon="14.390212" lat="51.000864"><ele>373.0</ele></trkpt>
   <trkpt lon="14.390318" lat="51.000931"><ele>373.0</ele></trkpt>
   <trkpt lon="14.391083" lat="51.001439"><ele>374.0</ele></trkpt>
   <trkpt lon="14.391915" lat="51.001986"><ele>376.25</ele></trkpt>
   <trkpt lon="14.392296" lat="51.002274"><ele>377.25</ele></trkpt>
   <trkpt lon="14.392387" lat="51.002352"><ele>377.5</ele></trkpt>
   <trkpt lon="14.392516" lat="51.002478"><ele>377.75</ele></trkpt>
   <trkpt lon="14.392672" lat="51.002658"><ele>377.5</ele></trkpt>
   <trkpt lon="14.392799" lat="51.002839"><ele>377.25</ele></trkpt>
   <trkpt lon="14.392910" lat="51.003031"><ele>377.25</ele></trkpt>
   <trkpt lon="14.393131" lat="51.003508"><ele>377.25</ele></trkpt>
   <trkpt lon="14.393147" lat="51.003545"><ele>377.25</ele></trkpt>
   <trkpt lon="14.393351" lat="51.003958"><ele>377.25</ele></trkpt>
   <trkpt lon="14.393459" lat="51.004135"><ele>377.75</ele></trkpt>
   <trkpt lon="14.393583" lat="51.004309"><ele>378.25</ele></trkpt>
   <trkpt lon="14.393698" lat="51.004451"><ele>378.75</ele></trkpt>
   <trkpt lon="14.393821" lat="51.004590"><ele>379.25</ele></trkpt>
   <trkpt lon="14.393970" lat="51.004742"><ele>379.5</ele></trkpt>
   <trkpt lon="14.394308" lat="51.005030"><ele>379.5</ele></trkpt>
   <trkpt lon="14.394516" lat="51.005182"><ele>378.75</ele></trkpt>
   <trkpt lon="14.394737" lat="51.005328"><ele>378.25</ele></trkpt>
   <trkpt lon="14.394930" lat="51.005439"><ele>377.75</ele></trkpt>
   <trkpt lon="14.395190" lat="51.005577"><ele>377.5</ele></trkpt>
   <trkpt lon="14.395458" lat="51.005706"><ele>377.25</ele></trkpt>
   <trkpt lon="14.395740" lat="51.005819"><ele>377.0</ele></trkpt>
   <trkpt lon="14.396105" lat="51.005950"><ele>377.0</ele></trkpt>
   <trkpt lon="14.396433" lat="51.006048"><ele>377.0</ele></trkpt>
   <trkpt lon="14.396664" lat="51.006107"><ele>376.75</ele></trkpt>
   <trkpt lon="14.397045" lat="51.006190"><ele>378.5</ele></trkpt>
   <trkpt lon="14.397590" lat="51.006277"><ele>380.0</ele></trkpt>
   <trkpt lon="14.397721" lat="51.006296"><ele>380.5</ele></trkpt>
   <trkpt lon="14.401502" lat="51.006855"><ele>389.25</ele></trkpt>
   <trkpt lon="14.405334" lat="51.007420"><ele>391.25</ele></trkpt>
   <trkpt lon="14.405785" lat="51.007484"><ele>392.75</ele></trkpt>
   <trkpt lon="14.406057" lat="51.007511"><ele>393.5</ele></trkpt>
   <trkpt lon="14.406285" lat="51.007520"><ele>394.0</ele></trkpt>
   <trkpt lon="14.406681" lat="51.007522"><ele>394.75</ele></trkpt>
   <trkpt lon="14.407081" lat="51.007517"><ele>394.75</ele></trkpt>
   <trkpt lon="14.407505" lat="51.007502"><ele>394.75</ele></trkpt>
   <trkpt lon="14.407922" lat="51.007469"><ele>394.25</ele></trkpt>
   <trkpt lon="14.408483" lat="51.007406"><ele>393.75</ele></trkpt>
   <trkpt lon="14.409001" lat="51.007326"><ele>394.0</ele></trkpt>
   <trkpt lon="14.411404" lat="51.006979"><ele>396.25</ele></trkpt>
   <trkpt lon="14.419985" lat="51.005758"><ele>391.0</ele></trkpt>
   <trkpt lon="14.420527" lat="51.005683"><ele>389.25</ele></trkpt>
   <trkpt lon="14.420917" lat="51.005640"><ele>388.0</ele></trkpt>
   <trkpt lon="14.421272" lat="51.005619"><ele>386.75</ele></trkpt>
   <trkpt lon="14.421623" lat="51.005610"><ele>385.5</ele></trkpt>
   <trkpt lon="14.422013" lat="51.005614"><ele>384.75</ele></trkpt>
   <trkpt lon="14.422342" lat="51.005633"><ele>384.0</ele></trkpt>
   <trkpt lon="14.422658" lat="51.005662"><ele>383.0</ele></trkpt>
   <trkpt lon="14.423011" lat="51.005707"><ele>382.0</ele></trkpt>
   <trkpt lon="14.423364" lat="51.005771"><ele>381.0</ele></trkpt>
   <trkpt lon="14.423822" lat="51.005867"><ele>380.5</ele></trkpt>
   <trkpt lon="14.424698" lat="51.006074"><ele>379.75</ele></trkpt>
   <trkpt lon="14.424886" lat="51.006114"><ele>379.75</ele></trkpt>
   <trkpt lon="14.429362" lat="51.007109"><ele>376.25</ele></trkpt>
   <trkpt lon="14.429724" lat="51.007182"><ele>375.25</ele></trkpt>
   <trkpt lon="14.430077" lat="51.007245"><ele>374.25</ele></trkpt>
   <trkpt lon="14.430407" lat="51.007284"><ele>374.0</ele></trkpt>
   <trkpt lon="14.430757" lat="51.007311"><ele>373.75</ele></trkpt>
   <trkpt lon="14.431052" lat="51.007324"><ele>373.25</ele></trkpt>
   <trkpt lon="14.431435" lat="51.007328"><ele>372.5</ele></trkpt>
   <trkpt lon="14.431508" lat="51.007325"><ele>372.25</ele></trkpt>
   <trkpt lon="14.431689" lat="51.007320"><ele>371.75</ele></trkpt>
   <trkpt lon="14.431979" lat="51.007299"><ele>371.5</ele></trkpt>
   <trkpt lon="14.432349" lat="51.007263"><ele>371.25</ele></trkpt>
   <trkpt lon="14.432658" lat="51.007223"><ele>370.75</ele></trkpt>
   <trkpt lon="14.434096" lat="51.006987"><ele>366.75</ele></trkpt>
   <trkpt lon="14.435432" lat="51.006768"><ele>366.75</ele></trkpt>
   <trkpt lon="14.436011" lat="51.006677"><ele>366.25</ele></trkpt>
   <trkpt lon="14.436779" lat="51.006549"><ele>366.0</ele></trkpt>
   <trkpt lon="14.438979" lat="51.006189"><ele>362.75</ele></trkpt>
   <trkpt lon="14.439762" lat="51.006055"><ele>360.5</ele></trkpt>
   <trkpt lon="14.440143" lat="51.005961"><ele>359.5</ele></trkpt>
   <trkpt lon="14.441252" lat="51.005645"><ele>359.5</ele></trkpt>
   <trkpt lon="14.441518" lat="51.005581"><ele>359.5</ele></trkpt>
   <trkpt lon="14.441777" lat="51.005530"><ele>359.25</ele></trkpt>
   <trkpt lon="14.442078" lat="51.005485"><ele>358.75</ele></trkpt>
   <trkpt lon="14.442671" lat="51.005429"><ele>357.75</ele></trkpt>
   <trkpt lon="14.442993" lat="51.005425"><ele>357.5</ele></trkpt>
   <trkpt lon="14.443321" lat="51.005436"><ele>357.0</ele></trkpt>
   <trkpt lon="14.443633" lat="51.005460"><ele>356.75</ele></trkpt>
   <trkpt lon="14.443968" lat="51.005502"><ele>356.25</ele></trkpt>
   <trkpt lon="14.444311" lat="51.005561"><ele>355.75</ele></trkpt>
   <trkpt lon="14.444637" lat="51.005636"><ele>355.0</ele></trkpt>
   <trkpt lon="14.445009" lat="51.005744"><ele>354.25</ele></trkpt>
   <trkpt lon="14.446058" lat="51.006122"><ele>354.25</ele></trkpt>
   <trkpt lon="14.446256" lat="51.006189"><ele>354.0</ele></trkpt>
   <trkpt lon="14.446309" lat="51.006206"><ele>353.75</ele></trkpt>
   <trkpt lon="14.446762" lat="51.006333"><ele>353.25</ele></trkpt>
   <trkpt lon="14.447074" lat="51.006400"><ele>353.5</ele></trkpt>
   <trkpt lon="14.447407" lat="51.006459"><ele>353.5</ele></trkpt>
   <trkpt lon="14.447742" lat="51.006509"><ele>353.25</ele></trkpt>
   <trkpt lon="14.448190" lat="51.006552"><ele>352.5</ele></trkpt>
   <trkpt lon="14.448707" lat="51.006592"><ele>352.0</ele></trkpt>
   <trkpt lon="14.450169" lat="51.006711"><ele>350.75</ele></trkpt>
   <trkpt lon="14.450853" lat="51.006779"><ele>348.75</ele></trkpt>
   <trkpt lon="14.451121" lat="51.006826"><ele>348.25</ele></trkpt>
   <trkpt lon="14.451402" lat="51.006887"><ele>347.75</ele></trkpt>
   <trkpt lon="14.451678" lat="51.006961"><ele>347.25</ele></trkpt>
   <trkpt lon="14.451945" lat="51.007044"><ele>347.25</ele></trkpt>
   <trkpt lon="14.452205" lat="51.007144"><ele>347.25</ele></trkpt>
   <trkpt lon="14.452446" lat="51.007247"><ele>347.25</ele></trkpt>
   <trkpt lon="14.452668" lat="51.007356"><ele>347.0</ele></trkpt>
   <trkpt lon="14.452871" lat="51.007479"><ele>347.0</ele></trkpt>
   <trkpt lon="14.453276" lat="51.007747"><ele>347.25</ele></trkpt>
   <trkpt lon="14.453576" lat="51.007962"><ele>347.75</ele></trkpt>
   <trkpt lon="14.453781" lat="51.008093"><ele>348.0</ele></trkpt>
   <trkpt lon="14.453994" lat="51.008204"><ele>347.75</ele></trkpt>
   <trkpt lon="14.454249" lat="51.008308"><ele>347.25</ele></trkpt>
   <trkpt lon="14.454471" lat="51.008386"><ele>346.25</ele></trkpt>
   <trkpt lon="14.454720" lat="51.008452"><ele>345.0</ele></trkpt>
   <trkpt lon="14.454970" lat="51.008503"><ele>343.75</ele></trkpt>
   <trkpt lon="14.455234" lat="51.008538"><ele>343.25</ele></trkpt>
   <trkpt lon="14.455475" lat="51.008554"><ele>342.5</ele></trkpt>
   <trkpt lon="14.455771" lat="51.008560"><ele>341.5</ele></trkpt>
   <trkpt lon="14.456019" lat="51.008550"><ele>340.75</ele></trkpt>
   <trkpt lon="14.456380" lat="51.008506"><ele>339.75</ele></trkpt>
   <trkpt lon="14.456559" lat="51.008475"><ele>339.25</ele></trkpt>
   <trkpt lon="14.456842" lat="51.008402"><ele>338.75</ele></trkpt>
   <trkpt lon="14.457088" lat="51.008326"><ele>338.25</ele></trkpt>
   <trkpt lon="14.457274" lat="51.008254"><ele>338.0</ele></trkpt>
   <trkpt lon="14.457540" lat="51.008149"><ele>337.75</ele></trkpt>
   <trkpt lon="14.457803" lat="51.008040"><ele>337.5</ele></trkpt>
   <trkpt lon="14.458082" lat="51.007928"><ele>337.25</ele></trkpt>
   <trkpt lon="14.458825" lat="51.007617"><ele>337.75</ele></trkpt>
   <trkpt lon="14.459575" lat="51.007274"><ele>338.5</ele></trkpt>
   <trkpt lon="14.461420" lat="51.006498"><ele>340.0</ele></trkpt>
   <trkpt lon="14.461568" lat="51.006437"><ele>340.25</ele></trkpt>
   <trkpt lon="14.462570" lat="51.006037"><ele>342.0</ele></trkpt>
   <trkpt lon="14.463139" lat="51.005810"><ele>342.25</ele></trkpt>
   <trkpt lon="14.464035" lat="51.005441"><ele>342.5</ele></trkpt>
   <trkpt lon="14.464565" lat="51.005195"><ele>342.25</ele></trkpt>
   <trkpt lon="14.464914" lat="51.004985"><ele>342.0</ele></trkpt>
   <trkpt lon="14.465183" lat="51.004820"><ele>342.0</ele></trkpt>
   <trkpt lon="14.465224" lat="51.004789"><ele>342.0</ele></trkpt>
   <trkpt lon="14.465487" lat="51.004577"><ele>342.0</ele></trkpt>
   <trkpt lon="14.465639" lat="51.004429"><ele>342.0</ele></trkpt>
   <trkpt lon="14.465930" lat="51.004076"><ele>342.25</ele></trkpt>
   <trkpt lon="14.466065" lat="51.003873"><ele>343.0</ele></trkpt>
   <trkpt lon="14.466198" lat="51.003645"><ele>343.75</ele></trkpt>
   <trkpt lon="14.466291" lat="51.003431"><ele>344.5</ele></trkpt>
   <trkpt lon="14.466377" lat="51.003170"><ele>345.5</ele></trkpt>
   <trkpt lon="14.466426" lat="51.002964"><ele>346.0</ele></trkpt>
   <trkpt lon="14.466461" lat="51.002687"><ele>346.75</ele></trkpt>
   <trkpt lon="14.466466" lat="51.002491"><ele>347.5</ele></trkpt>
   <trkpt lon="14.466443" lat="51.002259"><ele>348.0</ele></trkpt>
   <trkpt lon="14.466402" lat="51.002030"><ele>348.5</ele></trkpt>
   <trkpt lon="14.466387" lat="51.001973"><ele>348.5</ele></trkpt>
   <trkpt lon="14.466323" lat="51.001784"><ele>349.0</ele></trkpt>
   <trkpt lon="14.466238" lat="51.001580"><ele>349.5</ele></trkpt>
   <trkpt lon="14.466117" lat="51.001352"><ele>350.0</ele></trkpt>
   <trkpt lon="14.465871" lat="51.000979"><ele>351.5</ele></trkpt>
   <trkpt lon="14.464788" lat="50.999467"><ele>353.75</ele></trkpt>
   <trkpt lon="14.464651" lat="50.999249"><ele>353.75</ele></trkpt>
   <trkpt lon="14.464548" lat="50.999063"><ele>353.75</ele></trkpt>
   <trkpt lon="14.464480" lat="50.998885"><ele>353.25</ele></trkpt>
   <trkpt lon="14.464419" lat="50.998656"><ele>352.75</ele></trkpt>
   <trkpt lon="14.464383" lat="50.998435"><ele>352.25</ele></trkpt>
   <trkpt lon="14.464363" lat="50.998225"><ele>352.0</ele></trkpt>
   <trkpt lon="14.464361" lat="50.997982"><ele>351.5</ele></trkpt>
   <trkpt lon="14.464376" lat="50.997762"><ele>351.0</ele></trkpt>
   <trkpt lon="14.464407" lat="50.997591"><ele>350.5</ele></trkpt>
   <trkpt lon="14.464465" lat="50.997383"><ele>350.25</ele></trkpt>
   <trkpt lon="14.464542" lat="50.997178"><ele>350.0</ele></trkpt>
   <trkpt lon="14.464644" lat="50.996976"><ele>349.75</ele></trkpt>
   <trkpt lon="14.464765" lat="50.996773"><ele>349.5</ele></trkpt>
   <trkpt lon="14.464832" lat="50.996680"><ele>349.25</ele></trkpt>
   <trkpt lon="14.464976" lat="50.996494"><ele>350.25</ele></trkpt>
   <trkpt lon="14.465164" lat="50.996292"><ele>351.5</ele></trkpt>
   <trkpt lon="14.465333" lat="50.996131"><ele>352.75</ele></trkpt>
   <trkpt lon="14.465489" lat="50.996000"><ele>353.75</ele></trkpt>
   <trkpt lon="14.465711" lat="50.995831"><ele>355.0</ele></trkpt>
   <trkpt lon="14.465971" lat="50.995657"><ele>357.0</ele></trkpt>
   <trkpt lon="14.466229" lat="50.995509"><ele>359.25</ele></trkpt>
   <trkpt lon="14.466492" lat="50.995375"><ele>361.25</ele></trkpt>
   <trkpt lon="14.466774" lat="50.995248"><ele>363.25</ele></trkpt>
   <trkpt lon="14.467044" lat="50.995140"><ele>364.5</ele></trkpt>
   <trkpt lon="14.467375" lat="50.995030"><ele>365.5</ele></trkpt>
   <trkpt lon="14.467856" lat="50.994897"><ele>366.0</ele></trkpt>
   <trkpt lon="14.468797" lat="50.994659"><ele>366.0</ele></trkpt>
   <trkpt lon="14.471710" lat="50.993912"><ele>362.25</ele></trkpt>
   <trkpt lon="14.472297" lat="50.993733"><ele>361.5</ele></trkpt>
   <trkpt lon="14.472540" lat="50.993643"><ele>361.5</ele></trkpt>
   <trkpt lon="14.473027" lat="50.993425"><ele>361.25</ele></trkpt>
   <trkpt lon="14.473272" lat="50.993291"><ele>361.0</ele></trkpt>
   <trkpt lon="14.473506" lat="50.993146"><ele>360.0</ele></trkpt>
   <trkpt lon="14.473707" lat="50.993011"><ele>359.0</ele></trkpt>
   <trkpt lon="14.473893" lat="50.992860"><ele>358.5</ele></trkpt>
   <trkpt lon="14.474092" lat="50.992692"><ele>357.75</ele></trkpt>
   <trkpt lon="14.474356" lat="50.992436"><ele>358.5</ele></trkpt>
   <trkpt lon="14.474473" lat="50.992298"><ele>360.25</ele></trkpt>
   <trkpt lon="14.474610" lat="50.992097"><ele>363.0</ele></trkpt>
   <trkpt lon="14.474734" lat="50.991883"><ele>366.25</ele></trkpt>
   <trkpt lon="14.474834" lat="50.991681"><ele>369.0</ele></trkpt>
   <trkpt lon="14.474919" lat="50.991479"><ele>371.0</ele></trkpt>
   <trkpt lon="14.475000" lat="50.991207"><ele>373.25</ele></trkpt>
   <trkpt lon="14.475183" lat="50.990356"><ele>377.75</ele></trkpt>
   <trkpt lon="14.475508" lat="50.988951"><ele>386.25</ele></trkpt>
   <trkpt lon="14.475591" lat="50.988645"><ele>387.5</ele></trkpt>
   <trkpt lon="14.475707" lat="50.988225"><ele>390.25</ele></trkpt>
   <trkpt lon="14.475842" lat="50.987904"><ele>393.5</ele></trkpt>
   <trkpt lon="14.475985" lat="50.987657"><ele>395.75</ele></trkpt>
   <trkpt lon="14.476115" lat="50.987463"><ele>397.5</ele></trkpt>
   <trkpt lon="14.476287" lat="50.987244"><ele>398.0</ele></trkpt>
   <trkpt lon="14.476472" lat="50.987053"><ele>398.5</ele></trkpt>
   <trkpt lon="14.476725" lat="50.986843"><ele>399.0</ele></trkpt>
   <trkpt lon="14.476943" lat="50.986683"><ele>399.5</ele></trkpt>
   <trkpt lon="14.477187" lat="50.986532"><ele>399.5</ele></trkpt>
   <trkpt lon="14.478609" lat="50.985768"><ele>396.75</ele></trkpt>
   <trkpt lon="14.478972" lat="50.985596"><ele>395.5</ele></trkpt>
   <trkpt lon="14.479244" lat="50.985475"><ele>394.25</ele></trkpt>
   <trkpt lon="14.479568" lat="50.985345"><ele>392.0</ele></trkpt>
   <trkpt lon="14.480009" lat="50.985180"><ele>388.75</ele></trkpt>
   <trkpt lon="14.480423" lat="50.985050"><ele>387.25</ele></trkpt>
   <trkpt lon="14.480894" lat="50.984924"><ele>386.25</ele></trkpt>
   <trkpt lon="14.481121" lat="50.984871"><ele>386.0</ele></trkpt>
   <trkpt lon="14.481240" lat="50.984845"><ele>385.75</ele></trkpt>
   <trkpt lon="14.482245" lat="50.984645"><ele>389.5</ele></trkpt>
   <trkpt lon="14.493607" lat="50.982248"><ele>396.0</ele></trkpt>
   <trkpt lon="14.494008" lat="50.982168"><ele>398.25</ele></trkpt>
   <trkpt lon="14.494371" lat="50.982106"><ele>400.25</ele></trkpt>
   <trkpt lon="14.494802" lat="50.982053"><ele>402.5</ele></trkpt>
   <trkpt lon="14.496534" lat="50.981877"><ele>407.75</ele></trkpt>
   <trkpt lon="14.497478" lat="50.981744"><ele>409.25</ele></trkpt>
   <trkpt lon="14.497867" lat="50.981679"><ele>410.25</ele></trkpt>
   <trkpt lon="14.501415" lat="50.980997"><ele>414.25</ele></trkpt>
   <trkpt lon="14.501531" lat="50.980975"><ele>414.25</ele></trkpt>
   <trkpt lon="14.501901" lat="50.980907"><ele>415.0</ele></trkpt>
   <trkpt lon="14.502207" lat="50.980862"><ele>416.0</ele></trkpt>
   <trkpt lon="14.502445" lat="50.980837"><ele>416.75</ele></trkpt>
   <trkpt lon="14.503129" lat="50.980811"><ele>419.25</ele></trkpt>
   <trkpt lon="14.503558" lat="50.980829"><ele>419.5</ele></trkpt>
   <trkpt lon="14.503944" lat="50.980868"><ele>418.0</ele></trkpt>
   <trkpt lon="14.504437" lat="50.980936"><ele>416.0</ele></trkpt>
   <trkpt lon="14.506615" lat="50.981210"><ele>407.75</ele></trkpt>
   <trkpt lon="14.506977" lat="50.981257"><ele>410.0</ele></trkpt>
   <trkpt lon="14.507288" lat="50.981296"><ele>412.25</ele></trkpt>
   <trkpt lon="14.507624" lat="50.981329"><ele>414.5</ele></trkpt>
   <trkpt lon="14.508104" lat="50.981351"><ele>418.0</ele></trkpt>
   <trkpt lon="14.508409" lat="50.981353"><ele>419.5</ele></trkpt>
   <trkpt lon="14.508716" lat="50.981344"><ele>419.5</ele></trkpt>
   <trkpt lon="14.509323" lat="50.981291"><ele>419.5</ele></trkpt>
   <trkpt lon="14.509596" lat="50.981251"><ele>419.75</ele></trkpt>
   <trkpt lon="14.509862" lat="50.981203"><ele>420.0</ele></trkpt>
   <trkpt lon="14.511745" lat="50.980784"><ele>419.5</ele></trkpt>
   <trkpt lon="14.518375" lat="50.979286"><ele>423.75</ele></trkpt>
   <trkpt lon="14.519168" lat="50.979086"><ele>424.5</ele></trkpt>
   <trkpt lon="14.519505" lat="50.978982"><ele>425.0</ele></trkpt>
   <trkpt lon="14.519918" lat="50.978839"><ele>425.5</ele></trkpt>
   <trkpt lon="14.520226" lat="50.978718"><ele>425.5</ele></trkpt>
   <trkpt lon="14.520560" lat="50.978570"><ele>425.5</ele></trkpt>
   <trkpt lon="14.521088" lat="50.978324"><ele>425.25</ele></trkpt>
   <trkpt lon="14.530015" lat="50.974052"><ele>406.25</ele></trkpt>
   <trkpt lon="14.530527" lat="50.973795"><ele>406.75</ele></trkpt>
   <trkpt lon="14.530714" lat="50.973690"><ele>406.75</ele></trkpt>
   <trkpt lon="14.531027" lat="50.973502"><ele>406.5</ele></trkpt>
   <trkpt lon="14.531270" lat="50.973342"><ele>406.0</ele></trkpt>
   <trkpt lon="14.531332" lat="50.973297"><ele>406.0</ele></trkpt>
   <trkpt lon="14.531524" lat="50.973160"><ele>405.5</ele></trkpt>
   <trkpt lon="14.532567" lat="50.972339"><ele>402.25</ele></trkpt>
   <trkpt lon="14.532779" lat="50.972172"><ele>402.0</ele></trkpt>
   <trkpt lon="14.532991" lat="50.971982"><ele>401.25</ele></trkpt>
   <trkpt lon="14.533169" lat="50.971799"><ele>400.5</ele></trkpt>
   <trkpt lon="14.533396" lat="50.971524"><ele>400.0</ele></trkpt>
   <trkpt lon="14.533431" lat="50.971479"><ele>400.0</ele></trkpt>
   <trkpt lon="14.533542" lat="50.971316"><ele>400.5</ele></trkpt>
   <trkpt lon="14.533705" lat="50.970988"><ele>400.75</ele></trkpt>
   <trkpt lon="14.533781" lat="50.970794"><ele>401.0</ele></trkpt>
   <trkpt lon="14.533873" lat="50.970419"><ele>400.75</ele></trkpt>
   <trkpt lon="14.533893" lat="50.970224"><ele>400.75</ele></trkpt>
   <trkpt lon="14.533898" lat="50.970023"><ele>400.5</ele></trkpt>
   <trkpt lon="14.533881" lat="50.969837"><ele>399.75</ele></trkpt>
   <trkpt lon="14.533848" lat="50.969626"><ele>398.75</ele></trkpt>
   <trkpt lon="14.533798" lat="50.969436"><ele>398.0</ele></trkpt>
   <trkpt lon="14.533700" lat="50.969169"><ele>397.0</ele></trkpt>
   <trkpt lon="14.533669" lat="50.969104"><ele>397.0</ele></trkpt>
   <trkpt lon="14.533567" lat="50.968908"><ele>397.0</ele></trkpt>
   <trkpt lon="14.533447" lat="50.968720"><ele>397.25</ele></trkpt>
   <trkpt lon="14.533296" lat="50.968522"><ele>397.75</ele></trkpt>
   <trkpt lon="14.533134" lat="50.968345"><ele>398.0</ele></trkpt>
   <trkpt lon="14.532918" lat="50.968137"><ele>398.0</ele></trkpt>
   <trkpt lon="14.532722" lat="50.967967"><ele>397.75</ele></trkpt>
   <trkpt lon="14.532431" lat="50.967755"><ele>397.5</ele></trkpt>
   <trkpt lon="14.531643" lat="50.967234"><ele>397.25</ele></trkpt>
   <trkpt lon="14.531284" lat="50.966984"><ele>396.0</ele></trkpt>
   <trkpt lon="14.531097" lat="50.966832"><ele>395.5</ele></trkpt>
   <trkpt lon="14.530814" lat="50.966563"><ele>394.75</ele></trkpt>
   <trkpt lon="14.530682" lat="50.966422"><ele>394.75</ele></trkpt>
   <trkpt lon="14.530542" lat="50.966244"><ele>394.75</ele></trkpt>
   <trkpt lon="14.530428" lat="50.966084"><ele>394.75</ele></trkpt>
   <trkpt lon="14.530322" lat="50.965907"><ele>395.0</ele></trkpt>
   <trkpt lon="14.530225" lat="50.965710"><ele>395.25</ele></trkpt>
   <trkpt lon="14.530149" lat="50.965503"><ele>395.5</ele></trkpt>
   <trkpt lon="14.530085" lat="50.965272"><ele>395.5</ele></trkpt>
   <trkpt lon="14.530047" lat="50.965031"><ele>395.75</ele></trkpt>
   <trkpt lon="14.530032" lat="50.964830"><ele>395.0</ele></trkpt>
   <trkpt lon="14.530040" lat="50.964633"><ele>394.0</ele></trkpt>
   <trkpt lon="14.530070" lat="50.964401"><ele>392.75</ele></trkpt>
   <trkpt lon="14.530113" lat="50.964192"><ele>391.75</ele></trkpt>
   <trkpt lon="14.530215" lat="50.963902"><ele>391.5</ele></trkpt>
   <trkpt lon="14.530397" lat="50.963552"><ele>391.25</ele></trkpt>
   <trkpt lon="14.530535" lat="50.963323"><ele>391.25</ele></trkpt>
   <trkpt lon="14.530663" lat="50.963149"><ele>390.75</ele></trkpt>
   <trkpt lon="14.530744" lat="50.963056"><ele>390.5</ele></trkpt>
   <trkpt lon="14.530807" lat="50.962984"><ele>390.5</ele></trkpt>
   <trkpt lon="14.530979" lat="50.962818"><ele>390.25</ele></trkpt>
   <trkpt lon="14.531209" lat="50.962618"><ele>390.25</ele></trkpt>
   <trkpt lon="14.531402" lat="50.962469"><ele>390.5</ele></trkpt>
   <trkpt lon="14.531664" lat="50.962296"><ele>390.5</ele></trkpt>
   <trkpt lon="14.532019" lat="50.962096"><ele>390.0</ele></trkpt>
   <trkpt lon="14.532312" lat="50.961952"><ele>389.75</ele></trkpt>
   <trkpt lon="14.532645" lat="50.961822"><ele>389.75</ele></trkpt>
   <trkpt lon="14.532985" lat="50.961699"><ele>389.5</ele></trkpt>
   <trkpt lon="14.533348" lat="50.961593"><ele>389.5</ele></trkpt>
   <trkpt lon="14.535559" lat="50.961020"><ele>389.5</ele></trkpt>
   <trkpt lon="14.536432" lat="50.960801"><ele>388.0</ele></trkpt>
   <trkpt lon="14.536645" lat="50.960745"><ele>387.5</ele></trkpt>
   <trkpt lon="14.536864" lat="50.960673"><ele>387.0</ele></trkpt>
   <trkpt lon="14.537141" lat="50.960567"><ele>386.5</ele></trkpt>
   <trkpt lon="14.537503" lat="50.960412"><ele>385.75</ele></trkpt>
   <trkpt lon="14.537764" lat="50.960282"><ele>385.0</ele></trkpt>
   <trkpt lon="14.537990" lat="50.960158"><ele>384.5</ele></trkpt>
   <trkpt lon="14.538127" lat="50.960072"><ele>384.25</ele></trkpt>
   <trkpt lon="14.538215" lat="50.960013"><ele>384.0</ele></trkpt>
   <trkpt lon="14.541358" lat="50.957904"><ele>385.5</ele></trkpt>
   <trkpt lon="14.541566" lat="50.957773"><ele>385.75</ele></trkpt>
   <trkpt lon="14.542006" lat="50.957531"><ele>385.75</ele></trkpt>
   <trkpt lon="14.542784" lat="50.957154"><ele>386.5</ele></trkpt>
   <trkpt lon="14.542913" lat="50.957100"><ele>386.75</ele></trkpt>
   <trkpt lon="14.543023" lat="50.957054"><ele>386.75</ele></trkpt>
   <trkpt lon="14.543316" lat="50.956953"><ele>387.25</ele></trkpt>
   <trkpt lon="14.543599" lat="50.956879"><ele>387.0</ele></trkpt>
   <trkpt lon="14.543871" lat="50.956827"><ele>386.75</ele></trkpt>
   <trkpt lon="14.544200" lat="50.956783"><ele>386.5</ele></trkpt>
   <trkpt lon="14.544882" lat="50.956750"><ele>387.25</ele></trkpt>
   <trkpt lon="14.545467" lat="50.956727"><ele>386.5</ele></trkpt>
   <trkpt lon="14.546072" lat="50.956744"><ele>386.0</ele></trkpt>
   <trkpt lon="14.546786" lat="50.956765"><ele>385.25</ele></trkpt>
   <trkpt lon="14.547508" lat="50.956743"><ele>385.25</ele></trkpt>
   <trkpt lon="14.547658" lat="50.956747"><ele>385.5</ele></trkpt>
   <trkpt lon="14.549988" lat="50.956814"><ele>389.0</ele></trkpt>
   <trkpt lon="14.550025" lat="50.956815"><ele>388.25</ele></trkpt>
  </trkseg>
 </trk>
</gpx>
