<?xml version="1.0" encoding="UTF-8"?>
<!-- track-length = 45248 filtered ascend = 85 plain-ascend = -18 cost=45248 energy=0.5kwh time=1h 20s -->
<gpx 
 xmlns="http://www.topografix.com/GPX/1/1" 
 xmlns:xsi="http://www.w3.org/2001/XMLSchema-instance" 
 xsi:schemaLocation="http://www.topografix.com/GPX/1/1 http://www.topografix.com/GPX/1/1/gpx.xsd" 
 version="1.1" 
 creator="BRouter-Web 0.18.1">
 <trk>
  <name>Bebra - Kassel</name>
  <trkseg>
   <trkpt lat="50.968944" lon="9.798825"><ele>203.75</ele></trkpt>
   <trkpt lat="50.969365" lon="9.798454"><ele>204.5</ele></trkpt>
   <trkpt lat="50.969903" lon="9.797975"><ele>206.25</ele></trkpt>
   <trkpt lat="50.970688" lon="9.797246"><ele>205.25</ele></trkpt>
   <trkpt lat="50.971068" lon="9.796799"><ele>204.25</ele></trkpt>
   <trkpt lat="50.971237" lon="9.7966"><ele>204</ele></trkpt>
   <trkpt lat="50.971762" lon="9.796108"><ele>204.5</ele></trkpt>
   <trkpt lat="50.972209" lon="9.79571"><ele>204</ele></trkpt>
   <trkpt lat="50.972279" lon="9.795637"><ele>203.75</ele></trkpt>
   <trkpt lat="50.972287" lon="9.795629"><ele>203.75</ele></trkpt>
   <trkpt lat="50.972696" lon="9.795267"><ele>202</ele></trkpt>
   <trkpt lat="50.972767" lon="9.795203"><ele>201.75</ele></trkpt>
   <trkpt lat="50.973734" lon="9.794351"><ele>199.25</ele></trkpt>
   <trkpt lat="50.974194" lon="9.793934"><ele>200.25</ele></trkpt>
   <trkpt lat="50.974343" lon="9.793793"><ele>201</ele></trkpt>
   <trkpt lat="50.974349" lon="9.793787"><ele>201</ele></trkpt>
   <trkpt lat="50.974397" lon="9.793742"><ele>201.25</ele></trkpt>
   <trkpt lat="50.975894" lon="9.792392"><ele>204.75</ele></trkpt>
   <trkpt lat="50.976604" lon="9.791766"><ele>202.25</ele></trkpt>
   <trkpt lat="50.9775" lon="9.79091"><ele>203</ele></trkpt>
   <trkpt lat="50.977713" lon="9.790687"><ele>202.75</ele></trkpt>
   <trkpt lat="50.978068" lon="9.790281"><ele>201.75</ele></trkpt>
   <trkpt lat="50.978603" lon="9.789587"><ele>200.5</ele></trkpt>
   <trkpt lat="50.978929" lon="9.789131"><ele>200.25</ele></trkpt>
   <trkpt lat="50.979554" lon="9.788065"><ele>201.25</ele></trkpt>
   <trkpt lat="50.979815" lon="9.787576"><ele>201.75</ele></trkpt>
   <trkpt lat="50.979821" lon="9.787565"><ele>201.75</ele></trkpt>
   <trkpt lat="50.980199" lon="9.78681"><ele>202</ele></trkpt>
   <trkpt lat="50.980324" lon="9.786553"><ele>201.75</ele></trkpt>
   <trkpt lat="50.980365" lon="9.786469"><ele>201.75</ele></trkpt>
   <trkpt lat="50.980372" lon="9.786455"><ele>201.75</ele></trkpt>
   <trkpt lat="50.980401" lon="9.786396"><ele>201.75</ele></trkpt>
   <trkpt lat="50.980609" lon="9.785984"><ele>201.25</ele></trkpt>
   <trkpt lat="50.981043" lon="9.785029"><ele>201</ele></trkpt>
   <trkpt lat="50.981094" lon="9.784917"><ele>200.75</ele></trkpt>
   <trkpt lat="50.98257" lon="9.781961"><ele>198.5</ele></trkpt>
   <trkpt lat="50.982798" lon="9.781507"><ele>198.25</ele></trkpt>
   <trkpt lat="50.985095" lon="9.776937"><ele>196.25</ele></trkpt>
   <trkpt lat="50.985651" lon="9.775831"><ele>194.75</ele></trkpt>
   <trkpt lat="50.985956" lon="9.775189"><ele>194.25</ele></trkpt>
   <trkpt lat="50.986305" lon="9.774521"><ele>193.25</ele></trkpt>
   <trkpt lat="50.987101" lon="9.772896"><ele>191</ele></trkpt>
   <trkpt lat="50.98805" lon="9.771007"><ele>191.5</ele></trkpt>
   <trkpt lat="50.98819" lon="9.770725"><ele>191.75</ele></trkpt>
   <trkpt lat="50.988246" lon="9.770611"><ele>191.75</ele></trkpt>
   <trkpt lat="50.988675" lon="9.769753"><ele>192.25</ele></trkpt>
   <trkpt lat="50.988762" lon="9.769589"><ele>192.25</ele></trkpt>
   <trkpt lat="50.990025" lon="9.767048"><ele>192</ele></trkpt>
   <trkpt lat="50.99034" lon="9.766426"><ele>192</ele></trkpt>
   <trkpt lat="50.990374" lon="9.766358"><ele>192</ele></trkpt>
   <trkpt lat="50.990558" lon="9.765985"><ele>191.5</ele></trkpt>
   <trkpt lat="50.990889" lon="9.765283"><ele>190.5</ele></trkpt>
   <trkpt lat="50.991144" lon="9.7647"><ele>190.25</ele></trkpt>
   <trkpt lat="50.991462" lon="9.763888"><ele>190.75</ele></trkpt>
   <trkpt lat="50.991621" lon="9.763429"><ele>190.75</ele></trkpt>
   <trkpt lat="50.991758" lon="9.763005"><ele>190.75</ele></trkpt>
   <trkpt lat="50.991893" lon="9.762554"><ele>190.5</ele></trkpt>
   <trkpt lat="50.992046" lon="9.761997"><ele>190.5</ele></trkpt>
   <trkpt lat="50.992211" lon="9.761344"><ele>190</ele></trkpt>
   <trkpt lat="50.992337" lon="9.760775"><ele>188.75</ele></trkpt>
   <trkpt lat="50.992452" lon="9.76019"><ele>188</ele></trkpt>
   <trkpt lat="50.992534" lon="9.759726"><ele>188.75</ele></trkpt>
   <trkpt lat="50.992607" lon="9.75926"><ele>190.75</ele></trkpt>
   <trkpt lat="50.992743" lon="9.758299"><ele>193.5</ele></trkpt>
   <trkpt lat="50.993018" lon="9.756236"><ele>198</ele></trkpt>
   <trkpt lat="50.993345" lon="9.753655"><ele>193</ele></trkpt>
   <trkpt lat="50.993469" lon="9.752682"><ele>191.25</ele></trkpt>
   <trkpt lat="50.994932" lon="9.741345"><ele>193.5</ele></trkpt>
   <trkpt lat="50.995032" lon="9.740614"><ele>193</ele></trkpt>
   <trkpt lat="50.995144" lon="9.739908"><ele>193</ele></trkpt>
   <trkpt lat="50.995168" lon="9.739768"><ele>193</ele></trkpt>
   <trkpt lat="50.995319" lon="9.739036"><ele>192.5</ele></trkpt>
   <trkpt lat="50.995496" lon="9.73833"><ele>191.75</ele></trkpt>
   <trkpt lat="50.995622" lon="9.737897"><ele>191.25</ele></trkpt>
   <trkpt lat="50.995759" lon="9.737471"><ele>190.75</ele></trkpt>
   <trkpt lat="50.995984" lon="9.736853"><ele>191</ele></trkpt>
   <trkpt lat="50.996168" lon="9.7364"><ele>191.5</ele></trkpt>
   <trkpt lat="50.996394" lon="9.735889"><ele>191.75</ele></trkpt>
   <trkpt lat="50.996652" lon="9.735363"><ele>192.25</ele></trkpt>
   <trkpt lat="50.996888" lon="9.734919"><ele>192.25</ele></trkpt>
   <trkpt lat="50.997217" lon="9.734326"><ele>192.5</ele></trkpt>
   <trkpt lat="50.997871" lon="9.733208"><ele>192.25</ele></trkpt>
   <trkpt lat="50.999332" lon="9.730808"><ele>190.75</ele></trkpt>
   <trkpt lat="50.999488" lon="9.73055"><ele>190.75</ele></trkpt>
   <trkpt lat="51.000787" lon="9.728408"><ele>190.75</ele></trkpt>
   <trkpt lat="51.002073" lon="9.726242"><ele>190.75</ele></trkpt>
   <trkpt lat="51.003982" lon="9.723034"><ele>191.75</ele></trkpt>
   <trkpt lat="51.004291" lon="9.722484"><ele>192.75</ele></trkpt>
   <trkpt lat="51.004469" lon="9.722134"><ele>192.75</ele></trkpt>
   <trkpt lat="51.004562" lon="9.72195"><ele>192.75</ele></trkpt>
   <trkpt lat="51.00483" lon="9.721383"><ele>192</ele></trkpt>
   <trkpt lat="51.005953" lon="9.718759"><ele>194</ele></trkpt>
   <trkpt lat="51.006291" lon="9.717927"><ele>198.25</ele></trkpt>
   <trkpt lat="51.006365" lon="9.717736"><ele>198.75</ele></trkpt>
   <trkpt lat="51.006566" lon="9.717177"><ele>198</ele></trkpt>
   <trkpt lat="51.006664" lon="9.716879"><ele>196.75</ele></trkpt>
   <trkpt lat="51.006849" lon="9.716269"><ele>198.5</ele></trkpt>
   <trkpt lat="51.006999" lon="9.715718"><ele>199.75</ele></trkpt>
   <trkpt lat="51.007139" lon="9.715158"><ele>199.75</ele></trkpt>
   <trkpt lat="51.00723" lon="9.714759"><ele>199.5</ele></trkpt>
   <trkpt lat="51.007313" lon="9.714361"><ele>199.25</ele></trkpt>
   <trkpt lat="51.007427" lon="9.713755"><ele>197.5</ele></trkpt>
   <trkpt lat="51.007511" lon="9.713249"><ele>195.75</ele></trkpt>
   <trkpt lat="51.007583" lon="9.712757"><ele>196</ele></trkpt>
   <trkpt lat="51.007644" lon="9.71229"><ele>195.75</ele></trkpt>
   <trkpt lat="51.007731" lon="9.711471"><ele>194.75</ele></trkpt>
   <trkpt lat="51.007781" lon="9.7108"><ele>193.75</ele></trkpt>
   <trkpt lat="51.007799" lon="9.710481"><ele>193</ele></trkpt>
   <trkpt lat="51.007827" lon="9.709755"><ele>192</ele></trkpt>
   <trkpt lat="51.007834" lon="9.709397"><ele>192</ele></trkpt>
   <trkpt lat="51.007835" lon="9.70922"><ele>192</ele></trkpt>
   <trkpt lat="51.007835" lon="9.70777"><ele>190.75</ele></trkpt>
   <trkpt lat="51.007847" lon="9.706777"><ele>190.5</ele></trkpt>
   <trkpt lat="51.00788" lon="9.705958"><ele>189.75</ele></trkpt>
   <trkpt lat="51.007908" lon="9.705588"><ele>189.5</ele></trkpt>
   <trkpt lat="51.007949" lon="9.705138"><ele>189.75</ele></trkpt>
   <trkpt lat="51.007998" lon="9.704701"><ele>190.5</ele></trkpt>
   <trkpt lat="51.008062" lon="9.704232"><ele>191.25</ele></trkpt>
   <trkpt lat="51.008138" lon="9.703773"><ele>192</ele></trkpt>
   <trkpt lat="51.008226" lon="9.703309"><ele>193</ele></trkpt>
   <trkpt lat="51.008322" lon="9.702856"><ele>193.25</ele></trkpt>
   <trkpt lat="51.008413" lon="9.702483"><ele>193</ele></trkpt>
   <trkpt lat="51.008514" lon="9.70211"><ele>193</ele></trkpt>
   <trkpt lat="51.008622" lon="9.701742"><ele>193</ele></trkpt>
   <trkpt lat="51.008735" lon="9.701393"><ele>192.75</ele></trkpt>
   <trkpt lat="51.008877" lon="9.700996"><ele>192.25</ele></trkpt>
   <trkpt lat="51.009031" lon="9.700593"><ele>191.75</ele></trkpt>
   <trkpt lat="51.009162" lon="9.700288"><ele>191.5</ele></trkpt>
   <trkpt lat="51.009297" lon="9.699988"><ele>191.5</ele></trkpt>
   <trkpt lat="51.009442" lon="9.699691"><ele>191.25</ele></trkpt>
   <trkpt lat="51.009589" lon="9.6994"><ele>191</ele></trkpt>
   <trkpt lat="51.009797" lon="9.69902"><ele>190.25</ele></trkpt>
   <trkpt lat="51.010009" lon="9.698651"><ele>189.5</ele></trkpt>
   <trkpt lat="51.01043" lon="9.697993"><ele>190</ele></trkpt>
   <trkpt lat="51.012836" lon="9.694453"><ele>186</ele></trkpt>
   <trkpt lat="51.015166" lon="9.691041"><ele>186.25</ele></trkpt>
   <trkpt lat="51.015728" lon="9.690264"><ele>186.25</ele></trkpt>
   <trkpt lat="51.016079" lon="9.689834"><ele>187.5</ele></trkpt>
   <trkpt lat="51.016406" lon="9.689472"><ele>189</ele></trkpt>
   <trkpt lat="51.01672" lon="9.689156"><ele>189.25</ele></trkpt>
   <trkpt lat="51.017082" lon="9.688829"><ele>188.5</ele></trkpt>
   <trkpt lat="51.017204" lon="9.688729"><ele>188</ele></trkpt>
   <trkpt lat="51.017394" lon="9.688572"><ele>186.75</ele></trkpt>
   <trkpt lat="51.017805" lon="9.688265"><ele>185</ele></trkpt>
   <trkpt lat="51.018101" lon="9.688072"><ele>185.75</ele></trkpt>
   <trkpt lat="51.018821" lon="9.687637"><ele>185.75</ele></trkpt>
   <trkpt lat="51.024933" lon="9.684277"><ele>188.75</ele></trkpt>
   <trkpt lat="51.028303" lon="9.68242"><ele>183.75</ele></trkpt>
   <trkpt lat="51.028404" lon="9.682363"><ele>183.5</ele></trkpt>
   <trkpt lat="51.028799" lon="9.682142"><ele>182.25</ele></trkpt>
   <trkpt lat="51.030656" lon="9.681101"><ele>181.25</ele></trkpt>
   <trkpt lat="51.031014" lon="9.680865"><ele>182</ele></trkpt>
   <trkpt lat="51.031362" lon="9.680601"><ele>183.5</ele></trkpt>
   <trkpt lat="51.031748" lon="9.680278"><ele>184.5</ele></trkpt>
   <trkpt lat="51.032046" lon="9.679991"><ele>185.25</ele></trkpt>
   <trkpt lat="51.032518" lon="9.679487"><ele>186</ele></trkpt>
   <trkpt lat="51.036119" lon="9.67533"><ele>181.25</ele></trkpt>
   <trkpt lat="51.036214" lon="9.675221"><ele>181</ele></trkpt>
   <trkpt lat="51.03752" lon="9.673712"><ele>180.5</ele></trkpt>
   <trkpt lat="51.038205" lon="9.672999"><ele>181.25</ele></trkpt>
   <trkpt lat="51.038312" lon="9.672875"><ele>181.25</ele></trkpt>
   <trkpt lat="51.043098" lon="9.667351"><ele>180</ele></trkpt>
   <trkpt lat="51.044043" lon="9.666274"><ele>181.25</ele></trkpt>
   <trkpt lat="51.044763" lon="9.665455"><ele>182</ele></trkpt>
   <trkpt lat="51.045729" lon="9.664337"><ele>183</ele></trkpt>
   <trkpt lat="51.046262" lon="9.66372"><ele>182.75</ele></trkpt>
   <trkpt lat="51.046284" lon="9.663695"><ele>182.75</ele></trkpt>
   <trkpt lat="51.047011" lon="9.662852"><ele>183.5</ele></trkpt>
   <trkpt lat="51.047437" lon="9.662348"><ele>183.5</ele></trkpt>
   <trkpt lat="51.047632" lon="9.662101"><ele>183.25</ele></trkpt>
   <trkpt lat="51.047859" lon="9.66179"><ele>183</ele></trkpt>
   <trkpt lat="51.048114" lon="9.661408"><ele>182.75</ele></trkpt>
   <trkpt lat="51.048361" lon="9.661002"><ele>182.25</ele></trkpt>
   <trkpt lat="51.048625" lon="9.660528"><ele>181.5</ele></trkpt>
   <trkpt lat="51.048881" lon="9.660028"><ele>180.5</ele></trkpt>
   <trkpt lat="51.049015" lon="9.659746"><ele>180.5</ele></trkpt>
   <trkpt lat="51.049146" lon="9.659449"><ele>180.25</ele></trkpt>
   <trkpt lat="51.049276" lon="9.659146"><ele>179.75</ele></trkpt>
   <trkpt lat="51.049395" lon="9.658841"><ele>179.5</ele></trkpt>
   <trkpt lat="51.049556" lon="9.658401"><ele>179.5</ele></trkpt>
   <trkpt lat="51.049703" lon="9.657958"><ele>179</ele></trkpt>
   <trkpt lat="51.049844" lon="9.657487"><ele>178.75</ele></trkpt>
   <trkpt lat="51.050062" lon="9.656648"><ele>178.75</ele></trkpt>
   <trkpt lat="51.050124" lon="9.656362"><ele>178.75</ele></trkpt>
   <trkpt lat="51.050217" lon="9.655907"><ele>178.5</ele></trkpt>
   <trkpt lat="51.050288" lon="9.655518"><ele>178.5</ele></trkpt>
   <trkpt lat="51.052512" lon="9.642611"><ele>179.75</ele></trkpt>
   <trkpt lat="51.053236" lon="9.638402"><ele>183.25</ele></trkpt>
   <trkpt lat="51.054125" lon="9.633248"><ele>184.5</ele></trkpt>
   <trkpt lat="51.054262" lon="9.632517"><ele>184.25</ele></trkpt>
   <trkpt lat="51.054427" lon="9.631764"><ele>184.75</ele></trkpt>
   <trkpt lat="51.054532" lon="9.631356"><ele>184</ele></trkpt>
   <trkpt lat="51.054642" lon="9.630959"><ele>183</ele></trkpt>
   <trkpt lat="51.054728" lon="9.630677"><ele>182.5</ele></trkpt>
   <trkpt lat="51.054907" lon="9.630136"><ele>181.75</ele></trkpt>
   <trkpt lat="51.055163" lon="9.629466"><ele>181.75</ele></trkpt>
   <trkpt lat="51.05533" lon="9.629072"><ele>182</ele></trkpt>
   <trkpt lat="51.055509" lon="9.628685"><ele>182.75</ele></trkpt>
   <trkpt lat="51.055691" lon="9.628321"><ele>183.25</ele></trkpt>
   <trkpt lat="51.055869" lon="9.627991"><ele>183.75</ele></trkpt>
   <trkpt lat="51.05605" lon="9.627677"><ele>184.25</ele></trkpt>
   <trkpt lat="51.056435" lon="9.627064"><ele>185.25</ele></trkpt>
   <trkpt lat="51.057022" lon="9.626184"><ele>185.75</ele></trkpt>
   <trkpt lat="51.059438" lon="9.62259"><ele>178</ele></trkpt>
   <trkpt lat="51.059506" lon="9.62249"><ele>177.75</ele></trkpt>
   <trkpt lat="51.060921" lon="9.62039"><ele>177.75</ele></trkpt>
   <trkpt lat="51.061079" lon="9.620157"><ele>177.5</ele></trkpt>
   <trkpt lat="51.062736" lon="9.61769"><ele>177</ele></trkpt>
   <trkpt lat="51.063387" lon="9.616721"><ele>178</ele></trkpt>
   <trkpt lat="51.065163" lon="9.614103"><ele>185</ele></trkpt>
   <trkpt lat="51.066282" lon="9.612473"><ele>184.75</ele></trkpt>
   <trkpt lat="51.067397" lon="9.610847"><ele>184.5</ele></trkpt>
   <trkpt lat="51.067518" lon="9.610665"><ele>185</ele></trkpt>
   <trkpt lat="51.067748" lon="9.610317"><ele>184.75</ele></trkpt>
   <trkpt lat="51.067976" lon="9.609957"><ele>184.25</ele></trkpt>
   <trkpt lat="51.068134" lon="9.609693"><ele>183.5</ele></trkpt>
   <trkpt lat="51.068384" lon="9.609205"><ele>182.25</ele></trkpt>
   <trkpt lat="51.068563" lon="9.608805"><ele>182.75</ele></trkpt>
   <trkpt lat="51.068722" lon="9.608385"><ele>183.25</ele></trkpt>
   <trkpt lat="51.06882" lon="9.608078"><ele>183.25</ele></trkpt>
   <trkpt lat="51.068931" lon="9.607699"><ele>183.25</ele></trkpt>
   <trkpt lat="51.069001" lon="9.607421"><ele>183.5</ele></trkpt>
   <trkpt lat="51.069054" lon="9.607181"><ele>183.5</ele></trkpt>
   <trkpt lat="51.069145" lon="9.606696"><ele>183.75</ele></trkpt>
   <trkpt lat="51.069211" lon="9.606219"><ele>184.25</ele></trkpt>
   <trkpt lat="51.069256" lon="9.605756"><ele>184.25</ele></trkpt>
   <trkpt lat="51.069282" lon="9.605266"><ele>183.75</ele></trkpt>
   <trkpt lat="51.069287" lon="9.605014"><ele>183.25</ele></trkpt>
   <trkpt lat="51.069274" lon="9.604115"><ele>183.25</ele></trkpt>
   <trkpt lat="51.069221" lon="9.602758"><ele>182</ele></trkpt>
   <trkpt lat="51.06903" lon="9.597873"><ele>185.5</ele></trkpt>
   <trkpt lat="51.069005" lon="9.596843"><ele>191.25</ele></trkpt>
   <trkpt lat="51.069003" lon="9.596337"><ele>191.5</ele></trkpt>
   <trkpt lat="51.069011" lon="9.595829"><ele>190.75</ele></trkpt>
   <trkpt lat="51.06906" lon="9.594952"><ele>190.5</ele></trkpt>
   <trkpt lat="51.069106" lon="9.594452"><ele>189.25</ele></trkpt>
   <trkpt lat="51.069131" lon="9.594217"><ele>188.5</ele></trkpt>
   <trkpt lat="51.069211" lon="9.593606"><ele>188.25</ele></trkpt>
   <trkpt lat="51.069247" lon="9.593366"><ele>188.25</ele></trkpt>
   <trkpt lat="51.069329" lon="9.592893"><ele>188.75</ele></trkpt>
   <trkpt lat="51.069441" lon="9.592322"><ele>189.5</ele></trkpt>
   <trkpt lat="51.070193" lon="9.58893"><ele>186.75</ele></trkpt>
   <trkpt lat="51.070378" lon="9.588189"><ele>184.75</ele></trkpt>
   <trkpt lat="51.070574" lon="9.587516"><ele>184.25</ele></trkpt>
   <trkpt lat="51.070794" lon="9.586876"><ele>182.75</ele></trkpt>
   <trkpt lat="51.070974" lon="9.586417"><ele>184</ele></trkpt>
   <trkpt lat="51.071163" lon="9.585976"><ele>185.75</ele></trkpt>
   <trkpt lat="51.071522" lon="9.585202"><ele>186.75</ele></trkpt>
   <trkpt lat="51.072208" lon="9.583763"><ele>186.75</ele></trkpt>
   <trkpt lat="51.073042" lon="9.582018"><ele>183.75</ele></trkpt>
   <trkpt lat="51.076104" lon="9.575608"><ele>190.25</ele></trkpt>
   <trkpt lat="51.076253" lon="9.575299"><ele>189.25</ele></trkpt>
   <trkpt lat="51.076479" lon="9.574802"><ele>188</ele></trkpt>
   <trkpt lat="51.076597" lon="9.574529"><ele>187.25</ele></trkpt>
   <trkpt lat="51.076757" lon="9.574124"><ele>186.75</ele></trkpt>
   <trkpt lat="51.076904" lon="9.573719"><ele>187</ele></trkpt>
   <trkpt lat="51.07707" lon="9.5732"><ele>186.5</ele></trkpt>
   <trkpt lat="51.077174" lon="9.572838"><ele>187.5</ele></trkpt>
   <trkpt lat="51.07727" lon="9.572452"><ele>187.5</ele></trkpt>
   <trkpt lat="51.077348" lon="9.572116"><ele>187.5</ele></trkpt>
   <trkpt lat="51.077475" lon="9.571458"><ele>186.5</ele></trkpt>
   <trkpt lat="51.077529" lon="9.571131"><ele>185.75</ele></trkpt>
   <trkpt lat="51.077617" lon="9.57045"><ele>184.75</ele></trkpt>
   <trkpt lat="51.07765" lon="9.570111"><ele>184.25</ele></trkpt>
   <trkpt lat="51.077694" lon="9.569431"><ele>184</ele></trkpt>
   <trkpt lat="51.07771" lon="9.568749"><ele>183.5</ele></trkpt>
   <trkpt lat="51.07771" lon="9.568447"><ele>183</ele></trkpt>
   <trkpt lat="51.07769" lon="9.567813"><ele>181.75</ele></trkpt>
   <trkpt lat="51.077632" lon="9.567015"><ele>179.5</ele></trkpt>
   <trkpt lat="51.07747" lon="9.565412"><ele>176.75</ele></trkpt>
   <trkpt lat="51.077374" lon="9.564311"><ele>179</ele></trkpt>
   <trkpt lat="51.077343" lon="9.563655"><ele>181.25</ele></trkpt>
   <trkpt lat="51.077336" lon="9.563285"><ele>183</ele></trkpt>
   <trkpt lat="51.077338" lon="9.562915"><ele>187.25</ele></trkpt>
   <trkpt lat="51.077348" lon="9.562499"><ele>192.5</ele></trkpt>
   <trkpt lat="51.077372" lon="9.562025"><ele>198</ele></trkpt>
   <trkpt lat="51.077389" lon="9.561749"><ele>201.5</ele></trkpt>
   <trkpt lat="51.077422" lon="9.561415"><ele>201</ele></trkpt>
   <trkpt lat="51.077542" lon="9.560605"><ele>200.25</ele></trkpt>
   <trkpt lat="51.077674" lon="9.559821"><ele>199.75</ele></trkpt>
   <trkpt lat="51.07795" lon="9.558714"><ele>198.75</ele></trkpt>
   <trkpt lat="51.07813" lon="9.558187"><ele>198.25</ele></trkpt>
   <trkpt lat="51.078201" lon="9.557985"><ele>198.25</ele></trkpt>
   <trkpt lat="51.078386" lon="9.557491"><ele>186</ele></trkpt>
   <trkpt lat="51.078527" lon="9.557154"><ele>180.25</ele></trkpt>
   <trkpt lat="51.078675" lon="9.556829"><ele>176</ele></trkpt>
   <trkpt lat="51.078791" lon="9.556598"><ele>174</ele></trkpt>
   <trkpt lat="51.079037" lon="9.556152"><ele>173</ele></trkpt>
   <trkpt lat="51.079171" lon="9.555936"><ele>172.75</ele></trkpt>
   <trkpt lat="51.079367" lon="9.555639"><ele>173</ele></trkpt>
   <trkpt lat="51.07945" lon="9.555526"><ele>173</ele></trkpt>
   <trkpt lat="51.079547" lon="9.555392"><ele>173</ele></trkpt>
   <trkpt lat="51.07982" lon="9.555056"><ele>173.5</ele></trkpt>
   <trkpt lat="51.079827" lon="9.555044"><ele>173.75</ele></trkpt>
   <trkpt lat="51.080022" lon="9.55483"><ele>173.5</ele></trkpt>
   <trkpt lat="51.080066" lon="9.554776"><ele>173.5</ele></trkpt>
   <trkpt lat="51.080562" lon="9.554238"><ele>174.75</ele></trkpt>
   <trkpt lat="51.080893" lon="9.553948"><ele>175.75</ele></trkpt>
   <trkpt lat="51.081195" lon="9.553723"><ele>175.75</ele></trkpt>
   <trkpt lat="51.081309" lon="9.553655"><ele>176.25</ele></trkpt>
   <trkpt lat="51.081502" lon="9.553546"><ele>177.5</ele></trkpt>
   <trkpt lat="51.081852" lon="9.553386"><ele>179</ele></trkpt>
   <trkpt lat="51.082234" lon="9.553217"><ele>180</ele></trkpt>
   <trkpt lat="51.082619" lon="9.553077"><ele>181.25</ele></trkpt>
   <trkpt lat="51.082654" lon="9.553067"><ele>181.5</ele></trkpt>
   <trkpt lat="51.082772" lon="9.553033"><ele>182</ele></trkpt>
   <trkpt lat="51.083197" lon="9.552864"><ele>184</ele></trkpt>
   <trkpt lat="51.083437" lon="9.552781"><ele>184.75</ele></trkpt>
   <trkpt lat="51.083639" lon="9.552727"><ele>184.75</ele></trkpt>
   <trkpt lat="51.084849" lon="9.55239"><ele>186</ele></trkpt>
   <trkpt lat="51.085282" lon="9.55226"><ele>185.75</ele></trkpt>
   <trkpt lat="51.085643" lon="9.552127"><ele>185</ele></trkpt>
   <trkpt lat="51.085992" lon="9.55197"><ele>183.75</ele></trkpt>
   <trkpt lat="51.086364" lon="9.551769"><ele>182</ele></trkpt>
   <trkpt lat="51.08675" lon="9.551519"><ele>181.25</ele></trkpt>
   <trkpt lat="51.087231" lon="9.551153"><ele>182.75</ele></trkpt>
   <trkpt lat="51.087376" lon="9.551032"><ele>183.25</ele></trkpt>
   <trkpt lat="51.087771" lon="9.550655"><ele>184.5</ele></trkpt>
   <trkpt lat="51.088272" lon="9.550091"><ele>184</ele></trkpt>
   <trkpt lat="51.088612" lon="9.549635"><ele>186</ele></trkpt>
   <trkpt lat="51.088965" lon="9.549118"><ele>188.5</ele></trkpt>
   <trkpt lat="51.089302" lon="9.548579"><ele>189.75</ele></trkpt>
   <trkpt lat="51.089522" lon="9.548187"><ele>189</ele></trkpt>
   <trkpt lat="51.089632" lon="9.548008"><ele>188.25</ele></trkpt>
   <trkpt lat="51.089919" lon="9.547571"><ele>186.75</ele></trkpt>
   <trkpt lat="51.090101" lon="9.547265"><ele>187</ele></trkpt>
   <trkpt lat="51.090604" lon="9.546473"><ele>183</ele></trkpt>
   <trkpt lat="51.090668" lon="9.546361"><ele>182</ele></trkpt>
   <trkpt lat="51.09086" lon="9.546022"><ele>179.75</ele></trkpt>
   <trkpt lat="51.091208" lon="9.545413"><ele>178.25</ele></trkpt>
   <trkpt lat="51.09141" lon="9.545059"><ele>176.75</ele></trkpt>
   <trkpt lat="51.09303" lon="9.542224"><ele>173</ele></trkpt>
   <trkpt lat="51.094102" lon="9.540337"><ele>173.5</ele></trkpt>
   <trkpt lat="51.094264" lon="9.54005"><ele>173.75</ele></trkpt>
   <trkpt lat="51.095661" lon="9.537617"><ele>178.25</ele></trkpt>
   <trkpt lat="51.096086" lon="9.536836"><ele>179</ele></trkpt>
   <trkpt lat="51.096093" lon="9.536823"><ele>179</ele></trkpt>
   <trkpt lat="51.09637" lon="9.536297"><ele>178.5</ele></trkpt>
   <trkpt lat="51.096495" lon="9.536054"><ele>178.75</ele></trkpt>
   <trkpt lat="51.096783" lon="9.535525"><ele>179.75</ele></trkpt>
   <trkpt lat="51.0969" lon="9.535335"><ele>180.25</ele></trkpt>
   <trkpt lat="51.097213" lon="9.534862"><ele>182</ele></trkpt>
   <trkpt lat="51.097415" lon="9.534586"><ele>183.75</ele></trkpt>
   <trkpt lat="51.097598" lon="9.534368"><ele>185.25</ele></trkpt>
   <trkpt lat="51.097736" lon="9.534218"><ele>186</ele></trkpt>
   <trkpt lat="51.098121" lon="9.533849"><ele>187.25</ele></trkpt>
   <trkpt lat="51.098408" lon="9.53359"><ele>188</ele></trkpt>
   <trkpt lat="51.098638" lon="9.533417"><ele>188</ele></trkpt>
   <trkpt lat="51.099081" lon="9.533129"><ele>188</ele></trkpt>
   <trkpt lat="51.099645" lon="9.532791"><ele>185.75</ele></trkpt>
   <trkpt lat="51.10022" lon="9.532466"><ele>183.75</ele></trkpt>
   <trkpt lat="51.100587" lon="9.5323"><ele>183.25</ele></trkpt>
   <trkpt lat="51.100968" lon="9.53218"><ele>182.5</ele></trkpt>
   <trkpt lat="51.101286" lon="9.532112"><ele>182.25</ele></trkpt>
   <trkpt lat="51.101554" lon="9.532079"><ele>181.75</ele></trkpt>
   <trkpt lat="51.101871" lon="9.532064"><ele>181.5</ele></trkpt>
   <trkpt lat="51.102226" lon="9.532082"><ele>181.5</ele></trkpt>
   <trkpt lat="51.102425" lon="9.532112"><ele>181.25</ele></trkpt>
   <trkpt lat="51.102656" lon="9.532154"><ele>182</ele></trkpt>
   <trkpt lat="51.103007" lon="9.532252"><ele>183.75</ele></trkpt>
   <trkpt lat="51.103171" lon="9.532308"><ele>184.25</ele></trkpt>
   <trkpt lat="51.103509" lon="9.532441"><ele>185.75</ele></trkpt>
   <trkpt lat="51.103767" lon="9.53257"><ele>186.25</ele></trkpt>
   <trkpt lat="51.103919" lon="9.532658"><ele>186</ele></trkpt>
   <trkpt lat="51.104183" lon="9.532819"><ele>185.25</ele></trkpt>
   <trkpt lat="51.104381" lon="9.532956"><ele>186</ele></trkpt>
   <trkpt lat="51.104769" lon="9.53326"><ele>185.75</ele></trkpt>
   <trkpt lat="51.105182" lon="9.53364"><ele>189.25</ele></trkpt>
   <trkpt lat="51.105373" lon="9.533843"><ele>191</ele></trkpt>
   <trkpt lat="51.105658" lon="9.534168"><ele>191.5</ele></trkpt>
   <trkpt lat="51.105808" lon="9.534364"><ele>190</ele></trkpt>
   <trkpt lat="51.106087" lon="9.534753"><ele>188.25</ele></trkpt>
   <trkpt lat="51.106409" lon="9.535258"><ele>187.5</ele></trkpt>
   <trkpt lat="51.10659" lon="9.53556"><ele>187.25</ele></trkpt>
   <trkpt lat="51.106887" lon="9.53608"><ele>187.75</ele></trkpt>
   <trkpt lat="51.107318" lon="9.536858"><ele>185.75</ele></trkpt>
   <trkpt lat="51.107612" lon="9.537357"><ele>186</ele></trkpt>
   <trkpt lat="51.107729" lon="9.537537"><ele>185.75</ele></trkpt>
   <trkpt lat="51.107969" lon="9.537895"><ele>183.75</ele></trkpt>
   <trkpt lat="51.108315" lon="9.538346"><ele>179.5</ele></trkpt>
   <trkpt lat="51.108521" lon="9.538589"><ele>179.75</ele></trkpt>
   <trkpt lat="51.108731" lon="9.538818"><ele>180</ele></trkpt>
   <trkpt lat="51.109164" lon="9.539246"><ele>180.25</ele></trkpt>
   <trkpt lat="51.109635" lon="9.539649"><ele>177</ele></trkpt>
   <trkpt lat="51.110093" lon="9.53998"><ele>174.75</ele></trkpt>
   <trkpt lat="51.110281" lon="9.540103"><ele>174</ele></trkpt>
   <trkpt lat="51.110606" lon="9.54029"><ele>173</ele></trkpt>
   <trkpt lat="51.111108" lon="9.540536"><ele>171.5</ele></trkpt>
   <trkpt lat="51.111425" lon="9.54066"><ele>170.5</ele></trkpt>
   <trkpt lat="51.111748" lon="9.540765"><ele>170</ele></trkpt>
   <trkpt lat="51.112016" lon="9.540838"><ele>169.75</ele></trkpt>
   <trkpt lat="51.112354" lon="9.540907"><ele>169.75</ele></trkpt>
   <trkpt lat="51.11271" lon="9.540956"><ele>170</ele></trkpt>
   <trkpt lat="51.11322" lon="9.540981"><ele>170.25</ele></trkpt>
   <trkpt lat="51.113663" lon="9.540965"><ele>169.75</ele></trkpt>
   <trkpt lat="51.114094" lon="9.540906"><ele>169</ele></trkpt>
   <trkpt lat="51.114369" lon="9.540854"><ele>168.75</ele></trkpt>
   <trkpt lat="51.114896" lon="9.540709"><ele>168</ele></trkpt>
   <trkpt lat="51.115251" lon="9.540589"><ele>167.75</ele></trkpt>
   <trkpt lat="51.116608" lon="9.54011"><ele>169.75</ele></trkpt>
   <trkpt lat="51.117168" lon="9.53991"><ele>173.75</ele></trkpt>
   <trkpt lat="51.117308" lon="9.53986"><ele>175</ele></trkpt>
   <trkpt lat="51.117792" lon="9.539693"><ele>177.5</ele></trkpt>
   <trkpt lat="51.118083" lon="9.539604"><ele>178.75</ele></trkpt>
   <trkpt lat="51.118612" lon="9.539487"><ele>180.25</ele></trkpt>
   <trkpt lat="51.118785" lon="9.539466"><ele>180.25</ele></trkpt>
   <trkpt lat="51.119053" lon="9.539453"><ele>180.75</ele></trkpt>
   <trkpt lat="51.119123" lon="9.539457"><ele>180.75</ele></trkpt>
   <trkpt lat="51.11914" lon="9.539458"><ele>181</ele></trkpt>
   <trkpt lat="51.119533" lon="9.539498"><ele>180</ele></trkpt>
   <trkpt lat="51.119729" lon="9.539537"><ele>179.5</ele></trkpt>
   <trkpt lat="51.120002" lon="9.539622"><ele>179</ele></trkpt>
   <trkpt lat="51.120285" lon="9.539734"><ele>177.75</ele></trkpt>
   <trkpt lat="51.120471" lon="9.539823"><ele>177.25</ele></trkpt>
   <trkpt lat="51.120706" lon="9.539954"><ele>176.5</ele></trkpt>
   <trkpt lat="51.121065" lon="9.540196"><ele>176</ele></trkpt>
   <trkpt lat="51.121318" lon="9.540403"><ele>176</ele></trkpt>
   <trkpt lat="51.121598" lon="9.540667"><ele>176.25</ele></trkpt>
   <trkpt lat="51.121749" lon="9.540827"><ele>176.5</ele></trkpt>
   <trkpt lat="51.122162" lon="9.541301"><ele>176.75</ele></trkpt>
   <trkpt lat="51.122234" lon="9.54139"><ele>176.5</ele></trkpt>
   <trkpt lat="51.123478" lon="9.542898"><ele>175.5</ele></trkpt>
   <trkpt lat="51.124144" lon="9.543732"><ele>175.5</ele></trkpt>
   <trkpt lat="51.124446" lon="9.54412"><ele>176.25</ele></trkpt>
   <trkpt lat="51.124497" lon="9.544187"><ele>176.5</ele></trkpt>
   <trkpt lat="51.125378" lon="9.54534"><ele>176.75</ele></trkpt>
   <trkpt lat="51.125973" lon="9.546087"><ele>177.75</ele></trkpt>
   <trkpt lat="51.126085" lon="9.546228"><ele>178</ele></trkpt>
   <trkpt lat="51.126619" lon="9.546873"><ele>179.25</ele></trkpt>
   <trkpt lat="51.127279" lon="9.547677"><ele>180</ele></trkpt>
   <trkpt lat="51.127287" lon="9.547686"><ele>180.25</ele></trkpt>
   <trkpt lat="51.12747" lon="9.54791"><ele>180.5</ele></trkpt>
   <trkpt lat="51.128264" lon="9.548866"><ele>179.5</ele></trkpt>
   <trkpt lat="51.128524" lon="9.549177"><ele>179</ele></trkpt>
   <trkpt lat="51.128694" lon="9.549365"><ele>178</ele></trkpt>
   <trkpt lat="51.128978" lon="9.54963"><ele>175.25</ele></trkpt>
   <trkpt lat="51.129186" lon="9.549794"><ele>172.5</ele></trkpt>
   <trkpt lat="51.129376" lon="9.549919"><ele>172.5</ele></trkpt>
   <trkpt lat="51.129547" lon="9.550008"><ele>172.5</ele></trkpt>
   <trkpt lat="51.12971" lon="9.550076"><ele>172.5</ele></trkpt>
   <trkpt lat="51.129974" lon="9.550148"><ele>172.25</ele></trkpt>
   <trkpt lat="51.130167" lon="9.550168"><ele>172</ele></trkpt>
   <trkpt lat="51.130362" lon="9.550167"><ele>171.75</ele></trkpt>
   <trkpt lat="51.130517" lon="9.550147"><ele>171.5</ele></trkpt>
   <trkpt lat="51.130629" lon="9.550121"><ele>171.5</ele></trkpt>
   <trkpt lat="51.130884" lon="9.550041"><ele>172</ele></trkpt>
   <trkpt lat="51.131062" lon="9.549956"><ele>172.25</ele></trkpt>
   <trkpt lat="51.13121" lon="9.54987"><ele>172.5</ele></trkpt>
   <trkpt lat="51.131377" lon="9.549742"><ele>172.75</ele></trkpt>
   <trkpt lat="51.131497" lon="9.549639"><ele>173</ele></trkpt>
   <trkpt lat="51.131601" lon="9.549537"><ele>173.25</ele></trkpt>
   <trkpt lat="51.131763" lon="9.549366"><ele>173.25</ele></trkpt>
   <trkpt lat="51.131962" lon="9.549112"><ele>174.5</ele></trkpt>
   <trkpt lat="51.132002" lon="9.549046"><ele>174.75</ele></trkpt>
   <trkpt lat="51.132216" lon="9.548692"><ele>175.25</ele></trkpt>
   <trkpt lat="51.132401" lon="9.548356"><ele>175</ele></trkpt>
   <trkpt lat="51.132663" lon="9.547886"><ele>175.75</ele></trkpt>
   <trkpt lat="51.132798" lon="9.547645"><ele>176</ele></trkpt>
   <trkpt lat="51.133006" lon="9.547286"><ele>175.75</ele></trkpt>
   <trkpt lat="51.13331" lon="9.546824"><ele>174.25</ele></trkpt>
   <trkpt lat="51.133566" lon="9.546492"><ele>174</ele></trkpt>
   <trkpt lat="51.133807" lon="9.546225"><ele>174.5</ele></trkpt>
   <trkpt lat="51.134077" lon="9.545959"><ele>174.25</ele></trkpt>
   <trkpt lat="51.134298" lon="9.545776"><ele>174.75</ele></trkpt>
   <trkpt lat="51.1345" lon="9.545622"><ele>175</ele></trkpt>
   <trkpt lat="51.134673" lon="9.545513"><ele>175.25</ele></trkpt>
   <trkpt lat="51.134761" lon="9.545465"><ele>175.25</ele></trkpt>
   <trkpt lat="51.134941" lon="9.545362"><ele>175.25</ele></trkpt>
   <trkpt lat="51.135123" lon="9.545276"><ele>174.75</ele></trkpt>
   <trkpt lat="51.135414" lon="9.54517"><ele>173.5</ele></trkpt>
   <trkpt lat="51.13559" lon="9.545114"><ele>173</ele></trkpt>
   <trkpt lat="51.135795" lon="9.545069"><ele>172.75</ele></trkpt>
   <trkpt lat="51.135984" lon="9.545039"><ele>172.5</ele></trkpt>
   <trkpt lat="51.136355" lon="9.545021"><ele>172.25</ele></trkpt>
   <trkpt lat="51.136568" lon="9.545027"><ele>172.25</ele></trkpt>
   <trkpt lat="51.136929" lon="9.545077"><ele>172</ele></trkpt>
   <trkpt lat="51.137234" lon="9.54515"><ele>172</ele></trkpt>
   <trkpt lat="51.137485" lon="9.545233"><ele>172.25</ele></trkpt>
   <trkpt lat="51.13784" lon="9.545405"><ele>171.75</ele></trkpt>
   <trkpt lat="51.138199" lon="9.545615"><ele>171.25</ele></trkpt>
   <trkpt lat="51.138646" lon="9.545964"><ele>171.5</ele></trkpt>
   <trkpt lat="51.138847" lon="9.546144"><ele>171.75</ele></trkpt>
   <trkpt lat="51.139079" lon="9.546392"><ele>172</ele></trkpt>
   <trkpt lat="51.139288" lon="9.546645"><ele>172</ele></trkpt>
   <trkpt lat="51.139569" lon="9.54701"><ele>171.25</ele></trkpt>
   <trkpt lat="51.139881" lon="9.54749"><ele>170.75</ele></trkpt>
   <trkpt lat="51.139996" lon="9.547696"><ele>170.75</ele></trkpt>
   <trkpt lat="51.140225" lon="9.548139"><ele>171.75</ele></trkpt>
   <trkpt lat="51.140427" lon="9.548596"><ele>171.5</ele></trkpt>
   <trkpt lat="51.140494" lon="9.548773"><ele>171.25</ele></trkpt>
   <trkpt lat="51.140648" lon="9.549184"><ele>170.25</ele></trkpt>
   <trkpt lat="51.140738" lon="9.54946"><ele>169.5</ele></trkpt>
   <trkpt lat="51.140833" lon="9.549778"><ele>169</ele></trkpt>
   <trkpt lat="51.140952" lon="9.55021"><ele>168.25</ele></trkpt>
   <trkpt lat="51.141589" lon="9.552698"><ele>165.75</ele></trkpt>
   <trkpt lat="51.141672" lon="9.553022"><ele>165.25</ele></trkpt>
   <trkpt lat="51.141894" lon="9.553894"><ele>165</ele></trkpt>
   <trkpt lat="51.142156" lon="9.554867"><ele>165.25</ele></trkpt>
   <trkpt lat="51.142263" lon="9.555226"><ele>165.5</ele></trkpt>
   <trkpt lat="51.142381" lon="9.555586"><ele>165.75</ele></trkpt>
   <trkpt lat="51.142548" lon="9.556042"><ele>166</ele></trkpt>
   <trkpt lat="51.142744" lon="9.556522"><ele>166.25</ele></trkpt>
   <trkpt lat="51.142959" lon="9.556997"><ele>166.25</ele></trkpt>
   <trkpt lat="51.14318" lon="9.557439"><ele>166.25</ele></trkpt>
   <trkpt lat="51.143439" lon="9.557923"><ele>166.5</ele></trkpt>
   <trkpt lat="51.143687" lon="9.558347"><ele>166.5</ele></trkpt>
   <trkpt lat="51.143846" lon="9.558601"><ele>166.25</ele></trkpt>
   <trkpt lat="51.143991" lon="9.558818"><ele>165.75</ele></trkpt>
   <trkpt lat="51.144296" lon="9.559242"><ele>164.75</ele></trkpt>
   <trkpt lat="51.144413" lon="9.559389"><ele>164.75</ele></trkpt>
   <trkpt lat="51.144466" lon="9.559455"><ele>164.75</ele></trkpt>
   <trkpt lat="51.144612" lon="9.559638"><ele>165</ele></trkpt>
   <trkpt lat="51.144942" lon="9.560007"><ele>165</ele></trkpt>
   <trkpt lat="51.145152" lon="9.560219"><ele>165.25</ele></trkpt>
   <trkpt lat="51.145365" lon="9.560422"><ele>165.5</ele></trkpt>
   <trkpt lat="51.145689" lon="9.560698"><ele>165.75</ele></trkpt>
   <trkpt lat="51.145939" lon="9.560891"><ele>166</ele></trkpt>
   <trkpt lat="51.14612" lon="9.561017"><ele>166.25</ele></trkpt>
   <trkpt lat="51.146186" lon="9.561062"><ele>166.25</ele></trkpt>
   <trkpt lat="51.146257" lon="9.561109"><ele>166.25</ele></trkpt>
   <trkpt lat="51.146606" lon="9.561318"><ele>166.75</ele></trkpt>
   <trkpt lat="51.146871" lon="9.561454"><ele>166.5</ele></trkpt>
   <trkpt lat="51.147094" lon="9.561557"><ele>166</ele></trkpt>
   <trkpt lat="51.147415" lon="9.561685"><ele>165.25</ele></trkpt>
   <trkpt lat="51.147671" lon="9.561772"><ele>166</ele></trkpt>
   <trkpt lat="51.147847" lon="9.561827"><ele>166.75</ele></trkpt>
   <trkpt lat="51.147931" lon="9.561852"><ele>167</ele></trkpt>
   <trkpt lat="51.149258" lon="9.562239"><ele>169.5</ele></trkpt>
   <trkpt lat="51.149554" lon="9.562315"><ele>169.25</ele></trkpt>
   <trkpt lat="51.149959" lon="9.562383"><ele>168.25</ele></trkpt>
   <trkpt lat="51.150321" lon="9.562409"><ele>168.25</ele></trkpt>
   <trkpt lat="51.150616" lon="9.562399"><ele>168.25</ele></trkpt>
   <trkpt lat="51.150909" lon="9.562362"><ele>168</ele></trkpt>
   <trkpt lat="51.151226" lon="9.562291"><ele>168.25</ele></trkpt>
   <trkpt lat="51.151521" lon="9.562198"><ele>168</ele></trkpt>
   <trkpt lat="51.151843" lon="9.562066"><ele>167.5</ele></trkpt>
   <trkpt lat="51.152221" lon="9.56185"><ele>165.75</ele></trkpt>
   <trkpt lat="51.15239" lon="9.561744"><ele>164.75</ele></trkpt>
   <trkpt lat="51.152716" lon="9.5615"><ele>165.25</ele></trkpt>
   <trkpt lat="51.153022" lon="9.561237"><ele>166.25</ele></trkpt>
   <trkpt lat="51.153169" lon="9.56109"><ele>166.5</ele></trkpt>
   <trkpt lat="51.153506" lon="9.56072"><ele>167</ele></trkpt>
   <trkpt lat="51.153777" lon="9.560382"><ele>167</ele></trkpt>
   <trkpt lat="51.154012" lon="9.560041"><ele>166.25</ele></trkpt>
   <trkpt lat="51.154181" lon="9.559774"><ele>166.25</ele></trkpt>
   <trkpt lat="51.154526" lon="9.559157"><ele>169.5</ele></trkpt>
   <trkpt lat="51.15468" lon="9.558826"><ele>169.5</ele></trkpt>
   <trkpt lat="51.154819" lon="9.558505"><ele>168.75</ele></trkpt>
   <trkpt lat="51.15494" lon="9.558203"><ele>168</ele></trkpt>
   <trkpt lat="51.155042" lon="9.557918"><ele>168.5</ele></trkpt>
   <trkpt lat="51.155142" lon="9.557609"><ele>169.5</ele></trkpt>
   <trkpt lat="51.155228" lon="9.557316"><ele>170.25</ele></trkpt>
   <trkpt lat="51.155305" lon="9.557014"><ele>170.25</ele></trkpt>
   <trkpt lat="51.155364" lon="9.55675"><ele>170</ele></trkpt>
   <trkpt lat="51.155454" lon="9.556252"><ele>169.25</ele></trkpt>
   <trkpt lat="51.155521" lon="9.555738"><ele>167.75</ele></trkpt>
   <trkpt lat="51.155564" lon="9.555169"><ele>165.75</ele></trkpt>
   <trkpt lat="51.155575" lon="9.554861"><ele>165.25</ele></trkpt>
   <trkpt lat="51.155577" lon="9.55451"><ele>165.5</ele></trkpt>
   <trkpt lat="51.155553" lon="9.553914"><ele>166</ele></trkpt>
   <trkpt lat="51.155507" lon="9.55338"><ele>166</ele></trkpt>
   <trkpt lat="51.155474" lon="9.553122"><ele>166.5</ele></trkpt>
   <trkpt lat="51.155433" lon="9.552854"><ele>166.75</ele></trkpt>
   <trkpt lat="51.15539" lon="9.552629"><ele>166.75</ele></trkpt>
   <trkpt lat="51.155286" lon="9.552154"><ele>166.75</ele></trkpt>
   <trkpt lat="51.155176" lon="9.551727"><ele>166</ele></trkpt>
   <trkpt lat="51.155045" lon="9.551256"><ele>165</ele></trkpt>
   <trkpt lat="51.154618" lon="9.549761"><ele>165</ele></trkpt>
   <trkpt lat="51.154475" lon="9.549175"><ele>165.25</ele></trkpt>
   <trkpt lat="51.154414" lon="9.548864"><ele>165.5</ele></trkpt>
   <trkpt lat="51.154331" lon="9.548387"><ele>165.5</ele></trkpt>
   <trkpt lat="51.154307" lon="9.54821"><ele>165.5</ele></trkpt>
   <trkpt lat="51.154291" lon="9.548093"><ele>165.25</ele></trkpt>
   <trkpt lat="51.154279" lon="9.547953"><ele>165</ele></trkpt>
   <trkpt lat="51.154261" lon="9.547741"><ele>164.75</ele></trkpt>
   <trkpt lat="51.154233" lon="9.547202"><ele>164.25</ele></trkpt>
   <trkpt lat="51.154227" lon="9.546862"><ele>164.25</ele></trkpt>
   <trkpt lat="51.154233" lon="9.546559"><ele>164.25</ele></trkpt>
   <trkpt lat="51.15425" lon="9.546203"><ele>164</ele></trkpt>
   <trkpt lat="51.154275" lon="9.545898"><ele>163.75</ele></trkpt>
   <trkpt lat="51.154326" lon="9.545456"><ele>164</ele></trkpt>
   <trkpt lat="51.154406" lon="9.544949"><ele>164.5</ele></trkpt>
   <trkpt lat="51.154497" lon="9.544512"><ele>164.5</ele></trkpt>
   <trkpt lat="51.154628" lon="9.543975"><ele>164.5</ele></trkpt>
   <trkpt lat="51.154755" lon="9.543529"><ele>164.75</ele></trkpt>
   <trkpt lat="51.154891" lon="9.543105"><ele>165</ele></trkpt>
   <trkpt lat="51.155022" lon="9.54273"><ele>165.25</ele></trkpt>
   <trkpt lat="51.155182" lon="9.542319"><ele>166.25</ele></trkpt>
   <trkpt lat="51.15532" lon="9.541994"><ele>167</ele></trkpt>
   <trkpt lat="51.155471" lon="9.541669"><ele>167.75</ele></trkpt>
   <trkpt lat="51.155671" lon="9.541267"><ele>168.25</ele></trkpt>
   <trkpt lat="51.15583" lon="9.540979"><ele>168.25</ele></trkpt>
   <trkpt lat="51.15599" lon="9.540705"><ele>168</ele></trkpt>
   <trkpt lat="51.156271" lon="9.540272"><ele>167.25</ele></trkpt>
   <trkpt lat="51.156501" lon="9.539947"><ele>166.25</ele></trkpt>
   <trkpt lat="51.156694" lon="9.5397"><ele>165.5</ele></trkpt>
   <trkpt lat="51.156949" lon="9.539401"><ele>165.5</ele></trkpt>
   <trkpt lat="51.157147" lon="9.539185"><ele>165.25</ele></trkpt>
   <trkpt lat="51.157385" lon="9.538954"><ele>165</ele></trkpt>
   <trkpt lat="51.157622" lon="9.538735"><ele>164.5</ele></trkpt>
   <trkpt lat="51.157879" lon="9.538528"><ele>163.5</ele></trkpt>
   <trkpt lat="51.158124" lon="9.538344"><ele>162.75</ele></trkpt>
   <trkpt lat="51.158413" lon="9.538148"><ele>162.75</ele></trkpt>
   <trkpt lat="51.159407" lon="9.537534"><ele>163.5</ele></trkpt>
   <trkpt lat="51.159991" lon="9.537176"><ele>163.25</ele></trkpt>
   <trkpt lat="51.160147" lon="9.53708"><ele>163.5</ele></trkpt>
   <trkpt lat="51.160635" lon="9.536747"><ele>163.5</ele></trkpt>
   <trkpt lat="51.160847" lon="9.536581"><ele>163.75</ele></trkpt>
   <trkpt lat="51.161111" lon="9.536354"><ele>164.25</ele></trkpt>
   <trkpt lat="51.161357" lon="9.536123"><ele>164.25</ele></trkpt>
   <trkpt lat="51.161569" lon="9.535907"><ele>164</ele></trkpt>
   <trkpt lat="51.161581" lon="9.535894"><ele>164</ele></trkpt>
   <trkpt lat="51.161872" lon="9.535565"><ele>164.25</ele></trkpt>
   <trkpt lat="51.162054" lon="9.53534"><ele>164.25</ele></trkpt>
   <trkpt lat="51.162453" lon="9.534796"><ele>164.25</ele></trkpt>
   <trkpt lat="51.162746" lon="9.534336"><ele>165</ele></trkpt>
   <trkpt lat="51.162988" lon="9.533914"><ele>164.75</ele></trkpt>
   <trkpt lat="51.163197" lon="9.533513"><ele>163.5</ele></trkpt>
   <trkpt lat="51.16337" lon="9.533161"><ele>162.5</ele></trkpt>
   <trkpt lat="51.163459" lon="9.53296"><ele>162.5</ele></trkpt>
   <trkpt lat="51.163579" lon="9.532685"><ele>162.25</ele></trkpt>
   <trkpt lat="51.163835" lon="9.532026"><ele>162</ele></trkpt>
   <trkpt lat="51.163974" lon="9.531632"><ele>162</ele></trkpt>
   <trkpt lat="51.164077" lon="9.531309"><ele>161.75</ele></trkpt>
   <trkpt lat="51.164273" lon="9.530592"><ele>163</ele></trkpt>
   <trkpt lat="51.164426" lon="9.529881"><ele>166</ele></trkpt>
   <trkpt lat="51.164475" lon="9.5296"><ele>166.5</ele></trkpt>
   <trkpt lat="51.164547" lon="9.529154"><ele>166.5</ele></trkpt>
   <trkpt lat="51.164599" lon="9.528779"><ele>166.5</ele></trkpt>
   <trkpt lat="51.164666" lon="9.528243"><ele>165.75</ele></trkpt>
   <trkpt lat="51.164783" lon="9.527206"><ele>164.75</ele></trkpt>
   <trkpt lat="51.164785" lon="9.527185"><ele>164.75</ele></trkpt>
   <trkpt lat="51.164871" lon="9.526459"><ele>163.5</ele></trkpt>
   <trkpt lat="51.164929" lon="9.526048"><ele>163</ele></trkpt>
   <trkpt lat="51.165051" lon="9.525333"><ele>162.5</ele></trkpt>
   <trkpt lat="51.165208" lon="9.524614"><ele>162.75</ele></trkpt>
   <trkpt lat="51.165364" lon="9.524032"><ele>162.25</ele></trkpt>
   <trkpt lat="51.16553" lon="9.523548"><ele>161.5</ele></trkpt>
   <trkpt lat="51.16583" lon="9.52275"><ele>161.25</ele></trkpt>
   <trkpt lat="51.165872" lon="9.522635"><ele>161.25</ele></trkpt>
   <trkpt lat="51.166067" lon="9.522151"><ele>162</ele></trkpt>
   <trkpt lat="51.166211" lon="9.521813"><ele>162</ele></trkpt>
   <trkpt lat="51.166549" lon="9.521103"><ele>161.25</ele></trkpt>
   <trkpt lat="51.166726" lon="9.520773"><ele>161</ele></trkpt>
   <trkpt lat="51.166824" lon="9.52059"><ele>161</ele></trkpt>
   <trkpt lat="51.167142" lon="9.520037"><ele>160.5</ele></trkpt>
   <trkpt lat="51.170289" lon="9.515001"><ele>163</ele></trkpt>
   <trkpt lat="51.170925" lon="9.513989"><ele>161.5</ele></trkpt>
   <trkpt lat="51.171047" lon="9.513792"><ele>161.25</ele></trkpt>
   <trkpt lat="51.171067" lon="9.51376"><ele>161.25</ele></trkpt>
   <trkpt lat="51.171113" lon="9.513685"><ele>161.25</ele></trkpt>
   <trkpt lat="51.171517" lon="9.513049"><ele>160.75</ele></trkpt>
   <trkpt lat="51.171743" lon="9.512717"><ele>160.75</ele></trkpt>
   <trkpt lat="51.171933" lon="9.512447"><ele>160.75</ele></trkpt>
   <trkpt lat="51.172312" lon="9.511965"><ele>161.5</ele></trkpt>
   <trkpt lat="51.172672" lon="9.511551"><ele>162</ele></trkpt>
   <trkpt lat="51.173621" lon="9.510549"><ele>162.75</ele></trkpt>
   <trkpt lat="51.173642" lon="9.510527"><ele>162.75</ele></trkpt>
   <trkpt lat="51.173883" lon="9.510271"><ele>163</ele></trkpt>
   <trkpt lat="51.174485" lon="9.509572"><ele>163</ele></trkpt>
   <trkpt lat="51.177141" lon="9.506789"><ele>163</ele></trkpt>
   <trkpt lat="51.178104" lon="9.505779"><ele>164.5</ele></trkpt>
   <trkpt lat="51.178286" lon="9.505592"><ele>164</ele></trkpt>
   <trkpt lat="51.179164" lon="9.504667"><ele>167.5</ele></trkpt>
   <trkpt lat="51.179671" lon="9.504171"><ele>168.75</ele></trkpt>
   <trkpt lat="51.180184" lon="9.503714"><ele>168</ele></trkpt>
   <trkpt lat="51.181961" lon="9.502212"><ele>169</ele></trkpt>
   <trkpt lat="51.18205" lon="9.502137"><ele>169</ele></trkpt>
   <trkpt lat="51.182459" lon="9.501837"><ele>170</ele></trkpt>
   <trkpt lat="51.182797" lon="9.501626"><ele>170.75</ele></trkpt>
   <trkpt lat="51.183243" lon="9.501374"><ele>171.5</ele></trkpt>
   <trkpt lat="51.184145" lon="9.500941"><ele>166.5</ele></trkpt>
   <trkpt lat="51.185849" lon="9.500146"><ele>165.25</ele></trkpt>
   <trkpt lat="51.186276" lon="9.499969"><ele>165.25</ele></trkpt>
   <trkpt lat="51.186645" lon="9.499845"><ele>165.75</ele></trkpt>
   <trkpt lat="51.187023" lon="9.499753"><ele>166</ele></trkpt>
   <trkpt lat="51.187109" lon="9.499732"><ele>166.25</ele></trkpt>
   <trkpt lat="51.187501" lon="9.49967"><ele>166.5</ele></trkpt>
   <trkpt lat="51.188061" lon="9.499635"><ele>167.5</ele></trkpt>
   <trkpt lat="51.18823" lon="9.499634"><ele>168</ele></trkpt>
   <trkpt lat="51.188351" lon="9.499634"><ele>168.25</ele></trkpt>
   <trkpt lat="51.188449" lon="9.499633"><ele>168.25</ele></trkpt>
   <trkpt lat="51.19051" lon="9.499625"><ele>173.75</ele></trkpt>
   <trkpt lat="51.190912" lon="9.499598"><ele>174.75</ele></trkpt>
   <trkpt lat="51.19122" lon="9.49956"><ele>174.5</ele></trkpt>
   <trkpt lat="51.191446" lon="9.499518"><ele>174.25</ele></trkpt>
   <trkpt lat="51.19178" lon="9.49944"><ele>174</ele></trkpt>
   <trkpt lat="51.191958" lon="9.499387"><ele>174.25</ele></trkpt>
   <trkpt lat="51.192416" lon="9.499224"><ele>174.5</ele></trkpt>
   <trkpt lat="51.193" lon="9.498982"><ele>174.5</ele></trkpt>
   <trkpt lat="51.193258" lon="9.498876"><ele>174.75</ele></trkpt>
   <trkpt lat="51.193906" lon="9.498588"><ele>176.5</ele></trkpt>
   <trkpt lat="51.194375" lon="9.498366"><ele>178.25</ele></trkpt>
   <trkpt lat="51.194827" lon="9.498089"><ele>179.5</ele></trkpt>
   <trkpt lat="51.195086" lon="9.497902"><ele>179.5</ele></trkpt>
   <trkpt lat="51.1957" lon="9.497407"><ele>179</ele></trkpt>
   <trkpt lat="51.196064" lon="9.497062"><ele>178</ele></trkpt>
   <trkpt lat="51.196533" lon="9.496549"><ele>176</ele></trkpt>
   <trkpt lat="51.196957" lon="9.496011"><ele>178.5</ele></trkpt>
   <trkpt lat="51.197162" lon="9.49572"><ele>178</ele></trkpt>
   <trkpt lat="51.197364" lon="9.495415"><ele>176.25</ele></trkpt>
   <trkpt lat="51.197672" lon="9.494905"><ele>176</ele></trkpt>
   <trkpt lat="51.197936" lon="9.494419"><ele>179.75</ele></trkpt>
   <trkpt lat="51.198654" lon="9.49302"><ele>187</ele></trkpt>
   <trkpt lat="51.198749" lon="9.49283"><ele>190.25</ele></trkpt>
   <trkpt lat="51.201216" lon="9.488017"><ele>187.5</ele></trkpt>
   <trkpt lat="51.201301" lon="9.487848"><ele>185.75</ele></trkpt>
   <trkpt lat="51.201402" lon="9.487647"><ele>184.25</ele></trkpt>
   <trkpt lat="51.202082" lon="9.486295"><ele>179.25</ele></trkpt>
   <trkpt lat="51.203377" lon="9.483773"><ele>169.5</ele></trkpt>
   <trkpt lat="51.203489" lon="9.483549"><ele>167.75</ele></trkpt>
   <trkpt lat="51.203848" lon="9.482856"><ele>166</ele></trkpt>
   <trkpt lat="51.203984" lon="9.482585"><ele>166.5</ele></trkpt>
   <trkpt lat="51.204011" lon="9.482533"><ele>166.75</ele></trkpt>
   <trkpt lat="51.204317" lon="9.481951"><ele>169.75</ele></trkpt>
   <trkpt lat="51.204788" lon="9.48114"><ele>170.5</ele></trkpt>
   <trkpt lat="51.205434" lon="9.480081"><ele>171</ele></trkpt>
   <trkpt lat="51.205461" lon="9.480037"><ele>171.25</ele></trkpt>
   <trkpt lat="51.209452" lon="9.473477"><ele>168.75</ele></trkpt>
   <trkpt lat="51.209884" lon="9.472838"><ele>165</ele></trkpt>
   <trkpt lat="51.210127" lon="9.472512"><ele>163.5</ele></trkpt>
   <trkpt lat="51.210559" lon="9.471945"><ele>163.25</ele></trkpt>
   <trkpt lat="51.211151" lon="9.47121"><ele>164.5</ele></trkpt>
   <trkpt lat="51.211254" lon="9.47108"><ele>164.5</ele></trkpt>
   <trkpt lat="51.211595" lon="9.470689"><ele>166</ele></trkpt>
   <trkpt lat="51.211765" lon="9.470492"><ele>166.5</ele></trkpt>
   <trkpt lat="51.212011" lon="9.470228"><ele>167.25</ele></trkpt>
   <trkpt lat="51.212314" lon="9.469934"><ele>168.5</ele></trkpt>
   <trkpt lat="51.212817" lon="9.4695"><ele>169.5</ele></trkpt>
   <trkpt lat="51.213259" lon="9.469195"><ele>169.75</ele></trkpt>
   <trkpt lat="51.213621" lon="9.46897"><ele>170</ele></trkpt>
   <trkpt lat="51.214013" lon="9.468771"><ele>170.5</ele></trkpt>
   <trkpt lat="51.21439" lon="9.468619"><ele>170.25</ele></trkpt>
   <trkpt lat="51.214718" lon="9.468514"><ele>169.75</ele></trkpt>
   <trkpt lat="51.215209" lon="9.468397"><ele>168.75</ele></trkpt>
   <trkpt lat="51.215553" lon="9.468346"><ele>168.25</ele></trkpt>
   <trkpt lat="51.215814" lon="9.468328"><ele>168</ele></trkpt>
   <trkpt lat="51.216079" lon="9.468322"><ele>167.25</ele></trkpt>
   <trkpt lat="51.21648" lon="9.468334"><ele>166.25</ele></trkpt>
   <trkpt lat="51.216857" lon="9.468385"><ele>165.5</ele></trkpt>
   <trkpt lat="51.217294" lon="9.468476"><ele>164.75</ele></trkpt>
   <trkpt lat="51.217739" lon="9.46863"><ele>164.5</ele></trkpt>
   <trkpt lat="51.218241" lon="9.468833"><ele>164.25</ele></trkpt>
   <trkpt lat="51.218653" lon="9.469045"><ele>164.25</ele></trkpt>
   <trkpt lat="51.218962" lon="9.469241"><ele>164.25</ele></trkpt>
   <trkpt lat="51.219082" lon="9.469322"><ele>164.25</ele></trkpt>
   <trkpt lat="51.219409" lon="9.469565"><ele>165.5</ele></trkpt>
   <trkpt lat="51.219471" lon="9.469611"><ele>165.75</ele></trkpt>
   <trkpt lat="51.219527" lon="9.469651"><ele>166.25</ele></trkpt>
   <trkpt lat="51.219917" lon="9.469966"><ele>168.5</ele></trkpt>
   <trkpt lat="51.219929" lon="9.469977"><ele>168.5</ele></trkpt>
   <trkpt lat="51.220522" lon="9.470459"><ele>169.75</ele></trkpt>
   <trkpt lat="51.220737" lon="9.470618"><ele>170.5</ele></trkpt>
   <trkpt lat="51.220982" lon="9.470789"><ele>171.25</ele></trkpt>
   <trkpt lat="51.22126" lon="9.470952"><ele>172.75</ele></trkpt>
   <trkpt lat="51.221344" lon="9.470991"><ele>173.25</ele></trkpt>
   <trkpt lat="51.221556" lon="9.47109"><ele>174.25</ele></trkpt>
   <trkpt lat="51.221775" lon="9.471164"><ele>175</ele></trkpt>
   <trkpt lat="51.22228" lon="9.471285"><ele>175.5</ele></trkpt>
   <trkpt lat="51.222614" lon="9.471315"><ele>175.25</ele></trkpt>
   <trkpt lat="51.222953" lon="9.471303"><ele>173.25</ele></trkpt>
   <trkpt lat="51.223289" lon="9.471259"><ele>170.75</ele></trkpt>
   <trkpt lat="51.223543" lon="9.471189"><ele>168.75</ele></trkpt>
   <trkpt lat="51.223792" lon="9.471099"><ele>166.75</ele></trkpt>
   <trkpt lat="51.224155" lon="9.470924"><ele>163</ele></trkpt>
   <trkpt lat="51.224493" lon="9.470715"><ele>158.25</ele></trkpt>
   <trkpt lat="51.224727" lon="9.470551"><ele>155.75</ele></trkpt>
   <trkpt lat="51.22496" lon="9.470367"><ele>154</ele></trkpt>
   <trkpt lat="51.224969" lon="9.47036"><ele>153.75</ele></trkpt>
   <trkpt lat="51.225189" lon="9.470179"><ele>154.5</ele></trkpt>
   <trkpt lat="51.225999" lon="9.469526"><ele>157.5</ele></trkpt>
   <trkpt lat="51.227283" lon="9.468481"><ele>162.25</ele></trkpt>
   <trkpt lat="51.227536" lon="9.468276"><ele>162.25</ele></trkpt>
   <trkpt lat="51.22755" lon="9.468264"><ele>162.25</ele></trkpt>
   <trkpt lat="51.227771" lon="9.468108"><ele>163</ele></trkpt>
   <trkpt lat="51.227957" lon="9.467997"><ele>163.5</ele></trkpt>
   <trkpt lat="51.228106" lon="9.467922"><ele>163.75</ele></trkpt>
   <trkpt lat="51.22826" lon="9.467859"><ele>164.25</ele></trkpt>
   <trkpt lat="51.228688" lon="9.467736"><ele>165.5</ele></trkpt>
   <trkpt lat="51.229038" lon="9.467655"><ele>166.75</ele></trkpt>
   <trkpt lat="51.229245" lon="9.467582"><ele>167.5</ele></trkpt>
   <trkpt lat="51.229465" lon="9.467503"><ele>167.5</ele></trkpt>
   <trkpt lat="51.22982" lon="9.467359"><ele>167.75</ele></trkpt>
   <trkpt lat="51.230213" lon="9.467135"><ele>167.75</ele></trkpt>
   <trkpt lat="51.230515" lon="9.466938"><ele>167.5</ele></trkpt>
   <trkpt lat="51.230566" lon="9.466906"><ele>167.25</ele></trkpt>
   <trkpt lat="51.230599" lon="9.466884"><ele>167.25</ele></trkpt>
   <trkpt lat="51.231429" lon="9.466345"><ele>165</ele></trkpt>
   <trkpt lat="51.231816" lon="9.46611"><ele>162.25</ele></trkpt>
   <trkpt lat="51.231993" lon="9.466013"><ele>160.5</ele></trkpt>
   <trkpt lat="51.232002" lon="9.466008"><ele>160.25</ele></trkpt>
   <trkpt lat="51.232019" lon="9.465999"><ele>160</ele></trkpt>
   <trkpt lat="51.232058" lon="9.465978"><ele>160</ele></trkpt>
   <trkpt lat="51.232487" lon="9.465754"><ele>159</ele></trkpt>
   <trkpt lat="51.232684" lon="9.465663"><ele>158.5</ele></trkpt>
   <trkpt lat="51.233212" lon="9.465425"><ele>158.5</ele></trkpt>
   <trkpt lat="51.233257" lon="9.4654"><ele>158.75</ele></trkpt>
   <trkpt lat="51.233977" lon="9.46496"><ele>163</ele></trkpt>
   <trkpt lat="51.234542" lon="9.464659"><ele>166.5</ele></trkpt>
   <trkpt lat="51.23602" lon="9.463872"><ele>174.75</ele></trkpt>
   <trkpt lat="51.236348" lon="9.463678"><ele>174.5</ele></trkpt>
   <trkpt lat="51.236501" lon="9.463573"><ele>174.5</ele></trkpt>
   <trkpt lat="51.236545" lon="9.463546"><ele>174.5</ele></trkpt>
   <trkpt lat="51.236901" lon="9.463272"><ele>175.25</ele></trkpt>
   <trkpt lat="51.237201" lon="9.462993"><ele>179</ele></trkpt>
   <trkpt lat="51.23739" lon="9.462817"><ele>181.75</ele></trkpt>
   <trkpt lat="51.237668" lon="9.462537"><ele>185.25</ele></trkpt>
  </trkseg>
 </trk>
</gpx>