<?xml version="1.0" encoding="UTF-8"?>
<!-- track-length = 12474 filtered ascend = 17 plain-ascend = -26 cost=12474 energy=0.1kwh time=16m 38s -->
<gpx 
 xmlns="http://www.topografix.com/GPX/1/1" 
 xmlns:xsi="http://www.w3.org/2001/XMLSchema-instance" 
 xsi:schemaLocation="http://www.topografix.com/GPX/1/1 http://www.topografix.com/GPX/1/1/gpx.xsd" 
 version="1.1" 
 creator="BRouter-Web 0.18.1">
 <trk>
  <name>Bergen auf Rügen -&gt; Lauterbach Mole</name>
  <trkseg>
   <trkpt lat="54.420701" lon="13.418187"><ele>26.75</ele></trkpt>
   <trkpt lat="54.420388" lon="13.417621"><ele>27</ele></trkpt>
   <trkpt lat="54.420024" lon="13.416958"><ele>26.25</ele></trkpt>
   <trkpt lat="54.418991" lon="13.415081"><ele>24</ele></trkpt>
   <trkpt lat="54.417611" lon="13.412571"><ele>25</ele></trkpt>
   <trkpt lat="54.417245" lon="13.411919"><ele>25.75</ele></trkpt>
   <trkpt lat="54.41663" lon="13.410889"><ele>26</ele></trkpt>
   <trkpt lat="54.416451" lon="13.410632"><ele>26</ele></trkpt>
   <trkpt lat="54.416105" lon="13.410177"><ele>25.25</ele></trkpt>
   <trkpt lat="54.415815" lon="13.409829"><ele>24.25</ele></trkpt>
   <trkpt lat="54.415707" lon="13.409714"><ele>24.5</ele></trkpt>
   <trkpt lat="54.415522" lon="13.409542"><ele>25</ele></trkpt>
   <trkpt lat="54.415269" lon="13.409343"><ele>25.25</ele></trkpt>
   <trkpt lat="54.415024" lon="13.409182"><ele>25.75</ele></trkpt>
   <trkpt lat="54.414931" lon="13.409135"><ele>25.75</ele></trkpt>
   <trkpt lat="54.414836" lon="13.409088"><ele>25.75</ele></trkpt>
   <trkpt lat="54.414707" lon="13.409031"><ele>25.75</ele></trkpt>
   <trkpt lat="54.414298" lon="13.408871"><ele>25.75</ele></trkpt>
   <trkpt lat="54.414176" lon="13.408839"><ele>25.75</ele></trkpt>
   <trkpt lat="54.414157" lon="13.408834"><ele>25.75</ele></trkpt>
   <trkpt lat="54.413929" lon="13.40876"><ele>25.75</ele></trkpt>
   <trkpt lat="54.413676" lon="13.408701"><ele>25.75</ele></trkpt>
   <trkpt lat="54.41341" lon="13.408656"><ele>26.25</ele></trkpt>
   <trkpt lat="54.41308" lon="13.408635"><ele>26</ele></trkpt>
   <trkpt lat="54.412648" lon="13.408665"><ele>25.75</ele></trkpt>
   <trkpt lat="54.412279" lon="13.408736"><ele>25.5</ele></trkpt>
   <trkpt lat="54.412066" lon="13.408801"><ele>25.25</ele></trkpt>
   <trkpt lat="54.41162" lon="13.408976"><ele>25.25</ele></trkpt>
   <trkpt lat="54.411326" lon="13.409127"><ele>25.75</ele></trkpt>
   <trkpt lat="54.411035" lon="13.409322"><ele>26.5</ele></trkpt>
   <trkpt lat="54.410706" lon="13.409573"><ele>27.5</ele></trkpt>
   <trkpt lat="54.410331" lon="13.409911"><ele>27.75</ele></trkpt>
   <trkpt lat="54.409958" lon="13.410276"><ele>28</ele></trkpt>
   <trkpt lat="54.409535" lon="13.4107"><ele>29.5</ele></trkpt>
   <trkpt lat="54.408842" lon="13.411397"><ele>31</ele></trkpt>
   <trkpt lat="54.40657" lon="13.413698"><ele>31.5</ele></trkpt>
   <trkpt lat="54.406486" lon="13.413783"><ele>31.5</ele></trkpt>
   <trkpt lat="54.406424" lon="13.413852"><ele>31.5</ele></trkpt>
   <trkpt lat="54.406339" lon="13.413937"><ele>31.5</ele></trkpt>
   <trkpt lat="54.406215" lon="13.414062"><ele>31.5</ele></trkpt>
   <trkpt lat="54.404637" lon="13.415645"><ele>32.5</ele></trkpt>
   <trkpt lat="54.403412" lon="13.416918"><ele>30</ele></trkpt>
   <trkpt lat="54.403353" lon="13.416988"><ele>30</ele></trkpt>
   <trkpt lat="54.402996" lon="13.417413"><ele>29.5</ele></trkpt>
   <trkpt lat="54.402558" lon="13.418012"><ele>29.5</ele></trkpt>
   <trkpt lat="54.402134" lon="13.418574"><ele>30</ele></trkpt>
   <trkpt lat="54.399349" lon="13.422264"><ele>30.5</ele></trkpt>
   <trkpt lat="54.398486" lon="13.423427"><ele>29.5</ele></trkpt>
   <trkpt lat="54.396734" lon="13.425792"><ele>25</ele></trkpt>
   <trkpt lat="54.395522" lon="13.427384"><ele>22.25</ele></trkpt>
   <trkpt lat="54.39545" lon="13.427486"><ele>22</ele></trkpt>
   <trkpt lat="54.394186" lon="13.42922"><ele>24.75</ele></trkpt>
   <trkpt lat="54.392735" lon="13.431099"><ele>26.75</ele></trkpt>
   <trkpt lat="54.390516" lon="13.434178"><ele>25.75</ele></trkpt>
   <trkpt lat="54.390191" lon="13.43473"><ele>24.5</ele></trkpt>
   <trkpt lat="54.389335" lon="13.437135"><ele>23.5</ele></trkpt>
   <trkpt lat="54.387864" lon="13.441684"><ele>18.75</ele></trkpt>
   <trkpt lat="54.386311" lon="13.446451"><ele>19</ele></trkpt>
   <trkpt lat="54.386135" lon="13.446991"><ele>20.25</ele></trkpt>
   <trkpt lat="54.385989" lon="13.447447"><ele>21.5</ele></trkpt>
   <trkpt lat="54.384479" lon="13.452183"><ele>21.75</ele></trkpt>
   <trkpt lat="54.383604" lon="13.454926"><ele>25</ele></trkpt>
   <trkpt lat="54.378895" lon="13.469351"><ele>35.5</ele></trkpt>
   <trkpt lat="54.378248" lon="13.471314"><ele>38.5</ele></trkpt>
   <trkpt lat="54.377259" lon="13.474312"><ele>34</ele></trkpt>
   <trkpt lat="54.376949" lon="13.475253"><ele>33.25</ele></trkpt>
   <trkpt lat="54.376579" lon="13.476348"><ele>33</ele></trkpt>
   <trkpt lat="54.376303" lon="13.477049"><ele>33.25</ele></trkpt>
   <trkpt lat="54.375908" lon="13.477824"><ele>32.5</ele></trkpt>
   <trkpt lat="54.375621" lon="13.47826"><ele>32.75</ele></trkpt>
   <trkpt lat="54.374616" lon="13.4795"><ele>34.75</ele></trkpt>
   <trkpt lat="54.37433" lon="13.479817"><ele>34.25</ele></trkpt>
   <trkpt lat="54.374014" lon="13.480165"><ele>33</ele></trkpt>
   <trkpt lat="54.373875" lon="13.480318"><ele>32.25</ele></trkpt>
   <trkpt lat="54.373727" lon="13.480494"><ele>31.5</ele></trkpt>
   <trkpt lat="54.373556" lon="13.480697"><ele>30.5</ele></trkpt>
   <trkpt lat="54.372035" lon="13.48249"><ele>20.5</ele></trkpt>
   <trkpt lat="54.37174" lon="13.48284"><ele>19.5</ele></trkpt>
   <trkpt lat="54.370938" lon="13.483792"><ele>21.5</ele></trkpt>
   <trkpt lat="54.370547" lon="13.48426"><ele>22</ele></trkpt>
   <trkpt lat="54.369983" lon="13.484962"><ele>22</ele></trkpt>
   <trkpt lat="54.369948" lon="13.484999"><ele>22</ele></trkpt>
   <trkpt lat="54.369804" lon="13.485155"><ele>22.5</ele></trkpt>
   <trkpt lat="54.369672" lon="13.485291"><ele>22.75</ele></trkpt>
   <trkpt lat="54.36954" lon="13.485407"><ele>23</ele></trkpt>
   <trkpt lat="54.369348" lon="13.48555"><ele>23.5</ele></trkpt>
   <trkpt lat="54.369193" lon="13.485641"><ele>24</ele></trkpt>
   <trkpt lat="54.368948" lon="13.485755"><ele>24</ele></trkpt>
   <trkpt lat="54.368808" lon="13.485801"><ele>24</ele></trkpt>
   <trkpt lat="54.368684" lon="13.485831"><ele>24</ele></trkpt>
   <trkpt lat="54.368529" lon="13.485853"><ele>23.75</ele></trkpt>
   <trkpt lat="54.368335" lon="13.48586"><ele>23.75</ele></trkpt>
   <trkpt lat="54.368212" lon="13.485854"><ele>23.75</ele></trkpt>
   <trkpt lat="54.368147" lon="13.485842"><ele>23.75</ele></trkpt>
   <trkpt lat="54.368088" lon="13.485833"><ele>23.5</ele></trkpt>
   <trkpt lat="54.367936" lon="13.485799"><ele>23.5</ele></trkpt>
   <trkpt lat="54.367815" lon="13.485758"><ele>23.25</ele></trkpt>
   <trkpt lat="54.367798" lon="13.485754"><ele>23.25</ele></trkpt>
   <trkpt lat="54.367551" lon="13.485643"><ele>23</ele></trkpt>
   <trkpt lat="54.366918" lon="13.485303"><ele>21.5</ele></trkpt>
   <trkpt lat="54.366077" lon="13.484877"><ele>21.25</ele></trkpt>
   <trkpt lat="54.36559" lon="13.48462"><ele>21.5</ele></trkpt>
   <trkpt lat="54.363002" lon="13.48324"><ele>24.5</ele></trkpt>
   <trkpt lat="54.362152" lon="13.482754"><ele>28</ele></trkpt>
   <trkpt lat="54.362123" lon="13.482739"><ele>28.25</ele></trkpt>
   <trkpt lat="54.36211" lon="13.482732"><ele>28.25</ele></trkpt>
   <trkpt lat="54.360408" lon="13.48182"><ele>29.5</ele></trkpt>
   <trkpt lat="54.359195" lon="13.481181"><ele>28</ele></trkpt>
   <trkpt lat="54.359089" lon="13.481141"><ele>28</ele></trkpt>
   <trkpt lat="54.358895" lon="13.481063"><ele>28</ele></trkpt>
   <trkpt lat="54.358698" lon="13.481015"><ele>28</ele></trkpt>
   <trkpt lat="54.358439" lon="13.480972"><ele>27.75</ele></trkpt>
   <trkpt lat="54.358106" lon="13.480943"><ele>28.5</ele></trkpt>
   <trkpt lat="54.358036" lon="13.480935"><ele>28.75</ele></trkpt>
   <trkpt lat="54.357952" lon="13.480928"><ele>29</ele></trkpt>
   <trkpt lat="54.357306" lon="13.480863"><ele>31</ele></trkpt>
   <trkpt lat="54.357157" lon="13.480856"><ele>31.25</ele></trkpt>
   <trkpt lat="54.356887" lon="13.480831"><ele>31.5</ele></trkpt>
   <trkpt lat="54.356033" lon="13.480748"><ele>30.75</ele></trkpt>
   <trkpt lat="54.355844" lon="13.480734"><ele>30.25</ele></trkpt>
   <trkpt lat="54.355194" lon="13.480686"><ele>29.25</ele></trkpt>
   <trkpt lat="54.355153" lon="13.480682"><ele>29.25</ele></trkpt>
   <trkpt lat="54.35488" lon="13.480657"><ele>29.25</ele></trkpt>
   <trkpt lat="54.354849" lon="13.480654"><ele>29.25</ele></trkpt>
   <trkpt lat="54.354799" lon="13.480651"><ele>29.5</ele></trkpt>
   <trkpt lat="54.354723" lon="13.480641"><ele>29.5</ele></trkpt>
   <trkpt lat="54.35465" lon="13.480636"><ele>29.75</ele></trkpt>
   <trkpt lat="54.35462" lon="13.480634"><ele>30</ele></trkpt>
   <trkpt lat="54.354616" lon="13.480634"><ele>30</ele></trkpt>
   <trkpt lat="54.354589" lon="13.480632"><ele>30</ele></trkpt>
   <trkpt lat="54.35447" lon="13.480619"><ele>30.25</ele></trkpt>
   <trkpt lat="54.3541" lon="13.480638"><ele>31.25</ele></trkpt>
   <trkpt lat="54.353784" lon="13.480714"><ele>31.5</ele></trkpt>
   <trkpt lat="54.353521" lon="13.480804"><ele>31.75</ele></trkpt>
   <trkpt lat="54.35327" lon="13.480976"><ele>31.25</ele></trkpt>
   <trkpt lat="54.353002" lon="13.481191"><ele>30</ele></trkpt>
   <trkpt lat="54.352871" lon="13.481326"><ele>29.5</ele></trkpt>
   <trkpt lat="54.352787" lon="13.48145"><ele>29.25</ele></trkpt>
   <trkpt lat="54.352535" lon="13.481821"><ele>28.5</ele></trkpt>
   <trkpt lat="54.352369" lon="13.482083"><ele>27.5</ele></trkpt>
   <trkpt lat="54.352217" lon="13.482378"><ele>26.5</ele></trkpt>
   <trkpt lat="54.352107" lon="13.482643"><ele>25.5</ele></trkpt>
   <trkpt lat="54.352001" lon="13.482927"><ele>24.5</ele></trkpt>
   <trkpt lat="54.351923" lon="13.483173"><ele>23.75</ele></trkpt>
   <trkpt lat="54.3518" lon="13.483642"><ele>23</ele></trkpt>
   <trkpt lat="54.351783" lon="13.483727"><ele>23</ele></trkpt>
   <trkpt lat="54.351729" lon="13.484011"><ele>23</ele></trkpt>
   <trkpt lat="54.351651" lon="13.484783"><ele>22.25</ele></trkpt>
   <trkpt lat="54.351646" lon="13.484873"><ele>22</ele></trkpt>
   <trkpt lat="54.351637" lon="13.485015"><ele>21.75</ele></trkpt>
   <trkpt lat="54.351613" lon="13.485553"><ele>21.25</ele></trkpt>
   <trkpt lat="54.351601" lon="13.485905"><ele>20.75</ele></trkpt>
   <trkpt lat="54.351514" lon="13.489256"><ele>17.75</ele></trkpt>
   <trkpt lat="54.351488" lon="13.490146"><ele>16</ele></trkpt>
   <trkpt lat="54.351404" lon="13.492885"><ele>15</ele></trkpt>
   <trkpt lat="54.351324" lon="13.495672"><ele>13</ele></trkpt>
   <trkpt lat="54.351292" lon="13.49618"><ele>12.75</ele></trkpt>
   <trkpt lat="54.351236" lon="13.496645"><ele>12.5</ele></trkpt>
   <trkpt lat="54.351191" lon="13.496893"><ele>12.5</ele></trkpt>
   <trkpt lat="54.351172" lon="13.497017"><ele>12.5</ele></trkpt>
   <trkpt lat="54.351086" lon="13.497375"><ele>12.75</ele></trkpt>
   <trkpt lat="54.350974" lon="13.497719"><ele>13</ele></trkpt>
   <trkpt lat="54.350682" lon="13.498476"><ele>12.5</ele></trkpt>
   <trkpt lat="54.350363" lon="13.499004"><ele>11.25</ele></trkpt>
   <trkpt lat="54.350312" lon="13.499088"><ele>11</ele></trkpt>
   <trkpt lat="54.349881" lon="13.499556"><ele>9</ele></trkpt>
   <trkpt lat="54.349606" lon="13.499759"><ele>7.25</ele></trkpt>
   <trkpt lat="54.349349" lon="13.499897"><ele>6</ele></trkpt>
   <trkpt lat="54.349099" lon="13.500001"><ele>4.75</ele></trkpt>
   <trkpt lat="54.348969" lon="13.500034"><ele>4.75</ele></trkpt>
   <trkpt lat="54.34881" lon="13.500057"><ele>4.5</ele></trkpt>
   <trkpt lat="54.348651" lon="13.500071"><ele>4.25</ele></trkpt>
   <trkpt lat="54.348523" lon="13.500064"><ele>4</ele></trkpt>
   <trkpt lat="54.348388" lon="13.500051"><ele>4</ele></trkpt>
   <trkpt lat="54.348239" lon="13.500015"><ele>3.75</ele></trkpt>
   <trkpt lat="54.34765" lon="13.499851"><ele>4.25</ele></trkpt>
   <trkpt lat="54.347452" lon="13.499808"><ele>4.25</ele></trkpt>
   <trkpt lat="54.347288" lon="13.499785"><ele>4.5</ele></trkpt>
   <trkpt lat="54.347065" lon="13.499785"><ele>4.5</ele></trkpt>
   <trkpt lat="54.346826" lon="13.499819"><ele>4.25</ele></trkpt>
   <trkpt lat="54.346603" lon="13.499884"><ele>4.25</ele></trkpt>
   <trkpt lat="54.346383" lon="13.49998"><ele>4</ele></trkpt>
   <trkpt lat="54.346311" lon="13.500023"><ele>4</ele></trkpt>
   <trkpt lat="54.346189" lon="13.500096"><ele>4</ele></trkpt>
   <trkpt lat="54.346067" lon="13.500175"><ele>4</ele></trkpt>
   <trkpt lat="54.345871" lon="13.5003"><ele>4.25</ele></trkpt>
   <trkpt lat="54.345617" lon="13.500472"><ele>4.25</ele></trkpt>
   <trkpt lat="54.345344" lon="13.500649"><ele>4.25</ele></trkpt>
   <trkpt lat="54.343761" lon="13.501696"><ele>1</ele></trkpt>
   <trkpt lat="54.343563" lon="13.501835"><ele>0.5</ele></trkpt>
   <trkpt lat="54.343503" lon="13.501877"><ele>0.25</ele></trkpt>
   <trkpt lat="54.343437" lon="13.501933"><ele>0</ele></trkpt>
   <trkpt lat="54.342959" lon="13.502353"><ele>0</ele></trkpt>
   <trkpt lat="54.342856" lon="13.502454"><ele>0</ele></trkpt>
   <trkpt lat="54.342543" lon="13.502776"><ele>0</ele></trkpt>
   <trkpt lat="54.34224" lon="13.503046"><ele>0</ele></trkpt>
   <trkpt lat="54.342073" lon="13.503189"><ele>0.25</ele></trkpt>
   <trkpt lat="54.34141" lon="13.503778"><ele>0.25</ele></trkpt>
  </trkseg>
 </trk>
</gpx>