<?xml version="1.0" encoding="UTF-8"?>
<!-- track-length = 50697 filtered ascend = 192 plain-ascend = 115 cost=50697 energy=0.6kwh time=1h 7m 36s -->
<gpx 
 xmlns="http://www.topografix.com/GPX/1/1" 
 xmlns:xsi="http://www.w3.org/2001/XMLSchema-instance" 
 xsi:schemaLocation="http://www.topografix.com/GPX/1/1 http://www.topografix.com/GPX/1/1/gpx.xsd" 
 version="1.1" 
 creator="BRouter-Web 0.18.1">
 <trk>
  <name>Bielefeld - Altenbeken</name>
  <trkseg>
   <trkpt lat="52.029592" lon="8.533193"><ele>118.75</ele></trkpt>
   <trkpt lat="52.029634" lon="8.533247"><ele>118.75</ele></trkpt>
   <trkpt lat="52.029934" lon="8.533633"><ele>118.5</ele></trkpt>
   <trkpt lat="52.030013" lon="8.533737"><ele>118.5</ele></trkpt>
   <trkpt lat="52.030567" lon="8.534464"><ele>119.25</ele></trkpt>
   <trkpt lat="52.030814" lon="8.534805"><ele>118.25</ele></trkpt>
   <trkpt lat="52.030824" lon="8.534819"><ele>118.25</ele></trkpt>
   <trkpt lat="52.031163" lon="8.535309"><ele>116.25</ele></trkpt>
   <trkpt lat="52.031296" lon="8.535501"><ele>115.75</ele></trkpt>
   <trkpt lat="52.031606" lon="8.535996"><ele>115.75</ele></trkpt>
   <trkpt lat="52.031825" lon="8.536382"><ele>116.75</ele></trkpt>
   <trkpt lat="52.031862" lon="8.536449"><ele>117</ele></trkpt>
   <trkpt lat="52.032021" lon="8.536747"><ele>117.75</ele></trkpt>
   <trkpt lat="52.032516" lon="8.537771"><ele>116.5</ele></trkpt>
   <trkpt lat="52.032569" lon="8.537894"><ele>116.25</ele></trkpt>
   <trkpt lat="52.032674" lon="8.538149"><ele>115.75</ele></trkpt>
   <trkpt lat="52.032695" lon="8.538201"><ele>115.75</ele></trkpt>
   <trkpt lat="52.03278" lon="8.538406"><ele>115.5</ele></trkpt>
   <trkpt lat="52.032967" lon="8.538865"><ele>115</ele></trkpt>
   <trkpt lat="52.033115" lon="8.539279"><ele>115</ele></trkpt>
   <trkpt lat="52.033195" lon="8.539531"><ele>115.25</ele></trkpt>
   <trkpt lat="52.033274" lon="8.539809"><ele>115.5</ele></trkpt>
   <trkpt lat="52.033324" lon="8.54"><ele>115.75</ele></trkpt>
   <trkpt lat="52.033389" lon="8.540306"><ele>115.5</ele></trkpt>
   <trkpt lat="52.033486" lon="8.540878"><ele>115</ele></trkpt>
   <trkpt lat="52.03351" lon="8.541025"><ele>114.75</ele></trkpt>
   <trkpt lat="52.033556" lon="8.541426"><ele>113.75</ele></trkpt>
   <trkpt lat="52.033567" lon="8.541715"><ele>113</ele></trkpt>
   <trkpt lat="52.033555" lon="8.542075"><ele>112.75</ele></trkpt>
   <trkpt lat="52.033521" lon="8.542419"><ele>112.25</ele></trkpt>
   <trkpt lat="52.033442" lon="8.54286"><ele>111.5</ele></trkpt>
   <trkpt lat="52.033285" lon="8.543579"><ele>110.75</ele></trkpt>
   <trkpt lat="52.033186" lon="8.543969"><ele>110.75</ele></trkpt>
   <trkpt lat="52.033124" lon="8.544161"><ele>110.5</ele></trkpt>
   <trkpt lat="52.032986" lon="8.544512"><ele>110</ele></trkpt>
   <trkpt lat="52.0329" lon="8.544701"><ele>109.75</ele></trkpt>
   <trkpt lat="52.032822" lon="8.544854"><ele>109.5</ele></trkpt>
   <trkpt lat="52.032699" lon="8.545074"><ele>109</ele></trkpt>
   <trkpt lat="52.032518" lon="8.545358"><ele>108.5</ele></trkpt>
   <trkpt lat="52.032156" lon="8.545901"><ele>107</ele></trkpt>
   <trkpt lat="52.031912" lon="8.546267"><ele>105.75</ele></trkpt>
   <trkpt lat="52.031668" lon="8.546634"><ele>105</ele></trkpt>
   <trkpt lat="52.029684" lon="8.549608"><ele>103.5</ele></trkpt>
   <trkpt lat="52.029551" lon="8.549806"><ele>103.5</ele></trkpt>
   <trkpt lat="52.028722" lon="8.551048"><ele>104</ele></trkpt>
   <trkpt lat="52.027925" lon="8.552242"><ele>104</ele></trkpt>
   <trkpt lat="52.027661" lon="8.552638"><ele>103.25</ele></trkpt>
   <trkpt lat="52.027286" lon="8.553204"><ele>103.5</ele></trkpt>
   <trkpt lat="52.027123" lon="8.553469"><ele>103.5</ele></trkpt>
   <trkpt lat="52.02697" lon="8.553741"><ele>103.25</ele></trkpt>
   <trkpt lat="52.026854" lon="8.553952"><ele>103</ele></trkpt>
   <trkpt lat="52.026626" lon="8.55438"><ele>102.5</ele></trkpt>
   <trkpt lat="52.025168" lon="8.55711"><ele>101.25</ele></trkpt>
   <trkpt lat="52.025075" lon="8.557283"><ele>101</ele></trkpt>
   <trkpt lat="52.02499" lon="8.557441"><ele>101</ele></trkpt>
   <trkpt lat="52.024564" lon="8.558239"><ele>101.75</ele></trkpt>
   <trkpt lat="52.024541" lon="8.558282"><ele>101.75</ele></trkpt>
   <trkpt lat="52.023528" lon="8.560179"><ele>100.75</ele></trkpt>
   <trkpt lat="52.023511" lon="8.56021"><ele>100.5</ele></trkpt>
   <trkpt lat="52.023141" lon="8.560899"><ele>99.75</ele></trkpt>
   <trkpt lat="52.022937" lon="8.561284"><ele>99.25</ele></trkpt>
   <trkpt lat="52.022871" lon="8.561411"><ele>99.25</ele></trkpt>
   <trkpt lat="52.022775" lon="8.561588"><ele>99</ele></trkpt>
   <trkpt lat="52.022337" lon="8.562409"><ele>99</ele></trkpt>
   <trkpt lat="52.022073" lon="8.562905"><ele>100</ele></trkpt>
   <trkpt lat="52.021995" lon="8.563049"><ele>100.5</ele></trkpt>
   <trkpt lat="52.021812" lon="8.563389"><ele>101.5</ele></trkpt>
   <trkpt lat="52.021721" lon="8.563561"><ele>101.5</ele></trkpt>
   <trkpt lat="52.021712" lon="8.563577"><ele>101.5</ele></trkpt>
   <trkpt lat="52.019981" lon="8.566806"><ele>102</ele></trkpt>
   <trkpt lat="52.019205" lon="8.568265"><ele>103.75</ele></trkpt>
   <trkpt lat="52.019041" lon="8.568642"><ele>104</ele></trkpt>
   <trkpt lat="52.018888" lon="8.56903"><ele>104.25</ele></trkpt>
   <trkpt lat="52.01875" lon="8.569467"><ele>103.75</ele></trkpt>
   <trkpt lat="52.018421" lon="8.570615"><ele>103</ele></trkpt>
   <trkpt lat="52.018301" lon="8.571039"><ele>102.75</ele></trkpt>
   <trkpt lat="52.018173" lon="8.571482"><ele>102.5</ele></trkpt>
   <trkpt lat="52.017261" lon="8.574656"><ele>105.75</ele></trkpt>
   <trkpt lat="52.017123" lon="8.575034"><ele>106.75</ele></trkpt>
   <trkpt lat="52.016519" lon="8.57643"><ele>106.5</ele></trkpt>
   <trkpt lat="52.016162" lon="8.577261"><ele>106</ele></trkpt>
   <trkpt lat="52.012691" lon="8.585262"><ele>108.75</ele></trkpt>
   <trkpt lat="52.012513" lon="8.585673"><ele>108.75</ele></trkpt>
   <trkpt lat="52.010419" lon="8.590497"><ele>112.25</ele></trkpt>
   <trkpt lat="52.010081" lon="8.591268"><ele>112.25</ele></trkpt>
   <trkpt lat="52.010063" lon="8.59131"><ele>112.25</ele></trkpt>
   <trkpt lat="52.010024" lon="8.591393"><ele>112.25</ele></trkpt>
   <trkpt lat="52.009998" lon="8.591449"><ele>112.25</ele></trkpt>
   <trkpt lat="52.009866" lon="8.59172"><ele>112.25</ele></trkpt>
   <trkpt lat="52.009536" lon="8.592357"><ele>112.5</ele></trkpt>
   <trkpt lat="52.0092" lon="8.592908"><ele>112.5</ele></trkpt>
   <trkpt lat="52.009066" lon="8.593113"><ele>112.25</ele></trkpt>
   <trkpt lat="52.008572" lon="8.593785"><ele>112.25</ele></trkpt>
   <trkpt lat="52.005001" lon="8.59819"><ele>114.25</ele></trkpt>
   <trkpt lat="52.004593" lon="8.598711"><ele>117</ele></trkpt>
   <trkpt lat="52.004186" lon="8.599299"><ele>119.5</ele></trkpt>
   <trkpt lat="52.003822" lon="8.599913"><ele>120.75</ele></trkpt>
   <trkpt lat="52.003593" lon="8.600341"><ele>121.5</ele></trkpt>
   <trkpt lat="52.003426" lon="8.600699"><ele>122.25</ele></trkpt>
   <trkpt lat="52.003179" lon="8.601277"><ele>122.25</ele></trkpt>
   <trkpt lat="52.003045" lon="8.601607"><ele>122</ele></trkpt>
   <trkpt lat="52.002866" lon="8.602127"><ele>122</ele></trkpt>
   <trkpt lat="52.002672" lon="8.602763"><ele>122</ele></trkpt>
   <trkpt lat="52.002555" lon="8.603186"><ele>122</ele></trkpt>
   <trkpt lat="52.002059" lon="8.605119"><ele>120.5</ele></trkpt>
   <trkpt lat="52.001957" lon="8.605684"><ele>120.5</ele></trkpt>
   <trkpt lat="52.00177" lon="8.606451"><ele>120.75</ele></trkpt>
   <trkpt lat="52.001657" lon="8.606911"><ele>121</ele></trkpt>
   <trkpt lat="52.001599" lon="8.607141"><ele>121</ele></trkpt>
   <trkpt lat="52.001503" lon="8.607537"><ele>121.25</ele></trkpt>
   <trkpt lat="52.000306" lon="8.612237"><ele>122.25</ele></trkpt>
   <trkpt lat="52.000203" lon="8.612644"><ele>121.25</ele></trkpt>
   <trkpt lat="52.000126" lon="8.612911"><ele>120.75</ele></trkpt>
   <trkpt lat="52.000108" lon="8.612961"><ele>120.75</ele></trkpt>
   <trkpt lat="51.999999" lon="8.613282"><ele>120</ele></trkpt>
   <trkpt lat="51.999896" lon="8.613615"><ele>119.75</ele></trkpt>
   <trkpt lat="51.999763" lon="8.614156"><ele>119.5</ele></trkpt>
   <trkpt lat="51.998736" lon="8.618186"><ele>119.75</ele></trkpt>
   <trkpt lat="51.998632" lon="8.61856"><ele>120.75</ele></trkpt>
   <trkpt lat="51.998532" lon="8.618859"><ele>121.75</ele></trkpt>
   <trkpt lat="51.998399" lon="8.619223"><ele>123</ele></trkpt>
   <trkpt lat="51.998273" lon="8.619544"><ele>124.5</ele></trkpt>
   <trkpt lat="51.998135" lon="8.619847"><ele>126</ele></trkpt>
   <trkpt lat="51.997934" lon="8.62024"><ele>127.5</ele></trkpt>
   <trkpt lat="51.997669" lon="8.620658"><ele>128.5</ele></trkpt>
   <trkpt lat="51.997035" lon="8.621503"><ele>130.75</ele></trkpt>
   <trkpt lat="51.995417" lon="8.623405"><ele>125.25</ele></trkpt>
   <trkpt lat="51.995126" lon="8.623762"><ele>126.25</ele></trkpt>
   <trkpt lat="51.99479" lon="8.62418"><ele>127.25</ele></trkpt>
   <trkpt lat="51.99411" lon="8.62501"><ele>127.75</ele></trkpt>
   <trkpt lat="51.992223" lon="8.627294"><ele>129.25</ele></trkpt>
   <trkpt lat="51.991864" lon="8.62778"><ele>129.5</ele></trkpt>
   <trkpt lat="51.991655" lon="8.628132"><ele>130</ele></trkpt>
   <trkpt lat="51.991381" lon="8.628674"><ele>131</ele></trkpt>
   <trkpt lat="51.99117" lon="8.629179"><ele>131.75</ele></trkpt>
   <trkpt lat="51.991104" lon="8.629352"><ele>131.75</ele></trkpt>
   <trkpt lat="51.991046" lon="8.62952"><ele>131.75</ele></trkpt>
   <trkpt lat="51.988683" lon="8.636935"><ele>135.25</ele></trkpt>
   <trkpt lat="51.988666" lon="8.636987"><ele>135.25</ele></trkpt>
   <trkpt lat="51.988385" lon="8.637885"><ele>134.75</ele></trkpt>
   <trkpt lat="51.986181" lon="8.644818"><ele>138.75</ele></trkpt>
   <trkpt lat="51.985808" lon="8.645923"><ele>140</ele></trkpt>
   <trkpt lat="51.984009" lon="8.651141"><ele>141</ele></trkpt>
   <trkpt lat="51.983456" lon="8.652729"><ele>142.25</ele></trkpt>
   <trkpt lat="51.982405" lon="8.655704"><ele>146</ele></trkpt>
   <trkpt lat="51.981296" lon="8.65886"><ele>149.25</ele></trkpt>
   <trkpt lat="51.98094" lon="8.659874"><ele>148</ele></trkpt>
   <trkpt lat="51.980624" lon="8.660768"><ele>148.75</ele></trkpt>
   <trkpt lat="51.980567" lon="8.660923"><ele>148.75</ele></trkpt>
   <trkpt lat="51.979371" lon="8.6643"><ele>150.25</ele></trkpt>
   <trkpt lat="51.978565" lon="8.666607"><ele>151.25</ele></trkpt>
   <trkpt lat="51.978395" lon="8.667088"><ele>151.75</ele></trkpt>
   <trkpt lat="51.977869" lon="8.668575"><ele>151.75</ele></trkpt>
   <trkpt lat="51.976707" lon="8.671873"><ele>148</ele></trkpt>
   <trkpt lat="51.976445" lon="8.672619"><ele>147.5</ele></trkpt>
   <trkpt lat="51.976341" lon="8.672933"><ele>146.75</ele></trkpt>
   <trkpt lat="51.97624" lon="8.673277"><ele>146</ele></trkpt>
   <trkpt lat="51.976132" lon="8.673703"><ele>145.5</ele></trkpt>
   <trkpt lat="51.976051" lon="8.674099"><ele>145.25</ele></trkpt>
   <trkpt lat="51.975967" lon="8.674618"><ele>144.5</ele></trkpt>
   <trkpt lat="51.975929" lon="8.674907"><ele>144</ele></trkpt>
   <trkpt lat="51.975901" lon="8.67519"><ele>144.25</ele></trkpt>
   <trkpt lat="51.975876" lon="8.67556"><ele>144.5</ele></trkpt>
   <trkpt lat="51.97586" lon="8.675931"><ele>145</ele></trkpt>
   <trkpt lat="51.975856" lon="8.676232"><ele>145.25</ele></trkpt>
   <trkpt lat="51.975877" lon="8.677735"><ele>146</ele></trkpt>
   <trkpt lat="51.976039" lon="8.689914"><ele>139</ele></trkpt>
   <trkpt lat="51.97612" lon="8.696367"><ele>138</ele></trkpt>
   <trkpt lat="51.976169" lon="8.699062"><ele>134.25</ele></trkpt>
   <trkpt lat="51.976174" lon="8.699275"><ele>134</ele></trkpt>
   <trkpt lat="51.976183" lon="8.699592"><ele>134</ele></trkpt>
   <trkpt lat="51.976232" lon="8.700098"><ele>134</ele></trkpt>
   <trkpt lat="51.97689" lon="8.708502"><ele>133</ele></trkpt>
   <trkpt lat="51.977014" lon="8.710103"><ele>131.75</ele></trkpt>
   <trkpt lat="51.977029" lon="8.710301"><ele>131.75</ele></trkpt>
   <trkpt lat="51.977255" lon="8.713184"><ele>130.5</ele></trkpt>
   <trkpt lat="51.977369" lon="8.714691"><ele>130</ele></trkpt>
   <trkpt lat="51.978434" lon="8.728275"><ele>124.75</ele></trkpt>
   <trkpt lat="51.978632" lon="8.729667"><ele>124.25</ele></trkpt>
   <trkpt lat="51.979125" lon="8.73232"><ele>123</ele></trkpt>
   <trkpt lat="51.979774" lon="8.735806"><ele>118.75</ele></trkpt>
   <trkpt lat="51.979801" lon="8.735942"><ele>119</ele></trkpt>
   <trkpt lat="51.980067" lon="8.737367"><ele>119.75</ele></trkpt>
   <trkpt lat="51.980304" lon="8.738493"><ele>120</ele></trkpt>
   <trkpt lat="51.980604" lon="8.739417"><ele>120.5</ele></trkpt>
   <trkpt lat="51.980634" lon="8.7395"><ele>120.5</ele></trkpt>
   <trkpt lat="51.980672" lon="8.739604"><ele>120.75</ele></trkpt>
   <trkpt lat="51.980728" lon="8.739756"><ele>120.75</ele></trkpt>
   <trkpt lat="51.981088" lon="8.740749"><ele>121.25</ele></trkpt>
   <trkpt lat="51.981321" lon="8.741389"><ele>121</ele></trkpt>
   <trkpt lat="51.983" lon="8.746"><ele>119.5</ele></trkpt>
   <trkpt lat="51.983223" lon="8.746599"><ele>117.75</ele></trkpt>
   <trkpt lat="51.98392" lon="8.748035"><ele>114.5</ele></trkpt>
   <trkpt lat="51.98494" lon="8.750051"><ele>116.75</ele></trkpt>
   <trkpt lat="51.985157" lon="8.750468"><ele>115.75</ele></trkpt>
   <trkpt lat="51.987314" lon="8.754701"><ele>108.5</ele></trkpt>
   <trkpt lat="51.987459" lon="8.754995"><ele>108</ele></trkpt>
   <trkpt lat="51.989261" lon="8.758521"><ele>106.75</ele></trkpt>
   <trkpt lat="51.989728" lon="8.759333"><ele>106.5</ele></trkpt>
   <trkpt lat="51.993348" lon="8.764668"><ele>109.5</ele></trkpt>
   <trkpt lat="51.99376" lon="8.765437"><ele>111.5</ele></trkpt>
   <trkpt lat="51.993944" lon="8.765813"><ele>112</ele></trkpt>
   <trkpt lat="51.994151" lon="8.766284"><ele>112.25</ele></trkpt>
   <trkpt lat="51.994385" lon="8.766875"><ele>113.5</ele></trkpt>
   <trkpt lat="51.994762" lon="8.76787"><ele>113.5</ele></trkpt>
   <trkpt lat="51.995194" lon="8.769047"><ele>109</ele></trkpt>
   <trkpt lat="51.995403" lon="8.76965"><ele>106.25</ele></trkpt>
   <trkpt lat="51.995649" lon="8.770523"><ele>104.5</ele></trkpt>
   <trkpt lat="51.995841" lon="8.771386"><ele>104.5</ele></trkpt>
   <trkpt lat="51.995958" lon="8.772066"><ele>104.25</ele></trkpt>
   <trkpt lat="51.996139" lon="8.773562"><ele>102.75</ele></trkpt>
   <trkpt lat="51.996163" lon="8.773771"><ele>102.25</ele></trkpt>
   <trkpt lat="51.996273" lon="8.774739"><ele>100.25</ele></trkpt>
   <trkpt lat="51.996395" lon="8.775701"><ele>99</ele></trkpt>
   <trkpt lat="51.9967" lon="8.778266"><ele>98.75</ele></trkpt>
   <trkpt lat="51.996902" lon="8.779983"><ele>98</ele></trkpt>
   <trkpt lat="51.997196" lon="8.782421"><ele>96.5</ele></trkpt>
   <trkpt lat="51.997214" lon="8.78258"><ele>96.75</ele></trkpt>
   <trkpt lat="51.997403" lon="8.784266"><ele>98</ele></trkpt>
   <trkpt lat="51.997505" lon="8.78539"><ele>99.25</ele></trkpt>
   <trkpt lat="51.997517" lon="8.78552"><ele>99.5</ele></trkpt>
   <trkpt lat="51.997526" lon="8.785651"><ele>99.75</ele></trkpt>
   <trkpt lat="51.997651" lon="8.787468"><ele>104.25</ele></trkpt>
   <trkpt lat="51.997714" lon="8.788375"><ele>107.5</ele></trkpt>
   <trkpt lat="51.997728" lon="8.788674"><ele>108</ele></trkpt>
   <trkpt lat="51.997732" lon="8.788973"><ele>108.5</ele></trkpt>
   <trkpt lat="51.997725" lon="8.789255"><ele>108.75</ele></trkpt>
   <trkpt lat="51.997703" lon="8.78963"><ele>109.5</ele></trkpt>
   <trkpt lat="51.997647" lon="8.790115"><ele>109.75</ele></trkpt>
   <trkpt lat="51.997577" lon="8.790508"><ele>108.75</ele></trkpt>
   <trkpt lat="51.997503" lon="8.790842"><ele>108</ele></trkpt>
   <trkpt lat="51.997422" lon="8.791131"><ele>107.5</ele></trkpt>
   <trkpt lat="51.997318" lon="8.791444"><ele>107</ele></trkpt>
   <trkpt lat="51.997208" lon="8.791735"><ele>106.5</ele></trkpt>
   <trkpt lat="51.997073" lon="8.792032"><ele>106.25</ele></trkpt>
   <trkpt lat="51.996955" lon="8.792266"><ele>106</ele></trkpt>
   <trkpt lat="51.996479" lon="8.793176"><ele>105.75</ele></trkpt>
   <trkpt lat="51.996413" lon="8.793307"><ele>106</ele></trkpt>
   <trkpt lat="51.996321" lon="8.793496"><ele>106</ele></trkpt>
   <trkpt lat="51.996244" lon="8.793654"><ele>106</ele></trkpt>
   <trkpt lat="51.996116" lon="8.793968"><ele>106.25</ele></trkpt>
   <trkpt lat="51.995971" lon="8.794403"><ele>106</ele></trkpt>
   <trkpt lat="51.995911" lon="8.794609"><ele>106</ele></trkpt>
   <trkpt lat="51.995885" lon="8.7947"><ele>106</ele></trkpt>
   <trkpt lat="51.995863" lon="8.794782"><ele>105.75</ele></trkpt>
   <trkpt lat="51.995824" lon="8.794927"><ele>105.75</ele></trkpt>
   <trkpt lat="51.995736" lon="8.795254"><ele>106</ele></trkpt>
   <trkpt lat="51.995444" lon="8.796331"><ele>107.75</ele></trkpt>
   <trkpt lat="51.99528" lon="8.79686"><ele>108</ele></trkpt>
   <trkpt lat="51.995177" lon="8.797152"><ele>107.75</ele></trkpt>
   <trkpt lat="51.995054" lon="8.797458"><ele>107.25</ele></trkpt>
   <trkpt lat="51.994934" lon="8.797719"><ele>107.25</ele></trkpt>
   <trkpt lat="51.994785" lon="8.798009"><ele>107.25</ele></trkpt>
   <trkpt lat="51.994594" lon="8.798328"><ele>107</ele></trkpt>
   <trkpt lat="51.994363" lon="8.798657"><ele>105.75</ele></trkpt>
   <trkpt lat="51.99411" lon="8.79896"><ele>104.75</ele></trkpt>
   <trkpt lat="51.993801" lon="8.799283"><ele>104.25</ele></trkpt>
   <trkpt lat="51.993412" lon="8.79967"><ele>103.5</ele></trkpt>
   <trkpt lat="51.993397" lon="8.799685"><ele>103.5</ele></trkpt>
   <trkpt lat="51.993155" lon="8.799925"><ele>103</ele></trkpt>
   <trkpt lat="51.99285" lon="8.800223"><ele>103</ele></trkpt>
   <trkpt lat="51.992358" lon="8.800692"><ele>103</ele></trkpt>
   <trkpt lat="51.99235" lon="8.800699"><ele>103</ele></trkpt>
   <trkpt lat="51.991771" lon="8.80124"><ele>103.25</ele></trkpt>
   <trkpt lat="51.991444" lon="8.801553"><ele>103</ele></trkpt>
   <trkpt lat="51.990905" lon="8.802071"><ele>103</ele></trkpt>
   <trkpt lat="51.990327" lon="8.802648"><ele>102.5</ele></trkpt>
   <trkpt lat="51.989729" lon="8.803266"><ele>102.5</ele></trkpt>
   <trkpt lat="51.988961" lon="8.803996"><ele>102.75</ele></trkpt>
   <trkpt lat="51.988142" lon="8.804763"><ele>103.75</ele></trkpt>
   <trkpt lat="51.987893" lon="8.804966"><ele>103.75</ele></trkpt>
   <trkpt lat="51.987633" lon="8.805138"><ele>104</ele></trkpt>
   <trkpt lat="51.987133" lon="8.805465"><ele>104</ele></trkpt>
   <trkpt lat="51.986579" lon="8.805895"><ele>104.25</ele></trkpt>
   <trkpt lat="51.986364" lon="8.806032"><ele>105.5</ele></trkpt>
   <trkpt lat="51.986076" lon="8.806173"><ele>107</ele></trkpt>
   <trkpt lat="51.985848" lon="8.806251"><ele>108.25</ele></trkpt>
   <trkpt lat="51.985648" lon="8.806305"><ele>108</ele></trkpt>
   <trkpt lat="51.98546" lon="8.806341"><ele>107.75</ele></trkpt>
   <trkpt lat="51.985163" lon="8.806376"><ele>107</ele></trkpt>
   <trkpt lat="51.984997" lon="8.806375"><ele>106.5</ele></trkpt>
   <trkpt lat="51.984822" lon="8.806363"><ele>106.75</ele></trkpt>
   <trkpt lat="51.984637" lon="8.806338"><ele>107.25</ele></trkpt>
   <trkpt lat="51.984436" lon="8.806291"><ele>107.5</ele></trkpt>
   <trkpt lat="51.984358" lon="8.806269"><ele>107.5</ele></trkpt>
   <trkpt lat="51.984019" lon="8.806143"><ele>107.5</ele></trkpt>
   <trkpt lat="51.983706" lon="8.805984"><ele>106.75</ele></trkpt>
   <trkpt lat="51.983401" lon="8.805786"><ele>105.75</ele></trkpt>
   <trkpt lat="51.983044" lon="8.805521"><ele>106</ele></trkpt>
   <trkpt lat="51.982165" lon="8.804787"><ele>107</ele></trkpt>
   <trkpt lat="51.982021" lon="8.804666"><ele>107</ele></trkpt>
   <trkpt lat="51.980615" lon="8.803502"><ele>106.75</ele></trkpt>
   <trkpt lat="51.98035" lon="8.803295"><ele>107.75</ele></trkpt>
   <trkpt lat="51.980151" lon="8.803155"><ele>108.5</ele></trkpt>
   <trkpt lat="51.979924" lon="8.803014"><ele>108.75</ele></trkpt>
   <trkpt lat="51.979719" lon="8.802901"><ele>108</ele></trkpt>
   <trkpt lat="51.979551" lon="8.802824"><ele>107.25</ele></trkpt>
   <trkpt lat="51.979375" lon="8.802759"><ele>106.75</ele></trkpt>
   <trkpt lat="51.979059" lon="8.802668"><ele>105.75</ele></trkpt>
   <trkpt lat="51.978613" lon="8.802609"><ele>105</ele></trkpt>
   <trkpt lat="51.978427" lon="8.802609"><ele>104.75</ele></trkpt>
   <trkpt lat="51.978087" lon="8.802631"><ele>104.75</ele></trkpt>
   <trkpt lat="51.977803" lon="8.802692"><ele>105</ele></trkpt>
   <trkpt lat="51.977269" lon="8.80286"><ele>105.5</ele></trkpt>
   <trkpt lat="51.976244" lon="8.803239"><ele>105.5</ele></trkpt>
   <trkpt lat="51.972301" lon="8.804703"><ele>106.75</ele></trkpt>
   <trkpt lat="51.971594" lon="8.804965"><ele>107</ele></trkpt>
   <trkpt lat="51.96983" lon="8.805624"><ele>108.25</ele></trkpt>
   <trkpt lat="51.969464" lon="8.80578"><ele>108</ele></trkpt>
   <trkpt lat="51.969189" lon="8.805912"><ele>108.25</ele></trkpt>
   <trkpt lat="51.968942" lon="8.806048"><ele>108.5</ele></trkpt>
   <trkpt lat="51.968657" lon="8.806218"><ele>108.5</ele></trkpt>
   <trkpt lat="51.967516" lon="8.806978"><ele>110.25</ele></trkpt>
   <trkpt lat="51.965717" lon="8.808198"><ele>110</ele></trkpt>
   <trkpt lat="51.96344" lon="8.809742"><ele>109</ele></trkpt>
   <trkpt lat="51.962976" lon="8.810071"><ele>109.75</ele></trkpt>
   <trkpt lat="51.962703" lon="8.810282"><ele>110.75</ele></trkpt>
   <trkpt lat="51.962434" lon="8.810514"><ele>111.25</ele></trkpt>
   <trkpt lat="51.962163" lon="8.810786"><ele>111</ele></trkpt>
   <trkpt lat="51.962034" lon="8.810928"><ele>111</ele></trkpt>
   <trkpt lat="51.961835" lon="8.811168"><ele>111</ele></trkpt>
   <trkpt lat="51.961497" lon="8.811639"><ele>111.5</ele></trkpt>
   <trkpt lat="51.961349" lon="8.811872"><ele>111.75</ele></trkpt>
   <trkpt lat="51.961193" lon="8.812148"><ele>111.75</ele></trkpt>
   <trkpt lat="51.960988" lon="8.81254"><ele>111.75</ele></trkpt>
   <trkpt lat="51.960774" lon="8.812988"><ele>111.5</ele></trkpt>
   <trkpt lat="51.960477" lon="8.813655"><ele>111.75</ele></trkpt>
   <trkpt lat="51.960364" lon="8.813912"><ele>112</ele></trkpt>
   <trkpt lat="51.960274" lon="8.814118"><ele>112</ele></trkpt>
   <trkpt lat="51.957937" lon="8.819433"><ele>112.75</ele></trkpt>
   <trkpt lat="51.957897" lon="8.819524"><ele>112.75</ele></trkpt>
   <trkpt lat="51.957684" lon="8.820014"><ele>112.75</ele></trkpt>
   <trkpt lat="51.955779" lon="8.824351"><ele>114.75</ele></trkpt>
   <trkpt lat="51.95564" lon="8.82467"><ele>116.5</ele></trkpt>
   <trkpt lat="51.95533" lon="8.825371"><ele>119.75</ele></trkpt>
   <trkpt lat="51.953006" lon="8.830661"><ele>118.75</ele></trkpt>
   <trkpt lat="51.952533" lon="8.831732"><ele>119.75</ele></trkpt>
   <trkpt lat="51.952027" lon="8.832891"><ele>121</ele></trkpt>
   <trkpt lat="51.950452" lon="8.836476"><ele>120.75</ele></trkpt>
   <trkpt lat="51.950091" lon="8.837347"><ele>121.5</ele></trkpt>
   <trkpt lat="51.949929" lon="8.837777"><ele>121.5</ele></trkpt>
   <trkpt lat="51.949771" lon="8.838223"><ele>121</ele></trkpt>
   <trkpt lat="51.949604" lon="8.838733"><ele>121</ele></trkpt>
   <trkpt lat="51.949432" lon="8.83931"><ele>121</ele></trkpt>
   <trkpt lat="51.949318" lon="8.839726"><ele>121.5</ele></trkpt>
   <trkpt lat="51.949232" lon="8.840058"><ele>122</ele></trkpt>
   <trkpt lat="51.949158" lon="8.840359"><ele>122</ele></trkpt>
   <trkpt lat="51.949084" lon="8.840669"><ele>122</ele></trkpt>
   <trkpt lat="51.948419" lon="8.843619"><ele>123</ele></trkpt>
   <trkpt lat="51.948387" lon="8.843763"><ele>123.25</ele></trkpt>
   <trkpt lat="51.947948" lon="8.845707"><ele>124.5</ele></trkpt>
   <trkpt lat="51.947869" lon="8.846054"><ele>124.25</ele></trkpt>
   <trkpt lat="51.947225" lon="8.848935"><ele>122.5</ele></trkpt>
   <trkpt lat="51.947002" lon="8.849896"><ele>121.5</ele></trkpt>
   <trkpt lat="51.946773" lon="8.850813"><ele>121.75</ele></trkpt>
   <trkpt lat="51.94615" lon="8.853086"><ele>122.5</ele></trkpt>
   <trkpt lat="51.946112" lon="8.853223"><ele>122.5</ele></trkpt>
   <trkpt lat="51.945498" lon="8.855465"><ele>122</ele></trkpt>
   <trkpt lat="51.945372" lon="8.855924"><ele>122</ele></trkpt>
   <trkpt lat="51.945078" lon="8.856992"><ele>123</ele></trkpt>
   <trkpt lat="51.944446" lon="8.859299"><ele>125</ele></trkpt>
   <trkpt lat="51.943548" lon="8.862574"><ele>127.5</ele></trkpt>
   <trkpt lat="51.943381" lon="8.863188"><ele>127</ele></trkpt>
   <trkpt lat="51.943279" lon="8.863552"><ele>126.75</ele></trkpt>
   <trkpt lat="51.943102" lon="8.864199"><ele>127</ele></trkpt>
   <trkpt lat="51.941842" lon="8.868819"><ele>131</ele></trkpt>
   <trkpt lat="51.941288" lon="8.870816"><ele>130.5</ele></trkpt>
   <trkpt lat="51.940732" lon="8.87285"><ele>131</ele></trkpt>
   <trkpt lat="51.940727" lon="8.872867"><ele>131.5</ele></trkpt>
   <trkpt lat="51.940534" lon="8.873568"><ele>131.5</ele></trkpt>
   <trkpt lat="51.940481" lon="8.873789"><ele>131.5</ele></trkpt>
   <trkpt lat="51.940257" lon="8.87485"><ele>132.25</ele></trkpt>
   <trkpt lat="51.940181" lon="8.875149"><ele>132.25</ele></trkpt>
   <trkpt lat="51.940157" lon="8.875243"><ele>132.25</ele></trkpt>
   <trkpt lat="51.940107" lon="8.875432"><ele>132.5</ele></trkpt>
   <trkpt lat="51.940011" lon="8.875795"><ele>132.75</ele></trkpt>
   <trkpt lat="51.939799" lon="8.876524"><ele>134</ele></trkpt>
   <trkpt lat="51.939765" lon="8.876637"><ele>134.25</ele></trkpt>
   <trkpt lat="51.939457" lon="8.877628"><ele>134.75</ele></trkpt>
   <trkpt lat="51.939227" lon="8.878457"><ele>134</ele></trkpt>
   <trkpt lat="51.939136" lon="8.878738"><ele>134</ele></trkpt>
   <trkpt lat="51.939113" lon="8.878804"><ele>134</ele></trkpt>
   <trkpt lat="51.939066" lon="8.878938"><ele>134</ele></trkpt>
   <trkpt lat="51.939022" lon="8.879066"><ele>134.25</ele></trkpt>
   <trkpt lat="51.938749" lon="8.879835"><ele>135</ele></trkpt>
   <trkpt lat="51.938533" lon="8.880409"><ele>135.5</ele></trkpt>
   <trkpt lat="51.938486" lon="8.880525"><ele>135.5</ele></trkpt>
   <trkpt lat="51.938446" lon="8.880621"><ele>135.75</ele></trkpt>
   <trkpt lat="51.938226" lon="8.881133"><ele>136.5</ele></trkpt>
   <trkpt lat="51.938014" lon="8.881589"><ele>137.25</ele></trkpt>
   <trkpt lat="51.937804" lon="8.882007"><ele>137.5</ele></trkpt>
   <trkpt lat="51.937528" lon="8.88252"><ele>137</ele></trkpt>
   <trkpt lat="51.937498" lon="8.88257"><ele>137</ele></trkpt>
   <trkpt lat="51.937425" lon="8.882695"><ele>137</ele></trkpt>
   <trkpt lat="51.937228" lon="8.883025"><ele>137</ele></trkpt>
   <trkpt lat="51.937052" lon="8.883297"><ele>137.5</ele></trkpt>
   <trkpt lat="51.936833" lon="8.883627"><ele>138.5</ele></trkpt>
   <trkpt lat="51.936618" lon="8.883938"><ele>140</ele></trkpt>
   <trkpt lat="51.935305" lon="8.885835"><ele>149.25</ele></trkpt>
   <trkpt lat="51.934958" lon="8.88638"><ele>150.75</ele></trkpt>
   <trkpt lat="51.934789" lon="8.886671"><ele>151.75</ele></trkpt>
   <trkpt lat="51.934616" lon="8.886987"><ele>152.5</ele></trkpt>
   <trkpt lat="51.93445" lon="8.887323"><ele>153</ele></trkpt>
   <trkpt lat="51.934293" lon="8.88767"><ele>153.5</ele></trkpt>
   <trkpt lat="51.934146" lon="8.888029"><ele>154</ele></trkpt>
   <trkpt lat="51.933867" lon="8.888778"><ele>153.25</ele></trkpt>
   <trkpt lat="51.933334" lon="8.890341"><ele>151.75</ele></trkpt>
   <trkpt lat="51.933202" lon="8.890712"><ele>151.75</ele></trkpt>
   <trkpt lat="51.933059" lon="8.891089"><ele>151.5</ele></trkpt>
   <trkpt lat="51.932914" lon="8.891438"><ele>151</ele></trkpt>
   <trkpt lat="51.932762" lon="8.891778"><ele>150.5</ele></trkpt>
   <trkpt lat="51.932602" lon="8.892098"><ele>150.25</ele></trkpt>
   <trkpt lat="51.932439" lon="8.892397"><ele>150</ele></trkpt>
   <trkpt lat="51.932267" lon="8.892688"><ele>149.25</ele></trkpt>
   <trkpt lat="51.932087" lon="8.892963"><ele>148.75</ele></trkpt>
   <trkpt lat="51.931813" lon="8.893343"><ele>148.25</ele></trkpt>
   <trkpt lat="51.931771" lon="8.893393"><ele>148</ele></trkpt>
   <trkpt lat="51.93158" lon="8.893621"><ele>147.5</ele></trkpt>
   <trkpt lat="51.931304" lon="8.893914"><ele>146.5</ele></trkpt>
   <trkpt lat="51.931075" lon="8.894128"><ele>145</ele></trkpt>
   <trkpt lat="51.930886" lon="8.894287"><ele>143.75</ele></trkpt>
   <trkpt lat="51.930621" lon="8.894481"><ele>143.25</ele></trkpt>
   <trkpt lat="51.930424" lon="8.894606"><ele>143.25</ele></trkpt>
   <trkpt lat="51.930185" lon="8.894744"><ele>143.25</ele></trkpt>
   <trkpt lat="51.929958" lon="8.894851"><ele>143.5</ele></trkpt>
   <trkpt lat="51.929707" lon="8.894949"><ele>144</ele></trkpt>
   <trkpt lat="51.929454" lon="8.895034"><ele>144.5</ele></trkpt>
   <trkpt lat="51.929166" lon="8.895108"><ele>144.75</ele></trkpt>
   <trkpt lat="51.928877" lon="8.895173"><ele>145.75</ele></trkpt>
   <trkpt lat="51.927342" lon="8.895457"><ele>152.5</ele></trkpt>
   <trkpt lat="51.927313" lon="8.895461"><ele>152.75</ele></trkpt>
   <trkpt lat="51.926002" lon="8.895699"><ele>157.5</ele></trkpt>
   <trkpt lat="51.925145" lon="8.895855"><ele>158.25</ele></trkpt>
   <trkpt lat="51.924928" lon="8.895896"><ele>158.75</ele></trkpt>
   <trkpt lat="51.92476" lon="8.895927"><ele>159.25</ele></trkpt>
   <trkpt lat="51.921361" lon="8.896548"><ele>164</ele></trkpt>
   <trkpt lat="51.919367" lon="8.896914"><ele>158.25</ele></trkpt>
   <trkpt lat="51.918834" lon="8.897021"><ele>156.75</ele></trkpt>
   <trkpt lat="51.918413" lon="8.897133"><ele>155.5</ele></trkpt>
   <trkpt lat="51.918068" lon="8.897257"><ele>155.5</ele></trkpt>
   <trkpt lat="51.917861" lon="8.897351"><ele>155.75</ele></trkpt>
   <trkpt lat="51.917653" lon="8.897459"><ele>155.75</ele></trkpt>
   <trkpt lat="51.917436" lon="8.897593"><ele>156</ele></trkpt>
   <trkpt lat="51.91712" lon="8.897815"><ele>157.5</ele></trkpt>
   <trkpt lat="51.916787" lon="8.898095"><ele>158.25</ele></trkpt>
   <trkpt lat="51.91659" lon="8.898285"><ele>158.75</ele></trkpt>
   <trkpt lat="51.91632" lon="8.898574"><ele>161.25</ele></trkpt>
   <trkpt lat="51.916019" lon="8.89895"><ele>164</ele></trkpt>
   <trkpt lat="51.915893" lon="8.899122"><ele>165.25</ele></trkpt>
   <trkpt lat="51.915753" lon="8.89933"><ele>166.75</ele></trkpt>
   <trkpt lat="51.915592" lon="8.8996"><ele>168.5</ele></trkpt>
   <trkpt lat="51.915483" lon="8.899785"><ele>169.5</ele></trkpt>
   <trkpt lat="51.915363" lon="8.900021"><ele>170.5</ele></trkpt>
   <trkpt lat="51.915102" lon="8.900602"><ele>171</ele></trkpt>
   <trkpt lat="51.914961" lon="8.900961"><ele>170.75</ele></trkpt>
   <trkpt lat="51.914617" lon="8.901896"><ele>168.75</ele></trkpt>
   <trkpt lat="51.914354" lon="8.90263"><ele>167.75</ele></trkpt>
   <trkpt lat="51.913165" lon="8.905922"><ele>171</ele></trkpt>
   <trkpt lat="51.912193" lon="8.908618"><ele>173.5</ele></trkpt>
   <trkpt lat="51.911896" lon="8.909446"><ele>171.75</ele></trkpt>
   <trkpt lat="51.911801" lon="8.909712"><ele>170.5</ele></trkpt>
   <trkpt lat="51.911766" lon="8.909806"><ele>170</ele></trkpt>
   <trkpt lat="51.910936" lon="8.912018"><ele>168</ele></trkpt>
   <trkpt lat="51.910321" lon="8.913635"><ele>169.5</ele></trkpt>
   <trkpt lat="51.910162" lon="8.914039"><ele>169.75</ele></trkpt>
   <trkpt lat="51.909974" lon="8.914483"><ele>169.75</ele></trkpt>
   <trkpt lat="51.90976" lon="8.914956"><ele>169</ele></trkpt>
   <trkpt lat="51.909594" lon="8.915301"><ele>168.5</ele></trkpt>
   <trkpt lat="51.90926" lon="8.915941"><ele>168</ele></trkpt>
   <trkpt lat="51.909215" lon="8.916022"><ele>168</ele></trkpt>
   <trkpt lat="51.907076" lon="8.919909"><ele>177.75</ele></trkpt>
   <trkpt lat="51.906445" lon="8.921041"><ele>179</ele></trkpt>
   <trkpt lat="51.906062" lon="8.921655"><ele>178.25</ele></trkpt>
   <trkpt lat="51.905878" lon="8.921916"><ele>179.5</ele></trkpt>
   <trkpt lat="51.905688" lon="8.922167"><ele>181</ele></trkpt>
   <trkpt lat="51.905498" lon="8.922388"><ele>182.75</ele></trkpt>
   <trkpt lat="51.905152" lon="8.922745"><ele>185.5</ele></trkpt>
   <trkpt lat="51.904969" lon="8.922912"><ele>186.75</ele></trkpt>
   <trkpt lat="51.90475" lon="8.923088"><ele>187.5</ele></trkpt>
   <trkpt lat="51.904519" lon="8.923253"><ele>188</ele></trkpt>
   <trkpt lat="51.904188" lon="8.923448"><ele>188.75</ele></trkpt>
   <trkpt lat="51.903574" lon="8.923764"><ele>185.25</ele></trkpt>
   <trkpt lat="51.90328" lon="8.923919"><ele>183.25</ele></trkpt>
   <trkpt lat="51.902995" lon="8.924079"><ele>182.5</ele></trkpt>
   <trkpt lat="51.902804" lon="8.924198"><ele>181.75</ele></trkpt>
   <trkpt lat="51.902441" lon="8.924471"><ele>180.75</ele></trkpt>
   <trkpt lat="51.902263" lon="8.924633"><ele>182</ele></trkpt>
   <trkpt lat="51.90209" lon="8.924808"><ele>182.75</ele></trkpt>
   <trkpt lat="51.901942" lon="8.924968"><ele>183.25</ele></trkpt>
   <trkpt lat="51.901763" lon="8.925189"><ele>184.25</ele></trkpt>
   <trkpt lat="51.901595" lon="8.925419"><ele>186.75</ele></trkpt>
   <trkpt lat="51.901428" lon="8.925675"><ele>190.75</ele></trkpt>
   <trkpt lat="51.90126" lon="8.925958"><ele>194.25</ele></trkpt>
   <trkpt lat="51.901097" lon="8.926259"><ele>197</ele></trkpt>
   <trkpt lat="51.900754" lon="8.926933"><ele>200</ele></trkpt>
   <trkpt lat="51.898463" lon="8.93163"><ele>192</ele></trkpt>
   <trkpt lat="51.898424" lon="8.931713"><ele>192</ele></trkpt>
   <trkpt lat="51.896822" lon="8.934989"><ele>203.5</ele></trkpt>
   <trkpt lat="51.896089" lon="8.93649"><ele>194.75</ele></trkpt>
   <trkpt lat="51.89593" lon="8.936816"><ele>194</ele></trkpt>
   <trkpt lat="51.895535" lon="8.937626"><ele>192.25</ele></trkpt>
   <trkpt lat="51.894357" lon="8.940038"><ele>193.25</ele></trkpt>
   <trkpt lat="51.894047" lon="8.940698"><ele>195.5</ele></trkpt>
   <trkpt lat="51.893887" lon="8.941063"><ele>196.5</ele></trkpt>
   <trkpt lat="51.893755" lon="8.941391"><ele>197.25</ele></trkpt>
   <trkpt lat="51.893622" lon="8.941755"><ele>198</ele></trkpt>
   <trkpt lat="51.893517" lon="8.942073"><ele>198.5</ele></trkpt>
   <trkpt lat="51.893282" lon="8.942874"><ele>199.75</ele></trkpt>
   <trkpt lat="51.892933" lon="8.944198"><ele>202.25</ele></trkpt>
   <trkpt lat="51.892725" lon="8.944895"><ele>202.25</ele></trkpt>
   <trkpt lat="51.89261" lon="8.945232"><ele>203</ele></trkpt>
   <trkpt lat="51.892446" lon="8.94566"><ele>204.5</ele></trkpt>
   <trkpt lat="51.892184" lon="8.946254"><ele>206.5</ele></trkpt>
   <trkpt lat="51.892043" lon="8.946533"><ele>207.5</ele></trkpt>
   <trkpt lat="51.891841" lon="8.946907"><ele>208.75</ele></trkpt>
   <trkpt lat="51.891655" lon="8.947228"><ele>209.5</ele></trkpt>
   <trkpt lat="51.890178" lon="8.949682"><ele>208</ele></trkpt>
   <trkpt lat="51.889768" lon="8.95036"><ele>205.25</ele></trkpt>
   <trkpt lat="51.889539" lon="8.950744"><ele>203.75</ele></trkpt>
   <trkpt lat="51.889258" lon="8.951195"><ele>202.75</ele></trkpt>
   <trkpt lat="51.889" lon="8.951567"><ele>202.75</ele></trkpt>
   <trkpt lat="51.888765" lon="8.951875"><ele>203</ele></trkpt>
   <trkpt lat="51.888627" lon="8.95204"><ele>203.25</ele></trkpt>
   <trkpt lat="51.888307" lon="8.952378"><ele>203.75</ele></trkpt>
   <trkpt lat="51.88795" lon="8.952689"><ele>204.5</ele></trkpt>
   <trkpt lat="51.887906" lon="8.952722"><ele>204.75</ele></trkpt>
   <trkpt lat="51.88768" lon="8.952876"><ele>205</ele></trkpt>
   <trkpt lat="51.887451" lon="8.953009"><ele>205.5</ele></trkpt>
   <trkpt lat="51.887057" lon="8.953181"><ele>206.25</ele></trkpt>
   <trkpt lat="51.88671" lon="8.953304"><ele>206.75</ele></trkpt>
   <trkpt lat="51.886572" lon="8.95335"><ele>207</ele></trkpt>
   <trkpt lat="51.886551" lon="8.953357"><ele>207</ele></trkpt>
   <trkpt lat="51.886398" lon="8.953407"><ele>207</ele></trkpt>
   <trkpt lat="51.885653" lon="8.95366"><ele>208</ele></trkpt>
   <trkpt lat="51.882808" lon="8.954614"><ele>206.75</ele></trkpt>
   <trkpt lat="51.882678" lon="8.954657"><ele>206.75</ele></trkpt>
   <trkpt lat="51.881881" lon="8.954923"><ele>206.75</ele></trkpt>
   <trkpt lat="51.881527" lon="8.955043"><ele>207</ele></trkpt>
   <trkpt lat="51.881299" lon="8.955116"><ele>207</ele></trkpt>
   <trkpt lat="51.880911" lon="8.955252"><ele>207.25</ele></trkpt>
   <trkpt lat="51.880659" lon="8.955331"><ele>207.5</ele></trkpt>
   <trkpt lat="51.880245" lon="8.955472"><ele>207.75</ele></trkpt>
   <trkpt lat="51.880029" lon="8.955544"><ele>207.75</ele></trkpt>
   <trkpt lat="51.87997" lon="8.955564"><ele>207.75</ele></trkpt>
   <trkpt lat="51.879915" lon="8.955582"><ele>207.75</ele></trkpt>
   <trkpt lat="51.879116" lon="8.955836"><ele>207</ele></trkpt>
   <trkpt lat="51.878694" lon="8.955941"><ele>207.5</ele></trkpt>
   <trkpt lat="51.878389" lon="8.955998"><ele>207.75</ele></trkpt>
   <trkpt lat="51.878049" lon="8.956037"><ele>208.75</ele></trkpt>
   <trkpt lat="51.877693" lon="8.956059"><ele>210</ele></trkpt>
   <trkpt lat="51.877111" lon="8.956039"><ele>211</ele></trkpt>
   <trkpt lat="51.876841" lon="8.956009"><ele>211.5</ele></trkpt>
   <trkpt lat="51.876584" lon="8.955965"><ele>212</ele></trkpt>
   <trkpt lat="51.876032" lon="8.955834"><ele>213.5</ele></trkpt>
   <trkpt lat="51.875792" lon="8.955759"><ele>214</ele></trkpt>
   <trkpt lat="51.874836" lon="8.955434"><ele>214.25</ele></trkpt>
   <trkpt lat="51.874363" lon="8.955304"><ele>215.5</ele></trkpt>
   <trkpt lat="51.874147" lon="8.955262"><ele>216</ele></trkpt>
   <trkpt lat="51.87391" lon="8.955231"><ele>216</ele></trkpt>
   <trkpt lat="51.873461" lon="8.955219"><ele>216</ele></trkpt>
   <trkpt lat="51.873235" lon="8.955238"><ele>216</ele></trkpt>
   <trkpt lat="51.873014" lon="8.955269"><ele>215.5</ele></trkpt>
   <trkpt lat="51.872745" lon="8.955333"><ele>214.75</ele></trkpt>
   <trkpt lat="51.872685" lon="8.95535"><ele>214.75</ele></trkpt>
   <trkpt lat="51.872344" lon="8.95546"><ele>214.5</ele></trkpt>
   <trkpt lat="51.87219" lon="8.955525"><ele>214.75</ele></trkpt>
   <trkpt lat="51.872004" lon="8.955614"><ele>214.75</ele></trkpt>
   <trkpt lat="51.87166" lon="8.95581"><ele>215</ele></trkpt>
   <trkpt lat="51.871307" lon="8.956055"><ele>216</ele></trkpt>
   <trkpt lat="51.871056" lon="8.956263"><ele>216.75</ele></trkpt>
   <trkpt lat="51.870818" lon="8.956479"><ele>217.75</ele></trkpt>
   <trkpt lat="51.870635" lon="8.956669"><ele>217.75</ele></trkpt>
   <trkpt lat="51.870444" lon="8.956883"><ele>218</ele></trkpt>
   <trkpt lat="51.87025" lon="8.95712"><ele>218</ele></trkpt>
   <trkpt lat="51.870042" lon="8.957409"><ele>218</ele></trkpt>
   <trkpt lat="51.86983" lon="8.957732"><ele>218</ele></trkpt>
   <trkpt lat="51.869672" lon="8.957997"><ele>218</ele></trkpt>
   <trkpt lat="51.869433" lon="8.95842"><ele>218.75</ele></trkpt>
   <trkpt lat="51.868255" lon="8.960629"><ele>221</ele></trkpt>
   <trkpt lat="51.868212" lon="8.96071"><ele>221</ele></trkpt>
   <trkpt lat="51.867875" lon="8.961342"><ele>221.25</ele></trkpt>
   <trkpt lat="51.867562" lon="8.961893"><ele>221</ele></trkpt>
   <trkpt lat="51.86726" lon="8.962374"><ele>221.25</ele></trkpt>
   <trkpt lat="51.867139" lon="8.96255"><ele>221.25</ele></trkpt>
   <trkpt lat="51.866968" lon="8.962779"><ele>221.25</ele></trkpt>
   <trkpt lat="51.866725" lon="8.963075"><ele>221</ele></trkpt>
   <trkpt lat="51.866437" lon="8.963381"><ele>221.5</ele></trkpt>
   <trkpt lat="51.866292" lon="8.963516"><ele>221.5</ele></trkpt>
   <trkpt lat="51.866089" lon="8.963696"><ele>221.75</ele></trkpt>
   <trkpt lat="51.865894" lon="8.963847"><ele>221.75</ele></trkpt>
   <trkpt lat="51.865707" lon="8.963979"><ele>222</ele></trkpt>
   <trkpt lat="51.865557" lon="8.964077"><ele>222.25</ele></trkpt>
   <trkpt lat="51.865153" lon="8.964296"><ele>222.75</ele></trkpt>
   <trkpt lat="51.864887" lon="8.964407"><ele>223.25</ele></trkpt>
   <trkpt lat="51.864658" lon="8.964486"><ele>223.5</ele></trkpt>
   <trkpt lat="51.864453" lon="8.964544"><ele>223.75</ele></trkpt>
   <trkpt lat="51.864145" lon="8.964603"><ele>224.25</ele></trkpt>
   <trkpt lat="51.863796" lon="8.964629"><ele>225.25</ele></trkpt>
   <trkpt lat="51.863576" lon="8.964623"><ele>226</ele></trkpt>
   <trkpt lat="51.863309" lon="8.964608"><ele>226.75</ele></trkpt>
   <trkpt lat="51.863049" lon="8.964569"><ele>226.25</ele></trkpt>
   <trkpt lat="51.862563" lon="8.964468"><ele>225.5</ele></trkpt>
   <trkpt lat="51.861305" lon="8.964151"><ele>225</ele></trkpt>
   <trkpt lat="51.861249" lon="8.964138"><ele>225</ele></trkpt>
   <trkpt lat="51.859231" lon="8.963627"><ele>225</ele></trkpt>
   <trkpt lat="51.858566" lon="8.963458"><ele>228.75</ele></trkpt>
   <trkpt lat="51.857836" lon="8.963292"><ele>232.75</ele></trkpt>
   <trkpt lat="51.857427" lon="8.963237"><ele>234.25</ele></trkpt>
   <trkpt lat="51.857095" lon="8.963223"><ele>233.25</ele></trkpt>
   <trkpt lat="51.856899" lon="8.963229"><ele>232.75</ele></trkpt>
   <trkpt lat="51.856621" lon="8.963259"><ele>232.25</ele></trkpt>
   <trkpt lat="51.856311" lon="8.96332"><ele>231</ele></trkpt>
   <trkpt lat="51.85597" lon="8.963423"><ele>230.75</ele></trkpt>
   <trkpt lat="51.855765" lon="8.963504"><ele>230.75</ele></trkpt>
   <trkpt lat="51.855545" lon="8.963605"><ele>230.5</ele></trkpt>
   <trkpt lat="51.855317" lon="8.963727"><ele>229.75</ele></trkpt>
   <trkpt lat="51.855118" lon="8.96385"><ele>229</ele></trkpt>
   <trkpt lat="51.85489" lon="8.964011"><ele>228.5</ele></trkpt>
   <trkpt lat="51.854528" lon="8.964311"><ele>228.75</ele></trkpt>
   <trkpt lat="51.854257" lon="8.964574"><ele>228.75</ele></trkpt>
   <trkpt lat="51.854004" lon="8.964851"><ele>229.25</ele></trkpt>
   <trkpt lat="51.853719" lon="8.965205"><ele>230.25</ele></trkpt>
   <trkpt lat="51.853516" lon="8.96548"><ele>230.5</ele></trkpt>
   <trkpt lat="51.852504" lon="8.966992"><ele>231</ele></trkpt>
   <trkpt lat="51.852275" lon="8.967325"><ele>231.5</ele></trkpt>
   <trkpt lat="51.852001" lon="8.967702"><ele>232</ele></trkpt>
   <trkpt lat="51.851799" lon="8.967956"><ele>232</ele></trkpt>
   <trkpt lat="51.851644" lon="8.968134"><ele>232</ele></trkpt>
   <trkpt lat="51.851464" lon="8.968332"><ele>232</ele></trkpt>
   <trkpt lat="51.851194" lon="8.968596"><ele>232</ele></trkpt>
   <trkpt lat="51.850964" lon="8.968799"><ele>232.25</ele></trkpt>
   <trkpt lat="51.850699" lon="8.969007"><ele>233</ele></trkpt>
   <trkpt lat="51.850419" lon="8.9692"><ele>234</ele></trkpt>
   <trkpt lat="51.850155" lon="8.96936"><ele>234.5</ele></trkpt>
   <trkpt lat="51.849694" lon="8.969584"><ele>236</ele></trkpt>
   <trkpt lat="51.849301" lon="8.969725"><ele>236.75</ele></trkpt>
   <trkpt lat="51.848816" lon="8.969847"><ele>236.75</ele></trkpt>
   <trkpt lat="51.848344" lon="8.969929"><ele>236.25</ele></trkpt>
   <trkpt lat="51.847522" lon="8.970038"><ele>237</ele></trkpt>
   <trkpt lat="51.847203" lon="8.970083"><ele>236</ele></trkpt>
   <trkpt lat="51.84679" lon="8.970157"><ele>234.5</ele></trkpt>
   <trkpt lat="51.846372" lon="8.970269"><ele>233.75</ele></trkpt>
   <trkpt lat="51.846303" lon="8.97029"><ele>233.75</ele></trkpt>
   <trkpt lat="51.846214" lon="8.970322"><ele>233.5</ele></trkpt>
   <trkpt lat="51.846146" lon="8.970347"><ele>233.5</ele></trkpt>
   <trkpt lat="51.845816" lon="8.970478"><ele>232.75</ele></trkpt>
   <trkpt lat="51.845484" lon="8.970639"><ele>232.75</ele></trkpt>
   <trkpt lat="51.844514" lon="8.971155"><ele>231.75</ele></trkpt>
   <trkpt lat="51.844046" lon="8.971405"><ele>231</ele></trkpt>
   <trkpt lat="51.842258" lon="8.972358"><ele>229.5</ele></trkpt>
   <trkpt lat="51.840754" lon="8.973162"><ele>229</ele></trkpt>
   <trkpt lat="51.84066" lon="8.973212"><ele>229</ele></trkpt>
   <trkpt lat="51.840016" lon="8.973555"><ele>228.5</ele></trkpt>
   <trkpt lat="51.839365" lon="8.973899"><ele>228</ele></trkpt>
   <trkpt lat="51.839123" lon="8.974011"><ele>227.75</ele></trkpt>
   <trkpt lat="51.839059" lon="8.974039"><ele>227.75</ele></trkpt>
   <trkpt lat="51.838576" lon="8.974232"><ele>226.5</ele></trkpt>
   <trkpt lat="51.836791" lon="8.974829"><ele>222.75</ele></trkpt>
   <trkpt lat="51.831983" lon="8.976427"><ele>233.5</ele></trkpt>
   <trkpt lat="51.83157" lon="8.976549"><ele>231.75</ele></trkpt>
   <trkpt lat="51.831286" lon="8.976608"><ele>230.25</ele></trkpt>
   <trkpt lat="51.831103" lon="8.976635"><ele>229.25</ele></trkpt>
   <trkpt lat="51.830928" lon="8.976654"><ele>228.25</ele></trkpt>
   <trkpt lat="51.830578" lon="8.97667"><ele>228.5</ele></trkpt>
   <trkpt lat="51.827937" lon="8.976676"><ele>224.5</ele></trkpt>
   <trkpt lat="51.827925" lon="8.976676"><ele>224.25</ele></trkpt>
   <trkpt lat="51.82783" lon="8.976677"><ele>224.25</ele></trkpt>
   <trkpt lat="51.827186" lon="8.976677"><ele>224.25</ele></trkpt>
   <trkpt lat="51.827113" lon="8.976677"><ele>224.25</ele></trkpt>
   <trkpt lat="51.825081" lon="8.97668"><ele>227.75</ele></trkpt>
   <trkpt lat="51.824466" lon="8.976687"><ele>229.25</ele></trkpt>
   <trkpt lat="51.824108" lon="8.976712"><ele>230.25</ele></trkpt>
   <trkpt lat="51.823874" lon="8.976748"><ele>231.25</ele></trkpt>
   <trkpt lat="51.823617" lon="8.976802"><ele>232.5</ele></trkpt>
   <trkpt lat="51.823413" lon="8.976859"><ele>233.5</ele></trkpt>
   <trkpt lat="51.823188" lon="8.97694"><ele>234</ele></trkpt>
   <trkpt lat="51.822982" lon="8.977031"><ele>234</ele></trkpt>
   <trkpt lat="51.822672" lon="8.977192"><ele>234</ele></trkpt>
   <trkpt lat="51.822342" lon="8.977405"><ele>233.75</ele></trkpt>
   <trkpt lat="51.822168" lon="8.977532"><ele>233.5</ele></trkpt>
   <trkpt lat="51.821945" lon="8.977711"><ele>232.75</ele></trkpt>
   <trkpt lat="51.821752" lon="8.977887"><ele>231.75</ele></trkpt>
   <trkpt lat="51.821534" lon="8.978103"><ele>230.75</ele></trkpt>
   <trkpt lat="51.821329" lon="8.97833"><ele>230</ele></trkpt>
   <trkpt lat="51.821157" lon="8.978539"><ele>230.25</ele></trkpt>
   <trkpt lat="51.820867" lon="8.978934"><ele>230</ele></trkpt>
   <trkpt lat="51.820617" lon="8.979317"><ele>230</ele></trkpt>
   <trkpt lat="51.820382" lon="8.979733"><ele>229.5</ele></trkpt>
   <trkpt lat="51.820253" lon="8.979984"><ele>228.75</ele></trkpt>
   <trkpt lat="51.820099" lon="8.980307"><ele>228.5</ele></trkpt>
   <trkpt lat="51.819974" lon="8.980598"><ele>227.75</ele></trkpt>
   <trkpt lat="51.819922" lon="8.980724"><ele>227.75</ele></trkpt>
   <trkpt lat="51.81981" lon="8.981018"><ele>227.75</ele></trkpt>
   <trkpt lat="51.819672" lon="8.98142"><ele>227.75</ele></trkpt>
   <trkpt lat="51.819575" lon="8.981758"><ele>227.25</ele></trkpt>
   <trkpt lat="51.819443" lon="8.982254"><ele>226.75</ele></trkpt>
   <trkpt lat="51.818925" lon="8.984495"><ele>224.75</ele></trkpt>
   <trkpt lat="51.818901" lon="8.984601"><ele>224.75</ele></trkpt>
   <trkpt lat="51.818346" lon="8.987022"><ele>226.25</ele></trkpt>
   <trkpt lat="51.818035" lon="8.988388"><ele>226.5</ele></trkpt>
   <trkpt lat="51.817841" lon="8.989178"><ele>226.75</ele></trkpt>
   <trkpt lat="51.817744" lon="8.98953"><ele>226.75</ele></trkpt>
   <trkpt lat="51.817636" lon="8.989875"><ele>227</ele></trkpt>
   <trkpt lat="51.817518" lon="8.990212"><ele>227.75</ele></trkpt>
   <trkpt lat="51.817407" lon="8.990503"><ele>229</ele></trkpt>
   <trkpt lat="51.81728" lon="8.990802"><ele>230.25</ele></trkpt>
   <trkpt lat="51.817147" lon="8.99109"><ele>231.5</ele></trkpt>
   <trkpt lat="51.817017" lon="8.991343"><ele>232.75</ele></trkpt>
   <trkpt lat="51.816885" lon="8.991582"><ele>233.5</ele></trkpt>
   <trkpt lat="51.816727" lon="8.991844"><ele>234.5</ele></trkpt>
   <trkpt lat="51.816563" lon="8.992096"><ele>235.5</ele></trkpt>
   <trkpt lat="51.816311" lon="8.992452"><ele>237</ele></trkpt>
   <trkpt lat="51.81447" lon="8.994848"><ele>233.5</ele></trkpt>
   <trkpt lat="51.814055" lon="8.995395"><ele>231.5</ele></trkpt>
   <trkpt lat="51.813875" lon="8.995656"><ele>230.75</ele></trkpt>
   <trkpt lat="51.813698" lon="8.995929"><ele>229.75</ele></trkpt>
   <trkpt lat="51.813561" lon="8.996166"><ele>229</ele></trkpt>
   <trkpt lat="51.813402" lon="8.996471"><ele>228.25</ele></trkpt>
   <trkpt lat="51.813136" lon="8.997059"><ele>227.5</ele></trkpt>
   <trkpt lat="51.812989" lon="8.997421"><ele>227</ele></trkpt>
   <trkpt lat="51.812511" lon="8.998655"><ele>225</ele></trkpt>
   <trkpt lat="51.812157" lon="8.999574"><ele>224.75</ele></trkpt>
   <trkpt lat="51.811995" lon="8.999971"><ele>223.75</ele></trkpt>
   <trkpt lat="51.811827" lon="9.000357"><ele>223.5</ele></trkpt>
   <trkpt lat="51.811677" lon="9.000671"><ele>223</ele></trkpt>
   <trkpt lat="51.811518" lon="9.00097"><ele>223.5</ele></trkpt>
   <trkpt lat="51.81137" lon="9.001221"><ele>223.5</ele></trkpt>
   <trkpt lat="51.811199" lon="9.001483"><ele>222.75</ele></trkpt>
   <trkpt lat="51.811013" lon="9.001746"><ele>221.75</ele></trkpt>
   <trkpt lat="51.810821" lon="9.001998"><ele>221.75</ele></trkpt>
   <trkpt lat="51.810588" lon="9.002285"><ele>222.25</ele></trkpt>
   <trkpt lat="51.810197" lon="9.002725"><ele>220.75</ele></trkpt>
   <trkpt lat="51.809891" lon="9.003013"><ele>219</ele></trkpt>
   <trkpt lat="51.809817" lon="9.003077"><ele>219</ele></trkpt>
   <trkpt lat="51.809549" lon="9.003266"><ele>219.5</ele></trkpt>
   <trkpt lat="51.809402" lon="9.003356"><ele>219.75</ele></trkpt>
   <trkpt lat="51.809252" lon="9.003432"><ele>220</ele></trkpt>
   <trkpt lat="51.809068" lon="9.003513"><ele>220.5</ele></trkpt>
   <trkpt lat="51.808886" lon="9.003577"><ele>221</ele></trkpt>
   <trkpt lat="51.808731" lon="9.003616"><ele>221.5</ele></trkpt>
   <trkpt lat="51.808521" lon="9.003653"><ele>222.25</ele></trkpt>
   <trkpt lat="51.808313" lon="9.00367"><ele>222.75</ele></trkpt>
   <trkpt lat="51.808098" lon="9.003669"><ele>222.75</ele></trkpt>
   <trkpt lat="51.807874" lon="9.003642"><ele>222.75</ele></trkpt>
   <trkpt lat="51.807673" lon="9.0036"><ele>222.75</ele></trkpt>
   <trkpt lat="51.807475" lon="9.00354"><ele>222.75</ele></trkpt>
   <trkpt lat="51.807208" lon="9.00343"><ele>221.25</ele></trkpt>
   <trkpt lat="51.806942" lon="9.003287"><ele>220</ele></trkpt>
   <trkpt lat="51.806745" lon="9.003154"><ele>219.25</ele></trkpt>
   <trkpt lat="51.806565" lon="9.00301"><ele>218.5</ele></trkpt>
   <trkpt lat="51.806382" lon="9.002845"><ele>217.75</ele></trkpt>
   <trkpt lat="51.806204" lon="9.002664"><ele>217</ele></trkpt>
   <trkpt lat="51.806035" lon="9.002463"><ele>216.75</ele></trkpt>
   <trkpt lat="51.805879" lon="9.002262"><ele>216.75</ele></trkpt>
   <trkpt lat="51.805725" lon="9.002031"><ele>217</ele></trkpt>
   <trkpt lat="51.805577" lon="9.00179"><ele>217</ele></trkpt>
   <trkpt lat="51.805305" lon="9.001295"><ele>217.5</ele></trkpt>
   <trkpt lat="51.805165" lon="9.001009"><ele>217.75</ele></trkpt>
   <trkpt lat="51.805015" lon="9.000683"><ele>217.5</ele></trkpt>
   <trkpt lat="51.804898" lon="9.000409"><ele>217.75</ele></trkpt>
   <trkpt lat="51.804789" lon="9.000132"><ele>218</ele></trkpt>
   <trkpt lat="51.80458" lon="8.999547"><ele>217.25</ele></trkpt>
   <trkpt lat="51.80437" lon="8.998865"><ele>217</ele></trkpt>
   <trkpt lat="51.804244" lon="8.998284"><ele>217.25</ele></trkpt>
   <trkpt lat="51.804111" lon="8.997544"><ele>218.75</ele></trkpt>
   <trkpt lat="51.804023" lon="8.996923"><ele>220</ele></trkpt>
   <trkpt lat="51.803971" lon="8.99644"><ele>221.25</ele></trkpt>
   <trkpt lat="51.803933" lon="8.995886"><ele>223.25</ele></trkpt>
   <trkpt lat="51.803923" lon="8.995622"><ele>224</ele></trkpt>
   <trkpt lat="51.803918" lon="8.994661"><ele>226.75</ele></trkpt>
   <trkpt lat="51.80394" lon="8.993961"><ele>228.5</ele></trkpt>
   <trkpt lat="51.803969" lon="8.993505"><ele>230</ele></trkpt>
   <trkpt lat="51.804008" lon="8.99309"><ele>230.5</ele></trkpt>
   <trkpt lat="51.804287" lon="8.99097"><ele>230.25</ele></trkpt>
   <trkpt lat="51.804438" lon="8.989746"><ele>230.75</ele></trkpt>
   <trkpt lat="51.804492" lon="8.989047"><ele>229</ele></trkpt>
   <trkpt lat="51.80451" lon="8.988549"><ele>227</ele></trkpt>
   <trkpt lat="51.804504" lon="8.988"><ele>225.25</ele></trkpt>
   <trkpt lat="51.80449" lon="8.987649"><ele>224.25</ele></trkpt>
   <trkpt lat="51.804449" lon="8.987116"><ele>222.75</ele></trkpt>
   <trkpt lat="51.804387" lon="8.986612"><ele>221.75</ele></trkpt>
   <trkpt lat="51.804323" lon="8.986235"><ele>223</ele></trkpt>
   <trkpt lat="51.804277" lon="8.986002"><ele>223.5</ele></trkpt>
   <trkpt lat="51.804156" lon="8.985503"><ele>225</ele></trkpt>
   <trkpt lat="51.80408" lon="8.985246"><ele>225.75</ele></trkpt>
   <trkpt lat="51.803927" lon="8.984831"><ele>227.5</ele></trkpt>
   <trkpt lat="51.803784" lon="8.984517"><ele>229.75</ele></trkpt>
   <trkpt lat="51.803618" lon="8.984183"><ele>231.25</ele></trkpt>
   <trkpt lat="51.80351" lon="8.983969"><ele>231.75</ele></trkpt>
   <trkpt lat="51.803453" lon="8.983862"><ele>231.75</ele></trkpt>
   <trkpt lat="51.803246" lon="8.983517"><ele>232.25</ele></trkpt>
   <trkpt lat="51.803142" lon="8.98336"><ele>232.5</ele></trkpt>
   <trkpt lat="51.80303" lon="8.983202"><ele>232.75</ele></trkpt>
   <trkpt lat="51.802884" lon="8.983019"><ele>232</ele></trkpt>
  </trkseg>
 </trk>
</gpx>