<?xml version="1.0" encoding="UTF-8"?>
<!-- track-length = 63707 filtered ascend = 220 plain-ascend = -26 cost=63707 energy=.8kwh time=1h 24m 57s -->
<gpx 
 xmlns="http://www.topografix.com/GPX/1/1" 
 xmlns:xsi="http://www.w3.org/2001/XMLSchema-instance" 
 xsi:schemaLocation="http://www.topografix.com/GPX/1/1 http://www.topografix.com/GPX/1/1/gpx.xsd" 
 creator="BRouter-1.7.0" version="1.1">
 <trk>
  <name>Bischofswerda - Zittau</name>
  <trkseg>
   <trkpt lon="14.185354" lat="51.125241"><ele>289.5</ele></trkpt>
   <trkpt lon="14.187025" lat="51.125855"><ele>288.75</ele></trkpt>
   <trkpt lon="14.188537" lat="51.126419"><ele>288.25</ele></trkpt>
   <trkpt lon="14.191935" lat="51.127670"><ele>287.5</ele></trkpt>
   <trkpt lon="14.192155" lat="51.127750"><ele>287.25</ele></trkpt>
   <trkpt lon="14.192662" lat="51.127921"><ele>287.5</ele></trkpt>
   <trkpt lon="14.193003" lat="51.128026"><ele>288.0</ele></trkpt>
   <trkpt lon="14.193364" lat="51.128146"><ele>288.75</ele></trkpt>
   <trkpt lon="14.193745" lat="51.128286"><ele>288.75</ele></trkpt>
   <trkpt lon="14.193943" lat="51.128360"><ele>288.75</ele></trkpt>
   <trkpt lon="14.195833" lat="51.129024"><ele>288.0</ele></trkpt>
   <trkpt lon="14.196401" lat="51.129221"><ele>288.0</ele></trkpt>
   <trkpt lon="14.196696" lat="51.129319"><ele>288.5</ele></trkpt>
   <trkpt lon="14.197276" lat="51.129485"><ele>289.0</ele></trkpt>
   <trkpt lon="14.197783" lat="51.129621"><ele>289.25</ele></trkpt>
   <trkpt lon="14.198062" lat="51.129685"><ele>289.0</ele></trkpt>
   <trkpt lon="14.198308" lat="51.129741"><ele>289.0</ele></trkpt>
   <trkpt lon="14.198814" lat="51.129845"><ele>288.75</ele></trkpt>
   <trkpt lon="14.199294" lat="51.129926"><ele>288.5</ele></trkpt>
   <trkpt lon="14.199966" lat="51.130017"><ele>288.0</ele></trkpt>
   <trkpt lon="14.200690" lat="51.130087"><ele>289.0</ele></trkpt>
   <trkpt lon="14.200885" lat="51.130099"><ele>289.5</ele></trkpt>
   <trkpt lon="14.201711" lat="51.130153"><ele>291.75</ele></trkpt>
   <trkpt lon="14.202778" lat="51.130165"><ele>292.25</ele></trkpt>
   <trkpt lon="14.203769" lat="51.130115"><ele>292.0</ele></trkpt>
   <trkpt lon="14.204025" lat="51.130099"><ele>291.75</ele></trkpt>
   <trkpt lon="14.204634" lat="51.130044"><ele>291.75</ele></trkpt>
   <trkpt lon="14.204916" lat="51.130019"><ele>292.0</ele></trkpt>
   <trkpt lon="14.205542" lat="51.129936"><ele>293.25</ele></trkpt>
   <trkpt lon="14.206093" lat="51.129847"><ele>294.5</ele></trkpt>
   <trkpt lon="14.206749" lat="51.129725"><ele>295.5</ele></trkpt>
   <trkpt lon="14.206917" lat="51.129694"><ele>295.75</ele></trkpt>
   <trkpt lon="14.209321" lat="51.129122"><ele>295.25</ele></trkpt>
   <trkpt lon="14.212066" lat="51.128468"><ele>295.25</ele></trkpt>
   <trkpt lon="14.214696" lat="51.127841"><ele>295.75</ele></trkpt>
   <trkpt lon="14.214790" lat="51.127818"><ele>295.75</ele></trkpt>
   <trkpt lon="14.216535" lat="51.127402"><ele>296.25</ele></trkpt>
   <trkpt lon="14.217290" lat="51.127216"><ele>297.0</ele></trkpt>
   <trkpt lon="14.217978" lat="51.127014"><ele>297.5</ele></trkpt>
   <trkpt lon="14.218292" lat="51.126903"><ele>298.0</ele></trkpt>
   <trkpt lon="14.218758" lat="51.126738"><ele>298.5</ele></trkpt>
   <trkpt lon="14.219890" lat="51.126308"><ele>299.75</ele></trkpt>
   <trkpt lon="14.220668" lat="51.125935"><ele>301.0</ele></trkpt>
   <trkpt lon="14.221275" lat="51.125626"><ele>301.25</ele></trkpt>
   <trkpt lon="14.222049" lat="51.125167"><ele>300.75</ele></trkpt>
   <trkpt lon="14.222249" lat="51.125024"><ele>300.5</ele></trkpt>
   <trkpt lon="14.222667" lat="51.124723"><ele>299.5</ele></trkpt>
   <trkpt lon="14.223006" lat="51.124460"><ele>298.75</ele></trkpt>
   <trkpt lon="14.223797" lat="51.123743"><ele>298.0</ele></trkpt>
   <trkpt lon="14.224889" lat="51.122692"><ele>298.75</ele></trkpt>
   <trkpt lon="14.225204" lat="51.122402"><ele>299.0</ele></trkpt>
   <trkpt lon="14.225364" lat="51.122250"><ele>299.0</ele></trkpt>
   <trkpt lon="14.226968" lat="51.120732"><ele>302.5</ele></trkpt>
   <trkpt lon="14.227544" lat="51.120187"><ele>302.0</ele></trkpt>
   <trkpt lon="14.228088" lat="51.119661"><ele>303.5</ele></trkpt>
   <trkpt lon="14.228469" lat="51.119295"><ele>304.5</ele></trkpt>
   <trkpt lon="14.228957" lat="51.118821"><ele>305.0</ele></trkpt>
   <trkpt lon="14.229159" lat="51.118633"><ele>305.25</ele></trkpt>
   <trkpt lon="14.229432" lat="51.118375"><ele>305.25</ele></trkpt>
   <trkpt lon="14.230038" lat="51.117808"><ele>304.5</ele></trkpt>
   <trkpt lon="14.230840" lat="51.117036"><ele>303.5</ele></trkpt>
   <trkpt lon="14.230994" lat="51.116888"><ele>303.25</ele></trkpt>
   <trkpt lon="14.231693" lat="51.116217"><ele>305.0</ele></trkpt>
   <trkpt lon="14.233225" lat="51.114752"><ele>308.25</ele></trkpt>
   <trkpt lon="14.234767" lat="51.113275"><ele>312.75</ele></trkpt>
   <trkpt lon="14.235454" lat="51.112602"><ele>313.5</ele></trkpt>
   <trkpt lon="14.235694" lat="51.112342"><ele>314.0</ele></trkpt>
   <trkpt lon="14.235930" lat="51.112041"><ele>315.0</ele></trkpt>
   <trkpt lon="14.236118" lat="51.111775"><ele>316.25</ele></trkpt>
   <trkpt lon="14.236273" lat="51.111529"><ele>317.25</ele></trkpt>
   <trkpt lon="14.236555" lat="51.110845"><ele>319.0</ele></trkpt>
   <trkpt lon="14.236668" lat="51.110535"><ele>320.0</ele></trkpt>
   <trkpt lon="14.236729" lat="51.110231"><ele>321.0</ele></trkpt>
   <trkpt lon="14.236745" lat="51.109994"><ele>321.75</ele></trkpt>
   <trkpt lon="14.236771" lat="51.109603"><ele>322.75</ele></trkpt>
   <trkpt lon="14.236770" lat="51.109357"><ele>323.25</ele></trkpt>
   <trkpt lon="14.236584" lat="51.108237"><ele>322.75</ele></trkpt>
   <trkpt lon="14.236458" lat="51.107489"><ele>320.0</ele></trkpt>
   <trkpt lon="14.236306" lat="51.106714"><ele>317.0</ele></trkpt>
   <trkpt lon="14.236261" lat="51.106497"><ele>316.5</ele></trkpt>
   <trkpt lon="14.236062" lat="51.105538"><ele>314.5</ele></trkpt>
   <trkpt lon="14.235899" lat="51.104600"><ele>313.0</ele></trkpt>
   <trkpt lon="14.235789" lat="51.103878"><ele>314.0</ele></trkpt>
   <trkpt lon="14.235656" lat="51.103094"><ele>315.5</ele></trkpt>
   <trkpt lon="14.235466" lat="51.101885"><ele>313.0</ele></trkpt>
   <trkpt lon="14.235350" lat="51.101072"><ele>312.75</ele></trkpt>
   <trkpt lon="14.235299" lat="51.100416"><ele>313.75</ele></trkpt>
   <trkpt lon="14.235291" lat="51.099841"><ele>313.25</ele></trkpt>
   <trkpt lon="14.235346" lat="51.099266"><ele>310.0</ele></trkpt>
   <trkpt lon="14.235360" lat="51.099160"><ele>309.25</ele></trkpt>
   <trkpt lon="14.235467" lat="51.098701"><ele>305.75</ele></trkpt>
   <trkpt lon="14.235584" lat="51.098313"><ele>305.75</ele></trkpt>
   <trkpt lon="14.235738" lat="51.097947"><ele>306.0</ele></trkpt>
   <trkpt lon="14.235957" lat="51.097537"><ele>306.25</ele></trkpt>
   <trkpt lon="14.236024" lat="51.097440"><ele>306.25</ele></trkpt>
   <trkpt lon="14.236252" lat="51.097156"><ele>306.5</ele></trkpt>
   <trkpt lon="14.236442" lat="51.096902"><ele>306.75</ele></trkpt>
   <trkpt lon="14.236573" lat="51.096744"><ele>306.75</ele></trkpt>
   <trkpt lon="14.236835" lat="51.096456"><ele>307.0</ele></trkpt>
   <trkpt lon="14.237123" lat="51.096167"><ele>307.25</ele></trkpt>
   <trkpt lon="14.237442" lat="51.095884"><ele>307.5</ele></trkpt>
   <trkpt lon="14.238275" lat="51.095194"><ele>307.75</ele></trkpt>
   <trkpt lon="14.241422" lat="51.092598"><ele>308.0</ele></trkpt>
   <trkpt lon="14.241786" lat="51.092298"><ele>308.5</ele></trkpt>
   <trkpt lon="14.243252" lat="51.091088"><ele>310.75</ele></trkpt>
   <trkpt lon="14.243437" lat="51.090936"><ele>311.25</ele></trkpt>
   <trkpt lon="14.243952" lat="51.090519"><ele>312.0</ele></trkpt>
   <trkpt lon="14.244403" lat="51.090151"><ele>313.5</ele></trkpt>
   <trkpt lon="14.246150" lat="51.088729"><ele>318.75</ele></trkpt>
   <trkpt lon="14.246402" lat="51.088524"><ele>319.75</ele></trkpt>
   <trkpt lon="14.246523" lat="51.088426"><ele>320.5</ele></trkpt>
   <trkpt lon="14.247481" lat="51.087634"><ele>323.75</ele></trkpt>
   <trkpt lon="14.247876" lat="51.087307"><ele>324.75</ele></trkpt>
   <trkpt lon="14.249533" lat="51.085939"><ele>326.5</ele></trkpt>
   <trkpt lon="14.249549" lat="51.085926"><ele>326.5</ele></trkpt>
   <trkpt lon="14.250050" lat="51.085527"><ele>328.75</ele></trkpt>
   <trkpt lon="14.250332" lat="51.085320"><ele>330.75</ele></trkpt>
   <trkpt lon="14.250534" lat="51.085193"><ele>332.0</ele></trkpt>
   <trkpt lon="14.250736" lat="51.085066"><ele>333.25</ele></trkpt>
   <trkpt lon="14.251168" lat="51.084831"><ele>336.5</ele></trkpt>
   <trkpt lon="14.251533" lat="51.084652"><ele>339.25</ele></trkpt>
   <trkpt lon="14.251950" lat="51.084470"><ele>342.25</ele></trkpt>
   <trkpt lon="14.252227" lat="51.084360"><ele>344.0</ele></trkpt>
   <trkpt lon="14.252598" lat="51.084228"><ele>345.5</ele></trkpt>
   <trkpt lon="14.253029" lat="51.084090"><ele>347.75</ele></trkpt>
   <trkpt lon="14.253568" lat="51.083948"><ele>352.25</ele></trkpt>
   <trkpt lon="14.254034" lat="51.083847"><ele>355.75</ele></trkpt>
   <trkpt lon="14.254365" lat="51.083786"><ele>357.75</ele></trkpt>
   <trkpt lon="14.254824" lat="51.083714"><ele>360.25</ele></trkpt>
   <trkpt lon="14.255364" lat="51.083652"><ele>361.5</ele></trkpt>
   <trkpt lon="14.255766" lat="51.083621"><ele>361.75</ele></trkpt>
   <trkpt lon="14.256225" lat="51.083600"><ele>361.25</ele></trkpt>
   <trkpt lon="14.256896" lat="51.083601"><ele>360.25</ele></trkpt>
   <trkpt lon="14.257124" lat="51.083605"><ele>360.25</ele></trkpt>
   <trkpt lon="14.257558" lat="51.083625"><ele>360.0</ele></trkpt>
   <trkpt lon="14.257980" lat="51.083667"><ele>359.75</ele></trkpt>
   <trkpt lon="14.258476" lat="51.083729"><ele>358.75</ele></trkpt>
   <trkpt lon="14.259174" lat="51.083829"><ele>356.0</ele></trkpt>
   <trkpt lon="14.259609" lat="51.083899"><ele>354.25</ele></trkpt>
   <trkpt lon="14.262458" lat="51.084348"><ele>347.5</ele></trkpt>
   <trkpt lon="14.263194" lat="51.084463"><ele>348.0</ele></trkpt>
   <trkpt lon="14.263646" lat="51.084522"><ele>348.25</ele></trkpt>
   <trkpt lon="14.263711" lat="51.084530"><ele>348.25</ele></trkpt>
   <trkpt lon="14.263966" lat="51.084557"><ele>348.75</ele></trkpt>
   <trkpt lon="14.264250" lat="51.084588"><ele>349.0</ele></trkpt>
   <trkpt lon="14.264785" lat="51.084633"><ele>350.25</ele></trkpt>
   <trkpt lon="14.265351" lat="51.084670"><ele>350.75</ele></trkpt>
   <trkpt lon="14.265913" lat="51.084690"><ele>350.75</ele></trkpt>
   <trkpt lon="14.266270" lat="51.084692"><ele>350.75</ele></trkpt>
   <trkpt lon="14.266591" lat="51.084690"><ele>351.0</ele></trkpt>
   <trkpt lon="14.267114" lat="51.084675"><ele>350.5</ele></trkpt>
   <trkpt lon="14.267618" lat="51.084652"><ele>350.25</ele></trkpt>
   <trkpt lon="14.267872" lat="51.084636"><ele>350.25</ele></trkpt>
   <trkpt lon="14.268328" lat="51.084607"><ele>350.25</ele></trkpt>
   <trkpt lon="14.268826" lat="51.084566"><ele>351.0</ele></trkpt>
   <trkpt lon="14.270088" lat="51.084370"><ele>353.75</ele></trkpt>
   <trkpt lon="14.272833" lat="51.084047"><ele>351.5</ele></trkpt>
   <trkpt lon="14.276159" lat="51.083650"><ele>357.0</ele></trkpt>
   <trkpt lon="14.278397" lat="51.083388"><ele>353.5</ele></trkpt>
   <trkpt lon="14.279215" lat="51.083317"><ele>353.0</ele></trkpt>
   <trkpt lon="14.279261" lat="51.083311"><ele>353.0</ele></trkpt>
   <trkpt lon="14.280291" lat="51.083172"><ele>351.5</ele></trkpt>
   <trkpt lon="14.280886" lat="51.083127"><ele>351.25</ele></trkpt>
   <trkpt lon="14.281339" lat="51.083111"><ele>350.25</ele></trkpt>
   <trkpt lon="14.281711" lat="51.083121"><ele>349.25</ele></trkpt>
   <trkpt lon="14.282310" lat="51.083170"><ele>348.75</ele></trkpt>
   <trkpt lon="14.282570" lat="51.083203"><ele>348.25</ele></trkpt>
   <trkpt lon="14.282859" lat="51.083255"><ele>347.25</ele></trkpt>
   <trkpt lon="14.283360" lat="51.083362"><ele>345.75</ele></trkpt>
   <trkpt lon="14.283613" lat="51.083431"><ele>344.25</ele></trkpt>
   <trkpt lon="14.283984" lat="51.083553"><ele>342.25</ele></trkpt>
   <trkpt lon="14.284326" lat="51.083684"><ele>340.25</ele></trkpt>
   <trkpt lon="14.284807" lat="51.083905"><ele>337.5</ele></trkpt>
   <trkpt lon="14.285017" lat="51.084010"><ele>336.25</ele></trkpt>
   <trkpt lon="14.285092" lat="51.084050"><ele>336.25</ele></trkpt>
   <trkpt lon="14.285249" lat="51.084140"><ele>336.25</ele></trkpt>
   <trkpt lon="14.285606" lat="51.084385"><ele>336.75</ele></trkpt>
   <trkpt lon="14.285882" lat="51.084620"><ele>338.25</ele></trkpt>
   <trkpt lon="14.286222" lat="51.084945"><ele>341.5</ele></trkpt>
   <trkpt lon="14.286302" lat="51.085022"><ele>342.25</ele></trkpt>
   <trkpt lon="14.286958" lat="51.085750"><ele>350.0</ele></trkpt>
   <trkpt lon="14.287201" lat="51.085989"><ele>353.25</ele></trkpt>
   <trkpt lon="14.287462" lat="51.086263"><ele>355.5</ele></trkpt>
   <trkpt lon="14.287702" lat="51.086534"><ele>356.75</ele></trkpt>
   <trkpt lon="14.287998" lat="51.086869"><ele>356.25</ele></trkpt>
   <trkpt lon="14.288398" lat="51.087365"><ele>350.0</ele></trkpt>
   <trkpt lon="14.288592" lat="51.087575"><ele>348.0</ele></trkpt>
   <trkpt lon="14.288826" lat="51.087802"><ele>347.5</ele></trkpt>
   <trkpt lon="14.289079" lat="51.088012"><ele>347.0</ele></trkpt>
   <trkpt lon="14.289178" lat="51.088083"><ele>347.0</ele></trkpt>
   <trkpt lon="14.289364" lat="51.088217"><ele>346.5</ele></trkpt>
   <trkpt lon="14.289720" lat="51.088439"><ele>346.0</ele></trkpt>
   <trkpt lon="14.289957" lat="51.088583"><ele>346.0</ele></trkpt>
   <trkpt lon="14.290184" lat="51.088703"><ele>345.75</ele></trkpt>
   <trkpt lon="14.291363" lat="51.089241"><ele>342.25</ele></trkpt>
   <trkpt lon="14.291569" lat="51.089334"><ele>341.75</ele></trkpt>
   <trkpt lon="14.293719" lat="51.090298"><ele>346.5</ele></trkpt>
   <trkpt lon="14.293763" lat="51.090317"><ele>346.75</ele></trkpt>
   <trkpt lon="14.294572" lat="51.090680"><ele>348.75</ele></trkpt>
   <trkpt lon="14.295050" lat="51.090869"><ele>350.25</ele></trkpt>
   <trkpt lon="14.295545" lat="51.091022"><ele>348.25</ele></trkpt>
   <trkpt lon="14.296120" lat="51.091189"><ele>346.0</ele></trkpt>
   <trkpt lon="14.296543" lat="51.091280"><ele>345.5</ele></trkpt>
   <trkpt lon="14.297064" lat="51.091372"><ele>344.75</ele></trkpt>
   <trkpt lon="14.297595" lat="51.091447"><ele>344.5</ele></trkpt>
   <trkpt lon="14.297975" lat="51.091484"><ele>344.75</ele></trkpt>
   <trkpt lon="14.298250" lat="51.091504"><ele>345.25</ele></trkpt>
   <trkpt lon="14.298594" lat="51.091521"><ele>345.25</ele></trkpt>
   <trkpt lon="14.299302" lat="51.091516"><ele>346.25</ele></trkpt>
   <trkpt lon="14.299755" lat="51.091488"><ele>347.75</ele></trkpt>
   <trkpt lon="14.300176" lat="51.091453"><ele>349.0</ele></trkpt>
   <trkpt lon="14.300668" lat="51.091390"><ele>350.0</ele></trkpt>
   <trkpt lon="14.301126" lat="51.091316"><ele>351.0</ele></trkpt>
   <trkpt lon="14.301686" lat="51.091208"><ele>352.25</ele></trkpt>
   <trkpt lon="14.302247" lat="51.091058"><ele>352.75</ele></trkpt>
   <trkpt lon="14.306464" lat="51.089808"><ele>344.75</ele></trkpt>
   <trkpt lon="14.306938" lat="51.089679"><ele>345.0</ele></trkpt>
   <trkpt lon="14.307460" lat="51.089582"><ele>345.0</ele></trkpt>
   <trkpt lon="14.307957" lat="51.089507"><ele>344.5</ele></trkpt>
   <trkpt lon="14.308373" lat="51.089473"><ele>343.5</ele></trkpt>
   <trkpt lon="14.308769" lat="51.089462"><ele>342.5</ele></trkpt>
   <trkpt lon="14.309300" lat="51.089462"><ele>340.75</ele></trkpt>
   <trkpt lon="14.309482" lat="51.089467"><ele>339.75</ele></trkpt>
   <trkpt lon="14.309752" lat="51.089475"><ele>338.5</ele></trkpt>
   <trkpt lon="14.310164" lat="51.089518"><ele>337.25</ele></trkpt>
   <trkpt lon="14.310372" lat="51.089540"><ele>337.0</ele></trkpt>
   <trkpt lon="14.310761" lat="51.089597"><ele>336.75</ele></trkpt>
   <trkpt lon="14.311207" lat="51.089679"><ele>336.25</ele></trkpt>
   <trkpt lon="14.311796" lat="51.089828"><ele>336.0</ele></trkpt>
   <trkpt lon="14.312474" lat="51.090020"><ele>335.75</ele></trkpt>
   <trkpt lon="14.313354" lat="51.090278"><ele>336.5</ele></trkpt>
   <trkpt lon="14.313988" lat="51.090435"><ele>335.75</ele></trkpt>
   <trkpt lon="14.314463" lat="51.090537"><ele>335.75</ele></trkpt>
   <trkpt lon="14.315090" lat="51.090637"><ele>335.75</ele></trkpt>
   <trkpt lon="14.315259" lat="51.090658"><ele>335.75</ele></trkpt>
   <trkpt lon="14.315588" lat="51.090698"><ele>335.75</ele></trkpt>
   <trkpt lon="14.316073" lat="51.090736"><ele>335.75</ele></trkpt>
   <trkpt lon="14.316533" lat="51.090756"><ele>336.25</ele></trkpt>
   <trkpt lon="14.316740" lat="51.090762"><ele>336.5</ele></trkpt>
   <trkpt lon="14.317067" lat="51.090772"><ele>336.25</ele></trkpt>
   <trkpt lon="14.317905" lat="51.090779"><ele>336.75</ele></trkpt>
   <trkpt lon="14.317949" lat="51.090779"><ele>336.75</ele></trkpt>
   <trkpt lon="14.320862" lat="51.090790"><ele>336.5</ele></trkpt>
   <trkpt lon="14.321968" lat="51.090792"><ele>337.5</ele></trkpt>
   <trkpt lon="14.323631" lat="51.090794"><ele>337.25</ele></trkpt>
   <trkpt lon="14.324619" lat="51.090794"><ele>336.5</ele></trkpt>
   <trkpt lon="14.324743" lat="51.090794"><ele>336.5</ele></trkpt>
   <trkpt lon="14.324906" lat="51.090795"><ele>336.25</ele></trkpt>
   <trkpt lon="14.325712" lat="51.090790"><ele>336.0</ele></trkpt>
   <trkpt lon="14.326559" lat="51.090784"><ele>335.25</ele></trkpt>
   <trkpt lon="14.326981" lat="51.090784"><ele>334.75</ele></trkpt>
   <trkpt lon="14.327500" lat="51.090783"><ele>334.0</ele></trkpt>
   <trkpt lon="14.327654" lat="51.090783"><ele>333.75</ele></trkpt>
   <trkpt lon="14.329249" lat="51.090780"><ele>332.75</ele></trkpt>
   <trkpt lon="14.329387" lat="51.090781"><ele>332.5</ele></trkpt>
   <trkpt lon="14.329497" lat="51.090781"><ele>332.5</ele></trkpt>
   <trkpt lon="14.331216" lat="51.090794"><ele>331.5</ele></trkpt>
   <trkpt lon="14.331412" lat="51.090798"><ele>331.25</ele></trkpt>
   <trkpt lon="14.331771" lat="51.090809"><ele>331.0</ele></trkpt>
   <trkpt lon="14.332166" lat="51.090836"><ele>331.0</ele></trkpt>
   <trkpt lon="14.332733" lat="51.090890"><ele>330.75</ele></trkpt>
   <trkpt lon="14.333360" lat="51.090983"><ele>330.5</ele></trkpt>
   <trkpt lon="14.333712" lat="51.091050"><ele>330.5</ele></trkpt>
   <trkpt lon="14.334199" lat="51.091153"><ele>330.5</ele></trkpt>
   <trkpt lon="14.334542" lat="51.091250"><ele>330.75</ele></trkpt>
   <trkpt lon="14.334717" lat="51.091299"><ele>331.0</ele></trkpt>
   <trkpt lon="14.334861" lat="51.091342"><ele>331.0</ele></trkpt>
   <trkpt lon="14.335274" lat="51.091484"><ele>332.0</ele></trkpt>
   <trkpt lon="14.335616" lat="51.091617"><ele>333.25</ele></trkpt>
   <trkpt lon="14.337046" lat="51.092299"><ele>337.5</ele></trkpt>
   <trkpt lon="14.337162" lat="51.092356"><ele>337.5</ele></trkpt>
   <trkpt lon="14.337576" lat="51.092560"><ele>337.75</ele></trkpt>
   <trkpt lon="14.338257" lat="51.092894"><ele>337.25</ele></trkpt>
   <trkpt lon="14.339423" lat="51.093466"><ele>334.5</ele></trkpt>
   <trkpt lon="14.339643" lat="51.093574"><ele>334.5</ele></trkpt>
   <trkpt lon="14.341074" lat="51.094282"><ele>332.75</ele></trkpt>
   <trkpt lon="14.341720" lat="51.094602"><ele>331.75</ele></trkpt>
   <trkpt lon="14.343158" lat="51.095314"><ele>330.0</ele></trkpt>
   <trkpt lon="14.343248" lat="51.095359"><ele>330.0</ele></trkpt>
   <trkpt lon="14.343987" lat="51.095724"><ele>329.75</ele></trkpt>
   <trkpt lon="14.344784" lat="51.096119"><ele>332.0</ele></trkpt>
   <trkpt lon="14.345057" lat="51.096257"><ele>333.0</ele></trkpt>
   <trkpt lon="14.345270" lat="51.096365"><ele>333.25</ele></trkpt>
   <trkpt lon="14.345744" lat="51.096583"><ele>333.75</ele></trkpt>
   <trkpt lon="14.346282" lat="51.096793"><ele>334.0</ele></trkpt>
   <trkpt lon="14.346987" lat="51.097043"><ele>334.25</ele></trkpt>
   <trkpt lon="14.347373" lat="51.097168"><ele>334.5</ele></trkpt>
   <trkpt lon="14.348177" lat="51.097374"><ele>334.25</ele></trkpt>
   <trkpt lon="14.348836" lat="51.097515"><ele>335.0</ele></trkpt>
   <trkpt lon="14.349253" lat="51.097593"><ele>336.25</ele></trkpt>
   <trkpt lon="14.350148" lat="51.097713"><ele>338.5</ele></trkpt>
   <trkpt lon="14.350604" lat="51.097768"><ele>338.5</ele></trkpt>
   <trkpt lon="14.351346" lat="51.097818"><ele>338.0</ele></trkpt>
   <trkpt lon="14.351593" lat="51.097826"><ele>337.5</ele></trkpt>
   <trkpt lon="14.351620" lat="51.097827"><ele>337.5</ele></trkpt>
   <trkpt lon="14.352137" lat="51.097843"><ele>336.25</ele></trkpt>
   <trkpt lon="14.352877" lat="51.097831"><ele>334.5</ele></trkpt>
   <trkpt lon="14.353266" lat="51.097816"><ele>333.25</ele></trkpt>
   <trkpt lon="14.354402" lat="51.097727"><ele>331.75</ele></trkpt>
   <trkpt lon="14.355074" lat="51.097675"><ele>331.0</ele></trkpt>
   <trkpt lon="14.356901" lat="51.097532"><ele>329.5</ele></trkpt>
   <trkpt lon="14.357314" lat="51.097499"><ele>329.0</ele></trkpt>
   <trkpt lon="14.357367" lat="51.097495"><ele>329.0</ele></trkpt>
   <trkpt lon="14.357398" lat="51.097492"><ele>329.0</ele></trkpt>
   <trkpt lon="14.357623" lat="51.097474"><ele>328.75</ele></trkpt>
   <trkpt lon="14.358849" lat="51.097376"><ele>327.0</ele></trkpt>
   <trkpt lon="14.359365" lat="51.097328"><ele>326.5</ele></trkpt>
   <trkpt lon="14.359863" lat="51.097264"><ele>326.25</ele></trkpt>
   <trkpt lon="14.360040" lat="51.097235"><ele>326.0</ele></trkpt>
   <trkpt lon="14.360282" lat="51.097195"><ele>326.0</ele></trkpt>
   <trkpt lon="14.360708" lat="51.097107"><ele>325.75</ele></trkpt>
   <trkpt lon="14.361138" lat="51.096996"><ele>326.0</ele></trkpt>
   <trkpt lon="14.361491" lat="51.096890"><ele>326.25</ele></trkpt>
   <trkpt lon="14.361773" lat="51.096792"><ele>326.75</ele></trkpt>
   <trkpt lon="14.362232" lat="51.096605"><ele>328.0</ele></trkpt>
   <trkpt lon="14.363849" lat="51.095888"><ele>332.25</ele></trkpt>
   <trkpt lon="14.363878" lat="51.095875"><ele>332.25</ele></trkpt>
   <trkpt lon="14.364627" lat="51.095528"><ele>332.0</ele></trkpt>
   <trkpt lon="14.364979" lat="51.095362"><ele>331.75</ele></trkpt>
   <trkpt lon="14.366077" lat="51.094850"><ele>328.0</ele></trkpt>
   <trkpt lon="14.366122" lat="51.094829"><ele>327.75</ele></trkpt>
   <trkpt lon="14.366633" lat="51.094591"><ele>327.5</ele></trkpt>
   <trkpt lon="14.367032" lat="51.094431"><ele>327.5</ele></trkpt>
   <trkpt lon="14.367234" lat="51.094359"><ele>327.5</ele></trkpt>
   <trkpt lon="14.367873" lat="51.094127"><ele>326.75</ele></trkpt>
   <trkpt lon="14.368607" lat="51.093920"><ele>327.0</ele></trkpt>
   <trkpt lon="14.369823" lat="51.093651"><ele>327.0</ele></trkpt>
   <trkpt lon="14.370579" lat="51.093520"><ele>326.75</ele></trkpt>
   <trkpt lon="14.371127" lat="51.093453"><ele>326.5</ele></trkpt>
   <trkpt lon="14.371681" lat="51.093404"><ele>325.75</ele></trkpt>
   <trkpt lon="14.372128" lat="51.093375"><ele>325.25</ele></trkpt>
   <trkpt lon="14.372592" lat="51.093353"><ele>324.25</ele></trkpt>
   <trkpt lon="14.372858" lat="51.093351"><ele>323.75</ele></trkpt>
   <trkpt lon="14.372885" lat="51.093351"><ele>323.75</ele></trkpt>
   <trkpt lon="14.373968" lat="51.093382"><ele>320.5</ele></trkpt>
   <trkpt lon="14.375180" lat="51.093499"><ele>315.5</ele></trkpt>
   <trkpt lon="14.375422" lat="51.093531"><ele>315.25</ele></trkpt>
   <trkpt lon="14.376480" lat="51.093693"><ele>313.25</ele></trkpt>
   <trkpt lon="14.376673" lat="51.093723"><ele>313.0</ele></trkpt>
   <trkpt lon="14.378726" lat="51.094038"><ele>310.0</ele></trkpt>
   <trkpt lon="14.379785" lat="51.094191"><ele>307.25</ele></trkpt>
   <trkpt lon="14.380071" lat="51.094235"><ele>306.5</ele></trkpt>
   <trkpt lon="14.381095" lat="51.094397"><ele>303.75</ele></trkpt>
   <trkpt lon="14.382416" lat="51.094600"><ele>300.75</ele></trkpt>
   <trkpt lon="14.383281" lat="51.094706"><ele>299.75</ele></trkpt>
   <trkpt lon="14.383593" lat="51.094739"><ele>299.5</ele></trkpt>
   <trkpt lon="14.383907" lat="51.094761"><ele>299.25</ele></trkpt>
   <trkpt lon="14.384417" lat="51.094790"><ele>298.75</ele></trkpt>
   <trkpt lon="14.384784" lat="51.094788"><ele>298.5</ele></trkpt>
   <trkpt lon="14.384965" lat="51.094783"><ele>298.25</ele></trkpt>
   <trkpt lon="14.385403" lat="51.094769"><ele>297.75</ele></trkpt>
   <trkpt lon="14.385945" lat="51.094730"><ele>297.5</ele></trkpt>
   <trkpt lon="14.386221" lat="51.094699"><ele>297.25</ele></trkpt>
   <trkpt lon="14.386613" lat="51.094644"><ele>296.75</ele></trkpt>
   <trkpt lon="14.386764" lat="51.094624"><ele>296.75</ele></trkpt>
   <trkpt lon="14.386836" lat="51.094612"><ele>296.75</ele></trkpt>
   <trkpt lon="14.386898" lat="51.094603"><ele>296.75</ele></trkpt>
   <trkpt lon="14.386951" lat="51.094595"><ele>296.75</ele></trkpt>
   <trkpt lon="14.387332" lat="51.094526"><ele>297.0</ele></trkpt>
   <trkpt lon="14.387927" lat="51.094402"><ele>297.25</ele></trkpt>
   <trkpt lon="14.388376" lat="51.094291"><ele>297.5</ele></trkpt>
   <trkpt lon="14.388542" lat="51.094249"><ele>297.75</ele></trkpt>
   <trkpt lon="14.388988" lat="51.094116"><ele>298.0</ele></trkpt>
   <trkpt lon="14.389352" lat="51.094000"><ele>298.0</ele></trkpt>
   <trkpt lon="14.389769" lat="51.093858"><ele>298.0</ele></trkpt>
   <trkpt lon="14.389991" lat="51.093780"><ele>298.0</ele></trkpt>
   <trkpt lon="14.390173" lat="51.093715"><ele>298.0</ele></trkpt>
   <trkpt lon="14.390684" lat="51.093542"><ele>298.0</ele></trkpt>
   <trkpt lon="14.391760" lat="51.093161"><ele>298.25</ele></trkpt>
   <trkpt lon="14.392058" lat="51.093056"><ele>298.5</ele></trkpt>
   <trkpt lon="14.392950" lat="51.092746"><ele>298.25</ele></trkpt>
   <trkpt lon="14.393043" lat="51.092713"><ele>298.25</ele></trkpt>
   <trkpt lon="14.395255" lat="51.091925"><ele>297.25</ele></trkpt>
   <trkpt lon="14.395942" lat="51.091680"><ele>296.5</ele></trkpt>
   <trkpt lon="14.396569" lat="51.091460"><ele>294.75</ele></trkpt>
   <trkpt lon="14.396623" lat="51.091440"><ele>294.5</ele></trkpt>
   <trkpt lon="14.396684" lat="51.091418"><ele>294.5</ele></trkpt>
   <trkpt lon="14.396934" lat="51.091327"><ele>294.5</ele></trkpt>
   <trkpt lon="14.398568" lat="51.090743"><ele>293.0</ele></trkpt>
   <trkpt lon="14.399592" lat="51.090388"><ele>293.75</ele></trkpt>
   <trkpt lon="14.399968" lat="51.090266"><ele>294.25</ele></trkpt>
   <trkpt lon="14.400348" lat="51.090151"><ele>294.25</ele></trkpt>
   <trkpt lon="14.400639" lat="51.090071"><ele>294.0</ele></trkpt>
   <trkpt lon="14.400955" lat="51.089996"><ele>293.5</ele></trkpt>
   <trkpt lon="14.401086" lat="51.089969"><ele>293.25</ele></trkpt>
   <trkpt lon="14.401983" lat="51.089811"><ele>292.25</ele></trkpt>
   <trkpt lon="14.402678" lat="51.089691"><ele>293.5</ele></trkpt>
   <trkpt lon="14.404599" lat="51.089378"><ele>295.0</ele></trkpt>
   <trkpt lon="14.406508" lat="51.089061"><ele>294.75</ele></trkpt>
   <trkpt lon="14.408439" lat="51.088725"><ele>293.0</ele></trkpt>
   <trkpt lon="14.408647" lat="51.088692"><ele>292.75</ele></trkpt>
   <trkpt lon="14.409726" lat="51.088530"><ele>292.5</ele></trkpt>
   <trkpt lon="14.410044" lat="51.088488"><ele>292.25</ele></trkpt>
   <trkpt lon="14.410475" lat="51.088448"><ele>292.5</ele></trkpt>
   <trkpt lon="14.411135" lat="51.088424"><ele>293.0</ele></trkpt>
   <trkpt lon="14.411371" lat="51.088423"><ele>293.25</ele></trkpt>
   <trkpt lon="14.411706" lat="51.088434"><ele>293.25</ele></trkpt>
   <trkpt lon="14.412078" lat="51.088472"><ele>294.5</ele></trkpt>
   <trkpt lon="14.412613" lat="51.088546"><ele>295.5</ele></trkpt>
   <trkpt lon="14.413410" lat="51.088699"><ele>294.75</ele></trkpt>
   <trkpt lon="14.416674" lat="51.089385"><ele>296.5</ele></trkpt>
   <trkpt lon="14.416943" lat="51.089436"><ele>296.25</ele></trkpt>
   <trkpt lon="14.417400" lat="51.089491"><ele>296.5</ele></trkpt>
   <trkpt lon="14.417867" lat="51.089523"><ele>297.5</ele></trkpt>
   <trkpt lon="14.418074" lat="51.089533"><ele>298.0</ele></trkpt>
   <trkpt lon="14.418427" lat="51.089535"><ele>299.25</ele></trkpt>
   <trkpt lon="14.418847" lat="51.089516"><ele>300.25</ele></trkpt>
   <trkpt lon="14.419210" lat="51.089487"><ele>301.25</ele></trkpt>
   <trkpt lon="14.419621" lat="51.089425"><ele>303.5</ele></trkpt>
   <trkpt lon="14.420058" lat="51.089337"><ele>306.0</ele></trkpt>
   <trkpt lon="14.420610" lat="51.089217"><ele>306.25</ele></trkpt>
   <trkpt lon="14.420905" lat="51.089134"><ele>306.25</ele></trkpt>
   <trkpt lon="14.421140" lat="51.089050"><ele>306.5</ele></trkpt>
   <trkpt lon="14.421583" lat="51.088875"><ele>307.25</ele></trkpt>
   <trkpt lon="14.421938" lat="51.088700"><ele>307.75</ele></trkpt>
   <trkpt lon="14.422281" lat="51.088509"><ele>307.5</ele></trkpt>
   <trkpt lon="14.422541" lat="51.088341"><ele>307.25</ele></trkpt>
   <trkpt lon="14.422881" lat="51.088111"><ele>303.0</ele></trkpt>
   <trkpt lon="14.423166" lat="51.087876"><ele>300.25</ele></trkpt>
   <trkpt lon="14.423445" lat="51.087583"><ele>298.75</ele></trkpt>
   <trkpt lon="14.423688" lat="51.087224"><ele>295.75</ele></trkpt>
   <trkpt lon="14.423799" lat="51.086986"><ele>293.75</ele></trkpt>
   <trkpt lon="14.423966" lat="51.086561"><ele>290.5</ele></trkpt>
   <trkpt lon="14.424062" lat="51.086239"><ele>288.5</ele></trkpt>
   <trkpt lon="14.424082" lat="51.086165"><ele>288.0</ele></trkpt>
   <trkpt lon="14.424235" lat="51.085715"><ele>285.5</ele></trkpt>
   <trkpt lon="14.424636" lat="51.084736"><ele>283.25</ele></trkpt>
   <trkpt lon="14.424683" lat="51.084620"><ele>283.0</ele></trkpt>
   <trkpt lon="14.425349" lat="51.082995"><ele>286.5</ele></trkpt>
   <trkpt lon="14.425815" lat="51.081856"><ele>290.5</ele></trkpt>
   <trkpt lon="14.426714" lat="51.079662"><ele>292.75</ele></trkpt>
   <trkpt lon="14.426948" lat="51.079081"><ele>293.25</ele></trkpt>
   <trkpt lon="14.426960" lat="51.079049"><ele>293.0</ele></trkpt>
   <trkpt lon="14.427061" lat="51.078762"><ele>291.75</ele></trkpt>
   <trkpt lon="14.427117" lat="51.078602"><ele>291.0</ele></trkpt>
   <trkpt lon="14.427167" lat="51.078413"><ele>290.25</ele></trkpt>
   <trkpt lon="14.427272" lat="51.077954"><ele>286.5</ele></trkpt>
   <trkpt lon="14.427286" lat="51.077540"><ele>282.75</ele></trkpt>
   <trkpt lon="14.427313" lat="51.076179"><ele>283.5</ele></trkpt>
   <trkpt lon="14.427391" lat="51.074994"><ele>293.0</ele></trkpt>
   <trkpt lon="14.427556" lat="51.073761"><ele>295.25</ele></trkpt>
   <trkpt lon="14.427621" lat="51.073421"><ele>295.25</ele></trkpt>
   <trkpt lon="14.427646" lat="51.073292"><ele>295.5</ele></trkpt>
   <trkpt lon="14.427796" lat="51.072463"><ele>296.75</ele></trkpt>
   <trkpt lon="14.428012" lat="51.071086"><ele>291.5</ele></trkpt>
   <trkpt lon="14.428041" lat="51.070898"><ele>290.5</ele></trkpt>
   <trkpt lon="14.428091" lat="51.070576"><ele>291.25</ele></trkpt>
   <trkpt lon="14.428122" lat="51.070414"><ele>292.0</ele></trkpt>
   <trkpt lon="14.428194" lat="51.069836"><ele>294.75</ele></trkpt>
   <trkpt lon="14.428658" lat="51.067290"><ele>297.75</ele></trkpt>
   <trkpt lon="14.428737" lat="51.066543"><ele>298.0</ele></trkpt>
   <trkpt lon="14.428731" lat="51.064534"><ele>297.75</ele></trkpt>
   <trkpt lon="14.428754" lat="51.063063"><ele>300.5</ele></trkpt>
   <trkpt lon="14.428777" lat="51.062730"><ele>299.0</ele></trkpt>
   <trkpt lon="14.428842" lat="51.062374"><ele>297.5</ele></trkpt>
   <trkpt lon="14.428892" lat="51.062173"><ele>296.5</ele></trkpt>
   <trkpt lon="14.428974" lat="51.061929"><ele>295.25</ele></trkpt>
   <trkpt lon="14.429039" lat="51.061747"><ele>294.25</ele></trkpt>
   <trkpt lon="14.429260" lat="51.061293"><ele>292.5</ele></trkpt>
   <trkpt lon="14.429492" lat="51.060901"><ele>291.75</ele></trkpt>
   <trkpt lon="14.429777" lat="51.060434"><ele>293.75</ele></trkpt>
   <trkpt lon="14.429952" lat="51.060151"><ele>295.25</ele></trkpt>
   <trkpt lon="14.430016" lat="51.060045"><ele>295.75</ele></trkpt>
   <trkpt lon="14.430480" lat="51.059277"><ele>296.75</ele></trkpt>
   <trkpt lon="14.431720" lat="51.057122"><ele>295.75</ele></trkpt>
   <trkpt lon="14.431887" lat="51.056823"><ele>295.75</ele></trkpt>
   <trkpt lon="14.431984" lat="51.056580"><ele>296.0</ele></trkpt>
   <trkpt lon="14.432051" lat="51.056343"><ele>296.75</ele></trkpt>
   <trkpt lon="14.432095" lat="51.056142"><ele>297.25</ele></trkpt>
   <trkpt lon="14.432124" lat="51.055866"><ele>297.75</ele></trkpt>
   <trkpt lon="14.432131" lat="51.055551"><ele>298.25</ele></trkpt>
   <trkpt lon="14.432131" lat="51.055509"><ele>298.25</ele></trkpt>
   <trkpt lon="14.432125" lat="51.055263"><ele>298.5</ele></trkpt>
   <trkpt lon="14.432098" lat="51.054857"><ele>299.0</ele></trkpt>
   <trkpt lon="14.432082" lat="51.054659"><ele>299.25</ele></trkpt>
   <trkpt lon="14.432002" lat="51.053698"><ele>298.5</ele></trkpt>
   <trkpt lon="14.431766" lat="51.050724"><ele>298.75</ele></trkpt>
   <trkpt lon="14.431750" lat="51.050222"><ele>299.25</ele></trkpt>
   <trkpt lon="14.431823" lat="51.049771"><ele>299.75</ele></trkpt>
   <trkpt lon="14.431891" lat="51.049533"><ele>300.25</ele></trkpt>
   <trkpt lon="14.431966" lat="51.049312"><ele>300.5</ele></trkpt>
   <trkpt lon="14.432092" lat="51.049043"><ele>300.0</ele></trkpt>
   <trkpt lon="14.432212" lat="51.048829"><ele>299.25</ele></trkpt>
   <trkpt lon="14.432625" lat="51.048297"><ele>297.5</ele></trkpt>
   <trkpt lon="14.432902" lat="51.048032"><ele>297.0</ele></trkpt>
   <trkpt lon="14.433097" lat="51.047858"><ele>296.75</ele></trkpt>
   <trkpt lon="14.433452" lat="51.047595"><ele>296.5</ele></trkpt>
   <trkpt lon="14.433762" lat="51.047398"><ele>296.0</ele></trkpt>
   <trkpt lon="14.434280" lat="51.047128"><ele>295.5</ele></trkpt>
   <trkpt lon="14.434768" lat="51.046900"><ele>295.75</ele></trkpt>
   <trkpt lon="14.434991" lat="51.046822"><ele>295.25</ele></trkpt>
   <trkpt lon="14.435190" lat="51.046748"><ele>295.5</ele></trkpt>
   <trkpt lon="14.435213" lat="51.046740"><ele>295.5</ele></trkpt>
   <trkpt lon="14.436018" lat="51.046468"><ele>297.25</ele></trkpt>
   <trkpt lon="14.442012" lat="51.044451"><ele>296.75</ele></trkpt>
   <trkpt lon="14.442228" lat="51.044378"><ele>297.25</ele></trkpt>
   <trkpt lon="14.443429" lat="51.043991"><ele>299.25</ele></trkpt>
   <trkpt lon="14.443925" lat="51.043863"><ele>301.25</ele></trkpt>
   <trkpt lon="14.444430" lat="51.043769"><ele>302.75</ele></trkpt>
   <trkpt lon="14.445022" lat="51.043695"><ele>304.0</ele></trkpt>
   <trkpt lon="14.445460" lat="51.043657"><ele>305.0</ele></trkpt>
   <trkpt lon="14.445983" lat="51.043641"><ele>306.0</ele></trkpt>
   <trkpt lon="14.449176" lat="51.043687"><ele>300.5</ele></trkpt>
   <trkpt lon="14.449610" lat="51.043692"><ele>298.0</ele></trkpt>
   <trkpt lon="14.449811" lat="51.043694"><ele>297.0</ele></trkpt>
   <trkpt lon="14.450524" lat="51.043701"><ele>296.5</ele></trkpt>
   <trkpt lon="14.450759" lat="51.043704"><ele>297.0</ele></trkpt>
   <trkpt lon="14.451450" lat="51.043711"><ele>297.75</ele></trkpt>
   <trkpt lon="14.451792" lat="51.043715"><ele>298.5</ele></trkpt>
   <trkpt lon="14.453404" lat="51.043735"><ele>303.0</ele></trkpt>
   <trkpt lon="14.454035" lat="51.043730"><ele>302.5</ele></trkpt>
   <trkpt lon="14.454630" lat="51.043691"><ele>302.0</ele></trkpt>
   <trkpt lon="14.455145" lat="51.043630"><ele>301.5</ele></trkpt>
   <trkpt lon="14.455590" lat="51.043546"><ele>301.0</ele></trkpt>
   <trkpt lon="14.456151" lat="51.043418"><ele>300.0</ele></trkpt>
   <trkpt lon="14.457646" lat="51.043008"><ele>299.5</ele></trkpt>
   <trkpt lon="14.457802" lat="51.042965"><ele>299.5</ele></trkpt>
   <trkpt lon="14.459272" lat="51.042561"><ele>301.5</ele></trkpt>
   <trkpt lon="14.460660" lat="51.042180"><ele>301.25</ele></trkpt>
   <trkpt lon="14.461121" lat="51.042074"><ele>300.75</ele></trkpt>
   <trkpt lon="14.461419" lat="51.042018"><ele>300.25</ele></trkpt>
   <trkpt lon="14.461545" lat="51.041995"><ele>300.25</ele></trkpt>
   <trkpt lon="14.461604" lat="51.041984"><ele>300.0</ele></trkpt>
   <trkpt lon="14.462210" lat="51.041914"><ele>301.25</ele></trkpt>
   <trkpt lon="14.462795" lat="51.041880"><ele>302.5</ele></trkpt>
   <trkpt lon="14.463358" lat="51.041875"><ele>303.75</ele></trkpt>
   <trkpt lon="14.463948" lat="51.041909"><ele>305.25</ele></trkpt>
   <trkpt lon="14.464503" lat="51.041971"><ele>306.75</ele></trkpt>
   <trkpt lon="14.465037" lat="51.042064"><ele>307.75</ele></trkpt>
   <trkpt lon="14.465456" lat="51.042160"><ele>307.25</ele></trkpt>
   <trkpt lon="14.466994" lat="51.042576"><ele>306.0</ele></trkpt>
   <trkpt lon="14.467728" lat="51.042764"><ele>306.25</ele></trkpt>
   <trkpt lon="14.469103" lat="51.043131"><ele>305.75</ele></trkpt>
   <trkpt lon="14.469591" lat="51.043250"><ele>305.75</ele></trkpt>
   <trkpt lon="14.470029" lat="51.043328"><ele>306.0</ele></trkpt>
   <trkpt lon="14.470564" lat="51.043399"><ele>305.25</ele></trkpt>
   <trkpt lon="14.470852" lat="51.043423"><ele>305.0</ele></trkpt>
   <trkpt lon="14.471399" lat="51.043460"><ele>304.75</ele></trkpt>
   <trkpt lon="14.471926" lat="51.043469"><ele>304.5</ele></trkpt>
   <trkpt lon="14.472470" lat="51.043457"><ele>304.75</ele></trkpt>
   <trkpt lon="14.473067" lat="51.043414"><ele>304.5</ele></trkpt>
   <trkpt lon="14.473671" lat="51.043337"><ele>304.5</ele></trkpt>
   <trkpt lon="14.474763" lat="51.043169"><ele>304.0</ele></trkpt>
   <trkpt lon="14.480836" lat="51.042191"><ele>309.5</ele></trkpt>
   <trkpt lon="14.481736" lat="51.042044"><ele>307.75</ele></trkpt>
   <trkpt lon="14.481781" lat="51.042037"><ele>307.75</ele></trkpt>
   <trkpt lon="14.483097" lat="51.041814"><ele>307.75</ele></trkpt>
   <trkpt lon="14.483258" lat="51.041787"><ele>308.0</ele></trkpt>
   <trkpt lon="14.483364" lat="51.041770"><ele>308.25</ele></trkpt>
   <trkpt lon="14.485711" lat="51.041381"><ele>309.5</ele></trkpt>
   <trkpt lon="14.487777" lat="51.041046"><ele>310.75</ele></trkpt>
   <trkpt lon="14.491288" lat="51.040508"><ele>309.0</ele></trkpt>
   <trkpt lon="14.491412" lat="51.040489"><ele>309.0</ele></trkpt>
   <trkpt lon="14.492067" lat="51.040397"><ele>309.0</ele></trkpt>
   <trkpt lon="14.492445" lat="51.040354"><ele>309.25</ele></trkpt>
   <trkpt lon="14.492813" lat="51.040320"><ele>309.25</ele></trkpt>
   <trkpt lon="14.493548" lat="51.040278"><ele>309.5</ele></trkpt>
   <trkpt lon="14.493894" lat="51.040268"><ele>309.5</ele></trkpt>
   <trkpt lon="14.494202" lat="51.040266"><ele>309.25</ele></trkpt>
   <trkpt lon="14.494743" lat="51.040277"><ele>309.0</ele></trkpt>
   <trkpt lon="14.494816" lat="51.040280"><ele>309.0</ele></trkpt>
   <trkpt lon="14.498350" lat="51.040419"><ele>314.0</ele></trkpt>
   <trkpt lon="14.498478" lat="51.040425"><ele>314.25</ele></trkpt>
   <trkpt lon="14.503760" lat="51.040635"><ele>318.25</ele></trkpt>
   <trkpt lon="14.504163" lat="51.040643"><ele>318.0</ele></trkpt>
   <trkpt lon="14.504584" lat="51.040642"><ele>318.25</ele></trkpt>
   <trkpt lon="14.505009" lat="51.040622"><ele>318.75</ele></trkpt>
   <trkpt lon="14.505483" lat="51.040585"><ele>318.75</ele></trkpt>
   <trkpt lon="14.505982" lat="51.040526"><ele>319.0</ele></trkpt>
   <trkpt lon="14.506348" lat="51.040463"><ele>319.5</ele></trkpt>
   <trkpt lon="14.506747" lat="51.040381"><ele>320.0</ele></trkpt>
   <trkpt lon="14.506913" lat="51.040348"><ele>320.0</ele></trkpt>
   <trkpt lon="14.506975" lat="51.040332"><ele>320.0</ele></trkpt>
   <trkpt lon="14.507269" lat="51.040249"><ele>320.25</ele></trkpt>
   <trkpt lon="14.507756" lat="51.040096"><ele>320.5</ele></trkpt>
   <trkpt lon="14.508037" lat="51.039992"><ele>320.25</ele></trkpt>
   <trkpt lon="14.508247" lat="51.039914"><ele>320.0</ele></trkpt>
   <trkpt lon="14.508748" lat="51.039684"><ele>319.5</ele></trkpt>
   <trkpt lon="14.509091" lat="51.039499"><ele>319.25</ele></trkpt>
   <trkpt lon="14.510014" lat="51.038961"><ele>318.5</ele></trkpt>
   <trkpt lon="14.510151" lat="51.038881"><ele>318.75</ele></trkpt>
   <trkpt lon="14.511865" lat="51.037870"><ele>324.75</ele></trkpt>
   <trkpt lon="14.515687" lat="51.035564"><ele>327.5</ele></trkpt>
   <trkpt lon="14.515830" lat="51.035478"><ele>327.75</ele></trkpt>
   <trkpt lon="14.516282" lat="51.035224"><ele>329.0</ele></trkpt>
   <trkpt lon="14.516666" lat="51.035025"><ele>329.75</ele></trkpt>
   <trkpt lon="14.516974" lat="51.034881"><ele>330.5</ele></trkpt>
   <trkpt lon="14.517382" lat="51.034738"><ele>331.25</ele></trkpt>
   <trkpt lon="14.517827" lat="51.034601"><ele>332.5</ele></trkpt>
   <trkpt lon="14.518254" lat="51.034500"><ele>333.25</ele></trkpt>
   <trkpt lon="14.518596" lat="51.034439"><ele>333.5</ele></trkpt>
   <trkpt lon="14.518988" lat="51.034389"><ele>333.5</ele></trkpt>
   <trkpt lon="14.519302" lat="51.034365"><ele>333.5</ele></trkpt>
   <trkpt lon="14.519657" lat="51.034350"><ele>333.75</ele></trkpt>
   <trkpt lon="14.521386" lat="51.034323"><ele>332.5</ele></trkpt>
   <trkpt lon="14.523251" lat="51.034304"><ele>332.25</ele></trkpt>
   <trkpt lon="14.524483" lat="51.034293"><ele>332.5</ele></trkpt>
   <trkpt lon="14.526222" lat="51.034267"><ele>334.75</ele></trkpt>
   <trkpt lon="14.526956" lat="51.034259"><ele>335.25</ele></trkpt>
   <trkpt lon="14.527697" lat="51.034240"><ele>335.75</ele></trkpt>
   <trkpt lon="14.528490" lat="51.034206"><ele>336.5</ele></trkpt>
   <trkpt lon="14.528993" lat="51.034180"><ele>336.0</ele></trkpt>
   <trkpt lon="14.529739" lat="51.034119"><ele>335.75</ele></trkpt>
   <trkpt lon="14.530188" lat="51.034058"><ele>335.75</ele></trkpt>
   <trkpt lon="14.530488" lat="51.034011"><ele>335.25</ele></trkpt>
   <trkpt lon="14.530861" lat="51.033931"><ele>335.0</ele></trkpt>
   <trkpt lon="14.531540" lat="51.033733"><ele>333.5</ele></trkpt>
   <trkpt lon="14.531944" lat="51.033579"><ele>333.0</ele></trkpt>
   <trkpt lon="14.532247" lat="51.033443"><ele>332.5</ele></trkpt>
   <trkpt lon="14.532588" lat="51.033273"><ele>332.25</ele></trkpt>
   <trkpt lon="14.532976" lat="51.033037"><ele>332.0</ele></trkpt>
   <trkpt lon="14.533298" lat="51.032791"><ele>330.75</ele></trkpt>
   <trkpt lon="14.533515" lat="51.032613"><ele>331.0</ele></trkpt>
   <trkpt lon="14.533746" lat="51.032378"><ele>332.0</ele></trkpt>
   <trkpt lon="14.533884" lat="51.032239"><ele>332.75</ele></trkpt>
   <trkpt lon="14.533933" lat="51.032181"><ele>333.25</ele></trkpt>
   <trkpt lon="14.534013" lat="51.032071"><ele>333.75</ele></trkpt>
   <trkpt lon="14.534290" lat="51.031644"><ele>335.0</ele></trkpt>
   <trkpt lon="14.535024" lat="51.030405"><ele>336.5</ele></trkpt>
   <trkpt lon="14.535141" lat="51.030215"><ele>337.25</ele></trkpt>
   <trkpt lon="14.536017" lat="51.028756"><ele>334.25</ele></trkpt>
   <trkpt lon="14.536380" lat="51.028151"><ele>331.5</ele></trkpt>
   <trkpt lon="14.536598" lat="51.027819"><ele>329.5</ele></trkpt>
   <trkpt lon="14.536960" lat="51.027332"><ele>327.75</ele></trkpt>
   <trkpt lon="14.537079" lat="51.027223"><ele>327.75</ele></trkpt>
   <trkpt lon="14.537143" lat="51.027165"><ele>328.0</ele></trkpt>
   <trkpt lon="14.537321" lat="51.027002"><ele>328.25</ele></trkpt>
   <trkpt lon="14.537520" lat="51.026849"><ele>328.75</ele></trkpt>
   <trkpt lon="14.537657" lat="51.026743"><ele>329.25</ele></trkpt>
   <trkpt lon="14.537822" lat="51.026622"><ele>329.5</ele></trkpt>
   <trkpt lon="14.538177" lat="51.026400"><ele>330.25</ele></trkpt>
   <trkpt lon="14.538511" lat="51.026216"><ele>330.5</ele></trkpt>
   <trkpt lon="14.539070" lat="51.025950"><ele>331.5</ele></trkpt>
   <trkpt lon="14.539241" lat="51.025880"><ele>332.0</ele></trkpt>
   <trkpt lon="14.539564" lat="51.025747"><ele>333.5</ele></trkpt>
   <trkpt lon="14.539980" lat="51.025600"><ele>334.75</ele></trkpt>
   <trkpt lon="14.540536" lat="51.025430"><ele>335.5</ele></trkpt>
   <trkpt lon="14.541034" lat="51.025312"><ele>336.25</ele></trkpt>
   <trkpt lon="14.541214" lat="51.025275"><ele>336.75</ele></trkpt>
   <trkpt lon="14.541393" lat="51.025238"><ele>337.25</ele></trkpt>
   <trkpt lon="14.541734" lat="51.025184"><ele>338.0</ele></trkpt>
   <trkpt lon="14.541979" lat="51.025145"><ele>338.0</ele></trkpt>
   <trkpt lon="14.542376" lat="51.025110"><ele>338.0</ele></trkpt>
   <trkpt lon="14.542815" lat="51.025094"><ele>338.25</ele></trkpt>
   <trkpt lon="14.543337" lat="51.025101"><ele>338.75</ele></trkpt>
   <trkpt lon="14.543912" lat="51.025132"><ele>339.75</ele></trkpt>
   <trkpt lon="14.544364" lat="51.025177"><ele>340.25</ele></trkpt>
   <trkpt lon="14.544679" lat="51.025220"><ele>340.5</ele></trkpt>
   <trkpt lon="14.544986" lat="51.025264"><ele>340.25</ele></trkpt>
   <trkpt lon="14.545748" lat="51.025422"><ele>339.75</ele></trkpt>
   <trkpt lon="14.546256" lat="51.025563"><ele>339.25</ele></trkpt>
   <trkpt lon="14.546750" lat="51.025729"><ele>338.0</ele></trkpt>
   <trkpt lon="14.547304" lat="51.025953"><ele>337.25</ele></trkpt>
   <trkpt lon="14.548740" lat="51.026555"><ele>337.75</ele></trkpt>
   <trkpt lon="14.549435" lat="51.026832"><ele>338.0</ele></trkpt>
   <trkpt lon="14.549702" lat="51.026921"><ele>338.25</ele></trkpt>
   <trkpt lon="14.549889" lat="51.026983"><ele>338.5</ele></trkpt>
   <trkpt lon="14.550370" lat="51.027115"><ele>339.5</ele></trkpt>
   <trkpt lon="14.550933" lat="51.027229"><ele>341.25</ele></trkpt>
   <trkpt lon="14.551419" lat="51.027294"><ele>342.75</ele></trkpt>
   <trkpt lon="14.551978" lat="51.027340"><ele>344.25</ele></trkpt>
   <trkpt lon="14.552460" lat="51.027350"><ele>345.75</ele></trkpt>
   <trkpt lon="14.552976" lat="51.027335"><ele>347.25</ele></trkpt>
   <trkpt lon="14.553574" lat="51.027276"><ele>348.75</ele></trkpt>
   <trkpt lon="14.554082" lat="51.027189"><ele>349.5</ele></trkpt>
   <trkpt lon="14.554678" lat="51.027042"><ele>350.5</ele></trkpt>
   <trkpt lon="14.555144" lat="51.026909"><ele>351.0</ele></trkpt>
   <trkpt lon="14.555661" lat="51.026723"><ele>350.25</ele></trkpt>
   <trkpt lon="14.556047" lat="51.026542"><ele>349.25</ele></trkpt>
   <trkpt lon="14.556355" lat="51.026377"><ele>348.25</ele></trkpt>
   <trkpt lon="14.556729" lat="51.026102"><ele>347.0</ele></trkpt>
   <trkpt lon="14.556962" lat="51.025916"><ele>346.25</ele></trkpt>
   <trkpt lon="14.557217" lat="51.025695"><ele>346.0</ele></trkpt>
   <trkpt lon="14.557442" lat="51.025464"><ele>346.0</ele></trkpt>
   <trkpt lon="14.557725" lat="51.025143"><ele>345.75</ele></trkpt>
   <trkpt lon="14.557794" lat="51.025064"><ele>345.5</ele></trkpt>
   <trkpt lon="14.558616" lat="51.024133"><ele>346.0</ele></trkpt>
   <trkpt lon="14.558752" lat="51.023987"><ele>346.5</ele></trkpt>
   <trkpt lon="14.559090" lat="51.023695"><ele>347.0</ele></trkpt>
   <trkpt lon="14.559168" lat="51.023627"><ele>347.0</ele></trkpt>
   <trkpt lon="14.559566" lat="51.023331"><ele>347.0</ele></trkpt>
   <trkpt lon="14.559863" lat="51.023132"><ele>347.5</ele></trkpt>
   <trkpt lon="14.560343" lat="51.022854"><ele>348.5</ele></trkpt>
   <trkpt lon="14.560554" lat="51.022739"><ele>349.0</ele></trkpt>
   <trkpt lon="14.562180" lat="51.021926"><ele>348.5</ele></trkpt>
   <trkpt lon="14.562338" lat="51.021843"><ele>348.5</ele></trkpt>
   <trkpt lon="14.562502" lat="51.021747"><ele>348.5</ele></trkpt>
   <trkpt lon="14.562724" lat="51.021607"><ele>348.75</ele></trkpt>
   <trkpt lon="14.562967" lat="51.021435"><ele>348.75</ele></trkpt>
   <trkpt lon="14.563202" lat="51.021251"><ele>349.25</ele></trkpt>
   <trkpt lon="14.563440" lat="51.021044"><ele>349.5</ele></trkpt>
   <trkpt lon="14.563654" lat="51.020811"><ele>350.0</ele></trkpt>
   <trkpt lon="14.563788" lat="51.020656"><ele>352.0</ele></trkpt>
   <trkpt lon="14.563942" lat="51.020403"><ele>355.0</ele></trkpt>
   <trkpt lon="14.564146" lat="51.020021"><ele>358.75</ele></trkpt>
   <trkpt lon="14.564261" lat="51.019749"><ele>359.5</ele></trkpt>
   <trkpt lon="14.564348" lat="51.019375"><ele>360.75</ele></trkpt>
   <trkpt lon="14.564346" lat="51.018826"><ele>360.75</ele></trkpt>
   <trkpt lon="14.564233" lat="51.018255"><ele>359.25</ele></trkpt>
   <trkpt lon="14.564043" lat="51.017390"><ele>357.5</ele></trkpt>
   <trkpt lon="14.563984" lat="51.016939"><ele>358.0</ele></trkpt>
   <trkpt lon="14.564006" lat="51.016463"><ele>358.5</ele></trkpt>
   <trkpt lon="14.564074" lat="51.016034"><ele>358.75</ele></trkpt>
   <trkpt lon="14.564251" lat="51.015642"><ele>358.25</ele></trkpt>
   <trkpt lon="14.564440" lat="51.015275"><ele>357.0</ele></trkpt>
   <trkpt lon="14.564846" lat="51.014759"><ele>354.5</ele></trkpt>
   <trkpt lon="14.565210" lat="51.014403"><ele>353.25</ele></trkpt>
   <trkpt lon="14.565818" lat="51.013933"><ele>350.75</ele></trkpt>
   <trkpt lon="14.566200" lat="51.013708"><ele>349.75</ele></trkpt>
   <trkpt lon="14.566772" lat="51.013395"><ele>349.0</ele></trkpt>
   <trkpt lon="14.567363" lat="51.013125"><ele>350.5</ele></trkpt>
   <trkpt lon="14.567659" lat="51.013016"><ele>351.0</ele></trkpt>
   <trkpt lon="14.568098" lat="51.012885"><ele>352.25</ele></trkpt>
   <trkpt lon="14.568708" lat="51.012722"><ele>352.25</ele></trkpt>
   <trkpt lon="14.569259" lat="51.012591"><ele>354.0</ele></trkpt>
   <trkpt lon="14.572595" lat="51.011835"><ele>357.5</ele></trkpt>
   <trkpt lon="14.573139" lat="51.011692"><ele>356.5</ele></trkpt>
   <trkpt lon="14.573424" lat="51.011617"><ele>356.0</ele></trkpt>
   <trkpt lon="14.574384" lat="51.011310"><ele>356.75</ele></trkpt>
   <trkpt lon="14.574575" lat="51.011244"><ele>356.75</ele></trkpt>
   <trkpt lon="14.576813" lat="51.010476"><ele>359.75</ele></trkpt>
   <trkpt lon="14.577106" lat="51.010374"><ele>359.25</ele></trkpt>
   <trkpt lon="14.577593" lat="51.010208"><ele>358.75</ele></trkpt>
   <trkpt lon="14.578128" lat="51.009994"><ele>358.0</ele></trkpt>
   <trkpt lon="14.578357" lat="51.009870"><ele>357.75</ele></trkpt>
   <trkpt lon="14.578600" lat="51.009727"><ele>357.5</ele></trkpt>
   <trkpt lon="14.578962" lat="51.009483"><ele>357.0</ele></trkpt>
   <trkpt lon="14.579105" lat="51.009371"><ele>357.0</ele></trkpt>
   <trkpt lon="14.579194" lat="51.009288"><ele>356.75</ele></trkpt>
   <trkpt lon="14.579399" lat="51.009066"><ele>356.25</ele></trkpt>
   <trkpt lon="14.579590" lat="51.008803"><ele>355.75</ele></trkpt>
   <trkpt lon="14.579771" lat="51.008506"><ele>355.25</ele></trkpt>
   <trkpt lon="14.579902" lat="51.008227"><ele>355.25</ele></trkpt>
   <trkpt lon="14.579958" lat="51.008092"><ele>355.75</ele></trkpt>
   <trkpt lon="14.580034" lat="51.007803"><ele>356.75</ele></trkpt>
   <trkpt lon="14.580040" lat="51.007528"><ele>357.75</ele></trkpt>
   <trkpt lon="14.580000" lat="51.007145"><ele>358.75</ele></trkpt>
   <trkpt lon="14.579936" lat="51.006865"><ele>359.5</ele></trkpt>
   <trkpt lon="14.579801" lat="51.006295"><ele>360.0</ele></trkpt>
   <trkpt lon="14.579759" lat="51.005735"><ele>360.25</ele></trkpt>
   <trkpt lon="14.579695" lat="51.005411"><ele>360.25</ele></trkpt>
   <trkpt lon="14.579667" lat="51.005282"><ele>360.25</ele></trkpt>
   <trkpt lon="14.579452" lat="51.004630"><ele>361.0</ele></trkpt>
   <trkpt lon="14.578952" lat="51.003234"><ele>361.75</ele></trkpt>
   <trkpt lon="14.578858" lat="51.002851"><ele>361.25</ele></trkpt>
   <trkpt lon="14.578822" lat="51.002617"><ele>361.0</ele></trkpt>
   <trkpt lon="14.578810" lat="51.002354"><ele>361.25</ele></trkpt>
   <trkpt lon="14.578824" lat="51.002128"><ele>361.75</ele></trkpt>
   <trkpt lon="14.578861" lat="51.001878"><ele>362.25</ele></trkpt>
   <trkpt lon="14.578946" lat="51.001513"><ele>363.5</ele></trkpt>
   <trkpt lon="14.579060" lat="51.001107"><ele>365.0</ele></trkpt>
   <trkpt lon="14.579160" lat="51.000730"><ele>366.0</ele></trkpt>
   <trkpt lon="14.579292" lat="51.000218"><ele>366.75</ele></trkpt>
   <trkpt lon="14.579312" lat="50.999998"><ele>367.0</ele></trkpt>
   <trkpt lon="14.579360" lat="50.999759"><ele>367.0</ele></trkpt>
   <trkpt lon="14.579471" lat="50.999340"><ele>367.25</ele></trkpt>
   <trkpt lon="14.579593" lat="50.998903"><ele>367.5</ele></trkpt>
   <trkpt lon="14.579599" lat="50.998884"><ele>367.5</ele></trkpt>
   <trkpt lon="14.579792" lat="50.998190"><ele>368.0</ele></trkpt>
   <trkpt lon="14.579902" lat="50.997856"><ele>368.0</ele></trkpt>
   <trkpt lon="14.579960" lat="50.997681"><ele>368.0</ele></trkpt>
   <trkpt lon="14.580125" lat="50.997281"><ele>369.5</ele></trkpt>
   <trkpt lon="14.580208" lat="50.997103"><ele>370.75</ele></trkpt>
   <trkpt lon="14.580236" lat="50.997056"><ele>371.0</ele></trkpt>
   <trkpt lon="14.581162" lat="50.995508"><ele>373.25</ele></trkpt>
   <trkpt lon="14.581534" lat="50.994913"><ele>373.0</ele></trkpt>
   <trkpt lon="14.581691" lat="50.994687"><ele>373.25</ele></trkpt>
   <trkpt lon="14.581907" lat="50.994413"><ele>374.5</ele></trkpt>
   <trkpt lon="14.582060" lat="50.994236"><ele>375.25</ele></trkpt>
   <trkpt lon="14.582442" lat="50.993874"><ele>375.75</ele></trkpt>
   <trkpt lon="14.582626" lat="50.993701"><ele>375.5</ele></trkpt>
   <trkpt lon="14.583015" lat="50.993398"><ele>374.75</ele></trkpt>
   <trkpt lon="14.583250" lat="50.993234"><ele>374.5</ele></trkpt>
   <trkpt lon="14.583376" lat="50.993147"><ele>374.25</ele></trkpt>
   <trkpt lon="14.583870" lat="50.992856"><ele>374.75</ele></trkpt>
   <trkpt lon="14.584392" lat="50.992582"><ele>375.0</ele></trkpt>
   <trkpt lon="14.584416" lat="50.992569"><ele>375.0</ele></trkpt>
   <trkpt lon="14.586527" lat="50.991508"><ele>379.0</ele></trkpt>
   <trkpt lon="14.588803" lat="50.990370"><ele>380.25</ele></trkpt>
   <trkpt lon="14.589970" lat="50.989785"><ele>381.5</ele></trkpt>
   <trkpt lon="14.591059" lat="50.989242"><ele>380.75</ele></trkpt>
   <trkpt lon="14.591692" lat="50.988955"><ele>381.25</ele></trkpt>
   <trkpt lon="14.592162" lat="50.988776"><ele>381.5</ele></trkpt>
   <trkpt lon="14.592605" lat="50.988626"><ele>381.5</ele></trkpt>
   <trkpt lon="14.592994" lat="50.988521"><ele>382.0</ele></trkpt>
   <trkpt lon="14.593132" lat="50.988484"><ele>382.25</ele></trkpt>
   <trkpt lon="14.593519" lat="50.988397"><ele>382.75</ele></trkpt>
   <trkpt lon="14.593944" lat="50.988316"><ele>383.25</ele></trkpt>
   <trkpt lon="14.594717" lat="50.988199"><ele>385.0</ele></trkpt>
   <trkpt lon="14.596408" lat="50.987979"><ele>386.75</ele></trkpt>
   <trkpt lon="14.599231" lat="50.987596"><ele>385.5</ele></trkpt>
   <trkpt lon="14.599431" lat="50.987569"><ele>385.5</ele></trkpt>
   <trkpt lon="14.599773" lat="50.987519"><ele>385.75</ele></trkpt>
   <trkpt lon="14.600165" lat="50.987453"><ele>386.0</ele></trkpt>
   <trkpt lon="14.600604" lat="50.987364"><ele>386.0</ele></trkpt>
   <trkpt lon="14.601136" lat="50.987228"><ele>386.25</ele></trkpt>
   <trkpt lon="14.601596" lat="50.987078"><ele>386.75</ele></trkpt>
   <trkpt lon="14.601726" lat="50.987035"><ele>387.0</ele></trkpt>
   <trkpt lon="14.602550" lat="50.986738"><ele>388.0</ele></trkpt>
   <trkpt lon="14.602888" lat="50.986605"><ele>388.5</ele></trkpt>
   <trkpt lon="14.603285" lat="50.986483"><ele>389.25</ele></trkpt>
   <trkpt lon="14.603670" lat="50.986388"><ele>389.75</ele></trkpt>
   <trkpt lon="14.604102" lat="50.986318"><ele>390.0</ele></trkpt>
   <trkpt lon="14.604378" lat="50.986288"><ele>390.5</ele></trkpt>
   <trkpt lon="14.605001" lat="50.986239"><ele>391.5</ele></trkpt>
   <trkpt lon="14.605482" lat="50.986235"><ele>392.25</ele></trkpt>
   <trkpt lon="14.605780" lat="50.986233"><ele>392.75</ele></trkpt>
   <trkpt lon="14.606039" lat="50.986229"><ele>393.5</ele></trkpt>
   <trkpt lon="14.606777" lat="50.986235"><ele>395.0</ele></trkpt>
   <trkpt lon="14.607319" lat="50.986251"><ele>395.25</ele></trkpt>
   <trkpt lon="14.607878" lat="50.986283"><ele>395.75</ele></trkpt>
   <trkpt lon="14.608408" lat="50.986335"><ele>396.0</ele></trkpt>
   <trkpt lon="14.609943" lat="50.986477"><ele>395.75</ele></trkpt>
   <trkpt lon="14.611469" lat="50.986622"><ele>395.25</ele></trkpt>
   <trkpt lon="14.611594" lat="50.986634"><ele>395.0</ele></trkpt>
   <trkpt lon="14.612603" lat="50.986729"><ele>396.0</ele></trkpt>
   <trkpt lon="14.612756" lat="50.986747"><ele>396.25</ele></trkpt>
   <trkpt lon="14.613208" lat="50.986803"><ele>397.0</ele></trkpt>
   <trkpt lon="14.613610" lat="50.986860"><ele>397.25</ele></trkpt>
   <trkpt lon="14.613879" lat="50.986906"><ele>397.25</ele></trkpt>
   <trkpt lon="14.614055" lat="50.986936"><ele>397.25</ele></trkpt>
   <trkpt lon="14.614805" lat="50.987100"><ele>396.75</ele></trkpt>
   <trkpt lon="14.615154" lat="50.987203"><ele>397.25</ele></trkpt>
   <trkpt lon="14.615551" lat="50.987326"><ele>398.0</ele></trkpt>
   <trkpt lon="14.615843" lat="50.987428"><ele>398.75</ele></trkpt>
   <trkpt lon="14.616133" lat="50.987553"><ele>399.75</ele></trkpt>
   <trkpt lon="14.616416" lat="50.987690"><ele>400.5</ele></trkpt>
   <trkpt lon="14.616717" lat="50.987852"><ele>401.5</ele></trkpt>
   <trkpt lon="14.616994" lat="50.988017"><ele>402.75</ele></trkpt>
   <trkpt lon="14.617200" lat="50.988155"><ele>403.5</ele></trkpt>
   <trkpt lon="14.617361" lat="50.988274"><ele>404.25</ele></trkpt>
   <trkpt lon="14.617527" lat="50.988424"><ele>405.25</ele></trkpt>
   <trkpt lon="14.617652" lat="50.988550"><ele>406.0</ele></trkpt>
   <trkpt lon="14.617800" lat="50.988720"><ele>407.0</ele></trkpt>
   <trkpt lon="14.617927" lat="50.988882"><ele>407.75</ele></trkpt>
   <trkpt lon="14.618096" lat="50.989134"><ele>409.0</ele></trkpt>
   <trkpt lon="14.618830" lat="50.990325"><ele>407.0</ele></trkpt>
   <trkpt lon="14.619011" lat="50.990583"><ele>406.5</ele></trkpt>
   <trkpt lon="14.619282" lat="50.990897"><ele>405.75</ele></trkpt>
   <trkpt lon="14.619410" lat="50.991021"><ele>405.25</ele></trkpt>
   <trkpt lon="14.619827" lat="50.991376"><ele>404.0</ele></trkpt>
   <trkpt lon="14.620393" lat="50.991746"><ele>402.5</ele></trkpt>
   <trkpt lon="14.620602" lat="50.991874"><ele>402.25</ele></trkpt>
   <trkpt lon="14.620856" lat="50.992019"><ele>401.5</ele></trkpt>
   <trkpt lon="14.621208" lat="50.992188"><ele>401.0</ele></trkpt>
   <trkpt lon="14.621498" lat="50.992315"><ele>400.5</ele></trkpt>
   <trkpt lon="14.621763" lat="50.992417"><ele>400.25</ele></trkpt>
   <trkpt lon="14.622187" lat="50.992556"><ele>399.75</ele></trkpt>
   <trkpt lon="14.622529" lat="50.992656"><ele>399.5</ele></trkpt>
   <trkpt lon="14.622897" lat="50.992747"><ele>399.25</ele></trkpt>
   <trkpt lon="14.623292" lat="50.992831"><ele>398.75</ele></trkpt>
   <trkpt lon="14.623633" lat="50.992888"><ele>398.5</ele></trkpt>
   <trkpt lon="14.624035" lat="50.992940"><ele>398.25</ele></trkpt>
   <trkpt lon="14.624388" lat="50.992974"><ele>398.0</ele></trkpt>
   <trkpt lon="14.624921" lat="50.993009"><ele>397.5</ele></trkpt>
   <trkpt lon="14.630894" lat="50.993343"><ele>395.0</ele></trkpt>
   <trkpt lon="14.631327" lat="50.993364"><ele>395.25</ele></trkpt>
   <trkpt lon="14.636778" lat="50.993665"><ele>393.0</ele></trkpt>
   <trkpt lon="14.637179" lat="50.993678"><ele>393.0</ele></trkpt>
   <trkpt lon="14.637494" lat="50.993678"><ele>393.0</ele></trkpt>
   <trkpt lon="14.637818" lat="50.993668"><ele>392.75</ele></trkpt>
   <trkpt lon="14.638517" lat="50.993623"><ele>392.0</ele></trkpt>
   <trkpt lon="14.639196" lat="50.993543"><ele>391.25</ele></trkpt>
   <trkpt lon="14.639495" lat="50.993493"><ele>391.0</ele></trkpt>
   <trkpt lon="14.640179" lat="50.993352"><ele>390.75</ele></trkpt>
   <trkpt lon="14.640527" lat="50.993263"><ele>391.25</ele></trkpt>
   <trkpt lon="14.640881" lat="50.993160"><ele>391.75</ele></trkpt>
   <trkpt lon="14.641202" lat="50.993053"><ele>391.75</ele></trkpt>
   <trkpt lon="14.641648" lat="50.992885"><ele>392.0</ele></trkpt>
   <trkpt lon="14.641933" lat="50.992764"><ele>391.75</ele></trkpt>
   <trkpt lon="14.642374" lat="50.992550"><ele>391.25</ele></trkpt>
   <trkpt lon="14.642668" lat="50.992393"><ele>390.5</ele></trkpt>
   <trkpt lon="14.642919" lat="50.992246"><ele>390.0</ele></trkpt>
   <trkpt lon="14.643203" lat="50.992059"><ele>389.25</ele></trkpt>
   <trkpt lon="14.643529" lat="50.991824"><ele>388.75</ele></trkpt>
   <trkpt lon="14.643810" lat="50.991592"><ele>388.5</ele></trkpt>
   <trkpt lon="14.644115" lat="50.991306"><ele>388.5</ele></trkpt>
   <trkpt lon="14.644204" lat="50.991205"><ele>388.25</ele></trkpt>
   <trkpt lon="14.644322" lat="50.991071"><ele>388.25</ele></trkpt>
   <trkpt lon="14.644429" lat="50.990955"><ele>388.0</ele></trkpt>
   <trkpt lon="14.644597" lat="50.990741"><ele>387.5</ele></trkpt>
   <trkpt lon="14.644733" lat="50.990536"><ele>387.25</ele></trkpt>
   <trkpt lon="14.644838" lat="50.990358"><ele>387.0</ele></trkpt>
   <trkpt lon="14.644961" lat="50.990123"><ele>386.75</ele></trkpt>
   <trkpt lon="14.645057" lat="50.989908"><ele>386.5</ele></trkpt>
   <trkpt lon="14.645154" lat="50.989637"><ele>386.0</ele></trkpt>
   <trkpt lon="14.645387" lat="50.988831"><ele>384.5</ele></trkpt>
   <trkpt lon="14.645573" lat="50.988199"><ele>383.75</ele></trkpt>
   <trkpt lon="14.646106" lat="50.986271"><ele>386.0</ele></trkpt>
   <trkpt lon="14.646808" lat="50.983756"><ele>385.25</ele></trkpt>
   <trkpt lon="14.647006" lat="50.983098"><ele>385.75</ele></trkpt>
   <trkpt lon="14.647183" lat="50.982477"><ele>386.0</ele></trkpt>
   <trkpt lon="14.647374" lat="50.981760"><ele>386.25</ele></trkpt>
   <trkpt lon="14.647640" lat="50.980783"><ele>387.25</ele></trkpt>
   <trkpt lon="14.647716" lat="50.980532"><ele>386.5</ele></trkpt>
   <trkpt lon="14.647804" lat="50.980293"><ele>385.5</ele></trkpt>
   <trkpt lon="14.647947" lat="50.979948"><ele>384.25</ele></trkpt>
   <trkpt lon="14.648052" lat="50.979748"><ele>383.5</ele></trkpt>
   <trkpt lon="14.648206" lat="50.979493"><ele>382.5</ele></trkpt>
   <trkpt lon="14.648380" lat="50.979235"><ele>381.75</ele></trkpt>
   <trkpt lon="14.648697" lat="50.978832"><ele>380.0</ele></trkpt>
   <trkpt lon="14.649468" lat="50.978052"><ele>376.75</ele></trkpt>
   <trkpt lon="14.650235" lat="50.977417"><ele>375.75</ele></trkpt>
   <trkpt lon="14.650404" lat="50.977310"><ele>375.75</ele></trkpt>
   <trkpt lon="14.651414" lat="50.976585"><ele>376.75</ele></trkpt>
   <trkpt lon="14.651590" lat="50.976471"><ele>376.5</ele></trkpt>
   <trkpt lon="14.652047" lat="50.976197"><ele>377.0</ele></trkpt>
   <trkpt lon="14.652519" lat="50.975962"><ele>377.5</ele></trkpt>
   <trkpt lon="14.652770" lat="50.975850"><ele>377.75</ele></trkpt>
   <trkpt lon="14.653059" lat="50.975737"><ele>378.25</ele></trkpt>
   <trkpt lon="14.653466" lat="50.975596"><ele>378.75</ele></trkpt>
   <trkpt lon="14.653768" lat="50.975501"><ele>378.75</ele></trkpt>
   <trkpt lon="14.654126" lat="50.975404"><ele>379.0</ele></trkpt>
   <trkpt lon="14.654380" lat="50.975340"><ele>378.75</ele></trkpt>
   <trkpt lon="14.655003" lat="50.975208"><ele>378.25</ele></trkpt>
   <trkpt lon="14.655470" lat="50.975128"><ele>378.0</ele></trkpt>
   <trkpt lon="14.656410" lat="50.974991"><ele>377.25</ele></trkpt>
   <trkpt lon="14.658732" lat="50.974649"><ele>374.5</ele></trkpt>
   <trkpt lon="14.659403" lat="50.974539"><ele>373.25</ele></trkpt>
   <trkpt lon="14.659909" lat="50.974443"><ele>371.75</ele></trkpt>
   <trkpt lon="14.660323" lat="50.974352"><ele>370.5</ele></trkpt>
   <trkpt lon="14.661165" lat="50.974101"><ele>367.5</ele></trkpt>
   <trkpt lon="14.661616" lat="50.973915"><ele>365.75</ele></trkpt>
   <trkpt lon="14.662046" lat="50.973669"><ele>364.25</ele></trkpt>
   <trkpt lon="14.662338" lat="50.973484"><ele>363.5</ele></trkpt>
   <trkpt lon="14.662623" lat="50.973271"><ele>362.75</ele></trkpt>
   <trkpt lon="14.662786" lat="50.973121"><ele>362.5</ele></trkpt>
   <trkpt lon="14.662951" lat="50.972982"><ele>362.5</ele></trkpt>
   <trkpt lon="14.663158" lat="50.972758"><ele>362.5</ele></trkpt>
   <trkpt lon="14.663347" lat="50.972535"><ele>362.75</ele></trkpt>
   <trkpt lon="14.663476" lat="50.972334"><ele>363.0</ele></trkpt>
   <trkpt lon="14.663612" lat="50.972083"><ele>363.5</ele></trkpt>
   <trkpt lon="14.663704" lat="50.971884"><ele>363.5</ele></trkpt>
   <trkpt lon="14.663800" lat="50.971570"><ele>363.75</ele></trkpt>
   <trkpt lon="14.663853" lat="50.971274"><ele>363.75</ele></trkpt>
   <trkpt lon="14.663862" lat="50.971096"><ele>363.5</ele></trkpt>
   <trkpt lon="14.663868" lat="50.970882"><ele>363.5</ele></trkpt>
   <trkpt lon="14.663852" lat="50.970608"><ele>364.0</ele></trkpt>
   <trkpt lon="14.663849" lat="50.969964"><ele>365.25</ele></trkpt>
   <trkpt lon="14.663910" lat="50.969495"><ele>366.5</ele></trkpt>
   <trkpt lon="14.663989" lat="50.969132"><ele>367.0</ele></trkpt>
   <trkpt lon="14.664067" lat="50.968922"><ele>366.75</ele></trkpt>
   <trkpt lon="14.664216" lat="50.968664"><ele>366.25</ele></trkpt>
   <trkpt lon="14.664345" lat="50.968469"><ele>365.75</ele></trkpt>
   <trkpt lon="14.664510" lat="50.968266"><ele>364.75</ele></trkpt>
   <trkpt lon="14.664912" lat="50.967874"><ele>362.5</ele></trkpt>
   <trkpt lon="14.665166" lat="50.967689"><ele>361.25</ele></trkpt>
   <trkpt lon="14.665531" lat="50.967452"><ele>359.75</ele></trkpt>
   <trkpt lon="14.665851" lat="50.967279"><ele>359.0</ele></trkpt>
   <trkpt lon="14.666272" lat="50.967100"><ele>358.0</ele></trkpt>
   <trkpt lon="14.666681" lat="50.966959"><ele>356.75</ele></trkpt>
   <trkpt lon="14.667173" lat="50.966826"><ele>355.75</ele></trkpt>
   <trkpt lon="14.667536" lat="50.966752"><ele>355.0</ele></trkpt>
   <trkpt lon="14.667992" lat="50.966687"><ele>353.75</ele></trkpt>
   <trkpt lon="14.668508" lat="50.966648"><ele>353.0</ele></trkpt>
   <trkpt lon="14.668985" lat="50.966639"><ele>353.0</ele></trkpt>
   <trkpt lon="14.669449" lat="50.966663"><ele>353.0</ele></trkpt>
   <trkpt lon="14.669861" lat="50.966705"><ele>353.0</ele></trkpt>
   <trkpt lon="14.670287" lat="50.966771"><ele>353.25</ele></trkpt>
   <trkpt lon="14.670526" lat="50.966816"><ele>353.5</ele></trkpt>
   <trkpt lon="14.671142" lat="50.966984"><ele>353.75</ele></trkpt>
   <trkpt lon="14.671542" lat="50.967130"><ele>353.75</ele></trkpt>
   <trkpt lon="14.671875" lat="50.967266"><ele>353.75</ele></trkpt>
   <trkpt lon="14.672371" lat="50.967532"><ele>354.5</ele></trkpt>
   <trkpt lon="14.672658" lat="50.967727"><ele>354.75</ele></trkpt>
   <trkpt lon="14.672915" lat="50.967931"><ele>354.75</ele></trkpt>
   <trkpt lon="14.673117" lat="50.968118"><ele>354.75</ele></trkpt>
   <trkpt lon="14.673375" lat="50.968436"><ele>354.0</ele></trkpt>
   <trkpt lon="14.673558" lat="50.968696"><ele>352.0</ele></trkpt>
   <trkpt lon="14.673733" lat="50.969019"><ele>350.0</ele></trkpt>
   <trkpt lon="14.673818" lat="50.969226"><ele>348.75</ele></trkpt>
   <trkpt lon="14.674250" lat="50.970723"><ele>347.0</ele></trkpt>
   <trkpt lon="14.674426" lat="50.971131"><ele>346.5</ele></trkpt>
   <trkpt lon="14.674488" lat="50.971251"><ele>346.25</ele></trkpt>
   <trkpt lon="14.674704" lat="50.971610"><ele>345.75</ele></trkpt>
   <trkpt lon="14.674874" lat="50.971836"><ele>345.5</ele></trkpt>
   <trkpt lon="14.675108" lat="50.972080"><ele>345.25</ele></trkpt>
   <trkpt lon="14.675423" lat="50.972373"><ele>345.75</ele></trkpt>
   <trkpt lon="14.675627" lat="50.972538"><ele>346.0</ele></trkpt>
   <trkpt lon="14.675813" lat="50.972670"><ele>346.25</ele></trkpt>
   <trkpt lon="14.676197" lat="50.972920"><ele>345.75</ele></trkpt>
   <trkpt lon="14.676557" lat="50.973112"><ele>344.75</ele></trkpt>
   <trkpt lon="14.676883" lat="50.973262"><ele>343.75</ele></trkpt>
   <trkpt lon="14.677178" lat="50.973390"><ele>343.5</ele></trkpt>
   <trkpt lon="14.677612" lat="50.973543"><ele>343.5</ele></trkpt>
   <trkpt lon="14.677941" lat="50.973641"><ele>343.0</ele></trkpt>
   <trkpt lon="14.678242" lat="50.973722"><ele>342.5</ele></trkpt>
   <trkpt lon="14.678460" lat="50.973772"><ele>342.5</ele></trkpt>
   <trkpt lon="14.678711" lat="50.973824"><ele>342.75</ele></trkpt>
   <trkpt lon="14.679031" lat="50.973878"><ele>342.75</ele></trkpt>
   <trkpt lon="14.679396" lat="50.973925"><ele>342.5</ele></trkpt>
   <trkpt lon="14.679863" lat="50.973968"><ele>342.25</ele></trkpt>
   <trkpt lon="14.680361" lat="50.973994"><ele>342.25</ele></trkpt>
   <trkpt lon="14.680732" lat="50.973999"><ele>342.75</ele></trkpt>
   <trkpt lon="14.684386" lat="50.973946"><ele>344.5</ele></trkpt>
   <trkpt lon="14.690846" lat="50.973852"><ele>328.25</ele></trkpt>
   <trkpt lon="14.691975" lat="50.973821"><ele>325.75</ele></trkpt>
   <trkpt lon="14.692784" lat="50.973786"><ele>324.25</ele></trkpt>
   <trkpt lon="14.692982" lat="50.973777"><ele>323.75</ele></trkpt>
   <trkpt lon="14.693569" lat="50.973721"><ele>322.75</ele></trkpt>
   <trkpt lon="14.694003" lat="50.973665"><ele>322.75</ele></trkpt>
   <trkpt lon="14.694434" lat="50.973579"><ele>322.5</ele></trkpt>
   <trkpt lon="14.694634" lat="50.973539"><ele>322.25</ele></trkpt>
   <trkpt lon="14.694991" lat="50.973436"><ele>321.75</ele></trkpt>
   <trkpt lon="14.695372" lat="50.973312"><ele>321.5</ele></trkpt>
   <trkpt lon="14.695852" lat="50.973132"><ele>320.75</ele></trkpt>
   <trkpt lon="14.696328" lat="50.972940"><ele>320.0</ele></trkpt>
   <trkpt lon="14.697915" lat="50.972275"><ele>318.75</ele></trkpt>
   <trkpt lon="14.698094" lat="50.972200"><ele>318.75</ele></trkpt>
   <trkpt lon="14.704063" lat="50.969721"><ele>314.0</ele></trkpt>
   <trkpt lon="14.705760" lat="50.969055"><ele>313.25</ele></trkpt>
   <trkpt lon="14.706148" lat="50.968915"><ele>312.5</ele></trkpt>
   <trkpt lon="14.706572" lat="50.968716"><ele>311.75</ele></trkpt>
   <trkpt lon="14.706814" lat="50.968589"><ele>311.25</ele></trkpt>
   <trkpt lon="14.706896" lat="50.968541"><ele>311.25</ele></trkpt>
   <trkpt lon="14.707048" lat="50.968452"><ele>311.25</ele></trkpt>
   <trkpt lon="14.707196" lat="50.968354"><ele>311.25</ele></trkpt>
   <trkpt lon="14.707555" lat="50.968087"><ele>311.25</ele></trkpt>
   <trkpt lon="14.707780" lat="50.967863"><ele>311.5</ele></trkpt>
   <trkpt lon="14.707996" lat="50.967611"><ele>312.0</ele></trkpt>
   <trkpt lon="14.708201" lat="50.967283"><ele>312.5</ele></trkpt>
   <trkpt lon="14.708327" lat="50.966988"><ele>313.0</ele></trkpt>
   <trkpt lon="14.708527" lat="50.966245"><ele>314.0</ele></trkpt>
   <trkpt lon="14.708611" lat="50.965913"><ele>314.5</ele></trkpt>
   <trkpt lon="14.708801" lat="50.965173"><ele>311.5</ele></trkpt>
   <trkpt lon="14.708848" lat="50.965042"><ele>311.0</ele></trkpt>
   <trkpt lon="14.708986" lat="50.964763"><ele>310.5</ele></trkpt>
   <trkpt lon="14.709080" lat="50.964609"><ele>310.5</ele></trkpt>
   <trkpt lon="14.709272" lat="50.964366"><ele>310.25</ele></trkpt>
   <trkpt lon="14.709413" lat="50.964226"><ele>310.0</ele></trkpt>
   <trkpt lon="14.709637" lat="50.964023"><ele>310.0</ele></trkpt>
   <trkpt lon="14.709770" lat="50.963902"><ele>310.0</ele></trkpt>
   <trkpt lon="14.710961" lat="50.962866"><ele>310.0</ele></trkpt>
   <trkpt lon="14.711142" lat="50.962712"><ele>310.5</ele></trkpt>
   <trkpt lon="14.711421" lat="50.962472"><ele>311.75</ele></trkpt>
   <trkpt lon="14.711648" lat="50.962273"><ele>312.75</ele></trkpt>
   <trkpt lon="14.711987" lat="50.961951"><ele>313.0</ele></trkpt>
   <trkpt lon="14.712242" lat="50.961689"><ele>313.5</ele></trkpt>
   <trkpt lon="14.712739" lat="50.961151"><ele>314.25</ele></trkpt>
   <trkpt lon="14.713081" lat="50.960761"><ele>314.5</ele></trkpt>
   <trkpt lon="14.713269" lat="50.960532"><ele>315.25</ele></trkpt>
   <trkpt lon="14.713320" lat="50.960470"><ele>315.5</ele></trkpt>
   <trkpt lon="14.714435" lat="50.959313"><ele>312.0</ele></trkpt>
   <trkpt lon="14.715031" lat="50.958746"><ele>308.75</ele></trkpt>
   <trkpt lon="14.715137" lat="50.958645"><ele>308.75</ele></trkpt>
   <trkpt lon="14.715356" lat="50.958442"><ele>308.75</ele></trkpt>
   <trkpt lon="14.715609" lat="50.958232"><ele>309.0</ele></trkpt>
   <trkpt lon="14.715840" lat="50.958059"><ele>309.25</ele></trkpt>
   <trkpt lon="14.715971" lat="50.957960"><ele>309.25</ele></trkpt>
   <trkpt lon="14.716349" lat="50.957685"><ele>309.25</ele></trkpt>
   <trkpt lon="14.718988" lat="50.955911"><ele>308.0</ele></trkpt>
   <trkpt lon="14.724624" lat="50.952137"><ele>308.25</ele></trkpt>
   <trkpt lon="14.724796" lat="50.952022"><ele>307.75</ele></trkpt>
   <trkpt lon="14.724895" lat="50.951957"><ele>307.5</ele></trkpt>
   <trkpt lon="14.725359" lat="50.951649"><ele>306.75</ele></trkpt>
   <trkpt lon="14.726268" lat="50.951044"><ele>301.25</ele></trkpt>
   <trkpt lon="14.726342" lat="50.950994"><ele>301.0</ele></trkpt>
   <trkpt lon="14.727993" lat="50.949903"><ele>299.75</ele></trkpt>
   <trkpt lon="14.728118" lat="50.949816"><ele>300.25</ele></trkpt>
   <trkpt lon="14.730971" lat="50.947892"><ele>302.75</ele></trkpt>
   <trkpt lon="14.731088" lat="50.947813"><ele>302.75</ele></trkpt>
   <trkpt lon="14.735662" lat="50.944741"><ele>299.5</ele></trkpt>
   <trkpt lon="14.735797" lat="50.944650"><ele>299.75</ele></trkpt>
   <trkpt lon="14.738874" lat="50.942597"><ele>303.0</ele></trkpt>
   <trkpt lon="14.739388" lat="50.942245"><ele>303.0</ele></trkpt>
   <trkpt lon="14.739777" lat="50.941968"><ele>302.75</ele></trkpt>
   <trkpt lon="14.740256" lat="50.941591"><ele>302.25</ele></trkpt>
   <trkpt lon="14.740919" lat="50.941002"><ele>300.75</ele></trkpt>
   <trkpt lon="14.741468" lat="50.940442"><ele>299.25</ele></trkpt>
   <trkpt lon="14.741917" lat="50.939904"><ele>298.25</ele></trkpt>
   <trkpt lon="14.742408" lat="50.939214"><ele>296.25</ele></trkpt>
   <trkpt lon="14.742645" lat="50.938832"><ele>296.0</ele></trkpt>
   <trkpt lon="14.742777" lat="50.938590"><ele>296.0</ele></trkpt>
   <trkpt lon="14.742895" lat="50.938351"><ele>296.0</ele></trkpt>
   <trkpt lon="14.743029" lat="50.938057"><ele>295.25</ele></trkpt>
   <trkpt lon="14.743289" lat="50.937286"><ele>294.0</ele></trkpt>
   <trkpt lon="14.743464" lat="50.936597"><ele>293.5</ele></trkpt>
   <trkpt lon="14.743530" lat="50.936212"><ele>293.0</ele></trkpt>
   <trkpt lon="14.743583" lat="50.935465"><ele>292.75</ele></trkpt>
   <trkpt lon="14.743586" lat="50.935208"><ele>293.0</ele></trkpt>
   <trkpt lon="14.743577" lat="50.934861"><ele>293.25</ele></trkpt>
   <trkpt lon="14.743549" lat="50.934543"><ele>293.25</ele></trkpt>
   <trkpt lon="14.743510" lat="50.934262"><ele>293.5</ele></trkpt>
   <trkpt lon="14.743462" lat="50.934041"><ele>293.25</ele></trkpt>
   <trkpt lon="14.743317" lat="50.933477"><ele>292.25</ele></trkpt>
   <trkpt lon="14.743206" lat="50.933139"><ele>291.5</ele></trkpt>
   <trkpt lon="14.743057" lat="50.932779"><ele>290.75</ele></trkpt>
   <trkpt lon="14.742822" lat="50.932270"><ele>290.75</ele></trkpt>
   <trkpt lon="14.742656" lat="50.931936"><ele>291.0</ele></trkpt>
   <trkpt lon="14.742408" lat="50.931515"><ele>290.25</ele></trkpt>
   <trkpt lon="14.741943" lat="50.930822"><ele>287.75</ele></trkpt>
   <trkpt lon="14.740986" lat="50.929500"><ele>287.75</ele></trkpt>
   <trkpt lon="14.740685" lat="50.929034"><ele>287.5</ele></trkpt>
   <trkpt lon="14.740510" lat="50.928701"><ele>288.25</ele></trkpt>
   <trkpt lon="14.740341" lat="50.928257"><ele>289.0</ele></trkpt>
   <trkpt lon="14.740177" lat="50.927721"><ele>288.75</ele></trkpt>
   <trkpt lon="14.740101" lat="50.927337"><ele>287.5</ele></trkpt>
   <trkpt lon="14.740056" lat="50.926949"><ele>284.75</ele></trkpt>
   <trkpt lon="14.740046" lat="50.926455"><ele>281.5</ele></trkpt>
   <trkpt lon="14.740062" lat="50.926034"><ele>279.0</ele></trkpt>
   <trkpt lon="14.740091" lat="50.925875"><ele>278.0</ele></trkpt>
   <trkpt lon="14.740145" lat="50.925574"><ele>276.25</ele></trkpt>
   <trkpt lon="14.740238" lat="50.925185"><ele>276.5</ele></trkpt>
   <trkpt lon="14.740271" lat="50.925050"><ele>276.75</ele></trkpt>
   <trkpt lon="14.740361" lat="50.924792"><ele>277.0</ele></trkpt>
   <trkpt lon="14.740448" lat="50.924584"><ele>277.25</ele></trkpt>
   <trkpt lon="14.740551" lat="50.924350"><ele>277.5</ele></trkpt>
   <trkpt lon="14.740696" lat="50.924109"><ele>277.75</ele></trkpt>
   <trkpt lon="14.741108" lat="50.923429"><ele>278.0</ele></trkpt>
   <trkpt lon="14.741181" lat="50.923307"><ele>278.5</ele></trkpt>
   <trkpt lon="14.741841" lat="50.922486"><ele>282.25</ele></trkpt>
   <trkpt lon="14.741863" lat="50.922455"><ele>282.25</ele></trkpt>
   <trkpt lon="14.741885" lat="50.922427"><ele>282.25</ele></trkpt>
   <trkpt lon="14.742540" lat="50.921659"><ele>283.75</ele></trkpt>
   <trkpt lon="14.742900" lat="50.921159"><ele>283.25</ele></trkpt>
   <trkpt lon="14.743040" lat="50.920932"><ele>283.0</ele></trkpt>
   <trkpt lon="14.743176" lat="50.920638"><ele>282.75</ele></trkpt>
   <trkpt lon="14.743432" lat="50.920002"><ele>281.5</ele></trkpt>
   <trkpt lon="14.743507" lat="50.919847"><ele>281.25</ele></trkpt>
   <trkpt lon="14.743611" lat="50.919670"><ele>281.0</ele></trkpt>
   <trkpt lon="14.743723" lat="50.919438"><ele>280.75</ele></trkpt>
   <trkpt lon="14.744768" lat="50.916802"><ele>272.25</ele></trkpt>
   <trkpt lon="14.746397" lat="50.912763"><ele>268.25</ele></trkpt>
   <trkpt lon="14.746831" lat="50.911707"><ele>267.0</ele></trkpt>
   <trkpt lon="14.746986" lat="50.911376"><ele>264.75</ele></trkpt>
   <trkpt lon="14.747161" lat="50.911053"><ele>262.5</ele></trkpt>
   <trkpt lon="14.747317" lat="50.910820"><ele>261.0</ele></trkpt>
   <trkpt lon="14.747503" lat="50.910578"><ele>263.0</ele></trkpt>
   <trkpt lon="14.747754" lat="50.910294"><ele>265.75</ele></trkpt>
   <trkpt lon="14.748022" lat="50.910038"><ele>268.0</ele></trkpt>
   <trkpt lon="14.748401" lat="50.909708"><ele>271.5</ele></trkpt>
   <trkpt lon="14.748709" lat="50.909448"><ele>271.5</ele></trkpt>
   <trkpt lon="14.749061" lat="50.909193"><ele>274.25</ele></trkpt>
   <trkpt lon="14.749426" lat="50.908957"><ele>273.5</ele></trkpt>
   <trkpt lon="14.749812" lat="50.908727"><ele>271.0</ele></trkpt>
   <trkpt lon="14.750220" lat="50.908507"><ele>267.75</ele></trkpt>
   <trkpt lon="14.750619" lat="50.908315"><ele>265.25</ele></trkpt>
   <trkpt lon="14.751043" lat="50.908131"><ele>264.75</ele></trkpt>
   <trkpt lon="14.751277" lat="50.908037"><ele>264.5</ele></trkpt>
   <trkpt lon="14.751509" lat="50.907954"><ele>264.5</ele></trkpt>
   <trkpt lon="14.751887" lat="50.907832"><ele>263.5</ele></trkpt>
   <trkpt lon="14.753361" lat="50.907368"><ele>259.0</ele></trkpt>
   <trkpt lon="14.753862" lat="50.907192"><ele>258.75</ele></trkpt>
   <trkpt lon="14.754417" lat="50.906985"><ele>258.75</ele></trkpt>
   <trkpt lon="14.755486" lat="50.906486"><ele>263.75</ele></trkpt>
   <trkpt lon="14.756476" lat="50.905983"><ele>269.75</ele></trkpt>
   <trkpt lon="14.756954" lat="50.905751"><ele>270.5</ele></trkpt>
   <trkpt lon="14.757448" lat="50.905525"><ele>270.25</ele></trkpt>
   <trkpt lon="14.757760" lat="50.905399"><ele>270.0</ele></trkpt>
   <trkpt lon="14.758381" lat="50.905174"><ele>269.75</ele></trkpt>
   <trkpt lon="14.758702" lat="50.905071"><ele>269.0</ele></trkpt>
   <trkpt lon="14.759166" lat="50.904935"><ele>267.75</ele></trkpt>
   <trkpt lon="14.759632" lat="50.904814"><ele>266.5</ele></trkpt>
   <trkpt lon="14.760109" lat="50.904705"><ele>265.25</ele></trkpt>
   <trkpt lon="14.763044" lat="50.904151"><ele>262.0</ele></trkpt>
   <trkpt lon="14.765617" lat="50.903676"><ele>265.0</ele></trkpt>
   <trkpt lon="14.766069" lat="50.903602"><ele>265.5</ele></trkpt>
   <trkpt lon="14.774120" lat="50.902546"><ele>262.25</ele></trkpt>
   <trkpt lon="14.776490" lat="50.902229"><ele>261.5</ele></trkpt>
   <trkpt lon="14.776844" lat="50.902186"><ele>261.75</ele></trkpt>
   <trkpt lon="14.776944" lat="50.902172"><ele>261.75</ele></trkpt>
   <trkpt lon="14.782119" lat="50.901488"><ele>264.75</ele></trkpt>
   <trkpt lon="14.786015" lat="50.900974"><ele>264.5</ele></trkpt>
   <trkpt lon="14.786771" lat="50.900890"><ele>265.5</ele></trkpt>
   <trkpt lon="14.787318" lat="50.900840"><ele>265.0</ele></trkpt>
   <trkpt lon="14.787804" lat="50.900816"><ele>264.75</ele></trkpt>
   <trkpt lon="14.788301" lat="50.900801"><ele>264.75</ele></trkpt>
   <trkpt lon="14.788775" lat="50.900803"><ele>264.0</ele></trkpt>
   <trkpt lon="14.789250" lat="50.900814"><ele>263.5</ele></trkpt>
   <trkpt lon="14.790188" lat="50.900887"><ele>262.25</ele></trkpt>
   <trkpt lon="14.790944" lat="50.900970"><ele>262.25</ele></trkpt>
   <trkpt lon="14.791238" lat="50.901010"><ele>262.5</ele></trkpt>
   <trkpt lon="14.791706" lat="50.901085"><ele>262.5</ele></trkpt>
   <trkpt lon="14.791952" lat="50.901124"><ele>262.75</ele></trkpt>
   <trkpt lon="14.792940" lat="50.901325"><ele>263.5</ele></trkpt>
   <trkpt lon="14.793456" lat="50.901452"><ele>263.75</ele></trkpt>
   <trkpt lon="14.794693" lat="50.901807"><ele>263.25</ele></trkpt>
   <trkpt lon="14.795287" lat="50.901989"><ele>263.25</ele></trkpt>
   <trkpt lon="14.795859" lat="50.902160"><ele>263.25</ele></trkpt>
   <trkpt lon="14.795941" lat="50.902188"><ele>263.25</ele></trkpt>
   <trkpt lon="14.797304" lat="50.902606"><ele>263.5</ele></trkpt>
   <trkpt lon="14.797522" lat="50.902678"><ele>263.5</ele></trkpt>
   <trkpt lon="14.797831" lat="50.902792"><ele>263.0</ele></trkpt>
   <trkpt lon="14.798261" lat="50.902969"><ele>262.0</ele></trkpt>
   <trkpt lon="14.799464" lat="50.903541"><ele>264.0</ele></trkpt>
   <trkpt lon="14.799939" lat="50.903760"><ele>263.25</ele></trkpt>
   <trkpt lon="14.800179" lat="50.903859"><ele>262.75</ele></trkpt>
   <trkpt lon="14.800669" lat="50.904039"><ele>262.75</ele></trkpt>
   <trkpt lon="14.801096" lat="50.904173"><ele>262.5</ele></trkpt>
   <trkpt lon="14.801309" lat="50.904235"><ele>262.5</ele></trkpt>
   <trkpt lon="14.801799" lat="50.904353"><ele>262.25</ele></trkpt>
   <trkpt lon="14.802022" lat="50.904396"><ele>262.5</ele></trkpt>
   <trkpt lon="14.802430" lat="50.904452"><ele>262.5</ele></trkpt>
   <trkpt lon="14.802806" lat="50.904482"><ele>262.75</ele></trkpt>
   <trkpt lon="14.803006" lat="50.904489"><ele>262.75</ele></trkpt>
   <trkpt lon="14.804007" lat="50.904488"><ele>262.75</ele></trkpt>
  </trkseg>
 </trk>
</gpx>
