<?xml version="1.0" encoding="UTF-8"?>
<!-- track-length = 89427 filtered ascend = 71 plain-ascend = 43 cost=89427 energy=1.1kwh time=1h 59m 14s -->
<gpx 
 xmlns="http://www.topografix.com/GPX/1/1" 
 xmlns:xsi="http://www.w3.org/2001/XMLSchema-instance" 
 xsi:schemaLocation="http://www.topografix.com/GPX/1/1 http://www.topografix.com/GPX/1/1/gpx.xsd" 
 creator="BRouter-1.7.0" version="1.1">
 <trk>
  <name>breclavwien</name>
  <trkseg>
   <trkpt lon="16.894243" lat="48.754739"><ele>157.5</ele></trkpt>
   <trkpt lon="16.893451" lat="48.753899"><ele>158.0</ele></trkpt>
   <trkpt lon="16.892679" lat="48.753080"><ele>157.25</ele></trkpt>
   <trkpt lon="16.891905" lat="48.752350"><ele>156.75</ele></trkpt>
   <trkpt lon="16.891219" lat="48.751690"><ele>157.0</ele></trkpt>
   <trkpt lon="16.890962" lat="48.751409"><ele>156.5</ele></trkpt>
   <trkpt lon="16.890749" lat="48.751183"><ele>156.25</ele></trkpt>
   <trkpt lon="16.890565" lat="48.750992"><ele>156.25</ele></trkpt>
   <trkpt lon="16.890134" lat="48.750535"><ele>156.25</ele></trkpt>
   <trkpt lon="16.889991" lat="48.750398"><ele>156.25</ele></trkpt>
   <trkpt lon="16.889798" lat="48.750232"><ele>156.25</ele></trkpt>
   <trkpt lon="16.889595" lat="48.750044"><ele>156.5</ele></trkpt>
   <trkpt lon="16.889360" lat="48.749796"><ele>156.5</ele></trkpt>
   <trkpt lon="16.888747" lat="48.749212"><ele>156.0</ele></trkpt>
   <trkpt lon="16.888538" lat="48.748994"><ele>155.5</ele></trkpt>
   <trkpt lon="16.888372" lat="48.748818"><ele>155.25</ele></trkpt>
   <trkpt lon="16.887903" lat="48.748322"><ele>154.5</ele></trkpt>
   <trkpt lon="16.887528" lat="48.747922"><ele>154.75</ele></trkpt>
   <trkpt lon="16.886927" lat="48.747248"><ele>157.5</ele></trkpt>
   <trkpt lon="16.885994" lat="48.746218"><ele>161.5</ele></trkpt>
   <trkpt lon="16.885873" lat="48.746089"><ele>161.5</ele></trkpt>
   <trkpt lon="16.884266" lat="48.744379"><ele>158.0</ele></trkpt>
   <trkpt lon="16.883891" lat="48.743979"><ele>156.5</ele></trkpt>
   <trkpt lon="16.882763" lat="48.742778"><ele>156.75</ele></trkpt>
   <trkpt lon="16.879005" lat="48.738769"><ele>160.5</ele></trkpt>
   <trkpt lon="16.877794" lat="48.737424"><ele>155.25</ele></trkpt>
   <trkpt lon="16.876911" lat="48.736507"><ele>157.0</ele></trkpt>
   <trkpt lon="16.876197" lat="48.735758"><ele>157.5</ele></trkpt>
   <trkpt lon="16.875314" lat="48.734847"><ele>156.0</ele></trkpt>
   <trkpt lon="16.874250" lat="48.733711"><ele>157.5</ele></trkpt>
   <trkpt lon="16.869933" lat="48.729121"><ele>157.0</ele></trkpt>
   <trkpt lon="16.869398" lat="48.728520"><ele>157.75</ele></trkpt>
   <trkpt lon="16.869072" lat="48.728123"><ele>158.5</ele></trkpt>
   <trkpt lon="16.868735" lat="48.727684"><ele>160.0</ele></trkpt>
   <trkpt lon="16.868374" lat="48.727173"><ele>161.75</ele></trkpt>
   <trkpt lon="16.868187" lat="48.726895"><ele>162.5</ele></trkpt>
   <trkpt lon="16.868026" lat="48.726637"><ele>163.25</ele></trkpt>
   <trkpt lon="16.867582" lat="48.725871"><ele>163.75</ele></trkpt>
   <trkpt lon="16.867324" lat="48.725358"><ele>164.0</ele></trkpt>
   <trkpt lon="16.867098" lat="48.724859"><ele>163.5</ele></trkpt>
   <trkpt lon="16.866932" lat="48.724454"><ele>164.0</ele></trkpt>
   <trkpt lon="16.866688" lat="48.723751"><ele>164.5</ele></trkpt>
   <trkpt lon="16.866542" lat="48.723246"><ele>165.25</ele></trkpt>
   <trkpt lon="16.866407" lat="48.722712"><ele>165.25</ele></trkpt>
   <trkpt lon="16.866299" lat="48.722192"><ele>165.0</ele></trkpt>
   <trkpt lon="16.866220" lat="48.721651"><ele>164.75</ele></trkpt>
   <trkpt lon="16.866164" lat="48.721119"><ele>164.5</ele></trkpt>
   <trkpt lon="16.866138" lat="48.720624"><ele>164.25</ele></trkpt>
   <trkpt lon="16.866131" lat="48.720089"><ele>164.5</ele></trkpt>
   <trkpt lon="16.866153" lat="48.719559"><ele>165.0</ele></trkpt>
   <trkpt lon="16.866206" lat="48.718993"><ele>164.75</ele></trkpt>
   <trkpt lon="16.866258" lat="48.718546"><ele>163.5</ele></trkpt>
   <trkpt lon="16.866373" lat="48.717932"><ele>162.0</ele></trkpt>
   <trkpt lon="16.866537" lat="48.717260"><ele>162.25</ele></trkpt>
   <trkpt lon="16.866575" lat="48.717132"><ele>162.75</ele></trkpt>
   <trkpt lon="16.866696" lat="48.716732"><ele>164.5</ele></trkpt>
   <trkpt lon="16.866788" lat="48.716463"><ele>166.0</ele></trkpt>
   <trkpt lon="16.866981" lat="48.715946"><ele>168.75</ele></trkpt>
   <trkpt lon="16.867197" lat="48.715423"><ele>168.0</ele></trkpt>
   <trkpt lon="16.868028" lat="48.713514"><ele>169.5</ele></trkpt>
   <trkpt lon="16.868039" lat="48.713490"><ele>169.5</ele></trkpt>
   <trkpt lon="16.868264" lat="48.712981"><ele>167.75</ele></trkpt>
   <trkpt lon="16.868459" lat="48.712535"><ele>165.5</ele></trkpt>
   <trkpt lon="16.868500" lat="48.712434"><ele>165.25</ele></trkpt>
   <trkpt lon="16.868617" lat="48.712154"><ele>164.25</ele></trkpt>
   <trkpt lon="16.868622" lat="48.712142"><ele>164.25</ele></trkpt>
   <trkpt lon="16.868626" lat="48.712131"><ele>164.25</ele></trkpt>
   <trkpt lon="16.869831" lat="48.709353"><ele>160.75</ele></trkpt>
   <trkpt lon="16.871263" lat="48.706028"><ele>164.25</ele></trkpt>
   <trkpt lon="16.874730" lat="48.698034"><ele>163.5</ele></trkpt>
   <trkpt lon="16.875544" lat="48.696158"><ele>160.5</ele></trkpt>
   <trkpt lon="16.875964" lat="48.695208"><ele>160.25</ele></trkpt>
   <trkpt lon="16.876009" lat="48.695102"><ele>160.25</ele></trkpt>
   <trkpt lon="16.876956" lat="48.692893"><ele>159.25</ele></trkpt>
   <trkpt lon="16.877075" lat="48.692624"><ele>159.5</ele></trkpt>
   <trkpt lon="16.877994" lat="48.690499"><ele>162.0</ele></trkpt>
   <trkpt lon="16.878057" lat="48.690359"><ele>162.75</ele></trkpt>
   <trkpt lon="16.878398" lat="48.689571"><ele>165.75</ele></trkpt>
   <trkpt lon="16.878523" lat="48.689282"><ele>166.0</ele></trkpt>
   <trkpt lon="16.879074" lat="48.688019"><ele>166.25</ele></trkpt>
   <trkpt lon="16.879595" lat="48.686810"><ele>167.0</ele></trkpt>
   <trkpt lon="16.881265" lat="48.682945"><ele>163.75</ele></trkpt>
   <trkpt lon="16.881369" lat="48.682676"><ele>163.5</ele></trkpt>
   <trkpt lon="16.881470" lat="48.682339"><ele>163.75</ele></trkpt>
   <trkpt lon="16.881555" lat="48.682121"><ele>164.0</ele></trkpt>
   <trkpt lon="16.881607" lat="48.681998"><ele>164.25</ele></trkpt>
   <trkpt lon="16.881622" lat="48.681961"><ele>164.25</ele></trkpt>
   <trkpt lon="16.881790" lat="48.681578"><ele>164.75</ele></trkpt>
   <trkpt lon="16.881880" lat="48.681386"><ele>164.5</ele></trkpt>
   <trkpt lon="16.882041" lat="48.681108"><ele>164.25</ele></trkpt>
   <trkpt lon="16.882210" lat="48.680773"><ele>164.5</ele></trkpt>
   <trkpt lon="16.882303" lat="48.680558"><ele>164.5</ele></trkpt>
   <trkpt lon="16.882379" lat="48.680382"><ele>164.25</ele></trkpt>
   <trkpt lon="16.882421" lat="48.680283"><ele>164.25</ele></trkpt>
   <trkpt lon="16.882695" lat="48.679649"><ele>164.25</ele></trkpt>
   <trkpt lon="16.885003" lat="48.674318"><ele>164.0</ele></trkpt>
   <trkpt lon="16.885366" lat="48.673480"><ele>164.25</ele></trkpt>
   <trkpt lon="16.885455" lat="48.673278"><ele>164.5</ele></trkpt>
   <trkpt lon="16.885533" lat="48.673100"><ele>164.25</ele></trkpt>
   <trkpt lon="16.885631" lat="48.672839"><ele>164.25</ele></trkpt>
   <trkpt lon="16.885742" lat="48.672475"><ele>163.75</ele></trkpt>
   <trkpt lon="16.885785" lat="48.672361"><ele>163.75</ele></trkpt>
   <trkpt lon="16.886006" lat="48.671836"><ele>163.0</ele></trkpt>
   <trkpt lon="16.886085" lat="48.671667"><ele>162.75</ele></trkpt>
   <trkpt lon="16.886371" lat="48.671003"><ele>162.25</ele></trkpt>
   <trkpt lon="16.886891" lat="48.669808"><ele>161.25</ele></trkpt>
   <trkpt lon="16.887323" lat="48.668825"><ele>160.25</ele></trkpt>
   <trkpt lon="16.887352" lat="48.668757"><ele>160.25</ele></trkpt>
   <trkpt lon="16.888536" lat="48.666029"><ele>158.75</ele></trkpt>
   <trkpt lon="16.888619" lat="48.665843"><ele>158.5</ele></trkpt>
   <trkpt lon="16.890784" lat="48.660843"><ele>159.75</ele></trkpt>
   <trkpt lon="16.891648" lat="48.658846"><ele>158.5</ele></trkpt>
   <trkpt lon="16.894471" lat="48.652324"><ele>161.0</ele></trkpt>
   <trkpt lon="16.894603" lat="48.652010"><ele>161.0</ele></trkpt>
   <trkpt lon="16.898359" lat="48.643330"><ele>158.0</ele></trkpt>
   <trkpt lon="16.899546" lat="48.640588"><ele>156.25</ele></trkpt>
   <trkpt lon="16.899617" lat="48.640434"><ele>156.0</ele></trkpt>
   <trkpt lon="16.900203" lat="48.639076"><ele>152.75</ele></trkpt>
   <trkpt lon="16.902361" lat="48.634075"><ele>154.5</ele></trkpt>
   <trkpt lon="16.902675" lat="48.633218"><ele>156.5</ele></trkpt>
   <trkpt lon="16.902932" lat="48.632354"><ele>158.25</ele></trkpt>
   <trkpt lon="16.903126" lat="48.631493"><ele>156.25</ele></trkpt>
   <trkpt lon="16.903272" lat="48.630624"><ele>153.75</ele></trkpt>
   <trkpt lon="16.903354" lat="48.629790"><ele>155.75</ele></trkpt>
   <trkpt lon="16.903390" lat="48.628959"><ele>156.0</ele></trkpt>
   <trkpt lon="16.903371" lat="48.628124"><ele>157.25</ele></trkpt>
   <trkpt lon="16.903134" lat="48.625312"><ele>158.0</ele></trkpt>
   <trkpt lon="16.902829" lat="48.621857"><ele>156.75</ele></trkpt>
   <trkpt lon="16.902592" lat="48.619093"><ele>153.75</ele></trkpt>
   <trkpt lon="16.902075" lat="48.613121"><ele>152.0</ele></trkpt>
   <trkpt lon="16.902063" lat="48.612945"><ele>152.0</ele></trkpt>
   <trkpt lon="16.901755" lat="48.609385"><ele>152.0</ele></trkpt>
   <trkpt lon="16.901751" lat="48.609308"><ele>152.0</ele></trkpt>
   <trkpt lon="16.901735" lat="48.609141"><ele>152.0</ele></trkpt>
   <trkpt lon="16.901620" lat="48.607861"><ele>152.25</ele></trkpt>
   <trkpt lon="16.901570" lat="48.607300"><ele>152.25</ele></trkpt>
   <trkpt lon="16.901365" lat="48.604958"><ele>151.75</ele></trkpt>
   <trkpt lon="16.901359" lat="48.604872"><ele>151.75</ele></trkpt>
   <trkpt lon="16.901354" lat="48.604833"><ele>151.5</ele></trkpt>
   <trkpt lon="16.901354" lat="48.604824"><ele>151.5</ele></trkpt>
   <trkpt lon="16.901340" lat="48.604563"><ele>151.25</ele></trkpt>
   <trkpt lon="16.901353" lat="48.604243"><ele>150.75</ele></trkpt>
   <trkpt lon="16.901343" lat="48.603968"><ele>150.5</ele></trkpt>
   <trkpt lon="16.901333" lat="48.603868"><ele>150.5</ele></trkpt>
   <trkpt lon="16.901274" lat="48.603164"><ele>150.25</ele></trkpt>
   <trkpt lon="16.901255" lat="48.602925"><ele>150.5</ele></trkpt>
   <trkpt lon="16.901234" lat="48.602711"><ele>151.0</ele></trkpt>
   <trkpt lon="16.901160" lat="48.601784"><ele>152.75</ele></trkpt>
   <trkpt lon="16.901142" lat="48.601424"><ele>152.5</ele></trkpt>
   <trkpt lon="16.901168" lat="48.600963"><ele>152.0</ele></trkpt>
   <trkpt lon="16.901177" lat="48.600677"><ele>152.0</ele></trkpt>
   <trkpt lon="16.901172" lat="48.600494"><ele>152.25</ele></trkpt>
   <trkpt lon="16.900984" lat="48.598300"><ele>152.0</ele></trkpt>
   <trkpt lon="16.900812" lat="48.596341"><ele>151.0</ele></trkpt>
   <trkpt lon="16.900766" lat="48.595750"><ele>151.0</ele></trkpt>
   <trkpt lon="16.900718" lat="48.595200"><ele>151.0</ele></trkpt>
   <trkpt lon="16.900654" lat="48.594443"><ele>151.0</ele></trkpt>
   <trkpt lon="16.900561" lat="48.593416"><ele>151.0</ele></trkpt>
   <trkpt lon="16.900518" lat="48.592898"><ele>150.25</ele></trkpt>
   <trkpt lon="16.900502" lat="48.592743"><ele>150.0</ele></trkpt>
   <trkpt lon="16.900467" lat="48.592553"><ele>149.75</ele></trkpt>
   <trkpt lon="16.900371" lat="48.592181"><ele>149.75</ele></trkpt>
   <trkpt lon="16.900332" lat="48.592028"><ele>149.75</ele></trkpt>
   <trkpt lon="16.900296" lat="48.591802"><ele>149.5</ele></trkpt>
   <trkpt lon="16.900281" lat="48.591629"><ele>149.5</ele></trkpt>
   <trkpt lon="16.900268" lat="48.591520"><ele>149.75</ele></trkpt>
   <trkpt lon="16.900191" lat="48.591188"><ele>150.5</ele></trkpt>
   <trkpt lon="16.900161" lat="48.590990"><ele>150.75</ele></trkpt>
   <trkpt lon="16.900158" lat="48.590950"><ele>151.0</ele></trkpt>
   <trkpt lon="16.900133" lat="48.590705"><ele>151.0</ele></trkpt>
   <trkpt lon="16.900093" lat="48.590209"><ele>150.75</ele></trkpt>
   <trkpt lon="16.900038" lat="48.589562"><ele>150.25</ele></trkpt>
   <trkpt lon="16.899975" lat="48.588844"><ele>149.75</ele></trkpt>
   <trkpt lon="16.899961" lat="48.588667"><ele>149.75</ele></trkpt>
   <trkpt lon="16.899900" lat="48.587967"><ele>150.0</ele></trkpt>
   <trkpt lon="16.899748" lat="48.586091"><ele>150.75</ele></trkpt>
   <trkpt lon="16.899586" lat="48.584197"><ele>151.25</ele></trkpt>
   <trkpt lon="16.898705" lat="48.573978"><ele>149.5</ele></trkpt>
   <trkpt lon="16.898501" lat="48.571584"><ele>149.0</ele></trkpt>
   <trkpt lon="16.898496" lat="48.571525"><ele>149.0</ele></trkpt>
   <trkpt lon="16.898486" lat="48.571385"><ele>149.0</ele></trkpt>
   <trkpt lon="16.898479" lat="48.571316"><ele>149.0</ele></trkpt>
   <trkpt lon="16.898204" lat="48.568156"><ele>149.5</ele></trkpt>
   <trkpt lon="16.897838" lat="48.564150"><ele>149.5</ele></trkpt>
   <trkpt lon="16.897827" lat="48.563999"><ele>149.5</ele></trkpt>
   <trkpt lon="16.897802" lat="48.563729"><ele>149.5</ele></trkpt>
   <trkpt lon="16.897718" lat="48.562722"><ele>149.5</ele></trkpt>
   <trkpt lon="16.897661" lat="48.561875"><ele>149.75</ele></trkpt>
   <trkpt lon="16.897415" lat="48.558983"><ele>148.75</ele></trkpt>
   <trkpt lon="16.897408" lat="48.558903"><ele>148.75</ele></trkpt>
   <trkpt lon="16.897331" lat="48.558013"><ele>149.5</ele></trkpt>
   <trkpt lon="16.897186" lat="48.556333"><ele>148.75</ele></trkpt>
   <trkpt lon="16.897177" lat="48.556230"><ele>148.75</ele></trkpt>
   <trkpt lon="16.897041" lat="48.554639"><ele>148.75</ele></trkpt>
   <trkpt lon="16.897031" lat="48.554524"><ele>149.0</ele></trkpt>
   <trkpt lon="16.896596" lat="48.549455"><ele>148.5</ele></trkpt>
   <trkpt lon="16.896453" lat="48.547893"><ele>150.25</ele></trkpt>
   <trkpt lon="16.896364" lat="48.546877"><ele>150.75</ele></trkpt>
   <trkpt lon="16.896282" lat="48.545943"><ele>149.5</ele></trkpt>
   <trkpt lon="16.896200" lat="48.545006"><ele>150.25</ele></trkpt>
   <trkpt lon="16.896101" lat="48.543856"><ele>152.0</ele></trkpt>
   <trkpt lon="16.896089" lat="48.543728"><ele>152.25</ele></trkpt>
   <trkpt lon="16.896087" lat="48.543701"><ele>152.25</ele></trkpt>
   <trkpt lon="16.896047" lat="48.543450"><ele>152.75</ele></trkpt>
   <trkpt lon="16.895901" lat="48.542878"><ele>152.5</ele></trkpt>
   <trkpt lon="16.895874" lat="48.542713"><ele>152.25</ele></trkpt>
   <trkpt lon="16.895870" lat="48.542674"><ele>152.25</ele></trkpt>
   <trkpt lon="16.895765" lat="48.541463"><ele>152.0</ele></trkpt>
   <trkpt lon="16.895761" lat="48.541424"><ele>152.0</ele></trkpt>
   <trkpt lon="16.895762" lat="48.541228"><ele>152.25</ele></trkpt>
   <trkpt lon="16.895780" lat="48.541004"><ele>152.5</ele></trkpt>
   <trkpt lon="16.895777" lat="48.540870"><ele>152.75</ele></trkpt>
   <trkpt lon="16.895774" lat="48.540834"><ele>152.75</ele></trkpt>
   <trkpt lon="16.895690" lat="48.539903"><ele>152.0</ele></trkpt>
   <trkpt lon="16.895524" lat="48.537911"><ele>151.75</ele></trkpt>
   <trkpt lon="16.895501" lat="48.537485"><ele>151.0</ele></trkpt>
   <trkpt lon="16.895481" lat="48.536781"><ele>151.75</ele></trkpt>
   <trkpt lon="16.895443" lat="48.536254"><ele>151.5</ele></trkpt>
   <trkpt lon="16.895384" lat="48.535572"><ele>151.0</ele></trkpt>
   <trkpt lon="16.895375" lat="48.535370"><ele>151.0</ele></trkpt>
   <trkpt lon="16.895383" lat="48.534927"><ele>151.0</ele></trkpt>
   <trkpt lon="16.895375" lat="48.534713"><ele>151.0</ele></trkpt>
   <trkpt lon="16.895356" lat="48.534468"><ele>151.25</ele></trkpt>
   <trkpt lon="16.895323" lat="48.534232"><ele>151.5</ele></trkpt>
   <trkpt lon="16.895251" lat="48.533884"><ele>152.0</ele></trkpt>
   <trkpt lon="16.895217" lat="48.533611"><ele>152.25</ele></trkpt>
   <trkpt lon="16.895214" lat="48.533573"><ele>152.25</ele></trkpt>
   <trkpt lon="16.895202" lat="48.533420"><ele>152.5</ele></trkpt>
   <trkpt lon="16.895185" lat="48.533219"><ele>152.25</ele></trkpt>
   <trkpt lon="16.895185" lat="48.533218"><ele>152.25</ele></trkpt>
   <trkpt lon="16.895180" lat="48.533158"><ele>152.0</ele></trkpt>
   <trkpt lon="16.895046" lat="48.531597"><ele>150.75</ele></trkpt>
   <trkpt lon="16.894613" lat="48.526483"><ele>153.0</ele></trkpt>
   <trkpt lon="16.894607" lat="48.526419"><ele>153.0</ele></trkpt>
   <trkpt lon="16.894596" lat="48.526284"><ele>153.0</ele></trkpt>
   <trkpt lon="16.894204" lat="48.521789"><ele>148.0</ele></trkpt>
   <trkpt lon="16.894152" lat="48.521194"><ele>148.0</ele></trkpt>
   <trkpt lon="16.894054" lat="48.520265"><ele>147.5</ele></trkpt>
   <trkpt lon="16.893932" lat="48.519388"><ele>147.25</ele></trkpt>
   <trkpt lon="16.893797" lat="48.518640"><ele>147.0</ele></trkpt>
   <trkpt lon="16.893639" lat="48.517880"><ele>147.25</ele></trkpt>
   <trkpt lon="16.893453" lat="48.517127"><ele>147.75</ele></trkpt>
   <trkpt lon="16.893282" lat="48.516506"><ele>147.75</ele></trkpt>
   <trkpt lon="16.893088" lat="48.515884"><ele>147.5</ele></trkpt>
   <trkpt lon="16.892825" lat="48.515112"><ele>147.5</ele></trkpt>
   <trkpt lon="16.892540" lat="48.514343"><ele>148.0</ele></trkpt>
   <trkpt lon="16.892089" lat="48.513282"><ele>147.25</ele></trkpt>
   <trkpt lon="16.891590" lat="48.512239"><ele>147.0</ele></trkpt>
   <trkpt lon="16.891305" lat="48.511680"><ele>149.25</ele></trkpt>
   <trkpt lon="16.891124" lat="48.511352"><ele>149.25</ele></trkpt>
   <trkpt lon="16.890746" lat="48.510675"><ele>149.0</ele></trkpt>
   <trkpt lon="16.890118" lat="48.509663"><ele>148.5</ele></trkpt>
   <trkpt lon="16.889738" lat="48.509088"><ele>148.5</ele></trkpt>
   <trkpt lon="16.889244" lat="48.508380"><ele>149.5</ele></trkpt>
   <trkpt lon="16.888710" lat="48.507660"><ele>149.5</ele></trkpt>
   <trkpt lon="16.887844" lat="48.506577"><ele>146.25</ele></trkpt>
   <trkpt lon="16.886941" lat="48.505511"><ele>146.75</ele></trkpt>
   <trkpt lon="16.885024" lat="48.503286"><ele>146.0</ele></trkpt>
   <trkpt lon="16.882917" lat="48.500829"><ele>146.25</ele></trkpt>
   <trkpt lon="16.882890" lat="48.500797"><ele>146.25</ele></trkpt>
   <trkpt lon="16.882516" lat="48.500364"><ele>146.25</ele></trkpt>
   <trkpt lon="16.880851" lat="48.498424"><ele>147.75</ele></trkpt>
   <trkpt lon="16.880347" lat="48.497829"><ele>147.75</ele></trkpt>
   <trkpt lon="16.880196" lat="48.497632"><ele>147.75</ele></trkpt>
   <trkpt lon="16.879977" lat="48.497367"><ele>147.75</ele></trkpt>
   <trkpt lon="16.879183" lat="48.496313"><ele>147.5</ele></trkpt>
   <trkpt lon="16.878935" lat="48.495990"><ele>148.0</ele></trkpt>
   <trkpt lon="16.878182" lat="48.494924"><ele>148.0</ele></trkpt>
   <trkpt lon="16.877468" lat="48.493929"><ele>148.5</ele></trkpt>
   <trkpt lon="16.877094" lat="48.493409"><ele>148.0</ele></trkpt>
   <trkpt lon="16.875739" lat="48.491521"><ele>146.75</ele></trkpt>
   <trkpt lon="16.873869" lat="48.488916"><ele>145.75</ele></trkpt>
   <trkpt lon="16.873844" lat="48.488882"><ele>145.5</ele></trkpt>
   <trkpt lon="16.873295" lat="48.488117"><ele>146.25</ele></trkpt>
   <trkpt lon="16.869701" lat="48.483114"><ele>144.75</ele></trkpt>
   <trkpt lon="16.869676" lat="48.483079"><ele>144.75</ele></trkpt>
   <trkpt lon="16.869458" lat="48.482776"><ele>145.0</ele></trkpt>
   <trkpt lon="16.869187" lat="48.482402"><ele>145.75</ele></trkpt>
   <trkpt lon="16.868526" lat="48.481488"><ele>145.75</ele></trkpt>
   <trkpt lon="16.868349" lat="48.481243"><ele>145.75</ele></trkpt>
   <trkpt lon="16.868339" lat="48.481230"><ele>145.75</ele></trkpt>
   <trkpt lon="16.866488" lat="48.478651"><ele>145.0</ele></trkpt>
   <trkpt lon="16.866381" lat="48.478503"><ele>145.0</ele></trkpt>
   <trkpt lon="16.866361" lat="48.478475"><ele>145.0</ele></trkpt>
   <trkpt lon="16.866219" lat="48.478283"><ele>145.0</ele></trkpt>
   <trkpt lon="16.865850" lat="48.477840"><ele>145.0</ele></trkpt>
   <trkpt lon="16.865455" lat="48.477315"><ele>144.5</ele></trkpt>
   <trkpt lon="16.865117" lat="48.476840"><ele>144.5</ele></trkpt>
   <trkpt lon="16.861824" lat="48.472257"><ele>146.25</ele></trkpt>
   <trkpt lon="16.861382" lat="48.471735"><ele>147.0</ele></trkpt>
   <trkpt lon="16.859672" lat="48.469354"><ele>147.25</ele></trkpt>
   <trkpt lon="16.859660" lat="48.469336"><ele>147.25</ele></trkpt>
   <trkpt lon="16.859578" lat="48.469214"><ele>147.25</ele></trkpt>
   <trkpt lon="16.859442" lat="48.468970"><ele>147.25</ele></trkpt>
   <trkpt lon="16.859250" lat="48.468597"><ele>147.0</ele></trkpt>
   <trkpt lon="16.859186" lat="48.468485"><ele>147.0</ele></trkpt>
   <trkpt lon="16.859097" lat="48.468353"><ele>147.0</ele></trkpt>
   <trkpt lon="16.859033" lat="48.468262"><ele>147.0</ele></trkpt>
   <trkpt lon="16.858901" lat="48.468079"><ele>147.0</ele></trkpt>
   <trkpt lon="16.858109" lat="48.466976"><ele>146.25</ele></trkpt>
   <trkpt lon="16.858044" lat="48.466884"><ele>146.25</ele></trkpt>
   <trkpt lon="16.857576" lat="48.466236"><ele>146.75</ele></trkpt>
   <trkpt lon="16.857169" lat="48.465662"><ele>145.5</ele></trkpt>
   <trkpt lon="16.856234" lat="48.464346"><ele>145.25</ele></trkpt>
   <trkpt lon="16.853152" lat="48.460063"><ele>143.5</ele></trkpt>
   <trkpt lon="16.853036" lat="48.459904"><ele>143.5</ele></trkpt>
   <trkpt lon="16.852448" lat="48.459077"><ele>143.0</ele></trkpt>
   <trkpt lon="16.852272" lat="48.458830"><ele>143.5</ele></trkpt>
   <trkpt lon="16.851914" lat="48.458297"><ele>143.75</ele></trkpt>
   <trkpt lon="16.851411" lat="48.457505"><ele>143.25</ele></trkpt>
   <trkpt lon="16.851091" lat="48.456958"><ele>143.0</ele></trkpt>
   <trkpt lon="16.850781" lat="48.456399"><ele>143.5</ele></trkpt>
   <trkpt lon="16.850500" lat="48.455835"><ele>145.25</ele></trkpt>
   <trkpt lon="16.850230" lat="48.455272"><ele>145.0</ele></trkpt>
   <trkpt lon="16.850125" lat="48.455036"><ele>144.75</ele></trkpt>
   <trkpt lon="16.849979" lat="48.454710"><ele>144.5</ele></trkpt>
   <trkpt lon="16.849754" lat="48.454145"><ele>144.5</ele></trkpt>
   <trkpt lon="16.849547" lat="48.453577"><ele>145.25</ele></trkpt>
   <trkpt lon="16.849357" lat="48.453009"><ele>146.0</ele></trkpt>
   <trkpt lon="16.849187" lat="48.452434"><ele>146.75</ele></trkpt>
   <trkpt lon="16.848990" lat="48.451700"><ele>146.0</ele></trkpt>
   <trkpt lon="16.848911" lat="48.451344"><ele>146.5</ele></trkpt>
   <trkpt lon="16.848751" lat="48.450526"><ele>147.75</ele></trkpt>
   <trkpt lon="16.848683" lat="48.450119"><ele>148.75</ele></trkpt>
   <trkpt lon="16.848566" lat="48.449246"><ele>150.5</ele></trkpt>
   <trkpt lon="16.848480" lat="48.448246"><ele>148.25</ele></trkpt>
   <trkpt lon="16.847984" lat="48.439089"><ele>148.75</ele></trkpt>
   <trkpt lon="16.847300" lat="48.426455"><ele>148.0</ele></trkpt>
   <trkpt lon="16.847289" lat="48.426242"><ele>148.5</ele></trkpt>
   <trkpt lon="16.847246" lat="48.425346"><ele>149.75</ele></trkpt>
   <trkpt lon="16.847223" lat="48.424926"><ele>149.5</ele></trkpt>
   <trkpt lon="16.846974" lat="48.420421"><ele>145.75</ele></trkpt>
   <trkpt lon="16.846909" lat="48.419228"><ele>145.5</ele></trkpt>
   <trkpt lon="16.846905" lat="48.419162"><ele>145.5</ele></trkpt>
   <trkpt lon="16.846901" lat="48.419072"><ele>145.25</ele></trkpt>
   <trkpt lon="16.846899" lat="48.419039"><ele>145.25</ele></trkpt>
   <trkpt lon="16.846565" lat="48.412919"><ele>145.0</ele></trkpt>
   <trkpt lon="16.846494" lat="48.411595"><ele>146.75</ele></trkpt>
   <trkpt lon="16.846463" lat="48.410983"><ele>146.75</ele></trkpt>
   <trkpt lon="16.846453" lat="48.410815"><ele>146.75</ele></trkpt>
   <trkpt lon="16.846381" lat="48.409549"><ele>144.25</ele></trkpt>
   <trkpt lon="16.846379" lat="48.409512"><ele>144.25</ele></trkpt>
   <trkpt lon="16.846275" lat="48.407487"><ele>144.5</ele></trkpt>
   <trkpt lon="16.846091" lat="48.404159"><ele>148.0</ele></trkpt>
   <trkpt lon="16.846087" lat="48.404097"><ele>148.25</ele></trkpt>
   <trkpt lon="16.846010" lat="48.402756"><ele>154.75</ele></trkpt>
   <trkpt lon="16.845941" lat="48.402095"><ele>154.25</ele></trkpt>
   <trkpt lon="16.845829" lat="48.401508"><ele>152.25</ele></trkpt>
   <trkpt lon="16.845759" lat="48.401186"><ele>151.5</ele></trkpt>
   <trkpt lon="16.845681" lat="48.400901"><ele>151.25</ele></trkpt>
   <trkpt lon="16.845547" lat="48.400499"><ele>151.25</ele></trkpt>
   <trkpt lon="16.845348" lat="48.399994"><ele>150.25</ele></trkpt>
   <trkpt lon="16.845118" lat="48.399489"><ele>148.5</ele></trkpt>
   <trkpt lon="16.845010" lat="48.399289"><ele>147.75</ele></trkpt>
   <trkpt lon="16.844832" lat="48.398956"><ele>146.75</ele></trkpt>
   <trkpt lon="16.844494" lat="48.398418"><ele>146.0</ele></trkpt>
   <trkpt lon="16.844056" lat="48.397813"><ele>146.0</ele></trkpt>
   <trkpt lon="16.843569" lat="48.397223"><ele>145.5</ele></trkpt>
   <trkpt lon="16.843045" lat="48.396666"><ele>144.25</ele></trkpt>
   <trkpt lon="16.842471" lat="48.396122"><ele>144.25</ele></trkpt>
   <trkpt lon="16.841836" lat="48.395586"><ele>145.25</ele></trkpt>
   <trkpt lon="16.841154" lat="48.395073"><ele>145.0</ele></trkpt>
   <trkpt lon="16.839874" lat="48.394169"><ele>146.25</ele></trkpt>
   <trkpt lon="16.839844" lat="48.394148"><ele>146.5</ele></trkpt>
   <trkpt lon="16.839628" lat="48.393996"><ele>147.75</ele></trkpt>
   <trkpt lon="16.839591" lat="48.393970"><ele>148.0</ele></trkpt>
   <trkpt lon="16.838112" lat="48.392931"><ele>150.75</ele></trkpt>
   <trkpt lon="16.837426" lat="48.392450"><ele>150.0</ele></trkpt>
   <trkpt lon="16.837331" lat="48.392383"><ele>150.0</ele></trkpt>
   <trkpt lon="16.835573" lat="48.391152"><ele>150.0</ele></trkpt>
   <trkpt lon="16.834793" lat="48.390606"><ele>148.75</ele></trkpt>
   <trkpt lon="16.834721" lat="48.390556"><ele>148.5</ele></trkpt>
   <trkpt lon="16.834525" lat="48.390421"><ele>147.75</ele></trkpt>
   <trkpt lon="16.834361" lat="48.390305"><ele>147.25</ele></trkpt>
   <trkpt lon="16.834207" lat="48.390191"><ele>147.0</ele></trkpt>
   <trkpt lon="16.833892" lat="48.389922"><ele>147.0</ele></trkpt>
   <trkpt lon="16.833725" lat="48.389798"><ele>147.25</ele></trkpt>
   <trkpt lon="16.833601" lat="48.389710"><ele>147.5</ele></trkpt>
   <trkpt lon="16.833370" lat="48.389561"><ele>148.0</ele></trkpt>
   <trkpt lon="16.833089" lat="48.389401"><ele>148.75</ele></trkpt>
   <trkpt lon="16.832885" lat="48.389270"><ele>149.0</ele></trkpt>
   <trkpt lon="16.832709" lat="48.389148"><ele>148.75</ele></trkpt>
   <trkpt lon="16.831905" lat="48.388581"><ele>147.75</ele></trkpt>
   <trkpt lon="16.830661" lat="48.387708"><ele>146.75</ele></trkpt>
   <trkpt lon="16.830506" lat="48.387606"><ele>146.5</ele></trkpt>
   <trkpt lon="16.827555" lat="48.385520"><ele>148.0</ele></trkpt>
   <trkpt lon="16.826459" lat="48.384784"><ele>149.25</ele></trkpt>
   <trkpt lon="16.825847" lat="48.384376"><ele>149.5</ele></trkpt>
   <trkpt lon="16.825026" lat="48.383877"><ele>149.5</ele></trkpt>
   <trkpt lon="16.823829" lat="48.383168"><ele>148.5</ele></trkpt>
   <trkpt lon="16.823764" lat="48.383134"><ele>148.5</ele></trkpt>
   <trkpt lon="16.823599" lat="48.383040"><ele>149.0</ele></trkpt>
   <trkpt lon="16.822743" lat="48.382559"><ele>148.5</ele></trkpt>
   <trkpt lon="16.822315" lat="48.382327"><ele>148.0</ele></trkpt>
   <trkpt lon="16.821114" lat="48.381708"><ele>148.75</ele></trkpt>
   <trkpt lon="16.820785" lat="48.381538"><ele>148.75</ele></trkpt>
   <trkpt lon="16.820661" lat="48.381468"><ele>148.75</ele></trkpt>
   <trkpt lon="16.820386" lat="48.381291"><ele>148.75</ele></trkpt>
   <trkpt lon="16.820186" lat="48.381172"><ele>148.5</ele></trkpt>
   <trkpt lon="16.819959" lat="48.381056"><ele>148.25</ele></trkpt>
   <trkpt lon="16.817467" lat="48.379770"><ele>150.0</ele></trkpt>
   <trkpt lon="16.816252" lat="48.379142"><ele>150.5</ele></trkpt>
   <trkpt lon="16.805688" lat="48.373684"><ele>150.25</ele></trkpt>
   <trkpt lon="16.804505" lat="48.373073"><ele>150.5</ele></trkpt>
   <trkpt lon="16.790810" lat="48.365991"><ele>151.0</ele></trkpt>
   <trkpt lon="16.790613" lat="48.365889"><ele>151.0</ele></trkpt>
   <trkpt lon="16.790469" lat="48.365815"><ele>150.75</ele></trkpt>
   <trkpt lon="16.787222" lat="48.364136"><ele>150.25</ele></trkpt>
   <trkpt lon="16.786581" lat="48.363801"><ele>151.0</ele></trkpt>
   <trkpt lon="16.776559" lat="48.358616"><ele>149.75</ele></trkpt>
   <trkpt lon="16.769929" lat="48.355185"><ele>150.5</ele></trkpt>
   <trkpt lon="16.765030" lat="48.352653"><ele>152.25</ele></trkpt>
   <trkpt lon="16.764898" lat="48.352584"><ele>152.25</ele></trkpt>
   <trkpt lon="16.761601" lat="48.350877"><ele>152.0</ele></trkpt>
   <trkpt lon="16.761431" lat="48.350790"><ele>151.75</ele></trkpt>
   <trkpt lon="16.759792" lat="48.349936"><ele>150.0</ele></trkpt>
   <trkpt lon="16.759772" lat="48.349925"><ele>150.0</ele></trkpt>
   <trkpt lon="16.759623" lat="48.349850"><ele>150.0</ele></trkpt>
   <trkpt lon="16.759157" lat="48.349608"><ele>149.75</ele></trkpt>
   <trkpt lon="16.757396" lat="48.348698"><ele>148.75</ele></trkpt>
   <trkpt lon="16.757000" lat="48.348494"><ele>148.25</ele></trkpt>
   <trkpt lon="16.756796" lat="48.348389"><ele>148.0</ele></trkpt>
   <trkpt lon="16.756443" lat="48.348206"><ele>147.75</ele></trkpt>
   <trkpt lon="16.752617" lat="48.346223"><ele>149.25</ele></trkpt>
   <trkpt lon="16.752491" lat="48.346160"><ele>149.25</ele></trkpt>
   <trkpt lon="16.751731" lat="48.345769"><ele>148.75</ele></trkpt>
   <trkpt lon="16.751615" lat="48.345709"><ele>148.75</ele></trkpt>
   <trkpt lon="16.750787" lat="48.345304"><ele>149.25</ele></trkpt>
   <trkpt lon="16.749880" lat="48.344902"><ele>149.5</ele></trkpt>
   <trkpt lon="16.748975" lat="48.344522"><ele>149.0</ele></trkpt>
   <trkpt lon="16.748061" lat="48.344163"><ele>150.25</ele></trkpt>
   <trkpt lon="16.747247" lat="48.343866"><ele>149.75</ele></trkpt>
   <trkpt lon="16.747104" lat="48.343814"><ele>149.75</ele></trkpt>
   <trkpt lon="16.746968" lat="48.343765"><ele>149.75</ele></trkpt>
   <trkpt lon="16.746307" lat="48.343540"><ele>150.25</ele></trkpt>
   <trkpt lon="16.745159" lat="48.343171"><ele>151.25</ele></trkpt>
   <trkpt lon="16.744240" lat="48.342883"><ele>151.0</ele></trkpt>
   <trkpt lon="16.743622" lat="48.342702"><ele>151.25</ele></trkpt>
   <trkpt lon="16.743263" lat="48.342606"><ele>151.5</ele></trkpt>
   <trkpt lon="16.742372" lat="48.342395"><ele>151.25</ele></trkpt>
   <trkpt lon="16.741808" lat="48.342270"><ele>152.5</ele></trkpt>
   <trkpt lon="16.741743" lat="48.342257"><ele>152.75</ele></trkpt>
   <trkpt lon="16.741418" lat="48.342185"><ele>153.0</ele></trkpt>
   <trkpt lon="16.740177" lat="48.341912"><ele>154.0</ele></trkpt>
   <trkpt lon="16.730628" lat="48.339810"><ele>160.25</ele></trkpt>
   <trkpt lon="16.729152" lat="48.339481"><ele>164.0</ele></trkpt>
   <trkpt lon="16.728896" lat="48.339423"><ele>164.25</ele></trkpt>
   <trkpt lon="16.728489" lat="48.339346"><ele>164.75</ele></trkpt>
   <trkpt lon="16.727999" lat="48.339266"><ele>164.5</ele></trkpt>
   <trkpt lon="16.727677" lat="48.339200"><ele>164.0</ele></trkpt>
   <trkpt lon="16.727615" lat="48.339186"><ele>164.0</ele></trkpt>
   <trkpt lon="16.726667" lat="48.338975"><ele>163.0</ele></trkpt>
   <trkpt lon="16.724286" lat="48.338450"><ele>163.75</ele></trkpt>
   <trkpt lon="16.723133" lat="48.338196"><ele>161.0</ele></trkpt>
   <trkpt lon="16.722940" lat="48.338153"><ele>161.25</ele></trkpt>
   <trkpt lon="16.708241" lat="48.334916"><ele>161.0</ele></trkpt>
   <trkpt lon="16.702884" lat="48.333736"><ele>160.75</ele></trkpt>
   <trkpt lon="16.701443" lat="48.333419"><ele>160.5</ele></trkpt>
   <trkpt lon="16.687901" lat="48.330433"><ele>161.25</ele></trkpt>
   <trkpt lon="16.680546" lat="48.328806"><ele>163.5</ele></trkpt>
   <trkpt lon="16.678244" lat="48.328299"><ele>162.0</ele></trkpt>
   <trkpt lon="16.677946" lat="48.328234"><ele>162.5</ele></trkpt>
   <trkpt lon="16.675195" lat="48.327625"><ele>164.0</ele></trkpt>
   <trkpt lon="16.671610" lat="48.326832"><ele>163.5</ele></trkpt>
   <trkpt lon="16.663126" lat="48.324960"><ele>161.5</ele></trkpt>
   <trkpt lon="16.661110" lat="48.324514"><ele>161.0</ele></trkpt>
   <trkpt lon="16.657515" lat="48.323720"><ele>163.75</ele></trkpt>
   <trkpt lon="16.654062" lat="48.322958"><ele>160.5</ele></trkpt>
   <trkpt lon="16.653436" lat="48.322819"><ele>161.25</ele></trkpt>
   <trkpt lon="16.653423" lat="48.322816"><ele>161.25</ele></trkpt>
   <trkpt lon="16.652405" lat="48.322591"><ele>160.0</ele></trkpt>
   <trkpt lon="16.650597" lat="48.322191"><ele>161.25</ele></trkpt>
   <trkpt lon="16.650549" lat="48.322180"><ele>161.5</ele></trkpt>
   <trkpt lon="16.650501" lat="48.322169"><ele>161.5</ele></trkpt>
   <trkpt lon="16.650216" lat="48.322111"><ele>161.75</ele></trkpt>
   <trkpt lon="16.649704" lat="48.322025"><ele>161.75</ele></trkpt>
   <trkpt lon="16.649165" lat="48.321922"><ele>161.5</ele></trkpt>
   <trkpt lon="16.648706" lat="48.321820"><ele>161.75</ele></trkpt>
   <trkpt lon="16.638905" lat="48.319652"><ele>160.75</ele></trkpt>
   <trkpt lon="16.638164" lat="48.319486"><ele>161.0</ele></trkpt>
   <trkpt lon="16.638043" lat="48.319459"><ele>161.25</ele></trkpt>
   <trkpt lon="16.637879" lat="48.319421"><ele>161.75</ele></trkpt>
   <trkpt lon="16.637377" lat="48.319273"><ele>162.75</ele></trkpt>
   <trkpt lon="16.637126" lat="48.319210"><ele>162.5</ele></trkpt>
   <trkpt lon="16.636764" lat="48.319130"><ele>162.0</ele></trkpt>
   <trkpt lon="16.635581" lat="48.318868"><ele>162.75</ele></trkpt>
   <trkpt lon="16.635242" lat="48.318793"><ele>162.5</ele></trkpt>
   <trkpt lon="16.634569" lat="48.318645"><ele>162.0</ele></trkpt>
   <trkpt lon="16.634249" lat="48.318574"><ele>161.75</ele></trkpt>
   <trkpt lon="16.633925" lat="48.318502"><ele>161.75</ele></trkpt>
   <trkpt lon="16.633590" lat="48.318428"><ele>161.75</ele></trkpt>
   <trkpt lon="16.631927" lat="48.318060"><ele>162.0</ele></trkpt>
   <trkpt lon="16.630740" lat="48.317797"><ele>161.5</ele></trkpt>
   <trkpt lon="16.630367" lat="48.317706"><ele>161.25</ele></trkpt>
   <trkpt lon="16.629879" lat="48.317570"><ele>161.0</ele></trkpt>
   <trkpt lon="16.629499" lat="48.317477"><ele>161.0</ele></trkpt>
   <trkpt lon="16.629454" lat="48.317467"><ele>161.0</ele></trkpt>
   <trkpt lon="16.628836" lat="48.317332"><ele>161.25</ele></trkpt>
   <trkpt lon="16.627829" lat="48.317107"><ele>161.5</ele></trkpt>
   <trkpt lon="16.626080" lat="48.316720"><ele>160.25</ele></trkpt>
   <trkpt lon="16.624659" lat="48.316406"><ele>160.0</ele></trkpt>
   <trkpt lon="16.621080" lat="48.315614"><ele>161.5</ele></trkpt>
   <trkpt lon="16.617425" lat="48.314805"><ele>161.75</ele></trkpt>
   <trkpt lon="16.617316" lat="48.314781"><ele>161.75</ele></trkpt>
   <trkpt lon="16.611849" lat="48.313574"><ele>161.25</ele></trkpt>
   <trkpt lon="16.604686" lat="48.311989"><ele>160.5</ele></trkpt>
   <trkpt lon="16.598828" lat="48.310691"><ele>161.25</ele></trkpt>
   <trkpt lon="16.597668" lat="48.310434"><ele>161.0</ele></trkpt>
   <trkpt lon="16.597418" lat="48.310378"><ele>160.75</ele></trkpt>
   <trkpt lon="16.596483" lat="48.310169"><ele>160.5</ele></trkpt>
   <trkpt lon="16.596218" lat="48.310110"><ele>160.25</ele></trkpt>
   <trkpt lon="16.596035" lat="48.310068"><ele>160.0</ele></trkpt>
   <trkpt lon="16.595864" lat="48.310030"><ele>160.0</ele></trkpt>
   <trkpt lon="16.595399" lat="48.309926"><ele>160.5</ele></trkpt>
   <trkpt lon="16.588025" lat="48.308297"><ele>160.0</ele></trkpt>
   <trkpt lon="16.582863" lat="48.307153"><ele>162.75</ele></trkpt>
   <trkpt lon="16.581145" lat="48.306774"><ele>163.0</ele></trkpt>
   <trkpt lon="16.581016" lat="48.306745"><ele>163.0</ele></trkpt>
   <trkpt lon="16.580778" lat="48.306693"><ele>162.75</ele></trkpt>
   <trkpt lon="16.580635" lat="48.306660"><ele>162.5</ele></trkpt>
   <trkpt lon="16.578567" lat="48.306202"><ele>163.25</ele></trkpt>
   <trkpt lon="16.576066" lat="48.305648"><ele>158.25</ele></trkpt>
   <trkpt lon="16.574648" lat="48.305334"><ele>158.25</ele></trkpt>
   <trkpt lon="16.573047" lat="48.304979"><ele>159.0</ele></trkpt>
   <trkpt lon="16.572728" lat="48.304909"><ele>159.0</ele></trkpt>
   <trkpt lon="16.568358" lat="48.303940"><ele>160.0</ele></trkpt>
   <trkpt lon="16.567978" lat="48.303848"><ele>159.75</ele></trkpt>
   <trkpt lon="16.567304" lat="48.303662"><ele>158.5</ele></trkpt>
   <trkpt lon="16.566793" lat="48.303547"><ele>157.5</ele></trkpt>
   <trkpt lon="16.564345" lat="48.303004"><ele>158.25</ele></trkpt>
   <trkpt lon="16.563462" lat="48.302808"><ele>157.75</ele></trkpt>
   <trkpt lon="16.561127" lat="48.302290"><ele>155.0</ele></trkpt>
   <trkpt lon="16.560764" lat="48.302210"><ele>154.75</ele></trkpt>
   <trkpt lon="16.558865" lat="48.301789"><ele>153.25</ele></trkpt>
   <trkpt lon="16.558295" lat="48.301665"><ele>153.0</ele></trkpt>
   <trkpt lon="16.557584" lat="48.301544"><ele>153.0</ele></trkpt>
   <trkpt lon="16.557203" lat="48.301467"><ele>153.0</ele></trkpt>
   <trkpt lon="16.555814" lat="48.301159"><ele>153.0</ele></trkpt>
   <trkpt lon="16.555494" lat="48.301088"><ele>153.25</ele></trkpt>
   <trkpt lon="16.555117" lat="48.301012"><ele>153.5</ele></trkpt>
   <trkpt lon="16.554575" lat="48.300922"><ele>153.75</ele></trkpt>
   <trkpt lon="16.554214" lat="48.300850"><ele>153.75</ele></trkpt>
   <trkpt lon="16.554175" lat="48.300842"><ele>153.75</ele></trkpt>
   <trkpt lon="16.552935" lat="48.300567"><ele>154.0</ele></trkpt>
   <trkpt lon="16.552392" lat="48.300447"><ele>154.25</ele></trkpt>
   <trkpt lon="16.552122" lat="48.300388"><ele>154.0</ele></trkpt>
   <trkpt lon="16.551331" lat="48.300213"><ele>153.25</ele></trkpt>
   <trkpt lon="16.551173" lat="48.300178"><ele>153.0</ele></trkpt>
   <trkpt lon="16.550813" lat="48.300099"><ele>153.0</ele></trkpt>
   <trkpt lon="16.550458" lat="48.300020"><ele>153.25</ele></trkpt>
   <trkpt lon="16.550147" lat="48.299952"><ele>153.75</ele></trkpt>
   <trkpt lon="16.541443" lat="48.298013"><ele>155.25</ele></trkpt>
   <trkpt lon="16.536286" lat="48.296867"><ele>154.0</ele></trkpt>
   <trkpt lon="16.527636" lat="48.294950"><ele>156.0</ele></trkpt>
   <trkpt lon="16.519653" lat="48.293176"><ele>156.0</ele></trkpt>
   <trkpt lon="16.516671" lat="48.292514"><ele>155.0</ele></trkpt>
   <trkpt lon="16.513886" lat="48.291894"><ele>155.25</ele></trkpt>
   <trkpt lon="16.513313" lat="48.291767"><ele>156.0</ele></trkpt>
   <trkpt lon="16.510715" lat="48.291191"><ele>156.25</ele></trkpt>
   <trkpt lon="16.506117" lat="48.290167"><ele>156.5</ele></trkpt>
   <trkpt lon="16.506071" lat="48.290156"><ele>156.5</ele></trkpt>
   <trkpt lon="16.504585" lat="48.289826"><ele>155.75</ele></trkpt>
   <trkpt lon="16.504517" lat="48.289811"><ele>155.75</ele></trkpt>
   <trkpt lon="16.504182" lat="48.289736"><ele>155.5</ele></trkpt>
   <trkpt lon="16.501944" lat="48.289239"><ele>157.5</ele></trkpt>
   <trkpt lon="16.501923" lat="48.289234"><ele>157.5</ele></trkpt>
   <trkpt lon="16.501790" lat="48.289205"><ele>157.75</ele></trkpt>
   <trkpt lon="16.501548" lat="48.289151"><ele>158.0</ele></trkpt>
   <trkpt lon="16.501421" lat="48.289123"><ele>158.0</ele></trkpt>
   <trkpt lon="16.500345" lat="48.288888"><ele>155.75</ele></trkpt>
   <trkpt lon="16.499320" lat="48.288661"><ele>154.25</ele></trkpt>
   <trkpt lon="16.498989" lat="48.288588"><ele>154.25</ele></trkpt>
   <trkpt lon="16.496848" lat="48.288112"><ele>156.75</ele></trkpt>
   <trkpt lon="16.496434" lat="48.288009"><ele>157.0</ele></trkpt>
   <trkpt lon="16.495929" lat="48.287868"><ele>157.0</ele></trkpt>
   <trkpt lon="16.495621" lat="48.287795"><ele>157.0</ele></trkpt>
   <trkpt lon="16.495434" lat="48.287753"><ele>157.0</ele></trkpt>
   <trkpt lon="16.495137" lat="48.287681"><ele>157.25</ele></trkpt>
   <trkpt lon="16.494363" lat="48.287469"><ele>158.5</ele></trkpt>
   <trkpt lon="16.493781" lat="48.287338"><ele>158.25</ele></trkpt>
   <trkpt lon="16.487791" lat="48.286004"><ele>157.5</ele></trkpt>
   <trkpt lon="16.487096" lat="48.285812"><ele>157.5</ele></trkpt>
   <trkpt lon="16.486809" lat="48.285742"><ele>157.25</ele></trkpt>
   <trkpt lon="16.485596" lat="48.285471"><ele>159.0</ele></trkpt>
   <trkpt lon="16.484487" lat="48.285224"><ele>158.5</ele></trkpt>
   <trkpt lon="16.484186" lat="48.285167"><ele>158.0</ele></trkpt>
   <trkpt lon="16.483932" lat="48.285130"><ele>158.25</ele></trkpt>
   <trkpt lon="16.483554" lat="48.285061"><ele>158.75</ele></trkpt>
   <trkpt lon="16.482379" lat="48.284800"><ele>157.75</ele></trkpt>
   <trkpt lon="16.481992" lat="48.284709"><ele>157.25</ele></trkpt>
   <trkpt lon="16.481765" lat="48.284648"><ele>157.0</ele></trkpt>
   <trkpt lon="16.481628" lat="48.284605"><ele>156.75</ele></trkpt>
   <trkpt lon="16.481201" lat="48.284465"><ele>157.5</ele></trkpt>
   <trkpt lon="16.481005" lat="48.284388"><ele>158.0</ele></trkpt>
   <trkpt lon="16.480875" lat="48.284329"><ele>158.25</ele></trkpt>
   <trkpt lon="16.480640" lat="48.284207"><ele>159.0</ele></trkpt>
   <trkpt lon="16.480439" lat="48.284085"><ele>159.25</ele></trkpt>
   <trkpt lon="16.480284" lat="48.283971"><ele>159.0</ele></trkpt>
   <trkpt lon="16.480116" lat="48.283834"><ele>158.75</ele></trkpt>
   <trkpt lon="16.479972" lat="48.283693"><ele>158.25</ele></trkpt>
   <trkpt lon="16.479824" lat="48.283517"><ele>157.75</ele></trkpt>
   <trkpt lon="16.479694" lat="48.283331"><ele>157.25</ele></trkpt>
   <trkpt lon="16.479583" lat="48.283145"><ele>157.0</ele></trkpt>
   <trkpt lon="16.479557" lat="48.283106"><ele>157.0</ele></trkpt>
   <trkpt lon="16.479487" lat="48.282967"><ele>156.75</ele></trkpt>
   <trkpt lon="16.479387" lat="48.282717"><ele>156.25</ele></trkpt>
   <trkpt lon="16.479313" lat="48.282572"><ele>156.0</ele></trkpt>
   <trkpt lon="16.479121" lat="48.282212"><ele>157.25</ele></trkpt>
   <trkpt lon="16.479083" lat="48.282140"><ele>157.75</ele></trkpt>
   <trkpt lon="16.478993" lat="48.281994"><ele>158.25</ele></trkpt>
   <trkpt lon="16.478722" lat="48.281604"><ele>159.25</ele></trkpt>
   <trkpt lon="16.478537" lat="48.281327"><ele>159.25</ele></trkpt>
   <trkpt lon="16.478293" lat="48.280977"><ele>159.75</ele></trkpt>
   <trkpt lon="16.478018" lat="48.280587"><ele>159.0</ele></trkpt>
   <trkpt lon="16.477898" lat="48.280388"><ele>158.5</ele></trkpt>
   <trkpt lon="16.477784" lat="48.280153"><ele>158.0</ele></trkpt>
   <trkpt lon="16.477124" lat="48.278865"><ele>157.0</ele></trkpt>
   <trkpt lon="16.475833" lat="48.276382"><ele>157.5</ele></trkpt>
   <trkpt lon="16.475709" lat="48.276160"><ele>157.25</ele></trkpt>
   <trkpt lon="16.475572" lat="48.275960"><ele>157.0</ele></trkpt>
   <trkpt lon="16.475489" lat="48.275857"><ele>157.0</ele></trkpt>
   <trkpt lon="16.475412" lat="48.275743"><ele>157.25</ele></trkpt>
   <trkpt lon="16.475367" lat="48.275664"><ele>157.5</ele></trkpt>
   <trkpt lon="16.475276" lat="48.275533"><ele>157.75</ele></trkpt>
   <trkpt lon="16.475060" lat="48.275254"><ele>158.75</ele></trkpt>
   <trkpt lon="16.475009" lat="48.275172"><ele>159.25</ele></trkpt>
   <trkpt lon="16.474972" lat="48.275116"><ele>159.5</ele></trkpt>
   <trkpt lon="16.474938" lat="48.275054"><ele>159.5</ele></trkpt>
   <trkpt lon="16.474739" lat="48.274706"><ele>160.0</ele></trkpt>
   <trkpt lon="16.474574" lat="48.274389"><ele>160.25</ele></trkpt>
   <trkpt lon="16.474340" lat="48.274007"><ele>160.0</ele></trkpt>
   <trkpt lon="16.474228" lat="48.273795"><ele>159.25</ele></trkpt>
   <trkpt lon="16.474069" lat="48.273470"><ele>158.25</ele></trkpt>
   <trkpt lon="16.473920" lat="48.273162"><ele>157.25</ele></trkpt>
   <trkpt lon="16.473724" lat="48.272754"><ele>155.5</ele></trkpt>
   <trkpt lon="16.473604" lat="48.272527"><ele>154.75</ele></trkpt>
   <trkpt lon="16.473421" lat="48.272232"><ele>154.75</ele></trkpt>
   <trkpt lon="16.473276" lat="48.271963"><ele>155.0</ele></trkpt>
   <trkpt lon="16.473263" lat="48.271937"><ele>154.75</ele></trkpt>
   <trkpt lon="16.473187" lat="48.271780"><ele>154.75</ele></trkpt>
   <trkpt lon="16.472769" lat="48.270921"><ele>158.75</ele></trkpt>
   <trkpt lon="16.472263" lat="48.269873"><ele>158.25</ele></trkpt>
   <trkpt lon="16.471430" lat="48.268161"><ele>158.5</ele></trkpt>
   <trkpt lon="16.471392" lat="48.268079"><ele>158.75</ele></trkpt>
   <trkpt lon="16.470908" lat="48.267083"><ele>158.25</ele></trkpt>
   <trkpt lon="16.470885" lat="48.267032"><ele>158.25</ele></trkpt>
   <trkpt lon="16.470617" lat="48.266473"><ele>158.25</ele></trkpt>
   <trkpt lon="16.468713" lat="48.262540"><ele>162.0</ele></trkpt>
   <trkpt lon="16.468166" lat="48.261410"><ele>158.0</ele></trkpt>
   <trkpt lon="16.468060" lat="48.261191"><ele>158.5</ele></trkpt>
   <trkpt lon="16.467896" lat="48.260852"><ele>159.5</ele></trkpt>
   <trkpt lon="16.466850" lat="48.258690"><ele>158.75</ele></trkpt>
   <trkpt lon="16.466291" lat="48.257553"><ele>158.5</ele></trkpt>
   <trkpt lon="16.464905" lat="48.254816"><ele>157.0</ele></trkpt>
   <trkpt lon="16.464387" lat="48.253758"><ele>158.5</ele></trkpt>
   <trkpt lon="16.463625" lat="48.252185"><ele>155.75</ele></trkpt>
   <trkpt lon="16.463554" lat="48.252041"><ele>156.0</ele></trkpt>
   <trkpt lon="16.462824" lat="48.250507"><ele>157.25</ele></trkpt>
   <trkpt lon="16.462076" lat="48.248876"><ele>155.75</ele></trkpt>
   <trkpt lon="16.461337" lat="48.247306"><ele>156.75</ele></trkpt>
   <trkpt lon="16.459891" lat="48.244321"><ele>155.25</ele></trkpt>
   <trkpt lon="16.459474" lat="48.243458"><ele>155.5</ele></trkpt>
   <trkpt lon="16.458726" lat="48.241915"><ele>154.75</ele></trkpt>
   <trkpt lon="16.458675" lat="48.241814"><ele>154.5</ele></trkpt>
   <trkpt lon="16.458657" lat="48.241774"><ele>154.5</ele></trkpt>
   <trkpt lon="16.458561" lat="48.241574"><ele>154.5</ele></trkpt>
   <trkpt lon="16.458386" lat="48.241214"><ele>154.75</ele></trkpt>
   <trkpt lon="16.458354" lat="48.241142"><ele>154.75</ele></trkpt>
   <trkpt lon="16.458313" lat="48.241061"><ele>155.0</ele></trkpt>
   <trkpt lon="16.458098" lat="48.240618"><ele>155.5</ele></trkpt>
   <trkpt lon="16.457917" lat="48.240245"><ele>156.0</ele></trkpt>
   <trkpt lon="16.454129" lat="48.232412"><ele>156.0</ele></trkpt>
   <trkpt lon="16.453630" lat="48.231365"><ele>156.25</ele></trkpt>
   <trkpt lon="16.453150" lat="48.230232"><ele>157.0</ele></trkpt>
   <trkpt lon="16.453113" lat="48.230142"><ele>157.0</ele></trkpt>
   <trkpt lon="16.452897" lat="48.229639"><ele>156.5</ele></trkpt>
   <trkpt lon="16.452848" lat="48.229530"><ele>156.5</ele></trkpt>
   <trkpt lon="16.452746" lat="48.229261"><ele>156.75</ele></trkpt>
   <trkpt lon="16.452638" lat="48.228922"><ele>157.25</ele></trkpt>
   <trkpt lon="16.452538" lat="48.228640"><ele>157.5</ele></trkpt>
   <trkpt lon="16.452478" lat="48.228490"><ele>157.75</ele></trkpt>
   <trkpt lon="16.452408" lat="48.228343"><ele>157.75</ele></trkpt>
   <trkpt lon="16.452391" lat="48.228305"><ele>157.5</ele></trkpt>
   <trkpt lon="16.452213" lat="48.227952"><ele>157.25</ele></trkpt>
   <trkpt lon="16.452171" lat="48.227848"><ele>157.25</ele></trkpt>
   <trkpt lon="16.452071" lat="48.227536"><ele>157.25</ele></trkpt>
   <trkpt lon="16.452022" lat="48.227424"><ele>157.25</ele></trkpt>
   <trkpt lon="16.452003" lat="48.227385"><ele>157.25</ele></trkpt>
   <trkpt lon="16.451816" lat="48.227015"><ele>157.25</ele></trkpt>
   <trkpt lon="16.451554" lat="48.226543"><ele>156.75</ele></trkpt>
   <trkpt lon="16.451538" lat="48.226514"><ele>156.75</ele></trkpt>
   <trkpt lon="16.451118" lat="48.225770"><ele>157.25</ele></trkpt>
   <trkpt lon="16.450895" lat="48.225348"><ele>158.5</ele></trkpt>
   <trkpt lon="16.450769" lat="48.225092"><ele>158.5</ele></trkpt>
   <trkpt lon="16.450636" lat="48.224796"><ele>157.75</ele></trkpt>
   <trkpt lon="16.450448" lat="48.224301"><ele>156.5</ele></trkpt>
   <trkpt lon="16.450338" lat="48.224068"><ele>156.5</ele></trkpt>
   <trkpt lon="16.450058" lat="48.223459"><ele>156.75</ele></trkpt>
   <trkpt lon="16.449886" lat="48.223015"><ele>157.5</ele></trkpt>
   <trkpt lon="16.449775" lat="48.222652"><ele>158.25</ele></trkpt>
   <trkpt lon="16.449662" lat="48.222135"><ele>158.25</ele></trkpt>
   <trkpt lon="16.449620" lat="48.221943"><ele>158.0</ele></trkpt>
   <trkpt lon="16.449525" lat="48.221588"><ele>157.75</ele></trkpt>
   <trkpt lon="16.449340" lat="48.221060"><ele>157.25</ele></trkpt>
   <trkpt lon="16.449324" lat="48.221020"><ele>157.25</ele></trkpt>
   <trkpt lon="16.448821" lat="48.219636"><ele>159.25</ele></trkpt>
   <trkpt lon="16.448786" lat="48.219548"><ele>159.25</ele></trkpt>
   <trkpt lon="16.448709" lat="48.219358"><ele>159.0</ele></trkpt>
   <trkpt lon="16.448698" lat="48.219335"><ele>159.0</ele></trkpt>
   <trkpt lon="16.448654" lat="48.219243"><ele>159.0</ele></trkpt>
   <trkpt lon="16.448650" lat="48.219236"><ele>159.0</ele></trkpt>
   <trkpt lon="16.448615" lat="48.219176"><ele>159.0</ele></trkpt>
   <trkpt lon="16.448462" lat="48.218899"><ele>157.5</ele></trkpt>
   <trkpt lon="16.448293" lat="48.218555"><ele>156.5</ele></trkpt>
   <trkpt lon="16.448179" lat="48.218283"><ele>156.25</ele></trkpt>
   <trkpt lon="16.448096" lat="48.218059"><ele>157.25</ele></trkpt>
   <trkpt lon="16.448039" lat="48.217853"><ele>158.0</ele></trkpt>
   <trkpt lon="16.447997" lat="48.217664"><ele>158.75</ele></trkpt>
   <trkpt lon="16.447970" lat="48.217518"><ele>159.0</ele></trkpt>
   <trkpt lon="16.447943" lat="48.217298"><ele>158.5</ele></trkpt>
   <trkpt lon="16.447930" lat="48.217077"><ele>158.25</ele></trkpt>
   <trkpt lon="16.447932" lat="48.216743"><ele>157.5</ele></trkpt>
   <trkpt lon="16.447945" lat="48.216560"><ele>157.5</ele></trkpt>
   <trkpt lon="16.447994" lat="48.216221"><ele>158.25</ele></trkpt>
   <trkpt lon="16.448056" lat="48.215982"><ele>158.25</ele></trkpt>
   <trkpt lon="16.448257" lat="48.215303"><ele>160.25</ele></trkpt>
   <trkpt lon="16.448281" lat="48.215224"><ele>160.5</ele></trkpt>
   <trkpt lon="16.448348" lat="48.214955"><ele>161.75</ele></trkpt>
   <trkpt lon="16.448414" lat="48.214589"><ele>160.5</ele></trkpt>
   <trkpt lon="16.448472" lat="48.214369"><ele>160.0</ele></trkpt>
   <trkpt lon="16.448480" lat="48.214341"><ele>159.75</ele></trkpt>
   <trkpt lon="16.448500" lat="48.214262"><ele>159.75</ele></trkpt>
   <trkpt lon="16.448659" lat="48.213699"><ele>159.25</ele></trkpt>
   <trkpt lon="16.448771" lat="48.213258"><ele>159.5</ele></trkpt>
   <trkpt lon="16.448888" lat="48.212749"><ele>160.25</ele></trkpt>
   <trkpt lon="16.449055" lat="48.212021"><ele>159.5</ele></trkpt>
   <trkpt lon="16.449153" lat="48.211682"><ele>159.0</ele></trkpt>
   <trkpt lon="16.449224" lat="48.211445"><ele>158.5</ele></trkpt>
   <trkpt lon="16.449319" lat="48.211123"><ele>158.0</ele></trkpt>
   <trkpt lon="16.449478" lat="48.210440"><ele>158.0</ele></trkpt>
   <trkpt lon="16.449572" lat="48.210115"><ele>158.75</ele></trkpt>
   <trkpt lon="16.449580" lat="48.210091"><ele>158.75</ele></trkpt>
   <trkpt lon="16.449713" lat="48.209660"><ele>160.25</ele></trkpt>
   <trkpt lon="16.449980" lat="48.208775"><ele>160.0</ele></trkpt>
   <trkpt lon="16.450071" lat="48.208391"><ele>159.0</ele></trkpt>
   <trkpt lon="16.450102" lat="48.208204"><ele>159.0</ele></trkpt>
   <trkpt lon="16.450127" lat="48.207955"><ele>159.25</ele></trkpt>
   <trkpt lon="16.450131" lat="48.207771"><ele>159.25</ele></trkpt>
   <trkpt lon="16.450122" lat="48.207530"><ele>159.5</ele></trkpt>
   <trkpt lon="16.450078" lat="48.207216"><ele>159.75</ele></trkpt>
   <trkpt lon="16.450033" lat="48.207020"><ele>159.75</ele></trkpt>
   <trkpt lon="16.449972" lat="48.206808"><ele>160.0</ele></trkpt>
   <trkpt lon="16.449921" lat="48.206668"><ele>160.0</ele></trkpt>
   <trkpt lon="16.449784" lat="48.206361"><ele>159.75</ele></trkpt>
   <trkpt lon="16.449590" lat="48.206029"><ele>159.5</ele></trkpt>
   <trkpt lon="16.449489" lat="48.205880"><ele>159.5</ele></trkpt>
   <trkpt lon="16.449385" lat="48.205744"><ele>159.75</ele></trkpt>
   <trkpt lon="16.449246" lat="48.205581"><ele>159.75</ele></trkpt>
   <trkpt lon="16.449031" lat="48.205347"><ele>159.75</ele></trkpt>
   <trkpt lon="16.448729" lat="48.205069"><ele>159.75</ele></trkpt>
   <trkpt lon="16.448312" lat="48.204738"><ele>159.75</ele></trkpt>
   <trkpt lon="16.448007" lat="48.204519"><ele>159.75</ele></trkpt>
   <trkpt lon="16.441964" lat="48.200184"><ele>160.75</ele></trkpt>
   <trkpt lon="16.441828" lat="48.200087"><ele>160.75</ele></trkpt>
   <trkpt lon="16.441272" lat="48.199690"><ele>160.75</ele></trkpt>
   <trkpt lon="16.441044" lat="48.199524"><ele>161.0</ele></trkpt>
   <trkpt lon="16.440162" lat="48.198881"><ele>161.0</ele></trkpt>
   <trkpt lon="16.439762" lat="48.198568"><ele>159.75</ele></trkpt>
   <trkpt lon="16.439751" lat="48.198560"><ele>159.75</ele></trkpt>
   <trkpt lon="16.439351" lat="48.198215"><ele>158.75</ele></trkpt>
   <trkpt lon="16.439127" lat="48.197993"><ele>159.25</ele></trkpt>
   <trkpt lon="16.438759" lat="48.197590"><ele>161.75</ele></trkpt>
   <trkpt lon="16.438651" lat="48.197461"><ele>162.25</ele></trkpt>
   <trkpt lon="16.438371" lat="48.197117"><ele>162.75</ele></trkpt>
   <trkpt lon="16.437924" lat="48.196486"><ele>165.25</ele></trkpt>
   <trkpt lon="16.437551" lat="48.195923"><ele>167.5</ele></trkpt>
   <trkpt lon="16.437470" lat="48.195801"><ele>167.75</ele></trkpt>
   <trkpt lon="16.436361" lat="48.194116"><ele>165.0</ele></trkpt>
   <trkpt lon="16.436152" lat="48.193801"><ele>164.0</ele></trkpt>
   <trkpt lon="16.435740" lat="48.193181"><ele>163.0</ele></trkpt>
   <trkpt lon="16.435367" lat="48.192623"><ele>162.0</ele></trkpt>
   <trkpt lon="16.435111" lat="48.192237"><ele>161.75</ele></trkpt>
   <trkpt lon="16.434823" lat="48.191821"><ele>163.0</ele></trkpt>
   <trkpt lon="16.434797" lat="48.191782"><ele>163.25</ele></trkpt>
   <trkpt lon="16.434114" lat="48.190828"><ele>164.0</ele></trkpt>
   <trkpt lon="16.433384" lat="48.189739"><ele>164.0</ele></trkpt>
   <trkpt lon="16.432979" lat="48.189124"><ele>162.0</ele></trkpt>
   <trkpt lon="16.432746" lat="48.188769"><ele>162.25</ele></trkpt>
   <trkpt lon="16.432602" lat="48.188549"><ele>162.25</ele></trkpt>
   <trkpt lon="16.432084" lat="48.187754"><ele>157.25</ele></trkpt>
   <trkpt lon="16.431749" lat="48.187239"><ele>153.0</ele></trkpt>
   <trkpt lon="16.431660" lat="48.187103"><ele>153.5</ele></trkpt>
   <trkpt lon="16.431569" lat="48.186964"><ele>154.0</ele></trkpt>
   <trkpt lon="16.430924" lat="48.185989"><ele>158.0</ele></trkpt>
   <trkpt lon="16.430908" lat="48.185965"><ele>158.0</ele></trkpt>
   <trkpt lon="16.430784" lat="48.185776"><ele>158.75</ele></trkpt>
   <trkpt lon="16.430464" lat="48.185288"><ele>159.0</ele></trkpt>
   <trkpt lon="16.429809" lat="48.184290"><ele>161.25</ele></trkpt>
   <trkpt lon="16.429421" lat="48.183703"><ele>158.0</ele></trkpt>
   <trkpt lon="16.429387" lat="48.183650"><ele>157.75</ele></trkpt>
   <trkpt lon="16.429376" lat="48.183633"><ele>157.75</ele></trkpt>
   <trkpt lon="16.427225" lat="48.180368"><ele>159.0</ele></trkpt>
   <trkpt lon="16.427139" lat="48.180236"><ele>159.25</ele></trkpt>
   <trkpt lon="16.426789" lat="48.179702"><ele>159.0</ele></trkpt>
   <trkpt lon="16.426782" lat="48.179692"><ele>159.0</ele></trkpt>
   <trkpt lon="16.426720" lat="48.179601"><ele>158.5</ele></trkpt>
   <trkpt lon="16.426635" lat="48.179469"><ele>157.75</ele></trkpt>
   <trkpt lon="16.426525" lat="48.179300"><ele>156.75</ele></trkpt>
   <trkpt lon="16.426198" lat="48.178797"><ele>156.25</ele></trkpt>
   <trkpt lon="16.425655" lat="48.177978"><ele>157.0</ele></trkpt>
   <trkpt lon="16.425641" lat="48.177958"><ele>157.0</ele></trkpt>
   <trkpt lon="16.425479" lat="48.177689"><ele>156.75</ele></trkpt>
   <trkpt lon="16.425348" lat="48.177436"><ele>157.0</ele></trkpt>
   <trkpt lon="16.425219" lat="48.177228"><ele>157.25</ele></trkpt>
   <trkpt lon="16.425198" lat="48.177195"><ele>157.25</ele></trkpt>
   <trkpt lon="16.425109" lat="48.177061"><ele>157.5</ele></trkpt>
   <trkpt lon="16.424152" lat="48.175607"><ele>159.75</ele></trkpt>
   <trkpt lon="16.424050" lat="48.175451"><ele>160.0</ele></trkpt>
   <trkpt lon="16.423973" lat="48.175335"><ele>160.0</ele></trkpt>
   <trkpt lon="16.423725" lat="48.175022"><ele>160.0</ele></trkpt>
   <trkpt lon="16.423536" lat="48.174758"><ele>159.25</ele></trkpt>
   <trkpt lon="16.423513" lat="48.174722"><ele>159.25</ele></trkpt>
   <trkpt lon="16.422187" lat="48.172711"><ele>161.0</ele></trkpt>
   <trkpt lon="16.422132" lat="48.172628"><ele>161.25</ele></trkpt>
   <trkpt lon="16.421819" lat="48.172181"><ele>161.0</ele></trkpt>
   <trkpt lon="16.421607" lat="48.171910"><ele>162.0</ele></trkpt>
   <trkpt lon="16.421343" lat="48.171607"><ele>164.0</ele></trkpt>
   <trkpt lon="16.420944" lat="48.171207"><ele>166.5</ele></trkpt>
   <trkpt lon="16.420568" lat="48.170878"><ele>167.5</ele></trkpt>
   <trkpt lon="16.420504" lat="48.170827"><ele>167.75</ele></trkpt>
   <trkpt lon="16.420243" lat="48.170623"><ele>168.75</ele></trkpt>
   <trkpt lon="16.419878" lat="48.170359"><ele>170.0</ele></trkpt>
   <trkpt lon="16.419467" lat="48.170091"><ele>171.75</ele></trkpt>
   <trkpt lon="16.417245" lat="48.168716"><ele>174.0</ele></trkpt>
   <trkpt lon="16.417134" lat="48.168645"><ele>174.0</ele></trkpt>
   <trkpt lon="16.416918" lat="48.168513"><ele>174.0</ele></trkpt>
   <trkpt lon="16.416485" lat="48.168256"><ele>174.0</ele></trkpt>
   <trkpt lon="16.416195" lat="48.168100"><ele>174.5</ele></trkpt>
   <trkpt lon="16.415942" lat="48.167973"><ele>175.0</ele></trkpt>
   <trkpt lon="16.415680" lat="48.167852"><ele>176.0</ele></trkpt>
   <trkpt lon="16.415427" lat="48.167744"><ele>177.25</ele></trkpt>
   <trkpt lon="16.415198" lat="48.167655"><ele>178.0</ele></trkpt>
   <trkpt lon="16.414664" lat="48.167469"><ele>179.75</ele></trkpt>
   <trkpt lon="16.414163" lat="48.167326"><ele>180.5</ele></trkpt>
   <trkpt lon="16.413484" lat="48.167184"><ele>180.75</ele></trkpt>
   <trkpt lon="16.413080" lat="48.167118"><ele>181.0</ele></trkpt>
   <trkpt lon="16.412751" lat="48.167077"><ele>181.25</ele></trkpt>
   <trkpt lon="16.412217" lat="48.167029"><ele>181.25</ele></trkpt>
   <trkpt lon="16.411882" lat="48.167012"><ele>182.75</ele></trkpt>
   <trkpt lon="16.411504" lat="48.167008"><ele>184.5</ele></trkpt>
   <trkpt lon="16.411122" lat="48.167016"><ele>186.5</ele></trkpt>
   <trkpt lon="16.410669" lat="48.167046"><ele>187.75</ele></trkpt>
   <trkpt lon="16.410112" lat="48.167104"><ele>187.0</ele></trkpt>
   <trkpt lon="16.409637" lat="48.167174"><ele>185.75</ele></trkpt>
   <trkpt lon="16.409316" lat="48.167234"><ele>184.75</ele></trkpt>
   <trkpt lon="16.408971" lat="48.167309"><ele>184.25</ele></trkpt>
   <trkpt lon="16.408502" lat="48.167432"><ele>184.0</ele></trkpt>
   <trkpt lon="16.408348" lat="48.167476"><ele>184.0</ele></trkpt>
   <trkpt lon="16.408123" lat="48.167546"><ele>185.0</ele></trkpt>
   <trkpt lon="16.407829" lat="48.167650"><ele>186.25</ele></trkpt>
   <trkpt lon="16.407507" lat="48.167776"><ele>187.75</ele></trkpt>
   <trkpt lon="16.407459" lat="48.167796"><ele>188.0</ele></trkpt>
   <trkpt lon="16.407125" lat="48.167944"><ele>188.5</ele></trkpt>
   <trkpt lon="16.406933" lat="48.168038"><ele>189.0</ele></trkpt>
   <trkpt lon="16.406767" lat="48.168129"><ele>189.75</ele></trkpt>
   <trkpt lon="16.406329" lat="48.168375"><ele>192.25</ele></trkpt>
   <trkpt lon="16.404532" lat="48.169527"><ele>190.0</ele></trkpt>
   <trkpt lon="16.404485" lat="48.169556"><ele>190.0</ele></trkpt>
   <trkpt lon="16.403274" lat="48.170330"><ele>190.25</ele></trkpt>
   <trkpt lon="16.403224" lat="48.170362"><ele>190.25</ele></trkpt>
   <trkpt lon="16.401346" lat="48.171560"><ele>191.0</ele></trkpt>
   <trkpt lon="16.399107" lat="48.172988"><ele>194.0</ele></trkpt>
   <trkpt lon="16.398810" lat="48.173186"><ele>195.25</ele></trkpt>
   <trkpt lon="16.398461" lat="48.173405"><ele>196.0</ele></trkpt>
   <trkpt lon="16.398037" lat="48.173675"><ele>195.75</ele></trkpt>
   <trkpt lon="16.397519" lat="48.174004"><ele>194.75</ele></trkpt>
   <trkpt lon="16.397425" lat="48.174065"><ele>194.75</ele></trkpt>
   <trkpt lon="16.396380" lat="48.174731"><ele>198.75</ele></trkpt>
   <trkpt lon="16.395446" lat="48.175331"><ele>197.0</ele></trkpt>
   <trkpt lon="16.395057" lat="48.175594"><ele>196.25</ele></trkpt>
   <trkpt lon="16.394971" lat="48.175655"><ele>196.25</ele></trkpt>
   <trkpt lon="16.394073" lat="48.176269"><ele>197.5</ele></trkpt>
   <trkpt lon="16.393801" lat="48.176458"><ele>197.5</ele></trkpt>
   <trkpt lon="16.393754" lat="48.176490"><ele>197.5</ele></trkpt>
   <trkpt lon="16.393226" lat="48.176853"><ele>196.5</ele></trkpt>
   <trkpt lon="16.392590" lat="48.177303"><ele>193.75</ele></trkpt>
   <trkpt lon="16.391189" lat="48.178310"><ele>196.25</ele></trkpt>
   <trkpt lon="16.391015" lat="48.178435"><ele>196.75</ele></trkpt>
   <trkpt lon="16.389347" lat="48.179638"><ele>197.75</ele></trkpt>
   <trkpt lon="16.388643" lat="48.180142"><ele>197.0</ele></trkpt>
   <trkpt lon="16.387587" lat="48.180904"><ele>200.0</ele></trkpt>
   <trkpt lon="16.387274" lat="48.181145"><ele>199.25</ele></trkpt>
   <trkpt lon="16.387229" lat="48.181183"><ele>199.25</ele></trkpt>
   <trkpt lon="16.387052" lat="48.181326"><ele>198.75</ele></trkpt>
   <trkpt lon="16.387012" lat="48.181358"><ele>198.5</ele></trkpt>
   <trkpt lon="16.386539" lat="48.181736"><ele>197.25</ele></trkpt>
   <trkpt lon="16.386098" lat="48.182090"><ele>198.5</ele></trkpt>
   <trkpt lon="16.385641" lat="48.182457"><ele>199.75</ele></trkpt>
   <trkpt lon="16.385588" lat="48.182499"><ele>199.75</ele></trkpt>
   <trkpt lon="16.385511" lat="48.182560"><ele>200.0</ele></trkpt>
   <trkpt lon="16.385232" lat="48.182773"><ele>200.5</ele></trkpt>
   <trkpt lon="16.384648" lat="48.183154"><ele>199.75</ele></trkpt>
   <trkpt lon="16.384582" lat="48.183197"><ele>199.5</ele></trkpt>
   <trkpt lon="16.384183" lat="48.183439"><ele>197.75</ele></trkpt>
   <trkpt lon="16.383851" lat="48.183614"><ele>197.25</ele></trkpt>
   <trkpt lon="16.383742" lat="48.183667"><ele>197.25</ele></trkpt>
   <trkpt lon="16.383256" lat="48.183878"><ele>197.0</ele></trkpt>
   <trkpt lon="16.383207" lat="48.183898"><ele>197.0</ele></trkpt>
   <trkpt lon="16.382956" lat="48.183988"><ele>197.5</ele></trkpt>
   <trkpt lon="16.382632" lat="48.184094"><ele>198.5</ele></trkpt>
   <trkpt lon="16.382374" lat="48.184166"><ele>199.0</ele></trkpt>
   <trkpt lon="16.381770" lat="48.184317"><ele>200.0</ele></trkpt>
   <trkpt lon="16.381393" lat="48.184396"><ele>201.25</ele></trkpt>
   <trkpt lon="16.380877" lat="48.184486"><ele>203.0</ele></trkpt>
   <trkpt lon="16.378464" lat="48.184837"><ele>205.0</ele></trkpt>
   <trkpt lon="16.378461" lat="48.184837"><ele>205.0</ele></trkpt>
   <trkpt lon="16.377918" lat="48.184916"><ele>202.75</ele></trkpt>
   <trkpt lon="16.377264" lat="48.185010"><ele>200.0</ele></trkpt>
  </trkseg>
 </trk>
</gpx>
