<?xml version="1.0" encoding="UTF-8"?>
<!-- track-length = 103530 filtered ascend = 99 plain-ascend = 46 cost=103530 energy=1.3kwh time=2h 18m 3s -->
<gpx 
 xmlns="http://www.topografix.com/GPX/1/1" 
 xmlns:xsi="http://www.w3.org/2001/XMLSchema-instance" 
 xsi:schemaLocation="http://www.topografix.com/GPX/1/1 http://www.topografix.com/GPX/1/1/gpx.xsd" 
 version="1.1" 
 creator="BRouter-Web 0.18.1">
 <trk>
  <name>Bremen - Wunstorf</name>
  <trkseg>
   <trkpt lat="53.083926" lon="8.812202"><ele>7.75</ele></trkpt>
   <trkpt lat="53.083898" lon="8.812263"><ele>8</ele></trkpt>
   <trkpt lat="53.083892" lon="8.812277"><ele>8</ele></trkpt>
   <trkpt lat="53.083834" lon="8.812398"><ele>8.25</ele></trkpt>
   <trkpt lat="53.083598" lon="8.812887"><ele>9.25</ele></trkpt>
   <trkpt lat="53.083527" lon="8.813036"><ele>9.75</ele></trkpt>
   <trkpt lat="53.083509" lon="8.813074"><ele>9.75</ele></trkpt>
   <trkpt lat="53.083271" lon="8.81357"><ele>10.5</ele></trkpt>
   <trkpt lat="53.083269" lon="8.813572"><ele>10.5</ele></trkpt>
   <trkpt lat="53.083231" lon="8.813652"><ele>10.25</ele></trkpt>
   <trkpt lat="53.082869" lon="8.814426"><ele>8.5</ele></trkpt>
   <trkpt lat="53.082591" lon="8.815048"><ele>7</ele></trkpt>
   <trkpt lat="53.082509" lon="8.815246"><ele>7</ele></trkpt>
   <trkpt lat="53.082339" lon="8.815731"><ele>7.5</ele></trkpt>
   <trkpt lat="53.08219" lon="8.816251"><ele>9.5</ele></trkpt>
   <trkpt lat="53.081979" lon="8.817062"><ele>11.25</ele></trkpt>
   <trkpt lat="53.081869" lon="8.817613"><ele>10.5</ele></trkpt>
   <trkpt lat="53.081767" lon="8.8182"><ele>8.5</ele></trkpt>
   <trkpt lat="53.081659" lon="8.818617"><ele>7.75</ele></trkpt>
   <trkpt lat="53.081481" lon="8.819122"><ele>7.5</ele></trkpt>
   <trkpt lat="53.081333" lon="8.819688"><ele>7.75</ele></trkpt>
   <trkpt lat="53.080915" lon="8.821294"><ele>7</ele></trkpt>
   <trkpt lat="53.080757" lon="8.821919"><ele>6.75</ele></trkpt>
   <trkpt lat="53.080697" lon="8.822176"><ele>6.75</ele></trkpt>
   <trkpt lat="53.080573" lon="8.822704"><ele>6.25</ele></trkpt>
   <trkpt lat="53.080191" lon="8.824534"><ele>5.75</ele></trkpt>
   <trkpt lat="53.079777" lon="8.826739"><ele>5</ele></trkpt>
   <trkpt lat="53.079609" lon="8.827591"><ele>6</ele></trkpt>
   <trkpt lat="53.079516" lon="8.828122"><ele>6.5</ele></trkpt>
   <trkpt lat="53.079478" lon="8.828338"><ele>7</ele></trkpt>
   <trkpt lat="53.079351" lon="8.829071"><ele>7</ele></trkpt>
   <trkpt lat="53.07883" lon="8.832689"><ele>7</ele></trkpt>
   <trkpt lat="53.078771" lon="8.833096"><ele>6.75</ele></trkpt>
   <trkpt lat="53.078736" lon="8.83335"><ele>6.5</ele></trkpt>
   <trkpt lat="53.077433" lon="8.842489"><ele>6.75</ele></trkpt>
   <trkpt lat="53.077103" lon="8.844808"><ele>6.25</ele></trkpt>
   <trkpt lat="53.077069" lon="8.845051"><ele>5.75</ele></trkpt>
   <trkpt lat="53.07673" lon="8.847475"><ele>4.75</ele></trkpt>
   <trkpt lat="53.076293" lon="8.850527"><ele>5.25</ele></trkpt>
   <trkpt lat="53.075712" lon="8.854393"><ele>5.5</ele></trkpt>
   <trkpt lat="53.075663" lon="8.85471"><ele>5.25</ele></trkpt>
   <trkpt lat="53.075431" lon="8.856291"><ele>6</ele></trkpt>
   <trkpt lat="53.075283" lon="8.857172"><ele>5.75</ele></trkpt>
   <trkpt lat="53.075163" lon="8.857804"><ele>4.75</ele></trkpt>
   <trkpt lat="53.075013" lon="8.858472"><ele>3.75</ele></trkpt>
   <trkpt lat="53.074818" lon="8.859286"><ele>4</ele></trkpt>
   <trkpt lat="53.07462" lon="8.859946"><ele>4.25</ele></trkpt>
   <trkpt lat="53.074344" lon="8.860808"><ele>4.75</ele></trkpt>
   <trkpt lat="53.07416" lon="8.861327"><ele>4.75</ele></trkpt>
   <trkpt lat="53.073774" lon="8.86241"><ele>4.5</ele></trkpt>
   <trkpt lat="53.073722" lon="8.862556"><ele>4.25</ele></trkpt>
   <trkpt lat="53.073492" lon="8.863181"><ele>4.5</ele></trkpt>
   <trkpt lat="53.072937" lon="8.864696"><ele>4.75</ele></trkpt>
   <trkpt lat="53.072556" lon="8.865693"><ele>4.75</ele></trkpt>
   <trkpt lat="53.072133" lon="8.866754"><ele>4.5</ele></trkpt>
   <trkpt lat="53.072033" lon="8.866991"><ele>4.25</ele></trkpt>
   <trkpt lat="53.07164" lon="8.867902"><ele>4.5</ele></trkpt>
   <trkpt lat="53.070949" lon="8.869356"><ele>6</ele></trkpt>
   <trkpt lat="53.069764" lon="8.871641"><ele>6.75</ele></trkpt>
   <trkpt lat="53.06887" lon="8.873367"><ele>6.25</ele></trkpt>
   <trkpt lat="53.068767" lon="8.873564"><ele>6.25</ele></trkpt>
   <trkpt lat="53.068666" lon="8.873759"><ele>6.25</ele></trkpt>
   <trkpt lat="53.068592" lon="8.873897"><ele>6</ele></trkpt>
   <trkpt lat="53.068129" lon="8.874769"><ele>5</ele></trkpt>
   <trkpt lat="53.067836" lon="8.87532"><ele>4.75</ele></trkpt>
   <trkpt lat="53.066452" lon="8.877894"><ele>5.25</ele></trkpt>
   <trkpt lat="53.065993" lon="8.878728"><ele>5.25</ele></trkpt>
   <trkpt lat="53.065143" lon="8.880333"><ele>4.25</ele></trkpt>
   <trkpt lat="53.064522" lon="8.881492"><ele>4.25</ele></trkpt>
   <trkpt lat="53.064381" lon="8.881754"><ele>4.5</ele></trkpt>
   <trkpt lat="53.064233" lon="8.88203"><ele>4.75</ele></trkpt>
   <trkpt lat="53.064026" lon="8.882416"><ele>5.25</ele></trkpt>
   <trkpt lat="53.063857" lon="8.882731"><ele>5.25</ele></trkpt>
   <trkpt lat="53.063809" lon="8.882822"><ele>5.25</ele></trkpt>
   <trkpt lat="53.063645" lon="8.883128"><ele>5.25</ele></trkpt>
   <trkpt lat="53.063597" lon="8.883222"><ele>5.25</ele></trkpt>
   <trkpt lat="53.063534" lon="8.883337"><ele>5</ele></trkpt>
   <trkpt lat="53.063161" lon="8.884016"><ele>6</ele></trkpt>
   <trkpt lat="53.062835" lon="8.884641"><ele>6.25</ele></trkpt>
   <trkpt lat="53.062225" lon="8.885838"><ele>5.75</ele></trkpt>
   <trkpt lat="53.061868" lon="8.886546"><ele>6.25</ele></trkpt>
   <trkpt lat="53.061734" lon="8.886813"><ele>6.5</ele></trkpt>
   <trkpt lat="53.061402" lon="8.887441"><ele>6.25</ele></trkpt>
   <trkpt lat="53.060745" lon="8.888639"><ele>5.25</ele></trkpt>
   <trkpt lat="53.060662" lon="8.888791"><ele>5.5</ele></trkpt>
   <trkpt lat="53.060378" lon="8.889244"><ele>6</ele></trkpt>
   <trkpt lat="53.059825" lon="8.890207"><ele>6.25</ele></trkpt>
   <trkpt lat="53.059601" lon="8.890614"><ele>6.75</ele></trkpt>
   <trkpt lat="53.058751" lon="8.892165"><ele>7</ele></trkpt>
   <trkpt lat="53.058401" lon="8.892817"><ele>6</ele></trkpt>
   <trkpt lat="53.058076" lon="8.89342"><ele>5.75</ele></trkpt>
   <trkpt lat="53.058023" lon="8.893518"><ele>5.75</ele></trkpt>
   <trkpt lat="53.057831" lon="8.893844"><ele>6</ele></trkpt>
   <trkpt lat="53.057563" lon="8.894267"><ele>6.25</ele></trkpt>
   <trkpt lat="53.05755" lon="8.89429"><ele>6.25</ele></trkpt>
   <trkpt lat="53.057326" lon="8.894706"><ele>7</ele></trkpt>
   <trkpt lat="53.057004" lon="8.895302"><ele>7</ele></trkpt>
   <trkpt lat="53.054707" lon="8.89957"><ele>5.75</ele></trkpt>
   <trkpt lat="53.0547" lon="8.899583"><ele>5.75</ele></trkpt>
   <trkpt lat="53.053829" lon="8.901204"><ele>5.5</ele></trkpt>
   <trkpt lat="53.053447" lon="8.901913"><ele>6</ele></trkpt>
   <trkpt lat="53.052945" lon="8.90293"><ele>6.75</ele></trkpt>
   <trkpt lat="53.052281" lon="8.904422"><ele>4.5</ele></trkpt>
   <trkpt lat="53.052036" lon="8.904994"><ele>4</ele></trkpt>
   <trkpt lat="53.051763" lon="8.905666"><ele>4.5</ele></trkpt>
   <trkpt lat="53.05146" lon="8.906453"><ele>5</ele></trkpt>
   <trkpt lat="53.051212" lon="8.907141"><ele>4.75</ele></trkpt>
   <trkpt lat="53.051053" lon="8.907579"><ele>4.5</ele></trkpt>
   <trkpt lat="53.050662" lon="8.908727"><ele>5</ele></trkpt>
   <trkpt lat="53.049591" lon="8.91221"><ele>5</ele></trkpt>
   <trkpt lat="53.048144" lon="8.916972"><ele>4.25</ele></trkpt>
   <trkpt lat="53.048031" lon="8.917346"><ele>4.25</ele></trkpt>
   <trkpt lat="53.046908" lon="8.921014"><ele>2.75</ele></trkpt>
   <trkpt lat="53.045524" lon="8.925555"><ele>5</ele></trkpt>
   <trkpt lat="53.042813" lon="8.934453"><ele>3</ele></trkpt>
   <trkpt lat="53.041816" lon="8.937726"><ele>4.25</ele></trkpt>
   <trkpt lat="53.04165" lon="8.938271"><ele>4.75</ele></trkpt>
   <trkpt lat="53.040353" lon="8.942536"><ele>6</ele></trkpt>
   <trkpt lat="53.040195" lon="8.943075"><ele>6</ele></trkpt>
   <trkpt lat="53.039302" lon="8.945995"><ele>5.75</ele></trkpt>
   <trkpt lat="53.039233" lon="8.946223"><ele>5.75</ele></trkpt>
   <trkpt lat="53.039153" lon="8.946485"><ele>6</ele></trkpt>
   <trkpt lat="53.038459" lon="8.948752"><ele>6.5</ele></trkpt>
   <trkpt lat="53.038169" lon="8.9497"><ele>6.25</ele></trkpt>
   <trkpt lat="53.037931" lon="8.950353"><ele>6.25</ele></trkpt>
   <trkpt lat="53.037756" lon="8.950901"><ele>5.75</ele></trkpt>
   <trkpt lat="53.037286" lon="8.952435"><ele>5.5</ele></trkpt>
   <trkpt lat="53.037233" lon="8.952613"><ele>5.5</ele></trkpt>
   <trkpt lat="53.036418" lon="8.955315"><ele>5</ele></trkpt>
   <trkpt lat="53.035553" lon="8.958114"><ele>6.5</ele></trkpt>
   <trkpt lat="53.034656" lon="8.961061"><ele>4.75</ele></trkpt>
   <trkpt lat="53.034565" lon="8.96137"><ele>5</ele></trkpt>
   <trkpt lat="53.034389" lon="8.962083"><ele>5</ele></trkpt>
   <trkpt lat="53.03427" lon="8.962474"><ele>4.75</ele></trkpt>
   <trkpt lat="53.033635" lon="8.964563"><ele>5</ele></trkpt>
   <trkpt lat="53.03275" lon="8.967465"><ele>4.5</ele></trkpt>
   <trkpt lat="53.032741" lon="8.967496"><ele>4.5</ele></trkpt>
   <trkpt lat="53.032269" lon="8.969048"><ele>4.5</ele></trkpt>
   <trkpt lat="53.032217" lon="8.969222"><ele>4.5</ele></trkpt>
   <trkpt lat="53.030827" lon="8.973773"><ele>8</ele></trkpt>
   <trkpt lat="53.030337" lon="8.975393"><ele>8</ele></trkpt>
   <trkpt lat="53.029955" lon="8.976616"><ele>7</ele></trkpt>
   <trkpt lat="53.028782" lon="8.980475"><ele>5.75</ele></trkpt>
   <trkpt lat="53.028371" lon="8.981806"><ele>7.75</ele></trkpt>
   <trkpt lat="53.027672" lon="8.984107"><ele>7.75</ele></trkpt>
   <trkpt lat="53.025605" lon="8.990856"><ele>8.25</ele></trkpt>
   <trkpt lat="53.024301" lon="8.995147"><ele>8.5</ele></trkpt>
   <trkpt lat="53.024271" lon="8.995246"><ele>8.5</ele></trkpt>
   <trkpt lat="53.023416" lon="8.998031"><ele>7.5</ele></trkpt>
   <trkpt lat="53.021991" lon="9.002721"><ele>7.75</ele></trkpt>
   <trkpt lat="53.020279" lon="9.008309"><ele>9.25</ele></trkpt>
   <trkpt lat="53.01993" lon="9.009475"><ele>8.5</ele></trkpt>
   <trkpt lat="53.019506" lon="9.010975"><ele>8.5</ele></trkpt>
   <trkpt lat="53.019233" lon="9.012038"><ele>9.75</ele></trkpt>
   <trkpt lat="53.018705" lon="9.014275"><ele>9.5</ele></trkpt>
   <trkpt lat="53.018465" lon="9.015384"><ele>10.75</ele></trkpt>
   <trkpt lat="53.018247" lon="9.016478"><ele>10.75</ele></trkpt>
   <trkpt lat="53.018084" lon="9.017339"><ele>10.5</ele></trkpt>
   <trkpt lat="53.017512" lon="9.020794"><ele>11.75</ele></trkpt>
   <trkpt lat="53.017447" lon="9.021187"><ele>12</ele></trkpt>
   <trkpt lat="53.01732" lon="9.02228"><ele>12.5</ele></trkpt>
   <trkpt lat="53.017318" lon="9.022299"><ele>12.5</ele></trkpt>
   <trkpt lat="53.017255" lon="9.022709"><ele>12.5</ele></trkpt>
   <trkpt lat="53.017205" lon="9.023106"><ele>13</ele></trkpt>
   <trkpt lat="53.017168" lon="9.02346"><ele>13</ele></trkpt>
   <trkpt lat="53.017094" lon="9.023933"><ele>13</ele></trkpt>
   <trkpt lat="53.016833" lon="9.025577"><ele>14</ele></trkpt>
   <trkpt lat="53.016632" lon="9.027012"><ele>18.25</ele></trkpt>
   <trkpt lat="53.016511" lon="9.027922"><ele>18.75</ele></trkpt>
   <trkpt lat="53.016435" lon="9.02842"><ele>19.25</ele></trkpt>
   <trkpt lat="53.01619" lon="9.029944"><ele>20.5</ele></trkpt>
   <trkpt lat="53.016006" lon="9.031085"><ele>21.5</ele></trkpt>
   <trkpt lat="53.015946" lon="9.031455"><ele>21.75</ele></trkpt>
   <trkpt lat="53.015902" lon="9.031727"><ele>22</ele></trkpt>
   <trkpt lat="53.015848" lon="9.03206"><ele>22.25</ele></trkpt>
   <trkpt lat="53.015811" lon="9.03225"><ele>22.75</ele></trkpt>
   <trkpt lat="53.015661" lon="9.033029"><ele>24.25</ele></trkpt>
   <trkpt lat="53.015403" lon="9.034539"><ele>27</ele></trkpt>
   <trkpt lat="53.015399" lon="9.034557"><ele>27</ele></trkpt>
   <trkpt lat="53.015231" lon="9.035493"><ele>28</ele></trkpt>
   <trkpt lat="53.015226" lon="9.03552"><ele>28</ele></trkpt>
   <trkpt lat="53.015089" lon="9.0361"><ele>28</ele></trkpt>
   <trkpt lat="53.014931" lon="9.037132"><ele>28</ele></trkpt>
   <trkpt lat="53.014729" lon="9.03814"><ele>28.5</ele></trkpt>
   <trkpt lat="53.014708" lon="9.038266"><ele>28.5</ele></trkpt>
   <trkpt lat="53.014032" lon="9.042442"><ele>29</ele></trkpt>
   <trkpt lat="53.013841" lon="9.043664"><ele>29.25</ele></trkpt>
   <trkpt lat="53.012389" lon="9.05275"><ele>26</ele></trkpt>
   <trkpt lat="53.012011" lon="9.055141"><ele>24.25</ele></trkpt>
   <trkpt lat="53.011727" lon="9.056886"><ele>22.75</ele></trkpt>
   <trkpt lat="53.011698" lon="9.05706"><ele>22.75</ele></trkpt>
   <trkpt lat="53.011627" lon="9.057491"><ele>23</ele></trkpt>
   <trkpt lat="53.011477" lon="9.058451"><ele>23</ele></trkpt>
   <trkpt lat="53.011427" lon="9.058757"><ele>23.5</ele></trkpt>
   <trkpt lat="53.011296" lon="9.059573"><ele>24.75</ele></trkpt>
   <trkpt lat="53.010866" lon="9.062247"><ele>24.75</ele></trkpt>
   <trkpt lat="53.010421" lon="9.065033"><ele>25.5</ele></trkpt>
   <trkpt lat="53.009131" lon="9.073049"><ele>28</ele></trkpt>
   <trkpt lat="53.008698" lon="9.075737"><ele>29.5</ele></trkpt>
   <trkpt lat="53.008564" lon="9.076566"><ele>29.75</ele></trkpt>
   <trkpt lat="53.008528" lon="9.076784"><ele>29.75</ele></trkpt>
   <trkpt lat="53.008524" lon="9.07681"><ele>29.75</ele></trkpt>
   <trkpt lat="53.008475" lon="9.0771"><ele>29.75</ele></trkpt>
   <trkpt lat="53.008248" lon="9.078512"><ele>29.25</ele></trkpt>
   <trkpt lat="53.008192" lon="9.078861"><ele>29.5</ele></trkpt>
   <trkpt lat="53.00817" lon="9.079001"><ele>29.5</ele></trkpt>
   <trkpt lat="53.008091" lon="9.079492"><ele>29.75</ele></trkpt>
   <trkpt lat="53.007621" lon="9.082416"><ele>30.75</ele></trkpt>
   <trkpt lat="53.007562" lon="9.082795"><ele>31.5</ele></trkpt>
   <trkpt lat="53.007334" lon="9.084212"><ele>32.75</ele></trkpt>
   <trkpt lat="53.006994" lon="9.086327"><ele>32</ele></trkpt>
   <trkpt lat="53.005132" lon="9.097912"><ele>23.5</ele></trkpt>
   <trkpt lat="53.003907" lon="9.105537"><ele>20.25</ele></trkpt>
   <trkpt lat="53.003734" lon="9.106558"><ele>19.75</ele></trkpt>
   <trkpt lat="53.00362" lon="9.107187"><ele>19.75</ele></trkpt>
   <trkpt lat="53.003329" lon="9.108712"><ele>19.75</ele></trkpt>
   <trkpt lat="53.00308" lon="9.109911"><ele>20.25</ele></trkpt>
   <trkpt lat="53.002812" lon="9.111097"><ele>20</ele></trkpt>
   <trkpt lat="53.002511" lon="9.11235"><ele>20</ele></trkpt>
   <trkpt lat="53.002199" lon="9.113549"><ele>19.5</ele></trkpt>
   <trkpt lat="53.00184" lon="9.114856"><ele>18.75</ele></trkpt>
   <trkpt lat="53.001462" lon="9.116144"><ele>17.75</ele></trkpt>
   <trkpt lat="53.001433" lon="9.116244"><ele>17.75</ele></trkpt>
   <trkpt lat="53.001279" lon="9.116764"><ele>17</ele></trkpt>
   <trkpt lat="53.000704" lon="9.118695"><ele>17</ele></trkpt>
   <trkpt lat="53.000571" lon="9.119143"><ele>17.25</ele></trkpt>
   <trkpt lat="53.000236" lon="9.120455"><ele>18.25</ele></trkpt>
   <trkpt lat="53.000227" lon="9.120488"><ele>18.25</ele></trkpt>
   <trkpt lat="53.000161" lon="9.120714"><ele>18.5</ele></trkpt>
   <trkpt lat="53.000118" lon="9.120853"><ele>18.75</ele></trkpt>
   <trkpt lat="52.999789" lon="9.121976"><ele>20.5</ele></trkpt>
   <trkpt lat="52.999587" lon="9.12265"><ele>21</ele></trkpt>
   <trkpt lat="52.999528" lon="9.122846"><ele>20.75</ele></trkpt>
   <trkpt lat="52.999375" lon="9.123353"><ele>20.25</ele></trkpt>
   <trkpt lat="52.998803" lon="9.12527"><ele>20.5</ele></trkpt>
   <trkpt lat="52.99867" lon="9.125708"><ele>20.25</ele></trkpt>
   <trkpt lat="52.997993" lon="9.127939"><ele>20.75</ele></trkpt>
   <trkpt lat="52.996963" lon="9.131361"><ele>20.75</ele></trkpt>
   <trkpt lat="52.996848" lon="9.131739"><ele>20.25</ele></trkpt>
   <trkpt lat="52.996428" lon="9.133154"><ele>20</ele></trkpt>
   <trkpt lat="52.996362" lon="9.133385"><ele>20.25</ele></trkpt>
   <trkpt lat="52.996345" lon="9.133444"><ele>20.25</ele></trkpt>
   <trkpt lat="52.995953" lon="9.134595"><ele>20.75</ele></trkpt>
   <trkpt lat="52.995932" lon="9.134666"><ele>20.75</ele></trkpt>
   <trkpt lat="52.994707" lon="9.138747"><ele>22.5</ele></trkpt>
   <trkpt lat="52.993189" lon="9.143819"><ele>20.25</ele></trkpt>
   <trkpt lat="52.991891" lon="9.148165"><ele>23.25</ele></trkpt>
   <trkpt lat="52.990913" lon="9.151416"><ele>19.75</ele></trkpt>
   <trkpt lat="52.990877" lon="9.151537"><ele>19.75</ele></trkpt>
   <trkpt lat="52.99063" lon="9.152372"><ele>19.5</ele></trkpt>
   <trkpt lat="52.989062" lon="9.157625"><ele>30.25</ele></trkpt>
   <trkpt lat="52.986893" lon="9.164899"><ele>23</ele></trkpt>
   <trkpt lat="52.98528" lon="9.17031"><ele>15.5</ele></trkpt>
   <trkpt lat="52.98416" lon="9.17395"><ele>13.75</ele></trkpt>
   <trkpt lat="52.98287" lon="9.178258"><ele>15.25</ele></trkpt>
   <trkpt lat="52.981801" lon="9.181814"><ele>13.75</ele></trkpt>
   <trkpt lat="52.981574" lon="9.182574"><ele>13</ele></trkpt>
   <trkpt lat="52.981552" lon="9.182647"><ele>12.75</ele></trkpt>
   <trkpt lat="52.981546" lon="9.182667"><ele>12.75</ele></trkpt>
   <trkpt lat="52.981308" lon="9.183466"><ele>12.5</ele></trkpt>
   <trkpt lat="52.980783" lon="9.185228"><ele>12.75</ele></trkpt>
   <trkpt lat="52.98077" lon="9.185273"><ele>12.75</ele></trkpt>
   <trkpt lat="52.980597" lon="9.185885"><ele>12.5</ele></trkpt>
   <trkpt lat="52.980514" lon="9.186217"><ele>12</ele></trkpt>
   <trkpt lat="52.980347" lon="9.18681"><ele>11.25</ele></trkpt>
   <trkpt lat="52.980342" lon="9.186827"><ele>11.25</ele></trkpt>
   <trkpt lat="52.980305" lon="9.186945"><ele>11.25</ele></trkpt>
   <trkpt lat="52.9803" lon="9.186962"><ele>11.25</ele></trkpt>
   <trkpt lat="52.980282" lon="9.187019"><ele>11.25</ele></trkpt>
   <trkpt lat="52.980225" lon="9.187214"><ele>11.25</ele></trkpt>
   <trkpt lat="52.980208" lon="9.187276"><ele>11</ele></trkpt>
   <trkpt lat="52.98012" lon="9.18754"><ele>11</ele></trkpt>
   <trkpt lat="52.980009" lon="9.18783"><ele>11.25</ele></trkpt>
   <trkpt lat="52.97992" lon="9.188096"><ele>11.5</ele></trkpt>
   <trkpt lat="52.979908" lon="9.188134"><ele>11.5</ele></trkpt>
   <trkpt lat="52.979902" lon="9.188152"><ele>11.5</ele></trkpt>
   <trkpt lat="52.979857" lon="9.188293"><ele>12.25</ele></trkpt>
   <trkpt lat="52.97975" lon="9.188651"><ele>12.25</ele></trkpt>
   <trkpt lat="52.979723" lon="9.188743"><ele>12.25</ele></trkpt>
   <trkpt lat="52.978448" lon="9.193014"><ele>12.75</ele></trkpt>
   <trkpt lat="52.978444" lon="9.193029"><ele>12.75</ele></trkpt>
   <trkpt lat="52.978435" lon="9.193058"><ele>12.75</ele></trkpt>
   <trkpt lat="52.978231" lon="9.193741"><ele>13</ele></trkpt>
   <trkpt lat="52.97822" lon="9.193779"><ele>13</ele></trkpt>
   <trkpt lat="52.977575" lon="9.195908"><ele>13</ele></trkpt>
   <trkpt lat="52.977529" lon="9.196065"><ele>12.75</ele></trkpt>
   <trkpt lat="52.977389" lon="9.196524"><ele>12</ele></trkpt>
   <trkpt lat="52.977305" lon="9.1968"><ele>12</ele></trkpt>
   <trkpt lat="52.97714" lon="9.197354"><ele>12.25</ele></trkpt>
   <trkpt lat="52.977131" lon="9.197383"><ele>12.25</ele></trkpt>
   <trkpt lat="52.976932" lon="9.198057"><ele>13</ele></trkpt>
   <trkpt lat="52.975968" lon="9.201273"><ele>11</ele></trkpt>
   <trkpt lat="52.975562" lon="9.202613"><ele>10.75</ele></trkpt>
   <trkpt lat="52.975067" lon="9.204113"><ele>11</ele></trkpt>
   <trkpt lat="52.974674" lon="9.205159"><ele>11</ele></trkpt>
   <trkpt lat="52.974344" lon="9.20598"><ele>11</ele></trkpt>
   <trkpt lat="52.973762" lon="9.207281"><ele>11.25</ele></trkpt>
   <trkpt lat="52.973413" lon="9.20795"><ele>12</ele></trkpt>
   <trkpt lat="52.972908" lon="9.208868"><ele>11.25</ele></trkpt>
   <trkpt lat="52.972862" lon="9.20895"><ele>11.25</ele></trkpt>
   <trkpt lat="52.972716" lon="9.209214"><ele>10.75</ele></trkpt>
   <trkpt lat="52.97223" lon="9.210011"><ele>10.5</ele></trkpt>
   <trkpt lat="52.97152" lon="9.21111"><ele>11</ele></trkpt>
   <trkpt lat="52.971125" lon="9.211631"><ele>14</ele></trkpt>
   <trkpt lat="52.970824" lon="9.212029"><ele>15.5</ele></trkpt>
   <trkpt lat="52.970249" lon="9.212739"><ele>13.25</ele></trkpt>
   <trkpt lat="52.969701" lon="9.213337"><ele>10.75</ele></trkpt>
   <trkpt lat="52.969058" lon="9.214006"><ele>9.5</ele></trkpt>
   <trkpt lat="52.968572" lon="9.214451"><ele>9.5</ele></trkpt>
   <trkpt lat="52.967971" lon="9.214968"><ele>10.25</ele></trkpt>
   <trkpt lat="52.967876" lon="9.215049"><ele>10.5</ele></trkpt>
   <trkpt lat="52.963026" lon="9.218527"><ele>14</ele></trkpt>
   <trkpt lat="52.960705" lon="9.220191"><ele>12</ele></trkpt>
   <trkpt lat="52.954274" lon="9.224802"><ele>13.75</ele></trkpt>
   <trkpt lat="52.953923" lon="9.225058"><ele>15.75</ele></trkpt>
   <trkpt lat="52.952402" lon="9.226174"><ele>22.25</ele></trkpt>
   <trkpt lat="52.951492" lon="9.226841"><ele>19.75</ele></trkpt>
   <trkpt lat="52.95106" lon="9.227146"><ele>19.5</ele></trkpt>
   <trkpt lat="52.948212" lon="9.229164"><ele>17</ele></trkpt>
   <trkpt lat="52.947261" lon="9.229812"><ele>17.25</ele></trkpt>
   <trkpt lat="52.94685" lon="9.230057"><ele>17.75</ele></trkpt>
   <trkpt lat="52.946445" lon="9.230285"><ele>18.75</ele></trkpt>
   <trkpt lat="52.946326" lon="9.230351"><ele>19.25</ele></trkpt>
   <trkpt lat="52.944914" lon="9.23093"><ele>22.25</ele></trkpt>
   <trkpt lat="52.94451" lon="9.231074"><ele>22.75</ele></trkpt>
   <trkpt lat="52.944039" lon="9.231211"><ele>23.25</ele></trkpt>
   <trkpt lat="52.942252" lon="9.231629"><ele>20</ele></trkpt>
   <trkpt lat="52.940833" lon="9.231945"><ele>19</ele></trkpt>
   <trkpt lat="52.940566" lon="9.232001"><ele>19.25</ele></trkpt>
   <trkpt lat="52.940322" lon="9.232053"><ele>19.5</ele></trkpt>
   <trkpt lat="52.940258" lon="9.232067"><ele>19.5</ele></trkpt>
   <trkpt lat="52.939992" lon="9.232124"><ele>19.75</ele></trkpt>
   <trkpt lat="52.938945" lon="9.232346"><ele>19.75</ele></trkpt>
   <trkpt lat="52.93834" lon="9.232472"><ele>19.75</ele></trkpt>
   <trkpt lat="52.937672" lon="9.232582"><ele>20.75</ele></trkpt>
   <trkpt lat="52.937539" lon="9.232603"><ele>21</ele></trkpt>
   <trkpt lat="52.936802" lon="9.232663"><ele>21.5</ele></trkpt>
   <trkpt lat="52.935892" lon="9.232687"><ele>22.5</ele></trkpt>
   <trkpt lat="52.935716" lon="9.232687"><ele>22.75</ele></trkpt>
   <trkpt lat="52.935065" lon="9.232701"><ele>23.25</ele></trkpt>
   <trkpt lat="52.934497" lon="9.232738"><ele>23.5</ele></trkpt>
   <trkpt lat="52.93439" lon="9.232751"><ele>23.5</ele></trkpt>
   <trkpt lat="52.934049" lon="9.232794"><ele>23.5</ele></trkpt>
   <trkpt lat="52.933242" lon="9.233005"><ele>22.5</ele></trkpt>
   <trkpt lat="52.932777" lon="9.233116"><ele>22</ele></trkpt>
   <trkpt lat="52.932723" lon="9.233128"><ele>22</ele></trkpt>
   <trkpt lat="52.932002" lon="9.233308"><ele>23.75</ele></trkpt>
   <trkpt lat="52.931197" lon="9.233519"><ele>24.5</ele></trkpt>
   <trkpt lat="52.93066" lon="9.233624"><ele>23.5</ele></trkpt>
   <trkpt lat="52.930177" lon="9.233725"><ele>22.25</ele></trkpt>
   <trkpt lat="52.930136" lon="9.233737"><ele>22.25</ele></trkpt>
   <trkpt lat="52.929385" lon="9.233977"><ele>21.75</ele></trkpt>
   <trkpt lat="52.927247" lon="9.234811"><ele>22</ele></trkpt>
   <trkpt lat="52.926524" lon="9.235105"><ele>22</ele></trkpt>
   <trkpt lat="52.925177" lon="9.235652"><ele>22</ele></trkpt>
   <trkpt lat="52.925104" lon="9.23568"><ele>22</ele></trkpt>
   <trkpt lat="52.924744" lon="9.235854"><ele>21.5</ele></trkpt>
   <trkpt lat="52.924561" lon="9.235956"><ele>21.25</ele></trkpt>
   <trkpt lat="52.924303" lon="9.236084"><ele>20.75</ele></trkpt>
   <trkpt lat="52.924224" lon="9.236123"><ele>20.5</ele></trkpt>
   <trkpt lat="52.924191" lon="9.236134"><ele>20.5</ele></trkpt>
   <trkpt lat="52.923995" lon="9.236218"><ele>20.75</ele></trkpt>
   <trkpt lat="52.923309" lon="9.236539"><ele>22</ele></trkpt>
   <trkpt lat="52.922648" lon="9.236855"><ele>22</ele></trkpt>
   <trkpt lat="52.922409" lon="9.236969"><ele>22</ele></trkpt>
   <trkpt lat="52.920977" lon="9.237688"><ele>24.25</ele></trkpt>
   <trkpt lat="52.920787" lon="9.237783"><ele>24</ele></trkpt>
   <trkpt lat="52.920629" lon="9.237861"><ele>22.25</ele></trkpt>
   <trkpt lat="52.920017" lon="9.238168"><ele>22.25</ele></trkpt>
   <trkpt lat="52.919534" lon="9.238408"><ele>22.5</ele></trkpt>
   <trkpt lat="52.919265" lon="9.238541"><ele>23</ele></trkpt>
   <trkpt lat="52.918438" lon="9.238973"><ele>22</ele></trkpt>
   <trkpt lat="52.918343" lon="9.239016"><ele>21.75</ele></trkpt>
   <trkpt lat="52.918247" lon="9.239059"><ele>21.75</ele></trkpt>
   <trkpt lat="52.917621" lon="9.239368"><ele>21</ele></trkpt>
   <trkpt lat="52.91653" lon="9.239887"><ele>18.25</ele></trkpt>
   <trkpt lat="52.916231" lon="9.240051"><ele>18.5</ele></trkpt>
   <trkpt lat="52.915" lon="9.240673"><ele>20</ele></trkpt>
   <trkpt lat="52.91406" lon="9.24109"><ele>20.25</ele></trkpt>
   <trkpt lat="52.913894" lon="9.241152"><ele>20.25</ele></trkpt>
   <trkpt lat="52.913333" lon="9.241357"><ele>20.25</ele></trkpt>
   <trkpt lat="52.913046" lon="9.241447"><ele>20.25</ele></trkpt>
   <trkpt lat="52.912701" lon="9.241526"><ele>20.25</ele></trkpt>
   <trkpt lat="52.912418" lon="9.241607"><ele>20</ele></trkpt>
   <trkpt lat="52.912043" lon="9.241676"><ele>19.25</ele></trkpt>
   <trkpt lat="52.91163" lon="9.241753"><ele>18.75</ele></trkpt>
   <trkpt lat="52.910984" lon="9.241824"><ele>18</ele></trkpt>
   <trkpt lat="52.910587" lon="9.241841"><ele>17.5</ele></trkpt>
   <trkpt lat="52.910171" lon="9.241805"><ele>17</ele></trkpt>
   <trkpt lat="52.909529" lon="9.241728"><ele>15</ele></trkpt>
   <trkpt lat="52.908944" lon="9.2416"><ele>14.5</ele></trkpt>
   <trkpt lat="52.908492" lon="9.241473"><ele>14.25</ele></trkpt>
   <trkpt lat="52.905618" lon="9.240465"><ele>12.75</ele></trkpt>
   <trkpt lat="52.904465" lon="9.240057"><ele>12.75</ele></trkpt>
   <trkpt lat="52.904399" lon="9.240037"><ele>12.75</ele></trkpt>
   <trkpt lat="52.903938" lon="9.239895"><ele>12.25</ele></trkpt>
   <trkpt lat="52.903477" lon="9.239768"><ele>11</ele></trkpt>
   <trkpt lat="52.902898" lon="9.239642"><ele>11</ele></trkpt>
   <trkpt lat="52.902122" lon="9.239518"><ele>11</ele></trkpt>
   <trkpt lat="52.901716" lon="9.23948"><ele>11</ele></trkpt>
   <trkpt lat="52.901078" lon="9.239444"><ele>11</ele></trkpt>
   <trkpt lat="52.900333" lon="9.23945"><ele>10.5</ele></trkpt>
   <trkpt lat="52.899429" lon="9.239502"><ele>10.25</ele></trkpt>
   <trkpt lat="52.898616" lon="9.239548"><ele>11</ele></trkpt>
   <trkpt lat="52.897842" lon="9.239614"><ele>11</ele></trkpt>
   <trkpt lat="52.897221" lon="9.239704"><ele>11.5</ele></trkpt>
   <trkpt lat="52.896616" lon="9.239835"><ele>12.75</ele></trkpt>
   <trkpt lat="52.895827" lon="9.24003"><ele>12.75</ele></trkpt>
   <trkpt lat="52.894439" lon="9.240399"><ele>12</ele></trkpt>
   <trkpt lat="52.893346" lon="9.240677"><ele>13.25</ele></trkpt>
   <trkpt lat="52.892925" lon="9.240777"><ele>13.5</ele></trkpt>
   <trkpt lat="52.892903" lon="9.240784"><ele>13.75</ele></trkpt>
   <trkpt lat="52.892444" lon="9.240906"><ele>13.75</ele></trkpt>
   <trkpt lat="52.891392" lon="9.24116"><ele>13</ele></trkpt>
   <trkpt lat="52.891097" lon="9.241232"><ele>12.75</ele></trkpt>
   <trkpt lat="52.890335" lon="9.241426"><ele>13.5</ele></trkpt>
   <trkpt lat="52.887701" lon="9.242055"><ele>13</ele></trkpt>
   <trkpt lat="52.883843" lon="9.242989"><ele>12.5</ele></trkpt>
   <trkpt lat="52.880083" lon="9.243905"><ele>11.75</ele></trkpt>
   <trkpt lat="52.87882" lon="9.244212"><ele>13</ele></trkpt>
   <trkpt lat="52.874001" lon="9.245386"><ele>14</ele></trkpt>
   <trkpt lat="52.872331" lon="9.245753"><ele>14.75</ele></trkpt>
   <trkpt lat="52.871268" lon="9.246014"><ele>13.25</ele></trkpt>
   <trkpt lat="52.867853" lon="9.246853"><ele>13</ele></trkpt>
   <trkpt lat="52.865666" lon="9.24739"><ele>12.75</ele></trkpt>
   <trkpt lat="52.862331" lon="9.248209"><ele>14</ele></trkpt>
   <trkpt lat="52.861139" lon="9.248436"><ele>15</ele></trkpt>
   <trkpt lat="52.860065" lon="9.248628"><ele>15.5</ele></trkpt>
   <trkpt lat="52.858769" lon="9.248754"><ele>15.25</ele></trkpt>
   <trkpt lat="52.85732" lon="9.248763"><ele>14</ele></trkpt>
   <trkpt lat="52.855899" lon="9.248721"><ele>15</ele></trkpt>
   <trkpt lat="52.855317" lon="9.248679"><ele>15.25</ele></trkpt>
   <trkpt lat="52.854416" lon="9.24858"><ele>15</ele></trkpt>
   <trkpt lat="52.853139" lon="9.248347"><ele>15</ele></trkpt>
   <trkpt lat="52.852455" lon="9.24817"><ele>15</ele></trkpt>
   <trkpt lat="52.852197" lon="9.248094"><ele>15.25</ele></trkpt>
   <trkpt lat="52.851877" lon="9.248"><ele>15.25</ele></trkpt>
   <trkpt lat="52.851795" lon="9.247982"><ele>15.25</ele></trkpt>
   <trkpt lat="52.851294" lon="9.247837"><ele>15.5</ele></trkpt>
   <trkpt lat="52.850432" lon="9.247586"><ele>15.75</ele></trkpt>
   <trkpt lat="52.846016" lon="9.24616"><ele>16</ele></trkpt>
   <trkpt lat="52.84502" lon="9.245853"><ele>15.75</ele></trkpt>
   <trkpt lat="52.844819" lon="9.245775"><ele>16</ele></trkpt>
   <trkpt lat="52.844623" lon="9.245712"><ele>16</ele></trkpt>
   <trkpt lat="52.844" lon="9.245448"><ele>16.25</ele></trkpt>
   <trkpt lat="52.843931" lon="9.245426"><ele>16.25</ele></trkpt>
   <trkpt lat="52.843642" lon="9.245334"><ele>16</ele></trkpt>
   <trkpt lat="52.842918" lon="9.245103"><ele>17.25</ele></trkpt>
   <trkpt lat="52.842575" lon="9.244992"><ele>18.5</ele></trkpt>
   <trkpt lat="52.842556" lon="9.244986"><ele>18.75</ele></trkpt>
   <trkpt lat="52.841609" lon="9.244678"><ele>17.75</ele></trkpt>
   <trkpt lat="52.838522" lon="9.243729"><ele>15</ele></trkpt>
   <trkpt lat="52.835813" lon="9.242866"><ele>14.25</ele></trkpt>
   <trkpt lat="52.834058" lon="9.242317"><ele>15</ele></trkpt>
   <trkpt lat="52.833613" lon="9.242165"><ele>15</ele></trkpt>
   <trkpt lat="52.833098" lon="9.24202"><ele>15</ele></trkpt>
   <trkpt lat="52.832511" lon="9.24181"><ele>15</ele></trkpt>
   <trkpt lat="52.830233" lon="9.241098"><ele>16.25</ele></trkpt>
   <trkpt lat="52.825252" lon="9.239491"><ele>25.25</ele></trkpt>
   <trkpt lat="52.824254" lon="9.239169"><ele>23.25</ele></trkpt>
   <trkpt lat="52.820945" lon="9.238129"><ele>22</ele></trkpt>
   <trkpt lat="52.816139" lon="9.236619"><ele>20.5</ele></trkpt>
   <trkpt lat="52.803626" lon="9.232688"><ele>17</ele></trkpt>
   <trkpt lat="52.796857" lon="9.230562"><ele>17</ele></trkpt>
   <trkpt lat="52.795661" lon="9.230281"><ele>22</ele></trkpt>
   <trkpt lat="52.794664" lon="9.230089"><ele>25.25</ele></trkpt>
   <trkpt lat="52.794611" lon="9.230082"><ele>25.25</ele></trkpt>
   <trkpt lat="52.793279" lon="9.229916"><ele>24.75</ele></trkpt>
   <trkpt lat="52.792713" lon="9.22988"><ele>24.25</ele></trkpt>
   <trkpt lat="52.792546" lon="9.229875"><ele>24.25</ele></trkpt>
   <trkpt lat="52.792467" lon="9.229873"><ele>24.25</ele></trkpt>
   <trkpt lat="52.792006" lon="9.229874"><ele>23.25</ele></trkpt>
   <trkpt lat="52.79151" lon="9.22989"><ele>22.5</ele></trkpt>
   <trkpt lat="52.790665" lon="9.229912"><ele>22.25</ele></trkpt>
   <trkpt lat="52.790606" lon="9.229913"><ele>22.25</ele></trkpt>
   <trkpt lat="52.790552" lon="9.229919"><ele>22.5</ele></trkpt>
   <trkpt lat="52.789916" lon="9.230014"><ele>22.75</ele></trkpt>
   <trkpt lat="52.789819" lon="9.230016"><ele>22.75</ele></trkpt>
   <trkpt lat="52.789134" lon="9.230126"><ele>22</ele></trkpt>
   <trkpt lat="52.789097" lon="9.230132"><ele>22</ele></trkpt>
   <trkpt lat="52.788432" lon="9.230189"><ele>24</ele></trkpt>
   <trkpt lat="52.787611" lon="9.230303"><ele>24.25</ele></trkpt>
   <trkpt lat="52.78677" lon="9.230499"><ele>23</ele></trkpt>
   <trkpt lat="52.785378" lon="9.230899"><ele>21.75</ele></trkpt>
   <trkpt lat="52.784528" lon="9.231159"><ele>21.25</ele></trkpt>
   <trkpt lat="52.78396" lon="9.231305"><ele>21.5</ele></trkpt>
   <trkpt lat="52.78318" lon="9.231548"><ele>21</ele></trkpt>
   <trkpt lat="52.782424" lon="9.231762"><ele>20.5</ele></trkpt>
   <trkpt lat="52.782289" lon="9.231805"><ele>20.25</ele></trkpt>
   <trkpt lat="52.78191" lon="9.231893"><ele>19.5</ele></trkpt>
   <trkpt lat="52.7819" lon="9.231896"><ele>19.25</ele></trkpt>
   <trkpt lat="52.781113" lon="9.232064"><ele>18.25</ele></trkpt>
   <trkpt lat="52.781066" lon="9.232074"><ele>18.25</ele></trkpt>
   <trkpt lat="52.781041" lon="9.232082"><ele>18</ele></trkpt>
   <trkpt lat="52.780042" lon="9.232285"><ele>17</ele></trkpt>
   <trkpt lat="52.779991" lon="9.232299"><ele>17</ele></trkpt>
   <trkpt lat="52.777314" lon="9.233067"><ele>16.75</ele></trkpt>
   <trkpt lat="52.777176" lon="9.233107"><ele>17</ele></trkpt>
   <trkpt lat="52.77657" lon="9.233282"><ele>18</ele></trkpt>
   <trkpt lat="52.768074" lon="9.235732"><ele>18.25</ele></trkpt>
   <trkpt lat="52.767703" lon="9.235838"><ele>17.25</ele></trkpt>
   <trkpt lat="52.757278" lon="9.238827"><ele>24</ele></trkpt>
   <trkpt lat="52.755269" lon="9.239402"><ele>27.25</ele></trkpt>
   <trkpt lat="52.749488" lon="9.241018"><ele>26</ele></trkpt>
   <trkpt lat="52.7485" lon="9.241199"><ele>28.5</ele></trkpt>
   <trkpt lat="52.748195" lon="9.241239"><ele>29</ele></trkpt>
   <trkpt lat="52.747557" lon="9.241322"><ele>29.25</ele></trkpt>
   <trkpt lat="52.745962" lon="9.241471"><ele>28.25</ele></trkpt>
   <trkpt lat="52.745067" lon="9.241514"><ele>28</ele></trkpt>
   <trkpt lat="52.744234" lon="9.241514"><ele>29</ele></trkpt>
   <trkpt lat="52.738294" lon="9.241288"><ele>27.5</ele></trkpt>
   <trkpt lat="52.735518" lon="9.241179"><ele>25.75</ele></trkpt>
   <trkpt lat="52.732858" lon="9.241149"><ele>24.5</ele></trkpt>
   <trkpt lat="52.732717" lon="9.241142"><ele>24.25</ele></trkpt>
   <trkpt lat="52.729261" lon="9.240949"><ele>23.5</ele></trkpt>
   <trkpt lat="52.719256" lon="9.240587"><ele>31</ele></trkpt>
   <trkpt lat="52.712729" lon="9.240351"><ele>22.25</ele></trkpt>
   <trkpt lat="52.711552" lon="9.240271"><ele>22.25</ele></trkpt>
   <trkpt lat="52.71057" lon="9.240154"><ele>23.5</ele></trkpt>
   <trkpt lat="52.710007" lon="9.240056"><ele>23</ele></trkpt>
   <trkpt lat="52.709445" lon="9.239951"><ele>21.5</ele></trkpt>
   <trkpt lat="52.708091" lon="9.239609"><ele>22</ele></trkpt>
   <trkpt lat="52.70714" lon="9.239273"><ele>22.5</ele></trkpt>
   <trkpt lat="52.706204" lon="9.238882"><ele>22.5</ele></trkpt>
   <trkpt lat="52.705656" lon="9.238636"><ele>22.25</ele></trkpt>
   <trkpt lat="52.705378" lon="9.23851"><ele>22.5</ele></trkpt>
   <trkpt lat="52.704725" lon="9.238234"><ele>23.25</ele></trkpt>
   <trkpt lat="52.704465" lon="9.238087"><ele>23.75</ele></trkpt>
   <trkpt lat="52.704325" lon="9.238"><ele>24</ele></trkpt>
   <trkpt lat="52.704" lon="9.237799"><ele>25</ele></trkpt>
   <trkpt lat="52.703406" lon="9.237389"><ele>26.75</ele></trkpt>
   <trkpt lat="52.703035" lon="9.237159"><ele>26.75</ele></trkpt>
   <trkpt lat="52.702804" lon="9.237016"><ele>26.5</ele></trkpt>
   <trkpt lat="52.701953" lon="9.236449"><ele>24.75</ele></trkpt>
   <trkpt lat="52.701532" lon="9.236169"><ele>24.5</ele></trkpt>
   <trkpt lat="52.69947" lon="9.234648"><ele>24.75</ele></trkpt>
   <trkpt lat="52.696275" lon="9.232329"><ele>29.75</ele></trkpt>
   <trkpt lat="52.69611" lon="9.232206"><ele>29.75</ele></trkpt>
   <trkpt lat="52.696058" lon="9.232168"><ele>29.75</ele></trkpt>
   <trkpt lat="52.695629" lon="9.231851"><ele>30.25</ele></trkpt>
   <trkpt lat="52.695455" lon="9.231726"><ele>30.25</ele></trkpt>
   <trkpt lat="52.694944" lon="9.231359"><ele>29</ele></trkpt>
   <trkpt lat="52.694441" lon="9.230997"><ele>27.5</ele></trkpt>
   <trkpt lat="52.694225" lon="9.230842"><ele>27</ele></trkpt>
   <trkpt lat="52.692076" lon="9.229305"><ele>33.25</ele></trkpt>
   <trkpt lat="52.688581" lon="9.226773"><ele>26.75</ele></trkpt>
   <trkpt lat="52.687651" lon="9.226115"><ele>25</ele></trkpt>
   <trkpt lat="52.683994" lon="9.223511"><ele>23.25</ele></trkpt>
   <trkpt lat="52.683816" lon="9.223394"><ele>23.75</ele></trkpt>
   <trkpt lat="52.682974" lon="9.222845"><ele>25.25</ele></trkpt>
   <trkpt lat="52.681994" lon="9.222251"><ele>25.5</ele></trkpt>
   <trkpt lat="52.681025" lon="9.221768"><ele>25</ele></trkpt>
   <trkpt lat="52.679663" lon="9.221125"><ele>25</ele></trkpt>
   <trkpt lat="52.678116" lon="9.22054"><ele>24</ele></trkpt>
   <trkpt lat="52.677428" lon="9.220302"><ele>24.5</ele></trkpt>
   <trkpt lat="52.676639" lon="9.220074"><ele>26</ele></trkpt>
   <trkpt lat="52.676455" lon="9.220015"><ele>26</ele></trkpt>
   <trkpt lat="52.672454" lon="9.218913"><ele>24</ele></trkpt>
   <trkpt lat="52.666405" lon="9.217263"><ele>25.75</ele></trkpt>
   <trkpt lat="52.662582" lon="9.216237"><ele>30.25</ele></trkpt>
   <trkpt lat="52.660852" lon="9.215772"><ele>30.75</ele></trkpt>
   <trkpt lat="52.659457" lon="9.215398"><ele>32.5</ele></trkpt>
   <trkpt lat="52.657814" lon="9.214934"><ele>31.25</ele></trkpt>
   <trkpt lat="52.657022" lon="9.214685"><ele>29.25</ele></trkpt>
   <trkpt lat="52.656633" lon="9.214578"><ele>28.25</ele></trkpt>
   <trkpt lat="52.655518" lon="9.21427"><ele>27.75</ele></trkpt>
   <trkpt lat="52.654413" lon="9.213979"><ele>28</ele></trkpt>
   <trkpt lat="52.653703" lon="9.213806"><ele>28</ele></trkpt>
   <trkpt lat="52.653674" lon="9.213799"><ele>28</ele></trkpt>
   <trkpt lat="52.652847" lon="9.213606"><ele>28</ele></trkpt>
   <trkpt lat="52.652383" lon="9.213523"><ele>27.75</ele></trkpt>
   <trkpt lat="52.652094" lon="9.213499"><ele>27.75</ele></trkpt>
   <trkpt lat="52.652082" lon="9.213498"><ele>27.75</ele></trkpt>
   <trkpt lat="52.651752" lon="9.213479"><ele>27.75</ele></trkpt>
   <trkpt lat="52.650992" lon="9.213479"><ele>26.25</ele></trkpt>
   <trkpt lat="52.650559" lon="9.213545"><ele>25.5</ele></trkpt>
   <trkpt lat="52.650491" lon="9.213564"><ele>25.5</ele></trkpt>
   <trkpt lat="52.65048" lon="9.213567"><ele>25.5</ele></trkpt>
   <trkpt lat="52.650227" lon="9.213643"><ele>25.25</ele></trkpt>
   <trkpt lat="52.649803" lon="9.213776"><ele>25.25</ele></trkpt>
   <trkpt lat="52.649611" lon="9.213848"><ele>25.75</ele></trkpt>
   <trkpt lat="52.649276" lon="9.213996"><ele>26.5</ele></trkpt>
   <trkpt lat="52.648871" lon="9.214225"><ele>27</ele></trkpt>
   <trkpt lat="52.648795" lon="9.214271"><ele>27</ele></trkpt>
   <trkpt lat="52.648697" lon="9.214332"><ele>27.25</ele></trkpt>
   <trkpt lat="52.648609" lon="9.214398"><ele>27.5</ele></trkpt>
   <trkpt lat="52.648328" lon="9.21461"><ele>27.5</ele></trkpt>
   <trkpt lat="52.648104" lon="9.214799"><ele>27.5</ele></trkpt>
   <trkpt lat="52.647491" lon="9.215355"><ele>27</ele></trkpt>
   <trkpt lat="52.646982" lon="9.215859"><ele>27</ele></trkpt>
   <trkpt lat="52.646768" lon="9.216093"><ele>27.25</ele></trkpt>
   <trkpt lat="52.64654" lon="9.216359"><ele>27.5</ele></trkpt>
   <trkpt lat="52.645253" lon="9.217853"><ele>28</ele></trkpt>
   <trkpt lat="52.645082" lon="9.218054"><ele>28</ele></trkpt>
   <trkpt lat="52.645072" lon="9.218065"><ele>28.25</ele></trkpt>
   <trkpt lat="52.64479" lon="9.218396"><ele>28.25</ele></trkpt>
   <trkpt lat="52.644317" lon="9.218953"><ele>28.75</ele></trkpt>
   <trkpt lat="52.644062" lon="9.219271"><ele>28.75</ele></trkpt>
   <trkpt lat="52.643356" lon="9.220213"><ele>28</ele></trkpt>
   <trkpt lat="52.642996" lon="9.220724"><ele>27.5</ele></trkpt>
   <trkpt lat="52.642584" lon="9.22138"><ele>27.5</ele></trkpt>
   <trkpt lat="52.64234" lon="9.221812"><ele>28</ele></trkpt>
   <trkpt lat="52.642056" lon="9.222367"><ele>28</ele></trkpt>
   <trkpt lat="52.641813" lon="9.222871"><ele>27.5</ele></trkpt>
   <trkpt lat="52.641381" lon="9.223853"><ele>27</ele></trkpt>
   <trkpt lat="52.641336" lon="9.223963"><ele>27</ele></trkpt>
   <trkpt lat="52.641146" lon="9.224442"><ele>27</ele></trkpt>
   <trkpt lat="52.641013" lon="9.224821"><ele>27.25</ele></trkpt>
   <trkpt lat="52.640744" lon="9.225675"><ele>27.75</ele></trkpt>
   <trkpt lat="52.640483" lon="9.226585"><ele>26.25</ele></trkpt>
   <trkpt lat="52.640449" lon="9.226698"><ele>26</ele></trkpt>
   <trkpt lat="52.640422" lon="9.22679"><ele>26</ele></trkpt>
   <trkpt lat="52.640315" lon="9.227192"><ele>26</ele></trkpt>
   <trkpt lat="52.640168" lon="9.227844"><ele>26.5</ele></trkpt>
   <trkpt lat="52.640003" lon="9.228408"><ele>26.75</ele></trkpt>
   <trkpt lat="52.639966" lon="9.228523"><ele>26.75</ele></trkpt>
   <trkpt lat="52.639915" lon="9.228682"><ele>26.75</ele></trkpt>
   <trkpt lat="52.639894" lon="9.22875"><ele>26.75</ele></trkpt>
   <trkpt lat="52.63964" lon="9.229568"><ele>26.75</ele></trkpt>
   <trkpt lat="52.639604" lon="9.229678"><ele>26.75</ele></trkpt>
   <trkpt lat="52.639464" lon="9.230167"><ele>26.75</ele></trkpt>
   <trkpt lat="52.639288" lon="9.230822"><ele>26.75</ele></trkpt>
   <trkpt lat="52.639095" lon="9.231601"><ele>26</ele></trkpt>
   <trkpt lat="52.638996" lon="9.232028"><ele>26</ele></trkpt>
   <trkpt lat="52.638633" lon="9.233689"><ele>25.5</ele></trkpt>
   <trkpt lat="52.638201" lon="9.235682"><ele>25.25</ele></trkpt>
   <trkpt lat="52.636859" lon="9.241713"><ele>25</ele></trkpt>
   <trkpt lat="52.636768" lon="9.242115"><ele>25</ele></trkpt>
   <trkpt lat="52.635508" lon="9.247769"><ele>31.25</ele></trkpt>
   <trkpt lat="52.634815" lon="9.250844"><ele>31.5</ele></trkpt>
   <trkpt lat="52.634641" lon="9.251624"><ele>31.75</ele></trkpt>
   <trkpt lat="52.634037" lon="9.254351"><ele>31</ele></trkpt>
   <trkpt lat="52.634008" lon="9.254486"><ele>30.75</ele></trkpt>
   <trkpt lat="52.631632" lon="9.265006"><ele>32</ele></trkpt>
   <trkpt lat="52.630425" lon="9.270443"><ele>34</ele></trkpt>
   <trkpt lat="52.630359" lon="9.270739"><ele>34.25</ele></trkpt>
   <trkpt lat="52.628575" lon="9.278809"><ele>35.25</ele></trkpt>
   <trkpt lat="52.628183" lon="9.280514"><ele>34</ele></trkpt>
   <trkpt lat="52.627156" lon="9.284985"><ele>33.5</ele></trkpt>
   <trkpt lat="52.626606" lon="9.286961"><ele>34.25</ele></trkpt>
   <trkpt lat="52.626008" lon="9.288735"><ele>36</ele></trkpt>
   <trkpt lat="52.625581" lon="9.289948"><ele>35.75</ele></trkpt>
   <trkpt lat="52.62538" lon="9.290444"><ele>36</ele></trkpt>
   <trkpt lat="52.625073" lon="9.291209"><ele>36</ele></trkpt>
   <trkpt lat="52.624516" lon="9.292453"><ele>35.25</ele></trkpt>
   <trkpt lat="52.624029" lon="9.293472"><ele>36.75</ele></trkpt>
   <trkpt lat="52.623796" lon="9.293926"><ele>38.75</ele></trkpt>
   <trkpt lat="52.623253" lon="9.294953"><ele>41</ele></trkpt>
   <trkpt lat="52.622883" lon="9.295594"><ele>41.75</ele></trkpt>
   <trkpt lat="52.622469" lon="9.296272"><ele>42.5</ele></trkpt>
   <trkpt lat="52.622037" lon="9.29693"><ele>42.25</ele></trkpt>
   <trkpt lat="52.62157" lon="9.297591"><ele>40.75</ele></trkpt>
   <trkpt lat="52.621105" lon="9.298269"><ele>41.25</ele></trkpt>
   <trkpt lat="52.617332" lon="9.303442"><ele>44.75</ele></trkpt>
   <trkpt lat="52.613685" lon="9.308454"><ele>36</ele></trkpt>
   <trkpt lat="52.613622" lon="9.308545"><ele>35.75</ele></trkpt>
   <trkpt lat="52.610077" lon="9.313353"><ele>40.25</ele></trkpt>
   <trkpt lat="52.608142" lon="9.315995"><ele>37.25</ele></trkpt>
   <trkpt lat="52.606128" lon="9.318745"><ele>38</ele></trkpt>
   <trkpt lat="52.603307" lon="9.322597"><ele>35.75</ele></trkpt>
   <trkpt lat="52.602204" lon="9.324129"><ele>41.25</ele></trkpt>
   <trkpt lat="52.601905" lon="9.324541"><ele>40.75</ele></trkpt>
   <trkpt lat="52.601284" lon="9.325398"><ele>40.75</ele></trkpt>
   <trkpt lat="52.601279" lon="9.325404"><ele>41.5</ele></trkpt>
   <trkpt lat="52.60071" lon="9.326179"><ele>41.5</ele></trkpt>
   <trkpt lat="52.600637" lon="9.326277"><ele>41.25</ele></trkpt>
   <trkpt lat="52.6005" lon="9.326467"><ele>40.75</ele></trkpt>
   <trkpt lat="52.59969" lon="9.327565"><ele>38.75</ele></trkpt>
   <trkpt lat="52.599323" lon="9.328067"><ele>38</ele></trkpt>
   <trkpt lat="52.598905" lon="9.328677"><ele>37.5</ele></trkpt>
   <trkpt lat="52.598345" lon="9.329547"><ele>37.75</ele></trkpt>
   <trkpt lat="52.597775" lon="9.330484"><ele>37.75</ele></trkpt>
   <trkpt lat="52.597258" lon="9.331373"><ele>39</ele></trkpt>
   <trkpt lat="52.596822" lon="9.332151"><ele>40.5</ele></trkpt>
   <trkpt lat="52.59609" lon="9.333548"><ele>41.75</ele></trkpt>
   <trkpt lat="52.595456" lon="9.334834"><ele>40.5</ele></trkpt>
   <trkpt lat="52.594928" lon="9.335975"><ele>43</ele></trkpt>
   <trkpt lat="52.594421" lon="9.337167"><ele>43.5</ele></trkpt>
   <trkpt lat="52.593911" lon="9.33842"><ele>44.5</ele></trkpt>
   <trkpt lat="52.593496" lon="9.339579"><ele>45.5</ele></trkpt>
   <trkpt lat="52.592975" lon="9.341079"><ele>47.75</ele></trkpt>
   <trkpt lat="52.59244" lon="9.3428"><ele>49.75</ele></trkpt>
   <trkpt lat="52.592249" lon="9.343453"><ele>49.5</ele></trkpt>
   <trkpt lat="52.592021" lon="9.344232"><ele>49.25</ele></trkpt>
   <trkpt lat="52.591638" lon="9.34568"><ele>47</ele></trkpt>
   <trkpt lat="52.59136" lon="9.346821"><ele>44.75</ele></trkpt>
   <trkpt lat="52.591071" lon="9.348073"><ele>43</ele></trkpt>
   <trkpt lat="52.590846" lon="9.349145"><ele>42.75</ele></trkpt>
   <trkpt lat="52.590515" lon="9.350958"><ele>42.25</ele></trkpt>
   <trkpt lat="52.589997" lon="9.354145"><ele>46.75</ele></trkpt>
   <trkpt lat="52.589813" lon="9.355349"><ele>48.5</ele></trkpt>
   <trkpt lat="52.588575" lon="9.363358"><ele>49.5</ele></trkpt>
   <trkpt lat="52.586701" lon="9.375447"><ele>58</ele></trkpt>
   <trkpt lat="52.58562" lon="9.38238"><ele>59</ele></trkpt>
   <trkpt lat="52.585414" lon="9.383607"><ele>58.25</ele></trkpt>
   <trkpt lat="52.585199" lon="9.384835"><ele>57</ele></trkpt>
   <trkpt lat="52.584843" lon="9.386414"><ele>57.75</ele></trkpt>
   <trkpt lat="52.584608" lon="9.387315"><ele>59</ele></trkpt>
   <trkpt lat="52.584242" lon="9.388421"><ele>62.25</ele></trkpt>
   <trkpt lat="52.583827" lon="9.389621"><ele>60.5</ele></trkpt>
   <trkpt lat="52.583404" lon="9.390565"><ele>59.75</ele></trkpt>
   <trkpt lat="52.581536" lon="9.394581"><ele>58.75</ele></trkpt>
   <trkpt lat="52.581359" lon="9.394963"><ele>58</ele></trkpt>
   <trkpt lat="52.580789" lon="9.39617"><ele>57.5</ele></trkpt>
   <trkpt lat="52.57968" lon="9.398518"><ele>57.75</ele></trkpt>
   <trkpt lat="52.578983" lon="9.39998"><ele>57.5</ele></trkpt>
   <trkpt lat="52.578431" lon="9.401137"><ele>56.25</ele></trkpt>
   <trkpt lat="52.577672" lon="9.402729"><ele>56.75</ele></trkpt>
   <trkpt lat="52.57706" lon="9.403847"><ele>57</ele></trkpt>
   <trkpt lat="52.576457" lon="9.404881"><ele>56.25</ele></trkpt>
   <trkpt lat="52.576268" lon="9.405204"><ele>55.75</ele></trkpt>
   <trkpt lat="52.576149" lon="9.405387"><ele>55.5</ele></trkpt>
   <trkpt lat="52.576081" lon="9.405488"><ele>55.25</ele></trkpt>
   <trkpt lat="52.575486" lon="9.406501"><ele>53.75</ele></trkpt>
   <trkpt lat="52.575367" lon="9.406678"><ele>53.25</ele></trkpt>
   <trkpt lat="52.574482" lon="9.407839"><ele>52.5</ele></trkpt>
   <trkpt lat="52.574384" lon="9.407965"><ele>52.5</ele></trkpt>
   <trkpt lat="52.57434" lon="9.408022"><ele>52.5</ele></trkpt>
   <trkpt lat="52.573913" lon="9.408556"><ele>53</ele></trkpt>
   <trkpt lat="52.573346" lon="9.409218"><ele>52.75</ele></trkpt>
   <trkpt lat="52.572677" lon="9.409939"><ele>52.75</ele></trkpt>
   <trkpt lat="52.57238" lon="9.410235"><ele>53</ele></trkpt>
   <trkpt lat="52.572233" lon="9.410381"><ele>53</ele></trkpt>
   <trkpt lat="52.571537" lon="9.410999"><ele>53.25</ele></trkpt>
   <trkpt lat="52.571054" lon="9.411429"><ele>54.75</ele></trkpt>
   <trkpt lat="52.57007" lon="9.412202"><ele>56.25</ele></trkpt>
   <trkpt lat="52.569049" lon="9.412896"><ele>59.25</ele></trkpt>
   <trkpt lat="52.56628" lon="9.414554"><ele>61.5</ele></trkpt>
   <trkpt lat="52.562871" lon="9.416572"><ele>56.5</ele></trkpt>
   <trkpt lat="52.560269" lon="9.418184"><ele>52.75</ele></trkpt>
   <trkpt lat="52.557673" lon="9.419723"><ele>49.25</ele></trkpt>
   <trkpt lat="52.555793" lon="9.420838"><ele>47</ele></trkpt>
   <trkpt lat="52.551298" lon="9.423513"><ele>45.5</ele></trkpt>
   <trkpt lat="52.55115" lon="9.423601"><ele>45.5</ele></trkpt>
   <trkpt lat="52.550334" lon="9.424087"><ele>44.75</ele></trkpt>
   <trkpt lat="52.549496" lon="9.424633"><ele>45.75</ele></trkpt>
   <trkpt lat="52.548657" lon="9.425227"><ele>45.75</ele></trkpt>
   <trkpt lat="52.547313" lon="9.426317"><ele>44.5</ele></trkpt>
   <trkpt lat="52.546699" lon="9.426817"><ele>44.75</ele></trkpt>
   <trkpt lat="52.545917" lon="9.427538"><ele>44</ele></trkpt>
   <trkpt lat="52.545748" lon="9.427693"><ele>43.75</ele></trkpt>
   <trkpt lat="52.545691" lon="9.427744"><ele>43.75</ele></trkpt>
   <trkpt lat="52.545587" lon="9.427838"><ele>43.75</ele></trkpt>
   <trkpt lat="52.545557" lon="9.427864"><ele>43.75</ele></trkpt>
   <trkpt lat="52.545343" lon="9.428056"><ele>43.75</ele></trkpt>
   <trkpt lat="52.544803" lon="9.428595"><ele>43.25</ele></trkpt>
   <trkpt lat="52.544373" lon="9.429032"><ele>42.25</ele></trkpt>
   <trkpt lat="52.544092" lon="9.429349"><ele>42.25</ele></trkpt>
   <trkpt lat="52.543534" lon="9.429978"><ele>42.25</ele></trkpt>
   <trkpt lat="52.542453" lon="9.431258"><ele>43.5</ele></trkpt>
   <trkpt lat="52.541285" lon="9.432695"><ele>45.25</ele></trkpt>
   <trkpt lat="52.539023" lon="9.435554"><ele>45.75</ele></trkpt>
   <trkpt lat="52.536567" lon="9.438649"><ele>43.25</ele></trkpt>
   <trkpt lat="52.534867" lon="9.440773"><ele>40</ele></trkpt>
   <trkpt lat="52.531644" lon="9.444878"><ele>42.25</ele></trkpt>
   <trkpt lat="52.529862" lon="9.447128"><ele>40.75</ele></trkpt>
   <trkpt lat="52.529676" lon="9.447363"><ele>40.25</ele></trkpt>
   <trkpt lat="52.529519" lon="9.44757"><ele>39.75</ele></trkpt>
   <trkpt lat="52.528665" lon="9.448702"><ele>37.75</ele></trkpt>
   <trkpt lat="52.527184" lon="9.450356"><ele>37.25</ele></trkpt>
   <trkpt lat="52.526534" lon="9.450992"><ele>37.5</ele></trkpt>
   <trkpt lat="52.525833" lon="9.451656"><ele>36</ele></trkpt>
   <trkpt lat="52.525231" lon="9.452175"><ele>36</ele></trkpt>
   <trkpt lat="52.524701" lon="9.452618"><ele>36</ele></trkpt>
   <trkpt lat="52.523932" lon="9.453163"><ele>36</ele></trkpt>
   <trkpt lat="52.523193" lon="9.453661"><ele>36</ele></trkpt>
   <trkpt lat="52.522443" lon="9.454114"><ele>36.75</ele></trkpt>
   <trkpt lat="52.522101" lon="9.454304"><ele>36.5</ele></trkpt>
   <trkpt lat="52.521143" lon="9.454758"><ele>36.75</ele></trkpt>
   <trkpt lat="52.520448" lon="9.455048"><ele>36.5</ele></trkpt>
   <trkpt lat="52.51913" lon="9.45548"><ele>35.5</ele></trkpt>
   <trkpt lat="52.518465" lon="9.45564"><ele>35.75</ele></trkpt>
   <trkpt lat="52.518006" lon="9.455709"><ele>36.25</ele></trkpt>
   <trkpt lat="52.517289" lon="9.455817"><ele>37.5</ele></trkpt>
   <trkpt lat="52.516876" lon="9.455867"><ele>38.5</ele></trkpt>
   <trkpt lat="52.516625" lon="9.455879"><ele>39</ele></trkpt>
   <trkpt lat="52.516612" lon="9.455879"><ele>39</ele></trkpt>
   <trkpt lat="52.516026" lon="9.455909"><ele>39</ele></trkpt>
   <trkpt lat="52.513953" lon="9.455874"><ele>38</ele></trkpt>
   <trkpt lat="52.509034" lon="9.455641"><ele>40.75</ele></trkpt>
   <trkpt lat="52.507578" lon="9.45558"><ele>40.75</ele></trkpt>
   <trkpt lat="52.507401" lon="9.455568"><ele>41</ele></trkpt>
   <trkpt lat="52.507208" lon="9.455567"><ele>41</ele></trkpt>
   <trkpt lat="52.506901" lon="9.455553"><ele>41</ele></trkpt>
   <trkpt lat="52.506383" lon="9.45547"><ele>41</ele></trkpt>
   <trkpt lat="52.506194" lon="9.455461"><ele>41</ele></trkpt>
   <trkpt lat="52.506007" lon="9.455448"><ele>41</ele></trkpt>
   <trkpt lat="52.505207" lon="9.455415"><ele>41</ele></trkpt>
   <trkpt lat="52.504851" lon="9.455402"><ele>40.75</ele></trkpt>
   <trkpt lat="52.504577" lon="9.455391"><ele>40.25</ele></trkpt>
   <trkpt lat="52.503307" lon="9.455354"><ele>39.25</ele></trkpt>
   <trkpt lat="52.502963" lon="9.455339"><ele>39.25</ele></trkpt>
   <trkpt lat="52.502674" lon="9.455326"><ele>39.25</ele></trkpt>
   <trkpt lat="52.502343" lon="9.455311"><ele>39.25</ele></trkpt>
   <trkpt lat="52.502291" lon="9.455309"><ele>39.5</ele></trkpt>
   <trkpt lat="52.502189" lon="9.455304"><ele>39.5</ele></trkpt>
   <trkpt lat="52.49999" lon="9.455205"><ele>40.75</ele></trkpt>
   <trkpt lat="52.499463" lon="9.45518"><ele>40.25</ele></trkpt>
   <trkpt lat="52.498192" lon="9.455146"><ele>40</ele></trkpt>
   <trkpt lat="52.497641" lon="9.455105"><ele>40.75</ele></trkpt>
   <trkpt lat="52.496941" lon="9.455064"><ele>39</ele></trkpt>
   <trkpt lat="52.496887" lon="9.455062"><ele>38.75</ele></trkpt>
   <trkpt lat="52.496672" lon="9.455051"><ele>38</ele></trkpt>
   <trkpt lat="52.49651" lon="9.455042"><ele>38</ele></trkpt>
   <trkpt lat="52.496113" lon="9.455128"><ele>38</ele></trkpt>
   <trkpt lat="52.495458" lon="9.455099"><ele>38.5</ele></trkpt>
   <trkpt lat="52.492696" lon="9.45498"><ele>40.5</ele></trkpt>
   <trkpt lat="52.491573" lon="9.454923"><ele>40</ele></trkpt>
   <trkpt lat="52.489119" lon="9.454837"><ele>38</ele></trkpt>
   <trkpt lat="52.484754" lon="9.454646"><ele>40.5</ele></trkpt>
   <trkpt lat="52.484696" lon="9.454642"><ele>40.5</ele></trkpt>
   <trkpt lat="52.483586" lon="9.454591"><ele>40.5</ele></trkpt>
   <trkpt lat="52.480348" lon="9.454461"><ele>42.25</ele></trkpt>
   <trkpt lat="52.478209" lon="9.454374"><ele>43.75</ele></trkpt>
   <trkpt lat="52.477527" lon="9.45428"><ele>43</ele></trkpt>
   <trkpt lat="52.477356" lon="9.454271"><ele>43.25</ele></trkpt>
   <trkpt lat="52.477074" lon="9.454263"><ele>44</ele></trkpt>
   <trkpt lat="52.474682" lon="9.454177"><ele>43</ele></trkpt>
   <trkpt lat="52.471364" lon="9.454088"><ele>42</ele></trkpt>
   <trkpt lat="52.469315" lon="9.453954"><ele>43</ele></trkpt>
   <trkpt lat="52.469135" lon="9.453943"><ele>43</ele></trkpt>
   <trkpt lat="52.468636" lon="9.453914"><ele>43</ele></trkpt>
   <trkpt lat="52.467896" lon="9.453883"><ele>44</ele></trkpt>
   <trkpt lat="52.467256" lon="9.453866"><ele>45</ele></trkpt>
   <trkpt lat="52.466656" lon="9.453831"><ele>45</ele></trkpt>
   <trkpt lat="52.466282" lon="9.453823"><ele>46.5</ele></trkpt>
   <trkpt lat="52.465859" lon="9.453812"><ele>48.25</ele></trkpt>
   <trkpt lat="52.465794" lon="9.45381"><ele>48.5</ele></trkpt>
   <trkpt lat="52.465201" lon="9.453791"><ele>49.5</ele></trkpt>
   <trkpt lat="52.465078" lon="9.453787"><ele>49.75</ele></trkpt>
   <trkpt lat="52.464446" lon="9.453746"><ele>50</ele></trkpt>
   <trkpt lat="52.463655" lon="9.453717"><ele>49.25</ele></trkpt>
   <trkpt lat="52.463019" lon="9.453763"><ele>48.25</ele></trkpt>
   <trkpt lat="52.461637" lon="9.45367"><ele>47</ele></trkpt>
   <trkpt lat="52.461023" lon="9.453606"><ele>48.5</ele></trkpt>
   <trkpt lat="52.460451" lon="9.45352"><ele>47.25</ele></trkpt>
   <trkpt lat="52.459919" lon="9.453417"><ele>45</ele></trkpt>
   <trkpt lat="52.459032" lon="9.453213"><ele>44.75</ele></trkpt>
   <trkpt lat="52.457938" lon="9.452889"><ele>50</ele></trkpt>
   <trkpt lat="52.456964" lon="9.452519"><ele>52.25</ele></trkpt>
   <trkpt lat="52.456216" lon="9.452223"><ele>52</ele></trkpt>
   <trkpt lat="52.455057" lon="9.451657"><ele>49.75</ele></trkpt>
   <trkpt lat="52.453476" lon="9.450826"><ele>43.75</ele></trkpt>
   <trkpt lat="52.45193" lon="9.450099"><ele>44.5</ele></trkpt>
   <trkpt lat="52.447247" lon="9.447667"><ele>45.5</ele></trkpt>
   <trkpt lat="52.441629" lon="9.444748"><ele>46.5</ele></trkpt>
   <trkpt lat="52.441561" lon="9.444713"><ele>46</ele></trkpt>
   <trkpt lat="52.441507" lon="9.444686"><ele>45.75</ele></trkpt>
   <trkpt lat="52.441443" lon="9.444654"><ele>45.5</ele></trkpt>
   <trkpt lat="52.441379" lon="9.44462"><ele>45.25</ele></trkpt>
   <trkpt lat="52.441294" lon="9.444575"><ele>45</ele></trkpt>
   <trkpt lat="52.440691" lon="9.444267"><ele>43.5</ele></trkpt>
   <trkpt lat="52.438733" lon="9.443264"><ele>41</ele></trkpt>
   <trkpt lat="52.438633" lon="9.443213"><ele>41.25</ele></trkpt>
   <trkpt lat="52.438341" lon="9.443063"><ele>41.5</ele></trkpt>
   <trkpt lat="52.437149" lon="9.442453"><ele>41</ele></trkpt>
   <trkpt lat="52.434726" lon="9.441248"><ele>40.25</ele></trkpt>
   <trkpt lat="52.434556" lon="9.44116"><ele>40.25</ele></trkpt>
   <trkpt lat="52.433417" lon="9.440548"><ele>39</ele></trkpt>
   <trkpt lat="52.433395" lon="9.440538"><ele>39</ele></trkpt>
   <trkpt lat="52.433302" lon="9.440498"><ele>39</ele></trkpt>
   <trkpt lat="52.433181" lon="9.440446"><ele>39</ele></trkpt>
   <trkpt lat="52.4329" lon="9.440324"><ele>39</ele></trkpt>
   <trkpt lat="52.432407" lon="9.440114"><ele>39</ele></trkpt>
   <trkpt lat="52.432275" lon="9.440081"><ele>39</ele></trkpt>
   <trkpt lat="52.431996" lon="9.440013"><ele>39</ele></trkpt>
   <trkpt lat="52.431447" lon="9.439916"><ele>39.25</ele></trkpt>
   <trkpt lat="52.430971" lon="9.43989"><ele>40.75</ele></trkpt>
   <trkpt lat="52.430677" lon="9.439889"><ele>41.5</ele></trkpt>
   <trkpt lat="52.43025" lon="9.439902"><ele>43</ele></trkpt>
   <trkpt lat="52.430099" lon="9.439916"><ele>43.5</ele></trkpt>
   <trkpt lat="52.429569" lon="9.440023"><ele>45</ele></trkpt>
   <trkpt lat="52.429153" lon="9.44013"><ele>45.75</ele></trkpt>
   <trkpt lat="52.428666" lon="9.440315"><ele>44.5</ele></trkpt>
   <trkpt lat="52.428512" lon="9.440373"><ele>44.25</ele></trkpt>
   <trkpt lat="52.428186" lon="9.440526"><ele>44.5</ele></trkpt>
   <trkpt lat="52.427796" lon="9.440747"><ele>45.75</ele></trkpt>
   <trkpt lat="52.427333" lon="9.441063"><ele>46.75</ele></trkpt>
   <trkpt lat="52.42704" lon="9.441286"><ele>46.5</ele></trkpt>
   <trkpt lat="52.42668" lon="9.441619"><ele>46</ele></trkpt>
   <trkpt lat="52.426419" lon="9.441878"><ele>46.25</ele></trkpt>
   <trkpt lat="52.426203" lon="9.442098"><ele>46.75</ele></trkpt>
   <trkpt lat="52.426064" lon="9.442248"><ele>47</ele></trkpt>
   <trkpt lat="52.42558" lon="9.44285"><ele>48</ele></trkpt>
   <trkpt lat="52.42526" lon="9.443331"><ele>47.5</ele></trkpt>
   <trkpt lat="52.424891" lon="9.443936"><ele>47.75</ele></trkpt>
   <trkpt lat="52.424544" lon="9.444542"><ele>47.75</ele></trkpt>
   <trkpt lat="52.424362" lon="9.444876"><ele>47.5</ele></trkpt>
   <trkpt lat="52.424002" lon="9.445632"><ele>47</ele></trkpt>
   <trkpt lat="52.423886" lon="9.445921"><ele>47</ele></trkpt>
   <trkpt lat="52.423725" lon="9.446323"><ele>47.25</ele></trkpt>
   <trkpt lat="52.423544" lon="9.446899"><ele>47.75</ele></trkpt>
   <trkpt lat="52.423347" lon="9.44758"><ele>47.75</ele></trkpt>
   <trkpt lat="52.423245" lon="9.447968"><ele>47.25</ele></trkpt>
   <trkpt lat="52.423094" lon="9.448603"><ele>47</ele></trkpt>
   <trkpt lat="52.422942" lon="9.449284"><ele>47</ele></trkpt>
   <trkpt lat="52.422478" lon="9.451458"><ele>46.75</ele></trkpt>
   <trkpt lat="52.422065" lon="9.453371"><ele>47</ele></trkpt>
   <trkpt lat="52.42193" lon="9.453955"><ele>47</ele></trkpt>
   <trkpt lat="52.421799" lon="9.454521"><ele>46.75</ele></trkpt>
   <trkpt lat="52.421681" lon="9.454936"><ele>46.75</ele></trkpt>
   <trkpt lat="52.421483" lon="9.455502"><ele>46.5</ele></trkpt>
   <trkpt lat="52.421339" lon="9.456033"><ele>46.25</ele></trkpt>
   <trkpt lat="52.421085" lon="9.456801"><ele>45.75</ele></trkpt>
   <trkpt lat="52.420939" lon="9.457331"><ele>45.25</ele></trkpt>
   <trkpt lat="52.420688" lon="9.458089"><ele>45.75</ele></trkpt>
   <trkpt lat="52.420528" lon="9.458699"><ele>46.25</ele></trkpt>
   <trkpt lat="52.4202" lon="9.460106"><ele>46.25</ele></trkpt>
   <trkpt lat="52.420193" lon="9.460143"><ele>46.25</ele></trkpt>
   <trkpt lat="52.420186" lon="9.460179"><ele>46</ele></trkpt>
   <trkpt lat="52.420138" lon="9.460413"><ele>45.75</ele></trkpt>
   <trkpt lat="52.419965" lon="9.461245"><ele>44.5</ele></trkpt>
   <trkpt lat="52.419828" lon="9.461923"><ele>44.75</ele></trkpt>
   <trkpt lat="52.419824" lon="9.461941"><ele>44.75</ele></trkpt>
   <trkpt lat="52.419753" lon="9.462295"><ele>45.25</ele></trkpt>
   <trkpt lat="52.419706" lon="9.462535"><ele>45.75</ele></trkpt>
   <trkpt lat="52.419576" lon="9.463206"><ele>46.75</ele></trkpt>
   <trkpt lat="52.419106" lon="9.465487"><ele>47</ele></trkpt>
   <trkpt lat="52.418644" lon="9.467628"><ele>49</ele></trkpt>
   <trkpt lat="52.417558" lon="9.472606"><ele>46.75</ele></trkpt>
   <trkpt lat="52.416806" lon="9.476077"><ele>45.75</ele></trkpt>
   <trkpt lat="52.41561" lon="9.481638"><ele>49.75</ele></trkpt>
   <trkpt lat="52.414975" lon="9.484575"><ele>52</ele></trkpt>
   <trkpt lat="52.414856" lon="9.485119"><ele>51.75</ele></trkpt>
   <trkpt lat="52.41482" lon="9.485286"><ele>52</ele></trkpt>
   <trkpt lat="52.41455" lon="9.486531"><ele>52.5</ele></trkpt>
  </trkseg>
 </trk>
</gpx>