<?xml version="1.0" encoding="UTF-8"?>
<!-- track-length = 14726 filtered ascend = 46 plain-ascend = 20 cost=14736 energy=0.2kwh time=19m 36s -->
<gpx 
 xmlns="http://www.topografix.com/GPX/1/1" 
 xmlns:xsi="http://www.w3.org/2001/XMLSchema-instance" 
 xsi:schemaLocation="http://www.topografix.com/GPX/1/1 http://www.topografix.com/GPX/1/1/gpx.xsd" 
 version="1.1" 
 creator="BRouter-Web 0.18.1">
 <trk>
  <name>cossebaude4</name>
  <trkseg>
   <trkpt lat="51.124316" lon="13.593524"><ele>111.75</ele></trkpt>
   <trkpt lat="51.123863" lon="13.593696"><ele>111</ele></trkpt>
   <trkpt lat="51.123792" lon="13.593723"><ele>110.75</ele></trkpt>
   <trkpt lat="51.122851" lon="13.594027"><ele>109</ele></trkpt>
   <trkpt lat="51.122792" lon="13.594044"><ele>109</ele></trkpt>
   <trkpt lat="51.122532" lon="13.594125"><ele>109</ele></trkpt>
   <trkpt lat="51.121675" lon="13.594376"><ele>108</ele></trkpt>
   <trkpt lat="51.12134" lon="13.594487"><ele>108.5</ele></trkpt>
   <trkpt lat="51.120754" lon="13.594675"><ele>109.75</ele></trkpt>
   <trkpt lat="51.120067" lon="13.594938"><ele>111.5</ele></trkpt>
   <trkpt lat="51.119138" lon="13.595343"><ele>111</ele></trkpt>
   <trkpt lat="51.118414" lon="13.595684"><ele>110.75</ele></trkpt>
   <trkpt lat="51.117845" lon="13.595903"><ele>111.5</ele></trkpt>
   <trkpt lat="51.117585" lon="13.595997"><ele>111.75</ele></trkpt>
   <trkpt lat="51.117528" lon="13.596018"><ele>111.75</ele></trkpt>
   <trkpt lat="51.117476" lon="13.596038"><ele>111.75</ele></trkpt>
   <trkpt lat="51.117321" lon="13.596096"><ele>111.75</ele></trkpt>
   <trkpt lat="51.116784" lon="13.596303"><ele>111.5</ele></trkpt>
   <trkpt lat="51.116109" lon="13.596584"><ele>111</ele></trkpt>
   <trkpt lat="51.115865" lon="13.596687"><ele>111</ele></trkpt>
   <trkpt lat="51.114935" lon="13.59708"><ele>110.5</ele></trkpt>
   <trkpt lat="51.114766" lon="13.597163"><ele>110.25</ele></trkpt>
   <trkpt lat="51.114613" lon="13.597227"><ele>110.25</ele></trkpt>
   <trkpt lat="51.11379" lon="13.597581"><ele>109.75</ele></trkpt>
   <trkpt lat="51.111728" lon="13.598476"><ele>109.75</ele></trkpt>
   <trkpt lat="51.11161" lon="13.598527"><ele>109.75</ele></trkpt>
   <trkpt lat="51.111388" lon="13.598661"><ele>109.75</ele></trkpt>
   <trkpt lat="51.111076" lon="13.598815"><ele>109.5</ele></trkpt>
   <trkpt lat="51.110851" lon="13.598907"><ele>109.5</ele></trkpt>
   <trkpt lat="51.110287" lon="13.599149"><ele>109.25</ele></trkpt>
   <trkpt lat="51.110167" lon="13.599201"><ele>109</ele></trkpt>
   <trkpt lat="51.108977" lon="13.599717"><ele>108.25</ele></trkpt>
   <trkpt lat="51.108883" lon="13.599759"><ele>108.25</ele></trkpt>
   <trkpt lat="51.107122" lon="13.600528"><ele>107</ele></trkpt>
   <trkpt lat="51.107061" lon="13.600554"><ele>106.75</ele></trkpt>
   <trkpt lat="51.106869" lon="13.600638"><ele>106.25</ele></trkpt>
   <trkpt lat="51.106066" lon="13.600983"><ele>105.25</ele></trkpt>
   <trkpt lat="51.105837" lon="13.601082"><ele>105.25</ele></trkpt>
   <trkpt lat="51.105475" lon="13.601245"><ele>106.25</ele></trkpt>
   <trkpt lat="51.104357" lon="13.601727"><ele>108.5</ele></trkpt>
   <trkpt lat="51.103869" lon="13.601939"><ele>109</ele></trkpt>
   <trkpt lat="51.102676" lon="13.602457"><ele>107.5</ele></trkpt>
   <trkpt lat="51.101626" lon="13.602912"><ele>107.75</ele></trkpt>
   <trkpt lat="51.099787" lon="13.603708"><ele>108.25</ele></trkpt>
   <trkpt lat="51.099165" lon="13.60396"><ele>108</ele></trkpt>
   <trkpt lat="51.098732" lon="13.604159"><ele>108</ele></trkpt>
   <trkpt lat="51.098496" lon="13.60427"><ele>108</ele></trkpt>
   <trkpt lat="51.097854" lon="13.604573"><ele>107.5</ele></trkpt>
   <trkpt lat="51.094949" lon="13.605824"><ele>106.5</ele></trkpt>
   <trkpt lat="51.094719" lon="13.605931"><ele>106.5</ele></trkpt>
   <trkpt lat="51.094508" lon="13.606025"><ele>106.5</ele></trkpt>
   <trkpt lat="51.094094" lon="13.606239"><ele>108</ele></trkpt>
   <trkpt lat="51.093513" lon="13.606585"><ele>108.25</ele></trkpt>
   <trkpt lat="51.093472" lon="13.606607"><ele>108.25</ele></trkpt>
   <trkpt lat="51.093322" lon="13.606712"><ele>108</ele></trkpt>
   <trkpt lat="51.093004" lon="13.606936"><ele>108.25</ele></trkpt>
   <trkpt lat="51.092755" lon="13.607125"><ele>108.25</ele></trkpt>
   <trkpt lat="51.092291" lon="13.607537"><ele>110</ele></trkpt>
   <trkpt lat="51.092066" lon="13.607761"><ele>111.25</ele></trkpt>
   <trkpt lat="51.091853" lon="13.607993"><ele>111.5</ele></trkpt>
   <trkpt lat="51.091563" lon="13.608327"><ele>110.75</ele></trkpt>
   <trkpt lat="51.091478" lon="13.608424"><ele>111</ele></trkpt>
   <trkpt lat="51.091086" lon="13.60893"><ele>112.25</ele></trkpt>
   <trkpt lat="51.090954" lon="13.609119"><ele>112.5</ele></trkpt>
   <trkpt lat="51.09088" lon="13.609228"><ele>112.5</ele></trkpt>
   <trkpt lat="51.090669" lon="13.609549"><ele>114.5</ele></trkpt>
   <trkpt lat="51.090547" lon="13.609748"><ele>117</ele></trkpt>
   <trkpt lat="51.090426" lon="13.609948"><ele>117</ele></trkpt>
   <trkpt lat="51.090316" lon="13.610143"><ele>117.75</ele></trkpt>
   <trkpt lat="51.09017" lon="13.610403"><ele>118.5</ele></trkpt>
   <trkpt lat="51.089925" lon="13.610873"><ele>119</ele></trkpt>
   <trkpt lat="51.089717" lon="13.611319"><ele>119</ele></trkpt>
   <trkpt lat="51.089518" lon="13.611769"><ele>119</ele></trkpt>
   <trkpt lat="51.089251" lon="13.612448"><ele>118.25</ele></trkpt>
   <trkpt lat="51.089157" lon="13.612702"><ele>117.5</ele></trkpt>
   <trkpt lat="51.088947" lon="13.613332"><ele>117.5</ele></trkpt>
   <trkpt lat="51.088755" lon="13.613981"><ele>118.75</ele></trkpt>
   <trkpt lat="51.088648" lon="13.614391"><ele>118.5</ele></trkpt>
   <trkpt lat="51.088517" lon="13.61496"><ele>117</ele></trkpt>
   <trkpt lat="51.088361" lon="13.615691"><ele>117</ele></trkpt>
   <trkpt lat="51.087871" lon="13.618164"><ele>118.5</ele></trkpt>
   <trkpt lat="51.087294" lon="13.620978"><ele>113.75</ele></trkpt>
   <trkpt lat="51.087125" lon="13.621807"><ele>113.5</ele></trkpt>
   <trkpt lat="51.086918" lon="13.622853"><ele>112.75</ele></trkpt>
   <trkpt lat="51.086377" lon="13.625522"><ele>114.5</ele></trkpt>
   <trkpt lat="51.086294" lon="13.625938"><ele>114.75</ele></trkpt>
   <trkpt lat="51.085968" lon="13.627348"><ele>115.25</ele></trkpt>
   <trkpt lat="51.085933" lon="13.62753"><ele>115.5</ele></trkpt>
   <trkpt lat="51.085705" lon="13.628638"><ele>115.75</ele></trkpt>
   <trkpt lat="51.085691" lon="13.628708"><ele>115.75</ele></trkpt>
   <trkpt lat="51.085215" lon="13.631061"><ele>111.25</ele></trkpt>
   <trkpt lat="51.084814" lon="13.633049"><ele>108.25</ele></trkpt>
   <trkpt lat="51.084599" lon="13.634111"><ele>108</ele></trkpt>
   <trkpt lat="51.084305" lon="13.635566"><ele>108.75</ele></trkpt>
   <trkpt lat="51.084063" lon="13.63678"><ele>108</ele></trkpt>
   <trkpt lat="51.083848" lon="13.637826"><ele>108</ele></trkpt>
   <trkpt lat="51.083789" lon="13.638121"><ele>108</ele></trkpt>
   <trkpt lat="51.083518" lon="13.639475"><ele>108</ele></trkpt>
   <trkpt lat="51.08316" lon="13.641244"><ele>108.5</ele></trkpt>
   <trkpt lat="51.083122" lon="13.641434"><ele>108.75</ele></trkpt>
   <trkpt lat="51.082965" lon="13.642389"><ele>109.25</ele></trkpt>
   <trkpt lat="51.082929" lon="13.64257"><ele>109.5</ele></trkpt>
   <trkpt lat="51.082891" lon="13.642757"><ele>109.5</ele></trkpt>
   <trkpt lat="51.082481" lon="13.64479"><ele>108.25</ele></trkpt>
   <trkpt lat="51.082193" lon="13.646185"><ele>108.5</ele></trkpt>
   <trkpt lat="51.082007" lon="13.647021"><ele>108.75</ele></trkpt>
   <trkpt lat="51.081903" lon="13.64745"><ele>109</ele></trkpt>
   <trkpt lat="51.081652" lon="13.648411"><ele>109</ele></trkpt>
   <trkpt lat="51.081515" lon="13.648904"><ele>109.5</ele></trkpt>
   <trkpt lat="51.081371" lon="13.649386"><ele>109.5</ele></trkpt>
   <trkpt lat="51.081318" lon="13.649555"><ele>109.5</ele></trkpt>
   <trkpt lat="51.081059" lon="13.650356"><ele>109.25</ele></trkpt>
   <trkpt lat="51.08096" lon="13.650654"><ele>109.5</ele></trkpt>
   <trkpt lat="51.080665" lon="13.651461"><ele>110.25</ele></trkpt>
   <trkpt lat="51.080357" lon="13.65227"><ele>110</ele></trkpt>
   <trkpt lat="51.079989" lon="13.653158"><ele>109</ele></trkpt>
   <trkpt lat="51.07918" lon="13.655034"><ele>108</ele></trkpt>
   <trkpt lat="51.078473" lon="13.656668"><ele>108.75</ele></trkpt>
   <trkpt lat="51.078035" lon="13.657687"><ele>109.75</ele></trkpt>
   <trkpt lat="51.077618" lon="13.658681"><ele>109.75</ele></trkpt>
   <trkpt lat="51.077141" lon="13.659766"><ele>110.5</ele></trkpt>
   <trkpt lat="51.076412" lon="13.661483"><ele>114.25</ele></trkpt>
   <trkpt lat="51.076266" lon="13.661821"><ele>117</ele></trkpt>
   <trkpt lat="51.07512" lon="13.66447"><ele>119.75</ele></trkpt>
   <trkpt lat="51.075093" lon="13.664532"><ele>119.5</ele></trkpt>
   <trkpt lat="51.074697" lon="13.665454"><ele>118.5</ele></trkpt>
   <trkpt lat="51.074147" lon="13.666708"><ele>115</ele></trkpt>
   <trkpt lat="51.073358" lon="13.668329"><ele>112.75</ele></trkpt>
   <trkpt lat="51.073298" lon="13.668453"><ele>113</ele></trkpt>
   <trkpt lat="51.073146" lon="13.668762"><ele>113.75</ele></trkpt>
   <trkpt lat="51.072982" lon="13.669075"><ele>114.25</ele></trkpt>
   <trkpt lat="51.072714" lon="13.669551"><ele>114</ele></trkpt>
   <trkpt lat="51.072515" lon="13.669862"><ele>113.5</ele></trkpt>
   <trkpt lat="51.07221" lon="13.67029"><ele>112</ele></trkpt>
   <trkpt lat="51.0722" lon="13.670303"><ele>112</ele></trkpt>
   <trkpt lat="51.072198" lon="13.670307"><ele>112</ele></trkpt>
   <trkpt lat="51.071992" lon="13.670567"><ele>111.25</ele></trkpt>
   <trkpt lat="51.071773" lon="13.670814"><ele>110.75</ele></trkpt>
   <trkpt lat="51.07116" lon="13.671441"><ele>110.25</ele></trkpt>
   <trkpt lat="51.07088" lon="13.671704"><ele>110.5</ele></trkpt>
   <trkpt lat="51.070317" lon="13.672235"><ele>110.5</ele></trkpt>
   <trkpt lat="51.068715" lon="13.673715"><ele>113.5</ele></trkpt>
   <trkpt lat="51.067106" lon="13.675254"><ele>114.75</ele></trkpt>
   <trkpt lat="51.066767" lon="13.675602"><ele>113.5</ele></trkpt>
   <trkpt lat="51.066433" lon="13.676007"><ele>111.5</ele></trkpt>
   <trkpt lat="51.065855" lon="13.676776"><ele>115.25</ele></trkpt>
   <trkpt lat="51.065747" lon="13.676937"><ele>115</ele></trkpt>
   <trkpt lat="51.065265" lon="13.677654"><ele>116.25</ele></trkpt>
   <trkpt lat="51.064941" lon="13.678161"><ele>118.25</ele></trkpt>
   <trkpt lat="51.064822" lon="13.678368"><ele>117.75</ele></trkpt>
   <trkpt lat="51.064708" lon="13.678562"><ele>116.25</ele></trkpt>
   <trkpt lat="51.064367" lon="13.679237"><ele>109</ele></trkpt>
   <trkpt lat="51.064215" lon="13.679562"><ele>104.5</ele></trkpt>
   <trkpt lat="51.063263" lon="13.681569"><ele>112.75</ele></trkpt>
   <trkpt lat="51.063237" lon="13.681624"><ele>112.75</ele></trkpt>
   <trkpt lat="51.06294" lon="13.682173"><ele>113</ele></trkpt>
   <trkpt lat="51.062854" lon="13.682308"><ele>113.25</ele></trkpt>
   <trkpt lat="51.062666" lon="13.6826"><ele>114.25</ele></trkpt>
   <trkpt lat="51.062275" lon="13.683157"><ele>115</ele></trkpt>
   <trkpt lat="51.061982" lon="13.683566"><ele>115.25</ele></trkpt>
   <trkpt lat="51.061786" lon="13.68383"><ele>115.25</ele></trkpt>
   <trkpt lat="51.061205" lon="13.684617"><ele>116</ele></trkpt>
   <trkpt lat="51.060763" lon="13.685248"><ele>117</ele></trkpt>
   <trkpt lat="51.060649" lon="13.685419"><ele>116.75</ele></trkpt>
   <trkpt lat="51.060442" lon="13.685754"><ele>116.5</ele></trkpt>
   <trkpt lat="51.060163" lon="13.686263"><ele>116.5</ele></trkpt>
   <trkpt lat="51.060041" lon="13.686514"><ele>116.75</ele></trkpt>
   <trkpt lat="51.059878" lon="13.686883"><ele>117</ele></trkpt>
   <trkpt lat="51.059664" lon="13.687412"><ele>117.25</ele></trkpt>
   <trkpt lat="51.059397" lon="13.688081"><ele>116.75</ele></trkpt>
   <trkpt lat="51.059272" lon="13.688392"><ele>116.5</ele></trkpt>
   <trkpt lat="51.059137" lon="13.68874"><ele>116.5</ele></trkpt>
   <trkpt lat="51.059001" lon="13.68917"><ele>116.25</ele></trkpt>
   <trkpt lat="51.058903" lon="13.68951"><ele>116.5</ele></trkpt>
   <trkpt lat="51.058827" lon="13.689799"><ele>117.25</ele></trkpt>
   <trkpt lat="51.058757" lon="13.690132"><ele>117.75</ele></trkpt>
   <trkpt lat="51.058753" lon="13.69015"><ele>118.75</ele></trkpt>
   <trkpt lat="51.058641" lon="13.69081"><ele>118.75</ele></trkpt>
   <trkpt lat="51.058606" lon="13.691095"><ele>118.5</ele></trkpt>
   <trkpt lat="51.058558" lon="13.691605"><ele>118.25</ele></trkpt>
   <trkpt lat="51.058519" lon="13.692287"><ele>118.5</ele></trkpt>
   <trkpt lat="51.058514" lon="13.692556"><ele>118</ele></trkpt>
   <trkpt lat="51.058497" lon="13.693075"><ele>117</ele></trkpt>
   <trkpt lat="51.058478" lon="13.693606"><ele>116</ele></trkpt>
   <trkpt lat="51.058441" lon="13.694593"><ele>116.25</ele></trkpt>
   <trkpt lat="51.058414" lon="13.695166"><ele>115.5</ele></trkpt>
   <trkpt lat="51.058362" lon="13.695713"><ele>115.75</ele></trkpt>
   <trkpt lat="51.058321" lon="13.696011"><ele>115.5</ele></trkpt>
   <trkpt lat="51.058286" lon="13.696275"><ele>115.5</ele></trkpt>
   <trkpt lat="51.058209" lon="13.696734"><ele>115.5</ele></trkpt>
   <trkpt lat="51.058205" lon="13.696763"><ele>115.5</ele></trkpt>
   <trkpt lat="51.058179" lon="13.696903"><ele>115.25</ele></trkpt>
   <trkpt lat="51.058101" lon="13.697242"><ele>115.25</ele></trkpt>
   <trkpt lat="51.057992" lon="13.697654"><ele>115.25</ele></trkpt>
   <trkpt lat="51.057864" lon="13.698291"><ele>114.75</ele></trkpt>
   <trkpt lat="51.057619" lon="13.699588"><ele>115.5</ele></trkpt>
   <trkpt lat="51.057266" lon="13.701411"><ele>115.75</ele></trkpt>
   <trkpt lat="51.057052" lon="13.702526"><ele>115.5</ele></trkpt>
   <trkpt lat="51.056753" lon="13.704052"><ele>115</ele></trkpt>
   <trkpt lat="51.056717" lon="13.704239"><ele>115</ele></trkpt>
   <trkpt lat="51.056206" lon="13.70688"><ele>113.5</ele></trkpt>
   <trkpt lat="51.055947" lon="13.708223"><ele>114.25</ele></trkpt>
   <trkpt lat="51.055674" lon="13.709628"><ele>114.25</ele></trkpt>
   <trkpt lat="51.055667" lon="13.709662"><ele>114.25</ele></trkpt>
   <trkpt lat="51.055497" lon="13.710528"><ele>114</ele></trkpt>
   <trkpt lat="51.055397" lon="13.710954"><ele>113.75</ele></trkpt>
   <trkpt lat="51.055305" lon="13.711289"><ele>113</ele></trkpt>
   <trkpt lat="51.055198" lon="13.711621"><ele>112.5</ele></trkpt>
   <trkpt lat="51.054982" lon="13.712196"><ele>112.5</ele></trkpt>
   <trkpt lat="51.054673" lon="13.712901"><ele>113.25</ele></trkpt>
   <trkpt lat="51.054432" lon="13.713457"><ele>114</ele></trkpt>
   <trkpt lat="51.054115" lon="13.714182"><ele>114</ele></trkpt>
   <trkpt lat="51.054095" lon="13.714229"><ele>114</ele></trkpt>
   <trkpt lat="51.053902" lon="13.714653"><ele>113.5</ele></trkpt>
   <trkpt lat="51.053741" lon="13.715057"><ele>113.5</ele></trkpt>
   <trkpt lat="51.053638" lon="13.715355"><ele>113.5</ele></trkpt>
   <trkpt lat="51.053554" lon="13.715594"><ele>113.25</ele></trkpt>
   <trkpt lat="51.053449" lon="13.715889"><ele>113</ele></trkpt>
   <trkpt lat="51.053313" lon="13.716286"><ele>112.25</ele></trkpt>
   <trkpt lat="51.053191" lon="13.716598"><ele>112.25</ele></trkpt>
   <trkpt lat="51.053023" lon="13.716975"><ele>112.25</ele></trkpt>
   <trkpt lat="51.052983" lon="13.717066"><ele>112.25</ele></trkpt>
   <trkpt lat="51.052807" lon="13.717459"><ele>112.5</ele></trkpt>
   <trkpt lat="51.052721" lon="13.717654"><ele>112.75</ele></trkpt>
   <trkpt lat="51.052474" lon="13.718115"><ele>113</ele></trkpt>
   <trkpt lat="51.052328" lon="13.718333"><ele>113</ele></trkpt>
   <trkpt lat="51.052236" lon="13.718452"><ele>113.25</ele></trkpt>
   <trkpt lat="51.0521" lon="13.718614"><ele>113.25</ele></trkpt>
   <trkpt lat="51.051941" lon="13.718775"><ele>113.5</ele></trkpt>
   <trkpt lat="51.051706" lon="13.718951"><ele>113.75</ele></trkpt>
   <trkpt lat="51.051465" lon="13.719107"><ele>114</ele></trkpt>
   <trkpt lat="51.051274" lon="13.719193"><ele>114.5</ele></trkpt>
   <trkpt lat="51.051179" lon="13.719221"><ele>114.5</ele></trkpt>
   <trkpt lat="51.051093" lon="13.719247"><ele>114.75</ele></trkpt>
   <trkpt lat="51.050757" lon="13.719304"><ele>115.25</ele></trkpt>
   <trkpt lat="51.050489" lon="13.719327"><ele>115.25</ele></trkpt>
   <trkpt lat="51.050193" lon="13.719339"><ele>115.25</ele></trkpt>
   <trkpt lat="51.049959" lon="13.71933"><ele>115.25</ele></trkpt>
   <trkpt lat="51.049886" lon="13.719326"><ele>115.25</ele></trkpt>
   <trkpt lat="51.049856" lon="13.719324"><ele>115.5</ele></trkpt>
   <trkpt lat="51.049642" lon="13.719305"><ele>116</ele></trkpt>
   <trkpt lat="51.049226" lon="13.719284"><ele>116.75</ele></trkpt>
   <trkpt lat="51.049007" lon="13.719284"><ele>117.25</ele></trkpt>
   <trkpt lat="51.048465" lon="13.719336"><ele>118</ele></trkpt>
   <trkpt lat="51.048375" lon="13.719355"><ele>118.25</ele></trkpt>
   <trkpt lat="51.048045" lon="13.71943"><ele>118.25</ele></trkpt>
   <trkpt lat="51.047817" lon="13.719499"><ele>118</ele></trkpt>
   <trkpt lat="51.047227" lon="13.719735"><ele>117.75</ele></trkpt>
   <trkpt lat="51.046969" lon="13.719839"><ele>117.25</ele></trkpt>
   <trkpt lat="51.046833" lon="13.719903"><ele>117.25</ele></trkpt>
   <trkpt lat="51.046316" lon="13.720201"><ele>117.25</ele></trkpt>
   <trkpt lat="51.046109" lon="13.720338"><ele>117.25</ele></trkpt>
   <trkpt lat="51.045863" lon="13.720519"><ele>117.25</ele></trkpt>
   <trkpt lat="51.045229" lon="13.72104"><ele>117.5</ele></trkpt>
   <trkpt lat="51.044865" lon="13.721356"><ele>117.75</ele></trkpt>
   <trkpt lat="51.044601" lon="13.721615"><ele>117.5</ele></trkpt>
   <trkpt lat="51.044489" lon="13.721737"><ele>117.25</ele></trkpt>
   <trkpt lat="51.044221" lon="13.72206"><ele>117</ele></trkpt>
   <trkpt lat="51.044167" lon="13.722135"><ele>117</ele></trkpt>
   <trkpt lat="51.044068" lon="13.722269"><ele>117.5</ele></trkpt>
   <trkpt lat="51.043715" lon="13.722791"><ele>119.5</ele></trkpt>
   <trkpt lat="51.043484" lon="13.723164"><ele>121</ele></trkpt>
   <trkpt lat="51.04345" lon="13.723222"><ele>121.25</ele></trkpt>
   <trkpt lat="51.043356" lon="13.723485"><ele>121.5</ele></trkpt>
   <trkpt lat="51.042917" lon="13.724557"><ele>121</ele></trkpt>
   <trkpt lat="51.042459" lon="13.725466"><ele>120</ele></trkpt>
   <trkpt lat="51.042227" lon="13.725929"><ele>119.75</ele></trkpt>
   <trkpt lat="51.041616" lon="13.727154"><ele>118</ele></trkpt>
   <trkpt lat="51.041536" lon="13.727314"><ele>118</ele></trkpt>
   <trkpt lat="51.041462" lon="13.727463"><ele>118.25</ele></trkpt>
   <trkpt lat="51.04135" lon="13.727708"><ele>118</ele></trkpt>
   <trkpt lat="51.041239" lon="13.727954"><ele>118</ele></trkpt>
   <trkpt lat="51.040969" lon="13.728645"><ele>118.5</ele></trkpt>
   <trkpt lat="51.040776" lon="13.72918"><ele>120</ele></trkpt>
   <trkpt lat="51.040601" lon="13.729705"><ele>120.75</ele></trkpt>
   <trkpt lat="51.040096" lon="13.731272"><ele>123.75</ele></trkpt>
   <trkpt lat="51.039931" lon="13.731775"><ele>122.5</ele></trkpt>
  </trkseg>
 </trk>
</gpx>