<?xml version="1.0" encoding="UTF-8"?>
<!-- track-length = 149475 filtered ascend = 217 plain-ascend = 54 cost=149475 energy=1.8kwh time=3h 19m 19s -->
<gpx 
 xmlns="http://www.topografix.com/GPX/1/1" 
 xmlns:xsi="http://www.w3.org/2001/XMLSchema-instance" 
 xsi:schemaLocation="http://www.topografix.com/GPX/1/1 http://www.topografix.com/GPX/1/1/gpx.xsd" 
 version="1.1" 
 creator="BRouter-Web 0.18.1">
 <trk>
  <name>Cottbus - Leipzig</name>
  <trkseg>
   <trkpt lat="51.75154" lon="14.324366"><ele>75.25</ele></trkpt>
   <trkpt lat="51.75151" lon="14.323578"><ele>75.75</ele></trkpt>
   <trkpt lat="51.751475" lon="14.322659"><ele>74.75</ele></trkpt>
   <trkpt lat="51.751375" lon="14.319995"><ele>72.75</ele></trkpt>
   <trkpt lat="51.751364" lon="14.319679"><ele>72.75</ele></trkpt>
   <trkpt lat="51.751375" lon="14.31903"><ele>72.5</ele></trkpt>
   <trkpt lat="51.751334" lon="14.317926"><ele>73</ele></trkpt>
   <trkpt lat="51.751317" lon="14.317692"><ele>73.25</ele></trkpt>
   <trkpt lat="51.751274" lon="14.317265"><ele>73.5</ele></trkpt>
   <trkpt lat="51.751191" lon="14.316515"><ele>73.5</ele></trkpt>
   <trkpt lat="51.751177" lon="14.316382"><ele>73.5</ele></trkpt>
   <trkpt lat="51.751127" lon="14.315944"><ele>73.75</ele></trkpt>
   <trkpt lat="51.751065" lon="14.315336"><ele>74</ele></trkpt>
   <trkpt lat="51.751049" lon="14.314942"><ele>73.75</ele></trkpt>
   <trkpt lat="51.751042" lon="14.314639"><ele>73.75</ele></trkpt>
   <trkpt lat="51.75105" lon="14.314098"><ele>73.5</ele></trkpt>
   <trkpt lat="51.751046" lon="14.313746"><ele>73.5</ele></trkpt>
   <trkpt lat="51.751042" lon="14.312971"><ele>73.5</ele></trkpt>
   <trkpt lat="51.751088" lon="14.311008"><ele>74</ele></trkpt>
   <trkpt lat="51.751095" lon="14.310753"><ele>74</ele></trkpt>
   <trkpt lat="51.751093" lon="14.309855"><ele>73.75</ele></trkpt>
   <trkpt lat="51.751083" lon="14.309135"><ele>73.5</ele></trkpt>
   <trkpt lat="51.751065" lon="14.308427"><ele>73.5</ele></trkpt>
   <trkpt lat="51.750942" lon="14.305236"><ele>73.75</ele></trkpt>
   <trkpt lat="51.750932" lon="14.304954"><ele>74</ele></trkpt>
   <trkpt lat="51.750921" lon="14.304674"><ele>74</ele></trkpt>
   <trkpt lat="51.750916" lon="14.304552"><ele>74</ele></trkpt>
   <trkpt lat="51.75086" lon="14.303255"><ele>74</ele></trkpt>
   <trkpt lat="51.75077" lon="14.301622"><ele>75</ele></trkpt>
   <trkpt lat="51.750734" lon="14.301061"><ele>75.75</ele></trkpt>
   <trkpt lat="51.750718" lon="14.30087"><ele>76</ele></trkpt>
   <trkpt lat="51.750681" lon="14.3004"><ele>76</ele></trkpt>
   <trkpt lat="51.750547" lon="14.299077"><ele>75.25</ele></trkpt>
   <trkpt lat="51.750468" lon="14.298436"><ele>75.25</ele></trkpt>
   <trkpt lat="51.750378" lon="14.297778"><ele>75</ele></trkpt>
   <trkpt lat="51.750326" lon="14.297441"><ele>75</ele></trkpt>
   <trkpt lat="51.750168" lon="14.296406"><ele>75.5</ele></trkpt>
   <trkpt lat="51.75009" lon="14.295916"><ele>75.75</ele></trkpt>
   <trkpt lat="51.75005" lon="14.295666"><ele>75.75</ele></trkpt>
   <trkpt lat="51.749823" lon="14.294229"><ele>74.75</ele></trkpt>
   <trkpt lat="51.749749" lon="14.293764"><ele>74.25</ele></trkpt>
   <trkpt lat="51.749548" lon="14.292473"><ele>73.5</ele></trkpt>
   <trkpt lat="51.749434" lon="14.291669"><ele>73.5</ele></trkpt>
   <trkpt lat="51.749341" lon="14.290922"><ele>72.75</ele></trkpt>
   <trkpt lat="51.74929" lon="14.290445"><ele>72.75</ele></trkpt>
   <trkpt lat="51.74925" lon="14.290004"><ele>72.75</ele></trkpt>
   <trkpt lat="51.749193" lon="14.28925"><ele>72.75</ele></trkpt>
   <trkpt lat="51.749162" lon="14.288718"><ele>72.75</ele></trkpt>
   <trkpt lat="51.749082" lon="14.286688"><ele>74.5</ele></trkpt>
   <trkpt lat="51.749078" lon="14.286533"><ele>74.5</ele></trkpt>
   <trkpt lat="51.749036" lon="14.285409"><ele>74.75</ele></trkpt>
   <trkpt lat="51.748972" lon="14.283391"><ele>72.75</ele></trkpt>
   <trkpt lat="51.748935" lon="14.282279"><ele>71.75</ele></trkpt>
   <trkpt lat="51.748904" lon="14.281359"><ele>71</ele></trkpt>
   <trkpt lat="51.748894" lon="14.281047"><ele>71</ele></trkpt>
   <trkpt lat="51.748892" lon="14.2809"><ele>71</ele></trkpt>
   <trkpt lat="51.748837" lon="14.279397"><ele>71</ele></trkpt>
   <trkpt lat="51.748831" lon="14.27922"><ele>71</ele></trkpt>
   <trkpt lat="51.748767" lon="14.277302"><ele>71</ele></trkpt>
   <trkpt lat="51.748689" lon="14.275327"><ele>73</ele></trkpt>
   <trkpt lat="51.74863" lon="14.273242"><ele>71.5</ele></trkpt>
   <trkpt lat="51.74852" lon="14.270267"><ele>71</ele></trkpt>
   <trkpt lat="51.748419" lon="14.26709"><ele>67</ele></trkpt>
   <trkpt lat="51.748329" lon="14.264397"><ele>68.25</ele></trkpt>
   <trkpt lat="51.748313" lon="14.263922"><ele>69.25</ele></trkpt>
   <trkpt lat="51.748221" lon="14.261229"><ele>70</ele></trkpt>
   <trkpt lat="51.748221" lon="14.261208"><ele>70</ele></trkpt>
   <trkpt lat="51.748173" lon="14.259829"><ele>68.75</ele></trkpt>
   <trkpt lat="51.748165" lon="14.259698"><ele>68.75</ele></trkpt>
   <trkpt lat="51.748152" lon="14.259281"><ele>68.75</ele></trkpt>
   <trkpt lat="51.748129" lon="14.258497"><ele>68.5</ele></trkpt>
   <trkpt lat="51.748101" lon="14.257583"><ele>66.75</ele></trkpt>
   <trkpt lat="51.748069" lon="14.256897"><ele>65.75</ele></trkpt>
   <trkpt lat="51.748022" lon="14.255414"><ele>66.75</ele></trkpt>
   <trkpt lat="51.748001" lon="14.254735"><ele>67.25</ele></trkpt>
   <trkpt lat="51.747996" lon="14.254563"><ele>67.5</ele></trkpt>
   <trkpt lat="51.747991" lon="14.254254"><ele>67.75</ele></trkpt>
   <trkpt lat="51.747932" lon="14.252445"><ele>69.25</ele></trkpt>
   <trkpt lat="51.747914" lon="14.251919"><ele>69.5</ele></trkpt>
   <trkpt lat="51.747815" lon="14.250335"><ele>68.5</ele></trkpt>
   <trkpt lat="51.747663" lon="14.248205"><ele>67</ele></trkpt>
   <trkpt lat="51.747566" lon="14.24716"><ele>65.5</ele></trkpt>
   <trkpt lat="51.747413" lon="14.245748"><ele>66</ele></trkpt>
   <trkpt lat="51.747244" lon="14.244389"><ele>65.5</ele></trkpt>
   <trkpt lat="51.74717" lon="14.243789"><ele>65</ele></trkpt>
   <trkpt lat="51.746977" lon="14.242415"><ele>64.5</ele></trkpt>
   <trkpt lat="51.746967" lon="14.242337"><ele>64.5</ele></trkpt>
   <trkpt lat="51.746905" lon="14.241831"><ele>64.5</ele></trkpt>
   <trkpt lat="51.7468" lon="14.241049"><ele>65.5</ele></trkpt>
   <trkpt lat="51.746547" lon="14.239176"><ele>64.75</ele></trkpt>
   <trkpt lat="51.746457" lon="14.238496"><ele>64</ele></trkpt>
   <trkpt lat="51.745553" lon="14.231619"><ele>63</ele></trkpt>
   <trkpt lat="51.744867" lon="14.226535"><ele>64</ele></trkpt>
   <trkpt lat="51.744672" lon="14.224873"><ele>63</ele></trkpt>
   <trkpt lat="51.744525" lon="14.223205"><ele>63</ele></trkpt>
   <trkpt lat="51.744412" lon="14.221696"><ele>63</ele></trkpt>
   <trkpt lat="51.744304" lon="14.21994"><ele>63.75</ele></trkpt>
   <trkpt lat="51.744276" lon="14.218961"><ele>64.75</ele></trkpt>
   <trkpt lat="51.744271" lon="14.21875"><ele>64.75</ele></trkpt>
   <trkpt lat="51.744255" lon="14.216041"><ele>63.5</ele></trkpt>
   <trkpt lat="51.744284" lon="14.208815"><ele>65</ele></trkpt>
   <trkpt lat="51.744282" lon="14.201006"><ele>68</ele></trkpt>
   <trkpt lat="51.744293" lon="14.19503"><ele>65.75</ele></trkpt>
   <trkpt lat="51.744295" lon="14.194738"><ele>65.25</ele></trkpt>
   <trkpt lat="51.744319" lon="14.188371"><ele>75.5</ele></trkpt>
   <trkpt lat="51.744322" lon="14.187987"><ele>75.75</ele></trkpt>
   <trkpt lat="51.74444" lon="14.152087"><ele>75.25</ele></trkpt>
   <trkpt lat="51.744454" lon="14.148444"><ele>71.75</ele></trkpt>
   <trkpt lat="51.744479" lon="14.13788"><ele>64.5</ele></trkpt>
   <trkpt lat="51.74448" lon="14.137571"><ele>64.75</ele></trkpt>
   <trkpt lat="51.744488" lon="14.135829"><ele>65.25</ele></trkpt>
   <trkpt lat="51.744432" lon="14.134458"><ele>66.5</ele></trkpt>
   <trkpt lat="51.74443" lon="14.133974"><ele>66.5</ele></trkpt>
   <trkpt lat="51.744357" lon="14.132356"><ele>67.5</ele></trkpt>
   <trkpt lat="51.74435" lon="14.131728"><ele>67.75</ele></trkpt>
   <trkpt lat="51.744372" lon="14.122604"><ele>66.5</ele></trkpt>
   <trkpt lat="51.744378" lon="14.122201"><ele>66.75</ele></trkpt>
   <trkpt lat="51.744468" lon="14.120518"><ele>66</ele></trkpt>
   <trkpt lat="51.744467" lon="14.119667"><ele>65.25</ele></trkpt>
   <trkpt lat="51.744567" lon="14.095103"><ele>64.75</ele></trkpt>
   <trkpt lat="51.744607" lon="14.083789"><ele>76.25</ele></trkpt>
   <trkpt lat="51.744598" lon="14.072517"><ele>79.75</ele></trkpt>
   <trkpt lat="51.744275" lon="14.052292"><ele>73</ele></trkpt>
   <trkpt lat="51.744172" lon="14.045432"><ele>64.75</ele></trkpt>
   <trkpt lat="51.743906" lon="14.027104"><ele>68</ele></trkpt>
   <trkpt lat="51.743824" lon="14.022868"><ele>66.25</ele></trkpt>
   <trkpt lat="51.743629" lon="14.009898"><ele>69</ele></trkpt>
   <trkpt lat="51.743502" lon="14.001468"><ele>70.5</ele></trkpt>
   <trkpt lat="51.743438" lon="13.998952"><ele>71.75</ele></trkpt>
   <trkpt lat="51.743322" lon="13.997181"><ele>74.25</ele></trkpt>
   <trkpt lat="51.743205" lon="13.996007"><ele>75.5</ele></trkpt>
   <trkpt lat="51.743079" lon="13.995042"><ele>75.25</ele></trkpt>
   <trkpt lat="51.742886" lon="13.993794"><ele>75</ele></trkpt>
   <trkpt lat="51.742693" lon="13.992757"><ele>76</ele></trkpt>
   <trkpt lat="51.742491" lon="13.991785"><ele>77.75</ele></trkpt>
   <trkpt lat="51.742245" lon="13.990803"><ele>79.25</ele></trkpt>
   <trkpt lat="51.742085" lon="13.990168"><ele>79.25</ele></trkpt>
   <trkpt lat="51.741911" lon="13.989558"><ele>80.25</ele></trkpt>
   <trkpt lat="51.741721" lon="13.988926"><ele>81.25</ele></trkpt>
   <trkpt lat="51.741399" lon="13.987987"><ele>83.25</ele></trkpt>
   <trkpt lat="51.741109" lon="13.987218"><ele>83</ele></trkpt>
   <trkpt lat="51.741038" lon="13.987032"><ele>82.75</ele></trkpt>
   <trkpt lat="51.740905" lon="13.986697"><ele>82</ele></trkpt>
   <trkpt lat="51.740843" lon="13.986546"><ele>81.75</ele></trkpt>
   <trkpt lat="51.740559" lon="13.985841"><ele>81.5</ele></trkpt>
   <trkpt lat="51.740233" lon="13.985029"><ele>81.5</ele></trkpt>
   <trkpt lat="51.739848" lon="13.984073"><ele>81.75</ele></trkpt>
   <trkpt lat="51.739492" lon="13.983199"><ele>81.25</ele></trkpt>
   <trkpt lat="51.738979" lon="13.981993"><ele>80.75</ele></trkpt>
   <trkpt lat="51.738704" lon="13.981347"><ele>80.75</ele></trkpt>
   <trkpt lat="51.738684" lon="13.9813"><ele>80.75</ele></trkpt>
   <trkpt lat="51.738061" lon="13.979777"><ele>80.75</ele></trkpt>
   <trkpt lat="51.737931" lon="13.979459"><ele>81.25</ele></trkpt>
   <trkpt lat="51.737802" lon="13.979139"><ele>81.25</ele></trkpt>
   <trkpt lat="51.737619" lon="13.978677"><ele>81</ele></trkpt>
   <trkpt lat="51.737037" lon="13.97714"><ele>80.25</ele></trkpt>
   <trkpt lat="51.736805" lon="13.976529"><ele>80.5</ele></trkpt>
   <trkpt lat="51.736746" lon="13.97638"><ele>80.75</ele></trkpt>
   <trkpt lat="51.736695" lon="13.976256"><ele>80.75</ele></trkpt>
   <trkpt lat="51.736529" lon="13.975842"><ele>81</ele></trkpt>
   <trkpt lat="51.736333" lon="13.975352"><ele>81.25</ele></trkpt>
   <trkpt lat="51.736145" lon="13.974905"><ele>81.5</ele></trkpt>
   <trkpt lat="51.736082" lon="13.974747"><ele>82</ele></trkpt>
   <trkpt lat="51.735926" lon="13.974359"><ele>82.5</ele></trkpt>
   <trkpt lat="51.735261" lon="13.972696"><ele>81.75</ele></trkpt>
   <trkpt lat="51.734305" lon="13.970208"><ele>82</ele></trkpt>
   <trkpt lat="51.733735" lon="13.968771"><ele>82.5</ele></trkpt>
   <trkpt lat="51.733159" lon="13.967357"><ele>84</ele></trkpt>
   <trkpt lat="51.733126" lon="13.967278"><ele>84</ele></trkpt>
   <trkpt lat="51.730818" lon="13.961562"><ele>86.75</ele></trkpt>
   <trkpt lat="51.728636" lon="13.956147"><ele>88.75</ele></trkpt>
   <trkpt lat="51.728536" lon="13.955905"><ele>89.25</ele></trkpt>
   <trkpt lat="51.727955" lon="13.954463"><ele>91.25</ele></trkpt>
   <trkpt lat="51.727461" lon="13.95326"><ele>93</ele></trkpt>
   <trkpt lat="51.727126" lon="13.952488"><ele>94.5</ele></trkpt>
   <trkpt lat="51.726763" lon="13.951678"><ele>95</ele></trkpt>
   <trkpt lat="51.72633" lon="13.950817"><ele>96.5</ele></trkpt>
   <trkpt lat="51.725862" lon="13.949965"><ele>96</ele></trkpt>
   <trkpt lat="51.725299" lon="13.949043"><ele>99.75</ele></trkpt>
   <trkpt lat="51.724763" lon="13.948208"><ele>100.75</ele></trkpt>
   <trkpt lat="51.721093" lon="13.942714"><ele>102.75</ele></trkpt>
   <trkpt lat="51.720563" lon="13.941895"><ele>103</ele></trkpt>
   <trkpt lat="51.720167" lon="13.941249"><ele>103.75</ele></trkpt>
   <trkpt lat="51.719809" lon="13.940597"><ele>105.25</ele></trkpt>
   <trkpt lat="51.719633" lon="13.94026"><ele>105.75</ele></trkpt>
   <trkpt lat="51.719355" lon="13.939698"><ele>106</ele></trkpt>
   <trkpt lat="51.719086" lon="13.939121"><ele>106.75</ele></trkpt>
   <trkpt lat="51.71857" lon="13.937965"><ele>107.25</ele></trkpt>
   <trkpt lat="51.714875" lon="13.92963"><ele>114.75</ele></trkpt>
   <trkpt lat="51.710704" lon="13.920188"><ele>131</ele></trkpt>
   <trkpt lat="51.709422" lon="13.917232"><ele>136.25</ele></trkpt>
   <trkpt lat="51.709273" lon="13.916864"><ele>134.5</ele></trkpt>
   <trkpt lat="51.709034" lon="13.916222"><ele>136.25</ele></trkpt>
   <trkpt lat="51.708753" lon="13.915406"><ele>139.75</ele></trkpt>
   <trkpt lat="51.708511" lon="13.914653"><ele>139.25</ele></trkpt>
   <trkpt lat="51.708299" lon="13.913901"><ele>138</ele></trkpt>
   <trkpt lat="51.708008" lon="13.912654"><ele>139.5</ele></trkpt>
   <trkpt lat="51.707861" lon="13.911951"><ele>138.75</ele></trkpt>
   <trkpt lat="51.707775" lon="13.911504"><ele>138.25</ele></trkpt>
   <trkpt lat="51.707607" lon="13.910524"><ele>136.75</ele></trkpt>
   <trkpt lat="51.707533" lon="13.910025"><ele>136.25</ele></trkpt>
   <trkpt lat="51.707431" lon="13.909169"><ele>138</ele></trkpt>
   <trkpt lat="51.707334" lon="13.908165"><ele>139.5</ele></trkpt>
   <trkpt lat="51.707295" lon="13.907677"><ele>140</ele></trkpt>
   <trkpt lat="51.707248" lon="13.906679"><ele>140.75</ele></trkpt>
   <trkpt lat="51.707219" lon="13.905654"><ele>141.5</ele></trkpt>
   <trkpt lat="51.707259" lon="13.899584"><ele>135.75</ele></trkpt>
   <trkpt lat="51.707247" lon="13.89878"><ele>136.25</ele></trkpt>
   <trkpt lat="51.707216" lon="13.897883"><ele>135.75</ele></trkpt>
   <trkpt lat="51.707163" lon="13.897126"><ele>134.25</ele></trkpt>
   <trkpt lat="51.707106" lon="13.896498"><ele>133.25</ele></trkpt>
   <trkpt lat="51.70704" lon="13.895872"><ele>133</ele></trkpt>
   <trkpt lat="51.706964" lon="13.895285"><ele>133.25</ele></trkpt>
   <trkpt lat="51.706877" lon="13.894701"><ele>133</ele></trkpt>
   <trkpt lat="51.706782" lon="13.894155"><ele>132.5</ele></trkpt>
   <trkpt lat="51.706679" lon="13.893608"><ele>132.75</ele></trkpt>
   <trkpt lat="51.706471" lon="13.892662"><ele>132.5</ele></trkpt>
   <trkpt lat="51.70625" lon="13.891717"><ele>129</ele></trkpt>
   <trkpt lat="51.706018" lon="13.890779"><ele>129</ele></trkpt>
   <trkpt lat="51.705764" lon="13.889845"><ele>129</ele></trkpt>
   <trkpt lat="51.705427" lon="13.88881"><ele>129.5</ele></trkpt>
   <trkpt lat="51.705298" lon="13.888466"><ele>130</ele></trkpt>
   <trkpt lat="51.705128" lon="13.888044"><ele>130</ele></trkpt>
   <trkpt lat="51.704643" lon="13.886893"><ele>130.25</ele></trkpt>
   <trkpt lat="51.703398" lon="13.883988"><ele>128.5</ele></trkpt>
   <trkpt lat="51.702391" lon="13.881693"><ele>127</ele></trkpt>
   <trkpt lat="51.699426" lon="13.874686"><ele>124.25</ele></trkpt>
   <trkpt lat="51.69929" lon="13.874357"><ele>124</ele></trkpt>
   <trkpt lat="51.69674" lon="13.868479"><ele>130.25</ele></trkpt>
   <trkpt lat="51.687856" lon="13.847769"><ele>136.75</ele></trkpt>
   <trkpt lat="51.686165" lon="13.843989"><ele>137</ele></trkpt>
   <trkpt lat="51.684813" lon="13.841009"><ele>137.25</ele></trkpt>
   <trkpt lat="51.678741" lon="13.82792"><ele>134.5</ele></trkpt>
   <trkpt lat="51.672646" lon="13.814747"><ele>126</ele></trkpt>
   <trkpt lat="51.672222" lon="13.813813"><ele>127.25</ele></trkpt>
   <trkpt lat="51.671685" lon="13.81255"><ele>127</ele></trkpt>
   <trkpt lat="51.671168" lon="13.81127"><ele>125.25</ele></trkpt>
   <trkpt lat="51.670834" lon="13.810393"><ele>124</ele></trkpt>
   <trkpt lat="51.670497" lon="13.809473"><ele>123.25</ele></trkpt>
   <trkpt lat="51.670057" lon="13.808215"><ele>121.75</ele></trkpt>
   <trkpt lat="51.669694" lon="13.807098"><ele>124.75</ele></trkpt>
   <trkpt lat="51.669371" lon="13.806067"><ele>123.5</ele></trkpt>
   <trkpt lat="51.667204" lon="13.799037"><ele>122.25</ele></trkpt>
   <trkpt lat="51.667075" lon="13.798621"><ele>122</ele></trkpt>
   <trkpt lat="51.666879" lon="13.797951"><ele>120.5</ele></trkpt>
   <trkpt lat="51.666721" lon="13.797345"><ele>119.5</ele></trkpt>
   <trkpt lat="51.666506" lon="13.796614"><ele>120.5</ele></trkpt>
   <trkpt lat="51.662892" lon="13.784885"><ele>113</ele></trkpt>
   <trkpt lat="51.659244" lon="13.773056"><ele>114</ele></trkpt>
   <trkpt lat="51.659144" lon="13.772724"><ele>114</ele></trkpt>
   <trkpt lat="51.6559" lon="13.762175"><ele>116</ele></trkpt>
   <trkpt lat="51.650614" lon="13.745072"><ele>111.25</ele></trkpt>
   <trkpt lat="51.648895" lon="13.73948"><ele>108.75</ele></trkpt>
   <trkpt lat="51.648634" lon="13.738655"><ele>109.25</ele></trkpt>
   <trkpt lat="51.648055" lon="13.737"><ele>108.5</ele></trkpt>
   <trkpt lat="51.647714" lon="13.73606"><ele>108</ele></trkpt>
   <trkpt lat="51.647238" lon="13.734852"><ele>107</ele></trkpt>
   <trkpt lat="51.645723" lon="13.731191"><ele>107.25</ele></trkpt>
   <trkpt lat="51.644188" lon="13.72754"><ele>107.75</ele></trkpt>
   <trkpt lat="51.64414" lon="13.727423"><ele>108</ele></trkpt>
   <trkpt lat="51.641971" lon="13.72219"><ele>106.5</ele></trkpt>
   <trkpt lat="51.641906" lon="13.722034"><ele>106.5</ele></trkpt>
   <trkpt lat="51.641797" lon="13.721798"><ele>106.75</ele></trkpt>
   <trkpt lat="51.641641" lon="13.7215"><ele>107</ele></trkpt>
   <trkpt lat="51.641514" lon="13.721218"><ele>107</ele></trkpt>
   <trkpt lat="51.641451" lon="13.721071"><ele>107.25</ele></trkpt>
   <trkpt lat="51.641235" lon="13.720551"><ele>107.5</ele></trkpt>
   <trkpt lat="51.641124" lon="13.720261"><ele>107.5</ele></trkpt>
   <trkpt lat="51.641024" lon="13.719952"><ele>107.5</ele></trkpt>
   <trkpt lat="51.640909" lon="13.71966"><ele>107.5</ele></trkpt>
   <trkpt lat="51.640849" lon="13.719517"><ele>107.25</ele></trkpt>
   <trkpt lat="51.640264" lon="13.718121"><ele>107.75</ele></trkpt>
   <trkpt lat="51.63777" lon="13.712171"><ele>107</ele></trkpt>
   <trkpt lat="51.637015" lon="13.710362"><ele>108</ele></trkpt>
   <trkpt lat="51.636838" lon="13.709943"><ele>108.5</ele></trkpt>
   <trkpt lat="51.636784" lon="13.709814"><ele>108.5</ele></trkpt>
   <trkpt lat="51.636018" lon="13.707993"><ele>108.5</ele></trkpt>
   <trkpt lat="51.63585" lon="13.70759"><ele>108.75</ele></trkpt>
   <trkpt lat="51.635846" lon="13.707579"><ele>108.75</ele></trkpt>
   <trkpt lat="51.635756" lon="13.707364"><ele>109</ele></trkpt>
   <trkpt lat="51.63573" lon="13.7073"><ele>109</ele></trkpt>
   <trkpt lat="51.635507" lon="13.70676"><ele>109</ele></trkpt>
   <trkpt lat="51.635298" lon="13.706212"><ele>109</ele></trkpt>
   <trkpt lat="51.635154" lon="13.705796"><ele>109</ele></trkpt>
   <trkpt lat="51.635033" lon="13.705422"><ele>108.75</ele></trkpt>
   <trkpt lat="51.634914" lon="13.705027"><ele>108.75</ele></trkpt>
   <trkpt lat="51.634805" lon="13.704636"><ele>108.25</ele></trkpt>
   <trkpt lat="51.634678" lon="13.70414"><ele>107.75</ele></trkpt>
   <trkpt lat="51.63456" lon="13.703636"><ele>107.5</ele></trkpt>
   <trkpt lat="51.634415" lon="13.702938"><ele>107.75</ele></trkpt>
   <trkpt lat="51.634261" lon="13.702052"><ele>108</ele></trkpt>
   <trkpt lat="51.634235" lon="13.701899"><ele>108</ele></trkpt>
   <trkpt lat="51.632451" lon="13.689396"><ele>114.25</ele></trkpt>
   <trkpt lat="51.631432" lon="13.68225"><ele>115.75</ele></trkpt>
   <trkpt lat="51.628964" lon="13.665013"><ele>122.25</ele></trkpt>
   <trkpt lat="51.628759" lon="13.663551"><ele>121.25</ele></trkpt>
   <trkpt lat="51.628568" lon="13.66211"><ele>120</ele></trkpt>
   <trkpt lat="51.628393" lon="13.660571"><ele>117.75</ele></trkpt>
   <trkpt lat="51.628283" lon="13.659422"><ele>117.75</ele></trkpt>
   <trkpt lat="51.628169" lon="13.658053"><ele>118.75</ele></trkpt>
   <trkpt lat="51.628093" lon="13.656908"><ele>120.25</ele></trkpt>
   <trkpt lat="51.628031" lon="13.655775"><ele>121</ele></trkpt>
   <trkpt lat="51.627987" lon="13.654693"><ele>121.5</ele></trkpt>
   <trkpt lat="51.627956" lon="13.653627"><ele>122.25</ele></trkpt>
   <trkpt lat="51.627935" lon="13.652624"><ele>122.75</ele></trkpt>
   <trkpt lat="51.627932" lon="13.651627"><ele>122.75</ele></trkpt>
   <trkpt lat="51.627938" lon="13.650607"><ele>123.5</ele></trkpt>
   <trkpt lat="51.627954" lon="13.649618"><ele>124.25</ele></trkpt>
   <trkpt lat="51.627991" lon="13.648364"><ele>125.5</ele></trkpt>
   <trkpt lat="51.628032" lon="13.647428"><ele>124.5</ele></trkpt>
   <trkpt lat="51.628099" lon="13.646117"><ele>123</ele></trkpt>
   <trkpt lat="51.628305" lon="13.642438"><ele>120</ele></trkpt>
   <trkpt lat="51.629356" lon="13.623815"><ele>122.5</ele></trkpt>
   <trkpt lat="51.629417" lon="13.622696"><ele>121.75</ele></trkpt>
   <trkpt lat="51.629466" lon="13.621661"><ele>121.25</ele></trkpt>
   <trkpt lat="51.629505" lon="13.62046"><ele>120.5</ele></trkpt>
   <trkpt lat="51.629532" lon="13.61923"><ele>120.5</ele></trkpt>
   <trkpt lat="51.629535" lon="13.618018"><ele>121.25</ele></trkpt>
   <trkpt lat="51.629527" lon="13.616758"><ele>121.75</ele></trkpt>
   <trkpt lat="51.629497" lon="13.615416"><ele>121.75</ele></trkpt>
   <trkpt lat="51.629441" lon="13.613989"><ele>122.25</ele></trkpt>
   <trkpt lat="51.629359" lon="13.612536"><ele>121.75</ele></trkpt>
   <trkpt lat="51.629266" lon="13.611232"><ele>121.25</ele></trkpt>
   <trkpt lat="51.629209" lon="13.610555"><ele>120.25</ele></trkpt>
   <trkpt lat="51.629061" lon="13.609018"><ele>122</ele></trkpt>
   <trkpt lat="51.628967" lon="13.608169"><ele>122.75</ele></trkpt>
   <trkpt lat="51.628819" lon="13.606994"><ele>122</ele></trkpt>
   <trkpt lat="51.628655" lon="13.605804"><ele>121</ele></trkpt>
   <trkpt lat="51.628562" lon="13.60518"><ele>120.25</ele></trkpt>
   <trkpt lat="51.628383" lon="13.60407"><ele>119.5</ele></trkpt>
   <trkpt lat="51.628264" lon="13.603378"><ele>119.75</ele></trkpt>
   <trkpt lat="51.628029" lon="13.602098"><ele>120.5</ele></trkpt>
   <trkpt lat="51.625183" lon="13.587478"><ele>110</ele></trkpt>
   <trkpt lat="51.623345" lon="13.578056"><ele>106.75</ele></trkpt>
   <trkpt lat="51.620998" lon="13.566017"><ele>100</ele></trkpt>
   <trkpt lat="51.620678" lon="13.564378"><ele>99.25</ele></trkpt>
   <trkpt lat="51.620627" lon="13.564119"><ele>99</ele></trkpt>
   <trkpt lat="51.620605" lon="13.564008"><ele>99</ele></trkpt>
   <trkpt lat="51.620282" lon="13.562351"><ele>96.75</ele></trkpt>
   <trkpt lat="51.620048" lon="13.561148"><ele>96.75</ele></trkpt>
   <trkpt lat="51.620012" lon="13.560967"><ele>96.75</ele></trkpt>
   <trkpt lat="51.61985" lon="13.56013"><ele>96.75</ele></trkpt>
   <trkpt lat="51.619777" lon="13.559765"><ele>96.5</ele></trkpt>
   <trkpt lat="51.617548" lon="13.548335"><ele>94.75</ele></trkpt>
   <trkpt lat="51.617449" lon="13.547825"><ele>95</ele></trkpt>
   <trkpt lat="51.617169" lon="13.546372"><ele>96</ele></trkpt>
   <trkpt lat="51.617146" lon="13.546259"><ele>96</ele></trkpt>
   <trkpt lat="51.617071" lon="13.545905"><ele>96</ele></trkpt>
   <trkpt lat="51.616942" lon="13.545389"><ele>95.75</ele></trkpt>
   <trkpt lat="51.616845" lon="13.544922"><ele>95.75</ele></trkpt>
   <trkpt lat="51.614056" lon="13.530667"><ele>96</ele></trkpt>
   <trkpt lat="51.613633" lon="13.528644"><ele>95</ele></trkpt>
   <trkpt lat="51.613086" lon="13.526465"><ele>96.5</ele></trkpt>
   <trkpt lat="51.612839" lon="13.525592"><ele>97</ele></trkpt>
   <trkpt lat="51.612511" lon="13.524513"><ele>97.25</ele></trkpt>
   <trkpt lat="51.612144" lon="13.523369"><ele>97.25</ele></trkpt>
   <trkpt lat="51.611335" lon="13.520935"><ele>102</ele></trkpt>
   <trkpt lat="51.607902" lon="13.510676"><ele>107.75</ele></trkpt>
   <trkpt lat="51.604971" lon="13.5018"><ele>110</ele></trkpt>
   <trkpt lat="51.604536" lon="13.500246"><ele>108.5</ele></trkpt>
   <trkpt lat="51.603924" lon="13.497977"><ele>106.75</ele></trkpt>
   <trkpt lat="51.603426" lon="13.495718"><ele>106</ele></trkpt>
   <trkpt lat="51.60319" lon="13.494444"><ele>106.5</ele></trkpt>
   <trkpt lat="51.602794" lon="13.491988"><ele>108</ele></trkpt>
   <trkpt lat="51.602489" lon="13.48942"><ele>111.5</ele></trkpt>
   <trkpt lat="51.602368" lon="13.488165"><ele>112.5</ele></trkpt>
   <trkpt lat="51.602282" lon="13.4868"><ele>113</ele></trkpt>
   <trkpt lat="51.602216" lon="13.485605"><ele>113.75</ele></trkpt>
   <trkpt lat="51.602183" lon="13.484257"><ele>114.75</ele></trkpt>
   <trkpt lat="51.602087" lon="13.477433"><ele>119.5</ele></trkpt>
   <trkpt lat="51.601976" lon="13.468019"><ele>116.75</ele></trkpt>
   <trkpt lat="51.601969" lon="13.46743"><ele>116.25</ele></trkpt>
   <trkpt lat="51.601875" lon="13.459379"><ele>114</ele></trkpt>
   <trkpt lat="51.601806" lon="13.45319"><ele>110.75</ele></trkpt>
   <trkpt lat="51.601739" lon="13.451192"><ele>109.75</ele></trkpt>
   <trkpt lat="51.601642" lon="13.448995"><ele>107</ele></trkpt>
   <trkpt lat="51.601513" lon="13.447184"><ele>107</ele></trkpt>
   <trkpt lat="51.601351" lon="13.445368"><ele>106.25</ele></trkpt>
   <trkpt lat="51.601279" lon="13.444708"><ele>106.5</ele></trkpt>
   <trkpt lat="51.601252" lon="13.444461"><ele>106.75</ele></trkpt>
   <trkpt lat="51.601096" lon="13.443075"><ele>107</ele></trkpt>
   <trkpt lat="51.60099" lon="13.442281"><ele>106.75</ele></trkpt>
   <trkpt lat="51.600641" lon="13.440051"><ele>105.25</ele></trkpt>
   <trkpt lat="51.599049" lon="13.430078"><ele>102</ele></trkpt>
   <trkpt lat="51.5989" lon="13.429178"><ele>103.25</ele></trkpt>
   <trkpt lat="51.598817" lon="13.428446"><ele>103.25</ele></trkpt>
   <trkpt lat="51.598728" lon="13.427943"><ele>103.5</ele></trkpt>
   <trkpt lat="51.594542" lon="13.402002"><ele>94.25</ele></trkpt>
   <trkpt lat="51.59344" lon="13.395251"><ele>94.75</ele></trkpt>
   <trkpt lat="51.592849" lon="13.391558"><ele>94.75</ele></trkpt>
   <trkpt lat="51.592419" lon="13.388395"><ele>94</ele></trkpt>
   <trkpt lat="51.592142" lon="13.385228"><ele>92.5</ele></trkpt>
   <trkpt lat="51.591288" lon="13.373894"><ele>92.75</ele></trkpt>
   <trkpt lat="51.590391" lon="13.362011"><ele>90.75</ele></trkpt>
   <trkpt lat="51.590338" lon="13.361316"><ele>91.25</ele></trkpt>
   <trkpt lat="51.590283" lon="13.360615"><ele>91.5</ele></trkpt>
   <trkpt lat="51.590078" lon="13.357851"><ele>90.5</ele></trkpt>
   <trkpt lat="51.59006" lon="13.357613"><ele>90.25</ele></trkpt>
   <trkpt lat="51.588629" lon="13.338703"><ele>84.25</ele></trkpt>
   <trkpt lat="51.588171" lon="13.332641"><ele>84.25</ele></trkpt>
   <trkpt lat="51.588103" lon="13.331751"><ele>84.25</ele></trkpt>
   <trkpt lat="51.586942" lon="13.316476"><ele>91.25</ele></trkpt>
   <trkpt lat="51.586214" lon="13.306903"><ele>90.5</ele></trkpt>
   <trkpt lat="51.585492" lon="13.297407"><ele>86</ele></trkpt>
   <trkpt lat="51.585479" lon="13.297236"><ele>86</ele></trkpt>
   <trkpt lat="51.585286" lon="13.294673"><ele>84.75</ele></trkpt>
   <trkpt lat="51.584455" lon="13.283787"><ele>86.25</ele></trkpt>
   <trkpt lat="51.58443" lon="13.283473"><ele>86.25</ele></trkpt>
   <trkpt lat="51.584298" lon="13.2817"><ele>87.5</ele></trkpt>
   <trkpt lat="51.584257" lon="13.281388"><ele>87.25</ele></trkpt>
   <trkpt lat="51.58422" lon="13.281021"><ele>87</ele></trkpt>
   <trkpt lat="51.584154" lon="13.280492"><ele>86.5</ele></trkpt>
   <trkpt lat="51.584024" lon="13.279587"><ele>85.5</ele></trkpt>
   <trkpt lat="51.583569" lon="13.276481"><ele>86.5</ele></trkpt>
   <trkpt lat="51.583469" lon="13.275667"><ele>86.75</ele></trkpt>
   <trkpt lat="51.583351" lon="13.274441"><ele>86.75</ele></trkpt>
   <trkpt lat="51.583215" lon="13.272625"><ele>89</ele></trkpt>
   <trkpt lat="51.582876" lon="13.268073"><ele>89</ele></trkpt>
   <trkpt lat="51.582839" lon="13.267465"><ele>88.75</ele></trkpt>
   <trkpt lat="51.582777" lon="13.266031"><ele>88.75</ele></trkpt>
   <trkpt lat="51.582772" lon="13.2659"><ele>88.75</ele></trkpt>
   <trkpt lat="51.582755" lon="13.265505"><ele>89</ele></trkpt>
   <trkpt lat="51.582713" lon="13.264416"><ele>88.75</ele></trkpt>
   <trkpt lat="51.582603" lon="13.262079"><ele>88.5</ele></trkpt>
   <trkpt lat="51.582539" lon="13.260612"><ele>88</ele></trkpt>
   <trkpt lat="51.582474" lon="13.258829"><ele>88</ele></trkpt>
   <trkpt lat="51.582465" lon="13.257976"><ele>88.25</ele></trkpt>
   <trkpt lat="51.58247" lon="13.257256"><ele>89</ele></trkpt>
   <trkpt lat="51.582485" lon="13.256555"><ele>89</ele></trkpt>
   <trkpt lat="51.582511" lon="13.255878"><ele>89.75</ele></trkpt>
   <trkpt lat="51.582578" lon="13.254795"><ele>89.75</ele></trkpt>
   <trkpt lat="51.582681" lon="13.253595"><ele>89.75</ele></trkpt>
   <trkpt lat="51.582927" lon="13.250909"><ele>88.75</ele></trkpt>
   <trkpt lat="51.583022" lon="13.249837"><ele>88.25</ele></trkpt>
   <trkpt lat="51.583042" lon="13.249619"><ele>88.25</ele></trkpt>
   <trkpt lat="51.58315" lon="13.248355"><ele>88.75</ele></trkpt>
   <trkpt lat="51.58317" lon="13.248115"><ele>88.75</ele></trkpt>
   <trkpt lat="51.583187" lon="13.247914"><ele>88.5</ele></trkpt>
   <trkpt lat="51.583191" lon="13.247867"><ele>88.5</ele></trkpt>
   <trkpt lat="51.583244" lon="13.247216"><ele>88.5</ele></trkpt>
   <trkpt lat="51.583257" lon="13.247039"><ele>88.75</ele></trkpt>
   <trkpt lat="51.58326" lon="13.246997"><ele>88.75</ele></trkpt>
   <trkpt lat="51.583353" lon="13.24566"><ele>88.75</ele></trkpt>
   <trkpt lat="51.583386" lon="13.245198"><ele>88.75</ele></trkpt>
   <trkpt lat="51.583597" lon="13.242499"><ele>86.75</ele></trkpt>
   <trkpt lat="51.583628" lon="13.24203"><ele>86.5</ele></trkpt>
   <trkpt lat="51.584142" lon="13.23471"><ele>86.5</ele></trkpt>
   <trkpt lat="51.584309" lon="13.23236"><ele>84.75</ele></trkpt>
   <trkpt lat="51.584367" lon="13.23153"><ele>84</ele></trkpt>
   <trkpt lat="51.584823" lon="13.224774"><ele>83</ele></trkpt>
   <trkpt lat="51.584833" lon="13.224586"><ele>83.25</ele></trkpt>
   <trkpt lat="51.585557" lon="13.214348"><ele>83.75</ele></trkpt>
   <trkpt lat="51.585589" lon="13.213522"><ele>83.5</ele></trkpt>
   <trkpt lat="51.585604" lon="13.213061"><ele>83</ele></trkpt>
   <trkpt lat="51.58561" lon="13.212325"><ele>82.25</ele></trkpt>
   <trkpt lat="51.585607" lon="13.21175"><ele>82.25</ele></trkpt>
   <trkpt lat="51.585596" lon="13.211146"><ele>82.5</ele></trkpt>
   <trkpt lat="51.585592" lon="13.21101"><ele>82.75</ele></trkpt>
   <trkpt lat="51.585533" lon="13.209974"><ele>83.5</ele></trkpt>
   <trkpt lat="51.585482" lon="13.209348"><ele>83.75</ele></trkpt>
   <trkpt lat="51.585422" lon="13.208727"><ele>84</ele></trkpt>
   <trkpt lat="51.583427" lon="13.191099"><ele>82.75</ele></trkpt>
   <trkpt lat="51.581808" lon="13.174759"><ele>83.75</ele></trkpt>
   <trkpt lat="51.580721" lon="13.163618"><ele>83.75</ele></trkpt>
   <trkpt lat="51.580392" lon="13.160267"><ele>83.25</ele></trkpt>
   <trkpt lat="51.580156" lon="13.157863"><ele>84.25</ele></trkpt>
   <trkpt lat="51.580109" lon="13.157473"><ele>84.75</ele></trkpt>
   <trkpt lat="51.580041" lon="13.157013"><ele>84.75</ele></trkpt>
   <trkpt lat="51.579992" lon="13.156615"><ele>84.75</ele></trkpt>
   <trkpt lat="51.579728" lon="13.153978"><ele>85</ele></trkpt>
   <trkpt lat="51.579669" lon="13.153371"><ele>85.5</ele></trkpt>
   <trkpt lat="51.579614" lon="13.152801"><ele>85.75</ele></trkpt>
   <trkpt lat="51.579589" lon="13.152503"><ele>86</ele></trkpt>
   <trkpt lat="51.578294" lon="13.139184"><ele>83</ele></trkpt>
   <trkpt lat="51.578228" lon="13.138525"><ele>83</ele></trkpt>
   <trkpt lat="51.578129" lon="13.13752"><ele>84.5</ele></trkpt>
   <trkpt lat="51.573831" lon="13.093743"><ele>82</ele></trkpt>
   <trkpt lat="51.571462" lon="13.069897"><ele>85</ele></trkpt>
   <trkpt lat="51.57127" lon="13.067931"><ele>84.5</ele></trkpt>
   <trkpt lat="51.571264" lon="13.067867"><ele>84.25</ele></trkpt>
   <trkpt lat="51.570992" lon="13.065172"><ele>84.25</ele></trkpt>
   <trkpt lat="51.570866" lon="13.063896"><ele>83</ele></trkpt>
   <trkpt lat="51.570594" lon="13.061137"><ele>81.25</ele></trkpt>
   <trkpt lat="51.570239" lon="13.057557"><ele>80.5</ele></trkpt>
   <trkpt lat="51.569954" lon="13.054691"><ele>81.75</ele></trkpt>
   <trkpt lat="51.569868" lon="13.053643"><ele>81.75</ele></trkpt>
   <trkpt lat="51.569792" lon="13.052463"><ele>82.25</ele></trkpt>
   <trkpt lat="51.569787" lon="13.052392"><ele>82.25</ele></trkpt>
   <trkpt lat="51.569769" lon="13.052122"><ele>82.25</ele></trkpt>
   <trkpt lat="51.569597" lon="13.049457"><ele>80.5</ele></trkpt>
   <trkpt lat="51.569503" lon="13.047998"><ele>80.75</ele></trkpt>
   <trkpt lat="51.569409" lon="13.046505"><ele>81</ele></trkpt>
   <trkpt lat="51.569215" lon="13.043436"><ele>81</ele></trkpt>
   <trkpt lat="51.569084" lon="13.041349"><ele>80.75</ele></trkpt>
   <trkpt lat="51.56891" lon="13.038591"><ele>82</ele></trkpt>
   <trkpt lat="51.568882" lon="13.038138"><ele>81.75</ele></trkpt>
   <trkpt lat="51.568765" lon="13.036294"><ele>81</ele></trkpt>
   <trkpt lat="51.568683" lon="13.034979"><ele>80.75</ele></trkpt>
   <trkpt lat="51.568601" lon="13.033674"><ele>80.25</ele></trkpt>
   <trkpt lat="51.568515" lon="13.032316"><ele>80.25</ele></trkpt>
   <trkpt lat="51.568334" lon="13.029456"><ele>80.25</ele></trkpt>
   <trkpt lat="51.568148" lon="13.026586"><ele>80.25</ele></trkpt>
   <trkpt lat="51.567959" lon="13.023762"><ele>83.5</ele></trkpt>
   <trkpt lat="51.567946" lon="13.023552"><ele>83.75</ele></trkpt>
   <trkpt lat="51.567818" lon="13.021527"><ele>82.25</ele></trkpt>
   <trkpt lat="51.567801" lon="13.021282"><ele>82</ele></trkpt>
   <trkpt lat="51.567678" lon="13.019344"><ele>80</ele></trkpt>
   <trkpt lat="51.567625" lon="13.018479"><ele>80</ele></trkpt>
   <trkpt lat="51.567607" lon="13.018188"><ele>80</ele></trkpt>
   <trkpt lat="51.567601" lon="13.018087"><ele>80.25</ele></trkpt>
   <trkpt lat="51.567536" lon="13.017113"><ele>80.75</ele></trkpt>
   <trkpt lat="51.567441" lon="13.015572"><ele>81.75</ele></trkpt>
   <trkpt lat="51.567431" lon="13.015423"><ele>81.75</ele></trkpt>
   <trkpt lat="51.567399" lon="13.014775"><ele>82</ele></trkpt>
   <trkpt lat="51.567378" lon="13.013982"><ele>82.5</ele></trkpt>
   <trkpt lat="51.56734" lon="13.013207"><ele>82.5</ele></trkpt>
   <trkpt lat="51.567322" lon="13.012926"><ele>82.5</ele></trkpt>
   <trkpt lat="51.567302" lon="13.012612"><ele>82.5</ele></trkpt>
   <trkpt lat="51.56724" lon="13.011653"><ele>82.25</ele></trkpt>
   <trkpt lat="51.566937" lon="13.006838"><ele>81.5</ele></trkpt>
   <trkpt lat="51.566915" lon="13.006528"><ele>81.5</ele></trkpt>
   <trkpt lat="51.566858" lon="13.005661"><ele>81.5</ele></trkpt>
   <trkpt lat="51.566548" lon="13.000858"><ele>82.75</ele></trkpt>
   <trkpt lat="51.566536" lon="13.000688"><ele>82.75</ele></trkpt>
   <trkpt lat="51.566513" lon="13.000417"><ele>82.75</ele></trkpt>
   <trkpt lat="51.566444" lon="12.999765"><ele>82.75</ele></trkpt>
   <trkpt lat="51.566341" lon="12.998822"><ele>83</ele></trkpt>
   <trkpt lat="51.566263" lon="12.998354"><ele>83</ele></trkpt>
   <trkpt lat="51.566217" lon="12.998121"><ele>83</ele></trkpt>
   <trkpt lat="51.566125" lon="12.9977"><ele>83.25</ele></trkpt>
   <trkpt lat="51.566074" lon="12.997514"><ele>83.25</ele></trkpt>
   <trkpt lat="51.565999" lon="12.99725"><ele>83.25</ele></trkpt>
   <trkpt lat="51.565826" lon="12.996671"><ele>82.75</ele></trkpt>
   <trkpt lat="51.565694" lon="12.996289"><ele>83.25</ele></trkpt>
   <trkpt lat="51.565537" lon="12.995862"><ele>83.5</ele></trkpt>
   <trkpt lat="51.565231" lon="12.995114"><ele>83.5</ele></trkpt>
   <trkpt lat="51.565016" lon="12.994633"><ele>83.25</ele></trkpt>
   <trkpt lat="51.564748" lon="12.994087"><ele>83.25</ele></trkpt>
   <trkpt lat="51.564602" lon="12.99382"><ele>83.25</ele></trkpt>
   <trkpt lat="51.564581" lon="12.993783"><ele>83.25</ele></trkpt>
   <trkpt lat="51.563986" lon="12.992718"><ele>83.5</ele></trkpt>
   <trkpt lat="51.563489" lon="12.991885"><ele>83.75</ele></trkpt>
   <trkpt lat="51.562999" lon="12.991082"><ele>84.25</ele></trkpt>
   <trkpt lat="51.562973" lon="12.991036"><ele>84.25</ele></trkpt>
   <trkpt lat="51.562843" lon="12.990828"><ele>84</ele></trkpt>
   <trkpt lat="51.56239" lon="12.990104"><ele>84</ele></trkpt>
   <trkpt lat="51.562139" lon="12.989691"><ele>84.25</ele></trkpt>
   <trkpt lat="51.561618" lon="12.988739"><ele>84</ele></trkpt>
   <trkpt lat="51.561292" lon="12.988127"><ele>84.75</ele></trkpt>
   <trkpt lat="51.56117" lon="12.987895"><ele>85</ele></trkpt>
   <trkpt lat="51.560319" lon="12.986276"><ele>85.25</ele></trkpt>
   <trkpt lat="51.559899" lon="12.985459"><ele>85.75</ele></trkpt>
   <trkpt lat="51.559743" lon="12.985157"><ele>85.5</ele></trkpt>
   <trkpt lat="51.559481" lon="12.984639"><ele>84.75</ele></trkpt>
   <trkpt lat="51.559203" lon="12.984046"><ele>84</ele></trkpt>
   <trkpt lat="51.557448" lon="12.980203"><ele>84</ele></trkpt>
   <trkpt lat="51.553894" lon="12.972411"><ele>86</ele></trkpt>
   <trkpt lat="51.552268" lon="12.968845"><ele>86</ele></trkpt>
   <trkpt lat="51.543454" lon="12.949588"><ele>86.25</ele></trkpt>
   <trkpt lat="51.541479" lon="12.945189"><ele>85</ele></trkpt>
   <trkpt lat="51.540585" lon="12.942898"><ele>83.75</ele></trkpt>
   <trkpt lat="51.540003" lon="12.94129"><ele>84.5</ele></trkpt>
   <trkpt lat="51.539485" lon="12.939692"><ele>84</ele></trkpt>
   <trkpt lat="51.53897" lon="12.93802"><ele>83</ele></trkpt>
   <trkpt lat="51.537104" lon="12.931405"><ele>84</ele></trkpt>
   <trkpt lat="51.536531" lon="12.929347"><ele>84.25</ele></trkpt>
   <trkpt lat="51.533485" lon="12.918468"><ele>85</ele></trkpt>
   <trkpt lat="51.529741" lon="12.905156"><ele>89.75</ele></trkpt>
   <trkpt lat="51.528618" lon="12.901146"><ele>87</ele></trkpt>
   <trkpt lat="51.525433" lon="12.889788"><ele>89.75</ele></trkpt>
   <trkpt lat="51.520717" lon="12.873038"><ele>92.25</ele></trkpt>
   <trkpt lat="51.520702" lon="12.872983"><ele>92.25</ele></trkpt>
   <trkpt lat="51.514734" lon="12.851817"><ele>95</ele></trkpt>
   <trkpt lat="51.512801" lon="12.844979"><ele>95.5</ele></trkpt>
   <trkpt lat="51.512785" lon="12.844922"><ele>95.5</ele></trkpt>
   <trkpt lat="51.508967" lon="12.831403"><ele>97.25</ele></trkpt>
   <trkpt lat="51.508421" lon="12.829484"><ele>98.75</ele></trkpt>
   <trkpt lat="51.508344" lon="12.829213"><ele>98.75</ele></trkpt>
   <trkpt lat="51.505889" lon="12.820499"><ele>102.25</ele></trkpt>
   <trkpt lat="51.505766" lon="12.820067"><ele>102.75</ele></trkpt>
   <trkpt lat="51.505592" lon="12.819462"><ele>101.75</ele></trkpt>
   <trkpt lat="51.505033" lon="12.817489"><ele>101</ele></trkpt>
   <trkpt lat="51.504738" lon="12.81644"><ele>101</ele></trkpt>
   <trkpt lat="51.504373" lon="12.815118"><ele>101</ele></trkpt>
   <trkpt lat="51.503971" lon="12.813527"><ele>101.5</ele></trkpt>
   <trkpt lat="51.503959" lon="12.813474"><ele>101.5</ele></trkpt>
   <trkpt lat="51.503794" lon="12.812731"><ele>101.75</ele></trkpt>
   <trkpt lat="51.503389" lon="12.810828"><ele>103</ele></trkpt>
   <trkpt lat="51.502972" lon="12.808502"><ele>102.5</ele></trkpt>
   <trkpt lat="51.502738" lon="12.807"><ele>103</ele></trkpt>
   <trkpt lat="51.502539" lon="12.805502"><ele>104</ele></trkpt>
   <trkpt lat="51.502202" lon="12.802497"><ele>104</ele></trkpt>
   <trkpt lat="51.501324" lon="12.7943"><ele>108.75</ele></trkpt>
   <trkpt lat="51.500797" lon="12.789338"><ele>117</ele></trkpt>
   <trkpt lat="51.500252" lon="12.784248"><ele>119.75</ele></trkpt>
   <trkpt lat="51.499229" lon="12.774695"><ele>120.5</ele></trkpt>
   <trkpt lat="51.498348" lon="12.766394"><ele>115.5</ele></trkpt>
   <trkpt lat="51.498036" lon="12.763603"><ele>116</ele></trkpt>
   <trkpt lat="51.497881" lon="12.762481"><ele>116</ele></trkpt>
   <trkpt lat="51.497657" lon="12.761281"><ele>115.25</ele></trkpt>
   <trkpt lat="51.497405" lon="12.760113"><ele>114</ele></trkpt>
   <trkpt lat="51.497221" lon="12.759407"><ele>113.5</ele></trkpt>
   <trkpt lat="51.496994" lon="12.758573"><ele>112.75</ele></trkpt>
   <trkpt lat="51.496746" lon="12.757777"><ele>112.25</ele></trkpt>
   <trkpt lat="51.496471" lon="12.757"><ele>111.5</ele></trkpt>
   <trkpt lat="51.496414" lon="12.756847"><ele>111.25</ele></trkpt>
   <trkpt lat="51.494551" lon="12.751814"><ele>113.5</ele></trkpt>
   <trkpt lat="51.492287" lon="12.745698"><ele>112.25</ele></trkpt>
   <trkpt lat="51.492098" lon="12.745186"><ele>112</ele></trkpt>
   <trkpt lat="51.491854" lon="12.74452"><ele>111.25</ele></trkpt>
   <trkpt lat="51.485071" lon="12.726227"><ele>105.25</ele></trkpt>
   <trkpt lat="51.478043" lon="12.707267"><ele>101.25</ele></trkpt>
   <trkpt lat="51.472732" lon="12.692922"><ele>102.5</ele></trkpt>
   <trkpt lat="51.471708" lon="12.690163"><ele>103.75</ele></trkpt>
   <trkpt lat="51.470746" lon="12.687568"><ele>105.5</ele></trkpt>
   <trkpt lat="51.469884" lon="12.685244"><ele>105</ele></trkpt>
   <trkpt lat="51.469843" lon="12.685134"><ele>105</ele></trkpt>
   <trkpt lat="51.468907" lon="12.682611"><ele>105</ele></trkpt>
   <trkpt lat="51.467927" lon="12.679968"><ele>105</ele></trkpt>
   <trkpt lat="51.467263" lon="12.678178"><ele>104.75</ele></trkpt>
   <trkpt lat="51.466513" lon="12.676162"><ele>105.25</ele></trkpt>
   <trkpt lat="51.466478" lon="12.676067"><ele>105.25</ele></trkpt>
   <trkpt lat="51.466142" lon="12.67516"><ele>105</ele></trkpt>
   <trkpt lat="51.465689" lon="12.67394"><ele>104.5</ele></trkpt>
   <trkpt lat="51.465281" lon="12.672837"><ele>104.5</ele></trkpt>
   <trkpt lat="51.465264" lon="12.672792"><ele>104.75</ele></trkpt>
   <trkpt lat="51.464035" lon="12.669473"><ele>105</ele></trkpt>
   <trkpt lat="51.463517" lon="12.668078"><ele>105.5</ele></trkpt>
   <trkpt lat="51.463095" lon="12.66694"><ele>105.25</ele></trkpt>
   <trkpt lat="51.463058" lon="12.666845"><ele>105.25</ele></trkpt>
   <trkpt lat="51.463046" lon="12.666812"><ele>99.5</ele></trkpt>
   <trkpt lat="51.45958" lon="12.657493"><ele>99.5</ele></trkpt>
   <trkpt lat="51.457929" lon="12.653054"><ele>101.25</ele></trkpt>
   <trkpt lat="51.457626" lon="12.652236"><ele>101.5</ele></trkpt>
   <trkpt lat="51.457474" lon="12.651827"><ele>101.75</ele></trkpt>
   <trkpt lat="51.457309" lon="12.651344"><ele>101.25</ele></trkpt>
   <trkpt lat="51.457205" lon="12.650999"><ele>101</ele></trkpt>
   <trkpt lat="51.457063" lon="12.650567"><ele>101</ele></trkpt>
   <trkpt lat="51.457007" lon="12.650418"><ele>101</ele></trkpt>
   <trkpt lat="51.455698" lon="12.646907"><ele>101</ele></trkpt>
   <trkpt lat="51.455469" lon="12.646359"><ele>101.5</ele></trkpt>
   <trkpt lat="51.455252" lon="12.645864"><ele>101.25</ele></trkpt>
   <trkpt lat="51.455223" lon="12.645785"><ele>101.25</ele></trkpt>
   <trkpt lat="51.45405" lon="12.64262"><ele>102.5</ele></trkpt>
   <trkpt lat="51.453013" lon="12.639838"><ele>102.25</ele></trkpt>
   <trkpt lat="51.452832" lon="12.639382"><ele>102</ele></trkpt>
   <trkpt lat="51.452429" lon="12.638429"><ele>102</ele></trkpt>
   <trkpt lat="51.452197" lon="12.637842"><ele>102.25</ele></trkpt>
   <trkpt lat="51.451835" lon="12.636867"><ele>102.25</ele></trkpt>
   <trkpt lat="51.451589" lon="12.636207"><ele>102.25</ele></trkpt>
   <trkpt lat="51.451298" lon="12.635426"><ele>102.5</ele></trkpt>
   <trkpt lat="51.451292" lon="12.63541"><ele>102.5</ele></trkpt>
   <trkpt lat="51.451036" lon="12.634689"><ele>102</ele></trkpt>
   <trkpt lat="51.450635" lon="12.633464"><ele>102.25</ele></trkpt>
   <trkpt lat="51.449939" lon="12.631567"><ele>102.5</ele></trkpt>
   <trkpt lat="51.449897" lon="12.631454"><ele>102.25</ele></trkpt>
   <trkpt lat="51.449416" lon="12.630285"><ele>101.5</ele></trkpt>
   <trkpt lat="51.449354" lon="12.630118"><ele>101.5</ele></trkpt>
   <trkpt lat="51.448861" lon="12.628901"><ele>103.75</ele></trkpt>
   <trkpt lat="51.448718" lon="12.628545"><ele>104</ele></trkpt>
   <trkpt lat="51.448577" lon="12.628176"><ele>104.5</ele></trkpt>
   <trkpt lat="51.448421" lon="12.627754"><ele>106</ele></trkpt>
   <trkpt lat="51.448186" lon="12.627121"><ele>107.5</ele></trkpt>
   <trkpt lat="51.448009" lon="12.626652"><ele>107.75</ele></trkpt>
   <trkpt lat="51.447786" lon="12.626013"><ele>107</ele></trkpt>
   <trkpt lat="51.447653" lon="12.625602"><ele>106.5</ele></trkpt>
   <trkpt lat="51.447534" lon="12.625181"><ele>106</ele></trkpt>
   <trkpt lat="51.447433" lon="12.624789"><ele>105.5</ele></trkpt>
   <trkpt lat="51.447312" lon="12.624267"><ele>105.25</ele></trkpt>
   <trkpt lat="51.44721" lon="12.623777"><ele>105</ele></trkpt>
   <trkpt lat="51.447076" lon="12.623062"><ele>105.25</ele></trkpt>
   <trkpt lat="51.446719" lon="12.620999"><ele>106.75</ele></trkpt>
   <trkpt lat="51.446558" lon="12.620076"><ele>107.25</ele></trkpt>
   <trkpt lat="51.446533" lon="12.619935"><ele>107.5</ele></trkpt>
   <trkpt lat="51.446351" lon="12.61889"><ele>108.75</ele></trkpt>
   <trkpt lat="51.446285" lon="12.618548"><ele>109</ele></trkpt>
   <trkpt lat="51.44612" lon="12.617706"><ele>109</ele></trkpt>
   <trkpt lat="51.446009" lon="12.617234"><ele>108.5</ele></trkpt>
   <trkpt lat="51.445845" lon="12.616625"><ele>108</ele></trkpt>
   <trkpt lat="51.445699" lon="12.616146"><ele>109</ele></trkpt>
   <trkpt lat="51.445511" lon="12.615593"><ele>109.75</ele></trkpt>
   <trkpt lat="51.445343" lon="12.615142"><ele>110</ele></trkpt>
   <trkpt lat="51.445151" lon="12.614651"><ele>110.5</ele></trkpt>
   <trkpt lat="51.444771" lon="12.613813"><ele>111</ele></trkpt>
   <trkpt lat="51.444691" lon="12.613647"><ele>111.25</ele></trkpt>
   <trkpt lat="51.444341" lon="12.612925"><ele>110.5</ele></trkpt>
   <trkpt lat="51.443666" lon="12.611535"><ele>108.25</ele></trkpt>
   <trkpt lat="51.443646" lon="12.611493"><ele>108.25</ele></trkpt>
   <trkpt lat="51.443594" lon="12.611387"><ele>108.25</ele></trkpt>
   <trkpt lat="51.443531" lon="12.611262"><ele>108.25</ele></trkpt>
   <trkpt lat="51.443373" lon="12.610955"><ele>108.75</ele></trkpt>
   <trkpt lat="51.442813" lon="12.609807"><ele>109.75</ele></trkpt>
   <trkpt lat="51.44228" lon="12.608654"><ele>111.5</ele></trkpt>
   <trkpt lat="51.44205" lon="12.608089"><ele>111.75</ele></trkpt>
   <trkpt lat="51.441858" lon="12.607582"><ele>111.75</ele></trkpt>
   <trkpt lat="51.441675" lon="12.607039"><ele>111.75</ele></trkpt>
   <trkpt lat="51.441489" lon="12.606401"><ele>112</ele></trkpt>
   <trkpt lat="51.441357" lon="12.605898"><ele>112.25</ele></trkpt>
   <trkpt lat="51.441233" lon="12.605346"><ele>112.5</ele></trkpt>
   <trkpt lat="51.441111" lon="12.604744"><ele>112.75</ele></trkpt>
   <trkpt lat="51.441036" lon="12.60429"><ele>113</ele></trkpt>
   <trkpt lat="51.440985" lon="12.603921"><ele>113.25</ele></trkpt>
   <trkpt lat="51.440956" lon="12.6037"><ele>113.5</ele></trkpt>
   <trkpt lat="51.440888" lon="12.603073"><ele>114.25</ele></trkpt>
   <trkpt lat="51.440846" lon="12.60251"><ele>115.75</ele></trkpt>
   <trkpt lat="51.44082" lon="12.602009"><ele>117</ele></trkpt>
   <trkpt lat="51.440807" lon="12.601342"><ele>118.25</ele></trkpt>
   <trkpt lat="51.440818" lon="12.600491"><ele>119.25</ele></trkpt>
   <trkpt lat="51.440835" lon="12.600146"><ele>119.75</ele></trkpt>
   <trkpt lat="51.440872" lon="12.599596"><ele>120.75</ele></trkpt>
   <trkpt lat="51.440917" lon="12.599106"><ele>121.5</ele></trkpt>
   <trkpt lat="51.440999" lon="12.598427"><ele>121.75</ele></trkpt>
   <trkpt lat="51.441059" lon="12.598014"><ele>122.5</ele></trkpt>
   <trkpt lat="51.441167" lon="12.597397"><ele>123.75</ele></trkpt>
   <trkpt lat="51.44137" lon="12.596399"><ele>124.25</ele></trkpt>
   <trkpt lat="51.44156" lon="12.595542"><ele>121.75</ele></trkpt>
   <trkpt lat="51.441667" lon="12.595059"><ele>120</ele></trkpt>
   <trkpt lat="51.442224" lon="12.592531"><ele>117.5</ele></trkpt>
   <trkpt lat="51.442503" lon="12.591263"><ele>116.25</ele></trkpt>
   <trkpt lat="51.442635" lon="12.590624"><ele>117</ele></trkpt>
   <trkpt lat="51.442747" lon="12.590035"><ele>117.5</ele></trkpt>
   <trkpt lat="51.442911" lon="12.588976"><ele>118.5</ele></trkpt>
   <trkpt lat="51.442961" lon="12.588543"><ele>118.25</ele></trkpt>
   <trkpt lat="51.443031" lon="12.587816"><ele>119.25</ele></trkpt>
   <trkpt lat="51.443072" lon="12.587241"><ele>120</ele></trkpt>
   <trkpt lat="51.44311" lon="12.586361"><ele>121</ele></trkpt>
   <trkpt lat="51.443121" lon="12.585882"><ele>121.75</ele></trkpt>
   <trkpt lat="51.443113" lon="12.584699"><ele>122.5</ele></trkpt>
   <trkpt lat="51.443074" lon="12.583845"><ele>123</ele></trkpt>
   <trkpt lat="51.443046" lon="12.583241"><ele>123.25</ele></trkpt>
   <trkpt lat="51.442914" lon="12.580861"><ele>122.75</ele></trkpt>
   <trkpt lat="51.442771" lon="12.578148"><ele>123.75</ele></trkpt>
   <trkpt lat="51.442689" lon="12.576589"><ele>125.5</ele></trkpt>
   <trkpt lat="51.442626" lon="12.575694"><ele>126.25</ele></trkpt>
   <trkpt lat="51.442596" lon="12.575399"><ele>126</ele></trkpt>
   <trkpt lat="51.442584" lon="12.575279"><ele>126</ele></trkpt>
   <trkpt lat="51.442509" lon="12.574607"><ele>127.25</ele></trkpt>
   <trkpt lat="51.442434" lon="12.574157"><ele>129</ele></trkpt>
   <trkpt lat="51.442307" lon="12.573515"><ele>131</ele></trkpt>
   <trkpt lat="51.442196" lon="12.573029"><ele>132</ele></trkpt>
   <trkpt lat="51.442019" lon="12.572407"><ele>133.25</ele></trkpt>
   <trkpt lat="51.441776" lon="12.571671"><ele>133.5</ele></trkpt>
   <trkpt lat="51.441579" lon="12.571177"><ele>134</ele></trkpt>
   <trkpt lat="51.441322" lon="12.570592"><ele>135.25</ele></trkpt>
   <trkpt lat="51.441173" lon="12.570301"><ele>135.5</ele></trkpt>
   <trkpt lat="51.441044" lon="12.570046"><ele>135.25</ele></trkpt>
   <trkpt lat="51.440477" lon="12.569122"><ele>136.25</ele></trkpt>
   <trkpt lat="51.440128" lon="12.568644"><ele>136.25</ele></trkpt>
   <trkpt lat="51.439814" lon="12.568275"><ele>136.75</ele></trkpt>
   <trkpt lat="51.439721" lon="12.568177"><ele>137</ele></trkpt>
   <trkpt lat="51.439296" lon="12.567764"><ele>138</ele></trkpt>
   <trkpt lat="51.43886" lon="12.567384"><ele>138.25</ele></trkpt>
   <trkpt lat="51.438373" lon="12.567009"><ele>137.75</ele></trkpt>
   <trkpt lat="51.438034" lon="12.566756"><ele>138.25</ele></trkpt>
   <trkpt lat="51.436798" lon="12.565831"><ele>138</ele></trkpt>
   <trkpt lat="51.436028" lon="12.56525"><ele>136.25</ele></trkpt>
   <trkpt lat="51.435105" lon="12.564566"><ele>135.5</ele></trkpt>
   <trkpt lat="51.433309" lon="12.563215"><ele>131.75</ele></trkpt>
   <trkpt lat="51.432742" lon="12.562783"><ele>131.25</ele></trkpt>
   <trkpt lat="51.431544" lon="12.56188"><ele>130.5</ele></trkpt>
   <trkpt lat="51.430906" lon="12.561409"><ele>129</ele></trkpt>
   <trkpt lat="51.430363" lon="12.560987"><ele>128.25</ele></trkpt>
   <trkpt lat="51.4297" lon="12.560479"><ele>127.25</ele></trkpt>
   <trkpt lat="51.429545" lon="12.560362"><ele>127</ele></trkpt>
   <trkpt lat="51.428651" lon="12.5597"><ele>126</ele></trkpt>
   <trkpt lat="51.427655" lon="12.558852"><ele>124.25</ele></trkpt>
   <trkpt lat="51.427108" lon="12.558344"><ele>124.75</ele></trkpt>
   <trkpt lat="51.426594" lon="12.557805"><ele>124.75</ele></trkpt>
   <trkpt lat="51.426073" lon="12.557232"><ele>124.5</ele></trkpt>
   <trkpt lat="51.425561" lon="12.556648"><ele>125</ele></trkpt>
   <trkpt lat="51.425351" lon="12.556377"><ele>125</ele></trkpt>
   <trkpt lat="51.425217" lon="12.55621"><ele>125.25</ele></trkpt>
   <trkpt lat="51.424589" lon="12.555375"><ele>126.25</ele></trkpt>
   <trkpt lat="51.424139" lon="12.554716"><ele>126.5</ele></trkpt>
   <trkpt lat="51.42376" lon="12.554127"><ele>126.75</ele></trkpt>
   <trkpt lat="51.423452" lon="12.553628"><ele>127.5</ele></trkpt>
   <trkpt lat="51.423369" lon="12.553494"><ele>127.75</ele></trkpt>
   <trkpt lat="51.423042" lon="12.552923"><ele>127.5</ele></trkpt>
   <trkpt lat="51.422733" lon="12.552368"><ele>127.5</ele></trkpt>
   <trkpt lat="51.422528" lon="12.551982"><ele>127.75</ele></trkpt>
   <trkpt lat="51.422176" lon="12.551271"><ele>127.5</ele></trkpt>
   <trkpt lat="51.421984" lon="12.550865"><ele>127.5</ele></trkpt>
   <trkpt lat="51.421714" lon="12.550249"><ele>127.75</ele></trkpt>
   <trkpt lat="51.421508" lon="12.549718"><ele>128</ele></trkpt>
   <trkpt lat="51.42092" lon="12.548183"><ele>129</ele></trkpt>
   <trkpt lat="51.420711" lon="12.547617"><ele>129.5</ele></trkpt>
   <trkpt lat="51.420088" lon="12.545887"><ele>129.75</ele></trkpt>
   <trkpt lat="51.419971" lon="12.545563"><ele>129.75</ele></trkpt>
   <trkpt lat="51.419893" lon="12.545355"><ele>129.5</ele></trkpt>
   <trkpt lat="51.419044" lon="12.543023"><ele>127</ele></trkpt>
   <trkpt lat="51.41805" lon="12.540293"><ele>127.5</ele></trkpt>
   <trkpt lat="51.417261" lon="12.53812"><ele>127.25</ele></trkpt>
   <trkpt lat="51.416419" lon="12.53583"><ele>127.25</ele></trkpt>
   <trkpt lat="51.415865" lon="12.534322"><ele>126</ele></trkpt>
   <trkpt lat="51.415537" lon="12.533425"><ele>126</ele></trkpt>
   <trkpt lat="51.415279" lon="12.532717"><ele>125.75</ele></trkpt>
   <trkpt lat="51.414352" lon="12.530169"><ele>126.5</ele></trkpt>
   <trkpt lat="51.413455" lon="12.527714"><ele>128.75</ele></trkpt>
   <trkpt lat="51.412794" lon="12.525908"><ele>128.25</ele></trkpt>
   <trkpt lat="51.411818" lon="12.523234"><ele>126.5</ele></trkpt>
   <trkpt lat="51.411338" lon="12.521922"><ele>126.25</ele></trkpt>
   <trkpt lat="51.41091" lon="12.520752"><ele>126.5</ele></trkpt>
   <trkpt lat="51.4109" lon="12.520724"><ele>126.5</ele></trkpt>
   <trkpt lat="51.410025" lon="12.518329"><ele>127.75</ele></trkpt>
   <trkpt lat="51.40936" lon="12.51651"><ele>127.25</ele></trkpt>
   <trkpt lat="51.409097" lon="12.515854"><ele>127.25</ele></trkpt>
   <trkpt lat="51.40892" lon="12.515411"><ele>127.25</ele></trkpt>
   <trkpt lat="51.4087" lon="12.514904"><ele>127.5</ele></trkpt>
   <trkpt lat="51.408453" lon="12.514353"><ele>127.75</ele></trkpt>
   <trkpt lat="51.408295" lon="12.514015"><ele>127.75</ele></trkpt>
   <trkpt lat="51.408092" lon="12.513605"><ele>127.5</ele></trkpt>
   <trkpt lat="51.407835" lon="12.513098"><ele>127.25</ele></trkpt>
   <trkpt lat="51.407459" lon="12.512412"><ele>128</ele></trkpt>
   <trkpt lat="51.406722" lon="12.51123"><ele>132</ele></trkpt>
   <trkpt lat="51.405349" lon="12.509041"><ele>139.25</ele></trkpt>
   <trkpt lat="51.405172" lon="12.508756"><ele>138.5</ele></trkpt>
   <trkpt lat="51.404026" lon="12.506996"><ele>139.75</ele></trkpt>
   <trkpt lat="51.403098" lon="12.505547"><ele>135.75</ele></trkpt>
   <trkpt lat="51.402422" lon="12.504493"><ele>128.75</ele></trkpt>
   <trkpt lat="51.401402" lon="12.502901"><ele>127</ele></trkpt>
   <trkpt lat="51.401092" lon="12.502417"><ele>127.25</ele></trkpt>
   <trkpt lat="51.400166" lon="12.501006"><ele>126</ele></trkpt>
   <trkpt lat="51.400065" lon="12.500874"><ele>126</ele></trkpt>
   <trkpt lat="51.399111" lon="12.499612"><ele>124.75</ele></trkpt>
   <trkpt lat="51.39904" lon="12.499519"><ele>124.75</ele></trkpt>
   <trkpt lat="51.398073" lon="12.498509"><ele>123</ele></trkpt>
   <trkpt lat="51.397633" lon="12.498122"><ele>122.5</ele></trkpt>
   <trkpt lat="51.39732" lon="12.497846"><ele>122.5</ele></trkpt>
   <trkpt lat="51.396464" lon="12.497174"><ele>123.5</ele></trkpt>
   <trkpt lat="51.395958" lon="12.496862"><ele>125.5</ele></trkpt>
   <trkpt lat="51.395596" lon="12.496639"><ele>126</ele></trkpt>
   <trkpt lat="51.394997" lon="12.496331"><ele>126</ele></trkpt>
   <trkpt lat="51.394897" lon="12.496279"><ele>126.25</ele></trkpt>
   <trkpt lat="51.394006" lon="12.495922"><ele>126.75</ele></trkpt>
   <trkpt lat="51.393217" lon="12.495698"><ele>125.5</ele></trkpt>
   <trkpt lat="51.392418" lon="12.495523"><ele>124.75</ele></trkpt>
   <trkpt lat="51.391844" lon="12.495397"><ele>124.5</ele></trkpt>
   <trkpt lat="51.390703" lon="12.495167"><ele>122.5</ele></trkpt>
   <trkpt lat="51.388942" lon="12.494813"><ele>117.5</ele></trkpt>
   <trkpt lat="51.388208" lon="12.494669"><ele>117</ele></trkpt>
   <trkpt lat="51.387974" lon="12.494617"><ele>117.25</ele></trkpt>
   <trkpt lat="51.38711" lon="12.494442"><ele>118.75</ele></trkpt>
   <trkpt lat="51.386188" lon="12.494251"><ele>120.5</ele></trkpt>
   <trkpt lat="51.386024" lon="12.494213"><ele>120.75</ele></trkpt>
   <trkpt lat="51.385474" lon="12.494039"><ele>121.75</ele></trkpt>
   <trkpt lat="51.38528" lon="12.493952"><ele>122.25</ele></trkpt>
   <trkpt lat="51.38499" lon="12.493821"><ele>123</ele></trkpt>
   <trkpt lat="51.384508" lon="12.493565"><ele>124.25</ele></trkpt>
   <trkpt lat="51.384074" lon="12.493282"><ele>125.75</ele></trkpt>
   <trkpt lat="51.38363" lon="12.492951"><ele>125.25</ele></trkpt>
   <trkpt lat="51.38344" lon="12.492791"><ele>125.25</ele></trkpt>
   <trkpt lat="51.383257" lon="12.492621"><ele>125.5</ele></trkpt>
   <trkpt lat="51.383232" lon="12.492598"><ele>125.5</ele></trkpt>
   <trkpt lat="51.382733" lon="12.492091"><ele>125.25</ele></trkpt>
   <trkpt lat="51.382313" lon="12.491598"><ele>125.5</ele></trkpt>
   <trkpt lat="51.381906" lon="12.491039"><ele>125.75</ele></trkpt>
   <trkpt lat="51.381519" lon="12.490457"><ele>126.5</ele></trkpt>
   <trkpt lat="51.3812" lon="12.489888"><ele>127.25</ele></trkpt>
   <trkpt lat="51.380937" lon="12.489371"><ele>127</ele></trkpt>
   <trkpt lat="51.380694" lon="12.488808"><ele>127.25</ele></trkpt>
   <trkpt lat="51.380668" lon="12.488748"><ele>127.25</ele></trkpt>
   <trkpt lat="51.380578" lon="12.488528"><ele>127.5</ele></trkpt>
   <trkpt lat="51.380481" lon="12.488282"><ele>127.75</ele></trkpt>
   <trkpt lat="51.380424" lon="12.488144"><ele>127.75</ele></trkpt>
   <trkpt lat="51.380375" lon="12.488019"><ele>127.75</ele></trkpt>
   <trkpt lat="51.380017" lon="12.487126"><ele>127.75</ele></trkpt>
   <trkpt lat="51.37989" lon="12.486804"><ele>128.25</ele></trkpt>
   <trkpt lat="51.3794" lon="12.485562"><ele>128.25</ele></trkpt>
   <trkpt lat="51.379055" lon="12.484685"><ele>128</ele></trkpt>
   <trkpt lat="51.376095" lon="12.477149"><ele>126.25</ele></trkpt>
   <trkpt lat="51.375992" lon="12.47689"><ele>126</ele></trkpt>
   <trkpt lat="51.375108" lon="12.474652"><ele>124.75</ele></trkpt>
   <trkpt lat="51.374511" lon="12.473139"><ele>123.75</ele></trkpt>
   <trkpt lat="51.374126" lon="12.472165"><ele>123.75</ele></trkpt>
   <trkpt lat="51.37395" lon="12.471719"><ele>123.75</ele></trkpt>
   <trkpt lat="51.373011" lon="12.469323"><ele>123.75</ele></trkpt>
   <trkpt lat="51.372963" lon="12.469202"><ele>123.75</ele></trkpt>
   <trkpt lat="51.372374" lon="12.467699"><ele>124.75</ele></trkpt>
   <trkpt lat="51.372097" lon="12.467003"><ele>125.25</ele></trkpt>
   <trkpt lat="51.371772" lon="12.466177"><ele>126</ele></trkpt>
   <trkpt lat="51.371528" lon="12.465561"><ele>127.5</ele></trkpt>
   <trkpt lat="51.37136" lon="12.465132"><ele>128</ele></trkpt>
   <trkpt lat="51.371261" lon="12.464882"><ele>127.75</ele></trkpt>
   <trkpt lat="51.371001" lon="12.464223"><ele>127</ele></trkpt>
   <trkpt lat="51.370999" lon="12.464219"><ele>127</ele></trkpt>
   <trkpt lat="51.370996" lon="12.464211"><ele>127</ele></trkpt>
   <trkpt lat="51.370982" lon="12.464176"><ele>127</ele></trkpt>
   <trkpt lat="51.370969" lon="12.464144"><ele>127</ele></trkpt>
   <trkpt lat="51.370965" lon="12.464133"><ele>127</ele></trkpt>
   <trkpt lat="51.370964" lon="12.46413"><ele>127</ele></trkpt>
   <trkpt lat="51.370314" lon="12.4625"><ele>126.25</ele></trkpt>
   <trkpt lat="51.369609" lon="12.460716"><ele>127.25</ele></trkpt>
   <trkpt lat="51.369443" lon="12.460295"><ele>127.5</ele></trkpt>
   <trkpt lat="51.369322" lon="12.459985"><ele>127.75</ele></trkpt>
   <trkpt lat="51.369272" lon="12.459859"><ele>127.75</ele></trkpt>
   <trkpt lat="51.369261" lon="12.459832"><ele>127.75</ele></trkpt>
   <trkpt lat="51.36925" lon="12.459802"><ele>127.75</ele></trkpt>
   <trkpt lat="51.368953" lon="12.459044"><ele>128</ele></trkpt>
   <trkpt lat="51.36867" lon="12.458324"><ele>128</ele></trkpt>
   <trkpt lat="51.368369" lon="12.457511"><ele>128.75</ele></trkpt>
   <trkpt lat="51.368065" lon="12.456679"><ele>128.25</ele></trkpt>
   <trkpt lat="51.367815" lon="12.455947"><ele>128.25</ele></trkpt>
   <trkpt lat="51.367803" lon="12.455911"><ele>128.25</ele></trkpt>
   <trkpt lat="51.367517" lon="12.455067"><ele>128</ele></trkpt>
   <trkpt lat="51.367459" lon="12.454914"><ele>128</ele></trkpt>
   <trkpt lat="51.367371" lon="12.454679"><ele>128.25</ele></trkpt>
   <trkpt lat="51.366589" lon="12.452654"><ele>128.25</ele></trkpt>
   <trkpt lat="51.366584" lon="12.452642"><ele>128.25</ele></trkpt>
   <trkpt lat="51.36658" lon="12.452629"><ele>128.25</ele></trkpt>
   <trkpt lat="51.366346" lon="12.452"><ele>128.5</ele></trkpt>
   <trkpt lat="51.366175" lon="12.451475"><ele>128.25</ele></trkpt>
   <trkpt lat="51.366103" lon="12.451221"><ele>128.25</ele></trkpt>
   <trkpt lat="51.36602" lon="12.450836"><ele>128</ele></trkpt>
   <trkpt lat="51.365984" lon="12.450671"><ele>127.75</ele></trkpt>
   <trkpt lat="51.365925" lon="12.450381"><ele>127.5</ele></trkpt>
   <trkpt lat="51.36589" lon="12.450117"><ele>127</ele></trkpt>
   <trkpt lat="51.365841" lon="12.449667"><ele>126</ele></trkpt>
   <trkpt lat="51.365832" lon="12.449538"><ele>125.75</ele></trkpt>
   <trkpt lat="51.365817" lon="12.449092"><ele>124.75</ele></trkpt>
   <trkpt lat="51.365825" lon="12.448709"><ele>124.25</ele></trkpt>
   <trkpt lat="51.365843" lon="12.448354"><ele>124</ele></trkpt>
   <trkpt lat="51.365852" lon="12.448272"><ele>124</ele></trkpt>
   <trkpt lat="51.365882" lon="12.447987"><ele>124.25</ele></trkpt>
   <trkpt lat="51.365995" lon="12.447267"><ele>124.75</ele></trkpt>
   <trkpt lat="51.366059" lon="12.446986"><ele>124.5</ele></trkpt>
   <trkpt lat="51.366168" lon="12.4466"><ele>124.5</ele></trkpt>
   <trkpt lat="51.366299" lon="12.446216"><ele>124.5</ele></trkpt>
   <trkpt lat="51.36649" lon="12.44574"><ele>125</ele></trkpt>
   <trkpt lat="51.366972" lon="12.444671"><ele>124.75</ele></trkpt>
   <trkpt lat="51.366991" lon="12.444631"><ele>124.75</ele></trkpt>
   <trkpt lat="51.367306" lon="12.44395"><ele>125</ele></trkpt>
   <trkpt lat="51.36787" lon="12.44273"><ele>124</ele></trkpt>
   <trkpt lat="51.368143" lon="12.442167"><ele>123.25</ele></trkpt>
   <trkpt lat="51.36837" lon="12.441693"><ele>122.75</ele></trkpt>
   <trkpt lat="51.368408" lon="12.44161"><ele>122.75</ele></trkpt>
   <trkpt lat="51.368502" lon="12.441404"><ele>122.25</ele></trkpt>
   <trkpt lat="51.369096" lon="12.440136"><ele>121</ele></trkpt>
   <trkpt lat="51.369318" lon="12.439653"><ele>121.25</ele></trkpt>
   <trkpt lat="51.36958" lon="12.439013"><ele>121.25</ele></trkpt>
   <trkpt lat="51.3697" lon="12.438703"><ele>121.5</ele></trkpt>
   <trkpt lat="51.369841" lon="12.438286"><ele>121.75</ele></trkpt>
   <trkpt lat="51.370044" lon="12.437624"><ele>122</ele></trkpt>
   <trkpt lat="51.370151" lon="12.437214"><ele>121.75</ele></trkpt>
   <trkpt lat="51.370312" lon="12.436536"><ele>121.25</ele></trkpt>
   <trkpt lat="51.370627" lon="12.435149"><ele>120</ele></trkpt>
   <trkpt lat="51.370696" lon="12.434836"><ele>119.75</ele></trkpt>
   <trkpt lat="51.371342" lon="12.431949"><ele>119.5</ele></trkpt>
   <trkpt lat="51.371553" lon="12.431022"><ele>119</ele></trkpt>
   <trkpt lat="51.371734" lon="12.430138"><ele>118.75</ele></trkpt>
   <trkpt lat="51.371881" lon="12.42938"><ele>117.75</ele></trkpt>
   <trkpt lat="51.371919" lon="12.429182"><ele>117.5</ele></trkpt>
   <trkpt lat="51.371969" lon="12.428918"><ele>117.25</ele></trkpt>
   <trkpt lat="51.372107" lon="12.428204"><ele>116</ele></trkpt>
   <trkpt lat="51.372161" lon="12.427917"><ele>115.5</ele></trkpt>
   <trkpt lat="51.372221" lon="12.427603"><ele>115</ele></trkpt>
   <trkpt lat="51.372272" lon="12.42734"><ele>114.75</ele></trkpt>
   <trkpt lat="51.372383" lon="12.42676"><ele>113.75</ele></trkpt>
   <trkpt lat="51.372512" lon="12.425986"><ele>113</ele></trkpt>
   <trkpt lat="51.372621" lon="12.425203"><ele>112.5</ele></trkpt>
   <trkpt lat="51.372688" lon="12.424637"><ele>112.75</ele></trkpt>
   <trkpt lat="51.372742" lon="12.424063"><ele>113.25</ele></trkpt>
   <trkpt lat="51.372781" lon="12.42364"><ele>113.5</ele></trkpt>
   <trkpt lat="51.372794" lon="12.423485"><ele>113</ele></trkpt>
   <trkpt lat="51.372801" lon="12.423393"><ele>113</ele></trkpt>
   <trkpt lat="51.372806" lon="12.423343"><ele>113</ele></trkpt>
   <trkpt lat="51.372844" lon="12.422891"><ele>113</ele></trkpt>
   <trkpt lat="51.37291" lon="12.42213"><ele>112.25</ele></trkpt>
   <trkpt lat="51.372928" lon="12.421956"><ele>112</ele></trkpt>
   <trkpt lat="51.37298" lon="12.421374"><ele>112</ele></trkpt>
   <trkpt lat="51.372984" lon="12.421335"><ele>112</ele></trkpt>
   <trkpt lat="51.373031" lon="12.420812"><ele>112.25</ele></trkpt>
   <trkpt lat="51.373038" lon="12.420708"><ele>112</ele></trkpt>
   <trkpt lat="51.373215" lon="12.418809"><ele>111.75</ele></trkpt>
   <trkpt lat="51.373241" lon="12.418529"><ele>111.75</ele></trkpt>
   <trkpt lat="51.373286" lon="12.417995"><ele>111.5</ele></trkpt>
   <trkpt lat="51.373297" lon="12.417866"><ele>111.25</ele></trkpt>
   <trkpt lat="51.373423" lon="12.416505"><ele>110.75</ele></trkpt>
   <trkpt lat="51.373583" lon="12.414776"><ele>111.5</ele></trkpt>
   <trkpt lat="51.373639" lon="12.414169"><ele>112.25</ele></trkpt>
   <trkpt lat="51.373735" lon="12.413126"><ele>113</ele></trkpt>
   <trkpt lat="51.373737" lon="12.413104"><ele>113</ele></trkpt>
   <trkpt lat="51.373755" lon="12.412909"><ele>113.5</ele></trkpt>
   <trkpt lat="51.37377" lon="12.412758"><ele>113.5</ele></trkpt>
   <trkpt lat="51.373859" lon="12.411781"><ele>114.5</ele></trkpt>
   <trkpt lat="51.373899" lon="12.411327"><ele>114.75</ele></trkpt>
   <trkpt lat="51.37391" lon="12.41121"><ele>114.75</ele></trkpt>
   <trkpt lat="51.37404" lon="12.409786"><ele>115.5</ele></trkpt>
   <trkpt lat="51.374088" lon="12.40926"><ele>116.75</ele></trkpt>
   <trkpt lat="51.374215" lon="12.407882"><ele>117.5</ele></trkpt>
   <trkpt lat="51.374226" lon="12.407791"><ele>117.25</ele></trkpt>
   <trkpt lat="51.374238" lon="12.40767"><ele>117.25</ele></trkpt>
   <trkpt lat="51.374304" lon="12.406803"><ele>117.25</ele></trkpt>
   <trkpt lat="51.374325" lon="12.406222"><ele>117.75</ele></trkpt>
   <trkpt lat="51.374323" lon="12.405912"><ele>118.25</ele></trkpt>
   <trkpt lat="51.374309" lon="12.405483"><ele>118.25</ele></trkpt>
   <trkpt lat="51.37428" lon="12.405037"><ele>118.25</ele></trkpt>
   <trkpt lat="51.374229" lon="12.404574"><ele>118</ele></trkpt>
   <trkpt lat="51.374187" lon="12.404268"><ele>118</ele></trkpt>
   <trkpt lat="51.374087" lon="12.403722"><ele>117.75</ele></trkpt>
   <trkpt lat="51.374071" lon="12.403642"><ele>117.75</ele></trkpt>
   <trkpt lat="51.373946" lon="12.403111"><ele>117.5</ele></trkpt>
   <trkpt lat="51.373794" lon="12.402589"><ele>117.5</ele></trkpt>
   <trkpt lat="51.373699" lon="12.402301"><ele>117.25</ele></trkpt>
   <trkpt lat="51.373652" lon="12.402172"><ele>117.25</ele></trkpt>
   <trkpt lat="51.373596" lon="12.402017"><ele>117.25</ele></trkpt>
   <trkpt lat="51.373394" lon="12.401544"><ele>117</ele></trkpt>
   <trkpt lat="51.373357" lon="12.401464"><ele>117.25</ele></trkpt>
   <trkpt lat="51.373312" lon="12.401374"><ele>117.25</ele></trkpt>
   <trkpt lat="51.373229" lon="12.401211"><ele>117.25</ele></trkpt>
   <trkpt lat="51.373099" lon="12.400989"><ele>117.75</ele></trkpt>
   <trkpt lat="51.372872" lon="12.400658"><ele>118.25</ele></trkpt>
   <trkpt lat="51.372722" lon="12.400466"><ele>118.75</ele></trkpt>
   <trkpt lat="51.37255" lon="12.40027"><ele>119.25</ele></trkpt>
   <trkpt lat="51.372235" lon="12.39998"><ele>119.5</ele></trkpt>
   <trkpt lat="51.371987" lon="12.399794"><ele>119.25</ele></trkpt>
   <trkpt lat="51.371822" lon="12.399687"><ele>119.25</ele></trkpt>
   <trkpt lat="51.371642" lon="12.399596"><ele>119.25</ele></trkpt>
   <trkpt lat="51.37124" lon="12.399446"><ele>118.5</ele></trkpt>
   <trkpt lat="51.371036" lon="12.399381"><ele>118</ele></trkpt>
   <trkpt lat="51.370837" lon="12.399347"><ele>117.75</ele></trkpt>
   <trkpt lat="51.370576" lon="12.399338"><ele>117.75</ele></trkpt>
   <trkpt lat="51.370364" lon="12.399353"><ele>117.75</ele></trkpt>
   <trkpt lat="51.370359" lon="12.399354"><ele>117.75</ele></trkpt>
   <trkpt lat="51.370333" lon="12.399356"><ele>117.75</ele></trkpt>
   <trkpt lat="51.370107" lon="12.399398"><ele>117.5</ele></trkpt>
   <trkpt lat="51.369943" lon="12.399437"><ele>117.5</ele></trkpt>
   <trkpt lat="51.369775" lon="12.399489"><ele>117.5</ele></trkpt>
   <trkpt lat="51.36957" lon="12.399569"><ele>117.75</ele></trkpt>
   <trkpt lat="51.369234" lon="12.399716"><ele>117.75</ele></trkpt>
   <trkpt lat="51.369224" lon="12.39972"><ele>117.75</ele></trkpt>
   <trkpt lat="51.368409" lon="12.400089"><ele>117</ele></trkpt>
   <trkpt lat="51.368367" lon="12.400108"><ele>117</ele></trkpt>
   <trkpt lat="51.368067" lon="12.400235"><ele>116.5</ele></trkpt>
   <trkpt lat="51.36785" lon="12.400311"><ele>116.25</ele></trkpt>
   <trkpt lat="51.367467" lon="12.400484"><ele>115.75</ele></trkpt>
   <trkpt lat="51.36748" lon="12.400477"><ele>116.75</ele></trkpt>
   <trkpt lat="51.367467" lon="12.400484"><ele>115.75</ele></trkpt>
   <trkpt lat="51.367461" lon="12.400487"><ele>115.75</ele></trkpt>
   <trkpt lat="51.36729" lon="12.400572"><ele>115.5</ele></trkpt>
   <trkpt lat="51.367275" lon="12.40058"><ele>115.5</ele></trkpt>
   <trkpt lat="51.366944" lon="12.400745"><ele>115.25</ele></trkpt>
   <trkpt lat="51.366629" lon="12.40089"><ele>115</ele></trkpt>
   <trkpt lat="51.3662" lon="12.401032"><ele>115.25</ele></trkpt>
   <trkpt lat="51.365801" lon="12.401116"><ele>115.25</ele></trkpt>
   <trkpt lat="51.365595" lon="12.401138"><ele>115.75</ele></trkpt>
   <trkpt lat="51.365294" lon="12.40115"><ele>116.5</ele></trkpt>
   <trkpt lat="51.365281" lon="12.40115"><ele>116.5</ele></trkpt>
   <trkpt lat="51.365018" lon="12.401137"><ele>117.25</ele></trkpt>
   <trkpt lat="51.364738" lon="12.401105"><ele>116.75</ele></trkpt>
   <trkpt lat="51.364459" lon="12.401043"><ele>116.25</ele></trkpt>
   <trkpt lat="51.364188" lon="12.400965"><ele>115.75</ele></trkpt>
   <trkpt lat="51.364069" lon="12.400925"><ele>115.5</ele></trkpt>
   <trkpt lat="51.363943" lon="12.400874"><ele>115.25</ele></trkpt>
   <trkpt lat="51.363786" lon="12.400802"><ele>115</ele></trkpt>
   <trkpt lat="51.363551" lon="12.400685"><ele>114.5</ele></trkpt>
   <trkpt lat="51.363482" lon="12.400651"><ele>114.5</ele></trkpt>
   <trkpt lat="51.363025" lon="12.400387"><ele>114.25</ele></trkpt>
   <trkpt lat="51.362295" lon="12.399901"><ele>114</ele></trkpt>
   <trkpt lat="51.361621" lon="12.399396"><ele>115.25</ele></trkpt>
   <trkpt lat="51.361157" lon="12.398979"><ele>114.25</ele></trkpt>
   <trkpt lat="51.360959" lon="12.398776"><ele>113.75</ele></trkpt>
   <trkpt lat="51.360767" lon="12.398563"><ele>113.25</ele></trkpt>
   <trkpt lat="51.359465" lon="12.397011"><ele>111</ele></trkpt>
   <trkpt lat="51.358707" lon="12.396096"><ele>111</ele></trkpt>
   <trkpt lat="51.358342" lon="12.39569"><ele>111</ele></trkpt>
   <trkpt lat="51.357987" lon="12.395335"><ele>110.75</ele></trkpt>
   <trkpt lat="51.357622" lon="12.394929"><ele>111</ele></trkpt>
   <trkpt lat="51.357536" lon="12.394822"><ele>111</ele></trkpt>
   <trkpt lat="51.357494" lon="12.39477"><ele>111.25</ele></trkpt>
   <trkpt lat="51.357129" lon="12.39436"><ele>111.5</ele></trkpt>
   <trkpt lat="51.356979" lon="12.39421"><ele>111.75</ele></trkpt>
   <trkpt lat="51.356616" lon="12.393804"><ele>112.25</ele></trkpt>
   <trkpt lat="51.356571" lon="12.39375"><ele>112.25</ele></trkpt>
   <trkpt lat="51.35655" lon="12.393725"><ele>112.25</ele></trkpt>
   <trkpt lat="51.355746" lon="12.39276"><ele>111.5</ele></trkpt>
   <trkpt lat="51.355698" lon="12.392702"><ele>111.5</ele></trkpt>
   <trkpt lat="51.355683" lon="12.392683"><ele>111.5</ele></trkpt>
   <trkpt lat="51.355632" lon="12.392623"><ele>111.5</ele></trkpt>
   <trkpt lat="51.355365" lon="12.392301"><ele>111.25</ele></trkpt>
   <trkpt lat="51.354903" lon="12.391751"><ele>110.75</ele></trkpt>
   <trkpt lat="51.354495" lon="12.391288"><ele>110</ele></trkpt>
   <trkpt lat="51.354347" lon="12.391124"><ele>109.75</ele></trkpt>
   <trkpt lat="51.354188" lon="12.390954"><ele>109.75</ele></trkpt>
   <trkpt lat="51.353666" lon="12.390394"><ele>110</ele></trkpt>
   <trkpt lat="51.352968" lon="12.389656"><ele>110.5</ele></trkpt>
   <trkpt lat="51.352848" lon="12.38952"><ele>110.75</ele></trkpt>
   <trkpt lat="51.352761" lon="12.389429"><ele>110.75</ele></trkpt>
   <trkpt lat="51.352599" lon="12.389257"><ele>110.75</ele></trkpt>
   <trkpt lat="51.352149" lon="12.38875"><ele>110.5</ele></trkpt>
   <trkpt lat="51.351896" lon="12.388465"><ele>110.25</ele></trkpt>
   <trkpt lat="51.351822" lon="12.388388"><ele>110</ele></trkpt>
   <trkpt lat="51.351546" lon="12.388064"><ele>110.5</ele></trkpt>
   <trkpt lat="51.35139" lon="12.387886"><ele>110.75</ele></trkpt>
   <trkpt lat="51.351341" lon="12.387831"><ele>110.75</ele></trkpt>
   <trkpt lat="51.350879" lon="12.387306"><ele>111</ele></trkpt>
   <trkpt lat="51.350555" lon="12.386936"><ele>110.5</ele></trkpt>
   <trkpt lat="51.350502" lon="12.386876"><ele>110.5</ele></trkpt>
   <trkpt lat="51.350156" lon="12.386484"><ele>110</ele></trkpt>
   <trkpt lat="51.349939" lon="12.386239"><ele>110</ele></trkpt>
   <trkpt lat="51.349111" lon="12.385346"><ele>110.75</ele></trkpt>
   <trkpt lat="51.348365" lon="12.38455"><ele>110.5</ele></trkpt>
   <trkpt lat="51.348203" lon="12.38438"><ele>110.5</ele></trkpt>
   <trkpt lat="51.346692" lon="12.382765"><ele>112.25</ele></trkpt>
   <trkpt lat="51.346635" lon="12.382704"><ele>112.5</ele></trkpt>
   <trkpt lat="51.346605" lon="12.382674"><ele>112.75</ele></trkpt>
   <trkpt lat="51.345842" lon="12.381866"><ele>117.5</ele></trkpt>
   <trkpt lat="51.345175" lon="12.381168"><ele>121.5</ele></trkpt>
   <trkpt lat="51.345134" lon="12.381121"><ele>122</ele></trkpt>
  </trkseg>
 </trk>
</gpx>