<?xml version="1.0" encoding="UTF-8"?>
<!-- track-length = 217505 filtered ascend = 140 plain-ascend = -86 cost=217505 energy=2.6kwh time=4h 50m  -->
<gpx 
 xmlns="http://www.topografix.com/GPX/1/1" 
 xmlns:xsi="http://www.w3.org/2001/XMLSchema-instance" 
 xsi:schemaLocation="http://www.topografix.com/GPX/1/1 http://www.topografix.com/GPX/1/1/gpx.xsd" 
 version="1.1" 
 creator="BRouter-Web 0.18.1">
 <trk>
  <name>Daugavpils - Riga</name>
  <trkseg>
   <trkpt lat="55.873556" lon="26.529951"><ele>96</ele></trkpt>
   <trkpt lat="55.873625" lon="26.529861"><ele>96.25</ele></trkpt>
   <trkpt lat="55.874431" lon="26.528764"><ele>97</ele></trkpt>
   <trkpt lat="55.87553" lon="26.527259"><ele>96.5</ele></trkpt>
   <trkpt lat="55.876552" lon="26.525781"><ele>96</ele></trkpt>
   <trkpt lat="55.876681" lon="26.525627"><ele>96</ele></trkpt>
   <trkpt lat="55.878373" lon="26.523298"><ele>96.75</ele></trkpt>
   <trkpt lat="55.878971" lon="26.522479"><ele>96</ele></trkpt>
   <trkpt lat="55.879253" lon="26.522087"><ele>95.75</ele></trkpt>
   <trkpt lat="55.880064" lon="26.520967"><ele>94.75</ele></trkpt>
   <trkpt lat="55.880437" lon="26.520458"><ele>94.5</ele></trkpt>
   <trkpt lat="55.880485" lon="26.520391"><ele>94.5</ele></trkpt>
   <trkpt lat="55.88053" lon="26.52033"><ele>94.5</ele></trkpt>
   <trkpt lat="55.885347" lon="26.513696"><ele>88.75</ele></trkpt>
   <trkpt lat="55.88538" lon="26.51365"><ele>88.75</ele></trkpt>
   <trkpt lat="55.888176" lon="26.509809"><ele>90.75</ele></trkpt>
   <trkpt lat="55.890181" lon="26.507061"><ele>92</ele></trkpt>
   <trkpt lat="55.89365" lon="26.502305"><ele>93.5</ele></trkpt>
   <trkpt lat="55.893908" lon="26.501854"><ele>93.25</ele></trkpt>
   <trkpt lat="55.894077" lon="26.501602"><ele>93</ele></trkpt>
   <trkpt lat="55.895156" lon="26.500118"><ele>93.25</ele></trkpt>
   <trkpt lat="55.89525" lon="26.499989"><ele>93.5</ele></trkpt>
   <trkpt lat="55.895301" lon="26.499921"><ele>93.5</ele></trkpt>
   <trkpt lat="55.899929" lon="26.493569"><ele>96.75</ele></trkpt>
   <trkpt lat="55.900634" lon="26.492624"><ele>98</ele></trkpt>
   <trkpt lat="55.900921" lon="26.492277"><ele>99</ele></trkpt>
   <trkpt lat="55.90142" lon="26.491731"><ele>100.25</ele></trkpt>
   <trkpt lat="55.90193" lon="26.491242"><ele>100</ele></trkpt>
   <trkpt lat="55.902288" lon="26.490928"><ele>99.75</ele></trkpt>
   <trkpt lat="55.902598" lon="26.490688"><ele>100</ele></trkpt>
   <trkpt lat="55.902998" lon="26.490397"><ele>100.5</ele></trkpt>
   <trkpt lat="55.90336" lon="26.490166"><ele>101</ele></trkpt>
   <trkpt lat="55.903809" lon="26.489915"><ele>100</ele></trkpt>
   <trkpt lat="55.904187" lon="26.489732"><ele>99.25</ele></trkpt>
   <trkpt lat="55.904646" lon="26.489538"><ele>99.25</ele></trkpt>
   <trkpt lat="55.915527" lon="26.485157"><ele>100.5</ele></trkpt>
   <trkpt lat="55.915576" lon="26.485138"><ele>100.5</ele></trkpt>
   <trkpt lat="55.930608" lon="26.479071"><ele>111</ele></trkpt>
   <trkpt lat="55.93311" lon="26.478042"><ele>109.75</ele></trkpt>
   <trkpt lat="55.933366" lon="26.477951"><ele>109.5</ele></trkpt>
   <trkpt lat="55.934129" lon="26.477713"><ele>108.5</ele></trkpt>
   <trkpt lat="55.934396" lon="26.477612"><ele>107.5</ele></trkpt>
   <trkpt lat="55.947447" lon="26.472343"><ele>101.5</ele></trkpt>
   <trkpt lat="55.967126" lon="26.464397"><ele>106.5</ele></trkpt>
   <trkpt lat="55.97556" lon="26.460989"><ele>92</ele></trkpt>
   <trkpt lat="55.975881" lon="26.46086"><ele>91</ele></trkpt>
   <trkpt lat="55.977893" lon="26.460049"><ele>92.25</ele></trkpt>
   <trkpt lat="55.9807" lon="26.458914"><ele>92.25</ele></trkpt>
   <trkpt lat="55.981578" lon="26.45855"><ele>95.25</ele></trkpt>
   <trkpt lat="55.984182" lon="26.457505"><ele>100</ele></trkpt>
   <trkpt lat="55.989259" lon="26.45545"><ele>101.25</ele></trkpt>
   <trkpt lat="55.989921" lon="26.455199"><ele>101</ele></trkpt>
   <trkpt lat="55.990614" lon="26.454977"><ele>101.5</ele></trkpt>
   <trkpt lat="55.990981" lon="26.454867"><ele>101.5</ele></trkpt>
   <trkpt lat="55.991713" lon="26.454673"><ele>101.5</ele></trkpt>
   <trkpt lat="55.998711" lon="26.452651"><ele>102.5</ele></trkpt>
   <trkpt lat="55.999457" lon="26.45244"><ele>102</ele></trkpt>
   <trkpt lat="55.999852" lon="26.452319"><ele>102.25</ele></trkpt>
   <trkpt lat="56.000464" lon="26.452146"><ele>102.75</ele></trkpt>
   <trkpt lat="56.001829" lon="26.451751"><ele>102.5</ele></trkpt>
   <trkpt lat="56.002295" lon="26.451652"><ele>101.25</ele></trkpt>
   <trkpt lat="56.002829" lon="26.451569"><ele>99.75</ele></trkpt>
   <trkpt lat="56.003348" lon="26.451514"><ele>98</ele></trkpt>
   <trkpt lat="56.003937" lon="26.451475"><ele>97.25</ele></trkpt>
   <trkpt lat="56.004387" lon="26.451482"><ele>96.5</ele></trkpt>
   <trkpt lat="56.004881" lon="26.451506"><ele>96</ele></trkpt>
   <trkpt lat="56.005315" lon="26.451553"><ele>95.75</ele></trkpt>
   <trkpt lat="56.005902" lon="26.451649"><ele>95.75</ele></trkpt>
   <trkpt lat="56.006327" lon="26.451743"><ele>95.25</ele></trkpt>
   <trkpt lat="56.006993" lon="26.451921"><ele>95</ele></trkpt>
   <trkpt lat="56.008886" lon="26.452495"><ele>95</ele></trkpt>
   <trkpt lat="56.010717" lon="26.453034"><ele>94.5</ele></trkpt>
   <trkpt lat="56.012082" lon="26.453456"><ele>96</ele></trkpt>
   <trkpt lat="56.013977" lon="26.454025"><ele>99.5</ele></trkpt>
   <trkpt lat="56.014261" lon="26.454102"><ele>99.75</ele></trkpt>
   <trkpt lat="56.017461" lon="26.455061"><ele>102</ele></trkpt>
   <trkpt lat="56.018378" lon="26.455342"><ele>99</ele></trkpt>
   <trkpt lat="56.018565" lon="26.455398"><ele>99.75</ele></trkpt>
   <trkpt lat="56.019821" lon="26.455781"><ele>102.75</ele></trkpt>
   <trkpt lat="56.020274" lon="26.455939"><ele>103.25</ele></trkpt>
   <trkpt lat="56.020952" lon="26.45622"><ele>104</ele></trkpt>
   <trkpt lat="56.021583" lon="26.456546"><ele>105.5</ele></trkpt>
   <trkpt lat="56.022048" lon="26.456807"><ele>104.25</ele></trkpt>
   <trkpt lat="56.022439" lon="26.457043"><ele>103</ele></trkpt>
   <trkpt lat="56.023163" lon="26.457556"><ele>101.25</ele></trkpt>
   <trkpt lat="56.023712" lon="26.457975"><ele>102.25</ele></trkpt>
   <trkpt lat="56.024342" lon="26.458461"><ele>104.25</ele></trkpt>
   <trkpt lat="56.027192" lon="26.460708"><ele>104.75</ele></trkpt>
   <trkpt lat="56.027931" lon="26.461274"><ele>105</ele></trkpt>
   <trkpt lat="56.028364" lon="26.461567"><ele>103</ele></trkpt>
   <trkpt lat="56.028468" lon="26.461635"><ele>102.75</ele></trkpt>
   <trkpt lat="56.029102" lon="26.461991"><ele>99.75</ele></trkpt>
   <trkpt lat="56.029473" lon="26.462159"><ele>99.75</ele></trkpt>
   <trkpt lat="56.030186" lon="26.462427"><ele>100.25</ele></trkpt>
   <trkpt lat="56.030578" lon="26.46253"><ele>100.25</ele></trkpt>
   <trkpt lat="56.030865" lon="26.462588"><ele>100.25</ele></trkpt>
   <trkpt lat="56.031206" lon="26.462642"><ele>101</ele></trkpt>
   <trkpt lat="56.031977" lon="26.462709"><ele>101.75</ele></trkpt>
   <trkpt lat="56.032264" lon="26.462697"><ele>101.5</ele></trkpt>
   <trkpt lat="56.032766" lon="26.462656"><ele>101.5</ele></trkpt>
   <trkpt lat="56.033544" lon="26.462524"><ele>100.75</ele></trkpt>
   <trkpt lat="56.034178" lon="26.462319"><ele>99.25</ele></trkpt>
   <trkpt lat="56.034466" lon="26.462215"><ele>99.25</ele></trkpt>
   <trkpt lat="56.034813" lon="26.462066"><ele>99.5</ele></trkpt>
   <trkpt lat="56.035129" lon="26.461907"><ele>100.25</ele></trkpt>
   <trkpt lat="56.03542" lon="26.461739"><ele>101.5</ele></trkpt>
   <trkpt lat="56.035995" lon="26.461377"><ele>102.25</ele></trkpt>
   <trkpt lat="56.036366" lon="26.461103"><ele>102.25</ele></trkpt>
   <trkpt lat="56.037245" lon="26.460389"><ele>101.75</ele></trkpt>
   <trkpt lat="56.037774" lon="26.459976"><ele>103</ele></trkpt>
   <trkpt lat="56.038321" lon="26.459562"><ele>104.75</ele></trkpt>
   <trkpt lat="56.039334" lon="26.458786"><ele>104.75</ele></trkpt>
   <trkpt lat="56.040726" lon="26.457686"><ele>104.25</ele></trkpt>
   <trkpt lat="56.042775" lon="26.45603"><ele>105.75</ele></trkpt>
   <trkpt lat="56.044212" lon="26.454899"><ele>102.75</ele></trkpt>
   <trkpt lat="56.045016" lon="26.454249"><ele>101</ele></trkpt>
   <trkpt lat="56.045599" lon="26.453778"><ele>101.5</ele></trkpt>
   <trkpt lat="56.046985" lon="26.452677"><ele>103.5</ele></trkpt>
   <trkpt lat="56.049098" lon="26.451028"><ele>103.25</ele></trkpt>
   <trkpt lat="56.05159" lon="26.449019"><ele>102.25</ele></trkpt>
   <trkpt lat="56.052646" lon="26.448106"><ele>101.75</ele></trkpt>
   <trkpt lat="56.052904" lon="26.447895"><ele>102.25</ele></trkpt>
   <trkpt lat="56.053797" lon="26.447227"><ele>104.5</ele></trkpt>
   <trkpt lat="56.061517" lon="26.441015"><ele>108</ele></trkpt>
   <trkpt lat="56.063427" lon="26.439504"><ele>105.25</ele></trkpt>
   <trkpt lat="56.065344" lon="26.437944"><ele>106.25</ele></trkpt>
   <trkpt lat="56.067125" lon="26.436522"><ele>109.5</ele></trkpt>
   <trkpt lat="56.068841" lon="26.435149"><ele>108.5</ele></trkpt>
   <trkpt lat="56.072673" lon="26.432053"><ele>109</ele></trkpt>
   <trkpt lat="56.074484" lon="26.430613"><ele>106</ele></trkpt>
   <trkpt lat="56.07551" lon="26.429766"><ele>107.5</ele></trkpt>
   <trkpt lat="56.076486" lon="26.428789"><ele>106.5</ele></trkpt>
   <trkpt lat="56.077166" lon="26.428039"><ele>102.5</ele></trkpt>
   <trkpt lat="56.077931" lon="26.427091"><ele>97.75</ele></trkpt>
   <trkpt lat="56.083273" lon="26.419628"><ele>105</ele></trkpt>
   <trkpt lat="56.08445" lon="26.418245"><ele>105.5</ele></trkpt>
   <trkpt lat="56.085284" lon="26.417387"><ele>104.5</ele></trkpt>
   <trkpt lat="56.086226" lon="26.416555"><ele>105</ele></trkpt>
   <trkpt lat="56.087503" lon="26.415591"><ele>106</ele></trkpt>
   <trkpt lat="56.091163" lon="26.412961"><ele>115.25</ele></trkpt>
   <trkpt lat="56.093023" lon="26.411592"><ele>112.5</ele></trkpt>
   <trkpt lat="56.094695" lon="26.410381"><ele>110</ele></trkpt>
   <trkpt lat="56.097661" lon="26.408204"><ele>100.25</ele></trkpt>
   <trkpt lat="56.099114" lon="26.407165"><ele>102.25</ele></trkpt>
   <trkpt lat="56.101056" lon="26.405736"><ele>103.25</ele></trkpt>
   <trkpt lat="56.102981" lon="26.404333"><ele>102.5</ele></trkpt>
   <trkpt lat="56.106159" lon="26.402036"><ele>108</ele></trkpt>
   <trkpt lat="56.117129" lon="26.394035"><ele>110.25</ele></trkpt>
   <trkpt lat="56.118074" lon="26.393299"><ele>103.5</ele></trkpt>
   <trkpt lat="56.119127" lon="26.392373"><ele>101.75</ele></trkpt>
   <trkpt lat="56.120554" lon="26.390864"><ele>100.5</ele></trkpt>
   <trkpt lat="56.123025" lon="26.388304"><ele>104.25</ele></trkpt>
   <trkpt lat="56.125323" lon="26.385938"><ele>101.75</ele></trkpt>
   <trkpt lat="56.1261" lon="26.38497"><ele>97.5</ele></trkpt>
   <trkpt lat="56.126678" lon="26.384229"><ele>95.75</ele></trkpt>
   <trkpt lat="56.127171" lon="26.38354"><ele>99</ele></trkpt>
   <trkpt lat="56.127712" lon="26.382791"><ele>101.75</ele></trkpt>
   <trkpt lat="56.128009" lon="26.382299"><ele>102.75</ele></trkpt>
   <trkpt lat="56.128254" lon="26.381892"><ele>103.5</ele></trkpt>
   <trkpt lat="56.12873" lon="26.38103"><ele>104</ele></trkpt>
   <trkpt lat="56.129113" lon="26.380298"><ele>105.25</ele></trkpt>
   <trkpt lat="56.129397" lon="26.379746"><ele>105.25</ele></trkpt>
   <trkpt lat="56.129732" lon="26.379173"><ele>104.75</ele></trkpt>
   <trkpt lat="56.130087" lon="26.378518"><ele>104.75</ele></trkpt>
   <trkpt lat="56.130717" lon="26.377413"><ele>104.75</ele></trkpt>
   <trkpt lat="56.13115" lon="26.376734"><ele>104</ele></trkpt>
   <trkpt lat="56.131573" lon="26.376096"><ele>102.25</ele></trkpt>
   <trkpt lat="56.131977" lon="26.375532"><ele>101.75</ele></trkpt>
   <trkpt lat="56.132656" lon="26.374666"><ele>100.75</ele></trkpt>
   <trkpt lat="56.133075" lon="26.374158"><ele>99.75</ele></trkpt>
   <trkpt lat="56.133487" lon="26.373708"><ele>99.75</ele></trkpt>
   <trkpt lat="56.134153" lon="26.373068"><ele>99</ele></trkpt>
   <trkpt lat="56.135237" lon="26.372053"><ele>100.25</ele></trkpt>
   <trkpt lat="56.136301" lon="26.371103"><ele>99.25</ele></trkpt>
   <trkpt lat="56.138" lon="26.369538"><ele>98.25</ele></trkpt>
   <trkpt lat="56.138264" lon="26.369294"><ele>98</ele></trkpt>
   <trkpt lat="56.138659" lon="26.368808"><ele>97</ele></trkpt>
   <trkpt lat="56.13888" lon="26.368599"><ele>96.5</ele></trkpt>
   <trkpt lat="56.139096" lon="26.368403"><ele>96</ele></trkpt>
   <trkpt lat="56.140644" lon="26.367003"><ele>95.5</ele></trkpt>
   <trkpt lat="56.14171" lon="26.366038"><ele>97.5</ele></trkpt>
   <trkpt lat="56.144149" lon="26.363784"><ele>95</ele></trkpt>
   <trkpt lat="56.151772" lon="26.356807"><ele>90.75</ele></trkpt>
   <trkpt lat="56.152043" lon="26.35656"><ele>90.5</ele></trkpt>
   <trkpt lat="56.154965" lon="26.353872"><ele>87.75</ele></trkpt>
   <trkpt lat="56.156574" lon="26.352406"><ele>90.75</ele></trkpt>
   <trkpt lat="56.158156" lon="26.350967"><ele>93.75</ele></trkpt>
   <trkpt lat="56.158998" lon="26.35009"><ele>94</ele></trkpt>
   <trkpt lat="56.159939" lon="26.348948"><ele>93.5</ele></trkpt>
   <trkpt lat="56.160868" lon="26.347644"><ele>95</ele></trkpt>
   <trkpt lat="56.164833" lon="26.341445"><ele>93.25</ele></trkpt>
   <trkpt lat="56.170427" lon="26.332732"><ele>100.25</ele></trkpt>
   <trkpt lat="56.171949" lon="26.330386"><ele>101.75</ele></trkpt>
   <trkpt lat="56.175514" lon="26.324799"><ele>100</ele></trkpt>
   <trkpt lat="56.176732" lon="26.322912"><ele>101.25</ele></trkpt>
   <trkpt lat="56.177926" lon="26.321029"><ele>100.75</ele></trkpt>
   <trkpt lat="56.179148" lon="26.31914"><ele>101</ele></trkpt>
   <trkpt lat="56.182839" lon="26.313356"><ele>96.5</ele></trkpt>
   <trkpt lat="56.184015" lon="26.31153"><ele>97.5</ele></trkpt>
   <trkpt lat="56.185331" lon="26.309464"><ele>97.25</ele></trkpt>
   <trkpt lat="56.186844" lon="26.30711"><ele>95.75</ele></trkpt>
   <trkpt lat="56.187588" lon="26.305934"><ele>94.75</ele></trkpt>
   <trkpt lat="56.18807" lon="26.305149"><ele>94.25</ele></trkpt>
   <trkpt lat="56.188242" lon="26.304869"><ele>94.25</ele></trkpt>
   <trkpt lat="56.188409" lon="26.304599"><ele>94.75</ele></trkpt>
   <trkpt lat="56.189852" lon="26.302261"><ele>105</ele></trkpt>
   <trkpt lat="56.19104" lon="26.300453"><ele>113.25</ele></trkpt>
   <trkpt lat="56.192273" lon="26.298501"><ele>111.75</ele></trkpt>
   <trkpt lat="56.194526" lon="26.295"><ele>109.25</ele></trkpt>
   <trkpt lat="56.195694" lon="26.293096"><ele>100.5</ele></trkpt>
   <trkpt lat="56.196179" lon="26.292177"><ele>98</ele></trkpt>
   <trkpt lat="56.197443" lon="26.289595"><ele>96.25</ele></trkpt>
   <trkpt lat="56.198446" lon="26.28751"><ele>95</ele></trkpt>
   <trkpt lat="56.200011" lon="26.284348"><ele>101.5</ele></trkpt>
   <trkpt lat="56.200754" lon="26.282801"><ele>105.5</ele></trkpt>
   <trkpt lat="56.201624" lon="26.281126"><ele>106.5</ele></trkpt>
   <trkpt lat="56.20186" lon="26.280649"><ele>106.25</ele></trkpt>
   <trkpt lat="56.20289" lon="26.278556"><ele>105</ele></trkpt>
   <trkpt lat="56.20411" lon="26.276042"><ele>101.5</ele></trkpt>
   <trkpt lat="56.206265" lon="26.271579"><ele>96.75</ele></trkpt>
   <trkpt lat="56.208369" lon="26.267226"><ele>95</ele></trkpt>
   <trkpt lat="56.210811" lon="26.262233"><ele>102.25</ele></trkpt>
   <trkpt lat="56.216737" lon="26.249982"><ele>97.75</ele></trkpt>
   <trkpt lat="56.217965" lon="26.247443"><ele>100</ele></trkpt>
   <trkpt lat="56.21943" lon="26.244448"><ele>105.25</ele></trkpt>
   <trkpt lat="56.220582" lon="26.242325"><ele>104.5</ele></trkpt>
   <trkpt lat="56.221365" lon="26.241145"><ele>107.25</ele></trkpt>
   <trkpt lat="56.221787" lon="26.240556"><ele>109.25</ele></trkpt>
   <trkpt lat="56.223047" lon="26.238938"><ele>111.5</ele></trkpt>
   <trkpt lat="56.225558" lon="26.235904"><ele>113</ele></trkpt>
   <trkpt lat="56.226783" lon="26.23437"><ele>114.75</ele></trkpt>
   <trkpt lat="56.228016" lon="26.232894"><ele>114.5</ele></trkpt>
   <trkpt lat="56.230006" lon="26.230415"><ele>107.5</ele></trkpt>
   <trkpt lat="56.23073" lon="26.229554"><ele>109.75</ele></trkpt>
   <trkpt lat="56.233205" lon="26.226486"><ele>105.5</ele></trkpt>
   <trkpt lat="56.235574" lon="26.223642"><ele>111.5</ele></trkpt>
   <trkpt lat="56.236796" lon="26.222119"><ele>110.25</ele></trkpt>
   <trkpt lat="56.239231" lon="26.219116"><ele>108.75</ele></trkpt>
   <trkpt lat="56.240418" lon="26.217668"><ele>109.5</ele></trkpt>
   <trkpt lat="56.242277" lon="26.215406"><ele>111.25</ele></trkpt>
   <trkpt lat="56.243488" lon="26.213949"><ele>107.75</ele></trkpt>
   <trkpt lat="56.243742" lon="26.213619"><ele>106.5</ele></trkpt>
   <trkpt lat="56.244363" lon="26.212897"><ele>106</ele></trkpt>
   <trkpt lat="56.245164" lon="26.212057"><ele>106.25</ele></trkpt>
   <trkpt lat="56.245583" lon="26.211683"><ele>106.75</ele></trkpt>
   <trkpt lat="56.246346" lon="26.211117"><ele>105.5</ele></trkpt>
   <trkpt lat="56.246828" lon="26.210802"><ele>104.25</ele></trkpt>
   <trkpt lat="56.247233" lon="26.210622"><ele>103</ele></trkpt>
   <trkpt lat="56.24784" lon="26.210319"><ele>100.75</ele></trkpt>
   <trkpt lat="56.248916" lon="26.209906"><ele>98</ele></trkpt>
   <trkpt lat="56.250064" lon="26.209842"><ele>98.75</ele></trkpt>
   <trkpt lat="56.250658" lon="26.209868"><ele>98.75</ele></trkpt>
   <trkpt lat="56.251162" lon="26.20994"><ele>98.5</ele></trkpt>
   <trkpt lat="56.252007" lon="26.210048"><ele>97</ele></trkpt>
   <trkpt lat="56.254543" lon="26.210325"><ele>99.75</ele></trkpt>
   <trkpt lat="56.254559" lon="26.210327"><ele>99.75</ele></trkpt>
   <trkpt lat="56.255449" lon="26.210438"><ele>101.75</ele></trkpt>
   <trkpt lat="56.255978" lon="26.210512"><ele>102.25</ele></trkpt>
   <trkpt lat="56.257058" lon="26.210606"><ele>102.25</ele></trkpt>
   <trkpt lat="56.259302" lon="26.21089"><ele>99.75</ele></trkpt>
   <trkpt lat="56.262834" lon="26.211287"><ele>99</ele></trkpt>
   <trkpt lat="56.263204" lon="26.211316"><ele>99.75</ele></trkpt>
   <trkpt lat="56.263818" lon="26.211398"><ele>101.5</ele></trkpt>
   <trkpt lat="56.26469" lon="26.211428"><ele>100.5</ele></trkpt>
   <trkpt lat="56.265765" lon="26.211347"><ele>99</ele></trkpt>
   <trkpt lat="56.266618" lon="26.211215"><ele>100.25</ele></trkpt>
   <trkpt lat="56.267479" lon="26.211008"><ele>97.75</ele></trkpt>
   <trkpt lat="56.269324" lon="26.210423"><ele>98.75</ele></trkpt>
   <trkpt lat="56.270822" lon="26.209975"><ele>99.75</ele></trkpt>
   <trkpt lat="56.272467" lon="26.209515"><ele>98.5</ele></trkpt>
   <trkpt lat="56.273237" lon="26.209314"><ele>99.75</ele></trkpt>
   <trkpt lat="56.282056" lon="26.206511"><ele>91.25</ele></trkpt>
   <trkpt lat="56.287523" lon="26.204797"><ele>95.5</ele></trkpt>
   <trkpt lat="56.289511" lon="26.204189"><ele>100.75</ele></trkpt>
   <trkpt lat="56.29165" lon="26.203501"><ele>94</ele></trkpt>
   <trkpt lat="56.293312" lon="26.20299"><ele>92</ele></trkpt>
   <trkpt lat="56.295014" lon="26.202443"><ele>92</ele></trkpt>
   <trkpt lat="56.296714" lon="26.201926"><ele>92</ele></trkpt>
   <trkpt lat="56.298411" lon="26.201392"><ele>92.75</ele></trkpt>
   <trkpt lat="56.299414" lon="26.201004"><ele>93</ele></trkpt>
   <trkpt lat="56.300199" lon="26.20063"><ele>92.5</ele></trkpt>
   <trkpt lat="56.301848" lon="26.199796"><ele>94.25</ele></trkpt>
   <trkpt lat="56.307196" lon="26.197198"><ele>104</ele></trkpt>
   <trkpt lat="56.308726" lon="26.196428"><ele>100.75</ele></trkpt>
   <trkpt lat="56.310286" lon="26.195685"><ele>102.25</ele></trkpt>
   <trkpt lat="56.311855" lon="26.194879"><ele>103.75</ele></trkpt>
   <trkpt lat="56.31343" lon="26.194116"><ele>103.75</ele></trkpt>
   <trkpt lat="56.315049" lon="26.193332"><ele>99.75</ele></trkpt>
   <trkpt lat="56.316666" lon="26.192506"><ele>93</ele></trkpt>
   <trkpt lat="56.318026" lon="26.191826"><ele>94.25</ele></trkpt>
   <trkpt lat="56.319538" lon="26.190894"><ele>95</ele></trkpt>
   <trkpt lat="56.32514" lon="26.188108"><ele>95.75</ele></trkpt>
   <trkpt lat="56.3258" lon="26.187767"><ele>94.75</ele></trkpt>
   <trkpt lat="56.326495" lon="26.187457"><ele>94</ele></trkpt>
   <trkpt lat="56.327187" lon="26.187184"><ele>94</ele></trkpt>
   <trkpt lat="56.327904" lon="26.186947"><ele>94</ele></trkpt>
   <trkpt lat="56.328046" lon="26.186926"><ele>94</ele></trkpt>
   <trkpt lat="56.330701" lon="26.186449"><ele>90.75</ele></trkpt>
   <trkpt lat="56.332662" lon="26.186091"><ele>92</ele></trkpt>
   <trkpt lat="56.332934" lon="26.186044"><ele>94.5</ele></trkpt>
   <trkpt lat="56.342441" lon="26.184461"><ele>91</ele></trkpt>
   <trkpt lat="56.342959" lon="26.184348"><ele>90.75</ele></trkpt>
   <trkpt lat="56.343417" lon="26.184219"><ele>91</ele></trkpt>
   <trkpt lat="56.343611" lon="26.184154"><ele>91.25</ele></trkpt>
   <trkpt lat="56.344149" lon="26.183946"><ele>91.75</ele></trkpt>
   <trkpt lat="56.344511" lon="26.183803"><ele>92</ele></trkpt>
   <trkpt lat="56.344716" lon="26.183708"><ele>92</ele></trkpt>
   <trkpt lat="56.345028" lon="26.183527"><ele>92</ele></trkpt>
   <trkpt lat="56.346247" lon="26.183023"><ele>92.75</ele></trkpt>
   <trkpt lat="56.346523" lon="26.182896"><ele>93.25</ele></trkpt>
   <trkpt lat="56.353371" lon="26.179468"><ele>92.5</ele></trkpt>
   <trkpt lat="56.353414" lon="26.179446"><ele>92.25</ele></trkpt>
   <trkpt lat="56.353465" lon="26.17942"><ele>92.25</ele></trkpt>
   <trkpt lat="56.353917" lon="26.179194"><ele>91.5</ele></trkpt>
   <trkpt lat="56.354106" lon="26.179121"><ele>91</ele></trkpt>
   <trkpt lat="56.354421" lon="26.179017"><ele>90.25</ele></trkpt>
   <trkpt lat="56.354614" lon="26.178934"><ele>89.75</ele></trkpt>
   <trkpt lat="56.354955" lon="26.178762"><ele>89</ele></trkpt>
   <trkpt lat="56.356214" lon="26.17813"><ele>87</ele></trkpt>
   <trkpt lat="56.35782" lon="26.177306"><ele>85.75</ele></trkpt>
   <trkpt lat="56.358553" lon="26.176937"><ele>88</ele></trkpt>
   <trkpt lat="56.359997" lon="26.176225"><ele>92.75</ele></trkpt>
   <trkpt lat="56.364201" lon="26.174109"><ele>91</ele></trkpt>
   <trkpt lat="56.36573" lon="26.173338"><ele>91.75</ele></trkpt>
   <trkpt lat="56.367247" lon="26.172602"><ele>91.75</ele></trkpt>
   <trkpt lat="56.369238" lon="26.171579"><ele>91.5</ele></trkpt>
   <trkpt lat="56.369711" lon="26.171326"><ele>90.25</ele></trkpt>
   <trkpt lat="56.370352" lon="26.17095"><ele>89.25</ele></trkpt>
   <trkpt lat="56.371951" lon="26.169887"><ele>90.25</ele></trkpt>
   <trkpt lat="56.375562" lon="26.167381"><ele>92.25</ele></trkpt>
   <trkpt lat="56.379953" lon="26.164382"><ele>86.25</ele></trkpt>
   <trkpt lat="56.387833" lon="26.15896"><ele>90.25</ele></trkpt>
   <trkpt lat="56.388737" lon="26.158261"><ele>89</ele></trkpt>
   <trkpt lat="56.389451" lon="26.157613"><ele>88</ele></trkpt>
   <trkpt lat="56.389981" lon="26.157092"><ele>88</ele></trkpt>
   <trkpt lat="56.390647" lon="26.156364"><ele>88.5</ele></trkpt>
   <trkpt lat="56.391036" lon="26.155898"><ele>88.25</ele></trkpt>
   <trkpt lat="56.391354" lon="26.155487"><ele>88</ele></trkpt>
   <trkpt lat="56.391981" lon="26.154635"><ele>87.5</ele></trkpt>
   <trkpt lat="56.3925" lon="26.153874"><ele>87</ele></trkpt>
   <trkpt lat="56.393175" lon="26.152762"><ele>87</ele></trkpt>
   <trkpt lat="56.394235" lon="26.150926"><ele>91</ele></trkpt>
   <trkpt lat="56.396102" lon="26.146615"><ele>90.5</ele></trkpt>
   <trkpt lat="56.396952" lon="26.144422"><ele>88.75</ele></trkpt>
   <trkpt lat="56.397633" lon="26.142913"><ele>88</ele></trkpt>
   <trkpt lat="56.398834" lon="26.140146"><ele>90.25</ele></trkpt>
   <trkpt lat="56.399892" lon="26.137628"><ele>87.5</ele></trkpt>
   <trkpt lat="56.400831" lon="26.135419"><ele>89.25</ele></trkpt>
   <trkpt lat="56.401427" lon="26.134053"><ele>91.75</ele></trkpt>
   <trkpt lat="56.403196" lon="26.129914"><ele>93.25</ele></trkpt>
   <trkpt lat="56.404643" lon="26.126474"><ele>89</ele></trkpt>
   <trkpt lat="56.405631" lon="26.124157"><ele>87.5</ele></trkpt>
   <trkpt lat="56.406483" lon="26.122089"><ele>89</ele></trkpt>
   <trkpt lat="56.407991" lon="26.1186"><ele>96.5</ele></trkpt>
   <trkpt lat="56.410209" lon="26.113318"><ele>87.5</ele></trkpt>
   <trkpt lat="56.412326" lon="26.108353"><ele>90.25</ele></trkpt>
   <trkpt lat="56.413352" lon="26.105721"><ele>91.25</ele></trkpt>
   <trkpt lat="56.414716" lon="26.102492"><ele>95.25</ele></trkpt>
   <trkpt lat="56.416383" lon="26.09856"><ele>93.25</ele></trkpt>
   <trkpt lat="56.417255" lon="26.09652"><ele>93</ele></trkpt>
   <trkpt lat="56.418107" lon="26.09447"><ele>92</ele></trkpt>
   <trkpt lat="56.418434" lon="26.093701"><ele>88.5</ele></trkpt>
   <trkpt lat="56.418927" lon="26.092657"><ele>87</ele></trkpt>
   <trkpt lat="56.419354" lon="26.091805"><ele>86.75</ele></trkpt>
   <trkpt lat="56.419859" lon="26.0909"><ele>86</ele></trkpt>
   <trkpt lat="56.420356" lon="26.090063"><ele>85</ele></trkpt>
   <trkpt lat="56.420807" lon="26.089361"><ele>87.75</ele></trkpt>
   <trkpt lat="56.421285" lon="26.088683"><ele>89</ele></trkpt>
   <trkpt lat="56.421699" lon="26.088115"><ele>87.75</ele></trkpt>
   <trkpt lat="56.422195" lon="26.0875"><ele>89.5</ele></trkpt>
   <trkpt lat="56.423008" lon="26.086545"><ele>89.25</ele></trkpt>
   <trkpt lat="56.423667" lon="26.085903"><ele>90.75</ele></trkpt>
   <trkpt lat="56.424217" lon="26.0854"><ele>93.5</ele></trkpt>
   <trkpt lat="56.424925" lon="26.084844"><ele>96</ele></trkpt>
   <trkpt lat="56.426036" lon="26.084055"><ele>96.5</ele></trkpt>
   <trkpt lat="56.427536" lon="26.083048"><ele>95</ele></trkpt>
   <trkpt lat="56.428811" lon="26.082203"><ele>95.25</ele></trkpt>
   <trkpt lat="56.430136" lon="26.081346"><ele>91.25</ele></trkpt>
   <trkpt lat="56.432054" lon="26.080065"><ele>87.25</ele></trkpt>
   <trkpt lat="56.432721" lon="26.079639"><ele>86.75</ele></trkpt>
   <trkpt lat="56.435558" lon="26.077759"><ele>86.25</ele></trkpt>
   <trkpt lat="56.436444" lon="26.077201"><ele>86.5</ele></trkpt>
   <trkpt lat="56.437114" lon="26.076722"><ele>88</ele></trkpt>
   <trkpt lat="56.440133" lon="26.074727"><ele>90.25</ele></trkpt>
   <trkpt lat="56.440785" lon="26.074289"><ele>90</ele></trkpt>
   <trkpt lat="56.441295" lon="26.07396"><ele>89</ele></trkpt>
   <trkpt lat="56.441718" lon="26.07368"><ele>89</ele></trkpt>
   <trkpt lat="56.442564" lon="26.073139"><ele>90.25</ele></trkpt>
   <trkpt lat="56.443663" lon="26.072394"><ele>88.5</ele></trkpt>
   <trkpt lat="56.447375" lon="26.069951"><ele>88</ele></trkpt>
   <trkpt lat="56.448404" lon="26.069175"><ele>90</ele></trkpt>
   <trkpt lat="56.449067" lon="26.06861"><ele>90.5</ele></trkpt>
   <trkpt lat="56.449579" lon="26.068122"><ele>90.25</ele></trkpt>
   <trkpt lat="56.45028" lon="26.067386"><ele>91</ele></trkpt>
   <trkpt lat="56.45203" lon="26.065391"><ele>91.5</ele></trkpt>
   <trkpt lat="56.453884" lon="26.06323"><ele>94.5</ele></trkpt>
   <trkpt lat="56.454748" lon="26.062272"><ele>97.75</ele></trkpt>
   <trkpt lat="56.457242" lon="26.05932"><ele>96.75</ele></trkpt>
   <trkpt lat="56.457856" lon="26.058549"><ele>93.5</ele></trkpt>
   <trkpt lat="56.458299" lon="26.057929"><ele>91.5</ele></trkpt>
   <trkpt lat="56.458785" lon="26.057289"><ele>91</ele></trkpt>
   <trkpt lat="56.459833" lon="26.056009"><ele>85.5</ele></trkpt>
   <trkpt lat="56.460233" lon="26.055543"><ele>85.5</ele></trkpt>
   <trkpt lat="56.461676" lon="26.053887"><ele>93.5</ele></trkpt>
   <trkpt lat="56.462276" lon="26.05315"><ele>96</ele></trkpt>
   <trkpt lat="56.462772" lon="26.052456"><ele>99</ele></trkpt>
   <trkpt lat="56.463237" lon="26.0517"><ele>100.75</ele></trkpt>
   <trkpt lat="56.463618" lon="26.051018"><ele>101.25</ele></trkpt>
   <trkpt lat="56.463963" lon="26.050297"><ele>100</ele></trkpt>
   <trkpt lat="56.464629" lon="26.048791"><ele>97.75</ele></trkpt>
   <trkpt lat="56.465036" lon="26.047714"><ele>99.5</ele></trkpt>
   <trkpt lat="56.465236" lon="26.047146"><ele>101</ele></trkpt>
   <trkpt lat="56.46548" lon="26.046366"><ele>101.5</ele></trkpt>
   <trkpt lat="56.465706" lon="26.04559"><ele>101</ele></trkpt>
   <trkpt lat="56.465958" lon="26.044664"><ele>100.25</ele></trkpt>
   <trkpt lat="56.466269" lon="26.043427"><ele>98.5</ele></trkpt>
   <trkpt lat="56.467637" lon="26.038246"><ele>93.75</ele></trkpt>
   <trkpt lat="56.468628" lon="26.034144"><ele>89</ele></trkpt>
   <trkpt lat="56.469671" lon="26.029699"><ele>96</ele></trkpt>
   <trkpt lat="56.472149" lon="26.020068"><ele>103.5</ele></trkpt>
   <trkpt lat="56.474201" lon="26.011409"><ele>106.5</ele></trkpt>
   <trkpt lat="56.476126" lon="26.003642"><ele>103.75</ele></trkpt>
   <trkpt lat="56.476798" lon="26.000934"><ele>105.75</ele></trkpt>
   <trkpt lat="56.480577" lon="25.985732"><ele>109.5</ele></trkpt>
   <trkpt lat="56.481208" lon="25.983122"><ele>107.25</ele></trkpt>
   <trkpt lat="56.481702" lon="25.98112"><ele>105.75</ele></trkpt>
   <trkpt lat="56.490293" lon="25.946288"><ele>105.75</ele></trkpt>
   <trkpt lat="56.502815" lon="25.895507"><ele>90.75</ele></trkpt>
   <trkpt lat="56.504025" lon="25.8906"><ele>93.5</ele></trkpt>
   <trkpt lat="56.504052" lon="25.890491"><ele>93.5</ele></trkpt>
   <trkpt lat="56.504146" lon="25.890108"><ele>93.75</ele></trkpt>
   <trkpt lat="56.504865" lon="25.887191"><ele>95.75</ele></trkpt>
   <trkpt lat="56.505045" lon="25.886499"><ele>96.25</ele></trkpt>
   <trkpt lat="56.505224" lon="25.88586"><ele>97.5</ele></trkpt>
   <trkpt lat="56.505425" lon="25.885194"><ele>98</ele></trkpt>
   <trkpt lat="56.505647" lon="25.884503"><ele>98</ele></trkpt>
   <trkpt lat="56.505891" lon="25.883793"><ele>98</ele></trkpt>
   <trkpt lat="56.506117" lon="25.883171"><ele>98</ele></trkpt>
   <trkpt lat="56.506277" lon="25.882751"><ele>98.25</ele></trkpt>
   <trkpt lat="56.506666" lon="25.881793"><ele>98</ele></trkpt>
   <trkpt lat="56.506946" lon="25.881149"><ele>98</ele></trkpt>
   <trkpt lat="56.507192" lon="25.88061"><ele>97.5</ele></trkpt>
   <trkpt lat="56.507505" lon="25.879964"><ele>97</ele></trkpt>
   <trkpt lat="56.507949" lon="25.879106"><ele>96.75</ele></trkpt>
   <trkpt lat="56.508123" lon="25.878786"><ele>96.5</ele></trkpt>
   <trkpt lat="56.508425" lon="25.878257"><ele>96</ele></trkpt>
   <trkpt lat="56.508739" lon="25.877734"><ele>96.5</ele></trkpt>
   <trkpt lat="56.509134" lon="25.877117"><ele>95.5</ele></trkpt>
   <trkpt lat="56.511866" lon="25.873055"><ele>90.75</ele></trkpt>
   <trkpt lat="56.516834" lon="25.865666"><ele>86</ele></trkpt>
   <trkpt lat="56.517064" lon="25.865329"><ele>86</ele></trkpt>
   <trkpt lat="56.518895" lon="25.862589"><ele>88.25</ele></trkpt>
   <trkpt lat="56.518974" lon="25.862472"><ele>88.5</ele></trkpt>
   <trkpt lat="56.519005" lon="25.862426"><ele>88.5</ele></trkpt>
   <trkpt lat="56.519286" lon="25.862013"><ele>89</ele></trkpt>
   <trkpt lat="56.519378" lon="25.861877"><ele>89</ele></trkpt>
   <trkpt lat="56.519596" lon="25.861517"><ele>89</ele></trkpt>
   <trkpt lat="56.519967" lon="25.86085"><ele>89</ele></trkpt>
   <trkpt lat="56.520309" lon="25.86029"><ele>89</ele></trkpt>
   <trkpt lat="56.520696" lon="25.859699"><ele>89.25</ele></trkpt>
   <trkpt lat="56.521368" lon="25.858697"><ele>90</ele></trkpt>
   <trkpt lat="56.522354" lon="25.857239"><ele>90</ele></trkpt>
   <trkpt lat="56.524077" lon="25.854781"><ele>89</ele></trkpt>
   <trkpt lat="56.525914" lon="25.852045"><ele>89</ele></trkpt>
   <trkpt lat="56.525949" lon="25.851993"><ele>89.25</ele></trkpt>
   <trkpt lat="56.526542" lon="25.851113"><ele>90</ele></trkpt>
   <trkpt lat="56.52843" lon="25.848302"><ele>89</ele></trkpt>
   <trkpt lat="56.52854" lon="25.848138"><ele>89.25</ele></trkpt>
   <trkpt lat="56.528869" lon="25.847651"><ele>90</ele></trkpt>
   <trkpt lat="56.543351" lon="25.82612"><ele>93.5</ele></trkpt>
   <trkpt lat="56.543698" lon="25.825619"><ele>93.5</ele></trkpt>
   <trkpt lat="56.544052" lon="25.82514"><ele>93.75</ele></trkpt>
   <trkpt lat="56.544375" lon="25.824721"><ele>93.25</ele></trkpt>
   <trkpt lat="56.544704" lon="25.824317"><ele>93.25</ele></trkpt>
   <trkpt lat="56.545038" lon="25.823927"><ele>93.75</ele></trkpt>
   <trkpt lat="56.545378" lon="25.823552"><ele>92.75</ele></trkpt>
   <trkpt lat="56.545722" lon="25.823193"><ele>92.25</ele></trkpt>
   <trkpt lat="56.546071" lon="25.822849"><ele>91.5</ele></trkpt>
   <trkpt lat="56.546502" lon="25.822451"><ele>90.5</ele></trkpt>
   <trkpt lat="56.547392" lon="25.821662"><ele>87.5</ele></trkpt>
   <trkpt lat="56.58346" lon="25.789682"><ele>81.25</ele></trkpt>
   <trkpt lat="56.584108" lon="25.78911"><ele>83.75</ele></trkpt>
   <trkpt lat="56.584576" lon="25.788716"><ele>87</ele></trkpt>
   <trkpt lat="56.585048" lon="25.78834"><ele>90</ele></trkpt>
   <trkpt lat="56.585524" lon="25.787979"><ele>91.25</ele></trkpt>
   <trkpt lat="56.586003" lon="25.787635"><ele>92.25</ele></trkpt>
   <trkpt lat="56.586486" lon="25.787308"><ele>91.5</ele></trkpt>
   <trkpt lat="56.586973" lon="25.786997"><ele>90.5</ele></trkpt>
   <trkpt lat="56.587462" lon="25.786704"><ele>89</ele></trkpt>
   <trkpt lat="56.587955" lon="25.786427"><ele>86.5</ele></trkpt>
   <trkpt lat="56.58845" lon="25.786168"><ele>84</ele></trkpt>
   <trkpt lat="56.588948" lon="25.785925"><ele>84</ele></trkpt>
   <trkpt lat="56.589449" lon="25.7857"><ele>83.75</ele></trkpt>
   <trkpt lat="56.589952" lon="25.785492"><ele>83.75</ele></trkpt>
   <trkpt lat="56.590456" lon="25.785302"><ele>83.75</ele></trkpt>
   <trkpt lat="56.590963" lon="25.785129"><ele>83.75</ele></trkpt>
   <trkpt lat="56.591472" lon="25.784974"><ele>83.5</ele></trkpt>
   <trkpt lat="56.591981" lon="25.784836"><ele>82.25</ele></trkpt>
   <trkpt lat="56.592493" lon="25.784716"><ele>80.75</ele></trkpt>
   <trkpt lat="56.593005" lon="25.784614"><ele>79</ele></trkpt>
   <trkpt lat="56.593519" lon="25.784529"><ele>77.75</ele></trkpt>
   <trkpt lat="56.594145" lon="25.784445"><ele>77.25</ele></trkpt>
   <trkpt lat="56.5946" lon="25.784403"><ele>77.25</ele></trkpt>
   <trkpt lat="56.595561" lon="25.784358"><ele>77.25</ele></trkpt>
   <trkpt lat="56.596081" lon="25.784358"><ele>77.75</ele></trkpt>
   <trkpt lat="56.5966" lon="25.784375"><ele>78.5</ele></trkpt>
   <trkpt lat="56.59712" lon="25.78441"><ele>79.25</ele></trkpt>
   <trkpt lat="56.597639" lon="25.784464"><ele>79.5</ele></trkpt>
   <trkpt lat="56.598157" lon="25.784535"><ele>79.25</ele></trkpt>
   <trkpt lat="56.598675" lon="25.784623"><ele>79</ele></trkpt>
   <trkpt lat="56.599191" lon="25.78473"><ele>78.25</ele></trkpt>
   <trkpt lat="56.599824" lon="25.784884"><ele>77.25</ele></trkpt>
   <trkpt lat="56.602868" lon="25.78571"><ele>75</ele></trkpt>
   <trkpt lat="56.606764" lon="25.786877"><ele>73.5</ele></trkpt>
   <trkpt lat="56.60781" lon="25.787192"><ele>72.5</ele></trkpt>
   <trkpt lat="56.610268" lon="25.788069"><ele>75</ele></trkpt>
   <trkpt lat="56.611275" lon="25.788452"><ele>76.5</ele></trkpt>
   <trkpt lat="56.612677" lon="25.788893"><ele>77</ele></trkpt>
   <trkpt lat="56.613833" lon="25.789062"><ele>76.75</ele></trkpt>
   <trkpt lat="56.61453" lon="25.789067"><ele>77.25</ele></trkpt>
   <trkpt lat="56.615012" lon="25.789031"><ele>78</ele></trkpt>
   <trkpt lat="56.615584" lon="25.788911"><ele>79.25</ele></trkpt>
   <trkpt lat="56.616198" lon="25.788733"><ele>80</ele></trkpt>
   <trkpt lat="56.616735" lon="25.788553"><ele>80</ele></trkpt>
   <trkpt lat="56.617401" lon="25.788218"><ele>82.25</ele></trkpt>
   <trkpt lat="56.617897" lon="25.787884"><ele>83.5</ele></trkpt>
   <trkpt lat="56.618571" lon="25.787393"><ele>84.5</ele></trkpt>
   <trkpt lat="56.619289" lon="25.786793"><ele>83.75</ele></trkpt>
   <trkpt lat="56.619889" lon="25.786198"><ele>82.25</ele></trkpt>
   <trkpt lat="56.620315" lon="25.785715"><ele>82.25</ele></trkpt>
   <trkpt lat="56.620712" lon="25.785207"><ele>81.5</ele></trkpt>
   <trkpt lat="56.62134" lon="25.784311"><ele>82</ele></trkpt>
   <trkpt lat="56.621773" lon="25.783603"><ele>81.5</ele></trkpt>
   <trkpt lat="56.62209" lon="25.783036"><ele>80.5</ele></trkpt>
   <trkpt lat="56.622472" lon="25.782265"><ele>80</ele></trkpt>
   <trkpt lat="56.622794" lon="25.781567"><ele>79.5</ele></trkpt>
   <trkpt lat="56.623035" lon="25.780988"><ele>79.5</ele></trkpt>
   <trkpt lat="56.623452" lon="25.779871"><ele>80</ele></trkpt>
   <trkpt lat="56.623825" lon="25.778728"><ele>81</ele></trkpt>
   <trkpt lat="56.624065" lon="25.77786"><ele>81.25</ele></trkpt>
   <trkpt lat="56.624293" lon="25.776944"><ele>82.5</ele></trkpt>
   <trkpt lat="56.624427" lon="25.776313"><ele>83</ele></trkpt>
   <trkpt lat="56.624612" lon="25.775368"><ele>83</ele></trkpt>
   <trkpt lat="56.62476" lon="25.774491"><ele>82.25</ele></trkpt>
   <trkpt lat="56.624896" lon="25.773473"><ele>82</ele></trkpt>
   <trkpt lat="56.624953" lon="25.772891"><ele>82.5</ele></trkpt>
   <trkpt lat="56.625029" lon="25.772113"><ele>83.5</ele></trkpt>
   <trkpt lat="56.625103" lon="25.771047"><ele>84.25</ele></trkpt>
   <trkpt lat="56.625134" lon="25.770228"><ele>84.25</ele></trkpt>
   <trkpt lat="56.625145" lon="25.768849"><ele>83.25</ele></trkpt>
   <trkpt lat="56.625097" lon="25.767543"><ele>83.25</ele></trkpt>
   <trkpt lat="56.625027" lon="25.766578"><ele>83</ele></trkpt>
   <trkpt lat="56.624941" lon="25.765517"><ele>84.25</ele></trkpt>
   <trkpt lat="56.624842" lon="25.764697"><ele>84.75</ele></trkpt>
   <trkpt lat="56.62459" lon="25.762923"><ele>85.5</ele></trkpt>
   <trkpt lat="56.624107" lon="25.759916"><ele>84.5</ele></trkpt>
   <trkpt lat="56.623437" lon="25.755944"><ele>79.25</ele></trkpt>
   <trkpt lat="56.622802" lon="25.752015"><ele>77.5</ele></trkpt>
   <trkpt lat="56.620408" lon="25.737233"><ele>75</ele></trkpt>
   <trkpt lat="56.62001" lon="25.734721"><ele>74.5</ele></trkpt>
   <trkpt lat="56.619897" lon="25.734056"><ele>74</ele></trkpt>
   <trkpt lat="56.619019" lon="25.728575"><ele>75</ele></trkpt>
   <trkpt lat="56.61858" lon="25.725929"><ele>74.25</ele></trkpt>
   <trkpt lat="56.618545" lon="25.725701"><ele>74.25</ele></trkpt>
   <trkpt lat="56.618419" lon="25.724719"><ele>74</ele></trkpt>
   <trkpt lat="56.618383" lon="25.724382"><ele>74</ele></trkpt>
   <trkpt lat="56.618339" lon="25.72412"><ele>74</ele></trkpt>
   <trkpt lat="56.617607" lon="25.719612"><ele>76.25</ele></trkpt>
   <trkpt lat="56.617593" lon="25.719532"><ele>76.5</ele></trkpt>
   <trkpt lat="56.617509" lon="25.719061"><ele>77</ele></trkpt>
   <trkpt lat="56.617171" lon="25.716993"><ele>77</ele></trkpt>
   <trkpt lat="56.616872" lon="25.715125"><ele>75.75</ele></trkpt>
   <trkpt lat="56.616795" lon="25.714649"><ele>75.5</ele></trkpt>
   <trkpt lat="56.616727" lon="25.714292"><ele>75.25</ele></trkpt>
   <trkpt lat="56.616599" lon="25.713697"><ele>75</ele></trkpt>
   <trkpt lat="56.616538" lon="25.713366"><ele>75</ele></trkpt>
   <trkpt lat="56.616496" lon="25.713112"><ele>75</ele></trkpt>
   <trkpt lat="56.616395" lon="25.712493"><ele>75.5</ele></trkpt>
   <trkpt lat="56.616247" lon="25.71158"><ele>76</ele></trkpt>
   <trkpt lat="56.61617" lon="25.711168"><ele>76</ele></trkpt>
   <trkpt lat="56.616019" lon="25.710463"><ele>75.5</ele></trkpt>
   <trkpt lat="56.615976" lon="25.710218"><ele>75.5</ele></trkpt>
   <trkpt lat="56.61432" lon="25.700002"><ele>77.5</ele></trkpt>
   <trkpt lat="56.61415" lon="25.699066"><ele>77.75</ele></trkpt>
   <trkpt lat="56.61405" lon="25.698574"><ele>77.25</ele></trkpt>
   <trkpt lat="56.613699" lon="25.697037"><ele>77.5</ele></trkpt>
   <trkpt lat="56.613602" lon="25.696441"><ele>77.5</ele></trkpt>
   <trkpt lat="56.613516" lon="25.696032"><ele>77.25</ele></trkpt>
   <trkpt lat="56.613463" lon="25.695797"><ele>77</ele></trkpt>
   <trkpt lat="56.613389" lon="25.695453"><ele>76.75</ele></trkpt>
   <trkpt lat="56.613294" lon="25.694882"><ele>77</ele></trkpt>
   <trkpt lat="56.613217" lon="25.694516"><ele>77</ele></trkpt>
   <trkpt lat="56.613161" lon="25.694281"><ele>77.25</ele></trkpt>
   <trkpt lat="56.612918" lon="25.693235"><ele>77</ele></trkpt>
   <trkpt lat="56.612255" lon="25.690215"><ele>76.5</ele></trkpt>
   <trkpt lat="56.611538" lon="25.68713"><ele>78</ele></trkpt>
   <trkpt lat="56.610437" lon="25.68241"><ele>79.25</ele></trkpt>
   <trkpt lat="56.610185" lon="25.68126"><ele>79.5</ele></trkpt>
   <trkpt lat="56.610048" lon="25.680576"><ele>79.25</ele></trkpt>
   <trkpt lat="56.609954" lon="25.680051"><ele>78.5</ele></trkpt>
   <trkpt lat="56.609773" lon="25.678836"><ele>78.25</ele></trkpt>
   <trkpt lat="56.609525" lon="25.676684"><ele>79.25</ele></trkpt>
   <trkpt lat="56.60946" lon="25.675279"><ele>81.75</ele></trkpt>
   <trkpt lat="56.609451" lon="25.674378"><ele>84</ele></trkpt>
   <trkpt lat="56.609487" lon="25.673227"><ele>86.5</ele></trkpt>
   <trkpt lat="56.60961" lon="25.671099"><ele>89</ele></trkpt>
   <trkpt lat="56.609763" lon="25.669814"><ele>90.5</ele></trkpt>
   <trkpt lat="56.609972" lon="25.668426"><ele>92.75</ele></trkpt>
   <trkpt lat="56.610185" lon="25.667258"><ele>91.75</ele></trkpt>
   <trkpt lat="56.61033" lon="25.666588"><ele>91.75</ele></trkpt>
   <trkpt lat="56.610604" lon="25.665474"><ele>92.75</ele></trkpt>
   <trkpt lat="56.610861" lon="25.664577"><ele>93.5</ele></trkpt>
   <trkpt lat="56.611282" lon="25.663338"><ele>95.75</ele></trkpt>
   <trkpt lat="56.611696" lon="25.662271"><ele>95.5</ele></trkpt>
   <trkpt lat="56.613457" lon="25.658155"><ele>84.75</ele></trkpt>
   <trkpt lat="56.614822" lon="25.654978"><ele>86.5</ele></trkpt>
   <trkpt lat="56.623498" lon="25.634801"><ele>99.25</ele></trkpt>
   <trkpt lat="56.624158" lon="25.633243"><ele>99</ele></trkpt>
   <trkpt lat="56.624715" lon="25.631958"><ele>100.25</ele></trkpt>
   <trkpt lat="56.625348" lon="25.630446"><ele>99.5</ele></trkpt>
   <trkpt lat="56.62817" lon="25.623888"><ele>91.25</ele></trkpt>
   <trkpt lat="56.628566" lon="25.622959"><ele>91</ele></trkpt>
   <trkpt lat="56.629114" lon="25.621643"><ele>92</ele></trkpt>
   <trkpt lat="56.629579" lon="25.620388"><ele>92.75</ele></trkpt>
   <trkpt lat="56.629871" lon="25.6195"><ele>92.75</ele></trkpt>
   <trkpt lat="56.630259" lon="25.618199"><ele>93.5</ele></trkpt>
   <trkpt lat="56.630575" lon="25.617046"><ele>95.25</ele></trkpt>
   <trkpt lat="56.630889" lon="25.615735"><ele>95.75</ele></trkpt>
   <trkpt lat="56.631171" lon="25.614355"><ele>96</ele></trkpt>
   <trkpt lat="56.631438" lon="25.612884"><ele>96.25</ele></trkpt>
   <trkpt lat="56.63164" lon="25.611504"><ele>97</ele></trkpt>
   <trkpt lat="56.631861" lon="25.609638"><ele>97.5</ele></trkpt>
   <trkpt lat="56.63198" lon="25.608054"><ele>95.75</ele></trkpt>
   <trkpt lat="56.632067" lon="25.606456"><ele>95.5</ele></trkpt>
   <trkpt lat="56.632278" lon="25.60225"><ele>102.75</ele></trkpt>
   <trkpt lat="56.632468" lon="25.598918"><ele>108</ele></trkpt>
   <trkpt lat="56.632811" lon="25.591976"><ele>106</ele></trkpt>
   <trkpt lat="56.632944" lon="25.589161"><ele>104.25</ele></trkpt>
   <trkpt lat="56.633024" lon="25.58787"><ele>103.25</ele></trkpt>
   <trkpt lat="56.633119" lon="25.585915"><ele>99.25</ele></trkpt>
   <trkpt lat="56.633164" lon="25.585045"><ele>99</ele></trkpt>
   <trkpt lat="56.633198" lon="25.584406"><ele>99</ele></trkpt>
   <trkpt lat="56.633411" lon="25.581962"><ele>98</ele></trkpt>
   <trkpt lat="56.63357" lon="25.580401"><ele>100.5</ele></trkpt>
   <trkpt lat="56.633844" lon="25.577963"><ele>101.5</ele></trkpt>
   <trkpt lat="56.63392" lon="25.577197"><ele>101.5</ele></trkpt>
   <trkpt lat="56.634207" lon="25.574509"><ele>99</ele></trkpt>
   <trkpt lat="56.634395" lon="25.572683"><ele>97.5</ele></trkpt>
   <trkpt lat="56.635147" lon="25.565658"><ele>96.5</ele></trkpt>
   <trkpt lat="56.635394" lon="25.563443"><ele>96.5</ele></trkpt>
   <trkpt lat="56.635479" lon="25.562552"><ele>95.75</ele></trkpt>
   <trkpt lat="56.636085" lon="25.556933"><ele>96.75</ele></trkpt>
   <trkpt lat="56.637309" lon="25.545287"><ele>98.25</ele></trkpt>
   <trkpt lat="56.637965" lon="25.539243"><ele>100.75</ele></trkpt>
   <trkpt lat="56.638439" lon="25.534731"><ele>99.5</ele></trkpt>
   <trkpt lat="56.639136" lon="25.528287"><ele>104</ele></trkpt>
   <trkpt lat="56.639987" lon="25.520166"><ele>101</ele></trkpt>
   <trkpt lat="56.640905" lon="25.511595"><ele>102.25</ele></trkpt>
   <trkpt lat="56.642149" lon="25.499852"><ele>101.5</ele></trkpt>
   <trkpt lat="56.643179" lon="25.489991"><ele>100</ele></trkpt>
   <trkpt lat="56.644199" lon="25.480333"><ele>98</ele></trkpt>
   <trkpt lat="56.645108" lon="25.471443"><ele>90.25</ele></trkpt>
   <trkpt lat="56.645297" lon="25.469818"><ele>89.75</ele></trkpt>
   <trkpt lat="56.64553" lon="25.468413"><ele>92.75</ele></trkpt>
   <trkpt lat="56.647875" lon="25.455879"><ele>95.75</ele></trkpt>
   <trkpt lat="56.649164" lon="25.449159"><ele>87.75</ele></trkpt>
   <trkpt lat="56.649524" lon="25.447189"><ele>86.5</ele></trkpt>
   <trkpt lat="56.649918" lon="25.445082"><ele>86</ele></trkpt>
   <trkpt lat="56.649948" lon="25.444936"><ele>86</ele></trkpt>
   <trkpt lat="56.650064" lon="25.444295"><ele>85.75</ele></trkpt>
   <trkpt lat="56.650391" lon="25.44294"><ele>86</ele></trkpt>
   <trkpt lat="56.650469" lon="25.442533"><ele>86.25</ele></trkpt>
   <trkpt lat="56.650484" lon="25.442454"><ele>86.25</ele></trkpt>
   <trkpt lat="56.650602" lon="25.441807"><ele>86.25</ele></trkpt>
   <trkpt lat="56.65107" lon="25.439342"><ele>86.25</ele></trkpt>
   <trkpt lat="56.651095" lon="25.439214"><ele>86.25</ele></trkpt>
   <trkpt lat="56.65136" lon="25.437808"><ele>86.25</ele></trkpt>
   <trkpt lat="56.652445" lon="25.432036"><ele>82.75</ele></trkpt>
   <trkpt lat="56.652682" lon="25.430798"><ele>82.75</ele></trkpt>
   <trkpt lat="56.65295" lon="25.429345"><ele>83.25</ele></trkpt>
   <trkpt lat="56.653001" lon="25.429032"><ele>83.5</ele></trkpt>
   <trkpt lat="56.653026" lon="25.42883"><ele>83.75</ele></trkpt>
   <trkpt lat="56.653137" lon="25.427985"><ele>84</ele></trkpt>
   <trkpt lat="56.653645" lon="25.425321"><ele>84</ele></trkpt>
   <trkpt lat="56.653975" lon="25.423365"><ele>84.5</ele></trkpt>
   <trkpt lat="56.65409" lon="25.422587"><ele>83.75</ele></trkpt>
   <trkpt lat="56.65419" lon="25.421782"><ele>83.75</ele></trkpt>
   <trkpt lat="56.65428" lon="25.420913"><ele>83</ele></trkpt>
   <trkpt lat="56.654362" lon="25.420023"><ele>83</ele></trkpt>
   <trkpt lat="56.654422" lon="25.419021"><ele>83</ele></trkpt>
   <trkpt lat="56.654468" lon="25.418126"><ele>83</ele></trkpt>
   <trkpt lat="56.654492" lon="25.416293"><ele>84</ele></trkpt>
   <trkpt lat="56.654446" lon="25.412461"><ele>81.5</ele></trkpt>
   <trkpt lat="56.65434" lon="25.405853"><ele>83.5</ele></trkpt>
   <trkpt lat="56.654258" lon="25.401927"><ele>83.75</ele></trkpt>
   <trkpt lat="56.654248" lon="25.401341"><ele>83.5</ele></trkpt>
   <trkpt lat="56.654156" lon="25.395482"><ele>77</ele></trkpt>
   <trkpt lat="56.654141" lon="25.394671"><ele>76.75</ele></trkpt>
   <trkpt lat="56.654109" lon="25.391212"><ele>83.5</ele></trkpt>
   <trkpt lat="56.654045" lon="25.38814"><ele>86</ele></trkpt>
   <trkpt lat="56.653951" lon="25.38678"><ele>87</ele></trkpt>
   <trkpt lat="56.653841" lon="25.38562"><ele>88.25</ele></trkpt>
   <trkpt lat="56.653645" lon="25.384292"><ele>90.5</ele></trkpt>
   <trkpt lat="56.653351" lon="25.382652"><ele>92.75</ele></trkpt>
   <trkpt lat="56.65288" lon="25.380756"><ele>94.25</ele></trkpt>
   <trkpt lat="56.652596" lon="25.37978"><ele>92.5</ele></trkpt>
   <trkpt lat="56.652297" lon="25.378888"><ele>92</ele></trkpt>
   <trkpt lat="56.651893" lon="25.377832"><ele>91.5</ele></trkpt>
   <trkpt lat="56.651314" lon="25.376568"><ele>92.5</ele></trkpt>
   <trkpt lat="56.650729" lon="25.375436"><ele>90</ele></trkpt>
   <trkpt lat="56.650208" lon="25.374572"><ele>91.5</ele></trkpt>
   <trkpt lat="56.649606" lon="25.373692"><ele>91.25</ele></trkpt>
   <trkpt lat="56.648772" lon="25.37268"><ele>91.5</ele></trkpt>
   <trkpt lat="56.647989" lon="25.371904"><ele>92</ele></trkpt>
   <trkpt lat="56.647468" lon="25.371448"><ele>91.25</ele></trkpt>
   <trkpt lat="56.646657" lon="25.370852"><ele>91.75</ele></trkpt>
   <trkpt lat="56.64477" lon="25.369368"><ele>92.25</ele></trkpt>
   <trkpt lat="56.643606" lon="25.368472"><ele>95.25</ele></trkpt>
   <trkpt lat="56.642711" lon="25.367692"><ele>95.5</ele></trkpt>
   <trkpt lat="56.641748" lon="25.366692"><ele>93.75</ele></trkpt>
   <trkpt lat="56.641134" lon="25.365944"><ele>93.25</ele></trkpt>
   <trkpt lat="56.640195" lon="25.364672"><ele>89.75</ele></trkpt>
   <trkpt lat="56.639332" lon="25.363368"><ele>90.75</ele></trkpt>
   <trkpt lat="56.638448" lon="25.36192"><ele>96.25</ele></trkpt>
   <trkpt lat="56.637938" lon="25.360948"><ele>98</ele></trkpt>
   <trkpt lat="56.636952" lon="25.358636"><ele>95</ele></trkpt>
   <trkpt lat="56.636499" lon="25.357468"><ele>93.75</ele></trkpt>
   <trkpt lat="56.635907" lon="25.355728"><ele>92.5</ele></trkpt>
   <trkpt lat="56.635278" lon="25.353924"><ele>90</ele></trkpt>
   <trkpt lat="56.63451" lon="25.351672"><ele>89</ele></trkpt>
   <trkpt lat="56.63338" lon="25.348496"><ele>92</ele></trkpt>
   <trkpt lat="56.63272" lon="25.34662"><ele>93.75</ele></trkpt>
   <trkpt lat="56.630975" lon="25.341599"><ele>91.75</ele></trkpt>
   <trkpt lat="56.630088" lon="25.339107"><ele>92.25</ele></trkpt>
   <trkpt lat="56.62936" lon="25.337023"><ele>91.25</ele></trkpt>
   <trkpt lat="56.62708" lon="25.330451"><ele>90.25</ele></trkpt>
   <trkpt lat="56.626306" lon="25.328319"><ele>93.5</ele></trkpt>
   <trkpt lat="56.625549" lon="25.326155"><ele>93.25</ele></trkpt>
   <trkpt lat="56.624882" lon="25.324203"><ele>92</ele></trkpt>
   <trkpt lat="56.624006" lon="25.321711"><ele>91.25</ele></trkpt>
   <trkpt lat="56.623221" lon="25.319435"><ele>90</ele></trkpt>
   <trkpt lat="56.622528" lon="25.317471"><ele>91</ele></trkpt>
   <trkpt lat="56.621821" lon="25.315355"><ele>91.75</ele></trkpt>
   <trkpt lat="56.621751" lon="25.315129"><ele>92</ele></trkpt>
   <trkpt lat="56.621619" lon="25.314699"><ele>91.75</ele></trkpt>
   <trkpt lat="56.621341" lon="25.313679"><ele>91</ele></trkpt>
   <trkpt lat="56.620987" lon="25.312199"><ele>89</ele></trkpt>
   <trkpt lat="56.62067" lon="25.310691"><ele>89.5</ele></trkpt>
   <trkpt lat="56.620452" lon="25.309511"><ele>91.25</ele></trkpt>
   <trkpt lat="56.620217" lon="25.307971"><ele>92.75</ele></trkpt>
   <trkpt lat="56.620023" lon="25.306287"><ele>92.5</ele></trkpt>
   <trkpt lat="56.619931" lon="25.305239"><ele>92</ele></trkpt>
   <trkpt lat="56.619834" lon="25.304035"><ele>93.75</ele></trkpt>
   <trkpt lat="56.619777" lon="25.302827"><ele>94</ele></trkpt>
   <trkpt lat="56.619757" lon="25.301547"><ele>93.5</ele></trkpt>
   <trkpt lat="56.619752" lon="25.300679"><ele>93.5</ele></trkpt>
   <trkpt lat="56.619768" lon="25.299487"><ele>94.5</ele></trkpt>
   <trkpt lat="56.619856" lon="25.297511"><ele>95.5</ele></trkpt>
   <trkpt lat="56.620084" lon="25.294758"><ele>95</ele></trkpt>
   <trkpt lat="56.62027" lon="25.293293"><ele>95</ele></trkpt>
   <trkpt lat="56.621159" lon="25.286662"><ele>92.75</ele></trkpt>
   <trkpt lat="56.621201" lon="25.286303"><ele>92.75</ele></trkpt>
   <trkpt lat="56.621245" lon="25.285701"><ele>93</ele></trkpt>
   <trkpt lat="56.621289" lon="25.285311"><ele>92.75</ele></trkpt>
   <trkpt lat="56.621322" lon="25.285062"><ele>92.5</ele></trkpt>
   <trkpt lat="56.621382" lon="25.284689"><ele>92.5</ele></trkpt>
   <trkpt lat="56.62148" lon="25.284173"><ele>92.75</ele></trkpt>
   <trkpt lat="56.621545" lon="25.28376"><ele>92.5</ele></trkpt>
   <trkpt lat="56.621579" lon="25.283511"><ele>92.25</ele></trkpt>
   <trkpt lat="56.621638" lon="25.283129"><ele>92.25</ele></trkpt>
   <trkpt lat="56.621776" lon="25.282399"><ele>92.75</ele></trkpt>
   <trkpt lat="56.621848" lon="25.281947"><ele>92.75</ele></trkpt>
   <trkpt lat="56.622539" lon="25.276796"><ele>93.75</ele></trkpt>
   <trkpt lat="56.622584" lon="25.27646"><ele>93.75</ele></trkpt>
   <trkpt lat="56.623147" lon="25.272229"><ele>90.5</ele></trkpt>
   <trkpt lat="56.623326" lon="25.270812"><ele>89.75</ele></trkpt>
   <trkpt lat="56.623529" lon="25.269282"><ele>90.25</ele></trkpt>
   <trkpt lat="56.623575" lon="25.268814"><ele>90.5</ele></trkpt>
   <trkpt lat="56.623623" lon="25.268197"><ele>90.75</ele></trkpt>
   <trkpt lat="56.623667" lon="25.267796"><ele>91</ele></trkpt>
   <trkpt lat="56.6237" lon="25.267549"><ele>91.25</ele></trkpt>
   <trkpt lat="56.624162" lon="25.264061"><ele>93.75</ele></trkpt>
   <trkpt lat="56.624189" lon="25.26386"><ele>93.75</ele></trkpt>
   <trkpt lat="56.625399" lon="25.254943"><ele>87.75</ele></trkpt>
   <trkpt lat="56.628004" lon="25.234609"><ele>88.25</ele></trkpt>
   <trkpt lat="56.628675" lon="25.228415"><ele>84.75</ele></trkpt>
   <trkpt lat="56.630047" lon="25.216292"><ele>82.5</ele></trkpt>
   <trkpt lat="56.631111" lon="25.206592"><ele>82.75</ele></trkpt>
   <trkpt lat="56.631198" lon="25.205795"><ele>82.5</ele></trkpt>
   <trkpt lat="56.631251" lon="25.205313"><ele>82</ele></trkpt>
   <trkpt lat="56.631259" lon="25.205246"><ele>82</ele></trkpt>
   <trkpt lat="56.635409" lon="25.167954"><ele>78</ele></trkpt>
   <trkpt lat="56.636229" lon="25.16055"><ele>75.75</ele></trkpt>
   <trkpt lat="56.636255" lon="25.160307"><ele>75.5</ele></trkpt>
   <trkpt lat="56.636552" lon="25.157831"><ele>75</ele></trkpt>
   <trkpt lat="56.636736" lon="25.156479"><ele>75</ele></trkpt>
   <trkpt lat="56.637111" lon="25.154496"><ele>75.75</ele></trkpt>
   <trkpt lat="56.637505" lon="25.152731"><ele>77.5</ele></trkpt>
   <trkpt lat="56.638129" lon="25.150491"><ele>80.75</ele></trkpt>
   <trkpt lat="56.639916" lon="25.145092"><ele>76.75</ele></trkpt>
   <trkpt lat="56.642122" lon="25.138587"><ele>79.5</ele></trkpt>
   <trkpt lat="56.642365" lon="25.137639"><ele>79.5</ele></trkpt>
   <trkpt lat="56.642616" lon="25.13689"><ele>79</ele></trkpt>
   <trkpt lat="56.642961" lon="25.136048"><ele>78.75</ele></trkpt>
   <trkpt lat="56.643052" lon="25.135782"><ele>78.5</ele></trkpt>
   <trkpt lat="56.64357" lon="25.134231"><ele>77.5</ele></trkpt>
   <trkpt lat="56.643832" lon="25.13359"><ele>77.25</ele></trkpt>
   <trkpt lat="56.64722" lon="25.123524"><ele>76.75</ele></trkpt>
   <trkpt lat="56.648247" lon="25.120473"><ele>76</ele></trkpt>
   <trkpt lat="56.648415" lon="25.119843"><ele>75.25</ele></trkpt>
   <trkpt lat="56.648439" lon="25.119749"><ele>74.75</ele></trkpt>
   <trkpt lat="56.648609" lon="25.119148"><ele>72.75</ele></trkpt>
   <trkpt lat="56.648915" lon="25.118227"><ele>72.25</ele></trkpt>
   <trkpt lat="56.648987" lon="25.118004"><ele>72.5</ele></trkpt>
   <trkpt lat="56.649347" lon="25.116909"><ele>72.75</ele></trkpt>
   <trkpt lat="56.650202" lon="25.114381"><ele>72</ele></trkpt>
   <trkpt lat="56.651177" lon="25.111451"><ele>72.25</ele></trkpt>
   <trkpt lat="56.651419" lon="25.110632"><ele>72.25</ele></trkpt>
   <trkpt lat="56.651631" lon="25.109887"><ele>73</ele></trkpt>
   <trkpt lat="56.651942" lon="25.108692"><ele>73</ele></trkpt>
   <trkpt lat="56.652157" lon="25.107752"><ele>73.75</ele></trkpt>
   <trkpt lat="56.652333" lon="25.106926"><ele>74.75</ele></trkpt>
   <trkpt lat="56.652472" lon="25.106201"><ele>76</ele></trkpt>
   <trkpt lat="56.652641" lon="25.105253"><ele>77</ele></trkpt>
   <trkpt lat="56.652871" lon="25.103733"><ele>78.5</ele></trkpt>
   <trkpt lat="56.652985" lon="25.102841"><ele>78.75</ele></trkpt>
   <trkpt lat="56.653074" lon="25.101997"><ele>78.5</ele></trkpt>
   <trkpt lat="56.653231" lon="25.100266"><ele>77</ele></trkpt>
   <trkpt lat="56.653724" lon="25.094529"><ele>73</ele></trkpt>
   <trkpt lat="56.65391" lon="25.09239"><ele>68.75</ele></trkpt>
   <trkpt lat="56.654055" lon="25.090681"><ele>71</ele></trkpt>
   <trkpt lat="56.654987" lon="25.079759"><ele>72.75</ele></trkpt>
   <trkpt lat="56.657577" lon="25.049613"><ele>82.5</ele></trkpt>
   <trkpt lat="56.65768" lon="25.048542"><ele>85.5</ele></trkpt>
   <trkpt lat="56.657778" lon="25.04769"><ele>86.75</ele></trkpt>
   <trkpt lat="56.657892" lon="25.046826"><ele>87</ele></trkpt>
   <trkpt lat="56.65802" lon="25.045952"><ele>86.25</ele></trkpt>
   <trkpt lat="56.658187" lon="25.04497"><ele>84.75</ele></trkpt>
   <trkpt lat="56.658359" lon="25.04405"><ele>83</ele></trkpt>
   <trkpt lat="56.658515" lon="25.043303"><ele>82.75</ele></trkpt>
   <trkpt lat="56.658728" lon="25.042359"><ele>80.5</ele></trkpt>
   <trkpt lat="56.658977" lon="25.041344"><ele>79</ele></trkpt>
   <trkpt lat="56.659179" lon="25.0406"><ele>80</ele></trkpt>
   <trkpt lat="56.659495" lon="25.039497"><ele>81.25</ele></trkpt>
   <trkpt lat="56.663821" lon="25.024807"><ele>82.5</ele></trkpt>
   <trkpt lat="56.669798" lon="25.004168"><ele>73.5</ele></trkpt>
   <trkpt lat="56.671814" lon="24.99713"><ele>67</ele></trkpt>
   <trkpt lat="56.676117" lon="24.982291"><ele>66.5</ele></trkpt>
   <trkpt lat="56.676548" lon="24.980814"><ele>66.75</ele></trkpt>
   <trkpt lat="56.677327" lon="24.978229"><ele>66</ele></trkpt>
   <trkpt lat="56.678296" lon="24.974896"><ele>66.75</ele></trkpt>
   <trkpt lat="56.679768" lon="24.969805"><ele>68.25</ele></trkpt>
   <trkpt lat="56.679825" lon="24.969611"><ele>67.75</ele></trkpt>
   <trkpt lat="56.679939" lon="24.969218"><ele>67</ele></trkpt>
   <trkpt lat="56.680569" lon="24.967053"><ele>67.25</ele></trkpt>
   <trkpt lat="56.681099" lon="24.965227"><ele>69</ele></trkpt>
   <trkpt lat="56.681784" lon="24.96282"><ele>73.5</ele></trkpt>
   <trkpt lat="56.68236" lon="24.960768"><ele>76</ele></trkpt>
   <trkpt lat="56.684286" lon="24.954125"><ele>68.5</ele></trkpt>
   <trkpt lat="56.68535" lon="24.950501"><ele>64.75</ele></trkpt>
   <trkpt lat="56.694641" lon="24.918446"><ele>59.25</ele></trkpt>
   <trkpt lat="56.695606" lon="24.914891"><ele>56.5</ele></trkpt>
   <trkpt lat="56.69676" lon="24.911073"><ele>55</ele></trkpt>
   <trkpt lat="56.701018" lon="24.896264"><ele>51.75</ele></trkpt>
   <trkpt lat="56.703283" lon="24.888425"><ele>54.75</ele></trkpt>
   <trkpt lat="56.703484" lon="24.887729"><ele>53.75</ele></trkpt>
   <trkpt lat="56.70408" lon="24.885689"><ele>53.25</ele></trkpt>
   <trkpt lat="56.706219" lon="24.878358"><ele>48.5</ele></trkpt>
   <trkpt lat="56.709778" lon="24.866045"><ele>46.25</ele></trkpt>
   <trkpt lat="56.712125" lon="24.857854"><ele>45</ele></trkpt>
   <trkpt lat="56.715042" lon="24.84772"><ele>44</ele></trkpt>
   <trkpt lat="56.717722" lon="24.838481"><ele>43.75</ele></trkpt>
   <trkpt lat="56.718337" lon="24.836274"><ele>44</ele></trkpt>
   <trkpt lat="56.718713" lon="24.834736"><ele>44</ele></trkpt>
   <trkpt lat="56.718974" lon="24.833408"><ele>44</ele></trkpt>
   <trkpt lat="56.719187" lon="24.832233"><ele>44</ele></trkpt>
   <trkpt lat="56.719464" lon="24.830225"><ele>44.25</ele></trkpt>
   <trkpt lat="56.719468" lon="24.830195"><ele>44.25</ele></trkpt>
   <trkpt lat="56.719994" lon="24.82593"><ele>45.75</ele></trkpt>
   <trkpt lat="56.720426" lon="24.822489"><ele>44</ele></trkpt>
   <trkpt lat="56.720458" lon="24.822221"><ele>44</ele></trkpt>
   <trkpt lat="56.720526" lon="24.821752"><ele>44</ele></trkpt>
   <trkpt lat="56.720592" lon="24.8214"><ele>44</ele></trkpt>
   <trkpt lat="56.720715" lon="24.820491"><ele>44</ele></trkpt>
   <trkpt lat="56.72198" lon="24.810259"><ele>44.5</ele></trkpt>
   <trkpt lat="56.722016" lon="24.809972"><ele>44.5</ele></trkpt>
   <trkpt lat="56.722223" lon="24.808299"><ele>42.25</ele></trkpt>
   <trkpt lat="56.722582" lon="24.805392"><ele>44</ele></trkpt>
   <trkpt lat="56.7226" lon="24.805243"><ele>44</ele></trkpt>
   <trkpt lat="56.722699" lon="24.804443"><ele>42.5</ele></trkpt>
   <trkpt lat="56.722739" lon="24.804044"><ele>41.75</ele></trkpt>
   <trkpt lat="56.722792" lon="24.803293"><ele>40.5</ele></trkpt>
   <trkpt lat="56.722834" lon="24.802862"><ele>40.25</ele></trkpt>
   <trkpt lat="56.723028" lon="24.80127"><ele>40.25</ele></trkpt>
   <trkpt lat="56.723155" lon="24.800239"><ele>40.5</ele></trkpt>
   <trkpt lat="56.72346" lon="24.797658"><ele>41</ele></trkpt>
   <trkpt lat="56.723905" lon="24.794032"><ele>44</ele></trkpt>
   <trkpt lat="56.724167" lon="24.791893"><ele>44</ele></trkpt>
   <trkpt lat="56.725037" lon="24.784798"><ele>42.5</ele></trkpt>
   <trkpt lat="56.729157" lon="24.751219"><ele>36.75</ele></trkpt>
   <trkpt lat="56.729577" lon="24.748345"><ele>36</ele></trkpt>
   <trkpt lat="56.729809" lon="24.747127"><ele>34.5</ele></trkpt>
   <trkpt lat="56.730007" lon="24.746242"><ele>34.25</ele></trkpt>
   <trkpt lat="56.730242" lon="24.745244"><ele>33.75</ele></trkpt>
   <trkpt lat="56.730592" lon="24.743897"><ele>33</ele></trkpt>
   <trkpt lat="56.730719" lon="24.743463"><ele>33</ele></trkpt>
   <trkpt lat="56.731154" lon="24.742111"><ele>33</ele></trkpt>
   <trkpt lat="56.731703" lon="24.740589"><ele>33</ele></trkpt>
   <trkpt lat="56.73262" lon="24.73842"><ele>34</ele></trkpt>
   <trkpt lat="56.733068" lon="24.737577"><ele>34.25</ele></trkpt>
   <trkpt lat="56.733709" lon="24.736334"><ele>35.75</ele></trkpt>
   <trkpt lat="56.734085" lon="24.735706"><ele>36.5</ele></trkpt>
   <trkpt lat="56.735045" lon="24.734164"><ele>37.25</ele></trkpt>
   <trkpt lat="56.735589" lon="24.733425"><ele>38.25</ele></trkpt>
   <trkpt lat="56.739887" lon="24.728016"><ele>37.75</ele></trkpt>
   <trkpt lat="56.74156" lon="24.72591"><ele>39</ele></trkpt>
   <trkpt lat="56.742173" lon="24.725135"><ele>38.5</ele></trkpt>
   <trkpt lat="56.742834" lon="24.72428"><ele>37.5</ele></trkpt>
   <trkpt lat="56.7447" lon="24.721916"><ele>37.75</ele></trkpt>
   <trkpt lat="56.746912" lon="24.719105"><ele>37</ele></trkpt>
   <trkpt lat="56.747807" lon="24.717948"><ele>36.5</ele></trkpt>
   <trkpt lat="56.747842" lon="24.717907"><ele>36.5</ele></trkpt>
   <trkpt lat="56.748964" lon="24.716469"><ele>35.5</ele></trkpt>
   <trkpt lat="56.751239" lon="24.713582"><ele>42.5</ele></trkpt>
   <trkpt lat="56.752725" lon="24.711692"><ele>39.75</ele></trkpt>
   <trkpt lat="56.753028" lon="24.711283"><ele>39</ele></trkpt>
   <trkpt lat="56.753357" lon="24.710813"><ele>38.75</ele></trkpt>
   <trkpt lat="56.753561" lon="24.710507"><ele>38.5</ele></trkpt>
   <trkpt lat="56.753998" lon="24.709809"><ele>37.75</ele></trkpt>
   <trkpt lat="56.756883" lon="24.704984"><ele>35.75</ele></trkpt>
   <trkpt lat="56.759547" lon="24.700524"><ele>32.5</ele></trkpt>
   <trkpt lat="56.76326" lon="24.694269"><ele>34.75</ele></trkpt>
   <trkpt lat="56.771303" lon="24.675909"><ele>23.5</ele></trkpt>
   <trkpt lat="56.772732" lon="24.672622"><ele>23</ele></trkpt>
   <trkpt lat="56.772827" lon="24.672399"><ele>23</ele></trkpt>
   <trkpt lat="56.777164" lon="24.662447"><ele>24</ele></trkpt>
   <trkpt lat="56.777572" lon="24.661527"><ele>23.25</ele></trkpt>
   <trkpt lat="56.777992" lon="24.660674"><ele>23.75</ele></trkpt>
   <trkpt lat="56.778492" lon="24.659767"><ele>22.75</ele></trkpt>
   <trkpt lat="56.780209" lon="24.656847"><ele>21.25</ele></trkpt>
   <trkpt lat="56.781269" lon="24.655072"><ele>21</ele></trkpt>
   <trkpt lat="56.781774" lon="24.654194"><ele>21.5</ele></trkpt>
   <trkpt lat="56.786933" lon="24.645438"><ele>20</ele></trkpt>
   <trkpt lat="56.78889" lon="24.642089"><ele>20.25</ele></trkpt>
   <trkpt lat="56.794564" lon="24.632452"><ele>21</ele></trkpt>
   <trkpt lat="56.794592" lon="24.632407"><ele>21</ele></trkpt>
   <trkpt lat="56.795459" lon="24.630963"><ele>21.25</ele></trkpt>
   <trkpt lat="56.796354" lon="24.62942"><ele>20.75</ele></trkpt>
   <trkpt lat="56.796802" lon="24.628741"><ele>20.5</ele></trkpt>
   <trkpt lat="56.797274" lon="24.628091"><ele>19.75</ele></trkpt>
   <trkpt lat="56.797668" lon="24.627605"><ele>19.75</ele></trkpt>
   <trkpt lat="56.798077" lon="24.627126"><ele>20</ele></trkpt>
   <trkpt lat="56.800548" lon="24.624645"><ele>20</ele></trkpt>
   <trkpt lat="56.80502" lon="24.620213"><ele>19</ele></trkpt>
   <trkpt lat="56.805244" lon="24.62"><ele>19</ele></trkpt>
   <trkpt lat="56.806062" lon="24.619174"><ele>19.75</ele></trkpt>
   <trkpt lat="56.806605" lon="24.618606"><ele>20.5</ele></trkpt>
   <trkpt lat="56.806991" lon="24.618217"><ele>21.5</ele></trkpt>
   <trkpt lat="56.807638" lon="24.617476"><ele>22.5</ele></trkpt>
   <trkpt lat="56.808045" lon="24.616992"><ele>23.75</ele></trkpt>
   <trkpt lat="56.808206" lon="24.616789"><ele>24.25</ele></trkpt>
   <trkpt lat="56.808551" lon="24.616312"><ele>24.25</ele></trkpt>
   <trkpt lat="56.808897" lon="24.615802"><ele>23.75</ele></trkpt>
   <trkpt lat="56.809096" lon="24.615499"><ele>23.75</ele></trkpt>
   <trkpt lat="56.809304" lon="24.615163"><ele>24</ele></trkpt>
   <trkpt lat="56.809611" lon="24.61461"><ele>24.25</ele></trkpt>
   <trkpt lat="56.810119" lon="24.613625"><ele>24.75</ele></trkpt>
   <trkpt lat="56.810464" lon="24.612917"><ele>24</ele></trkpt>
   <trkpt lat="56.81137" lon="24.611084"><ele>23</ele></trkpt>
   <trkpt lat="56.811393" lon="24.611035"><ele>23</ele></trkpt>
   <trkpt lat="56.812649" lon="24.608463"><ele>20.75</ele></trkpt>
   <trkpt lat="56.813081" lon="24.60757"><ele>20.5</ele></trkpt>
   <trkpt lat="56.813737" lon="24.60621"><ele>23.25</ele></trkpt>
   <trkpt lat="56.813805" lon="24.606073"><ele>23.25</ele></trkpt>
   <trkpt lat="56.813849" lon="24.605986"><ele>23.5</ele></trkpt>
   <trkpt lat="56.813993" lon="24.605686"><ele>23.75</ele></trkpt>
   <trkpt lat="56.814291" lon="24.605068"><ele>24.25</ele></trkpt>
   <trkpt lat="56.814426" lon="24.604756"><ele>24.5</ele></trkpt>
   <trkpt lat="56.814611" lon="24.604297"><ele>24.5</ele></trkpt>
   <trkpt lat="56.814756" lon="24.603964"><ele>24.5</ele></trkpt>
   <trkpt lat="56.815645" lon="24.602139"><ele>25</ele></trkpt>
   <trkpt lat="56.816738" lon="24.59985"><ele>24</ele></trkpt>
   <trkpt lat="56.816904" lon="24.599421"><ele>24.25</ele></trkpt>
   <trkpt lat="56.817393" lon="24.598024"><ele>24</ele></trkpt>
   <trkpt lat="56.817734" lon="24.596967"><ele>24.25</ele></trkpt>
   <trkpt lat="56.81797" lon="24.596164"><ele>23.75</ele></trkpt>
   <trkpt lat="56.818252" lon="24.595146"><ele>23.75</ele></trkpt>
   <trkpt lat="56.818579" lon="24.593901"><ele>24</ele></trkpt>
   <trkpt lat="56.819063" lon="24.59198"><ele>22.75</ele></trkpt>
   <trkpt lat="56.820957" lon="24.584731"><ele>24</ele></trkpt>
   <trkpt lat="56.821029" lon="24.584477"><ele>24</ele></trkpt>
   <trkpt lat="56.821349" lon="24.583481"><ele>24.25</ele></trkpt>
   <trkpt lat="56.821426" lon="24.583213"><ele>24.5</ele></trkpt>
   <trkpt lat="56.821743" lon="24.58199"><ele>27</ele></trkpt>
   <trkpt lat="56.821779" lon="24.581838"><ele>27.25</ele></trkpt>
   <trkpt lat="56.821799" lon="24.581758"><ele>27.5</ele></trkpt>
   <trkpt lat="56.822239" lon="24.580056"><ele>31.75</ele></trkpt>
   <trkpt lat="56.823712" lon="24.574437"><ele>28.5</ele></trkpt>
   <trkpt lat="56.82572" lon="24.566715"><ele>28.75</ele></trkpt>
   <trkpt lat="56.826656" lon="24.563113"><ele>23.75</ele></trkpt>
   <trkpt lat="56.829939" lon="24.550543"><ele>36.5</ele></trkpt>
   <trkpt lat="56.830047" lon="24.550085"><ele>35.75</ele></trkpt>
   <trkpt lat="56.831641" lon="24.543956"><ele>33</ele></trkpt>
   <trkpt lat="56.833251" lon="24.537798"><ele>33.75</ele></trkpt>
   <trkpt lat="56.833614" lon="24.536364"><ele>34.75</ele></trkpt>
   <trkpt lat="56.83377" lon="24.535722"><ele>34.25</ele></trkpt>
   <trkpt lat="56.833935" lon="24.535017"><ele>33.25</ele></trkpt>
   <trkpt lat="56.834047" lon="24.534482"><ele>31.75</ele></trkpt>
   <trkpt lat="56.834596" lon="24.531737"><ele>27.75</ele></trkpt>
   <trkpt lat="56.834745" lon="24.530939"><ele>28</ele></trkpt>
   <trkpt lat="56.835115" lon="24.529064"><ele>28.25</ele></trkpt>
   <trkpt lat="56.835547" lon="24.52681"><ele>26.5</ele></trkpt>
   <trkpt lat="56.835761" lon="24.52573"><ele>26.75</ele></trkpt>
   <trkpt lat="56.836111" lon="24.52388"><ele>27</ele></trkpt>
   <trkpt lat="56.836286" lon="24.522993"><ele>27.5</ele></trkpt>
   <trkpt lat="56.836478" lon="24.521989"><ele>27.75</ele></trkpt>
   <trkpt lat="56.836699" lon="24.520773"><ele>30</ele></trkpt>
   <trkpt lat="56.836908" lon="24.519773"><ele>31</ele></trkpt>
   <trkpt lat="56.837475" lon="24.51674"><ele>33.75</ele></trkpt>
   <trkpt lat="56.838396" lon="24.511977"><ele>29.75</ele></trkpt>
   <trkpt lat="56.838878" lon="24.509379"><ele>31.5</ele></trkpt>
   <trkpt lat="56.839495" lon="24.506211"><ele>32.75</ele></trkpt>
   <trkpt lat="56.83976" lon="24.504848"><ele>32</ele></trkpt>
   <trkpt lat="56.840533" lon="24.50085"><ele>31</ele></trkpt>
   <trkpt lat="56.840554" lon="24.500732"><ele>31</ele></trkpt>
   <trkpt lat="56.840587" lon="24.500584"><ele>31</ele></trkpt>
   <trkpt lat="56.840764" lon="24.499683"><ele>31.25</ele></trkpt>
   <trkpt lat="56.840868" lon="24.499187"><ele>31.75</ele></trkpt>
   <trkpt lat="56.840958" lon="24.498688"><ele>32</ele></trkpt>
   <trkpt lat="56.841063" lon="24.498176"><ele>32</ele></trkpt>
   <trkpt lat="56.841209" lon="24.497385"><ele>31.25</ele></trkpt>
   <trkpt lat="56.841343" lon="24.496717"><ele>31</ele></trkpt>
   <trkpt lat="56.841471" lon="24.496029"><ele>31</ele></trkpt>
   <trkpt lat="56.841606" lon="24.495347"><ele>31</ele></trkpt>
   <trkpt lat="56.841979" lon="24.49335"><ele>31.25</ele></trkpt>
   <trkpt lat="56.844845" lon="24.478527"><ele>24.25</ele></trkpt>
   <trkpt lat="56.845327" lon="24.476001"><ele>28.25</ele></trkpt>
   <trkpt lat="56.84564" lon="24.474401"><ele>28</ele></trkpt>
   <trkpt lat="56.845919" lon="24.472853"><ele>29.25</ele></trkpt>
   <trkpt lat="56.846128" lon="24.471495"><ele>30.75</ele></trkpt>
   <trkpt lat="56.846226" lon="24.470755"><ele>28.25</ele></trkpt>
   <trkpt lat="56.846321" lon="24.469958"><ele>25.75</ele></trkpt>
   <trkpt lat="56.846444" lon="24.468755"><ele>25.5</ele></trkpt>
   <trkpt lat="56.847313" lon="24.459359"><ele>20.75</ele></trkpt>
   <trkpt lat="56.847518" lon="24.457056"><ele>21</ele></trkpt>
   <trkpt lat="56.847807" lon="24.45418"><ele>25.25</ele></trkpt>
   <trkpt lat="56.84834" lon="24.448451"><ele>29</ele></trkpt>
   <trkpt lat="56.848481" lon="24.44683"><ele>26</ele></trkpt>
   <trkpt lat="56.848803" lon="24.443345"><ele>25.5</ele></trkpt>
   <trkpt lat="56.84887" lon="24.442489"><ele>25.25</ele></trkpt>
   <trkpt lat="56.849298" lon="24.438086"><ele>30.25</ele></trkpt>
   <trkpt lat="56.849413" lon="24.436802"><ele>31</ele></trkpt>
   <trkpt lat="56.849493" lon="24.435833"><ele>31.75</ele></trkpt>
   <trkpt lat="56.849623" lon="24.434427"><ele>31.5</ele></trkpt>
   <trkpt lat="56.849727" lon="24.433269"><ele>29.75</ele></trkpt>
   <trkpt lat="56.849794" lon="24.432612"><ele>29</ele></trkpt>
   <trkpt lat="56.849859" lon="24.431857"><ele>29</ele></trkpt>
   <trkpt lat="56.853368" lon="24.393704"><ele>19.75</ele></trkpt>
   <trkpt lat="56.853454" lon="24.39294"><ele>20.25</ele></trkpt>
   <trkpt lat="56.853569" lon="24.392067"><ele>21.25</ele></trkpt>
   <trkpt lat="56.853712" lon="24.391065"><ele>20.75</ele></trkpt>
   <trkpt lat="56.853867" lon="24.390114"><ele>20.25</ele></trkpt>
   <trkpt lat="56.854017" lon="24.389286"><ele>20.75</ele></trkpt>
   <trkpt lat="56.857055" lon="24.373124"><ele>22.25</ele></trkpt>
   <trkpt lat="56.857782" lon="24.369254"><ele>21</ele></trkpt>
   <trkpt lat="56.857822" lon="24.369042"><ele>20.75</ele></trkpt>
   <trkpt lat="56.85811" lon="24.367777"><ele>19.25</ele></trkpt>
   <trkpt lat="56.858113" lon="24.367768"><ele>19.25</ele></trkpt>
   <trkpt lat="56.858152" lon="24.367576"><ele>19</ele></trkpt>
   <trkpt lat="56.858266" lon="24.366953"><ele>19</ele></trkpt>
   <trkpt lat="56.858315" lon="24.366667"><ele>18.75</ele></trkpt>
   <trkpt lat="56.858464" lon="24.365631"><ele>18</ele></trkpt>
   <trkpt lat="56.858466" lon="24.365623"><ele>18</ele></trkpt>
   <trkpt lat="56.858508" lon="24.365396"><ele>18</ele></trkpt>
   <trkpt lat="56.859367" lon="24.360754"><ele>17</ele></trkpt>
   <trkpt lat="56.859615" lon="24.35939"><ele>16.25</ele></trkpt>
   <trkpt lat="56.859724" lon="24.358705"><ele>15.5</ele></trkpt>
   <trkpt lat="56.859796" lon="24.358196"><ele>15.25</ele></trkpt>
   <trkpt lat="56.860182" lon="24.355278"><ele>15.75</ele></trkpt>
   <trkpt lat="56.860472" lon="24.353081"><ele>16.25</ele></trkpt>
   <trkpt lat="56.860641" lon="24.351808"><ele>16.75</ele></trkpt>
   <trkpt lat="56.860889" lon="24.349959"><ele>14.75</ele></trkpt>
   <trkpt lat="56.860905" lon="24.349841"><ele>14.75</ele></trkpt>
   <trkpt lat="56.860924" lon="24.349694"><ele>14.5</ele></trkpt>
   <trkpt lat="56.860937" lon="24.349596"><ele>14.5</ele></trkpt>
   <trkpt lat="56.861462" lon="24.345591"><ele>12.25</ele></trkpt>
   <trkpt lat="56.861471" lon="24.34553"><ele>12.25</ele></trkpt>
   <trkpt lat="56.861605" lon="24.344523"><ele>12</ele></trkpt>
   <trkpt lat="56.861612" lon="24.344471"><ele>12</ele></trkpt>
   <trkpt lat="56.861673" lon="24.344079"><ele>12</ele></trkpt>
   <trkpt lat="56.86176" lon="24.34363"><ele>12.25</ele></trkpt>
   <trkpt lat="56.861822" lon="24.343227"><ele>12.25</ele></trkpt>
   <trkpt lat="56.862222" lon="24.34019"><ele>9</ele></trkpt>
   <trkpt lat="56.862961" lon="24.334549"><ele>9.5</ele></trkpt>
   <trkpt lat="56.863314" lon="24.331865"><ele>11.75</ele></trkpt>
   <trkpt lat="56.863767" lon="24.32841"><ele>11</ele></trkpt>
   <trkpt lat="56.864155" lon="24.325449"><ele>11.75</ele></trkpt>
   <trkpt lat="56.864375" lon="24.323771"><ele>10.5</ele></trkpt>
   <trkpt lat="56.86522" lon="24.317331"><ele>8</ele></trkpt>
   <trkpt lat="56.866674" lon="24.306242"><ele>15</ele></trkpt>
   <trkpt lat="56.86843" lon="24.292791"><ele>18</ele></trkpt>
   <trkpt lat="56.869564" lon="24.284102"><ele>20.5</ele></trkpt>
   <trkpt lat="56.869721" lon="24.283025"><ele>20</ele></trkpt>
   <trkpt lat="56.869885" lon="24.282127"><ele>18.75</ele></trkpt>
   <trkpt lat="56.869978" lon="24.281664"><ele>18</ele></trkpt>
   <trkpt lat="56.870111" lon="24.281051"><ele>19</ele></trkpt>
   <trkpt lat="56.870194" lon="24.280702"><ele>19.25</ele></trkpt>
   <trkpt lat="56.870352" lon="24.280077"><ele>19.25</ele></trkpt>
   <trkpt lat="56.870494" lon="24.279557"><ele>19.5</ele></trkpt>
   <trkpt lat="56.870642" lon="24.279055"><ele>19.25</ele></trkpt>
   <trkpt lat="56.870797" lon="24.278559"><ele>19</ele></trkpt>
   <trkpt lat="56.871031" lon="24.277877"><ele>18.75</ele></trkpt>
   <trkpt lat="56.871294" lon="24.27717"><ele>17.5</ele></trkpt>
   <trkpt lat="56.871408" lon="24.276885"><ele>16.5</ele></trkpt>
   <trkpt lat="56.87164" lon="24.27633"><ele>15</ele></trkpt>
   <trkpt lat="56.871811" lon="24.275949"><ele>14.75</ele></trkpt>
   <trkpt lat="56.872285" lon="24.274962"><ele>12.75</ele></trkpt>
   <trkpt lat="56.876516" lon="24.266635"><ele>11.5</ele></trkpt>
   <trkpt lat="56.882724" lon="24.254411"><ele>10.25</ele></trkpt>
   <trkpt lat="56.883395" lon="24.253092"><ele>11.25</ele></trkpt>
   <trkpt lat="56.884" lon="24.251899"><ele>11.25</ele></trkpt>
   <trkpt lat="56.884015" lon="24.25187"><ele>11.25</ele></trkpt>
   <trkpt lat="56.886276" lon="24.247419"><ele>16.25</ele></trkpt>
   <trkpt lat="56.893597" lon="24.233"><ele>11.5</ele></trkpt>
   <trkpt lat="56.894083" lon="24.232043"><ele>11.75</ele></trkpt>
   <trkpt lat="56.894089" lon="24.232032"><ele>11.75</ele></trkpt>
   <trkpt lat="56.896352" lon="24.227574"><ele>10.25</ele></trkpt>
   <trkpt lat="56.896406" lon="24.227466"><ele>10.25</ele></trkpt>
   <trkpt lat="56.896636" lon="24.227021"><ele>9.5</ele></trkpt>
   <trkpt lat="56.897298" lon="24.225746"><ele>11.5</ele></trkpt>
   <trkpt lat="56.898602" lon="24.223141"><ele>11.5</ele></trkpt>
   <trkpt lat="56.899218" lon="24.221936"><ele>11</ele></trkpt>
   <trkpt lat="56.901918" lon="24.2166"><ele>11.5</ele></trkpt>
   <trkpt lat="56.90402" lon="24.212463"><ele>11.75</ele></trkpt>
   <trkpt lat="56.904599" lon="24.211325"><ele>12</ele></trkpt>
   <trkpt lat="56.904803" lon="24.210922"><ele>11.75</ele></trkpt>
   <trkpt lat="56.905146" lon="24.210246"><ele>12</ele></trkpt>
   <trkpt lat="56.905636" lon="24.209278"><ele>11</ele></trkpt>
   <trkpt lat="56.905874" lon="24.208812"><ele>11</ele></trkpt>
   <trkpt lat="56.906313" lon="24.208077"><ele>11</ele></trkpt>
   <trkpt lat="56.906568" lon="24.207598"><ele>11.75</ele></trkpt>
   <trkpt lat="56.906846" lon="24.207051"><ele>12</ele></trkpt>
   <trkpt lat="56.907548" lon="24.205648"><ele>12</ele></trkpt>
   <trkpt lat="56.908177" lon="24.204645"><ele>12</ele></trkpt>
   <trkpt lat="56.908747" lon="24.203551"><ele>12</ele></trkpt>
   <trkpt lat="56.911728" lon="24.197685"><ele>12.75</ele></trkpt>
   <trkpt lat="56.913854" lon="24.193472"><ele>11.75</ele></trkpt>
   <trkpt lat="56.914212" lon="24.192892"><ele>11.5</ele></trkpt>
   <trkpt lat="56.914406" lon="24.192567"><ele>11.5</ele></trkpt>
   <trkpt lat="56.91521" lon="24.191277"><ele>11.25</ele></trkpt>
   <trkpt lat="56.915656" lon="24.190535"><ele>11</ele></trkpt>
   <trkpt lat="56.91647" lon="24.18947"><ele>11</ele></trkpt>
   <trkpt lat="56.916703" lon="24.189153"><ele>10.75</ele></trkpt>
   <trkpt lat="56.918123" lon="24.187345"><ele>11</ele></trkpt>
   <trkpt lat="56.919103" lon="24.186067"><ele>11.5</ele></trkpt>
   <trkpt lat="56.919114" lon="24.186052"><ele>11.5</ele></trkpt>
   <trkpt lat="56.919492" lon="24.185563"><ele>11</ele></trkpt>
   <trkpt lat="56.920005" lon="24.184871"><ele>9</ele></trkpt>
   <trkpt lat="56.921018" lon="24.183549"><ele>10</ele></trkpt>
   <trkpt lat="56.926035" lon="24.177021"><ele>8.75</ele></trkpt>
   <trkpt lat="56.927597" lon="24.175204"><ele>8.75</ele></trkpt>
   <trkpt lat="56.928002" lon="24.174764"><ele>8.25</ele></trkpt>
   <trkpt lat="56.928353" lon="24.174294"><ele>8</ele></trkpt>
   <trkpt lat="56.928617" lon="24.174021"><ele>8.25</ele></trkpt>
   <trkpt lat="56.929014" lon="24.173514"><ele>8.75</ele></trkpt>
   <trkpt lat="56.929274" lon="24.173238"><ele>9</ele></trkpt>
   <trkpt lat="56.930312" lon="24.172141"><ele>9.5</ele></trkpt>
   <trkpt lat="56.930657" lon="24.171783"><ele>8.5</ele></trkpt>
   <trkpt lat="56.931624" lon="24.170776"><ele>8.75</ele></trkpt>
   <trkpt lat="56.931889" lon="24.170485"><ele>8.5</ele></trkpt>
   <trkpt lat="56.932153" lon="24.170178"><ele>8</ele></trkpt>
   <trkpt lat="56.93255" lon="24.169679"><ele>7.75</ele></trkpt>
   <trkpt lat="56.933004" lon="24.169107"><ele>7.25</ele></trkpt>
   <trkpt lat="56.933403" lon="24.168634"><ele>7</ele></trkpt>
   <trkpt lat="56.933876" lon="24.168124"><ele>7.25</ele></trkpt>
   <trkpt lat="56.933893" lon="24.168105"><ele>7.25</ele></trkpt>
   <trkpt lat="56.93536" lon="24.166523"><ele>8</ele></trkpt>
   <trkpt lat="56.935998" lon="24.16582"><ele>10</ele></trkpt>
   <trkpt lat="56.936313" lon="24.16546"><ele>10.75</ele></trkpt>
   <trkpt lat="56.93656" lon="24.165159"><ele>11.5</ele></trkpt>
   <trkpt lat="56.936998" lon="24.164574"><ele>11.25</ele></trkpt>
   <trkpt lat="56.937379" lon="24.16401"><ele>9.5</ele></trkpt>
   <trkpt lat="56.937419" lon="24.163955"><ele>9.25</ele></trkpt>
   <trkpt lat="56.937772" lon="24.163365"><ele>9.25</ele></trkpt>
   <trkpt lat="56.93958" lon="24.160276"><ele>11</ele></trkpt>
   <trkpt lat="56.941195" lon="24.157472"><ele>12.5</ele></trkpt>
   <trkpt lat="56.941684" lon="24.156643"><ele>13</ele></trkpt>
   <trkpt lat="56.941937" lon="24.156255"><ele>13.5</ele></trkpt>
   <trkpt lat="56.942184" lon="24.155909"><ele>14</ele></trkpt>
   <trkpt lat="56.942522" lon="24.155507"><ele>14.25</ele></trkpt>
   <trkpt lat="56.94279" lon="24.155221"><ele>14</ele></trkpt>
   <trkpt lat="56.943335" lon="24.154637"><ele>13.25</ele></trkpt>
   <trkpt lat="56.943655" lon="24.154218"><ele>13</ele></trkpt>
   <trkpt lat="56.943851" lon="24.153909"><ele>12.75</ele></trkpt>
   <trkpt lat="56.944065" lon="24.153538"><ele>12.25</ele></trkpt>
   <trkpt lat="56.944266" lon="24.153074"><ele>12.75</ele></trkpt>
   <trkpt lat="56.944497" lon="24.152431"><ele>13.75</ele></trkpt>
   <trkpt lat="56.944597" lon="24.152068"><ele>13.5</ele></trkpt>
   <trkpt lat="56.944754" lon="24.151377"><ele>13.25</ele></trkpt>
   <trkpt lat="56.945095" lon="24.149737"><ele>13.5</ele></trkpt>
   <trkpt lat="56.945277" lon="24.148849"><ele>12.5</ele></trkpt>
   <trkpt lat="56.945433" lon="24.148052"><ele>12</ele></trkpt>
   <trkpt lat="56.945681" lon="24.146589"><ele>11</ele></trkpt>
   <trkpt lat="56.94587" lon="24.145668"><ele>11</ele></trkpt>
   <trkpt lat="56.946017" lon="24.14508"><ele>11</ele></trkpt>
   <trkpt lat="56.946297" lon="24.143868"><ele>9.75</ele></trkpt>
   <trkpt lat="56.946449" lon="24.142982"><ele>9.5</ele></trkpt>
   <trkpt lat="56.946536" lon="24.142243"><ele>10</ele></trkpt>
   <trkpt lat="56.946594" lon="24.141532"><ele>10.25</ele></trkpt>
   <trkpt lat="56.946645" lon="24.140384"><ele>11</ele></trkpt>
   <trkpt lat="56.946644" lon="24.13984"><ele>10.75</ele></trkpt>
   <trkpt lat="56.946643" lon="24.13943"><ele>10.25</ele></trkpt>
   <trkpt lat="56.946689" lon="24.138709"><ele>9.25</ele></trkpt>
   <trkpt lat="56.946726" lon="24.137787"><ele>8.25</ele></trkpt>
   <trkpt lat="56.946781" lon="24.136949"><ele>7</ele></trkpt>
   <trkpt lat="56.946783" lon="24.136891"><ele>7</ele></trkpt>
   <trkpt lat="56.946829" lon="24.135863"><ele>6.75</ele></trkpt>
   <trkpt lat="56.946828" lon="24.135257"><ele>6.75</ele></trkpt>
   <trkpt lat="56.946815" lon="24.13401"><ele>7.5</ele></trkpt>
   <trkpt lat="56.946815" lon="24.133511"><ele>7.5</ele></trkpt>
   <trkpt lat="56.946815" lon="24.133504"><ele>7.5</ele></trkpt>
   <trkpt lat="56.946834" lon="24.133256"><ele>7.5</ele></trkpt>
   <trkpt lat="56.94688" lon="24.132199"><ele>7.75</ele></trkpt>
   <trkpt lat="56.946894" lon="24.131757"><ele>7.75</ele></trkpt>
   <trkpt lat="56.946927" lon="24.131265"><ele>8</ele></trkpt>
   <trkpt lat="56.946939" lon="24.130433"><ele>8.25</ele></trkpt>
   <trkpt lat="56.946932" lon="24.128768"><ele>7.25</ele></trkpt>
   <trkpt lat="56.946915" lon="24.126277"><ele>8.75</ele></trkpt>
   <trkpt lat="56.946899" lon="24.125762"><ele>9</ele></trkpt>
   <trkpt lat="56.946888" lon="24.125377"><ele>9</ele></trkpt>
   <trkpt lat="56.946875" lon="24.125057"><ele>9</ele></trkpt>
   <trkpt lat="56.946785" lon="24.122489"><ele>9.5</ele></trkpt>
   <trkpt lat="56.946752" lon="24.121598"><ele>9.5</ele></trkpt>
  </trkseg>
 </trk>
</gpx>