<?xml version="1.0" encoding="UTF-8"?>
<!-- track-length = 21836 filtered ascend = 278 plain-ascend = 224 cost=21896 energy=.3kwh time=29m 9s -->
<gpx 
 xmlns="http://www.topografix.com/GPX/1/1" 
 xmlns:xsi="http://www.w3.org/2001/XMLSchema-instance" 
 xsi:schemaLocation="http://www.topografix.com/GPX/1/1 http://www.topografix.com/GPX/1/1/gpx.xsd" 
 creator="BRouter-1.7.0" version="1.1">
 <trk>
  <name>Decin - Telnice</name>
  <trkseg>
   <trkpt lon="14.200489" lat="50.772604"><ele>133.75</ele></trkpt>
   <trkpt lon="14.200485" lat="50.772591"><ele>133.75</ele></trkpt>
   <trkpt lon="14.200412" lat="50.772404"><ele>133.0</ele></trkpt>
   <trkpt lon="14.200380" lat="50.772273"><ele>132.5</ele></trkpt>
   <trkpt lon="14.200340" lat="50.771997"><ele>131.75</ele></trkpt>
   <trkpt lon="14.200232" lat="50.771729"><ele>130.75</ele></trkpt>
   <trkpt lon="14.200135" lat="50.771532"><ele>131.0</ele></trkpt>
   <trkpt lon="14.199984" lat="50.771256"><ele>131.75</ele></trkpt>
   <trkpt lon="14.199788" lat="50.770996"><ele>132.5</ele></trkpt>
   <trkpt lon="14.199557" lat="50.770745"><ele>133.0</ele></trkpt>
   <trkpt lon="14.199373" lat="50.770563"><ele>133.5</ele></trkpt>
   <trkpt lon="14.199154" lat="50.770331"><ele>134.0</ele></trkpt>
   <trkpt lon="14.198877" lat="50.770044"><ele>134.75</ele></trkpt>
   <trkpt lon="14.198709" lat="50.769886"><ele>135.0</ele></trkpt>
   <trkpt lon="14.198622" lat="50.769812"><ele>135.0</ele></trkpt>
   <trkpt lon="14.198364" lat="50.769648"><ele>135.0</ele></trkpt>
   <trkpt lon="14.198274" lat="50.769601"><ele>135.0</ele></trkpt>
   <trkpt lon="14.198109" lat="50.769538"><ele>135.0</ele></trkpt>
   <trkpt lon="14.197763" lat="50.769424"><ele>135.0</ele></trkpt>
   <trkpt lon="14.197265" lat="50.769286"><ele>135.0</ele></trkpt>
   <trkpt lon="14.197065" lat="50.769208"><ele>135.0</ele></trkpt>
   <trkpt lon="14.196833" lat="50.769091"><ele>135.0</ele></trkpt>
   <trkpt lon="14.196641" lat="50.768971"><ele>135.25</ele></trkpt>
   <trkpt lon="14.196471" lat="50.768835"><ele>135.75</ele></trkpt>
   <trkpt lon="14.196306" lat="50.768686"><ele>136.0</ele></trkpt>
   <trkpt lon="14.196185" lat="50.768519"><ele>136.25</ele></trkpt>
   <trkpt lon="14.196102" lat="50.768397"><ele>136.5</ele></trkpt>
   <trkpt lon="14.195981" lat="50.768148"><ele>136.75</ele></trkpt>
   <trkpt lon="14.195886" lat="50.767864"><ele>136.75</ele></trkpt>
   <trkpt lon="14.195781" lat="50.767480"><ele>136.75</ele></trkpt>
   <trkpt lon="14.195667" lat="50.767086"><ele>136.5</ele></trkpt>
   <trkpt lon="14.195916" lat="50.769294"><ele>136.75</ele></trkpt>
   <trkpt lon="14.196025" lat="50.769680"><ele>136.5</ele></trkpt>
   <trkpt lon="14.196047" lat="50.769854"><ele>136.5</ele></trkpt>
   <trkpt lon="14.196049" lat="50.769977"><ele>136.5</ele></trkpt>
   <trkpt lon="14.196031" lat="50.770214"><ele>136.5</ele></trkpt>
   <trkpt lon="14.195995" lat="50.770360"><ele>136.75</ele></trkpt>
   <trkpt lon="14.195952" lat="50.770468"><ele>137.0</ele></trkpt>
   <trkpt lon="14.195832" lat="50.770732"><ele>137.0</ele></trkpt>
   <trkpt lon="14.195755" lat="50.770849"><ele>137.0</ele></trkpt>
   <trkpt lon="14.195664" lat="50.770964"><ele>137.5</ele></trkpt>
   <trkpt lon="14.195582" lat="50.771047"><ele>137.75</ele></trkpt>
   <trkpt lon="14.195440" lat="50.771168"><ele>138.25</ele></trkpt>
   <trkpt lon="14.195300" lat="50.771282"><ele>138.75</ele></trkpt>
   <trkpt lon="14.195107" lat="50.771423"><ele>139.25</ele></trkpt>
   <trkpt lon="14.194922" lat="50.771554"><ele>140.0</ele></trkpt>
   <trkpt lon="14.193692" lat="50.772440"><ele>142.5</ele></trkpt>
   <trkpt lon="14.192624" lat="50.773209"><ele>143.75</ele></trkpt>
   <trkpt lon="14.192392" lat="50.773377"><ele>144.0</ele></trkpt>
   <trkpt lon="14.188686" lat="50.776048"><ele>147.75</ele></trkpt>
   <trkpt lon="14.188437" lat="50.776224"><ele>147.0</ele></trkpt>
   <trkpt lon="14.187676" lat="50.776779"><ele>147.25</ele></trkpt>
   <trkpt lon="14.187381" lat="50.776984"><ele>148.5</ele></trkpt>
   <trkpt lon="14.187114" lat="50.777147"><ele>149.25</ele></trkpt>
   <trkpt lon="14.186846" lat="50.777292"><ele>149.5</ele></trkpt>
   <trkpt lon="14.186552" lat="50.777432"><ele>151.0</ele></trkpt>
   <trkpt lon="14.186134" lat="50.777601"><ele>156.5</ele></trkpt>
   <trkpt lon="14.185894" lat="50.777685"><ele>159.0</ele></trkpt>
   <trkpt lon="14.185622" lat="50.777770"><ele>160.75</ele></trkpt>
   <trkpt lon="14.185314" lat="50.777847"><ele>162.0</ele></trkpt>
   <trkpt lon="14.185031" lat="50.777908"><ele>163.0</ele></trkpt>
   <trkpt lon="14.184743" lat="50.777960"><ele>163.25</ele></trkpt>
   <trkpt lon="14.184452" lat="50.778001"><ele>163.75</ele></trkpt>
   <trkpt lon="14.184115" lat="50.778036"><ele>164.75</ele></trkpt>
   <trkpt lon="14.183782" lat="50.778057"><ele>166.0</ele></trkpt>
   <trkpt lon="14.183495" lat="50.778062"><ele>167.5</ele></trkpt>
   <trkpt lon="14.182832" lat="50.778050"><ele>168.25</ele></trkpt>
   <trkpt lon="14.182507" lat="50.778028"><ele>168.5</ele></trkpt>
   <trkpt lon="14.181750" lat="50.777990"><ele>169.5</ele></trkpt>
   <trkpt lon="14.181413" lat="50.777990"><ele>170.75</ele></trkpt>
   <trkpt lon="14.181219" lat="50.777996"><ele>171.75</ele></trkpt>
   <trkpt lon="14.181005" lat="50.778005"><ele>172.5</ele></trkpt>
   <trkpt lon="14.180737" lat="50.778030"><ele>173.0</ele></trkpt>
   <trkpt lon="14.180441" lat="50.778072"><ele>173.0</ele></trkpt>
   <trkpt lon="14.180058" lat="50.778151"><ele>172.5</ele></trkpt>
   <trkpt lon="14.179719" lat="50.778240"><ele>173.75</ele></trkpt>
   <trkpt lon="14.179168" lat="50.778405"><ele>177.0</ele></trkpt>
   <trkpt lon="14.178321" lat="50.778683"><ele>176.75</ele></trkpt>
   <trkpt lon="14.177989" lat="50.778779"><ele>174.75</ele></trkpt>
   <trkpt lon="14.177716" lat="50.778842"><ele>173.75</ele></trkpt>
   <trkpt lon="14.177176" lat="50.778928"><ele>173.0</ele></trkpt>
   <trkpt lon="14.176884" lat="50.778953"><ele>173.0</ele></trkpt>
   <trkpt lon="14.176285" lat="50.778989"><ele>173.0</ele></trkpt>
   <trkpt lon="14.175618" lat="50.779038"><ele>172.25</ele></trkpt>
   <trkpt lon="14.175282" lat="50.779059"><ele>171.75</ele></trkpt>
   <trkpt lon="14.174919" lat="50.779073"><ele>171.5</ele></trkpt>
   <trkpt lon="14.174483" lat="50.779067"><ele>171.0</ele></trkpt>
   <trkpt lon="14.174252" lat="50.779054"><ele>171.0</ele></trkpt>
   <trkpt lon="14.173266" lat="50.778948"><ele>171.75</ele></trkpt>
   <trkpt lon="14.172949" lat="50.778920"><ele>172.5</ele></trkpt>
   <trkpt lon="14.172632" lat="50.778909"><ele>172.75</ele></trkpt>
   <trkpt lon="14.172501" lat="50.778910"><ele>172.75</ele></trkpt>
   <trkpt lon="14.172353" lat="50.778908"><ele>172.75</ele></trkpt>
   <trkpt lon="14.172098" lat="50.778919"><ele>172.5</ele></trkpt>
   <trkpt lon="14.171647" lat="50.778963"><ele>172.5</ele></trkpt>
   <trkpt lon="14.171363" lat="50.779009"><ele>174.0</ele></trkpt>
   <trkpt lon="14.171038" lat="50.779078"><ele>175.75</ele></trkpt>
   <trkpt lon="14.170686" lat="50.779175"><ele>177.75</ele></trkpt>
   <trkpt lon="14.170458" lat="50.779246"><ele>178.5</ele></trkpt>
   <trkpt lon="14.170047" lat="50.779404"><ele>179.5</ele></trkpt>
   <trkpt lon="14.168900" lat="50.779875"><ele>181.0</ele></trkpt>
   <trkpt lon="14.168513" lat="50.780025"><ele>181.5</ele></trkpt>
   <trkpt lon="14.168304" lat="50.780099"><ele>180.75</ele></trkpt>
   <trkpt lon="14.168058" lat="50.780169"><ele>180.25</ele></trkpt>
   <trkpt lon="14.167735" lat="50.780251"><ele>179.5</ele></trkpt>
   <trkpt lon="14.167408" lat="50.780313"><ele>179.0</ele></trkpt>
   <trkpt lon="14.167119" lat="50.780353"><ele>179.0</ele></trkpt>
   <trkpt lon="14.166901" lat="50.780370"><ele>179.25</ele></trkpt>
   <trkpt lon="14.164883" lat="50.780464"><ele>185.5</ele></trkpt>
   <trkpt lon="14.164425" lat="50.780497"><ele>187.75</ele></trkpt>
   <trkpt lon="14.163944" lat="50.780548"><ele>190.0</ele></trkpt>
   <trkpt lon="14.163392" lat="50.780631"><ele>191.5</ele></trkpt>
   <trkpt lon="14.162030" lat="50.780851"><ele>198.25</ele></trkpt>
   <trkpt lon="14.161543" lat="50.780918"><ele>199.25</ele></trkpt>
   <trkpt lon="14.161229" lat="50.780946"><ele>198.5</ele></trkpt>
   <trkpt lon="14.160935" lat="50.780959"><ele>198.5</ele></trkpt>
   <trkpt lon="14.160593" lat="50.780956"><ele>198.5</ele></trkpt>
   <trkpt lon="14.160285" lat="50.780939"><ele>199.25</ele></trkpt>
   <trkpt lon="14.159984" lat="50.780904"><ele>200.25</ele></trkpt>
   <trkpt lon="14.159680" lat="50.780854"><ele>199.5</ele></trkpt>
   <trkpt lon="14.159451" lat="50.780805"><ele>199.25</ele></trkpt>
   <trkpt lon="14.159221" lat="50.780745"><ele>199.25</ele></trkpt>
   <trkpt lon="14.158929" lat="50.780659"><ele>200.5</ele></trkpt>
   <trkpt lon="14.158630" lat="50.780555"><ele>202.75</ele></trkpt>
   <trkpt lon="14.158025" lat="50.780331"><ele>209.75</ele></trkpt>
   <trkpt lon="14.157708" lat="50.780235"><ele>212.75</ele></trkpt>
   <trkpt lon="14.157391" lat="50.780160"><ele>214.5</ele></trkpt>
   <trkpt lon="14.157095" lat="50.780100"><ele>215.75</ele></trkpt>
   <trkpt lon="14.156786" lat="50.780046"><ele>216.5</ele></trkpt>
   <trkpt lon="14.156416" lat="50.780003"><ele>215.0</ele></trkpt>
   <trkpt lon="14.156016" lat="50.779977"><ele>211.5</ele></trkpt>
   <trkpt lon="14.154323" lat="50.779911"><ele>200.25</ele></trkpt>
   <trkpt lon="14.153912" lat="50.779909"><ele>198.5</ele></trkpt>
   <trkpt lon="14.152522" lat="50.779892"><ele>197.75</ele></trkpt>
   <trkpt lon="14.152110" lat="50.779889"><ele>198.25</ele></trkpt>
   <trkpt lon="14.148698" lat="50.779784"><ele>209.5</ele></trkpt>
   <trkpt lon="14.148309" lat="50.779768"><ele>211.0</ele></trkpt>
   <trkpt lon="14.147950" lat="50.779744"><ele>210.5</ele></trkpt>
   <trkpt lon="14.147622" lat="50.779706"><ele>210.5</ele></trkpt>
   <trkpt lon="14.147284" lat="50.779651"><ele>211.0</ele></trkpt>
   <trkpt lon="14.146913" lat="50.779573"><ele>212.0</ele></trkpt>
   <trkpt lon="14.146374" lat="50.779444"><ele>213.5</ele></trkpt>
   <trkpt lon="14.146258" lat="50.779417"><ele>213.75</ele></trkpt>
   <trkpt lon="14.145547" lat="50.779257"><ele>215.5</ele></trkpt>
   <trkpt lon="14.145240" lat="50.779197"><ele>216.0</ele></trkpt>
   <trkpt lon="14.144963" lat="50.779152"><ele>216.5</ele></trkpt>
   <trkpt lon="14.144661" lat="50.779117"><ele>218.75</ele></trkpt>
   <trkpt lon="14.144347" lat="50.779105"><ele>220.0</ele></trkpt>
   <trkpt lon="14.144012" lat="50.779111"><ele>220.5</ele></trkpt>
   <trkpt lon="14.143645" lat="50.779127"><ele>220.75</ele></trkpt>
   <trkpt lon="14.142515" lat="50.779203"><ele>220.75</ele></trkpt>
   <trkpt lon="14.142216" lat="50.779206"><ele>221.25</ele></trkpt>
   <trkpt lon="14.141933" lat="50.779201"><ele>222.25</ele></trkpt>
   <trkpt lon="14.141676" lat="50.779184"><ele>223.25</ele></trkpt>
   <trkpt lon="14.141410" lat="50.779157"><ele>221.25</ele></trkpt>
   <trkpt lon="14.141090" lat="50.779111"><ele>219.75</ele></trkpt>
   <trkpt lon="14.140803" lat="50.779052"><ele>219.25</ele></trkpt>
   <trkpt lon="14.140318" lat="50.778914"><ele>220.25</ele></trkpt>
   <trkpt lon="14.140064" lat="50.778821"><ele>221.5</ele></trkpt>
   <trkpt lon="14.139909" lat="50.778753"><ele>222.75</ele></trkpt>
   <trkpt lon="14.139147" lat="50.778417"><ele>225.75</ele></trkpt>
   <trkpt lon="14.138867" lat="50.778300"><ele>225.5</ele></trkpt>
   <trkpt lon="14.138640" lat="50.778217"><ele>225.5</ele></trkpt>
   <trkpt lon="14.138369" lat="50.778137"><ele>224.75</ele></trkpt>
   <trkpt lon="14.138148" lat="50.778079"><ele>225.5</ele></trkpt>
   <trkpt lon="14.137323" lat="50.777909"><ele>227.75</ele></trkpt>
   <trkpt lon="14.136568" lat="50.777745"><ele>230.25</ele></trkpt>
   <trkpt lon="14.136218" lat="50.777644"><ele>229.5</ele></trkpt>
   <trkpt lon="14.136007" lat="50.777575"><ele>228.5</ele></trkpt>
   <trkpt lon="14.135672" lat="50.777435"><ele>226.75</ele></trkpt>
   <trkpt lon="14.135252" lat="50.777222"><ele>225.75</ele></trkpt>
   <trkpt lon="14.135071" lat="50.777106"><ele>226.25</ele></trkpt>
   <trkpt lon="14.134780" lat="50.776884"><ele>229.25</ele></trkpt>
   <trkpt lon="14.134649" lat="50.776769"><ele>230.25</ele></trkpt>
   <trkpt lon="14.134505" lat="50.776629"><ele>230.75</ele></trkpt>
   <trkpt lon="14.134301" lat="50.776363"><ele>231.25</ele></trkpt>
   <trkpt lon="14.134115" lat="50.776104"><ele>232.25</ele></trkpt>
   <trkpt lon="14.133738" lat="50.775572"><ele>235.0</ele></trkpt>
   <trkpt lon="14.133500" lat="50.775300"><ele>236.0</ele></trkpt>
   <trkpt lon="14.133344" lat="50.775160"><ele>236.25</ele></trkpt>
   <trkpt lon="14.133102" lat="50.774976"><ele>236.75</ele></trkpt>
   <trkpt lon="14.132938" lat="50.774869"><ele>237.0</ele></trkpt>
   <trkpt lon="14.132748" lat="50.774761"><ele>237.5</ele></trkpt>
   <trkpt lon="14.132536" lat="50.774651"><ele>237.75</ele></trkpt>
   <trkpt lon="14.128509" lat="50.772723"><ele>247.25</ele></trkpt>
   <trkpt lon="14.128175" lat="50.772583"><ele>248.0</ele></trkpt>
   <trkpt lon="14.127832" lat="50.772463"><ele>247.75</ele></trkpt>
   <trkpt lon="14.127592" lat="50.772392"><ele>246.75</ele></trkpt>
   <trkpt lon="14.126304" lat="50.772099"><ele>243.0</ele></trkpt>
   <trkpt lon="14.126031" lat="50.772029"><ele>242.5</ele></trkpt>
   <trkpt lon="14.125583" lat="50.771885"><ele>243.0</ele></trkpt>
   <trkpt lon="14.125215" lat="50.771728"><ele>244.5</ele></trkpt>
   <trkpt lon="14.125027" lat="50.771633"><ele>245.25</ele></trkpt>
   <trkpt lon="14.124647" lat="50.771407"><ele>243.75</ele></trkpt>
   <trkpt lon="14.124458" lat="50.771268"><ele>243.0</ele></trkpt>
   <trkpt lon="14.124307" lat="50.771134"><ele>242.75</ele></trkpt>
   <trkpt lon="14.124160" lat="50.771002"><ele>242.25</ele></trkpt>
   <trkpt lon="14.124000" lat="50.770820"><ele>242.0</ele></trkpt>
   <trkpt lon="14.123904" lat="50.770691"><ele>241.75</ele></trkpt>
   <trkpt lon="14.123833" lat="50.770572"><ele>241.25</ele></trkpt>
   <trkpt lon="14.123766" lat="50.770472"><ele>240.75</ele></trkpt>
   <trkpt lon="14.123673" lat="50.770261"><ele>239.75</ele></trkpt>
   <trkpt lon="14.123595" lat="50.770033"><ele>238.75</ele></trkpt>
   <trkpt lon="14.123365" lat="50.769040"><ele>244.25</ele></trkpt>
   <trkpt lon="14.123288" lat="50.768760"><ele>247.75</ele></trkpt>
   <trkpt lon="14.123231" lat="50.768614"><ele>249.5</ele></trkpt>
   <trkpt lon="14.123072" lat="50.768315"><ele>252.25</ele></trkpt>
   <trkpt lon="14.122971" lat="50.768160"><ele>253.5</ele></trkpt>
   <trkpt lon="14.122742" lat="50.767869"><ele>255.25</ele></trkpt>
   <trkpt lon="14.120405" lat="50.765261"><ele>253.5</ele></trkpt>
   <trkpt lon="14.118657" lat="50.763317"><ele>259.5</ele></trkpt>
   <trkpt lon="14.118362" lat="50.763001"><ele>261.75</ele></trkpt>
   <trkpt lon="14.118301" lat="50.762941"><ele>262.25</ele></trkpt>
   <trkpt lon="14.117970" lat="50.762666"><ele>264.25</ele></trkpt>
   <trkpt lon="14.117777" lat="50.762529"><ele>265.0</ele></trkpt>
   <trkpt lon="14.117594" lat="50.762413"><ele>265.25</ele></trkpt>
   <trkpt lon="14.117299" lat="50.762242"><ele>265.25</ele></trkpt>
   <trkpt lon="14.117007" lat="50.762103"><ele>265.5</ele></trkpt>
   <trkpt lon="14.116691" lat="50.761975"><ele>265.75</ele></trkpt>
   <trkpt lon="14.116386" lat="50.761862"><ele>266.0</ele></trkpt>
   <trkpt lon="14.116135" lat="50.761784"><ele>266.25</ele></trkpt>
   <trkpt lon="14.115917" lat="50.761729"><ele>266.25</ele></trkpt>
   <trkpt lon="14.115356" lat="50.761600"><ele>266.75</ele></trkpt>
   <trkpt lon="14.113955" lat="50.761294"><ele>266.75</ele></trkpt>
   <trkpt lon="14.113711" lat="50.761240"><ele>266.5</ele></trkpt>
   <trkpt lon="14.113403" lat="50.761187"><ele>266.0</ele></trkpt>
   <trkpt lon="14.113070" lat="50.761145"><ele>267.25</ele></trkpt>
   <trkpt lon="14.112812" lat="50.761119"><ele>268.25</ele></trkpt>
   <trkpt lon="14.112083" lat="50.761074"><ele>270.75</ele></trkpt>
   <trkpt lon="14.111615" lat="50.761034"><ele>272.25</ele></trkpt>
   <trkpt lon="14.111360" lat="50.761004"><ele>272.75</ele></trkpt>
   <trkpt lon="14.111141" lat="50.760969"><ele>273.5</ele></trkpt>
   <trkpt lon="14.110904" lat="50.760922"><ele>274.0</ele></trkpt>
   <trkpt lon="14.110670" lat="50.760867"><ele>274.5</ele></trkpt>
   <trkpt lon="14.110486" lat="50.760816"><ele>275.0</ele></trkpt>
   <trkpt lon="14.110159" lat="50.760710"><ele>275.75</ele></trkpt>
   <trkpt lon="14.109885" lat="50.760609"><ele>276.0</ele></trkpt>
   <trkpt lon="14.109170" lat="50.760299"><ele>275.0</ele></trkpt>
   <trkpt lon="14.108938" lat="50.760213"><ele>274.75</ele></trkpt>
   <trkpt lon="14.108707" lat="50.760137"><ele>274.0</ele></trkpt>
   <trkpt lon="14.108535" lat="50.760088"><ele>273.5</ele></trkpt>
   <trkpt lon="14.108178" lat="50.760006"><ele>273.25</ele></trkpt>
   <trkpt lon="14.107921" lat="50.759958"><ele>274.25</ele></trkpt>
   <trkpt lon="14.107662" lat="50.759922"><ele>275.25</ele></trkpt>
   <trkpt lon="14.107480" lat="50.759903"><ele>275.75</ele></trkpt>
   <trkpt lon="14.107091" lat="50.759870"><ele>276.75</ele></trkpt>
   <trkpt lon="14.106701" lat="50.759831"><ele>277.75</ele></trkpt>
   <trkpt lon="14.105365" lat="50.759712"><ele>279.5</ele></trkpt>
   <trkpt lon="14.102775" lat="50.759478"><ele>281.0</ele></trkpt>
   <trkpt lon="14.102122" lat="50.759422"><ele>282.0</ele></trkpt>
   <trkpt lon="14.101806" lat="50.759405"><ele>282.25</ele></trkpt>
   <trkpt lon="14.101266" lat="50.759419"><ele>283.5</ele></trkpt>
   <trkpt lon="14.100903" lat="50.759458"><ele>284.0</ele></trkpt>
   <trkpt lon="14.100318" lat="50.759537"><ele>283.75</ele></trkpt>
   <trkpt lon="14.098982" lat="50.759746"><ele>284.75</ele></trkpt>
   <trkpt lon="14.098828" lat="50.759766"><ele>285.0</ele></trkpt>
   <trkpt lon="14.098460" lat="50.759828"><ele>285.0</ele></trkpt>
   <trkpt lon="14.097594" lat="50.759973"><ele>284.25</ele></trkpt>
   <trkpt lon="14.097182" lat="50.760049"><ele>284.25</ele></trkpt>
   <trkpt lon="14.097113" lat="50.760062"><ele>284.25</ele></trkpt>
   <trkpt lon="14.097067" lat="50.760071"><ele>284.25</ele></trkpt>
   <trkpt lon="14.096177" lat="50.760243"><ele>285.0</ele></trkpt>
   <trkpt lon="14.095892" lat="50.760292"><ele>285.75</ele></trkpt>
   <trkpt lon="14.095658" lat="50.760325"><ele>286.25</ele></trkpt>
   <trkpt lon="14.095367" lat="50.760356"><ele>287.0</ele></trkpt>
   <trkpt lon="14.095085" lat="50.760370"><ele>288.25</ele></trkpt>
   <trkpt lon="14.094844" lat="50.760374"><ele>288.25</ele></trkpt>
   <trkpt lon="14.094578" lat="50.760368"><ele>287.75</ele></trkpt>
   <trkpt lon="14.094325" lat="50.760350"><ele>287.75</ele></trkpt>
   <trkpt lon="14.094021" lat="50.760318"><ele>287.75</ele></trkpt>
   <trkpt lon="14.093829" lat="50.760280"><ele>288.0</ele></trkpt>
   <trkpt lon="14.093581" lat="50.760238"><ele>288.5</ele></trkpt>
   <trkpt lon="14.093326" lat="50.760174"><ele>289.25</ele></trkpt>
   <trkpt lon="14.092884" lat="50.760022"><ele>288.75</ele></trkpt>
   <trkpt lon="14.092501" lat="50.759862"><ele>289.0</ele></trkpt>
   <trkpt lon="14.092289" lat="50.759769"><ele>289.25</ele></trkpt>
   <trkpt lon="14.091419" lat="50.759362"><ele>293.0</ele></trkpt>
   <trkpt lon="14.091160" lat="50.759256"><ele>294.5</ele></trkpt>
   <trkpt lon="14.090910" lat="50.759169"><ele>296.0</ele></trkpt>
   <trkpt lon="14.090665" lat="50.759102"><ele>297.5</ele></trkpt>
   <trkpt lon="14.090190" lat="50.758991"><ele>300.0</ele></trkpt>
   <trkpt lon="14.089770" lat="50.758936"><ele>301.5</ele></trkpt>
   <trkpt lon="14.089558" lat="50.758918"><ele>302.25</ele></trkpt>
   <trkpt lon="14.089332" lat="50.758909"><ele>302.5</ele></trkpt>
   <trkpt lon="14.089078" lat="50.758907"><ele>302.75</ele></trkpt>
   <trkpt lon="14.088793" lat="50.758916"><ele>302.75</ele></trkpt>
   <trkpt lon="14.088215" lat="50.758957"><ele>301.75</ele></trkpt>
   <trkpt lon="14.086881" lat="50.759072"><ele>301.0</ele></trkpt>
   <trkpt lon="14.086552" lat="50.759087"><ele>300.75</ele></trkpt>
   <trkpt lon="14.086138" lat="50.759088"><ele>299.25</ele></trkpt>
   <trkpt lon="14.085614" lat="50.759055"><ele>298.0</ele></trkpt>
   <trkpt lon="14.085404" lat="50.759029"><ele>298.0</ele></trkpt>
   <trkpt lon="14.085030" lat="50.758965"><ele>298.0</ele></trkpt>
   <trkpt lon="14.084546" lat="50.758852"><ele>298.75</ele></trkpt>
   <trkpt lon="14.084178" lat="50.758755"><ele>299.75</ele></trkpt>
   <trkpt lon="14.084060" lat="50.758723"><ele>300.25</ele></trkpt>
   <trkpt lon="14.082767" lat="50.758371"><ele>305.75</ele></trkpt>
   <trkpt lon="14.082204" lat="50.758230"><ele>308.0</ele></trkpt>
   <trkpt lon="14.081582" lat="50.758037"><ele>311.25</ele></trkpt>
   <trkpt lon="14.081417" lat="50.757979"><ele>312.0</ele></trkpt>
   <trkpt lon="14.079329" lat="50.757251"><ele>312.0</ele></trkpt>
   <trkpt lon="14.077961" lat="50.756773"><ele>312.0</ele></trkpt>
   <trkpt lon="14.077681" lat="50.756673"><ele>312.25</ele></trkpt>
   <trkpt lon="14.076192" lat="50.756151"><ele>315.25</ele></trkpt>
   <trkpt lon="14.075661" lat="50.755972"><ele>317.0</ele></trkpt>
   <trkpt lon="14.075367" lat="50.755888"><ele>318.0</ele></trkpt>
   <trkpt lon="14.074832" lat="50.755761"><ele>319.75</ele></trkpt>
   <trkpt lon="14.074334" lat="50.755687"><ele>321.0</ele></trkpt>
   <trkpt lon="14.074084" lat="50.755658"><ele>321.25</ele></trkpt>
   <trkpt lon="14.073768" lat="50.755632"><ele>321.75</ele></trkpt>
   <trkpt lon="14.073655" lat="50.755624"><ele>321.75</ele></trkpt>
   <trkpt lon="14.073091" lat="50.755610"><ele>321.75</ele></trkpt>
   <trkpt lon="14.072773" lat="50.755620"><ele>321.25</ele></trkpt>
   <trkpt lon="14.072225" lat="50.755665"><ele>320.5</ele></trkpt>
   <trkpt lon="14.071072" lat="50.755811"><ele>322.0</ele></trkpt>
   <trkpt lon="14.070725" lat="50.755855"><ele>323.25</ele></trkpt>
   <trkpt lon="14.067040" lat="50.756317"><ele>326.25</ele></trkpt>
   <trkpt lon="14.065990" lat="50.756457"><ele>327.0</ele></trkpt>
   <trkpt lon="14.065864" lat="50.756472"><ele>327.25</ele></trkpt>
   <trkpt lon="14.063658" lat="50.756750"><ele>331.5</ele></trkpt>
   <trkpt lon="14.063552" lat="50.756763"><ele>331.75</ele></trkpt>
   <trkpt lon="14.062742" lat="50.756866"><ele>333.75</ele></trkpt>
   <trkpt lon="14.062657" lat="50.756874"><ele>334.0</ele></trkpt>
   <trkpt lon="14.061760" lat="50.756987"><ele>335.25</ele></trkpt>
   <trkpt lon="14.061451" lat="50.757013"><ele>335.25</ele></trkpt>
   <trkpt lon="14.061179" lat="50.757030"><ele>335.25</ele></trkpt>
   <trkpt lon="14.060920" lat="50.757039"><ele>335.5</ele></trkpt>
   <trkpt lon="14.060147" lat="50.757048"><ele>335.75</ele></trkpt>
   <trkpt lon="14.059956" lat="50.757045"><ele>336.0</ele></trkpt>
   <trkpt lon="14.059841" lat="50.757044"><ele>336.5</ele></trkpt>
   <trkpt lon="14.058186" lat="50.757028"><ele>340.75</ele></trkpt>
   <trkpt lon="14.051266" lat="50.756983"><ele>347.75</ele></trkpt>
   <trkpt lon="14.050985" lat="50.756980"><ele>348.25</ele></trkpt>
   <trkpt lon="14.050552" lat="50.756963"><ele>348.75</ele></trkpt>
   <trkpt lon="14.050326" lat="50.756944"><ele>349.0</ele></trkpt>
   <trkpt lon="14.049819" lat="50.756883"><ele>350.0</ele></trkpt>
   <trkpt lon="14.049298" lat="50.756791"><ele>351.0</ele></trkpt>
   <trkpt lon="14.048918" lat="50.756714"><ele>352.25</ele></trkpt>
   <trkpt lon="14.048550" lat="50.756641"><ele>353.25</ele></trkpt>
   <trkpt lon="14.047163" lat="50.756344"><ele>356.0</ele></trkpt>
   <trkpt lon="14.045787" lat="50.756028"><ele>357.5</ele></trkpt>
   <trkpt lon="14.042768" lat="50.755327"><ele>359.0</ele></trkpt>
   <trkpt lon="14.042308" lat="50.755222"><ele>359.0</ele></trkpt>
   <trkpt lon="14.041765" lat="50.755094"><ele>359.0</ele></trkpt>
   <trkpt lon="14.041215" lat="50.754941"><ele>358.75</ele></trkpt>
   <trkpt lon="14.040805" lat="50.754791"><ele>359.0</ele></trkpt>
   <trkpt lon="14.040550" lat="50.754674"><ele>359.75</ele></trkpt>
   <trkpt lon="14.040280" lat="50.754527"><ele>361.0</ele></trkpt>
   <trkpt lon="14.040020" lat="50.754366"><ele>362.0</ele></trkpt>
   <trkpt lon="14.039813" lat="50.754212"><ele>363.0</ele></trkpt>
   <trkpt lon="14.036509" lat="50.751504"><ele>368.5</ele></trkpt>
   <trkpt lon="14.036232" lat="50.751306"><ele>369.25</ele></trkpt>
   <trkpt lon="14.035978" lat="50.751141"><ele>370.0</ele></trkpt>
   <trkpt lon="14.035744" lat="50.750995"><ele>370.5</ele></trkpt>
   <trkpt lon="14.035416" lat="50.750816"><ele>371.5</ele></trkpt>
   <trkpt lon="14.035289" lat="50.750752"><ele>371.75</ele></trkpt>
   <trkpt lon="14.035218" lat="50.750716"><ele>372.0</ele></trkpt>
   <trkpt lon="14.034940" lat="50.750587"><ele>372.25</ele></trkpt>
   <trkpt lon="14.033894" lat="50.750133"><ele>371.75</ele></trkpt>
   <trkpt lon="14.031508" lat="50.749103"><ele>376.5</ele></trkpt>
   <trkpt lon="14.029946" lat="50.748431"><ele>381.25</ele></trkpt>
   <trkpt lon="14.027977" lat="50.747579"><ele>387.0</ele></trkpt>
   <trkpt lon="14.027605" lat="50.747389"><ele>387.75</ele></trkpt>
   <trkpt lon="14.027355" lat="50.747246"><ele>388.25</ele></trkpt>
   <trkpt lon="14.026903" lat="50.746962"><ele>389.75</ele></trkpt>
   <trkpt lon="14.026657" lat="50.746790"><ele>390.25</ele></trkpt>
   <trkpt lon="14.026230" lat="50.746439"><ele>392.0</ele></trkpt>
   <trkpt lon="14.026001" lat="50.746224"><ele>392.75</ele></trkpt>
   <trkpt lon="14.025816" lat="50.746029"><ele>393.5</ele></trkpt>
   <trkpt lon="14.025616" lat="50.745794"><ele>394.0</ele></trkpt>
   <trkpt lon="14.025426" lat="50.745533"><ele>394.25</ele></trkpt>
   <trkpt lon="14.025244" lat="50.745255"><ele>394.5</ele></trkpt>
   <trkpt lon="14.025044" lat="50.744856"><ele>395.5</ele></trkpt>
   <trkpt lon="14.024963" lat="50.744665"><ele>396.5</ele></trkpt>
   <trkpt lon="14.024884" lat="50.744454"><ele>397.75</ele></trkpt>
   <trkpt lon="14.024610" lat="50.743278"><ele>400.75</ele></trkpt>
   <trkpt lon="14.024343" lat="50.742271"><ele>399.0</ele></trkpt>
   <trkpt lon="14.024247" lat="50.741974"><ele>399.0</ele></trkpt>
   <trkpt lon="14.023999" lat="50.741002"><ele>399.0</ele></trkpt>
   <trkpt lon="14.023740" lat="50.739838"><ele>396.75</ele></trkpt>
   <trkpt lon="14.023279" lat="50.737671"><ele>395.0</ele></trkpt>
   <trkpt lon="14.022693" lat="50.735156"><ele>392.75</ele></trkpt>
   <trkpt lon="14.022615" lat="50.734841"><ele>392.75</ele></trkpt>
   <trkpt lon="14.022446" lat="50.734120"><ele>393.0</ele></trkpt>
   <trkpt lon="14.022317" lat="50.733650"><ele>393.0</ele></trkpt>
   <trkpt lon="14.022231" lat="50.733421"><ele>393.25</ele></trkpt>
   <trkpt lon="14.022131" lat="50.733197"><ele>393.5</ele></trkpt>
   <trkpt lon="14.021982" lat="50.732915"><ele>393.75</ele></trkpt>
   <trkpt lon="14.021806" lat="50.732645"><ele>394.5</ele></trkpt>
   <trkpt lon="14.021622" lat="50.732404"><ele>395.0</ele></trkpt>
   <trkpt lon="14.021428" lat="50.732174"><ele>395.0</ele></trkpt>
   <trkpt lon="14.021193" lat="50.731928"><ele>395.0</ele></trkpt>
   <trkpt lon="14.019343" lat="50.730142"><ele>396.25</ele></trkpt>
   <trkpt lon="14.016357" lat="50.727271"><ele>403.0</ele></trkpt>
   <trkpt lon="14.012532" lat="50.723574"><ele>390.75</ele></trkpt>
   <trkpt lon="14.012278" lat="50.723352"><ele>390.25</ele></trkpt>
   <trkpt lon="14.011983" lat="50.723109"><ele>388.5</ele></trkpt>
   <trkpt lon="14.011195" lat="50.722511"><ele>385.75</ele></trkpt>
   <trkpt lon="14.010800" lat="50.722189"><ele>385.25</ele></trkpt>
   <trkpt lon="14.010604" lat="50.722003"><ele>385.25</ele></trkpt>
   <trkpt lon="14.010439" lat="50.721825"><ele>385.5</ele></trkpt>
   <trkpt lon="14.010139" lat="50.721480"><ele>385.25</ele></trkpt>
   <trkpt lon="14.009629" lat="50.720870"><ele>384.25</ele></trkpt>
   <trkpt lon="14.009263" lat="50.720511"><ele>386.0</ele></trkpt>
   <trkpt lon="14.009008" lat="50.720303"><ele>387.0</ele></trkpt>
   <trkpt lon="14.008737" lat="50.720115"><ele>388.0</ele></trkpt>
   <trkpt lon="14.008596" lat="50.720027"><ele>388.5</ele></trkpt>
   <trkpt lon="14.008407" lat="50.719918"><ele>389.5</ele></trkpt>
   <trkpt lon="14.008105" lat="50.719760"><ele>390.0</ele></trkpt>
   <trkpt lon="14.007846" lat="50.719643"><ele>389.75</ele></trkpt>
   <trkpt lon="14.007432" lat="50.719479"><ele>389.0</ele></trkpt>
   <trkpt lon="14.007003" lat="50.719338"><ele>388.25</ele></trkpt>
   <trkpt lon="14.006636" lat="50.719235"><ele>387.25</ele></trkpt>
   <trkpt lon="14.006217" lat="50.719143"><ele>385.5</ele></trkpt>
   <trkpt lon="14.005814" lat="50.719065"><ele>383.5</ele></trkpt>
   <trkpt lon="14.005364" lat="50.719001"><ele>382.25</ele></trkpt>
   <trkpt lon="14.004895" lat="50.718956"><ele>380.75</ele></trkpt>
   <trkpt lon="14.004343" lat="50.718931"><ele>379.25</ele></trkpt>
   <trkpt lon="14.003860" lat="50.718932"><ele>378.25</ele></trkpt>
   <trkpt lon="14.003543" lat="50.718947"><ele>378.0</ele></trkpt>
   <trkpt lon="14.003224" lat="50.718967"><ele>378.25</ele></trkpt>
   <trkpt lon="14.002755" lat="50.719016"><ele>380.0</ele></trkpt>
   <trkpt lon="14.002149" lat="50.719119"><ele>383.0</ele></trkpt>
   <trkpt lon="14.001491" lat="50.719251"><ele>384.75</ele></trkpt>
   <trkpt lon="13.997153" lat="50.720169"><ele>375.5</ele></trkpt>
   <trkpt lon="13.995524" lat="50.720512"><ele>374.5</ele></trkpt>
   <trkpt lon="13.993825" lat="50.720862"><ele>375.0</ele></trkpt>
   <trkpt lon="13.993348" lat="50.720944"><ele>375.75</ele></trkpt>
   <trkpt lon="13.993086" lat="50.720983"><ele>376.0</ele></trkpt>
   <trkpt lon="13.992798" lat="50.721016"><ele>376.25</ele></trkpt>
   <trkpt lon="13.992249" lat="50.721069"><ele>376.25</ele></trkpt>
   <trkpt lon="13.991672" lat="50.721090"><ele>376.25</ele></trkpt>
   <trkpt lon="13.991119" lat="50.721091"><ele>376.0</ele></trkpt>
   <trkpt lon="13.988746" lat="50.721051"><ele>375.5</ele></trkpt>
   <trkpt lon="13.983216" lat="50.720964"><ele>372.25</ele></trkpt>
   <trkpt lon="13.982728" lat="50.720964"><ele>371.25</ele></trkpt>
   <trkpt lon="13.982510" lat="50.720968"><ele>370.75</ele></trkpt>
   <trkpt lon="13.981952" lat="50.720999"><ele>369.75</ele></trkpt>
   <trkpt lon="13.981707" lat="50.721019"><ele>369.25</ele></trkpt>
   <trkpt lon="13.981500" lat="50.721044"><ele>369.0</ele></trkpt>
   <trkpt lon="13.980808" lat="50.721138"><ele>368.5</ele></trkpt>
   <trkpt lon="13.980503" lat="50.721196"><ele>368.75</ele></trkpt>
   <trkpt lon="13.979966" lat="50.721322"><ele>369.5</ele></trkpt>
   <trkpt lon="13.979528" lat="50.721443"><ele>369.25</ele></trkpt>
   <trkpt lon="13.979118" lat="50.721575"><ele>369.0</ele></trkpt>
   <trkpt lon="13.978812" lat="50.721689"><ele>369.25</ele></trkpt>
   <trkpt lon="13.978488" lat="50.721817"><ele>369.5</ele></trkpt>
   <trkpt lon="13.978214" lat="50.721940"><ele>370.0</ele></trkpt>
   <trkpt lon="13.977794" lat="50.722147"><ele>370.5</ele></trkpt>
   <trkpt lon="13.976606" lat="50.722788"><ele>371.0</ele></trkpt>
   <trkpt lon="13.976527" lat="50.722831"><ele>371.0</ele></trkpt>
   <trkpt lon="13.972084" lat="50.725234"><ele>365.75</ele></trkpt>
   <trkpt lon="13.970938" lat="50.725847"><ele>366.5</ele></trkpt>
   <trkpt lon="13.970727" lat="50.725954"><ele>366.75</ele></trkpt>
   <trkpt lon="13.970520" lat="50.726046"><ele>367.0</ele></trkpt>
   <trkpt lon="13.970088" lat="50.726221"><ele>367.25</ele></trkpt>
   <trkpt lon="13.969830" lat="50.726319"><ele>367.25</ele></trkpt>
   <trkpt lon="13.969591" lat="50.726401"><ele>367.0</ele></trkpt>
   <trkpt lon="13.969145" lat="50.726535"><ele>366.25</ele></trkpt>
   <trkpt lon="13.968940" lat="50.726588"><ele>366.0</ele></trkpt>
   <trkpt lon="13.968603" lat="50.726670"><ele>365.25</ele></trkpt>
   <trkpt lon="13.968307" lat="50.726734"><ele>364.25</ele></trkpt>
   <trkpt lon="13.967799" lat="50.726818"><ele>362.5</ele></trkpt>
   <trkpt lon="13.967554" lat="50.726849"><ele>361.75</ele></trkpt>
   <trkpt lon="13.967073" lat="50.726888"><ele>360.0</ele></trkpt>
   <trkpt lon="13.966636" lat="50.726917"><ele>358.5</ele></trkpt>
   <trkpt lon="13.965933" lat="50.726958"><ele>358.75</ele></trkpt>
   <trkpt lon="13.965674" lat="50.726966"><ele>358.75</ele></trkpt>
   <trkpt lon="13.965332" lat="50.726960"><ele>358.75</ele></trkpt>
   <trkpt lon="13.965008" lat="50.726947"><ele>358.5</ele></trkpt>
   <trkpt lon="13.964559" lat="50.726919"><ele>358.5</ele></trkpt>
   <trkpt lon="13.964199" lat="50.726876"><ele>358.0</ele></trkpt>
  </trkseg>
 </trk>
</gpx>
