<?xml version="1.0" encoding="UTF-8"?>
<!-- track-length = 30750 filtered ascend = 65 plain-ascend = 15 cost=30750 energy=0.4kwh time=41m  -->
<gpx 
 xmlns="http://www.topografix.com/GPX/1/1" 
 xmlns:xsi="http://www.w3.org/2001/XMLSchema-instance" 
 xsi:schemaLocation="http://www.topografix.com/GPX/1/1 http://www.topografix.com/GPX/1/1/gpx.xsd" 
 version="1.1" 
 creator="BRouter-Web 0.18.1">
 <trk>
  <name>Decin - Usti n.L. zapad</name>
  <trkseg>
   <trkpt lat="50.772747" lon="14.201015"><ele>132.25</ele></trkpt>
   <trkpt lat="50.773503" lon="14.201341"><ele>133.75</ele></trkpt>
   <trkpt lat="50.774099" lon="14.201595"><ele>134</ele></trkpt>
   <trkpt lat="50.774624" lon="14.201814"><ele>134.25</ele></trkpt>
   <trkpt lat="50.774707" lon="14.201844"><ele>134.25</ele></trkpt>
   <trkpt lat="50.775155" lon="14.202046"><ele>134.25</ele></trkpt>
   <trkpt lat="50.775204" lon="14.202066"><ele>134.25</ele></trkpt>
   <trkpt lat="50.775385" lon="14.202153"><ele>134</ele></trkpt>
   <trkpt lat="50.77548" lon="14.202212"><ele>134</ele></trkpt>
   <trkpt lat="50.775573" lon="14.20229"><ele>134</ele></trkpt>
   <trkpt lat="50.775727" lon="14.202454"><ele>133.75</ele></trkpt>
   <trkpt lat="50.775744" lon="14.202474"><ele>133.5</ele></trkpt>
   <trkpt lat="50.775828" lon="14.202587"><ele>133.5</ele></trkpt>
   <trkpt lat="50.775907" lon="14.202713"><ele>133.25</ele></trkpt>
   <trkpt lat="50.776003" lon="14.202885"><ele>133.25</ele></trkpt>
   <trkpt lat="50.776049" lon="14.202984"><ele>133</ele></trkpt>
   <trkpt lat="50.776108" lon="14.203136"><ele>133</ele></trkpt>
   <trkpt lat="50.776169" lon="14.203318"><ele>132.75</ele></trkpt>
   <trkpt lat="50.776209" lon="14.203463"><ele>132.75</ele></trkpt>
   <trkpt lat="50.776277" lon="14.203795"><ele>132.5</ele></trkpt>
   <trkpt lat="50.776316" lon="14.204134"><ele>132.25</ele></trkpt>
   <trkpt lat="50.776325" lon="14.20432"><ele>132</ele></trkpt>
   <trkpt lat="50.776361" lon="14.206516"><ele>130.5</ele></trkpt>
   <trkpt lat="50.776359" lon="14.206804"><ele>130.25</ele></trkpt>
   <trkpt lat="50.776349" lon="14.20702"><ele>130</ele></trkpt>
   <trkpt lat="50.776314" lon="14.207446"><ele>129.75</ele></trkpt>
   <trkpt lat="50.776292" lon="14.207633"><ele>129.75</ele></trkpt>
   <trkpt lat="50.776226" lon="14.208053"><ele>129.75</ele></trkpt>
   <trkpt lat="50.776185" lon="14.20825"><ele>130</ele></trkpt>
   <trkpt lat="50.776136" lon="14.208434"><ele>130.25</ele></trkpt>
   <trkpt lat="50.776019" lon="14.208754"><ele>130</ele></trkpt>
   <trkpt lat="50.775813" lon="14.209262"><ele>129.75</ele></trkpt>
   <trkpt lat="50.77577" lon="14.20939"><ele>129.5</ele></trkpt>
   <trkpt lat="50.775689" lon="14.209657"><ele>129.5</ele></trkpt>
   <trkpt lat="50.775632" lon="14.209889"><ele>129.5</ele></trkpt>
   <trkpt lat="50.77559" lon="14.210098"><ele>129.5</ele></trkpt>
   <trkpt lat="50.775558" lon="14.210298"><ele>129.75</ele></trkpt>
   <trkpt lat="50.775532" lon="14.210526"><ele>130</ele></trkpt>
   <trkpt lat="50.775509" lon="14.210979"><ele>130.5</ele></trkpt>
   <trkpt lat="50.775512" lon="14.211204"><ele>130.75</ele></trkpt>
   <trkpt lat="50.775524" lon="14.211418"><ele>131.25</ele></trkpt>
   <trkpt lat="50.775545" lon="14.211643"><ele>131.5</ele></trkpt>
   <trkpt lat="50.77561" lon="14.21207"><ele>131.5</ele></trkpt>
   <trkpt lat="50.775693" lon="14.212457"><ele>131.5</ele></trkpt>
   <trkpt lat="50.775872" lon="14.213288"><ele>131.5</ele></trkpt>
   <trkpt lat="50.775977" lon="14.21371"><ele>131.75</ele></trkpt>
   <trkpt lat="50.776078" lon="14.214012"><ele>131.75</ele></trkpt>
   <trkpt lat="50.776201" lon="14.214297"><ele>132.25</ele></trkpt>
   <trkpt lat="50.776301" lon="14.214505"><ele>132.5</ele></trkpt>
   <trkpt lat="50.77672" lon="14.215249"><ele>133</ele></trkpt>
   <trkpt lat="50.776862" lon="14.21555"><ele>133</ele></trkpt>
   <trkpt lat="50.777019" lon="14.215952"><ele>133.5</ele></trkpt>
   <trkpt lat="50.777081" lon="14.216153"><ele>133.75</ele></trkpt>
   <trkpt lat="50.777134" lon="14.216351"><ele>134</ele></trkpt>
   <trkpt lat="50.777211" lon="14.216717"><ele>134.5</ele></trkpt>
   <trkpt lat="50.777247" lon="14.216941"><ele>134.75</ele></trkpt>
   <trkpt lat="50.777292" lon="14.217365"><ele>135.25</ele></trkpt>
   <trkpt lat="50.777305" lon="14.217654"><ele>135.5</ele></trkpt>
   <trkpt lat="50.777308" lon="14.217864"><ele>135.75</ele></trkpt>
   <trkpt lat="50.777293" lon="14.218284"><ele>136</ele></trkpt>
   <trkpt lat="50.77726" lon="14.218646"><ele>136.5</ele></trkpt>
   <trkpt lat="50.777234" lon="14.218845"><ele>136.5</ele></trkpt>
   <trkpt lat="50.777198" lon="14.219048"><ele>136.75</ele></trkpt>
   <trkpt lat="50.777155" lon="14.219243"><ele>136.75</ele></trkpt>
   <trkpt lat="50.777119" lon="14.219372"><ele>137</ele></trkpt>
   <trkpt lat="50.77711" lon="14.219406"><ele>137</ele></trkpt>
   <trkpt lat="50.777012" lon="14.219692"><ele>137</ele></trkpt>
   <trkpt lat="50.77699" lon="14.21975"><ele>137</ele></trkpt>
   <trkpt lat="50.77679" lon="14.220251"><ele>137</ele></trkpt>
   <trkpt lat="50.776569" lon="14.22081"><ele>137.5</ele></trkpt>
   <trkpt lat="50.776507" lon="14.220944"><ele>137.75</ele></trkpt>
   <trkpt lat="50.77644" lon="14.221084"><ele>138</ele></trkpt>
   <trkpt lat="50.776371" lon="14.221215"><ele>138.25</ele></trkpt>
   <trkpt lat="50.775125" lon="14.223377"><ele>138.25</ele></trkpt>
   <trkpt lat="50.775083" lon="14.22345"><ele>138.25</ele></trkpt>
   <trkpt lat="50.774979" lon="14.223627"><ele>138.25</ele></trkpt>
   <trkpt lat="50.77403" lon="14.225281"><ele>139.75</ele></trkpt>
   <trkpt lat="50.773679" lon="14.225899"><ele>139.25</ele></trkpt>
   <trkpt lat="50.773567" lon="14.226147"><ele>139.25</ele></trkpt>
   <trkpt lat="50.773517" lon="14.226278"><ele>139</ele></trkpt>
   <trkpt lat="50.773457" lon="14.226451"><ele>139</ele></trkpt>
   <trkpt lat="50.77335" lon="14.226818"><ele>139</ele></trkpt>
   <trkpt lat="50.773266" lon="14.227156"><ele>139</ele></trkpt>
   <trkpt lat="50.773078" lon="14.228071"><ele>139.25</ele></trkpt>
   <trkpt lat="50.772893" lon="14.228969"><ele>139.25</ele></trkpt>
   <trkpt lat="50.772436" lon="14.231214"><ele>140.25</ele></trkpt>
   <trkpt lat="50.772384" lon="14.231505"><ele>140.75</ele></trkpt>
   <trkpt lat="50.772355" lon="14.231732"><ele>141</ele></trkpt>
   <trkpt lat="50.772318" lon="14.232115"><ele>141</ele></trkpt>
   <trkpt lat="50.772282" lon="14.232397"><ele>141</ele></trkpt>
   <trkpt lat="50.772253" lon="14.232563"><ele>141</ele></trkpt>
   <trkpt lat="50.772181" lon="14.232859"><ele>141.25</ele></trkpt>
   <trkpt lat="50.772095" lon="14.233127"><ele>141.75</ele></trkpt>
   <trkpt lat="50.771971" lon="14.233435"><ele>142</ele></trkpt>
   <trkpt lat="50.771915" lon="14.233551"><ele>142.25</ele></trkpt>
   <trkpt lat="50.771712" lon="14.233921"><ele>142.5</ele></trkpt>
   <trkpt lat="50.771619" lon="14.234061"><ele>142.75</ele></trkpt>
   <trkpt lat="50.771405" lon="14.234348"><ele>143</ele></trkpt>
   <trkpt lat="50.771308" lon="14.234456"><ele>143.25</ele></trkpt>
   <trkpt lat="50.771115" lon="14.234633"><ele>143.5</ele></trkpt>
   <trkpt lat="50.771001" lon="14.234721"><ele>143.5</ele></trkpt>
   <trkpt lat="50.770752" lon="14.234873"><ele>144</ele></trkpt>
   <trkpt lat="50.770632" lon="14.234931"><ele>144.25</ele></trkpt>
   <trkpt lat="50.77051" lon="14.234971"><ele>144.5</ele></trkpt>
   <trkpt lat="50.770303" lon="14.235015"><ele>145.25</ele></trkpt>
   <trkpt lat="50.770122" lon="14.235029"><ele>145.75</ele></trkpt>
   <trkpt lat="50.769902" lon="14.235009"><ele>145.5</ele></trkpt>
   <trkpt lat="50.769774" lon="14.23498"><ele>145</ele></trkpt>
   <trkpt lat="50.769575" lon="14.234909"><ele>144.25</ele></trkpt>
   <trkpt lat="50.769383" lon="14.234809"><ele>143.25</ele></trkpt>
   <trkpt lat="50.769168" lon="14.234656"><ele>142.5</ele></trkpt>
   <trkpt lat="50.769071" lon="14.234575"><ele>142.25</ele></trkpt>
   <trkpt lat="50.768869" lon="14.234366"><ele>142</ele></trkpt>
   <trkpt lat="50.768733" lon="14.234194"><ele>142</ele></trkpt>
   <trkpt lat="50.768604" lon="14.234012"><ele>141.75</ele></trkpt>
   <trkpt lat="50.768438" lon="14.233735"><ele>141.75</ele></trkpt>
   <trkpt lat="50.768279" lon="14.233403"><ele>141.75</ele></trkpt>
   <trkpt lat="50.768141" lon="14.233055"><ele>141.75</ele></trkpt>
   <trkpt lat="50.768043" lon="14.232713"><ele>142</ele></trkpt>
   <trkpt lat="50.767946" lon="14.232267"><ele>142.5</ele></trkpt>
   <trkpt lat="50.767901" lon="14.231877"><ele>142.75</ele></trkpt>
   <trkpt lat="50.767876" lon="14.231501"><ele>144</ele></trkpt>
   <trkpt lat="50.767874" lon="14.231133"><ele>146</ele></trkpt>
   <trkpt lat="50.767891" lon="14.230854"><ele>147.5</ele></trkpt>
   <trkpt lat="50.767916" lon="14.230609"><ele>148.25</ele></trkpt>
   <trkpt lat="50.767949" lon="14.230378"><ele>149</ele></trkpt>
   <trkpt lat="50.767986" lon="14.230174"><ele>149.75</ele></trkpt>
   <trkpt lat="50.768034" lon="14.229956"><ele>150</ele></trkpt>
   <trkpt lat="50.76809" lon="14.229741"><ele>150</ele></trkpt>
   <trkpt lat="50.768152" lon="14.229549"><ele>149.75</ele></trkpt>
   <trkpt lat="50.768226" lon="14.22934"><ele>149.5</ele></trkpt>
   <trkpt lat="50.768377" lon="14.228969"><ele>148.5</ele></trkpt>
   <trkpt lat="50.76907" lon="14.227549"><ele>145.25</ele></trkpt>
   <trkpt lat="50.769217" lon="14.227163"><ele>145</ele></trkpt>
   <trkpt lat="50.769296" lon="14.226911"><ele>144.75</ele></trkpt>
   <trkpt lat="50.769416" lon="14.226419"><ele>144</ele></trkpt>
   <trkpt lat="50.769491" lon="14.225933"><ele>142.5</ele></trkpt>
   <trkpt lat="50.769531" lon="14.225441"><ele>141.75</ele></trkpt>
   <trkpt lat="50.769537" lon="14.225196"><ele>141.25</ele></trkpt>
   <trkpt lat="50.76954" lon="14.225049"><ele>141.25</ele></trkpt>
   <trkpt lat="50.769537" lon="14.224921"><ele>141</ele></trkpt>
   <trkpt lat="50.769519" lon="14.224658"><ele>141</ele></trkpt>
   <trkpt lat="50.769491" lon="14.224377"><ele>141.25</ele></trkpt>
   <trkpt lat="50.769458" lon="14.22413"><ele>141.25</ele></trkpt>
   <trkpt lat="50.769414" lon="14.223891"><ele>141.25</ele></trkpt>
   <trkpt lat="50.769288" lon="14.223335"><ele>141.5</ele></trkpt>
   <trkpt lat="50.769042" lon="14.222282"><ele>142.75</ele></trkpt>
   <trkpt lat="50.768961" lon="14.221939"><ele>143</ele></trkpt>
   <trkpt lat="50.76821" lon="14.21875"><ele>145.75</ele></trkpt>
   <trkpt lat="50.768001" lon="14.217897"><ele>146.25</ele></trkpt>
   <trkpt lat="50.767914" lon="14.217584"><ele>146</ele></trkpt>
   <trkpt lat="50.767809" lon="14.217238"><ele>146</ele></trkpt>
   <trkpt lat="50.767702" lon="14.216932"><ele>145.75</ele></trkpt>
   <trkpt lat="50.767588" lon="14.21663"><ele>145.5</ele></trkpt>
   <trkpt lat="50.76746" lon="14.216315"><ele>145.5</ele></trkpt>
   <trkpt lat="50.767329" lon="14.216031"><ele>146</ele></trkpt>
   <trkpt lat="50.767188" lon="14.215745"><ele>146.25</ele></trkpt>
   <trkpt lat="50.767045" lon="14.21549"><ele>146.75</ele></trkpt>
   <trkpt lat="50.766865" lon="14.215189"><ele>147.25</ele></trkpt>
   <trkpt lat="50.766677" lon="14.214896"><ele>147.25</ele></trkpt>
   <trkpt lat="50.76655" lon="14.214706"><ele>147</ele></trkpt>
   <trkpt lat="50.766401" lon="14.214507"><ele>147</ele></trkpt>
   <trkpt lat="50.766393" lon="14.214495"><ele>147</ele></trkpt>
   <trkpt lat="50.766095" lon="14.214143"><ele>146</ele></trkpt>
   <trkpt lat="50.765197" lon="14.21314"><ele>143.5</ele></trkpt>
   <trkpt lat="50.765146" lon="14.213082"><ele>143.5</ele></trkpt>
   <trkpt lat="50.762869" lon="14.210586"><ele>145</ele></trkpt>
   <trkpt lat="50.762794" lon="14.210504"><ele>144.75</ele></trkpt>
   <trkpt lat="50.760791" lon="14.208306"><ele>143.25</ele></trkpt>
   <trkpt lat="50.760739" lon="14.208248"><ele>143.5</ele></trkpt>
   <trkpt lat="50.758711" lon="14.20601"><ele>146</ele></trkpt>
   <trkpt lat="50.758671" lon="14.205966"><ele>146</ele></trkpt>
   <trkpt lat="50.758504" lon="14.205778"><ele>145.75</ele></trkpt>
   <trkpt lat="50.758105" lon="14.20534"><ele>145</ele></trkpt>
   <trkpt lat="50.75761" lon="14.204764"><ele>144.5</ele></trkpt>
   <trkpt lat="50.757046" lon="14.204176"><ele>145</ele></trkpt>
   <trkpt lat="50.756764" lon="14.203865"><ele>145</ele></trkpt>
   <trkpt lat="50.756588" lon="14.203665"><ele>144.75</ele></trkpt>
   <trkpt lat="50.756184" lon="14.203169"><ele>144</ele></trkpt>
   <trkpt lat="50.755771" lon="14.202592"><ele>142.75</ele></trkpt>
   <trkpt lat="50.755388" lon="14.202004"><ele>142.75</ele></trkpt>
   <trkpt lat="50.755008" lon="14.201342"><ele>143</ele></trkpt>
   <trkpt lat="50.754631" lon="14.200686"><ele>142.5</ele></trkpt>
   <trkpt lat="50.752707" lon="14.197336"><ele>140.5</ele></trkpt>
   <trkpt lat="50.752581" lon="14.197113"><ele>140.25</ele></trkpt>
   <trkpt lat="50.752342" lon="14.196702"><ele>139.5</ele></trkpt>
   <trkpt lat="50.752071" lon="14.196285"><ele>139.75</ele></trkpt>
   <trkpt lat="50.751779" lon="14.195928"><ele>139.75</ele></trkpt>
   <trkpt lat="50.751475" lon="14.195628"><ele>139.5</ele></trkpt>
   <trkpt lat="50.75113" lon="14.195343"><ele>138.75</ele></trkpt>
   <trkpt lat="50.750111" lon="14.194559"><ele>138.25</ele></trkpt>
   <trkpt lat="50.749654" lon="14.194207"><ele>139.25</ele></trkpt>
   <trkpt lat="50.749351" lon="14.193933"><ele>140</ele></trkpt>
   <trkpt lat="50.749043" lon="14.193594"><ele>140.5</ele></trkpt>
   <trkpt lat="50.748758" lon="14.193191"><ele>140.5</ele></trkpt>
   <trkpt lat="50.748499" lon="14.192748"><ele>139.5</ele></trkpt>
   <trkpt lat="50.748279" lon="14.192266"><ele>138.5</ele></trkpt>
   <trkpt lat="50.748053" lon="14.191718"><ele>138.25</ele></trkpt>
   <trkpt lat="50.747746" lon="14.190897"><ele>137.25</ele></trkpt>
   <trkpt lat="50.747529" lon="14.190357"><ele>136.75</ele></trkpt>
   <trkpt lat="50.747294" lon="14.189855"><ele>136</ele></trkpt>
   <trkpt lat="50.747048" lon="14.189439"><ele>135.5</ele></trkpt>
   <trkpt lat="50.746759" lon="14.189027"><ele>135.25</ele></trkpt>
   <trkpt lat="50.746599" lon="14.188843"><ele>135.5</ele></trkpt>
   <trkpt lat="50.746444" lon="14.188677"><ele>135.75</ele></trkpt>
   <trkpt lat="50.746286" lon="14.18852"><ele>136.25</ele></trkpt>
   <trkpt lat="50.746052" lon="14.188335"><ele>136.75</ele></trkpt>
   <trkpt lat="50.745952" lon="14.188269"><ele>137.25</ele></trkpt>
   <trkpt lat="50.745631" lon="14.188077"><ele>137.25</ele></trkpt>
   <trkpt lat="50.745476" lon="14.188003"><ele>137</ele></trkpt>
   <trkpt lat="50.745118" lon="14.187878"><ele>136.25</ele></trkpt>
   <trkpt lat="50.74487" lon="14.187835"><ele>136</ele></trkpt>
   <trkpt lat="50.744716" lon="14.187818"><ele>136</ele></trkpt>
   <trkpt lat="50.744382" lon="14.187815"><ele>136</ele></trkpt>
   <trkpt lat="50.743998" lon="14.187856"><ele>136.25</ele></trkpt>
   <trkpt lat="50.7435" lon="14.187928"><ele>137.25</ele></trkpt>
   <trkpt lat="50.742672" lon="14.18805"><ele>137.5</ele></trkpt>
   <trkpt lat="50.742588" lon="14.188062"><ele>137.5</ele></trkpt>
   <trkpt lat="50.741986" lon="14.188148"><ele>138.75</ele></trkpt>
   <trkpt lat="50.741186" lon="14.188256"><ele>139.75</ele></trkpt>
   <trkpt lat="50.740799" lon="14.188283"><ele>139.75</ele></trkpt>
   <trkpt lat="50.740326" lon="14.188243"><ele>138.5</ele></trkpt>
   <trkpt lat="50.740246" lon="14.188229"><ele>138.5</ele></trkpt>
   <trkpt lat="50.740032" lon="14.188192"><ele>137.75</ele></trkpt>
   <trkpt lat="50.739748" lon="14.188122"><ele>137.5</ele></trkpt>
   <trkpt lat="50.739692" lon="14.188108"><ele>137.5</ele></trkpt>
   <trkpt lat="50.739126" lon="14.188043"><ele>137.5</ele></trkpt>
   <trkpt lat="50.739034" lon="14.188015"><ele>137.5</ele></trkpt>
   <trkpt lat="50.738409" lon="14.187793"><ele>137.5</ele></trkpt>
   <trkpt lat="50.738285" lon="14.187764"><ele>137.5</ele></trkpt>
   <trkpt lat="50.737977" lon="14.187656"><ele>137.75</ele></trkpt>
   <trkpt lat="50.737807" lon="14.187587"><ele>137.75</ele></trkpt>
   <trkpt lat="50.737667" lon="14.187552"><ele>137.75</ele></trkpt>
   <trkpt lat="50.737435" lon="14.187496"><ele>137.75</ele></trkpt>
   <trkpt lat="50.736957" lon="14.187424"><ele>137.25</ele></trkpt>
   <trkpt lat="50.736471" lon="14.187403"><ele>136.5</ele></trkpt>
   <trkpt lat="50.736011" lon="14.187435"><ele>136</ele></trkpt>
   <trkpt lat="50.735493" lon="14.187513"><ele>136</ele></trkpt>
   <trkpt lat="50.733543" lon="14.187839"><ele>135.25</ele></trkpt>
   <trkpt lat="50.732991" lon="14.187943"><ele>135</ele></trkpt>
   <trkpt lat="50.733219" lon="14.187841"><ele>135</ele></trkpt>
   <trkpt lat="50.733531" lon="14.187695"><ele>134.75</ele></trkpt>
   <trkpt lat="50.733705" lon="14.187613"><ele>134.75</ele></trkpt>
   <trkpt lat="50.733974" lon="14.187483"><ele>134.5</ele></trkpt>
   <trkpt lat="50.734251" lon="14.187425"><ele>134.75</ele></trkpt>
   <trkpt lat="50.73464" lon="14.187422"><ele>135.25</ele></trkpt>
   <trkpt lat="50.735485" lon="14.187282"><ele>135.5</ele></trkpt>
   <trkpt lat="50.736209" lon="14.187181"><ele>136</ele></trkpt>
   <trkpt lat="50.736244" lon="14.18718"><ele>136.5</ele></trkpt>
   <trkpt lat="50.736209" lon="14.187181"><ele>136</ele></trkpt>
   <trkpt lat="50.735485" lon="14.187282"><ele>135.5</ele></trkpt>
   <trkpt lat="50.73464" lon="14.187422"><ele>135.25</ele></trkpt>
   <trkpt lat="50.734251" lon="14.187425"><ele>134.75</ele></trkpt>
   <trkpt lat="50.733974" lon="14.187483"><ele>134.5</ele></trkpt>
   <trkpt lat="50.733705" lon="14.187613"><ele>134.75</ele></trkpt>
   <trkpt lat="50.733531" lon="14.187695"><ele>134.75</ele></trkpt>
   <trkpt lat="50.733219" lon="14.187841"><ele>135</ele></trkpt>
   <trkpt lat="50.732991" lon="14.187943"><ele>135</ele></trkpt>
   <trkpt lat="50.732721" lon="14.188038"><ele>135</ele></trkpt>
   <trkpt lat="50.732547" lon="14.18807"><ele>135</ele></trkpt>
   <trkpt lat="50.732227" lon="14.188155"><ele>135.25</ele></trkpt>
   <trkpt lat="50.731911" lon="14.188177"><ele>135.25</ele></trkpt>
   <trkpt lat="50.731869" lon="14.188185"><ele>135.25</ele></trkpt>
   <trkpt lat="50.731431" lon="14.188263"><ele>135</ele></trkpt>
   <trkpt lat="50.731228" lon="14.188329"><ele>134.75</ele></trkpt>
   <trkpt lat="50.731033" lon="14.188402"><ele>134.5</ele></trkpt>
   <trkpt lat="50.73095" lon="14.188442"><ele>134.5</ele></trkpt>
   <trkpt lat="50.730867" lon="14.188481"><ele>134.5</ele></trkpt>
   <trkpt lat="50.730804" lon="14.188517"><ele>134.5</ele></trkpt>
   <trkpt lat="50.730717" lon="14.188569"><ele>134.5</ele></trkpt>
   <trkpt lat="50.730321" lon="14.188831"><ele>135.25</ele></trkpt>
   <trkpt lat="50.729954" lon="14.189097"><ele>136.25</ele></trkpt>
   <trkpt lat="50.729592" lon="14.189333"><ele>137</ele></trkpt>
   <trkpt lat="50.729233" lon="14.189508"><ele>137.5</ele></trkpt>
   <trkpt lat="50.72888" lon="14.189632"><ele>137.75</ele></trkpt>
   <trkpt lat="50.727926" lon="14.189938"><ele>138</ele></trkpt>
   <trkpt lat="50.727728" lon="14.190002"><ele>138.25</ele></trkpt>
   <trkpt lat="50.726707" lon="14.190342"><ele>137.25</ele></trkpt>
   <trkpt lat="50.726345" lon="14.190436"><ele>137.75</ele></trkpt>
   <trkpt lat="50.72609" lon="14.190472"><ele>138</ele></trkpt>
   <trkpt lat="50.725976" lon="14.190492"><ele>138.25</ele></trkpt>
   <trkpt lat="50.72508" lon="14.190586"><ele>144.75</ele></trkpt>
   <trkpt lat="50.724887" lon="14.190622"><ele>146</ele></trkpt>
   <trkpt lat="50.72471" lon="14.190666"><ele>146.75</ele></trkpt>
   <trkpt lat="50.724521" lon="14.190725"><ele>147.75</ele></trkpt>
   <trkpt lat="50.724341" lon="14.1908"><ele>149.25</ele></trkpt>
   <trkpt lat="50.724156" lon="14.190893"><ele>151</ele></trkpt>
   <trkpt lat="50.72398" lon="14.190996"><ele>151</ele></trkpt>
   <trkpt lat="50.723723" lon="14.19118"><ele>150.25</ele></trkpt>
   <trkpt lat="50.723611" lon="14.19127"><ele>150</ele></trkpt>
   <trkpt lat="50.723425" lon="14.191442"><ele>149.5</ele></trkpt>
   <trkpt lat="50.723199" lon="14.191678"><ele>148.75</ele></trkpt>
   <trkpt lat="50.723088" lon="14.191815"><ele>148.5</ele></trkpt>
   <trkpt lat="50.72283" lon="14.19218"><ele>148.5</ele></trkpt>
   <trkpt lat="50.722618" lon="14.192538"><ele>146.75</ele></trkpt>
   <trkpt lat="50.722029" lon="14.193673"><ele>143.75</ele></trkpt>
   <trkpt lat="50.721948" lon="14.193825"><ele>143.75</ele></trkpt>
   <trkpt lat="50.721794" lon="14.194087"><ele>143</ele></trkpt>
   <trkpt lat="50.721604" lon="14.194368"><ele>142.5</ele></trkpt>
   <trkpt lat="50.7213" lon="14.194734"><ele>142.75</ele></trkpt>
   <trkpt lat="50.720987" lon="14.195042"><ele>141</ele></trkpt>
   <trkpt lat="50.720646" lon="14.195302"><ele>141.25</ele></trkpt>
   <trkpt lat="50.72038" lon="14.195453"><ele>141.5</ele></trkpt>
   <trkpt lat="50.720112" lon="14.195583"><ele>141.5</ele></trkpt>
   <trkpt lat="50.719849" lon="14.19567"><ele>141.75</ele></trkpt>
   <trkpt lat="50.719562" lon="14.195743"><ele>142.75</ele></trkpt>
   <trkpt lat="50.719173" lon="14.195768"><ele>143</ele></trkpt>
   <trkpt lat="50.71881" lon="14.195749"><ele>143.5</ele></trkpt>
   <trkpt lat="50.718657" lon="14.195743"><ele>143.75</ele></trkpt>
   <trkpt lat="50.718364" lon="14.195715"><ele>144</ele></trkpt>
   <trkpt lat="50.718083" lon="14.195708"><ele>143.5</ele></trkpt>
   <trkpt lat="50.717825" lon="14.195718"><ele>143.5</ele></trkpt>
   <trkpt lat="50.717494" lon="14.195767"><ele>143.75</ele></trkpt>
   <trkpt lat="50.717158" lon="14.195875"><ele>144.25</ele></trkpt>
   <trkpt lat="50.716905" lon="14.195988"><ele>145</ele></trkpt>
   <trkpt lat="50.716657" lon="14.196132"><ele>146</ele></trkpt>
   <trkpt lat="50.716324" lon="14.196377"><ele>145</ele></trkpt>
   <trkpt lat="50.715922" lon="14.196742"><ele>143</ele></trkpt>
   <trkpt lat="50.715533" lon="14.197115"><ele>142.75</ele></trkpt>
   <trkpt lat="50.715268" lon="14.197339"><ele>142.5</ele></trkpt>
   <trkpt lat="50.715145" lon="14.197434"><ele>142.5</ele></trkpt>
   <trkpt lat="50.714993" lon="14.197535"><ele>142.25</ele></trkpt>
   <trkpt lat="50.714826" lon="14.19764"><ele>143</ele></trkpt>
   <trkpt lat="50.714611" lon="14.197741"><ele>143.5</ele></trkpt>
   <trkpt lat="50.71439" lon="14.197822"><ele>143.5</ele></trkpt>
   <trkpt lat="50.714192" lon="14.197878"><ele>143.5</ele></trkpt>
   <trkpt lat="50.714002" lon="14.197911"><ele>145</ele></trkpt>
   <trkpt lat="50.713816" lon="14.197929"><ele>146.25</ele></trkpt>
   <trkpt lat="50.713525" lon="14.197926"><ele>148.25</ele></trkpt>
   <trkpt lat="50.712446" lon="14.197817"><ele>155.75</ele></trkpt>
   <trkpt lat="50.712221" lon="14.19781"><ele>154</ele></trkpt>
   <trkpt lat="50.711986" lon="14.197827"><ele>152.75</ele></trkpt>
   <trkpt lat="50.711767" lon="14.197864"><ele>152</ele></trkpt>
   <trkpt lat="50.711561" lon="14.197918"><ele>151.5</ele></trkpt>
   <trkpt lat="50.711072" lon="14.19805"><ele>149.75</ele></trkpt>
   <trkpt lat="50.710872" lon="14.198107"><ele>148.75</ele></trkpt>
   <trkpt lat="50.710072" lon="14.198327"><ele>148.25</ele></trkpt>
   <trkpt lat="50.709671" lon="14.198465"><ele>149.25</ele></trkpt>
   <trkpt lat="50.709233" lon="14.198629"><ele>149.5</ele></trkpt>
   <trkpt lat="50.705026" lon="14.200368"><ele>143.75</ele></trkpt>
   <trkpt lat="50.704448" lon="14.200616"><ele>143</ele></trkpt>
   <trkpt lat="50.704194" lon="14.200744"><ele>142.5</ele></trkpt>
   <trkpt lat="50.703952" lon="14.200883"><ele>142.75</ele></trkpt>
   <trkpt lat="50.703912" lon="14.200907"><ele>143</ele></trkpt>
   <trkpt lat="50.703814" lon="14.200965"><ele>143</ele></trkpt>
   <trkpt lat="50.701555" lon="14.202396"><ele>143.25</ele></trkpt>
   <trkpt lat="50.701138" lon="14.202629"><ele>142.5</ele></trkpt>
   <trkpt lat="50.700619" lon="14.202872"><ele>142.25</ele></trkpt>
   <trkpt lat="50.700119" lon="14.203057"><ele>142.5</ele></trkpt>
   <trkpt lat="50.699892" lon="14.203128"><ele>142.5</ele></trkpt>
   <trkpt lat="50.699615" lon="14.203195"><ele>142.25</ele></trkpt>
   <trkpt lat="50.699132" lon="14.203294"><ele>141.5</ele></trkpt>
   <trkpt lat="50.698676" lon="14.203341"><ele>140.75</ele></trkpt>
   <trkpt lat="50.698214" lon="14.203355"><ele>140.25</ele></trkpt>
   <trkpt lat="50.697758" lon="14.20334"><ele>141.25</ele></trkpt>
   <trkpt lat="50.697558" lon="14.203316"><ele>141.75</ele></trkpt>
   <trkpt lat="50.697309" lon="14.203287"><ele>141.75</ele></trkpt>
   <trkpt lat="50.697071" lon="14.203244"><ele>141.75</ele></trkpt>
   <trkpt lat="50.696822" lon="14.203199"><ele>141.75</ele></trkpt>
   <trkpt lat="50.69628" lon="14.203106"><ele>141.75</ele></trkpt>
   <trkpt lat="50.695256" lon="14.202938"><ele>139.25</ele></trkpt>
   <trkpt lat="50.693811" lon="14.202742"><ele>138.25</ele></trkpt>
   <trkpt lat="50.693451" lon="14.202672"><ele>139.5</ele></trkpt>
   <trkpt lat="50.693211" lon="14.202598"><ele>139.75</ele></trkpt>
   <trkpt lat="50.692978" lon="14.202503"><ele>139.75</ele></trkpt>
   <trkpt lat="50.69287" lon="14.202454"><ele>139.75</ele></trkpt>
   <trkpt lat="50.692701" lon="14.202353"><ele>139.5</ele></trkpt>
   <trkpt lat="50.692368" lon="14.202121"><ele>140</ele></trkpt>
   <trkpt lat="50.69205" lon="14.201829"><ele>141.25</ele></trkpt>
   <trkpt lat="50.691871" lon="14.20162"><ele>141.75</ele></trkpt>
   <trkpt lat="50.691793" lon="14.201528"><ele>142</ele></trkpt>
   <trkpt lat="50.691744" lon="14.201471"><ele>142</ele></trkpt>
   <trkpt lat="50.691436" lon="14.201057"><ele>142.25</ele></trkpt>
   <trkpt lat="50.69005" lon="14.199146"><ele>144.25</ele></trkpt>
   <trkpt lat="50.69" lon="14.199077"><ele>144.5</ele></trkpt>
   <trkpt lat="50.689941" lon="14.198996"><ele>144.5</ele></trkpt>
   <trkpt lat="50.688526" lon="14.197045"><ele>141.25</ele></trkpt>
   <trkpt lat="50.688266" lon="14.19662"><ele>140</ele></trkpt>
   <trkpt lat="50.688056" lon="14.196205"><ele>139.25</ele></trkpt>
   <trkpt lat="50.687829" lon="14.195681"><ele>138.25</ele></trkpt>
   <trkpt lat="50.687328" lon="14.194385"><ele>137</ele></trkpt>
   <trkpt lat="50.687172" lon="14.194022"><ele>137.5</ele></trkpt>
   <trkpt lat="50.687077" lon="14.193827"><ele>138</ele></trkpt>
   <trkpt lat="50.686964" lon="14.193611"><ele>138.5</ele></trkpt>
   <trkpt lat="50.68672" lon="14.193209"><ele>140.5</ele></trkpt>
   <trkpt lat="50.686628" lon="14.193063"><ele>141</ele></trkpt>
   <trkpt lat="50.686211" lon="14.192404"><ele>143</ele></trkpt>
   <trkpt lat="50.685951" lon="14.191969"><ele>143.5</ele></trkpt>
   <trkpt lat="50.68583" lon="14.191749"><ele>143.5</ele></trkpt>
   <trkpt lat="50.685711" lon="14.191513"><ele>145.75</ele></trkpt>
   <trkpt lat="50.685607" lon="14.191272"><ele>147</ele></trkpt>
   <trkpt lat="50.685512" lon="14.191034"><ele>147.75</ele></trkpt>
   <trkpt lat="50.685416" lon="14.19077"><ele>147.75</ele></trkpt>
   <trkpt lat="50.685331" lon="14.190503"><ele>147.5</ele></trkpt>
   <trkpt lat="50.685187" lon="14.189949"><ele>145.25</ele></trkpt>
   <trkpt lat="50.685052" lon="14.189316"><ele>144</ele></trkpt>
   <trkpt lat="50.684406" lon="14.186266"><ele>142.25</ele></trkpt>
   <trkpt lat="50.684264" lon="14.185593"><ele>142</ele></trkpt>
   <trkpt lat="50.684117" lon="14.184945"><ele>142</ele></trkpt>
   <trkpt lat="50.683979" lon="14.184421"><ele>143</ele></trkpt>
   <trkpt lat="50.683907" lon="14.18417"><ele>143.25</ele></trkpt>
   <trkpt lat="50.683694" lon="14.183502"><ele>144</ele></trkpt>
   <trkpt lat="50.683433" lon="14.182792"><ele>144.5</ele></trkpt>
   <trkpt lat="50.682495" lon="14.1804"><ele>142.25</ele></trkpt>
   <trkpt lat="50.682168" lon="14.179617"><ele>142</ele></trkpt>
   <trkpt lat="50.68182" lon="14.178841"><ele>140.75</ele></trkpt>
   <trkpt lat="50.681456" lon="14.178089"><ele>139.5</ele></trkpt>
   <trkpt lat="50.681114" lon="14.177426"><ele>139.5</ele></trkpt>
   <trkpt lat="50.680724" lon="14.176707"><ele>139.25</ele></trkpt>
   <trkpt lat="50.68032" lon="14.176029"><ele>138.75</ele></trkpt>
   <trkpt lat="50.679713" lon="14.175072"><ele>139.75</ele></trkpt>
   <trkpt lat="50.679071" lon="14.174157"><ele>141</ele></trkpt>
   <trkpt lat="50.678591" lon="14.173531"><ele>139.75</ele></trkpt>
   <trkpt lat="50.678112" lon="14.172943"><ele>138.25</ele></trkpt>
   <trkpt lat="50.677598" lon="14.172358"><ele>138.5</ele></trkpt>
   <trkpt lat="50.677175" lon="14.171902"><ele>138.25</ele></trkpt>
   <trkpt lat="50.676663" lon="14.171399"><ele>137.25</ele></trkpt>
   <trkpt lat="50.676198" lon="14.170969"><ele>136.75</ele></trkpt>
   <trkpt lat="50.675979" lon="14.170783"><ele>136.75</ele></trkpt>
   <trkpt lat="50.675485" lon="14.170385"><ele>137.25</ele></trkpt>
   <trkpt lat="50.675233" lon="14.170205"><ele>137.5</ele></trkpt>
   <trkpt lat="50.674999" lon="14.170044"><ele>138</ele></trkpt>
   <trkpt lat="50.674498" lon="14.169742"><ele>137.5</ele></trkpt>
   <trkpt lat="50.674228" lon="14.169594"><ele>137.25</ele></trkpt>
   <trkpt lat="50.673815" lon="14.169396"><ele>136.75</ele></trkpt>
   <trkpt lat="50.673205" lon="14.169115"><ele>136</ele></trkpt>
   <trkpt lat="50.672452" lon="14.168783"><ele>137.25</ele></trkpt>
   <trkpt lat="50.672318" lon="14.168721"><ele>137.5</ele></trkpt>
   <trkpt lat="50.671975" lon="14.168553"><ele>138.25</ele></trkpt>
   <trkpt lat="50.67175" lon="14.168424"><ele>138.75</ele></trkpt>
   <trkpt lat="50.671421" lon="14.168207"><ele>139.75</ele></trkpt>
   <trkpt lat="50.671316" lon="14.168136"><ele>140</ele></trkpt>
   <trkpt lat="50.671" lon="14.167864"><ele>140.5</ele></trkpt>
   <trkpt lat="50.670818" lon="14.167695"><ele>141</ele></trkpt>
   <trkpt lat="50.670603" lon="14.167481"><ele>141.5</ele></trkpt>
   <trkpt lat="50.670245" lon="14.16704"><ele>142</ele></trkpt>
   <trkpt lat="50.670081" lon="14.166823"><ele>142</ele></trkpt>
   <trkpt lat="50.669905" lon="14.166565"><ele>141.75</ele></trkpt>
   <trkpt lat="50.669754" lon="14.166315"><ele>141.5</ele></trkpt>
   <trkpt lat="50.669595" lon="14.166035"><ele>141.25</ele></trkpt>
   <trkpt lat="50.66945" lon="14.16576"><ele>141</ele></trkpt>
   <trkpt lat="50.669264" lon="14.165375"><ele>141</ele></trkpt>
   <trkpt lat="50.6692" lon="14.165237"><ele>141.25</ele></trkpt>
   <trkpt lat="50.668122" lon="14.162958"><ele>146.75</ele></trkpt>
   <trkpt lat="50.667524" lon="14.161745"><ele>147.25</ele></trkpt>
   <trkpt lat="50.667275" lon="14.161202"><ele>150.5</ele></trkpt>
   <trkpt lat="50.667036" lon="14.160622"><ele>153.5</ele></trkpt>
   <trkpt lat="50.666862" lon="14.160087"><ele>154.5</ele></trkpt>
   <trkpt lat="50.666709" lon="14.159571"><ele>154</ele></trkpt>
   <trkpt lat="50.666554" lon="14.158949"><ele>152.25</ele></trkpt>
   <trkpt lat="50.666418" lon="14.158295"><ele>151</ele></trkpt>
   <trkpt lat="50.666286" lon="14.157611"><ele>152.25</ele></trkpt>
   <trkpt lat="50.666228" lon="14.157137"><ele>151</ele></trkpt>
   <trkpt lat="50.666191" lon="14.156755"><ele>149.25</ele></trkpt>
   <trkpt lat="50.666158" lon="14.156352"><ele>148.25</ele></trkpt>
   <trkpt lat="50.66612" lon="14.155602"><ele>146</ele></trkpt>
   <trkpt lat="50.666069" lon="14.155065"><ele>145.25</ele></trkpt>
   <trkpt lat="50.666037" lon="14.154802"><ele>144.75</ele></trkpt>
   <trkpt lat="50.665967" lon="14.154434"><ele>144.75</ele></trkpt>
   <trkpt lat="50.665927" lon="14.154227"><ele>144.5</ele></trkpt>
   <trkpt lat="50.665842" lon="14.153802"><ele>144</ele></trkpt>
   <trkpt lat="50.66568" lon="14.15304"><ele>144.75</ele></trkpt>
   <trkpt lat="50.665584" lon="14.152584"><ele>145.5</ele></trkpt>
   <trkpt lat="50.664247" lon="14.146267"><ele>146</ele></trkpt>
   <trkpt lat="50.664107" lon="14.145604"><ele>146.5</ele></trkpt>
   <trkpt lat="50.663723" lon="14.143786"><ele>146.5</ele></trkpt>
   <trkpt lat="50.663633" lon="14.143348"><ele>145.75</ele></trkpt>
   <trkpt lat="50.663492" lon="14.142656"><ele>145.5</ele></trkpt>
   <trkpt lat="50.663362" lon="14.141984"><ele>145.25</ele></trkpt>
   <trkpt lat="50.663292" lon="14.141579"><ele>145.25</ele></trkpt>
   <trkpt lat="50.663285" lon="14.1415"><ele>145.25</ele></trkpt>
   <trkpt lat="50.663259" lon="14.141273"><ele>145.5</ele></trkpt>
   <trkpt lat="50.663217" lon="14.140652"><ele>146.25</ele></trkpt>
   <trkpt lat="50.663219" lon="14.140166"><ele>146.5</ele></trkpt>
   <trkpt lat="50.663233" lon="14.139797"><ele>146.75</ele></trkpt>
   <trkpt lat="50.663284" lon="14.139269"><ele>147.25</ele></trkpt>
   <trkpt lat="50.663349" lon="14.138867"><ele>147.25</ele></trkpt>
   <trkpt lat="50.663422" lon="14.138514"><ele>147.25</ele></trkpt>
   <trkpt lat="50.663535" lon="14.138065"><ele>147.25</ele></trkpt>
   <trkpt lat="50.663668" lon="14.13764"><ele>147</ele></trkpt>
   <trkpt lat="50.663831" lon="14.137224"><ele>145.75</ele></trkpt>
   <trkpt lat="50.664011" lon="14.13683"><ele>143.75</ele></trkpt>
   <trkpt lat="50.664226" lon="14.136452"><ele>142.25</ele></trkpt>
   <trkpt lat="50.664375" lon="14.13622"><ele>142.5</ele></trkpt>
   <trkpt lat="50.664444" lon="14.136134"><ele>142.5</ele></trkpt>
   <trkpt lat="50.664975" lon="14.135395"><ele>142</ele></trkpt>
   <trkpt lat="50.667272" lon="14.132278"><ele>141.75</ele></trkpt>
   <trkpt lat="50.667391" lon="14.132119"><ele>141.5</ele></trkpt>
   <trkpt lat="50.667761" lon="14.131611"><ele>140.75</ele></trkpt>
   <trkpt lat="50.671269" lon="14.126829"><ele>141.5</ele></trkpt>
   <trkpt lat="50.671471" lon="14.126514"><ele>141.5</ele></trkpt>
   <trkpt lat="50.671686" lon="14.12613"><ele>141.25</ele></trkpt>
   <trkpt lat="50.671878" lon="14.1257"><ele>141.25</ele></trkpt>
   <trkpt lat="50.672015" lon="14.125347"><ele>141.25</ele></trkpt>
   <trkpt lat="50.672144" lon="14.124955"><ele>141.5</ele></trkpt>
   <trkpt lat="50.672232" lon="14.124621"><ele>141.75</ele></trkpt>
   <trkpt lat="50.672322" lon="14.124157"><ele>142</ele></trkpt>
   <trkpt lat="50.672402" lon="14.123612"><ele>142</ele></trkpt>
   <trkpt lat="50.672442" lon="14.123197"><ele>142.5</ele></trkpt>
   <trkpt lat="50.672456" lon="14.122641"><ele>145.25</ele></trkpt>
   <trkpt lat="50.672441" lon="14.122039"><ele>147.5</ele></trkpt>
   <trkpt lat="50.672419" lon="14.121767"><ele>148.5</ele></trkpt>
   <trkpt lat="50.672377" lon="14.121418"><ele>149</ele></trkpt>
   <trkpt lat="50.672337" lon="14.121167"><ele>149.5</ele></trkpt>
   <trkpt lat="50.672262" lon="14.120793"><ele>150.25</ele></trkpt>
   <trkpt lat="50.67217" lon="14.120412"><ele>150.75</ele></trkpt>
   <trkpt lat="50.67207" lon="14.120077"><ele>151.25</ele></trkpt>
   <trkpt lat="50.671925" lon="14.119658"><ele>149</ele></trkpt>
   <trkpt lat="50.671678" lon="14.119097"><ele>145.25</ele></trkpt>
   <trkpt lat="50.671468" lon="14.118718"><ele>146.5</ele></trkpt>
   <trkpt lat="50.67129" lon="14.118453"><ele>147.75</ele></trkpt>
   <trkpt lat="50.671014" lon="14.118095"><ele>148.5</ele></trkpt>
   <trkpt lat="50.670715" lon="14.117776"><ele>147</ele></trkpt>
   <trkpt lat="50.670277" lon="14.117385"><ele>145.25</ele></trkpt>
   <trkpt lat="50.669872" lon="14.117042"><ele>144.75</ele></trkpt>
   <trkpt lat="50.669581" lon="14.116763"><ele>143.75</ele></trkpt>
   <trkpt lat="50.669367" lon="14.116514"><ele>144</ele></trkpt>
   <trkpt lat="50.669163" lon="14.116249"><ele>145</ele></trkpt>
   <trkpt lat="50.668984" lon="14.115969"><ele>147.5</ele></trkpt>
   <trkpt lat="50.668803" lon="14.115648"><ele>149.25</ele></trkpt>
   <trkpt lat="50.668631" lon="14.115289"><ele>149.75</ele></trkpt>
   <trkpt lat="50.668506" lon="14.114994"><ele>149.25</ele></trkpt>
   <trkpt lat="50.668082" lon="14.113836"><ele>150.5</ele></trkpt>
   <trkpt lat="50.667912" lon="14.113414"><ele>151.75</ele></trkpt>
   <trkpt lat="50.667591" lon="14.112741"><ele>150.25</ele></trkpt>
   <trkpt lat="50.667207" lon="14.111963"><ele>149</ele></trkpt>
   <trkpt lat="50.66604" lon="14.10964"><ele>144.25</ele></trkpt>
   <trkpt lat="50.665927" lon="14.109414"><ele>143.75</ele></trkpt>
   <trkpt lat="50.665002" lon="14.107567"><ele>140</ele></trkpt>
   <trkpt lat="50.664945" lon="14.107454"><ele>140</ele></trkpt>
   <trkpt lat="50.66402" lon="14.105599"><ele>141.25</ele></trkpt>
   <trkpt lat="50.663806" lon="14.105122"><ele>141.25</ele></trkpt>
   <trkpt lat="50.663637" lon="14.104702"><ele>141.5</ele></trkpt>
   <trkpt lat="50.663425" lon="14.104114"><ele>141</ele></trkpt>
   <trkpt lat="50.663285" lon="14.10368"><ele>140.75</ele></trkpt>
   <trkpt lat="50.663135" lon="14.103193"><ele>140.75</ele></trkpt>
   <trkpt lat="50.662987" lon="14.102615"><ele>141.25</ele></trkpt>
   <trkpt lat="50.662807" lon="14.101815"><ele>141.5</ele></trkpt>
   <trkpt lat="50.661476" lon="14.095555"><ele>141.25</ele></trkpt>
   <trkpt lat="50.661338" lon="14.09481"><ele>140.75</ele></trkpt>
   <trkpt lat="50.661242" lon="14.094148"><ele>141.25</ele></trkpt>
   <trkpt lat="50.661166" lon="14.093483"><ele>141.25</ele></trkpt>
   <trkpt lat="50.661103" lon="14.092793"><ele>141</ele></trkpt>
   <trkpt lat="50.66107" lon="14.092182"><ele>140.75</ele></trkpt>
   <trkpt lat="50.66105" lon="14.091626"><ele>140.75</ele></trkpt>
   <trkpt lat="50.660984" lon="14.089204"><ele>145</ele></trkpt>
   <trkpt lat="50.660932" lon="14.087683"><ele>148.25</ele></trkpt>
   <trkpt lat="50.660893" lon="14.087003"><ele>150.25</ele></trkpt>
   <trkpt lat="50.66084" lon="14.086468"><ele>150.75</ele></trkpt>
   <trkpt lat="50.660754" lon="14.085939"><ele>151.5</ele></trkpt>
   <trkpt lat="50.660679" lon="14.085623"><ele>152.5</ele></trkpt>
   <trkpt lat="50.660599" lon="14.08532"><ele>153.25</ele></trkpt>
   <trkpt lat="50.66052" lon="14.085063"><ele>153.25</ele></trkpt>
   <trkpt lat="50.660428" lon="14.084799"><ele>153.25</ele></trkpt>
   <trkpt lat="50.660335" lon="14.08456"><ele>153</ele></trkpt>
   <trkpt lat="50.659931" lon="14.083649"><ele>148</ele></trkpt>
   <trkpt lat="50.659329" lon="14.082327"><ele>146.75</ele></trkpt>
   <trkpt lat="50.658822" lon="14.081214"><ele>145.75</ele></trkpt>
   <trkpt lat="50.658752" lon="14.08106"><ele>145.5</ele></trkpt>
   <trkpt lat="50.658554" lon="14.080628"><ele>145.5</ele></trkpt>
   <trkpt lat="50.65841" lon="14.080289"><ele>145.75</ele></trkpt>
   <trkpt lat="50.658254" lon="14.079873"><ele>147</ele></trkpt>
   <trkpt lat="50.658168" lon="14.07961"><ele>147.75</ele></trkpt>
   <trkpt lat="50.658103" lon="14.079372"><ele>148</ele></trkpt>
   <trkpt lat="50.658025" lon="14.079038"><ele>148.5</ele></trkpt>
   <trkpt lat="50.65795" lon="14.078656"><ele>148.75</ele></trkpt>
   <trkpt lat="50.657896" lon="14.078273"><ele>148.75</ele></trkpt>
   <trkpt lat="50.657863" lon="14.077914"><ele>150</ele></trkpt>
   <trkpt lat="50.657845" lon="14.077479"><ele>151</ele></trkpt>
   <trkpt lat="50.657836" lon="14.076363"><ele>152.5</ele></trkpt>
   <trkpt lat="50.65784" lon="14.074582"><ele>151.25</ele></trkpt>
   <trkpt lat="50.657854" lon="14.073819"><ele>149.25</ele></trkpt>
   <trkpt lat="50.657915" lon="14.072985"><ele>148.75</ele></trkpt>
   <trkpt lat="50.658034" lon="14.071684"><ele>150.25</ele></trkpt>
   <trkpt lat="50.658098" lon="14.070991"><ele>148.5</ele></trkpt>
   <trkpt lat="50.658114" lon="14.070825"><ele>148</ele></trkpt>
   <trkpt lat="50.658154" lon="14.070348"><ele>146.75</ele></trkpt>
   <trkpt lat="50.658223" lon="14.06922"><ele>148</ele></trkpt>
   <trkpt lat="50.658267" lon="14.068605"><ele>149</ele></trkpt>
   <trkpt lat="50.658327" lon="14.068028"><ele>148.75</ele></trkpt>
   <trkpt lat="50.658428" lon="14.067475"><ele>148.25</ele></trkpt>
   <trkpt lat="50.658571" lon="14.066923"><ele>147.5</ele></trkpt>
   <trkpt lat="50.659069" lon="14.065364"><ele>146.5</ele></trkpt>
   <trkpt lat="50.659181" lon="14.064958"><ele>145</ele></trkpt>
   <trkpt lat="50.659243" lon="14.064691"><ele>145.75</ele></trkpt>
   <trkpt lat="50.659359" lon="14.064072"><ele>147.5</ele></trkpt>
   <trkpt lat="50.659403" lon="14.063739"><ele>148.25</ele></trkpt>
   <trkpt lat="50.659517" lon="14.062062"><ele>141.5</ele></trkpt>
   <trkpt lat="50.659526" lon="14.061834"><ele>140.25</ele></trkpt>
   <trkpt lat="50.659531" lon="14.061685"><ele>139.5</ele></trkpt>
   <trkpt lat="50.659526" lon="14.061327"><ele>139.75</ele></trkpt>
   <trkpt lat="50.659508" lon="14.060936"><ele>140.5</ele></trkpt>
   <trkpt lat="50.659475" lon="14.060541"><ele>141.25</ele></trkpt>
   <trkpt lat="50.659405" lon="14.060054"><ele>142.75</ele></trkpt>
   <trkpt lat="50.659303" lon="14.059484"><ele>144.5</ele></trkpt>
   <trkpt lat="50.659134" lon="14.058612"><ele>148</ele></trkpt>
   <trkpt lat="50.659062" lon="14.058336"><ele>150.5</ele></trkpt>
   <trkpt lat="50.658913" lon="14.057839"><ele>151.75</ele></trkpt>
   <trkpt lat="50.658761" lon="14.05739"><ele>151</ele></trkpt>
   <trkpt lat="50.658081" lon="14.055302"><ele>145.25</ele></trkpt>
   <trkpt lat="50.657625" lon="14.053946"><ele>144.5</ele></trkpt>
   <trkpt lat="50.657496" lon="14.053584"><ele>145</ele></trkpt>
   <trkpt lat="50.657376" lon="14.053285"><ele>145</ele></trkpt>
   <trkpt lat="50.657131" lon="14.05274"><ele>145</ele></trkpt>
   <trkpt lat="50.657022" lon="14.052526"><ele>145</ele></trkpt>
   <trkpt lat="50.656834" lon="14.052192"><ele>145</ele></trkpt>
   <trkpt lat="50.656676" lon="14.05193"><ele>145</ele></trkpt>
   <trkpt lat="50.656444" lon="14.051594"><ele>146</ele></trkpt>
   <trkpt lat="50.656185" lon="14.051264"><ele>146.75</ele></trkpt>
   <trkpt lat="50.655904" lon="14.050943"><ele>147</ele></trkpt>
   <trkpt lat="50.655677" lon="14.050712"><ele>147</ele></trkpt>
   <trkpt lat="50.655374" lon="14.050442"><ele>146.75</ele></trkpt>
   <trkpt lat="50.654961" lon="14.05013"><ele>146.5</ele></trkpt>
   <trkpt lat="50.654578" lon="14.049882"><ele>146.75</ele></trkpt>
   <trkpt lat="50.654136" lon="14.049658"><ele>147</ele></trkpt>
   <trkpt lat="50.653763" lon="14.049509"><ele>146.75</ele></trkpt>
   <trkpt lat="50.65368" lon="14.049477"><ele>146.75</ele></trkpt>
   <trkpt lat="50.65321" lon="14.049341"><ele>146.75</ele></trkpt>
   <trkpt lat="50.652602" lon="14.049204"><ele>147</ele></trkpt>
   <trkpt lat="50.652285" lon="14.049136"><ele>147.25</ele></trkpt>
   <trkpt lat="50.651994" lon="14.049073"><ele>147.75</ele></trkpt>
   <trkpt lat="50.651757" lon="14.048982"><ele>148.25</ele></trkpt>
   <trkpt lat="50.651496" lon="14.048887"><ele>148.25</ele></trkpt>
   <trkpt lat="50.651233" lon="14.048826"><ele>148.25</ele></trkpt>
   <trkpt lat="50.650016" lon="14.048533"><ele>147.75</ele></trkpt>
   <trkpt lat="50.64988" lon="14.048501"><ele>147.75</ele></trkpt>
   <trkpt lat="50.649732" lon="14.048466"><ele>147.5</ele></trkpt>
   <trkpt lat="50.648815" lon="14.048259"><ele>146.5</ele></trkpt>
   <trkpt lat="50.649732" lon="14.048466"><ele>147.5</ele></trkpt>
   <trkpt lat="50.64988" lon="14.048501"><ele>147.75</ele></trkpt>
   <trkpt lat="50.650016" lon="14.048533"><ele>147.75</ele></trkpt>
   <trkpt lat="50.651233" lon="14.048826"><ele>148.25</ele></trkpt>
   <trkpt lat="50.651496" lon="14.048887"><ele>148.25</ele></trkpt>
   <trkpt lat="50.651757" lon="14.048982"><ele>148.25</ele></trkpt>
   <trkpt lat="50.652001" lon="14.049007"><ele>147.75</ele></trkpt>
   <trkpt lat="50.652352" lon="14.049061"><ele>147</ele></trkpt>
   <trkpt lat="50.652593" lon="14.049089"><ele>146.5</ele></trkpt>
   <trkpt lat="50.65282" lon="14.049137"><ele>146.5</ele></trkpt>
   <trkpt lat="50.653074" lon="14.049194"><ele>146.25</ele></trkpt>
   <trkpt lat="50.653503" lon="14.049201"><ele>146</ele></trkpt>
   <trkpt lat="50.653857" lon="14.04915"><ele>145.75</ele></trkpt>
   <trkpt lat="50.654037" lon="14.049077"><ele>145.75</ele></trkpt>
   <trkpt lat="50.654277" lon="14.048957"><ele>145.25</ele></trkpt>
   <trkpt lat="50.654455" lon="14.048842"><ele>145</ele></trkpt>
   <trkpt lat="50.654668" lon="14.048656"><ele>144.75</ele></trkpt>
   <trkpt lat="50.654873" lon="14.048433"><ele>144.75</ele></trkpt>
   <trkpt lat="50.655027" lon="14.048234"><ele>144.75</ele></trkpt>
   <trkpt lat="50.655168" lon="14.048021"><ele>145</ele></trkpt>
   <trkpt lat="50.655419" lon="14.04751"><ele>145</ele></trkpt>
   <trkpt lat="50.655584" lon="14.047067"><ele>145.25</ele></trkpt>
   <trkpt lat="50.655723" lon="14.046509"><ele>144.75</ele></trkpt>
   <trkpt lat="50.655776" lon="14.046187"><ele>143</ele></trkpt>
   <trkpt lat="50.655823" lon="14.045849"><ele>141</ele></trkpt>
   <trkpt lat="50.656483" lon="14.041445"><ele>144.75</ele></trkpt>
   <trkpt lat="50.656532" lon="14.041123"><ele>145.5</ele></trkpt>
   <trkpt lat="50.656593" lon="14.040806"><ele>145.25</ele></trkpt>
   <trkpt lat="50.656664" lon="14.040505"><ele>144.25</ele></trkpt>
   <trkpt lat="50.656747" lon="14.040204"><ele>144</ele></trkpt>
   <trkpt lat="50.656929" lon="14.039654"><ele>142.25</ele></trkpt>
   <trkpt lat="50.657117" lon="14.039104"><ele>140.75</ele></trkpt>
   <trkpt lat="50.657238" lon="14.038757"><ele>140.25</ele></trkpt>
   <trkpt lat="50.657305" lon="14.038516"><ele>140.25</ele></trkpt>
   <trkpt lat="50.657415" lon="14.038017"><ele>140.5</ele></trkpt>
   <trkpt lat="50.657453" lon="14.037746"><ele>140.5</ele></trkpt>
   <trkpt lat="50.657483" lon="14.037476"><ele>141</ele></trkpt>
   <trkpt lat="50.657531" lon="14.036425"><ele>142</ele></trkpt>
   <trkpt lat="50.65751" lon="14.035574"><ele>142</ele></trkpt>
   <trkpt lat="50.657535" lon="14.035191"><ele>142</ele></trkpt>
   <trkpt lat="50.657579" lon="14.034752"><ele>142.25</ele></trkpt>
   <trkpt lat="50.657624" lon="14.034199"><ele>142.25</ele></trkpt>
   <trkpt lat="50.65769" lon="14.033439"><ele>142.25</ele></trkpt>
   <trkpt lat="50.657806" lon="14.032651"><ele>141.5</ele></trkpt>
   <trkpt lat="50.657887" lon="14.032135"><ele>141.25</ele></trkpt>
   <trkpt lat="50.657944" lon="14.031727"><ele>141.5</ele></trkpt>
   <trkpt lat="50.658004" lon="14.031357"><ele>141.75</ele></trkpt>
   <trkpt lat="50.658062" lon="14.030825"><ele>142.5</ele></trkpt>
   <trkpt lat="50.65807" lon="14.030306"><ele>142.5</ele></trkpt>
   <trkpt lat="50.658055" lon="14.02991"><ele>142.5</ele></trkpt>
   <trkpt lat="50.658021" lon="14.029548"><ele>142.75</ele></trkpt>
   <trkpt lat="50.65796" lon="14.029186"><ele>143</ele></trkpt>
  </trkseg>
 </trk>
</gpx>