<?xml version="1.0" encoding="UTF-8"?>
<!-- track-length = 86304 filtered ascend = 51 plain-ascend = 29 cost=86304 energy=1.1kwh time=1h 55m 5s -->
<gpx 
 xmlns="http://www.topografix.com/GPX/1/1" 
 xmlns:xsi="http://www.w3.org/2001/XMLSchema-instance" 
 xsi:schemaLocation="http://www.topografix.com/GPX/1/1 http://www.topografix.com/GPX/1/1/gpx.xsd" 
 version="1.1" 
 creator="BRouter-Web 0.18.1">
 <trk>
  <name>Dessau - Falkenberg</name>
  <trkseg>
   <trkpt lat="51.879581" lon="12.236262"><ele>64.25</ele></trkpt>
   <trkpt lat="51.879841" lon="12.236306"><ele>64</ele></trkpt>
   <trkpt lat="51.88001" lon="12.236332"><ele>64</ele></trkpt>
   <trkpt lat="51.88117" lon="12.23654"><ele>65.75</ele></trkpt>
   <trkpt lat="51.881971" lon="12.236675"><ele>67</ele></trkpt>
   <trkpt lat="51.882235" lon="12.236725"><ele>67</ele></trkpt>
   <trkpt lat="51.882743" lon="12.236808"><ele>67.75</ele></trkpt>
   <trkpt lat="51.882752" lon="12.236809"><ele>67.75</ele></trkpt>
   <trkpt lat="51.883044" lon="12.236857"><ele>68</ele></trkpt>
   <trkpt lat="51.883244" lon="12.236888"><ele>68</ele></trkpt>
   <trkpt lat="51.883517" lon="12.23694"><ele>68.5</ele></trkpt>
   <trkpt lat="51.883795" lon="12.236988"><ele>69</ele></trkpt>
   <trkpt lat="51.883847" lon="12.236998"><ele>69</ele></trkpt>
   <trkpt lat="51.883952" lon="12.237016"><ele>69</ele></trkpt>
   <trkpt lat="51.884608" lon="12.237127"><ele>69</ele></trkpt>
   <trkpt lat="51.884622" lon="12.237129"><ele>69</ele></trkpt>
   <trkpt lat="51.885078" lon="12.23721"><ele>69</ele></trkpt>
   <trkpt lat="51.885437" lon="12.237276"><ele>69</ele></trkpt>
   <trkpt lat="51.885635" lon="12.237308"><ele>69</ele></trkpt>
   <trkpt lat="51.885699" lon="12.237319"><ele>69</ele></trkpt>
   <trkpt lat="51.885729" lon="12.237324"><ele>69</ele></trkpt>
   <trkpt lat="51.886592" lon="12.23747"><ele>69</ele></trkpt>
   <trkpt lat="51.886957" lon="12.237537"><ele>69.25</ele></trkpt>
   <trkpt lat="51.887101" lon="12.23756"><ele>69.75</ele></trkpt>
   <trkpt lat="51.887253" lon="12.237586"><ele>70.25</ele></trkpt>
   <trkpt lat="51.887644" lon="12.237662"><ele>69.75</ele></trkpt>
   <trkpt lat="51.888171" lon="12.237782"><ele>69</ele></trkpt>
   <trkpt lat="51.88876" lon="12.237939"><ele>70</ele></trkpt>
   <trkpt lat="51.889467" lon="12.238174"><ele>69.5</ele></trkpt>
   <trkpt lat="51.890046" lon="12.238405"><ele>71</ele></trkpt>
   <trkpt lat="51.890661" lon="12.23868"><ele>70.5</ele></trkpt>
   <trkpt lat="51.891228" lon="12.238974"><ele>70.75</ele></trkpt>
   <trkpt lat="51.891473" lon="12.23911"><ele>70.75</ele></trkpt>
   <trkpt lat="51.891943" lon="12.239393"><ele>70.5</ele></trkpt>
   <trkpt lat="51.892224" lon="12.239578"><ele>71</ele></trkpt>
   <trkpt lat="51.892631" lon="12.239868"><ele>71</ele></trkpt>
   <trkpt lat="51.892853" lon="12.240038"><ele>70.5</ele></trkpt>
   <trkpt lat="51.89325" lon="12.240363"><ele>70.25</ele></trkpt>
   <trkpt lat="51.893474" lon="12.240552"><ele>70</ele></trkpt>
   <trkpt lat="51.893924" lon="12.24094"><ele>70</ele></trkpt>
   <trkpt lat="51.893944" lon="12.240958"><ele>70</ele></trkpt>
   <trkpt lat="51.894235" lon="12.241221"><ele>70.25</ele></trkpt>
   <trkpt lat="51.895082" lon="12.241995"><ele>70</ele></trkpt>
   <trkpt lat="51.895152" lon="12.24206"><ele>70</ele></trkpt>
   <trkpt lat="51.895242" lon="12.242145"><ele>70</ele></trkpt>
   <trkpt lat="51.89575" lon="12.242641"><ele>70</ele></trkpt>
   <trkpt lat="51.895814" lon="12.242703"><ele>70</ele></trkpt>
   <trkpt lat="51.896191" lon="12.243085"><ele>70</ele></trkpt>
   <trkpt lat="51.896502" lon="12.243419"><ele>70</ele></trkpt>
   <trkpt lat="51.896848" lon="12.243806"><ele>70</ele></trkpt>
   <trkpt lat="51.89698" lon="12.243957"><ele>70</ele></trkpt>
   <trkpt lat="51.8974" lon="12.244486"><ele>70</ele></trkpt>
   <trkpt lat="51.897798" lon="12.245023"><ele>70</ele></trkpt>
   <trkpt lat="51.898259" lon="12.245685"><ele>70</ele></trkpt>
   <trkpt lat="51.899222" lon="12.247111"><ele>70</ele></trkpt>
   <trkpt lat="51.899758" lon="12.247922"><ele>70</ele></trkpt>
   <trkpt lat="51.900032" lon="12.248343"><ele>70</ele></trkpt>
   <trkpt lat="51.900568" lon="12.249262"><ele>69.75</ele></trkpt>
   <trkpt lat="51.90088" lon="12.249864"><ele>70</ele></trkpt>
   <trkpt lat="51.90112" lon="12.250366"><ele>70.25</ele></trkpt>
   <trkpt lat="51.901452" lon="12.251109"><ele>71</ele></trkpt>
   <trkpt lat="51.901614" lon="12.2515"><ele>70.5</ele></trkpt>
   <trkpt lat="51.901961" lon="12.252415"><ele>71</ele></trkpt>
   <trkpt lat="51.90205" lon="12.252662"><ele>71.5</ele></trkpt>
   <trkpt lat="51.90235" lon="12.253532"><ele>71</ele></trkpt>
   <trkpt lat="51.902368" lon="12.253586"><ele>71</ele></trkpt>
   <trkpt lat="51.902479" lon="12.253919"><ele>71</ele></trkpt>
   <trkpt lat="51.902695" lon="12.254592"><ele>72</ele></trkpt>
   <trkpt lat="51.902743" lon="12.25475"><ele>71.75</ele></trkpt>
   <trkpt lat="51.903019" lon="12.255659"><ele>71.75</ele></trkpt>
   <trkpt lat="51.903065" lon="12.255818"><ele>72</ele></trkpt>
   <trkpt lat="51.903204" lon="12.256288"><ele>72</ele></trkpt>
   <trkpt lat="51.903209" lon="12.256306"><ele>72</ele></trkpt>
   <trkpt lat="51.903296" lon="12.256603"><ele>69.25</ele></trkpt>
   <trkpt lat="51.903381" lon="12.256894"><ele>70.5</ele></trkpt>
   <trkpt lat="51.90341" lon="12.256995"><ele>71</ele></trkpt>
   <trkpt lat="51.90355" lon="12.25747"><ele>71.5</ele></trkpt>
   <trkpt lat="51.90398" lon="12.258886"><ele>72</ele></trkpt>
   <trkpt lat="51.904806" lon="12.261522"><ele>73</ele></trkpt>
   <trkpt lat="51.905034" lon="12.262252"><ele>73</ele></trkpt>
   <trkpt lat="51.905118" lon="12.26252"><ele>73</ele></trkpt>
   <trkpt lat="51.905223" lon="12.262851"><ele>73</ele></trkpt>
   <trkpt lat="51.90543" lon="12.263521"><ele>73</ele></trkpt>
   <trkpt lat="51.905725" lon="12.264521"><ele>73</ele></trkpt>
   <trkpt lat="51.905932" lon="12.265221"><ele>73</ele></trkpt>
   <trkpt lat="51.906728" lon="12.267912"><ele>73.25</ele></trkpt>
   <trkpt lat="51.906795" lon="12.268136"><ele>73</ele></trkpt>
   <trkpt lat="51.90682" lon="12.268229"><ele>73.25</ele></trkpt>
   <trkpt lat="51.907108" lon="12.269217"><ele>73.5</ele></trkpt>
   <trkpt lat="51.907227" lon="12.269657"><ele>73.75</ele></trkpt>
   <trkpt lat="51.907404" lon="12.270401"><ele>74</ele></trkpt>
   <trkpt lat="51.907537" lon="12.271082"><ele>74</ele></trkpt>
   <trkpt lat="51.907607" lon="12.271486"><ele>73.5</ele></trkpt>
   <trkpt lat="51.907702" lon="12.272159"><ele>75</ele></trkpt>
   <trkpt lat="51.907765" lon="12.272722"><ele>74</ele></trkpt>
   <trkpt lat="51.907803" lon="12.273102"><ele>74.25</ele></trkpt>
   <trkpt lat="51.908316" lon="12.278425"><ele>76.5</ele></trkpt>
   <trkpt lat="51.908371" lon="12.278877"><ele>76</ele></trkpt>
   <trkpt lat="51.908525" lon="12.279915"><ele>78</ele></trkpt>
   <trkpt lat="51.908597" lon="12.280358"><ele>77</ele></trkpt>
   <trkpt lat="51.908665" lon="12.280712"><ele>77.5</ele></trkpt>
   <trkpt lat="51.908895" lon="12.281755"><ele>78</ele></trkpt>
   <trkpt lat="51.908929" lon="12.281909"><ele>78</ele></trkpt>
   <trkpt lat="51.908931" lon="12.28192"><ele>78</ele></trkpt>
   <trkpt lat="51.908932" lon="12.281922"><ele>78</ele></trkpt>
   <trkpt lat="51.909225" lon="12.283271"><ele>78</ele></trkpt>
   <trkpt lat="51.909418" lon="12.284243"><ele>78.5</ele></trkpt>
   <trkpt lat="51.909506" lon="12.284748"><ele>78</ele></trkpt>
   <trkpt lat="51.909635" lon="12.285554"><ele>78</ele></trkpt>
   <trkpt lat="51.909766" lon="12.286454"><ele>77.75</ele></trkpt>
   <trkpt lat="51.909924" lon="12.287808"><ele>77.5</ele></trkpt>
   <trkpt lat="51.910009" lon="12.288641"><ele>78.75</ele></trkpt>
   <trkpt lat="51.910075" lon="12.289395"><ele>78</ele></trkpt>
   <trkpt lat="51.910139" lon="12.290262"><ele>78</ele></trkpt>
   <trkpt lat="51.910192" lon="12.291139"><ele>79</ele></trkpt>
   <trkpt lat="51.910233" lon="12.292067"><ele>79.25</ele></trkpt>
   <trkpt lat="51.910257" lon="12.292823"><ele>79</ele></trkpt>
   <trkpt lat="51.910276" lon="12.293744"><ele>79.25</ele></trkpt>
   <trkpt lat="51.910277" lon="12.294569"><ele>80</ele></trkpt>
   <trkpt lat="51.910259" lon="12.295586"><ele>80</ele></trkpt>
   <trkpt lat="51.910226" lon="12.296599"><ele>80.75</ele></trkpt>
   <trkpt lat="51.910182" lon="12.297377"><ele>81.25</ele></trkpt>
   <trkpt lat="51.910123" lon="12.298233"><ele>80.75</ele></trkpt>
   <trkpt lat="51.910053" lon="12.299015"><ele>80</ele></trkpt>
   <trkpt lat="51.909971" lon="12.299797"><ele>80</ele></trkpt>
   <trkpt lat="51.909862" lon="12.30068"><ele>80.5</ele></trkpt>
   <trkpt lat="51.909778" lon="12.301288"><ele>79.25</ele></trkpt>
   <trkpt lat="51.909759" lon="12.301428"><ele>79.25</ele></trkpt>
   <trkpt lat="51.909626" lon="12.302279"><ele>80</ele></trkpt>
   <trkpt lat="51.909486" lon="12.303115"><ele>79.25</ele></trkpt>
   <trkpt lat="51.909207" lon="12.304514"><ele>79</ele></trkpt>
   <trkpt lat="51.909049" lon="12.305231"><ele>79.75</ele></trkpt>
   <trkpt lat="51.908847" lon="12.306081"><ele>78.75</ele></trkpt>
   <trkpt lat="51.908215" lon="12.3085"><ele>78.75</ele></trkpt>
   <trkpt lat="51.906707" lon="12.31414"><ele>75.25</ele></trkpt>
   <trkpt lat="51.904161" lon="12.323634"><ele>77</ele></trkpt>
   <trkpt lat="51.899032" lon="12.342979"><ele>77.25</ele></trkpt>
   <trkpt lat="51.898456" lon="12.345461"><ele>78</ele></trkpt>
   <trkpt lat="51.898078" lon="12.347216"><ele>77</ele></trkpt>
   <trkpt lat="51.897903" lon="12.348132"><ele>76.5</ele></trkpt>
   <trkpt lat="51.897656" lon="12.349558"><ele>74.25</ele></trkpt>
   <trkpt lat="51.89739" lon="12.35123"><ele>73.25</ele></trkpt>
   <trkpt lat="51.897359" lon="12.351471"><ele>73.75</ele></trkpt>
   <trkpt lat="51.896917" lon="12.354511"><ele>76.75</ele></trkpt>
   <trkpt lat="51.895966" lon="12.361475"><ele>73.25</ele></trkpt>
   <trkpt lat="51.895931" lon="12.36173"><ele>74.5</ele></trkpt>
   <trkpt lat="51.89451" lon="12.371996"><ele>79.25</ele></trkpt>
   <trkpt lat="51.894434" lon="12.372527"><ele>79</ele></trkpt>
   <trkpt lat="51.893664" lon="12.378024"><ele>77.75</ele></trkpt>
   <trkpt lat="51.893361" lon="12.380307"><ele>78.5</ele></trkpt>
   <trkpt lat="51.893326" lon="12.380576"><ele>77.75</ele></trkpt>
   <trkpt lat="51.89048" lon="12.401053"><ele>82.5</ele></trkpt>
   <trkpt lat="51.890462" lon="12.401182"><ele>82.75</ele></trkpt>
   <trkpt lat="51.890333" lon="12.402108"><ele>83</ele></trkpt>
   <trkpt lat="51.889514" lon="12.408035"><ele>83</ele></trkpt>
   <trkpt lat="51.88938" lon="12.409105"><ele>83</ele></trkpt>
   <trkpt lat="51.889257" lon="12.410186"><ele>83</ele></trkpt>
   <trkpt lat="51.889025" lon="12.412401"><ele>82.75</ele></trkpt>
   <trkpt lat="51.888911" lon="12.414071"><ele>82</ele></trkpt>
   <trkpt lat="51.88884" lon="12.4153"><ele>82</ele></trkpt>
   <trkpt lat="51.888746" lon="12.418133"><ele>81.75</ele></trkpt>
   <trkpt lat="51.888724" lon="12.419497"><ele>81.75</ele></trkpt>
   <trkpt lat="51.888729" lon="12.420791"><ele>81.75</ele></trkpt>
   <trkpt lat="51.888909" lon="12.42797"><ele>79.25</ele></trkpt>
   <trkpt lat="51.888884" lon="12.428648"><ele>79.75</ele></trkpt>
   <trkpt lat="51.888922" lon="12.430378"><ele>77.75</ele></trkpt>
   <trkpt lat="51.888917" lon="12.430654"><ele>75.75</ele></trkpt>
   <trkpt lat="51.888909" lon="12.431023"><ele>78.25</ele></trkpt>
   <trkpt lat="51.8889" lon="12.431453"><ele>79.75</ele></trkpt>
   <trkpt lat="51.888906" lon="12.43214"><ele>80</ele></trkpt>
   <trkpt lat="51.889013" lon="12.436565"><ele>81.25</ele></trkpt>
   <trkpt lat="51.889128" lon="12.441964"><ele>81.75</ele></trkpt>
   <trkpt lat="51.889136" lon="12.442767"><ele>81.5</ele></trkpt>
   <trkpt lat="51.889128" lon="12.443295"><ele>81.25</ele></trkpt>
   <trkpt lat="51.889126" lon="12.443796"><ele>79.75</ele></trkpt>
   <trkpt lat="51.889156" lon="12.444755"><ele>81.75</ele></trkpt>
   <trkpt lat="51.889156" lon="12.444835"><ele>81.75</ele></trkpt>
   <trkpt lat="51.889142" lon="12.445426"><ele>81.75</ele></trkpt>
   <trkpt lat="51.889153" lon="12.44578"><ele>82</ele></trkpt>
   <trkpt lat="51.889157" lon="12.446204"><ele>82</ele></trkpt>
   <trkpt lat="51.889139" lon="12.446689"><ele>83</ele></trkpt>
   <trkpt lat="51.88908" lon="12.447932"><ele>84</ele></trkpt>
   <trkpt lat="51.888977" lon="12.449621"><ele>83.25</ele></trkpt>
   <trkpt lat="51.888894" lon="12.450804"><ele>82</ele></trkpt>
   <trkpt lat="51.888798" lon="12.452033"><ele>84.25</ele></trkpt>
   <trkpt lat="51.888704" lon="12.453068"><ele>84</ele></trkpt>
   <trkpt lat="51.888632" lon="12.453774"><ele>82.25</ele></trkpt>
   <trkpt lat="51.888522" lon="12.45473"><ele>82.5</ele></trkpt>
   <trkpt lat="51.888435" lon="12.45542"><ele>82.25</ele></trkpt>
   <trkpt lat="51.888349" lon="12.456044"><ele>82.25</ele></trkpt>
   <trkpt lat="51.888139" lon="12.457399"><ele>82</ele></trkpt>
   <trkpt lat="51.887979" lon="12.458319"><ele>81.25</ele></trkpt>
   <trkpt lat="51.887745" lon="12.459531"><ele>81.25</ele></trkpt>
   <trkpt lat="51.887564" lon="12.460392"><ele>81</ele></trkpt>
   <trkpt lat="51.887541" lon="12.460503"><ele>81</ele></trkpt>
   <trkpt lat="51.887497" lon="12.460705"><ele>80.75</ele></trkpt>
   <trkpt lat="51.887252" lon="12.461773"><ele>80.25</ele></trkpt>
   <trkpt lat="51.886921" lon="12.463221"><ele>79</ele></trkpt>
   <trkpt lat="51.886409" lon="12.465579"><ele>78.25</ele></trkpt>
   <trkpt lat="51.885991" lon="12.467538"><ele>78.5</ele></trkpt>
   <trkpt lat="51.885123" lon="12.471604"><ele>79</ele></trkpt>
   <trkpt lat="51.884796" lon="12.47321"><ele>78.25</ele></trkpt>
   <trkpt lat="51.884609" lon="12.474217"><ele>76</ele></trkpt>
   <trkpt lat="51.884363" lon="12.475657"><ele>75.75</ele></trkpt>
   <trkpt lat="51.884167" lon="12.476925"><ele>77.75</ele></trkpt>
   <trkpt lat="51.884071" lon="12.477599"><ele>75.75</ele></trkpt>
   <trkpt lat="51.883875" lon="12.479133"><ele>77.75</ele></trkpt>
   <trkpt lat="51.883775" lon="12.480015"><ele>76</ele></trkpt>
   <trkpt lat="51.883683" lon="12.480903"><ele>77.25</ele></trkpt>
   <trkpt lat="51.883553" lon="12.482352"><ele>77.75</ele></trkpt>
   <trkpt lat="51.88351" lon="12.482889"><ele>78</ele></trkpt>
   <trkpt lat="51.883435" lon="12.483993"><ele>79.25</ele></trkpt>
   <trkpt lat="51.883372" lon="12.485103"><ele>79.25</ele></trkpt>
   <trkpt lat="51.883324" lon="12.486217"><ele>79.75</ele></trkpt>
   <trkpt lat="51.883292" lon="12.487261"><ele>79.75</ele></trkpt>
   <trkpt lat="51.883272" lon="12.488318"><ele>80.25</ele></trkpt>
   <trkpt lat="51.883266" lon="12.489139"><ele>80.25</ele></trkpt>
   <trkpt lat="51.883269" lon="12.490327"><ele>82</ele></trkpt>
   <trkpt lat="51.883408" lon="12.499585"><ele>79.25</ele></trkpt>
   <trkpt lat="51.883413" lon="12.500754"><ele>78.25</ele></trkpt>
   <trkpt lat="51.883402" lon="12.501614"><ele>77.75</ele></trkpt>
   <trkpt lat="51.883357" lon="12.502847"><ele>77.75</ele></trkpt>
   <trkpt lat="51.883313" lon="12.503565"><ele>77.5</ele></trkpt>
   <trkpt lat="51.883259" lon="12.504273"><ele>75.75</ele></trkpt>
   <trkpt lat="51.883184" lon="12.505071"><ele>71.25</ele></trkpt>
   <trkpt lat="51.883096" lon="12.505843"><ele>76</ele></trkpt>
   <trkpt lat="51.882915" lon="12.507193"><ele>73.5</ele></trkpt>
   <trkpt lat="51.882898" lon="12.507318"><ele>74</ele></trkpt>
   <trkpt lat="51.880919" lon="12.520911"><ele>76.75</ele></trkpt>
   <trkpt lat="51.880907" lon="12.520996"><ele>77</ele></trkpt>
   <trkpt lat="51.880636" lon="12.522845"><ele>78</ele></trkpt>
   <trkpt lat="51.880521" lon="12.52364"><ele>78.5</ele></trkpt>
   <trkpt lat="51.880262" lon="12.525412"><ele>79</ele></trkpt>
   <trkpt lat="51.878645" lon="12.53651"><ele>79</ele></trkpt>
   <trkpt lat="51.878382" lon="12.538324"><ele>79.25</ele></trkpt>
   <trkpt lat="51.878302" lon="12.538919"><ele>79.75</ele></trkpt>
   <trkpt lat="51.878226" lon="12.539517"><ele>80</ele></trkpt>
   <trkpt lat="51.878086" lon="12.540723"><ele>79</ele></trkpt>
   <trkpt lat="51.877076" lon="12.54996"><ele>76</ele></trkpt>
   <trkpt lat="51.877068" lon="12.550029"><ele>76</ele></trkpt>
   <trkpt lat="51.876543" lon="12.554822"><ele>75.25</ele></trkpt>
   <trkpt lat="51.876474" lon="12.555508"><ele>70.25</ele></trkpt>
   <trkpt lat="51.876384" lon="12.556258"><ele>73.25</ele></trkpt>
   <trkpt lat="51.876017" lon="12.559638"><ele>75</ele></trkpt>
   <trkpt lat="51.875817" lon="12.56141"><ele>75</ele></trkpt>
   <trkpt lat="51.875164" lon="12.567245"><ele>74</ele></trkpt>
   <trkpt lat="51.874714" lon="12.571396"><ele>74</ele></trkpt>
   <trkpt lat="51.874653" lon="12.571947"><ele>74</ele></trkpt>
   <trkpt lat="51.874611" lon="12.572335"><ele>74</ele></trkpt>
   <trkpt lat="51.874422" lon="12.574315"><ele>74</ele></trkpt>
   <trkpt lat="51.874303" lon="12.575614"><ele>74</ele></trkpt>
   <trkpt lat="51.874238" lon="12.576248"><ele>74</ele></trkpt>
   <trkpt lat="51.874115" lon="12.577307"><ele>74.75</ele></trkpt>
   <trkpt lat="51.873601" lon="12.581543"><ele>73.75</ele></trkpt>
   <trkpt lat="51.873051" lon="12.586429"><ele>73.75</ele></trkpt>
   <trkpt lat="51.872048" lon="12.595457"><ele>74.25</ele></trkpt>
   <trkpt lat="51.871986" lon="12.596014"><ele>74</ele></trkpt>
   <trkpt lat="51.871901" lon="12.59677"><ele>74</ele></trkpt>
   <trkpt lat="51.871842" lon="12.597305"><ele>73.75</ele></trkpt>
   <trkpt lat="51.871764" lon="12.598539"><ele>73</ele></trkpt>
   <trkpt lat="51.871424" lon="12.601609"><ele>71.5</ele></trkpt>
   <trkpt lat="51.871395" lon="12.601871"><ele>72.25</ele></trkpt>
   <trkpt lat="51.871205" lon="12.603685"><ele>72.5</ele></trkpt>
   <trkpt lat="51.87092" lon="12.606823"><ele>73.25</ele></trkpt>
   <trkpt lat="51.870849" lon="12.607494"><ele>73</ele></trkpt>
   <trkpt lat="51.870772" lon="12.608138"><ele>74</ele></trkpt>
   <trkpt lat="51.870574" lon="12.609674"><ele>73</ele></trkpt>
   <trkpt lat="51.870566" lon="12.609744"><ele>73</ele></trkpt>
   <trkpt lat="51.870437" lon="12.610771"><ele>73.5</ele></trkpt>
   <trkpt lat="51.870384" lon="12.611213"><ele>73.25</ele></trkpt>
   <trkpt lat="51.870333" lon="12.611574"><ele>73</ele></trkpt>
   <trkpt lat="51.870165" lon="12.61257"><ele>73</ele></trkpt>
   <trkpt lat="51.87012" lon="12.612917"><ele>73.5</ele></trkpt>
   <trkpt lat="51.86994" lon="12.614464"><ele>73</ele></trkpt>
   <trkpt lat="51.869798" lon="12.615621"><ele>73</ele></trkpt>
   <trkpt lat="51.869629" lon="12.61685"><ele>73</ele></trkpt>
   <trkpt lat="51.869443" lon="12.617986"><ele>73</ele></trkpt>
   <trkpt lat="51.869249" lon="12.619082"><ele>72</ele></trkpt>
   <trkpt lat="51.869007" lon="12.620313"><ele>72</ele></trkpt>
   <trkpt lat="51.86888" lon="12.620919"><ele>72</ele></trkpt>
   <trkpt lat="51.86859" lon="12.622195"><ele>72</ele></trkpt>
   <trkpt lat="51.86824" lon="12.623588"><ele>72</ele></trkpt>
   <trkpt lat="51.86794" lon="12.62469"><ele>72</ele></trkpt>
   <trkpt lat="51.866244" lon="12.63041"><ele>72</ele></trkpt>
   <trkpt lat="51.865832" lon="12.631908"><ele>69.25</ele></trkpt>
   <trkpt lat="51.865803" lon="12.632021"><ele>69.25</ele></trkpt>
   <trkpt lat="51.865491" lon="12.633265"><ele>70</ele></trkpt>
   <trkpt lat="51.86543" lon="12.633518"><ele>70</ele></trkpt>
   <trkpt lat="51.865321" lon="12.63396"><ele>69.5</ele></trkpt>
   <trkpt lat="51.864689" lon="12.63691"><ele>69</ele></trkpt>
   <trkpt lat="51.863974" lon="12.640357"><ele>69</ele></trkpt>
   <trkpt lat="51.863567" lon="12.642344"><ele>69.5</ele></trkpt>
   <trkpt lat="51.862991" lon="12.645078"><ele>69</ele></trkpt>
   <trkpt lat="51.862895" lon="12.645556"><ele>69</ele></trkpt>
   <trkpt lat="51.862342" lon="12.648054"><ele>69</ele></trkpt>
   <trkpt lat="51.862026" lon="12.649539"><ele>69</ele></trkpt>
   <trkpt lat="51.861919" lon="12.650168"><ele>68.5</ele></trkpt>
   <trkpt lat="51.861846" lon="12.650811"><ele>69.5</ele></trkpt>
   <trkpt lat="51.861816" lon="12.651224"><ele>69.75</ele></trkpt>
   <trkpt lat="51.861805" lon="12.651529"><ele>69.75</ele></trkpt>
   <trkpt lat="51.861812" lon="12.652253"><ele>69.25</ele></trkpt>
   <trkpt lat="51.86183" lon="12.652579"><ele>69.25</ele></trkpt>
   <trkpt lat="51.861871" lon="12.653"><ele>69.25</ele></trkpt>
   <trkpt lat="51.861919" lon="12.653398"><ele>69</ele></trkpt>
   <trkpt lat="51.861967" lon="12.653703"><ele>69</ele></trkpt>
   <trkpt lat="51.862035" lon="12.654059"><ele>69</ele></trkpt>
   <trkpt lat="51.862088" lon="12.654294"><ele>69</ele></trkpt>
   <trkpt lat="51.862211" lon="12.654735"><ele>70</ele></trkpt>
   <trkpt lat="51.862284" lon="12.654993"><ele>70</ele></trkpt>
   <trkpt lat="51.862354" lon="12.655215"><ele>72.5</ele></trkpt>
   <trkpt lat="51.862469" lon="12.655511"><ele>71.75</ele></trkpt>
   <trkpt lat="51.862642" lon="12.655926"><ele>72.25</ele></trkpt>
   <trkpt lat="51.862784" lon="12.656237"><ele>70.5</ele></trkpt>
   <trkpt lat="51.86293" lon="12.656526"><ele>70.75</ele></trkpt>
   <trkpt lat="51.86315" lon="12.656901"><ele>69.5</ele></trkpt>
   <trkpt lat="51.863204" lon="12.656992"><ele>69</ele></trkpt>
   <trkpt lat="51.863423" lon="12.657357"><ele>70</ele></trkpt>
   <trkpt lat="51.863619" lon="12.657659"><ele>70.5</ele></trkpt>
   <trkpt lat="51.863809" lon="12.657941"><ele>71</ele></trkpt>
   <trkpt lat="51.864315" lon="12.658658"><ele>70.75</ele></trkpt>
   <trkpt lat="51.86516" lon="12.659842"><ele>71.5</ele></trkpt>
   <trkpt lat="51.865359" lon="12.660091"><ele>71.75</ele></trkpt>
   <trkpt lat="51.865604" lon="12.660379"><ele>71.5</ele></trkpt>
   <trkpt lat="51.866181" lon="12.660981"><ele>72</ele></trkpt>
   <trkpt lat="51.866495" lon="12.661281"><ele>72</ele></trkpt>
   <trkpt lat="51.866989" lon="12.661786"><ele>72</ele></trkpt>
   <trkpt lat="51.867476" lon="12.662287"><ele>72</ele></trkpt>
   <trkpt lat="51.868162" lon="12.663009"><ele>72.25</ele></trkpt>
   <trkpt lat="51.869177" lon="12.664131"><ele>72</ele></trkpt>
   <trkpt lat="51.86919" lon="12.664143"><ele>72</ele></trkpt>
   <trkpt lat="51.869553" lon="12.664494"><ele>72</ele></trkpt>
   <trkpt lat="51.86977" lon="12.664684"><ele>72</ele></trkpt>
   <trkpt lat="51.870959" lon="12.665638"><ele>72</ele></trkpt>
   <trkpt lat="51.871515" lon="12.666086"><ele>72</ele></trkpt>
   <trkpt lat="51.871893" lon="12.666426"><ele>72</ele></trkpt>
   <trkpt lat="51.87212" lon="12.66665"><ele>72</ele></trkpt>
   <trkpt lat="51.872411" lon="12.666959"><ele>72</ele></trkpt>
   <trkpt lat="51.873035" lon="12.667666"><ele>72</ele></trkpt>
   <trkpt lat="51.873024" lon="12.667652"><ele>72</ele></trkpt>
   <trkpt lat="51.873035" lon="12.667666"><ele>72</ele></trkpt>
   <trkpt lat="51.873378" lon="12.66807"><ele>72</ele></trkpt>
   <trkpt lat="51.8736" lon="12.66835"><ele>72</ele></trkpt>
   <trkpt lat="51.873875" lon="12.668738"><ele>72</ele></trkpt>
   <trkpt lat="51.874179" lon="12.669206"><ele>72</ele></trkpt>
   <trkpt lat="51.874273" lon="12.669371"><ele>72.5</ele></trkpt>
   <trkpt lat="51.874399" lon="12.669599"><ele>72.25</ele></trkpt>
   <trkpt lat="51.874583" lon="12.669936"><ele>73.25</ele></trkpt>
   <trkpt lat="51.874824" lon="12.670407"><ele>73.75</ele></trkpt>
   <trkpt lat="51.87494" lon="12.670668"><ele>73.25</ele></trkpt>
   <trkpt lat="51.875098" lon="12.671041"><ele>73.25</ele></trkpt>
   <trkpt lat="51.875332" lon="12.671687"><ele>73</ele></trkpt>
   <trkpt lat="51.875436" lon="12.672007"><ele>73.5</ele></trkpt>
   <trkpt lat="51.875486" lon="12.672177"><ele>73.25</ele></trkpt>
   <trkpt lat="51.875676" lon="12.672917"><ele>73.5</ele></trkpt>
   <trkpt lat="51.875772" lon="12.673372"><ele>73.25</ele></trkpt>
   <trkpt lat="51.875903" lon="12.67412"><ele>73.5</ele></trkpt>
   <trkpt lat="51.875952" lon="12.674485"><ele>74.5</ele></trkpt>
   <trkpt lat="51.875999" lon="12.674968"><ele>74.25</ele></trkpt>
   <trkpt lat="51.87603" lon="12.675334"><ele>74.75</ele></trkpt>
   <trkpt lat="51.876047" lon="12.675657"><ele>74.5</ele></trkpt>
   <trkpt lat="51.876057" lon="12.675944"><ele>73.75</ele></trkpt>
   <trkpt lat="51.876063" lon="12.676493"><ele>74.5</ele></trkpt>
   <trkpt lat="51.876046" lon="12.677117"><ele>74.75</ele></trkpt>
   <trkpt lat="51.876022" lon="12.677487"><ele>74.5</ele></trkpt>
   <trkpt lat="51.876002" lon="12.677737"><ele>75</ele></trkpt>
   <trkpt lat="51.875987" lon="12.677915"><ele>75.25</ele></trkpt>
   <trkpt lat="51.875935" lon="12.678394"><ele>74.25</ele></trkpt>
   <trkpt lat="51.875862" lon="12.678896"><ele>74</ele></trkpt>
   <trkpt lat="51.875788" lon="12.679318"><ele>74.25</ele></trkpt>
   <trkpt lat="51.875723" lon="12.679645"><ele>75.25</ele></trkpt>
   <trkpt lat="51.875622" lon="12.680072"><ele>74.75</ele></trkpt>
   <trkpt lat="51.875582" lon="12.680227"><ele>74.25</ele></trkpt>
   <trkpt lat="51.875406" lon="12.680865"><ele>75.25</ele></trkpt>
   <trkpt lat="51.875147" lon="12.681748"><ele>75</ele></trkpt>
   <trkpt lat="51.874924" lon="12.68238"><ele>75</ele></trkpt>
   <trkpt lat="51.873711" lon="12.686505"><ele>75.5</ele></trkpt>
   <trkpt lat="51.872166" lon="12.691802"><ele>76</ele></trkpt>
   <trkpt lat="51.871378" lon="12.694518"><ele>76.75</ele></trkpt>
   <trkpt lat="51.87111" lon="12.695436"><ele>77</ele></trkpt>
   <trkpt lat="51.871085" lon="12.695519"><ele>77</ele></trkpt>
   <trkpt lat="51.871059" lon="12.695609"><ele>77</ele></trkpt>
   <trkpt lat="51.869442" lon="12.701153"><ele>75.75</ele></trkpt>
   <trkpt lat="51.867164" lon="12.708924"><ele>75.75</ele></trkpt>
   <trkpt lat="51.86049" lon="12.731689"><ele>73</ele></trkpt>
   <trkpt lat="51.859752" lon="12.734213"><ele>73</ele></trkpt>
   <trkpt lat="51.856701" lon="12.744571"><ele>71.5</ele></trkpt>
   <trkpt lat="51.856126" lon="12.746537"><ele>72.75</ele></trkpt>
   <trkpt lat="51.855791" lon="12.747679"><ele>73.5</ele></trkpt>
   <trkpt lat="51.85576" lon="12.747786"><ele>73.75</ele></trkpt>
   <trkpt lat="51.855669" lon="12.748095"><ele>73.25</ele></trkpt>
   <trkpt lat="51.854927" lon="12.750626"><ele>72</ele></trkpt>
   <trkpt lat="51.854875" lon="12.7508"><ele>71.25</ele></trkpt>
   <trkpt lat="51.85245" lon="12.759083"><ele>72.75</ele></trkpt>
   <trkpt lat="51.852429" lon="12.759156"><ele>72.75</ele></trkpt>
   <trkpt lat="51.849328" lon="12.769691"><ele>73</ele></trkpt>
   <trkpt lat="51.845636" lon="12.782268"><ele>73.75</ele></trkpt>
   <trkpt lat="51.840803" lon="12.798682"><ele>72.75</ele></trkpt>
   <trkpt lat="51.837789" lon="12.808901"><ele>71.75</ele></trkpt>
   <trkpt lat="51.837757" lon="12.809008"><ele>72</ele></trkpt>
   <trkpt lat="51.836305" lon="12.813963"><ele>72</ele></trkpt>
   <trkpt lat="51.835652" lon="12.816182"><ele>72</ele></trkpt>
   <trkpt lat="51.835552" lon="12.816542"><ele>72.75</ele></trkpt>
   <trkpt lat="51.835234" lon="12.817592"><ele>73</ele></trkpt>
   <trkpt lat="51.834977" lon="12.818463"><ele>72.75</ele></trkpt>
   <trkpt lat="51.832334" lon="12.82744"><ele>73.5</ele></trkpt>
   <trkpt lat="51.831502" lon="12.830263"><ele>73.25</ele></trkpt>
   <trkpt lat="51.831194" lon="12.831319"><ele>72.75</ele></trkpt>
   <trkpt lat="51.82621" lon="12.848238"><ele>71.25</ele></trkpt>
   <trkpt lat="51.825353" lon="12.8512"><ele>72</ele></trkpt>
   <trkpt lat="51.825314" lon="12.851326"><ele>72.5</ele></trkpt>
   <trkpt lat="51.823459" lon="12.857597"><ele>73.5</ele></trkpt>
   <trkpt lat="51.821477" lon="12.864342"><ele>74</ele></trkpt>
   <trkpt lat="51.820947" lon="12.866203"><ele>74</ele></trkpt>
   <trkpt lat="51.820579" lon="12.867585"><ele>74.25</ele></trkpt>
   <trkpt lat="51.815602" lon="12.8865"><ele>74.25</ele></trkpt>
   <trkpt lat="51.812381" lon="12.898731"><ele>73.5</ele></trkpt>
   <trkpt lat="51.811083" lon="12.903661"><ele>74.75</ele></trkpt>
   <trkpt lat="51.810947" lon="12.904165"><ele>74</ele></trkpt>
   <trkpt lat="51.810644" lon="12.905317"><ele>75</ele></trkpt>
   <trkpt lat="51.810608" lon="12.90545"><ele>74.75</ele></trkpt>
   <trkpt lat="51.810361" lon="12.906389"><ele>74</ele></trkpt>
   <trkpt lat="51.810243" lon="12.906838"><ele>74.75</ele></trkpt>
   <trkpt lat="51.807246" lon="12.918209"><ele>74.75</ele></trkpt>
   <trkpt lat="51.806799" lon="12.919903"><ele>74.5</ele></trkpt>
   <trkpt lat="51.806765" lon="12.92003"><ele>74.5</ele></trkpt>
   <trkpt lat="51.804522" lon="12.928554"><ele>74.5</ele></trkpt>
   <trkpt lat="51.80382" lon="12.931179"><ele>75.5</ele></trkpt>
   <trkpt lat="51.803461" lon="12.932417"><ele>75.25</ele></trkpt>
   <trkpt lat="51.802875" lon="12.934249"><ele>76</ele></trkpt>
   <trkpt lat="51.802769" lon="12.93455"><ele>75.75</ele></trkpt>
   <trkpt lat="51.802429" lon="12.935504"><ele>76.5</ele></trkpt>
   <trkpt lat="51.802272" lon="12.935913"><ele>76</ele></trkpt>
   <trkpt lat="51.801978" lon="12.93668"><ele>76</ele></trkpt>
   <trkpt lat="51.801469" lon="12.937942"><ele>75.5</ele></trkpt>
   <trkpt lat="51.800965" lon="12.939097"><ele>76</ele></trkpt>
   <trkpt lat="51.800347" lon="12.940406"><ele>76</ele></trkpt>
   <trkpt lat="51.798188" lon="12.944452"><ele>76</ele></trkpt>
   <trkpt lat="51.79807" lon="12.94468"><ele>76</ele></trkpt>
   <trkpt lat="51.797834" lon="12.945108"><ele>76</ele></trkpt>
   <trkpt lat="51.797568" lon="12.945703"><ele>76</ele></trkpt>
   <trkpt lat="51.797286" lon="12.946288"><ele>76</ele></trkpt>
   <trkpt lat="51.79719" lon="12.946462"><ele>76</ele></trkpt>
   <trkpt lat="51.796846" lon="12.947177"><ele>76</ele></trkpt>
   <trkpt lat="51.796688" lon="12.947524"><ele>76</ele></trkpt>
   <trkpt lat="51.796497" lon="12.947871"><ele>76</ele></trkpt>
   <trkpt lat="51.795875" lon="12.94904"><ele>76</ele></trkpt>
   <trkpt lat="51.795856" lon="12.949074"><ele>76</ele></trkpt>
   <trkpt lat="51.79204" lon="12.956249"><ele>76</ele></trkpt>
   <trkpt lat="51.79194" lon="12.956428"><ele>76</ele></trkpt>
   <trkpt lat="51.791894" lon="12.956508"><ele>76</ele></trkpt>
   <trkpt lat="51.791759" lon="12.956744"><ele>76</ele></trkpt>
   <trkpt lat="51.791486" lon="12.957174"><ele>75.75</ele></trkpt>
   <trkpt lat="51.791408" lon="12.957298"><ele>76</ele></trkpt>
   <trkpt lat="51.79127" lon="12.957568"><ele>75.5</ele></trkpt>
   <trkpt lat="51.791172" lon="12.957752"><ele>75.75</ele></trkpt>
   <trkpt lat="51.7911" lon="12.957883"><ele>75.75</ele></trkpt>
   <trkpt lat="51.789847" lon="12.9602"><ele>74.25</ele></trkpt>
   <trkpt lat="51.78928" lon="12.961257"><ele>73.25</ele></trkpt>
   <trkpt lat="51.789095" lon="12.961601"><ele>73</ele></trkpt>
   <trkpt lat="51.788913" lon="12.961932"><ele>74.75</ele></trkpt>
   <trkpt lat="51.788737" lon="12.962271"><ele>73</ele></trkpt>
   <trkpt lat="51.787357" lon="12.964871"><ele>72</ele></trkpt>
   <trkpt lat="51.787337" lon="12.964908"><ele>71.75</ele></trkpt>
   <trkpt lat="51.78684" lon="12.965799"><ele>72.75</ele></trkpt>
   <trkpt lat="51.786181" lon="12.967057"><ele>73.75</ele></trkpt>
   <trkpt lat="51.786131" lon="12.967153"><ele>74.5</ele></trkpt>
   <trkpt lat="51.785952" lon="12.967484"><ele>73.75</ele></trkpt>
   <trkpt lat="51.78589" lon="12.967602"><ele>74</ele></trkpt>
   <trkpt lat="51.78492" lon="12.969434"><ele>74</ele></trkpt>
   <trkpt lat="51.784235" lon="12.970644"><ele>73.75</ele></trkpt>
   <trkpt lat="51.784006" lon="12.971027"><ele>74.5</ele></trkpt>
   <trkpt lat="51.783346" lon="12.972099"><ele>73.75</ele></trkpt>
   <trkpt lat="51.782709" lon="12.97305"><ele>74.75</ele></trkpt>
   <trkpt lat="51.782402" lon="12.973503"><ele>73.5</ele></trkpt>
   <trkpt lat="51.781711" lon="12.974463"><ele>74.5</ele></trkpt>
   <trkpt lat="51.781419" lon="12.974831"><ele>73.75</ele></trkpt>
   <trkpt lat="51.780773" lon="12.975647"><ele>74.5</ele></trkpt>
   <trkpt lat="51.779841" lon="12.976671"><ele>74.5</ele></trkpt>
   <trkpt lat="51.778575" lon="12.977996"><ele>74</ele></trkpt>
   <trkpt lat="51.778405" lon="12.978172"><ele>74.25</ele></trkpt>
   <trkpt lat="51.77762" lon="12.978989"><ele>74.75</ele></trkpt>
   <trkpt lat="51.776977" lon="12.979647"><ele>74.75</ele></trkpt>
   <trkpt lat="51.776599" lon="12.980031"><ele>74.75</ele></trkpt>
   <trkpt lat="51.775267" lon="12.981395"><ele>73.75</ele></trkpt>
   <trkpt lat="51.773574" lon="12.983126"><ele>75</ele></trkpt>
   <trkpt lat="51.772144" lon="12.984567"><ele>74.25</ele></trkpt>
   <trkpt lat="51.772043" lon="12.98467"><ele>74.25</ele></trkpt>
   <trkpt lat="51.770412" lon="12.986324"><ele>74</ele></trkpt>
   <trkpt lat="51.770351" lon="12.986387"><ele>74.25</ele></trkpt>
   <trkpt lat="51.770277" lon="12.986462"><ele>74.5</ele></trkpt>
   <trkpt lat="51.770209" lon="12.986531"><ele>74.25</ele></trkpt>
   <trkpt lat="51.769279" lon="12.987475"><ele>74</ele></trkpt>
   <trkpt lat="51.767541" lon="12.989241"><ele>74.5</ele></trkpt>
   <trkpt lat="51.7658" lon="12.991011"><ele>73.25</ele></trkpt>
   <trkpt lat="51.764723" lon="12.992105"><ele>74.25</ele></trkpt>
   <trkpt lat="51.762931" lon="12.993927"><ele>74.25</ele></trkpt>
   <trkpt lat="51.762834" lon="12.994026"><ele>74.25</ele></trkpt>
   <trkpt lat="51.762752" lon="12.99411"><ele>74.5</ele></trkpt>
   <trkpt lat="51.761657" lon="12.995224"><ele>73.75</ele></trkpt>
   <trkpt lat="51.760951" lon="12.995943"><ele>74.25</ele></trkpt>
   <trkpt lat="51.759916" lon="12.996996"><ele>74.25</ele></trkpt>
   <trkpt lat="51.75957" lon="12.99735"><ele>74.25</ele></trkpt>
   <trkpt lat="51.758732" lon="12.998202"><ele>74.25</ele></trkpt>
   <trkpt lat="51.757792" lon="12.999159"><ele>74.75</ele></trkpt>
   <trkpt lat="51.757702" lon="12.999251"><ele>74.25</ele></trkpt>
   <trkpt lat="51.756991" lon="12.999975"><ele>74.75</ele></trkpt>
   <trkpt lat="51.755369" lon="13.001626"><ele>74.5</ele></trkpt>
   <trkpt lat="51.7539" lon="13.003121"><ele>74.5</ele></trkpt>
   <trkpt lat="51.752265" lon="13.004785"><ele>74.5</ele></trkpt>
   <trkpt lat="51.750622" lon="13.006458"><ele>74.5</ele></trkpt>
   <trkpt lat="51.75055" lon="13.006531"><ele>74.5</ele></trkpt>
   <trkpt lat="51.749883" lon="13.007202"><ele>75.5</ele></trkpt>
   <trkpt lat="51.749178" lon="13.007921"><ele>74.75</ele></trkpt>
   <trkpt lat="51.748568" lon="13.008543"><ele>74.75</ele></trkpt>
   <trkpt lat="51.748425" lon="13.008683"><ele>74.75</ele></trkpt>
   <trkpt lat="51.748001" lon="13.009112"><ele>75</ele></trkpt>
   <trkpt lat="51.746763" lon="13.010364"><ele>75.5</ele></trkpt>
   <trkpt lat="51.746296" lon="13.010839"><ele>75</ele></trkpt>
   <trkpt lat="51.746211" lon="13.010925"><ele>75</ele></trkpt>
   <trkpt lat="51.744818" lon="13.012366"><ele>75</ele></trkpt>
   <trkpt lat="51.744551" lon="13.012636"><ele>75.25</ele></trkpt>
   <trkpt lat="51.743348" lon="13.013853"><ele>75.75</ele></trkpt>
   <trkpt lat="51.743285" lon="13.013916"><ele>75.75</ele></trkpt>
   <trkpt lat="51.741581" lon="13.01564"><ele>75.25</ele></trkpt>
   <trkpt lat="51.739964" lon="13.017275"><ele>75.5</ele></trkpt>
   <trkpt lat="51.739379" lon="13.01787"><ele>75.5</ele></trkpt>
   <trkpt lat="51.738902" lon="13.018358"><ele>75.75</ele></trkpt>
   <trkpt lat="51.737442" lon="13.019852"><ele>75.5</ele></trkpt>
   <trkpt lat="51.737341" lon="13.019955"><ele>75.5</ele></trkpt>
   <trkpt lat="51.737319" lon="13.019977"><ele>75.5</ele></trkpt>
   <trkpt lat="51.73713" lon="13.020158"><ele>75.25</ele></trkpt>
   <trkpt lat="51.736752" lon="13.020548"><ele>75.75</ele></trkpt>
   <trkpt lat="51.736081" lon="13.021268"><ele>75.25</ele></trkpt>
   <trkpt lat="51.735777" lon="13.02162"><ele>75</ele></trkpt>
   <trkpt lat="51.735523" lon="13.021939"><ele>75.75</ele></trkpt>
   <trkpt lat="51.735133" lon="13.022461"><ele>75.5</ele></trkpt>
   <trkpt lat="51.73456" lon="13.023329"><ele>75.5</ele></trkpt>
   <trkpt lat="51.734389" lon="13.023601"><ele>75.75</ele></trkpt>
   <trkpt lat="51.73373" lon="13.024539"><ele>75.25</ele></trkpt>
   <trkpt lat="51.73188" lon="13.027558"><ele>75.75</ele></trkpt>
   <trkpt lat="51.730919" lon="13.029141"><ele>76</ele></trkpt>
   <trkpt lat="51.729793" lon="13.030967"><ele>76</ele></trkpt>
   <trkpt lat="51.72863" lon="13.032828"><ele>76</ele></trkpt>
   <trkpt lat="51.728563" lon="13.032939"><ele>76</ele></trkpt>
   <trkpt lat="51.726897" lon="13.035714"><ele>76</ele></trkpt>
   <trkpt lat="51.726854" lon="13.035782"><ele>76</ele></trkpt>
   <trkpt lat="51.726727" lon="13.03599"><ele>76</ele></trkpt>
   <trkpt lat="51.72596" lon="13.037247"><ele>76</ele></trkpt>
   <trkpt lat="51.724351" lon="13.039913"><ele>76</ele></trkpt>
   <trkpt lat="51.720994" lon="13.045384"><ele>77</ele></trkpt>
   <trkpt lat="51.718153" lon="13.049993"><ele>76.5</ele></trkpt>
   <trkpt lat="51.706236" lon="13.069561"><ele>78</ele></trkpt>
   <trkpt lat="51.696762" lon="13.085146"><ele>80.25</ele></trkpt>
   <trkpt lat="51.679664" lon="13.113382"><ele>81</ele></trkpt>
   <trkpt lat="51.675987" lon="13.119441"><ele>82</ele></trkpt>
   <trkpt lat="51.671433" lon="13.126954"><ele>80.75</ele></trkpt>
   <trkpt lat="51.669589" lon="13.129993"><ele>81.5</ele></trkpt>
   <trkpt lat="51.662482" lon="13.1417"><ele>81.5</ele></trkpt>
   <trkpt lat="51.655952" lon="13.15244"><ele>82</ele></trkpt>
   <trkpt lat="51.64905" lon="13.163789"><ele>81.5</ele></trkpt>
   <trkpt lat="51.649043" lon="13.163801"><ele>81.5</ele></trkpt>
   <trkpt lat="51.648614" lon="13.164601"><ele>81.75</ele></trkpt>
   <trkpt lat="51.648529" lon="13.164742"><ele>81.5</ele></trkpt>
   <trkpt lat="51.648311" lon="13.165133"><ele>81.75</ele></trkpt>
   <trkpt lat="51.64814" lon="13.165475"><ele>81.75</ele></trkpt>
   <trkpt lat="51.647951" lon="13.1658"><ele>81.25</ele></trkpt>
   <trkpt lat="51.644099" lon="13.172156"><ele>82</ele></trkpt>
   <trkpt lat="51.643919" lon="13.172448"><ele>81.75</ele></trkpt>
   <trkpt lat="51.643335" lon="13.173295"><ele>82</ele></trkpt>
   <trkpt lat="51.643103" lon="13.173679"><ele>82</ele></trkpt>
   <trkpt lat="51.64272" lon="13.174315"><ele>82</ele></trkpt>
   <trkpt lat="51.64221" lon="13.175165"><ele>82</ele></trkpt>
   <trkpt lat="51.641651" lon="13.176067"><ele>82.75</ele></trkpt>
   <trkpt lat="51.641135" lon="13.176931"><ele>81.75</ele></trkpt>
   <trkpt lat="51.639956" lon="13.178879"><ele>81.75</ele></trkpt>
   <trkpt lat="51.639748" lon="13.179224"><ele>81.75</ele></trkpt>
   <trkpt lat="51.638687" lon="13.180976"><ele>82</ele></trkpt>
   <trkpt lat="51.637497" lon="13.182936"><ele>82</ele></trkpt>
   <trkpt lat="51.636262" lon="13.18497"><ele>82</ele></trkpt>
   <trkpt lat="51.634887" lon="13.187234"><ele>82</ele></trkpt>
   <trkpt lat="51.633988" lon="13.188709"><ele>82</ele></trkpt>
   <trkpt lat="51.633485" lon="13.189537"><ele>82.25</ele></trkpt>
   <trkpt lat="51.633458" lon="13.189583"><ele>82.5</ele></trkpt>
   <trkpt lat="51.632578" lon="13.191049"><ele>82.5</ele></trkpt>
   <trkpt lat="51.631358" lon="13.193037"><ele>82</ele></trkpt>
   <trkpt lat="51.630062" lon="13.195171"><ele>82.25</ele></trkpt>
   <trkpt lat="51.62862" lon="13.19754"><ele>82.75</ele></trkpt>
   <trkpt lat="51.627692" lon="13.199065"><ele>82.5</ele></trkpt>
   <trkpt lat="51.627488" lon="13.1994"><ele>82.75</ele></trkpt>
   <trkpt lat="51.626308" lon="13.201339"><ele>83</ele></trkpt>
   <trkpt lat="51.625775" lon="13.202216"><ele>83.75</ele></trkpt>
   <trkpt lat="51.625166" lon="13.203216"><ele>83</ele></trkpt>
   <trkpt lat="51.624675" lon="13.204026"><ele>83</ele></trkpt>
   <trkpt lat="51.624556" lon="13.204221"><ele>83</ele></trkpt>
   <trkpt lat="51.623701" lon="13.205623"><ele>83</ele></trkpt>
   <trkpt lat="51.623029" lon="13.206726"><ele>82.75</ele></trkpt>
   <trkpt lat="51.622361" lon="13.207824"><ele>83</ele></trkpt>
   <trkpt lat="51.621416" lon="13.20938"><ele>82.75</ele></trkpt>
   <trkpt lat="51.620574" lon="13.210763"><ele>82.75</ele></trkpt>
   <trkpt lat="51.619965" lon="13.21176"><ele>82.5</ele></trkpt>
   <trkpt lat="51.618713" lon="13.213821"><ele>83</ele></trkpt>
   <trkpt lat="51.617457" lon="13.215882"><ele>83</ele></trkpt>
   <trkpt lat="51.61683" lon="13.216916"><ele>83.25</ele></trkpt>
   <trkpt lat="51.616723" lon="13.217092"><ele>83.75</ele></trkpt>
   <trkpt lat="51.61626" lon="13.217852"><ele>83</ele></trkpt>
   <trkpt lat="51.616009" lon="13.218267"><ele>83</ele></trkpt>
   <trkpt lat="51.614988" lon="13.219939"><ele>83</ele></trkpt>
   <trkpt lat="51.613613" lon="13.222199"><ele>83.75</ele></trkpt>
   <trkpt lat="51.61221" lon="13.224501"><ele>85.25</ele></trkpt>
   <trkpt lat="51.611283" lon="13.226021"><ele>84.25</ele></trkpt>
   <trkpt lat="51.6104" lon="13.227473"><ele>85</ele></trkpt>
   <trkpt lat="51.610085" lon="13.227989"><ele>85.25</ele></trkpt>
   <trkpt lat="51.608904" lon="13.22993"><ele>86.5</ele></trkpt>
   <trkpt lat="51.608869" lon="13.229988"><ele>86.5</ele></trkpt>
   <trkpt lat="51.607553" lon="13.232148"><ele>87</ele></trkpt>
   <trkpt lat="51.60727" lon="13.232614"><ele>87.5</ele></trkpt>
   <trkpt lat="51.606292" lon="13.234216"><ele>86.5</ele></trkpt>
   <trkpt lat="51.606234" lon="13.234311"><ele>87</ele></trkpt>
   <trkpt lat="51.605927" lon="13.234819"><ele>87</ele></trkpt>
   <trkpt lat="51.604966" lon="13.23637"><ele>88.25</ele></trkpt>
   <trkpt lat="51.604284" lon="13.237427"><ele>85</ele></trkpt>
   <trkpt lat="51.603627" lon="13.23838"><ele>87.25</ele></trkpt>
   <trkpt lat="51.603593" lon="13.238425"><ele>87.25</ele></trkpt>
   <trkpt lat="51.60323" lon="13.238913"><ele>87.75</ele></trkpt>
   <trkpt lat="51.602882" lon="13.23933"><ele>87.5</ele></trkpt>
   <trkpt lat="51.602686" lon="13.239544"><ele>88</ele></trkpt>
   <trkpt lat="51.602322" lon="13.2399"><ele>87.5</ele></trkpt>
   <trkpt lat="51.602094" lon="13.240096"><ele>87.25</ele></trkpt>
   <trkpt lat="51.601704" lon="13.240387"><ele>87.5</ele></trkpt>
   <trkpt lat="51.601271" lon="13.240656"><ele>87</ele></trkpt>
   <trkpt lat="51.600836" lon="13.240878"><ele>87.25</ele></trkpt>
   <trkpt lat="51.600324" lon="13.241115"><ele>85.5</ele></trkpt>
   <trkpt lat="51.600046" lon="13.241244"><ele>85.5</ele></trkpt>
   <trkpt lat="51.598724" lon="13.241846"><ele>86</ele></trkpt>
   <trkpt lat="51.598231" lon="13.242067"><ele>86.5</ele></trkpt>
   <trkpt lat="51.597613" lon="13.242348"><ele>86.5</ele></trkpt>
   <trkpt lat="51.597592" lon="13.242358"><ele>86.5</ele></trkpt>
   <trkpt lat="51.597261" lon="13.242507"><ele>86</ele></trkpt>
   <trkpt lat="51.595374" lon="13.24337"><ele>86</ele></trkpt>
   <trkpt lat="51.594978" lon="13.243547"><ele>85.75</ele></trkpt>
   <trkpt lat="51.594478" lon="13.243771"><ele>85</ele></trkpt>
   <trkpt lat="51.59347" lon="13.244224"><ele>85</ele></trkpt>
   <trkpt lat="51.592574" lon="13.244628"><ele>85</ele></trkpt>
   <trkpt lat="51.592382" lon="13.244705"><ele>85</ele></trkpt>
   <trkpt lat="51.591971" lon="13.24485"><ele>85</ele></trkpt>
   <trkpt lat="51.591654" lon="13.244941"><ele>85</ele></trkpt>
   <trkpt lat="51.59133" lon="13.245009"><ele>85</ele></trkpt>
   <trkpt lat="51.591012" lon="13.24505"><ele>85</ele></trkpt>
   <trkpt lat="51.590118" lon="13.245133"><ele>85</ele></trkpt>
   <trkpt lat="51.590068" lon="13.245137"><ele>84.75</ele></trkpt>
   <trkpt lat="51.589194" lon="13.24522"><ele>84.75</ele></trkpt>
   <trkpt lat="51.588765" lon="13.245288"><ele>85</ele></trkpt>
   <trkpt lat="51.588307" lon="13.24543"><ele>85</ele></trkpt>
   <trkpt lat="51.588245" lon="13.245452"><ele>85</ele></trkpt>
   <trkpt lat="51.588181" lon="13.245478"><ele>85</ele></trkpt>
   <trkpt lat="51.588041" lon="13.245522"><ele>85</ele></trkpt>
   <trkpt lat="51.587664" lon="13.245643"><ele>85</ele></trkpt>
   <trkpt lat="51.587493" lon="13.245688"><ele>85</ele></trkpt>
   <trkpt lat="51.58731" lon="13.245736"><ele>85</ele></trkpt>
   <trkpt lat="51.58708" lon="13.24581"><ele>85</ele></trkpt>
   <trkpt lat="51.586848" lon="13.245881"><ele>85.25</ele></trkpt>
   <trkpt lat="51.586717" lon="13.24594"><ele>85.5</ele></trkpt>
   <trkpt lat="51.586592" lon="13.245982"><ele>85.25</ele></trkpt>
   <trkpt lat="51.586276" lon="13.246067"><ele>85.25</ele></trkpt>
   <trkpt lat="51.585855" lon="13.246261"><ele>85.75</ele></trkpt>
   <trkpt lat="51.584236" lon="13.246998"><ele>85.25</ele></trkpt>
   <trkpt lat="51.584047" lon="13.247084"><ele>89</ele></trkpt>
  </trkseg>
 </trk>
</gpx>