<?xml version="1.0" encoding="UTF-8"?>
<!-- track-length = 16305 filtered ascend = 10 plain-ascend = 4 cost=16305 energy=0.2kwh time=21m 44s -->
<gpx 
 xmlns="http://www.topografix.com/GPX/1/1" 
 xmlns:xsi="http://www.w3.org/2001/XMLSchema-instance" 
 xsi:schemaLocation="http://www.topografix.com/GPX/1/1 http://www.topografix.com/GPX/1/1/gpx.xsd" 
 version="1.1" 
 creator="BRouter-Web 0.18.1">
 <trk>
  <name>Dresdner Bahn Glasower Damm NordSüd</name>
  <trkseg>
   <trkpt lat="52.337792" lon="13.415934"><ele>41.5</ele></trkpt>
   <trkpt lat="52.340305" lon="13.415066"><ele>43.75</ele></trkpt>
   <trkpt lat="52.3409" lon="13.414865"><ele>43.75</ele></trkpt>
   <trkpt lat="52.34111" lon="13.4148"><ele>43.5</ele></trkpt>
   <trkpt lat="52.341368" lon="13.414725"><ele>43.5</ele></trkpt>
   <trkpt lat="52.344727" lon="13.413581"><ele>46</ele></trkpt>
   <trkpt lat="52.344787" lon="13.413561"><ele>46</ele></trkpt>
   <trkpt lat="52.344835" lon="13.413545"><ele>46</ele></trkpt>
   <trkpt lat="52.346552" lon="13.412939"><ele>46</ele></trkpt>
   <trkpt lat="52.348304" lon="13.412327"><ele>45</ele></trkpt>
   <trkpt lat="52.349931" lon="13.411795"><ele>46</ele></trkpt>
   <trkpt lat="52.350591" lon="13.411582"><ele>45</ele></trkpt>
   <trkpt lat="52.350808" lon="13.411507"><ele>45</ele></trkpt>
   <trkpt lat="52.351748" lon="13.411181"><ele>45.75</ele></trkpt>
   <trkpt lat="52.351826" lon="13.411153"><ele>46.25</ele></trkpt>
   <trkpt lat="52.353512" lon="13.410569"><ele>46.25</ele></trkpt>
   <trkpt lat="52.353547" lon="13.410558"><ele>46.5</ele></trkpt>
   <trkpt lat="52.353634" lon="13.41053"><ele>46.75</ele></trkpt>
   <trkpt lat="52.355064" lon="13.410029"><ele>48.75</ele></trkpt>
   <trkpt lat="52.356677" lon="13.409483"><ele>48.25</ele></trkpt>
   <trkpt lat="52.356902" lon="13.409412"><ele>48.5</ele></trkpt>
   <trkpt lat="52.356927" lon="13.409405"><ele>48.5</ele></trkpt>
   <trkpt lat="52.358919" lon="13.408722"><ele>48.75</ele></trkpt>
   <trkpt lat="52.360274" lon="13.408258"><ele>49.5</ele></trkpt>
   <trkpt lat="52.360496" lon="13.408181"><ele>49.25</ele></trkpt>
   <trkpt lat="52.36213" lon="13.40761"><ele>49</ele></trkpt>
   <trkpt lat="52.363782" lon="13.407013"><ele>48.25</ele></trkpt>
   <trkpt lat="52.365111" lon="13.406541"><ele>48</ele></trkpt>
   <trkpt lat="52.365539" lon="13.406401"><ele>48.5</ele></trkpt>
   <trkpt lat="52.365693" lon="13.406345"><ele>48.5</ele></trkpt>
   <trkpt lat="52.365962" lon="13.406255"><ele>48.5</ele></trkpt>
   <trkpt lat="52.367195" lon="13.405836"><ele>46</ele></trkpt>
   <trkpt lat="52.367455" lon="13.405748"><ele>45</ele></trkpt>
   <trkpt lat="52.367639" lon="13.405689"><ele>44.75</ele></trkpt>
   <trkpt lat="52.369214" lon="13.405149"><ele>43.5</ele></trkpt>
   <trkpt lat="52.369866" lon="13.404896"><ele>42</ele></trkpt>
   <trkpt lat="52.370012" lon="13.404846"><ele>41.75</ele></trkpt>
   <trkpt lat="52.370866" lon="13.404561"><ele>42.5</ele></trkpt>
   <trkpt lat="52.371152" lon="13.404477"><ele>42.5</ele></trkpt>
   <trkpt lat="52.372546" lon="13.403988"><ele>43</ele></trkpt>
   <trkpt lat="52.374785" lon="13.403208"><ele>42.75</ele></trkpt>
   <trkpt lat="52.376166" lon="13.402673"><ele>43</ele></trkpt>
   <trkpt lat="52.376315" lon="13.402616"><ele>43</ele></trkpt>
   <trkpt lat="52.376571" lon="13.402511"><ele>43</ele></trkpt>
   <trkpt lat="52.37667" lon="13.402471"><ele>43</ele></trkpt>
   <trkpt lat="52.37719" lon="13.402236"><ele>45.5</ele></trkpt>
   <trkpt lat="52.377603" lon="13.402035"><ele>46.75</ele></trkpt>
   <trkpt lat="52.377783" lon="13.401948"><ele>46.5</ele></trkpt>
   <trkpt lat="52.378133" lon="13.401778"><ele>46</ele></trkpt>
   <trkpt lat="52.378933" lon="13.401339"><ele>47</ele></trkpt>
   <trkpt lat="52.379707" lon="13.400887"><ele>47.5</ele></trkpt>
   <trkpt lat="52.381304" lon="13.399953"><ele>46</ele></trkpt>
   <trkpt lat="52.382923" lon="13.399005"><ele>46</ele></trkpt>
   <trkpt lat="52.384253" lon="13.398217"><ele>45</ele></trkpt>
   <trkpt lat="52.385032" lon="13.39777"><ele>45.25</ele></trkpt>
   <trkpt lat="52.385794" lon="13.397336"><ele>46.75</ele></trkpt>
   <trkpt lat="52.386404" lon="13.397003"><ele>46.25</ele></trkpt>
   <trkpt lat="52.386485" lon="13.396959"><ele>46</ele></trkpt>
   <trkpt lat="52.386861" lon="13.396761"><ele>46</ele></trkpt>
   <trkpt lat="52.388463" lon="13.395915"><ele>44</ele></trkpt>
   <trkpt lat="52.389507" lon="13.39535"><ele>44</ele></trkpt>
   <trkpt lat="52.389957" lon="13.395084"><ele>44</ele></trkpt>
   <trkpt lat="52.390185" lon="13.39494"><ele>44.25</ele></trkpt>
   <trkpt lat="52.391438" lon="13.394145"><ele>45</ele></trkpt>
   <trkpt lat="52.393494" lon="13.392845"><ele>44.75</ele></trkpt>
   <trkpt lat="52.394756" lon="13.392061"><ele>43.25</ele></trkpt>
   <trkpt lat="52.394932" lon="13.391959"><ele>43</ele></trkpt>
   <trkpt lat="52.396374" lon="13.391123"><ele>44.25</ele></trkpt>
   <trkpt lat="52.398421" lon="13.38992"><ele>43</ele></trkpt>
   <trkpt lat="52.398493" lon="13.389878"><ele>43</ele></trkpt>
   <trkpt lat="52.39878" lon="13.389704"><ele>43.25</ele></trkpt>
   <trkpt lat="52.399823" lon="13.389094"><ele>45.5</ele></trkpt>
   <trkpt lat="52.400379" lon="13.38877"><ele>46</ele></trkpt>
   <trkpt lat="52.400552" lon="13.388665"><ele>46</ele></trkpt>
   <trkpt lat="52.401904" lon="13.387877"><ele>46</ele></trkpt>
   <trkpt lat="52.402846" lon="13.387323"><ele>46</ele></trkpt>
   <trkpt lat="52.403425" lon="13.386985"><ele>46</ele></trkpt>
   <trkpt lat="52.40383" lon="13.386758"><ele>46</ele></trkpt>
   <trkpt lat="52.404902" lon="13.386185"><ele>44</ele></trkpt>
   <trkpt lat="52.406953" lon="13.385076"><ele>45</ele></trkpt>
   <trkpt lat="52.408634" lon="13.384174"><ele>45</ele></trkpt>
   <trkpt lat="52.409422" lon="13.383727"><ele>44.25</ele></trkpt>
   <trkpt lat="52.410008" lon="13.383381"><ele>44</ele></trkpt>
   <trkpt lat="52.410794" lon="13.382895"><ele>43</ele></trkpt>
   <trkpt lat="52.411588" lon="13.382398"><ele>43</ele></trkpt>
   <trkpt lat="52.411774" lon="13.382288"><ele>43</ele></trkpt>
   <trkpt lat="52.413719" lon="13.381086"><ele>42.5</ele></trkpt>
   <trkpt lat="52.414195" lon="13.380789"><ele>43</ele></trkpt>
   <trkpt lat="52.414408" lon="13.380656"><ele>43.25</ele></trkpt>
   <trkpt lat="52.415163" lon="13.380206"><ele>44.25</ele></trkpt>
   <trkpt lat="52.416822" lon="13.379208"><ele>44.75</ele></trkpt>
   <trkpt lat="52.417011" lon="13.379095"><ele>45</ele></trkpt>
   <trkpt lat="52.417342" lon="13.378891"><ele>45.5</ele></trkpt>
   <trkpt lat="52.418016" lon="13.378503"><ele>45.75</ele></trkpt>
   <trkpt lat="52.418311" lon="13.378368"><ele>45.75</ele></trkpt>
   <trkpt lat="52.418603" lon="13.378269"><ele>46.5</ele></trkpt>
   <trkpt lat="52.418798" lon="13.378181"><ele>47</ele></trkpt>
   <trkpt lat="52.41903" lon="13.378053"><ele>47.25</ele></trkpt>
   <trkpt lat="52.419535" lon="13.377862"><ele>47</ele></trkpt>
   <trkpt lat="52.419923" lon="13.377653"><ele>47</ele></trkpt>
   <trkpt lat="52.421016" lon="13.377049"><ele>47.5</ele></trkpt>
   <trkpt lat="52.423542" lon="13.375572"><ele>48</ele></trkpt>
   <trkpt lat="52.423701" lon="13.375467"><ele>48</ele></trkpt>
   <trkpt lat="52.424179" lon="13.375119"><ele>48</ele></trkpt>
   <trkpt lat="52.42422" lon="13.375095"><ele>48</ele></trkpt>
   <trkpt lat="52.424268" lon="13.375065"><ele>48</ele></trkpt>
   <trkpt lat="52.424452" lon="13.374944"><ele>47.75</ele></trkpt>
   <trkpt lat="52.425101" lon="13.374429"><ele>47</ele></trkpt>
   <trkpt lat="52.425167" lon="13.374387"><ele>47</ele></trkpt>
   <trkpt lat="52.425327" lon="13.374279"><ele>47</ele></trkpt>
   <trkpt lat="52.425503" lon="13.374162"><ele>46.75</ele></trkpt>
   <trkpt lat="52.425905" lon="13.373892"><ele>47</ele></trkpt>
   <trkpt lat="52.425941" lon="13.373872"><ele>47</ele></trkpt>
   <trkpt lat="52.426482" lon="13.37351"><ele>47</ele></trkpt>
   <trkpt lat="52.426762" lon="13.373316"><ele>46.5</ele></trkpt>
   <trkpt lat="52.427609" lon="13.372765"><ele>44.75</ele></trkpt>
   <trkpt lat="52.428668" lon="13.372132"><ele>44</ele></trkpt>
   <trkpt lat="52.429793" lon="13.371474"><ele>44.5</ele></trkpt>
   <trkpt lat="52.430764" lon="13.3709"><ele>45</ele></trkpt>
   <trkpt lat="52.432378" lon="13.369942"><ele>45.75</ele></trkpt>
   <trkpt lat="52.433921" lon="13.369029"><ele>46.75</ele></trkpt>
   <trkpt lat="52.434697" lon="13.368569"><ele>47</ele></trkpt>
   <trkpt lat="52.435238" lon="13.368258"><ele>47.25</ele></trkpt>
   <trkpt lat="52.436152" lon="13.367711"><ele>47.5</ele></trkpt>
   <trkpt lat="52.436553" lon="13.367484"><ele>46.75</ele></trkpt>
   <trkpt lat="52.437445" lon="13.366984"><ele>43</ele></trkpt>
   <trkpt lat="52.438908" lon="13.366173"><ele>41.75</ele></trkpt>
   <trkpt lat="52.439037" lon="13.366097"><ele>41.25</ele></trkpt>
   <trkpt lat="52.440046" lon="13.365497"><ele>39</ele></trkpt>
   <trkpt lat="52.440473" lon="13.365256"><ele>39</ele></trkpt>
   <trkpt lat="52.44208" lon="13.364303"><ele>39.25</ele></trkpt>
   <trkpt lat="52.443137" lon="13.36369"><ele>39.5</ele></trkpt>
   <trkpt lat="52.444111" lon="13.363154"><ele>37.25</ele></trkpt>
   <trkpt lat="52.444176" lon="13.363119"><ele>37</ele></trkpt>
   <trkpt lat="52.444922" lon="13.362718"><ele>37.75</ele></trkpt>
   <trkpt lat="52.44552" lon="13.362408"><ele>41.75</ele></trkpt>
   <trkpt lat="52.445818" lon="13.362246"><ele>43.5</ele></trkpt>
   <trkpt lat="52.446998" lon="13.361603"><ele>46</ele></trkpt>
   <trkpt lat="52.447272" lon="13.361457"><ele>46</ele></trkpt>
   <trkpt lat="52.447296" lon="13.361444"><ele>46</ele></trkpt>
   <trkpt lat="52.447342" lon="13.361419"><ele>46</ele></trkpt>
   <trkpt lat="52.448235" lon="13.360936"><ele>46</ele></trkpt>
   <trkpt lat="52.448358" lon="13.360871"><ele>46</ele></trkpt>
   <trkpt lat="52.449054" lon="13.360497"><ele>48</ele></trkpt>
   <trkpt lat="52.450732" lon="13.359604"><ele>48.5</ele></trkpt>
   <trkpt lat="52.450861" lon="13.359536"><ele>48.25</ele></trkpt>
   <trkpt lat="52.451858" lon="13.358994"><ele>48.75</ele></trkpt>
   <trkpt lat="52.452213" lon="13.358802"><ele>48.75</ele></trkpt>
   <trkpt lat="52.45253" lon="13.358649"><ele>47.5</ele></trkpt>
   <trkpt lat="52.453098" lon="13.358408"><ele>46.25</ele></trkpt>
   <trkpt lat="52.45339" lon="13.358315"><ele>46</ele></trkpt>
   <trkpt lat="52.453764" lon="13.358222"><ele>46.5</ele></trkpt>
   <trkpt lat="52.45399" lon="13.358176"><ele>46.75</ele></trkpt>
   <trkpt lat="52.454171" lon="13.358157"><ele>47</ele></trkpt>
   <trkpt lat="52.45419" lon="13.358154"><ele>47</ele></trkpt>
   <trkpt lat="52.454518" lon="13.358132"><ele>47</ele></trkpt>
   <trkpt lat="52.45474" lon="13.358132"><ele>47</ele></trkpt>
   <trkpt lat="52.455003" lon="13.35814"><ele>47</ele></trkpt>
   <trkpt lat="52.455393" lon="13.35819"><ele>46.25</ele></trkpt>
   <trkpt lat="52.455825" lon="13.358283"><ele>45</ele></trkpt>
   <trkpt lat="52.456108" lon="13.358363"><ele>45</ele></trkpt>
   <trkpt lat="52.456503" lon="13.358488"><ele>45</ele></trkpt>
   <trkpt lat="52.456877" lon="13.35862"><ele>45</ele></trkpt>
   <trkpt lat="52.457018" lon="13.358669"><ele>45</ele></trkpt>
   <trkpt lat="52.457736" lon="13.358925"><ele>45</ele></trkpt>
   <trkpt lat="52.459494" lon="13.359549"><ele>43.25</ele></trkpt>
   <trkpt lat="52.460042" lon="13.359734"><ele>42.25</ele></trkpt>
   <trkpt lat="52.460485" lon="13.359883"><ele>42.25</ele></trkpt>
   <trkpt lat="52.461186" lon="13.360115"><ele>43</ele></trkpt>
   <trkpt lat="52.461987" lon="13.360395"><ele>43</ele></trkpt>
   <trkpt lat="52.464507" lon="13.361297"><ele>42</ele></trkpt>
   <trkpt lat="52.464741" lon="13.36138"><ele>42</ele></trkpt>
   <trkpt lat="52.466458" lon="13.361989"><ele>43.25</ele></trkpt>
   <trkpt lat="52.466811" lon="13.362119"><ele>42.75</ele></trkpt>
   <trkpt lat="52.466917" lon="13.362155"><ele>42.5</ele></trkpt>
   <trkpt lat="52.466946" lon="13.362165"><ele>42.5</ele></trkpt>
   <trkpt lat="52.467925" lon="13.362513"><ele>42</ele></trkpt>
   <trkpt lat="52.46812" lon="13.362584"><ele>42</ele></trkpt>
   <trkpt lat="52.468371" lon="13.362674"><ele>42.25</ele></trkpt>
   <trkpt lat="52.468599" lon="13.362755"><ele>42.75</ele></trkpt>
   <trkpt lat="52.469169" lon="13.362958"><ele>43.75</ele></trkpt>
   <trkpt lat="52.469186" lon="13.362964"><ele>43.75</ele></trkpt>
   <trkpt lat="52.470042" lon="13.363271"><ele>43.75</ele></trkpt>
   <trkpt lat="52.471533" lon="13.363804"><ele>43.75</ele></trkpt>
   <trkpt lat="52.472008" lon="13.363984"><ele>43.25</ele></trkpt>
   <trkpt lat="52.472537" lon="13.364208"><ele>41.75</ele></trkpt>
   <trkpt lat="52.472794" lon="13.364325"><ele>41</ele></trkpt>
   <trkpt lat="52.473135" lon="13.364491"><ele>40.5</ele></trkpt>
   <trkpt lat="52.473574" lon="13.364711"><ele>40.25</ele></trkpt>
   <trkpt lat="52.473778" lon="13.364821"><ele>40.25</ele></trkpt>
   <trkpt lat="52.473926" lon="13.364905"><ele>40.25</ele></trkpt>
   <trkpt lat="52.474081" lon="13.364997"><ele>40.75</ele></trkpt>
   <trkpt lat="52.474305" lon="13.365129"><ele>41.5</ele></trkpt>
   <trkpt lat="52.474563" lon="13.365282"><ele>42.25</ele></trkpt>
   <trkpt lat="52.47478" lon="13.365411"><ele>43.25</ele></trkpt>
   <trkpt lat="52.474799" lon="13.365422"><ele>43.25</ele></trkpt>
   <trkpt lat="52.475295" lon="13.365717"><ele>43.5</ele></trkpt>
   <trkpt lat="52.476117" lon="13.366205"><ele>42.25</ele></trkpt>
   <trkpt lat="52.476677" lon="13.366537"><ele>41.75</ele></trkpt>
   <trkpt lat="52.477022" lon="13.366743"><ele>42</ele></trkpt>
   <trkpt lat="52.477468" lon="13.367007"><ele>42.75</ele></trkpt>
   <trkpt lat="52.477728" lon="13.367163"><ele>42.75</ele></trkpt>
   <trkpt lat="52.477772" lon="13.367189"><ele>42.75</ele></trkpt>
   <trkpt lat="52.477796" lon="13.367201"><ele>42.75</ele></trkpt>
   <trkpt lat="52.478114" lon="13.367387"><ele>43</ele></trkpt>
  </trkseg>
 </trk>
</gpx>