<?xml version="1.0" encoding="UTF-8"?>
<!-- track-length = 44943 filtered ascend = 84 plain-ascend = 2 cost=44943 energy=0.6kwh time=59m 56s -->
<gpx 
 xmlns="http://www.topografix.com/GPX/1/1" 
 xmlns:xsi="http://www.w3.org/2001/XMLSchema-instance" 
 xsi:schemaLocation="http://www.topografix.com/GPX/1/1 http://www.topografix.com/GPX/1/1/gpx.xsd" 
 version="1.1" 
 creator="BRouter-Web 0.18.1">
 <trk>
  <name>dresdenröderau</name>
  <trkseg>
   <trkpt lat="51.039791" lon="13.732202"><ele>122.5</ele></trkpt>
   <trkpt lat="51.040096" lon="13.731272"><ele>123.75</ele></trkpt>
   <trkpt lat="51.040601" lon="13.729705"><ele>120.75</ele></trkpt>
   <trkpt lat="51.040776" lon="13.72918"><ele>120</ele></trkpt>
   <trkpt lat="51.040969" lon="13.728645"><ele>118.5</ele></trkpt>
   <trkpt lat="51.041239" lon="13.727954"><ele>118</ele></trkpt>
   <trkpt lat="51.041462" lon="13.727463"><ele>118.25</ele></trkpt>
   <trkpt lat="51.041536" lon="13.727314"><ele>118</ele></trkpt>
   <trkpt lat="51.041616" lon="13.727154"><ele>118</ele></trkpt>
   <trkpt lat="51.042227" lon="13.725929"><ele>119.75</ele></trkpt>
   <trkpt lat="51.042459" lon="13.725466"><ele>120</ele></trkpt>
   <trkpt lat="51.042917" lon="13.724557"><ele>121</ele></trkpt>
   <trkpt lat="51.043356" lon="13.723485"><ele>121.5</ele></trkpt>
   <trkpt lat="51.04345" lon="13.723222"><ele>121.25</ele></trkpt>
   <trkpt lat="51.043484" lon="13.723164"><ele>121</ele></trkpt>
   <trkpt lat="51.043715" lon="13.722791"><ele>119.5</ele></trkpt>
   <trkpt lat="51.044068" lon="13.722269"><ele>117.5</ele></trkpt>
   <trkpt lat="51.044167" lon="13.722135"><ele>117</ele></trkpt>
   <trkpt lat="51.044221" lon="13.72206"><ele>117</ele></trkpt>
   <trkpt lat="51.044489" lon="13.721737"><ele>117.25</ele></trkpt>
   <trkpt lat="51.044601" lon="13.721615"><ele>117.5</ele></trkpt>
   <trkpt lat="51.044865" lon="13.721356"><ele>117.75</ele></trkpt>
   <trkpt lat="51.045229" lon="13.72104"><ele>117.5</ele></trkpt>
   <trkpt lat="51.045863" lon="13.720519"><ele>117.25</ele></trkpt>
   <trkpt lat="51.046109" lon="13.720338"><ele>117.25</ele></trkpt>
   <trkpt lat="51.046316" lon="13.720201"><ele>117.25</ele></trkpt>
   <trkpt lat="51.046833" lon="13.719903"><ele>117.25</ele></trkpt>
   <trkpt lat="51.046969" lon="13.719839"><ele>117.25</ele></trkpt>
   <trkpt lat="51.047227" lon="13.719735"><ele>117.75</ele></trkpt>
   <trkpt lat="51.047466" lon="13.719679"><ele>118</ele></trkpt>
   <trkpt lat="51.047823" lon="13.719565"><ele>118.25</ele></trkpt>
   <trkpt lat="51.048055" lon="13.719494"><ele>118.25</ele></trkpt>
   <trkpt lat="51.048373" lon="13.719418"><ele>118.5</ele></trkpt>
   <trkpt lat="51.04847" lon="13.719399"><ele>118.25</ele></trkpt>
   <trkpt lat="51.04866" lon="13.719375"><ele>118</ele></trkpt>
   <trkpt lat="51.048865" lon="13.719362"><ele>117.5</ele></trkpt>
   <trkpt lat="51.049021" lon="13.719352"><ele>116.75</ele></trkpt>
   <trkpt lat="51.049051" lon="13.719351"><ele>116.75</ele></trkpt>
   <trkpt lat="51.049236" lon="13.719351"><ele>116</ele></trkpt>
   <trkpt lat="51.049641" lon="13.719372"><ele>116</ele></trkpt>
   <trkpt lat="51.04985" lon="13.719387"><ele>115.5</ele></trkpt>
   <trkpt lat="51.049884" lon="13.719389"><ele>115.5</ele></trkpt>
   <trkpt lat="51.050336" lon="13.719446"><ele>115.25</ele></trkpt>
   <trkpt lat="51.05064" lon="13.719496"><ele>115.5</ele></trkpt>
   <trkpt lat="51.050913" lon="13.719554"><ele>115.5</ele></trkpt>
   <trkpt lat="51.051173" lon="13.719626"><ele>115</ele></trkpt>
   <trkpt lat="51.051389" lon="13.719708"><ele>114.75</ele></trkpt>
   <trkpt lat="51.051611" lon="13.71981"><ele>114</ele></trkpt>
   <trkpt lat="51.051867" lon="13.719957"><ele>113.5</ele></trkpt>
   <trkpt lat="51.0523" lon="13.720249"><ele>113</ele></trkpt>
   <trkpt lat="51.052616" lon="13.720483"><ele>113</ele></trkpt>
   <trkpt lat="51.053183" lon="13.720962"><ele>113.25</ele></trkpt>
   <trkpt lat="51.053612" lon="13.72131"><ele>113.75</ele></trkpt>
   <trkpt lat="51.053872" lon="13.721537"><ele>114.25</ele></trkpt>
   <trkpt lat="51.054106" lon="13.721755"><ele>114.75</ele></trkpt>
   <trkpt lat="51.054261" lon="13.721909"><ele>114.75</ele></trkpt>
   <trkpt lat="51.054999" lon="13.72262"><ele>113.75</ele></trkpt>
   <trkpt lat="51.055109" lon="13.722736"><ele>113.5</ele></trkpt>
   <trkpt lat="51.055295" lon="13.72294"><ele>113.25</ele></trkpt>
   <trkpt lat="51.055472" lon="13.723138"><ele>113</ele></trkpt>
   <trkpt lat="51.055489" lon="13.723158"><ele>113</ele></trkpt>
   <trkpt lat="51.055502" lon="13.723172"><ele>113</ele></trkpt>
   <trkpt lat="51.055748" lon="13.723473"><ele>113.25</ele></trkpt>
   <trkpt lat="51.056139" lon="13.724005"><ele>113.75</ele></trkpt>
   <trkpt lat="51.05623" lon="13.724132"><ele>113.75</ele></trkpt>
   <trkpt lat="51.056685" lon="13.724766"><ele>115</ele></trkpt>
   <trkpt lat="51.056894" lon="13.725056"><ele>116</ele></trkpt>
   <trkpt lat="51.057168" lon="13.725443"><ele>116.25</ele></trkpt>
   <trkpt lat="51.05734" lon="13.725684"><ele>116.5</ele></trkpt>
   <trkpt lat="51.057565" lon="13.725995"><ele>116.75</ele></trkpt>
   <trkpt lat="51.057832" lon="13.726362"><ele>116.25</ele></trkpt>
   <trkpt lat="51.058134" lon="13.726792"><ele>115.5</ele></trkpt>
   <trkpt lat="51.058281" lon="13.727"><ele>115</ele></trkpt>
   <trkpt lat="51.058309" lon="13.727038"><ele>115</ele></trkpt>
   <trkpt lat="51.058388" lon="13.727143"><ele>115</ele></trkpt>
   <trkpt lat="51.058692" lon="13.727563"><ele>114.75</ele></trkpt>
   <trkpt lat="51.05884" lon="13.727756"><ele>114.5</ele></trkpt>
   <trkpt lat="51.05908" lon="13.728032"><ele>114.25</ele></trkpt>
   <trkpt lat="51.059451" lon="13.728405"><ele>112.5</ele></trkpt>
   <trkpt lat="51.059613" lon="13.72856"><ele>112.5</ele></trkpt>
   <trkpt lat="51.059812" lon="13.728751"><ele>112.5</ele></trkpt>
   <trkpt lat="51.060107" lon="13.72906"><ele>112.5</ele></trkpt>
   <trkpt lat="51.060369" lon="13.729393"><ele>112.5</ele></trkpt>
   <trkpt lat="51.060508" lon="13.729605"><ele>112.5</ele></trkpt>
   <trkpt lat="51.060617" lon="13.729788"><ele>112.5</ele></trkpt>
   <trkpt lat="51.060722" lon="13.729981"><ele>112.5</ele></trkpt>
   <trkpt lat="51.060834" lon="13.730208"><ele>112.5</ele></trkpt>
   <trkpt lat="51.060943" lon="13.730454"><ele>112.5</ele></trkpt>
   <trkpt lat="51.06101" lon="13.730629"><ele>112.5</ele></trkpt>
   <trkpt lat="51.061098" lon="13.730881"><ele>112.5</ele></trkpt>
   <trkpt lat="51.061814" lon="13.733066"><ele>112.5</ele></trkpt>
   <trkpt lat="51.062085" lon="13.733892"><ele>112.5</ele></trkpt>
   <trkpt lat="51.062217" lon="13.734272"><ele>112.5</ele></trkpt>
   <trkpt lat="51.062337" lon="13.734567"><ele>112.5</ele></trkpt>
   <trkpt lat="51.062469" lon="13.734863"><ele>114.25</ele></trkpt>
   <trkpt lat="51.062658" lon="13.735244"><ele>114.5</ele></trkpt>
   <trkpt lat="51.062806" lon="13.735513"><ele>114.25</ele></trkpt>
   <trkpt lat="51.062954" lon="13.735754"><ele>113.75</ele></trkpt>
   <trkpt lat="51.063462" lon="13.736549"><ele>113.75</ele></trkpt>
   <trkpt lat="51.063474" lon="13.736566"><ele>113.75</ele></trkpt>
   <trkpt lat="51.063649" lon="13.736832"><ele>114</ele></trkpt>
   <trkpt lat="51.063866" lon="13.737179"><ele>114</ele></trkpt>
   <trkpt lat="51.064043" lon="13.737492"><ele>114</ele></trkpt>
   <trkpt lat="51.064167" lon="13.737733"><ele>114.25</ele></trkpt>
   <trkpt lat="51.06427" lon="13.73793"><ele>114.5</ele></trkpt>
   <trkpt lat="51.06433" lon="13.738039"><ele>114.75</ele></trkpt>
   <trkpt lat="51.064504" lon="13.738334"><ele>115.25</ele></trkpt>
   <trkpt lat="51.064678" lon="13.738623"><ele>115.5</ele></trkpt>
   <trkpt lat="51.065184" lon="13.739419"><ele>116.5</ele></trkpt>
   <trkpt lat="51.065223" lon="13.739482"><ele>116.75</ele></trkpt>
   <trkpt lat="51.065397" lon="13.739755"><ele>117.75</ele></trkpt>
   <trkpt lat="51.065521" lon="13.739949"><ele>118.5</ele></trkpt>
   <trkpt lat="51.065854" lon="13.740468"><ele>119.25</ele></trkpt>
   <trkpt lat="51.066452" lon="13.741402"><ele>117.75</ele></trkpt>
   <trkpt lat="51.066657" lon="13.741721"><ele>117.75</ele></trkpt>
   <trkpt lat="51.066811" lon="13.741961"><ele>117.25</ele></trkpt>
   <trkpt lat="51.066874" lon="13.742058"><ele>117</ele></trkpt>
   <trkpt lat="51.066978" lon="13.742221"><ele>116.75</ele></trkpt>
   <trkpt lat="51.067022" lon="13.742289"><ele>116.5</ele></trkpt>
   <trkpt lat="51.067119" lon="13.742433"><ele>116.25</ele></trkpt>
   <trkpt lat="51.067192" lon="13.742539"><ele>116.25</ele></trkpt>
   <trkpt lat="51.067246" lon="13.742616"><ele>116.25</ele></trkpt>
   <trkpt lat="51.067323" lon="13.742725"><ele>116.25</ele></trkpt>
   <trkpt lat="51.067341" lon="13.74275"><ele>116.25</ele></trkpt>
   <trkpt lat="51.067381" lon="13.742802"><ele>116.25</ele></trkpt>
   <trkpt lat="51.068018" lon="13.743628"><ele>116</ele></trkpt>
   <trkpt lat="51.068211" lon="13.743901"><ele>116</ele></trkpt>
   <trkpt lat="51.06823" lon="13.74393"><ele>116</ele></trkpt>
   <trkpt lat="51.068266" lon="13.743987"><ele>116</ele></trkpt>
   <trkpt lat="51.068416" lon="13.744221"><ele>115.75</ele></trkpt>
   <trkpt lat="51.068544" lon="13.744419"><ele>116</ele></trkpt>
   <trkpt lat="51.06872" lon="13.744666"><ele>116.25</ele></trkpt>
   <trkpt lat="51.069184" lon="13.745296"><ele>116.75</ele></trkpt>
   <trkpt lat="51.069236" lon="13.74538"><ele>116.5</ele></trkpt>
   <trkpt lat="51.069246" lon="13.745394"><ele>116.5</ele></trkpt>
   <trkpt lat="51.069464" lon="13.745695"><ele>115.75</ele></trkpt>
   <trkpt lat="51.069654" lon="13.745929"><ele>115.25</ele></trkpt>
   <trkpt lat="51.069794" lon="13.746075"><ele>115</ele></trkpt>
   <trkpt lat="51.06992" lon="13.746189"><ele>115</ele></trkpt>
   <trkpt lat="51.070033" lon="13.746278"><ele>115</ele></trkpt>
   <trkpt lat="51.070193" lon="13.746388"><ele>115</ele></trkpt>
   <trkpt lat="51.070325" lon="13.746461"><ele>115</ele></trkpt>
   <trkpt lat="51.070535" lon="13.746553"><ele>115</ele></trkpt>
   <trkpt lat="51.070766" lon="13.74662"><ele>115</ele></trkpt>
   <trkpt lat="51.070905" lon="13.746641"><ele>115</ele></trkpt>
   <trkpt lat="51.071076" lon="13.746651"><ele>115.25</ele></trkpt>
   <trkpt lat="51.071359" lon="13.746628"><ele>115.5</ele></trkpt>
   <trkpt lat="51.071483" lon="13.746601"><ele>115.75</ele></trkpt>
   <trkpt lat="51.07168" lon="13.746534"><ele>116</ele></trkpt>
   <trkpt lat="51.071794" lon="13.746485"><ele>116</ele></trkpt>
   <trkpt lat="51.071958" lon="13.746398"><ele>116.25</ele></trkpt>
   <trkpt lat="51.072056" lon="13.746336"><ele>116.5</ele></trkpt>
   <trkpt lat="51.072233" lon="13.746205"><ele>116.75</ele></trkpt>
   <trkpt lat="51.072476" lon="13.745993"><ele>116.75</ele></trkpt>
   <trkpt lat="51.072586" lon="13.745887"><ele>117</ele></trkpt>
   <trkpt lat="51.072618" lon="13.745856"><ele>117</ele></trkpt>
   <trkpt lat="51.072653" lon="13.745823"><ele>117</ele></trkpt>
   <trkpt lat="51.072934" lon="13.745535"><ele>117</ele></trkpt>
   <trkpt lat="51.073061" lon="13.745388"><ele>117</ele></trkpt>
   <trkpt lat="51.073167" lon="13.745249"><ele>117</ele></trkpt>
   <trkpt lat="51.073362" lon="13.744979"><ele>117</ele></trkpt>
   <trkpt lat="51.073428" lon="13.744893"><ele>117</ele></trkpt>
   <trkpt lat="51.073453" lon="13.744853"><ele>117</ele></trkpt>
   <trkpt lat="51.073584" lon="13.744633"><ele>117</ele></trkpt>
   <trkpt lat="51.073708" lon="13.744399"><ele>116.75</ele></trkpt>
   <trkpt lat="51.073774" lon="13.744269"><ele>116.5</ele></trkpt>
   <trkpt lat="51.073902" lon="13.743979"><ele>116.25</ele></trkpt>
   <trkpt lat="51.074001" lon="13.743731"><ele>115.75</ele></trkpt>
   <trkpt lat="51.074129" lon="13.743378"><ele>115</ele></trkpt>
   <trkpt lat="51.074266" lon="13.742941"><ele>114</ele></trkpt>
   <trkpt lat="51.074424" lon="13.742372"><ele>113.25</ele></trkpt>
   <trkpt lat="51.074501" lon="13.742106"><ele>113</ele></trkpt>
   <trkpt lat="51.074538" lon="13.741971"><ele>113</ele></trkpt>
   <trkpt lat="51.074556" lon="13.741908"><ele>113</ele></trkpt>
   <trkpt lat="51.074745" lon="13.741229"><ele>112.25</ele></trkpt>
   <trkpt lat="51.07522" lon="13.739504"><ele>112.75</ele></trkpt>
   <trkpt lat="51.07539" lon="13.738927"><ele>113</ele></trkpt>
   <trkpt lat="51.075438" lon="13.738752"><ele>113</ele></trkpt>
   <trkpt lat="51.07587" lon="13.737217"><ele>113</ele></trkpt>
   <trkpt lat="51.076151" lon="13.736289"><ele>113</ele></trkpt>
   <trkpt lat="51.076425" lon="13.735459"><ele>113</ele></trkpt>
   <trkpt lat="51.076631" lon="13.734891"><ele>113</ele></trkpt>
   <trkpt lat="51.076988" lon="13.733965"><ele>113.5</ele></trkpt>
   <trkpt lat="51.077373" lon="13.733055"><ele>113.75</ele></trkpt>
   <trkpt lat="51.077393" lon="13.733007"><ele>113.5</ele></trkpt>
   <trkpt lat="51.077703" lon="13.732322"><ele>113</ele></trkpt>
   <trkpt lat="51.078102" lon="13.731514"><ele>112.25</ele></trkpt>
   <trkpt lat="51.078418" lon="13.730921"><ele>111.25</ele></trkpt>
   <trkpt lat="51.078804" lon="13.73023"><ele>112.25</ele></trkpt>
   <trkpt lat="51.079159" lon="13.729624"><ele>113.5</ele></trkpt>
   <trkpt lat="51.079469" lon="13.729114"><ele>113</ele></trkpt>
   <trkpt lat="51.079932" lon="13.728352"><ele>113</ele></trkpt>
   <trkpt lat="51.080704" lon="13.727096"><ele>112.5</ele></trkpt>
   <trkpt lat="51.081371" lon="13.726"><ele>112.75</ele></trkpt>
   <trkpt lat="51.081483" lon="13.725811"><ele>113</ele></trkpt>
   <trkpt lat="51.081857" lon="13.725203"><ele>113.5</ele></trkpt>
   <trkpt lat="51.082016" lon="13.724938"><ele>114</ele></trkpt>
   <trkpt lat="51.082657" lon="13.723891"><ele>113.25</ele></trkpt>
   <trkpt lat="51.083215" lon="13.722958"><ele>113.25</ele></trkpt>
   <trkpt lat="51.083878" lon="13.721787"><ele>111.25</ele></trkpt>
   <trkpt lat="51.084307" lon="13.721032"><ele>110.25</ele></trkpt>
   <trkpt lat="51.08454" lon="13.720667"><ele>110.75</ele></trkpt>
   <trkpt lat="51.084763" lon="13.720313"><ele>111.25</ele></trkpt>
   <trkpt lat="51.084775" lon="13.72029"><ele>111.25</ele></trkpt>
   <trkpt lat="51.084969" lon="13.719938"><ele>111.75</ele></trkpt>
   <trkpt lat="51.085268" lon="13.719384"><ele>111.5</ele></trkpt>
   <trkpt lat="51.085724" lon="13.718451"><ele>111</ele></trkpt>
   <trkpt lat="51.085999" lon="13.717839"><ele>111.25</ele></trkpt>
   <trkpt lat="51.086286" lon="13.71711"><ele>111.75</ele></trkpt>
   <trkpt lat="51.086446" lon="13.716682"><ele>111.5</ele></trkpt>
   <trkpt lat="51.086591" lon="13.716249"><ele>112.25</ele></trkpt>
   <trkpt lat="51.086623" lon="13.716156"><ele>112.5</ele></trkpt>
   <trkpt lat="51.086798" lon="13.715629"><ele>113</ele></trkpt>
   <trkpt lat="51.086901" lon="13.715294"><ele>113</ele></trkpt>
   <trkpt lat="51.086975" lon="13.715054"><ele>113</ele></trkpt>
   <trkpt lat="51.08713" lon="13.714522"><ele>112.5</ele></trkpt>
   <trkpt lat="51.087294" lon="13.713903"><ele>112.5</ele></trkpt>
   <trkpt lat="51.087501" lon="13.713127"><ele>112.75</ele></trkpt>
   <trkpt lat="51.087835" lon="13.711811"><ele>112.25</ele></trkpt>
   <trkpt lat="51.087994" lon="13.711179"><ele>112.25</ele></trkpt>
   <trkpt lat="51.088032" lon="13.711032"><ele>112.25</ele></trkpt>
   <trkpt lat="51.08813" lon="13.710646"><ele>112.5</ele></trkpt>
   <trkpt lat="51.0887" lon="13.708418"><ele>111.75</ele></trkpt>
   <trkpt lat="51.088717" lon="13.708349"><ele>111.75</ele></trkpt>
   <trkpt lat="51.088792" lon="13.708057"><ele>112</ele></trkpt>
   <trkpt lat="51.089528" lon="13.705188"><ele>112.5</ele></trkpt>
   <trkpt lat="51.089579" lon="13.704995"><ele>112.5</ele></trkpt>
   <trkpt lat="51.089591" lon="13.704949"><ele>112.25</ele></trkpt>
   <trkpt lat="51.089826" lon="13.70402"><ele>112</ele></trkpt>
   <trkpt lat="51.089885" lon="13.703793"><ele>112</ele></trkpt>
   <trkpt lat="51.090051" lon="13.703153"><ele>111.75</ele></trkpt>
   <trkpt lat="51.090148" lon="13.702772"><ele>111.5</ele></trkpt>
   <trkpt lat="51.090236" lon="13.70245"><ele>111.5</ele></trkpt>
   <trkpt lat="51.090427" lon="13.70173"><ele>112.25</ele></trkpt>
   <trkpt lat="51.090669" lon="13.70088"><ele>113.75</ele></trkpt>
   <trkpt lat="51.090845" lon="13.700289"><ele>115</ele></trkpt>
   <trkpt lat="51.090899" lon="13.700106"><ele>115</ele></trkpt>
   <trkpt lat="51.091196" lon="13.699182"><ele>114.25</ele></trkpt>
   <trkpt lat="51.091526" lon="13.698218"><ele>113.5</ele></trkpt>
   <trkpt lat="51.091946" lon="13.697053"><ele>113.25</ele></trkpt>
   <trkpt lat="51.092347" lon="13.695987"><ele>116</ele></trkpt>
   <trkpt lat="51.092526" lon="13.695496"><ele>117.75</ele></trkpt>
   <trkpt lat="51.093034" lon="13.694114"><ele>115.5</ele></trkpt>
   <trkpt lat="51.093269" lon="13.693452"><ele>114.25</ele></trkpt>
   <trkpt lat="51.093363" lon="13.693189"><ele>114</ele></trkpt>
   <trkpt lat="51.093611" lon="13.692522"><ele>114.25</ele></trkpt>
   <trkpt lat="51.093664" lon="13.69237"><ele>114.25</ele></trkpt>
   <trkpt lat="51.093923" lon="13.691643"><ele>114</ele></trkpt>
   <trkpt lat="51.094074" lon="13.691226"><ele>114.25</ele></trkpt>
   <trkpt lat="51.094132" lon="13.69107"><ele>114.5</ele></trkpt>
   <trkpt lat="51.094231" lon="13.690792"><ele>115</ele></trkpt>
   <trkpt lat="51.094309" lon="13.690576"><ele>115</ele></trkpt>
   <trkpt lat="51.094786" lon="13.689257"><ele>115</ele></trkpt>
   <trkpt lat="51.095246" lon="13.687984"><ele>114.5</ele></trkpt>
   <trkpt lat="51.095461" lon="13.68739"><ele>113.75</ele></trkpt>
   <trkpt lat="51.095758" lon="13.686578"><ele>113</ele></trkpt>
   <trkpt lat="51.09593" lon="13.686113"><ele>113</ele></trkpt>
   <trkpt lat="51.097092" lon="13.682979"><ele>113</ele></trkpt>
   <trkpt lat="51.097725" lon="13.681272"><ele>113.25</ele></trkpt>
   <trkpt lat="51.097798" lon="13.681076"><ele>113.5</ele></trkpt>
   <trkpt lat="51.098222" lon="13.679948"><ele>113</ele></trkpt>
   <trkpt lat="51.098643" lon="13.678899"><ele>114.5</ele></trkpt>
   <trkpt lat="51.098874" lon="13.678315"><ele>114.75</ele></trkpt>
   <trkpt lat="51.099194" lon="13.677495"><ele>115</ele></trkpt>
   <trkpt lat="51.099658" lon="13.676179"><ele>114.25</ele></trkpt>
   <trkpt lat="51.099841" lon="13.675631"><ele>113.25</ele></trkpt>
   <trkpt lat="51.100071" lon="13.674871"><ele>111.75</ele></trkpt>
   <trkpt lat="51.100174" lon="13.674505"><ele>111.25</ele></trkpt>
   <trkpt lat="51.100415" lon="13.673578"><ele>110.75</ele></trkpt>
   <trkpt lat="51.10055" lon="13.67302"><ele>110.5</ele></trkpt>
   <trkpt lat="51.100646" lon="13.672588"><ele>110.25</ele></trkpt>
   <trkpt lat="51.100665" lon="13.672504"><ele>110.25</ele></trkpt>
   <trkpt lat="51.100813" lon="13.671826"><ele>110.75</ele></trkpt>
   <trkpt lat="51.100973" lon="13.671024"><ele>111</ele></trkpt>
   <trkpt lat="51.101136" lon="13.670112"><ele>111.25</ele></trkpt>
   <trkpt lat="51.101286" lon="13.669214"><ele>111.5</ele></trkpt>
   <trkpt lat="51.101543" lon="13.667309"><ele>114.5</ele></trkpt>
   <trkpt lat="51.101567" lon="13.667131"><ele>114.5</ele></trkpt>
   <trkpt lat="51.101922" lon="13.664391"><ele>112.25</ele></trkpt>
   <trkpt lat="51.101976" lon="13.663977"><ele>111.75</ele></trkpt>
   <trkpt lat="51.102193" lon="13.662313"><ele>112</ele></trkpt>
   <trkpt lat="51.102263" lon="13.661754"><ele>112</ele></trkpt>
   <trkpt lat="51.102289" lon="13.661555"><ele>112</ele></trkpt>
   <trkpt lat="51.102514" lon="13.659813"><ele>113.75</ele></trkpt>
   <trkpt lat="51.102701" lon="13.658298"><ele>112.5</ele></trkpt>
   <trkpt lat="51.102836" lon="13.657205"><ele>111.5</ele></trkpt>
   <trkpt lat="51.102856" lon="13.657039"><ele>111.5</ele></trkpt>
   <trkpt lat="51.103153" lon="13.654783"><ele>110.75</ele></trkpt>
   <trkpt lat="51.103487" lon="13.652294"><ele>110</ele></trkpt>
   <trkpt lat="51.104191" lon="13.64685"><ele>111</ele></trkpt>
   <trkpt lat="51.104802" lon="13.64211"><ele>111</ele></trkpt>
   <trkpt lat="51.104989" lon="13.640766"><ele>110</ele></trkpt>
   <trkpt lat="51.105109" lon="13.639987"><ele>109.75</ele></trkpt>
   <trkpt lat="51.105293" lon="13.638874"><ele>109.5</ele></trkpt>
   <trkpt lat="51.105457" lon="13.637962"><ele>110.25</ele></trkpt>
   <trkpt lat="51.105523" lon="13.637606"><ele>110.5</ele></trkpt>
   <trkpt lat="51.10581" lon="13.636161"><ele>111.5</ele></trkpt>
   <trkpt lat="51.106273" lon="13.634078"><ele>111.25</ele></trkpt>
   <trkpt lat="51.106331" lon="13.633819"><ele>111.25</ele></trkpt>
   <trkpt lat="51.106798" lon="13.631745"><ele>110</ele></trkpt>
   <trkpt lat="51.107005" lon="13.630908"><ele>110.5</ele></trkpt>
   <trkpt lat="51.107254" lon="13.629995"><ele>110.25</ele></trkpt>
   <trkpt lat="51.107323" lon="13.629751"><ele>110.25</ele></trkpt>
   <trkpt lat="51.107662" lon="13.628594"><ele>110.75</ele></trkpt>
   <trkpt lat="51.108162" lon="13.626939"><ele>109.75</ele></trkpt>
   <trkpt lat="51.108989" lon="13.624225"><ele>110</ele></trkpt>
   <trkpt lat="51.109209" lon="13.623489"><ele>109.75</ele></trkpt>
   <trkpt lat="51.109834" lon="13.621455"><ele>108.5</ele></trkpt>
   <trkpt lat="51.110473" lon="13.619375"><ele>108.75</ele></trkpt>
   <trkpt lat="51.110776" lon="13.618403"><ele>110.5</ele></trkpt>
   <trkpt lat="51.110902" lon="13.617996"><ele>110.25</ele></trkpt>
   <trkpt lat="51.111309" lon="13.616542"><ele>108.25</ele></trkpt>
   <trkpt lat="51.111702" lon="13.615282"><ele>108</ele></trkpt>
   <trkpt lat="51.111997" lon="13.614337"><ele>108.25</ele></trkpt>
   <trkpt lat="51.112558" lon="13.612401"><ele>109.75</ele></trkpt>
   <trkpt lat="51.112801" lon="13.611596"><ele>109</ele></trkpt>
   <trkpt lat="51.113022" lon="13.610864"><ele>108.25</ele></trkpt>
   <trkpt lat="51.113302" lon="13.609943"><ele>108</ele></trkpt>
   <trkpt lat="51.113451" lon="13.609454"><ele>108.5</ele></trkpt>
   <trkpt lat="51.113514" lon="13.609243"><ele>108.5</ele></trkpt>
   <trkpt lat="51.113713" lon="13.608598"><ele>108.75</ele></trkpt>
   <trkpt lat="51.113816" lon="13.608252"><ele>108.75</ele></trkpt>
   <trkpt lat="51.114198" lon="13.606975"><ele>108.75</ele></trkpt>
   <trkpt lat="51.114755" lon="13.605044"><ele>109.25</ele></trkpt>
   <trkpt lat="51.114875" lon="13.604621"><ele>110</ele></trkpt>
   <trkpt lat="51.115363" lon="13.602966"><ele>110.5</ele></trkpt>
   <trkpt lat="51.115717" lon="13.601731"><ele>109.75</ele></trkpt>
   <trkpt lat="51.115942" lon="13.600975"><ele>109</ele></trkpt>
   <trkpt lat="51.116165" lon="13.600271"><ele>108.75</ele></trkpt>
   <trkpt lat="51.116378" lon="13.599604"><ele>108.75</ele></trkpt>
   <trkpt lat="51.117212" lon="13.597381"><ele>111</ele></trkpt>
   <trkpt lat="51.11743" lon="13.596747"><ele>111.75</ele></trkpt>
   <trkpt lat="51.117694" lon="13.595875"><ele>111.75</ele></trkpt>
   <trkpt lat="51.117945" lon="13.594986"><ele>111.25</ele></trkpt>
   <trkpt lat="51.118004" lon="13.594787"><ele>111</ele></trkpt>
   <trkpt lat="51.118185" lon="13.594158"><ele>109.75</ele></trkpt>
   <trkpt lat="51.118584" lon="13.592764"><ele>108</ele></trkpt>
   <trkpt lat="51.120103" lon="13.587713"><ele>108</ele></trkpt>
   <trkpt lat="51.120198" lon="13.587397"><ele>108</ele></trkpt>
   <trkpt lat="51.120391" lon="13.58676"><ele>108</ele></trkpt>
   <trkpt lat="51.120427" lon="13.586644"><ele>108</ele></trkpt>
   <trkpt lat="51.121083" lon="13.584486"><ele>108.5</ele></trkpt>
   <trkpt lat="51.121375" lon="13.583523"><ele>108.25</ele></trkpt>
   <trkpt lat="51.12203" lon="13.58136"><ele>107.25</ele></trkpt>
   <trkpt lat="51.122149" lon="13.580984"><ele>107.75</ele></trkpt>
   <trkpt lat="51.122285" lon="13.580565"><ele>108</ele></trkpt>
   <trkpt lat="51.122466" lon="13.580046"><ele>108</ele></trkpt>
   <trkpt lat="51.122522" lon="13.579896"><ele>108</ele></trkpt>
   <trkpt lat="51.122537" lon="13.579856"><ele>108.75</ele></trkpt>
   <trkpt lat="51.122522" lon="13.579896"><ele>108</ele></trkpt>
   <trkpt lat="51.122466" lon="13.580046"><ele>108</ele></trkpt>
   <trkpt lat="51.122285" lon="13.580565"><ele>108</ele></trkpt>
   <trkpt lat="51.122149" lon="13.580984"><ele>107.75</ele></trkpt>
   <trkpt lat="51.12203" lon="13.58136"><ele>107.25</ele></trkpt>
   <trkpt lat="51.121375" lon="13.583523"><ele>108.25</ele></trkpt>
   <trkpt lat="51.121083" lon="13.584486"><ele>108.5</ele></trkpt>
   <trkpt lat="51.120427" lon="13.586644"><ele>108</ele></trkpt>
   <trkpt lat="51.120391" lon="13.58676"><ele>108</ele></trkpt>
   <trkpt lat="51.120231" lon="13.587232"><ele>108</ele></trkpt>
   <trkpt lat="51.119732" lon="13.588496"><ele>108.25</ele></trkpt>
   <trkpt lat="51.119122" lon="13.590045"><ele>108.75</ele></trkpt>
   <trkpt lat="51.118698" lon="13.591121"><ele>108.25</ele></trkpt>
   <trkpt lat="51.118577" lon="13.591419"><ele>108</ele></trkpt>
   <trkpt lat="51.11828" lon="13.592166"><ele>108</ele></trkpt>
   <trkpt lat="51.118111" lon="13.592549"><ele>108</ele></trkpt>
   <trkpt lat="51.11793" lon="13.592915"><ele>108.25</ele></trkpt>
   <trkpt lat="51.117679" lon="13.593355"><ele>109</ele></trkpt>
   <trkpt lat="51.117411" lon="13.593778"><ele>109.25</ele></trkpt>
   <trkpt lat="51.117188" lon="13.594102"><ele>109.5</ele></trkpt>
   <trkpt lat="51.11696" lon="13.594405"><ele>109.75</ele></trkpt>
   <trkpt lat="51.116579" lon="13.594844"><ele>110.25</ele></trkpt>
   <trkpt lat="51.116197" lon="13.595223"><ele>110</ele></trkpt>
   <trkpt lat="51.115793" lon="13.595567"><ele>109.5</ele></trkpt>
   <trkpt lat="51.114586" lon="13.596422"><ele>110.5</ele></trkpt>
   <trkpt lat="51.114375" lon="13.596574"><ele>110.75</ele></trkpt>
   <trkpt lat="51.113748" lon="13.597016"><ele>110.25</ele></trkpt>
   <trkpt lat="51.112704" lon="13.597801"><ele>109.5</ele></trkpt>
   <trkpt lat="51.11222" lon="13.598141"><ele>109.25</ele></trkpt>
   <trkpt lat="51.11205" lon="13.598249"><ele>109.5</ele></trkpt>
   <trkpt lat="51.11161" lon="13.598527"><ele>109.75</ele></trkpt>
   <trkpt lat="51.114613" lon="13.597227"><ele>110.25</ele></trkpt>
   <trkpt lat="51.114766" lon="13.597163"><ele>110.25</ele></trkpt>
   <trkpt lat="51.116109" lon="13.596581"><ele>111</ele></trkpt>
   <trkpt lat="51.116784" lon="13.596303"><ele>111.5</ele></trkpt>
   <trkpt lat="51.117321" lon="13.596096"><ele>111.75</ele></trkpt>
   <trkpt lat="51.11746" lon="13.596043"><ele>111.75</ele></trkpt>
   <trkpt lat="51.117528" lon="13.596018"><ele>111.75</ele></trkpt>
   <trkpt lat="51.117585" lon="13.595997"><ele>111.75</ele></trkpt>
   <trkpt lat="51.117845" lon="13.595903"><ele>111.5</ele></trkpt>
   <trkpt lat="51.118414" lon="13.595684"><ele>110.75</ele></trkpt>
   <trkpt lat="51.119015" lon="13.595396"><ele>111</ele></trkpt>
   <trkpt lat="51.120067" lon="13.594938"><ele>111.5</ele></trkpt>
   <trkpt lat="51.120937" lon="13.594611"><ele>109.25</ele></trkpt>
   <trkpt lat="51.12134" lon="13.594487"><ele>108.5</ele></trkpt>
   <trkpt lat="51.121675" lon="13.594376"><ele>108</ele></trkpt>
   <trkpt lat="51.122792" lon="13.594044"><ele>109</ele></trkpt>
   <trkpt lat="51.122851" lon="13.594027"><ele>109</ele></trkpt>
   <trkpt lat="51.123795" lon="13.593725"><ele>110.75</ele></trkpt>
   <trkpt lat="51.123864" lon="13.593699"><ele>111</ele></trkpt>
   <trkpt lat="51.123951" lon="13.593659"><ele>111</ele></trkpt>
   <trkpt lat="51.124502" lon="13.593458"><ele>112.25</ele></trkpt>
   <trkpt lat="51.125679" lon="13.593058"><ele>113.25</ele></trkpt>
   <trkpt lat="51.126479" lon="13.59275"><ele>113.75</ele></trkpt>
   <trkpt lat="51.128245" lon="13.59211"><ele>112.75</ele></trkpt>
   <trkpt lat="51.129505" lon="13.591646"><ele>116.75</ele></trkpt>
   <trkpt lat="51.129641" lon="13.591591"><ele>117</ele></trkpt>
   <trkpt lat="51.129747" lon="13.591552"><ele>117</ele></trkpt>
   <trkpt lat="51.132466" lon="13.590557"><ele>121.75</ele></trkpt>
   <trkpt lat="51.132786" lon="13.590443"><ele>122.25</ele></trkpt>
   <trkpt lat="51.132901" lon="13.590401"><ele>122.25</ele></trkpt>
   <trkpt lat="51.133147" lon="13.590311"><ele>122.5</ele></trkpt>
   <trkpt lat="51.135465" lon="13.589463"><ele>123.75</ele></trkpt>
   <trkpt lat="51.136399" lon="13.589122"><ele>123.75</ele></trkpt>
   <trkpt lat="51.137853" lon="13.588592"><ele>124.5</ele></trkpt>
   <trkpt lat="51.138112" lon="13.588498"><ele>124.75</ele></trkpt>
   <trkpt lat="51.143444" lon="13.58655"><ele>129.75</ele></trkpt>
   <trkpt lat="51.143538" lon="13.586514"><ele>130</ele></trkpt>
   <trkpt lat="51.143644" lon="13.586477"><ele>130</ele></trkpt>
   <trkpt lat="51.144408" lon="13.586179"><ele>130</ele></trkpt>
   <trkpt lat="51.145191" lon="13.58584"><ele>130</ele></trkpt>
   <trkpt lat="51.145649" lon="13.585623"><ele>130.25</ele></trkpt>
   <trkpt lat="51.146103" lon="13.585394"><ele>130</ele></trkpt>
   <trkpt lat="51.14656" lon="13.585149"><ele>130</ele></trkpt>
   <trkpt lat="51.147046" lon="13.58487"><ele>130.5</ele></trkpt>
   <trkpt lat="51.150512" lon="13.582707"><ele>132.25</ele></trkpt>
   <trkpt lat="51.152771" lon="13.581282"><ele>133</ele></trkpt>
   <trkpt lat="51.153776" lon="13.580648"><ele>132.5</ele></trkpt>
   <trkpt lat="51.15402" lon="13.580495"><ele>132.25</ele></trkpt>
   <trkpt lat="51.154051" lon="13.580476"><ele>132</ele></trkpt>
   <trkpt lat="51.157852" lon="13.578084"><ele>138.25</ele></trkpt>
   <trkpt lat="51.159659" lon="13.576948"><ele>140.5</ele></trkpt>
   <trkpt lat="51.160444" lon="13.576453"><ele>140.5</ele></trkpt>
   <trkpt lat="51.161218" lon="13.575959"><ele>141.5</ele></trkpt>
   <trkpt lat="51.161679" lon="13.575665"><ele>142.75</ele></trkpt>
   <trkpt lat="51.162131" lon="13.575356"><ele>142.25</ele></trkpt>
   <trkpt lat="51.16233" lon="13.575208"><ele>142</ele></trkpt>
   <trkpt lat="51.162694" lon="13.574947"><ele>142</ele></trkpt>
   <trkpt lat="51.163383" lon="13.574409"><ele>142.25</ele></trkpt>
   <trkpt lat="51.163814" lon="13.574038"><ele>142.25</ele></trkpt>
   <trkpt lat="51.164274" lon="13.573631"><ele>141.75</ele></trkpt>
   <trkpt lat="51.164672" lon="13.573262"><ele>141.25</ele></trkpt>
   <trkpt lat="51.164885" lon="13.573054"><ele>141.25</ele></trkpt>
   <trkpt lat="51.164962" lon="13.572977"><ele>141.5</ele></trkpt>
   <trkpt lat="51.16571" lon="13.572328"><ele>141.5</ele></trkpt>
   <trkpt lat="51.166119" lon="13.571928"><ele>141.75</ele></trkpt>
   <trkpt lat="51.166976" lon="13.571108"><ele>143</ele></trkpt>
   <trkpt lat="51.167659" lon="13.570449"><ele>143.25</ele></trkpt>
   <trkpt lat="51.168252" lon="13.569875"><ele>143.5</ele></trkpt>
   <trkpt lat="51.168346" lon="13.569786"><ele>143.5</ele></trkpt>
   <trkpt lat="51.168428" lon="13.569711"><ele>143.5</ele></trkpt>
   <trkpt lat="51.168685" lon="13.569461"><ele>143.5</ele></trkpt>
   <trkpt lat="51.169986" lon="13.568222"><ele>142.75</ele></trkpt>
   <trkpt lat="51.170335" lon="13.567909"><ele>143.25</ele></trkpt>
   <trkpt lat="51.171165" lon="13.567216"><ele>144.5</ele></trkpt>
   <trkpt lat="51.171413" lon="13.567025"><ele>145</ele></trkpt>
   <trkpt lat="51.171891" lon="13.566664"><ele>145.25</ele></trkpt>
   <trkpt lat="51.172151" lon="13.566484"><ele>144.75</ele></trkpt>
   <trkpt lat="51.172847" lon="13.566029"><ele>144</ele></trkpt>
   <trkpt lat="51.173057" lon="13.565903"><ele>143.75</ele></trkpt>
   <trkpt lat="51.173139" lon="13.565854"><ele>143.75</ele></trkpt>
   <trkpt lat="51.173753" lon="13.565506"><ele>144</ele></trkpt>
   <trkpt lat="51.174146" lon="13.565305"><ele>144</ele></trkpt>
   <trkpt lat="51.174745" lon="13.565023"><ele>143.75</ele></trkpt>
   <trkpt lat="51.175438" lon="13.56474"><ele>143</ele></trkpt>
   <trkpt lat="51.175587" lon="13.564686"><ele>143</ele></trkpt>
   <trkpt lat="51.175649" lon="13.564666"><ele>143</ele></trkpt>
   <trkpt lat="51.176681" lon="13.564341"><ele>144.5</ele></trkpt>
   <trkpt lat="51.176845" lon="13.564301"><ele>144</ele></trkpt>
   <trkpt lat="51.177238" lon="13.564205"><ele>143.25</ele></trkpt>
   <trkpt lat="51.17756" lon="13.564137"><ele>142.75</ele></trkpt>
   <trkpt lat="51.178188" lon="13.564021"><ele>142.5</ele></trkpt>
   <trkpt lat="51.178488" lon="13.563989"><ele>143</ele></trkpt>
   <trkpt lat="51.178622" lon="13.563975"><ele>143.75</ele></trkpt>
   <trkpt lat="51.179297" lon="13.56394"><ele>146</ele></trkpt>
   <trkpt lat="51.179735" lon="13.563954"><ele>147</ele></trkpt>
   <trkpt lat="51.1802" lon="13.564004"><ele>148.25</ele></trkpt>
   <trkpt lat="51.180357" lon="13.564029"><ele>148.5</ele></trkpt>
   <trkpt lat="51.180508" lon="13.564052"><ele>148.75</ele></trkpt>
   <trkpt lat="51.180915" lon="13.564141"><ele>149.75</ele></trkpt>
   <trkpt lat="51.182928" lon="13.564644"><ele>155.5</ele></trkpt>
   <trkpt lat="51.183439" lon="13.564761"><ele>153.5</ele></trkpt>
   <trkpt lat="51.183905" lon="13.564851"><ele>149.75</ele></trkpt>
   <trkpt lat="51.184384" lon="13.564911"><ele>147.25</ele></trkpt>
   <trkpt lat="51.184644" lon="13.564925"><ele>147</ele></trkpt>
   <trkpt lat="51.184876" lon="13.564925"><ele>146.75</ele></trkpt>
   <trkpt lat="51.185345" lon="13.564899"><ele>146.5</ele></trkpt>
   <trkpt lat="51.185616" lon="13.564868"><ele>146.25</ele></trkpt>
   <trkpt lat="51.185898" lon="13.564827"><ele>146.25</ele></trkpt>
   <trkpt lat="51.186214" lon="13.564756"><ele>146.75</ele></trkpt>
   <trkpt lat="51.186538" lon="13.56467"><ele>146.75</ele></trkpt>
   <trkpt lat="51.186886" lon="13.564559"><ele>146.75</ele></trkpt>
   <trkpt lat="51.187234" lon="13.564421"><ele>146.5</ele></trkpt>
   <trkpt lat="51.187678" lon="13.564201"><ele>146.25</ele></trkpt>
   <trkpt lat="51.188119" lon="13.563955"><ele>146</ele></trkpt>
   <trkpt lat="51.188526" lon="13.563679"><ele>145.75</ele></trkpt>
   <trkpt lat="51.188996" lon="13.563326"><ele>144.75</ele></trkpt>
   <trkpt lat="51.189165" lon="13.563179"><ele>144.5</ele></trkpt>
   <trkpt lat="51.18951" lon="13.562853"><ele>144.5</ele></trkpt>
   <trkpt lat="51.189851" lon="13.562503"><ele>145.25</ele></trkpt>
   <trkpt lat="51.190135" lon="13.562187"><ele>146.25</ele></trkpt>
   <trkpt lat="51.190412" lon="13.561856"><ele>146.75</ele></trkpt>
   <trkpt lat="51.190651" lon="13.561545"><ele>147.25</ele></trkpt>
   <trkpt lat="51.191087" lon="13.5609"><ele>147.75</ele></trkpt>
   <trkpt lat="51.19129" lon="13.560577"><ele>148.5</ele></trkpt>
   <trkpt lat="51.191408" lon="13.560386"><ele>149.25</ele></trkpt>
   <trkpt lat="51.191564" lon="13.560104"><ele>150.25</ele></trkpt>
   <trkpt lat="51.191955" lon="13.559357"><ele>151.75</ele></trkpt>
   <trkpt lat="51.19214" lon="13.558972"><ele>152.5</ele></trkpt>
   <trkpt lat="51.19241" lon="13.558336"><ele>154</ele></trkpt>
   <trkpt lat="51.192544" lon="13.557992"><ele>154.25</ele></trkpt>
   <trkpt lat="51.192672" lon="13.557642"><ele>155</ele></trkpt>
   <trkpt lat="51.192881" lon="13.557016"><ele>155</ele></trkpt>
   <trkpt lat="51.193073" lon="13.556361"><ele>155.5</ele></trkpt>
   <trkpt lat="51.193192" lon="13.555913"><ele>156.25</ele></trkpt>
   <trkpt lat="51.193317" lon="13.555388"><ele>157.25</ele></trkpt>
   <trkpt lat="51.193509" lon="13.554452"><ele>157.75</ele></trkpt>
   <trkpt lat="51.193684" lon="13.553519"><ele>156.5</ele></trkpt>
   <trkpt lat="51.194162" lon="13.550792"><ele>158.75</ele></trkpt>
   <trkpt lat="51.194451" lon="13.549207"><ele>158.25</ele></trkpt>
   <trkpt lat="51.194613" lon="13.548378"><ele>158.5</ele></trkpt>
   <trkpt lat="51.194703" lon="13.547967"><ele>159</ele></trkpt>
   <trkpt lat="51.194805" lon="13.547568"><ele>159.5</ele></trkpt>
   <trkpt lat="51.195021" lon="13.546787"><ele>160</ele></trkpt>
   <trkpt lat="51.195172" lon="13.546318"><ele>162.25</ele></trkpt>
   <trkpt lat="51.1953" lon="13.545944"><ele>163.75</ele></trkpt>
   <trkpt lat="51.195474" lon="13.545479"><ele>164.75</ele></trkpt>
   <trkpt lat="51.195657" lon="13.545032"><ele>165</ele></trkpt>
   <trkpt lat="51.195996" lon="13.544277"><ele>167.5</ele></trkpt>
   <trkpt lat="51.196201" lon="13.543861"><ele>169.5</ele></trkpt>
   <trkpt lat="51.196418" lon="13.543463"><ele>170.75</ele></trkpt>
   <trkpt lat="51.196853" lon="13.542741"><ele>174.25</ele></trkpt>
   <trkpt lat="51.197187" lon="13.542255"><ele>176</ele></trkpt>
   <trkpt lat="51.197563" lon="13.541759"><ele>175.75</ele></trkpt>
   <trkpt lat="51.19789" lon="13.541367"><ele>174.25</ele></trkpt>
   <trkpt lat="51.198373" lon="13.540855"><ele>172.75</ele></trkpt>
   <trkpt lat="51.198685" lon="13.540557"><ele>171.5</ele></trkpt>
   <trkpt lat="51.199149" lon="13.54017"><ele>169</ele></trkpt>
   <trkpt lat="51.19939" lon="13.539988"><ele>167.5</ele></trkpt>
   <trkpt lat="51.199626" lon="13.539825"><ele>166</ele></trkpt>
   <trkpt lat="51.200039" lon="13.539565"><ele>163.25</ele></trkpt>
   <trkpt lat="51.200443" lon="13.539345"><ele>161.5</ele></trkpt>
   <trkpt lat="51.200794" lon="13.539188"><ele>160</ele></trkpt>
   <trkpt lat="51.20115" lon="13.539049"><ele>158.75</ele></trkpt>
   <trkpt lat="51.201519" lon="13.538931"><ele>157.5</ele></trkpt>
   <trkpt lat="51.201886" lon="13.538834"><ele>157.5</ele></trkpt>
   <trkpt lat="51.202053" lon="13.538804"><ele>157.75</ele></trkpt>
   <trkpt lat="51.202344" lon="13.538761"><ele>158.5</ele></trkpt>
   <trkpt lat="51.202913" lon="13.538703"><ele>159</ele></trkpt>
   <trkpt lat="51.20326" lon="13.538706"><ele>159.25</ele></trkpt>
   <trkpt lat="51.203615" lon="13.538725"><ele>159.25</ele></trkpt>
   <trkpt lat="51.203975" lon="13.538769"><ele>159.5</ele></trkpt>
   <trkpt lat="51.20415" lon="13.538803"><ele>159.5</ele></trkpt>
   <trkpt lat="51.204338" lon="13.538839"><ele>160</ele></trkpt>
   <trkpt lat="51.20468" lon="13.538925"><ele>160.75</ele></trkpt>
   <trkpt lat="51.20503" lon="13.539035"><ele>161.5</ele></trkpt>
   <trkpt lat="51.205201" lon="13.539096"><ele>161.25</ele></trkpt>
   <trkpt lat="51.205866" lon="13.539409"><ele>160.75</ele></trkpt>
   <trkpt lat="51.205969" lon="13.539456"><ele>160.5</ele></trkpt>
   <trkpt lat="51.206198" lon="13.53958"><ele>160</ele></trkpt>
   <trkpt lat="51.206765" lon="13.539946"><ele>158.5</ele></trkpt>
   <trkpt lat="51.207033" lon="13.540138"><ele>158</ele></trkpt>
   <trkpt lat="51.207301" lon="13.54036"><ele>157.5</ele></trkpt>
   <trkpt lat="51.208391" lon="13.541359"><ele>154.25</ele></trkpt>
   <trkpt lat="51.208868" lon="13.541826"><ele>152.25</ele></trkpt>
   <trkpt lat="51.209448" lon="13.542387"><ele>150</ele></trkpt>
   <trkpt lat="51.210439" lon="13.543349"><ele>150.5</ele></trkpt>
   <trkpt lat="51.212182" lon="13.54505"><ele>154</ele></trkpt>
   <trkpt lat="51.213385" lon="13.546223"><ele>150.25</ele></trkpt>
   <trkpt lat="51.214105" lon="13.546925"><ele>150</ele></trkpt>
   <trkpt lat="51.21523" lon="13.547998"><ele>150.25</ele></trkpt>
   <trkpt lat="51.216376" lon="13.549125"><ele>150.5</ele></trkpt>
   <trkpt lat="51.217277" lon="13.549916"><ele>151</ele></trkpt>
   <trkpt lat="51.217744" lon="13.550281"><ele>151.25</ele></trkpt>
   <trkpt lat="51.21812" lon="13.55054"><ele>151.5</ele></trkpt>
   <trkpt lat="51.218366" lon="13.550688"><ele>151.5</ele></trkpt>
   <trkpt lat="51.218521" lon="13.55078"><ele>152</ele></trkpt>
   <trkpt lat="51.218786" lon="13.550927"><ele>152.75</ele></trkpt>
   <trkpt lat="51.219213" lon="13.551128"><ele>153.75</ele></trkpt>
   <trkpt lat="51.219844" lon="13.551381"><ele>152.25</ele></trkpt>
   <trkpt lat="51.220101" lon="13.55147"><ele>151.25</ele></trkpt>
   <trkpt lat="51.221681" lon="13.551943"><ele>144.25</ele></trkpt>
   <trkpt lat="51.221817" lon="13.551982"><ele>144</ele></trkpt>
   <trkpt lat="51.221942" lon="13.552016"><ele>143.75</ele></trkpt>
   <trkpt lat="51.222602" lon="13.552213"><ele>142.75</ele></trkpt>
   <trkpt lat="51.223112" lon="13.55234"><ele>142</ele></trkpt>
   <trkpt lat="51.223622" lon="13.55243"><ele>141.5</ele></trkpt>
   <trkpt lat="51.224081" lon="13.552481"><ele>141</ele></trkpt>
   <trkpt lat="51.224482" lon="13.552507"><ele>141</ele></trkpt>
   <trkpt lat="51.224887" lon="13.552505"><ele>141</ele></trkpt>
   <trkpt lat="51.225269" lon="13.552475"><ele>141</ele></trkpt>
   <trkpt lat="51.225397" lon="13.552461"><ele>141</ele></trkpt>
   <trkpt lat="51.225505" lon="13.552446"><ele>141</ele></trkpt>
   <trkpt lat="51.226105" lon="13.55234"><ele>141.25</ele></trkpt>
   <trkpt lat="51.226448" lon="13.55225"><ele>141.5</ele></trkpt>
   <trkpt lat="51.22682" lon="13.552136"><ele>141.75</ele></trkpt>
   <trkpt lat="51.227325" lon="13.551945"><ele>141</ele></trkpt>
   <trkpt lat="51.227461" lon="13.551889"><ele>141</ele></trkpt>
   <trkpt lat="51.228094" lon="13.551579"><ele>142.25</ele></trkpt>
   <trkpt lat="51.228298" lon="13.551461"><ele>142.75</ele></trkpt>
   <trkpt lat="51.228506" lon="13.551336"><ele>143.25</ele></trkpt>
   <trkpt lat="51.228516" lon="13.55133"><ele>143.5</ele></trkpt>
   <trkpt lat="51.228863" lon="13.551102"><ele>144.5</ele></trkpt>
   <trkpt lat="51.22941" lon="13.550744"><ele>145.5</ele></trkpt>
   <trkpt lat="51.230523" lon="13.549966"><ele>145.5</ele></trkpt>
   <trkpt lat="51.231616" lon="13.549201"><ele>146</ele></trkpt>
   <trkpt lat="51.232132" lon="13.54884"><ele>146</ele></trkpt>
   <trkpt lat="51.234071" lon="13.54749"><ele>144</ele></trkpt>
   <trkpt lat="51.235635" lon="13.546402"><ele>143.5</ele></trkpt>
   <trkpt lat="51.236242" lon="13.545979"><ele>143.25</ele></trkpt>
   <trkpt lat="51.237153" lon="13.545345"><ele>143</ele></trkpt>
   <trkpt lat="51.238472" lon="13.544427"><ele>143.5</ele></trkpt>
   <trkpt lat="51.23874" lon="13.544244"><ele>143.25</ele></trkpt>
   <trkpt lat="51.240654" lon="13.54291"><ele>139.75</ele></trkpt>
   <trkpt lat="51.241817" lon="13.5421"><ele>136.5</ele></trkpt>
   <trkpt lat="51.241941" lon="13.542013"><ele>135.25</ele></trkpt>
   <trkpt lat="51.242321" lon="13.541749"><ele>135.25</ele></trkpt>
   <trkpt lat="51.243477" lon="13.540944"><ele>132.5</ele></trkpt>
   <trkpt lat="51.244487" lon="13.540241"><ele>131.25</ele></trkpt>
   <trkpt lat="51.244883" lon="13.539962"><ele>131</ele></trkpt>
   <trkpt lat="51.244947" lon="13.539918"><ele>130.75</ele></trkpt>
   <trkpt lat="51.24551" lon="13.539531"><ele>128.5</ele></trkpt>
   <trkpt lat="51.245898" lon="13.539262"><ele>127.75</ele></trkpt>
   <trkpt lat="51.245918" lon="13.539246"><ele>127.75</ele></trkpt>
   <trkpt lat="51.246017" lon="13.539179"><ele>127.75</ele></trkpt>
   <trkpt lat="51.246235" lon="13.539024"><ele>128</ele></trkpt>
   <trkpt lat="51.24667" lon="13.538723"><ele>128.5</ele></trkpt>
   <trkpt lat="51.247759" lon="13.537902"><ele>129.25</ele></trkpt>
   <trkpt lat="51.247821" lon="13.537858"><ele>129.25</ele></trkpt>
   <trkpt lat="51.247902" lon="13.537802"><ele>129.25</ele></trkpt>
   <trkpt lat="51.248552" lon="13.537349"><ele>129.75</ele></trkpt>
   <trkpt lat="51.249316" lon="13.536818"><ele>129.5</ele></trkpt>
   <trkpt lat="51.24942" lon="13.536753"><ele>129.5</ele></trkpt>
   <trkpt lat="51.250463" lon="13.536017"><ele>129.25</ele></trkpt>
   <trkpt lat="51.252042" lon="13.534921"><ele>131</ele></trkpt>
   <trkpt lat="51.253015" lon="13.534238"><ele>133.25</ele></trkpt>
   <trkpt lat="51.253177" lon="13.534121"><ele>133.75</ele></trkpt>
   <trkpt lat="51.253425" lon="13.533954"><ele>134.25</ele></trkpt>
   <trkpt lat="51.253594" lon="13.533835"><ele>134.5</ele></trkpt>
   <trkpt lat="51.254594" lon="13.533093"><ele>136.5</ele></trkpt>
   <trkpt lat="51.256006" lon="13.532021"><ele>140</ele></trkpt>
   <trkpt lat="51.256392" lon="13.531719"><ele>140.25</ele></trkpt>
   <trkpt lat="51.256875" lon="13.531322"><ele>140.5</ele></trkpt>
   <trkpt lat="51.257102" lon="13.531132"><ele>140.75</ele></trkpt>
   <trkpt lat="51.25717" lon="13.531076"><ele>140.75</ele></trkpt>
   <trkpt lat="51.25782" lon="13.530499"><ele>140.5</ele></trkpt>
   <trkpt lat="51.2583" lon="13.530041"><ele>140</ele></trkpt>
   <trkpt lat="51.258722" lon="13.529622"><ele>139.25</ele></trkpt>
   <trkpt lat="51.258778" lon="13.529566"><ele>139</ele></trkpt>
   <trkpt lat="51.259205" lon="13.529122"><ele>138.75</ele></trkpt>
   <trkpt lat="51.259669" lon="13.528612"><ele>138.5</ele></trkpt>
   <trkpt lat="51.260185" lon="13.528016"><ele>138</ele></trkpt>
   <trkpt lat="51.260511" lon="13.527627"><ele>138.25</ele></trkpt>
   <trkpt lat="51.26094" lon="13.527093"><ele>138.25</ele></trkpt>
   <trkpt lat="51.261208" lon="13.526741"><ele>138</ele></trkpt>
   <trkpt lat="51.261772" lon="13.525982"><ele>138</ele></trkpt>
   <trkpt lat="51.262241" lon="13.5253"><ele>138.75</ele></trkpt>
   <trkpt lat="51.262703" lon="13.524602"><ele>139</ele></trkpt>
   <trkpt lat="51.262933" lon="13.524235"><ele>139.25</ele></trkpt>
   <trkpt lat="51.263148" lon="13.523891"><ele>139</ele></trkpt>
   <trkpt lat="51.263624" lon="13.523093"><ele>139</ele></trkpt>
   <trkpt lat="51.263982" lon="13.522459"><ele>139.75</ele></trkpt>
   <trkpt lat="51.264351" lon="13.52177"><ele>139.75</ele></trkpt>
   <trkpt lat="51.265032" lon="13.520432"><ele>140.25</ele></trkpt>
   <trkpt lat="51.26521" lon="13.520057"><ele>140.25</ele></trkpt>
   <trkpt lat="51.265263" lon="13.519947"><ele>140.25</ele></trkpt>
   <trkpt lat="51.265601" lon="13.519201"><ele>138.5</ele></trkpt>
   <trkpt lat="51.266016" lon="13.518248"><ele>137.5</ele></trkpt>
   <trkpt lat="51.266389" lon="13.517341"><ele>136.5</ele></trkpt>
   <trkpt lat="51.266865" lon="13.516088"><ele>134.5</ele></trkpt>
   <trkpt lat="51.267032" lon="13.515622"><ele>133.5</ele></trkpt>
   <trkpt lat="51.267086" lon="13.515465"><ele>133.25</ele></trkpt>
   <trkpt lat="51.267353" lon="13.514689"><ele>132.75</ele></trkpt>
   <trkpt lat="51.267621" lon="13.513866"><ele>133</ele></trkpt>
   <trkpt lat="51.267892" lon="13.51295"><ele>133</ele></trkpt>
   <trkpt lat="51.268134" lon="13.512121"><ele>132.75</ele></trkpt>
   <trkpt lat="51.268358" lon="13.511285"><ele>132.25</ele></trkpt>
   <trkpt lat="51.268591" lon="13.51035"><ele>132.25</ele></trkpt>
   <trkpt lat="51.268789" lon="13.509508"><ele>131.5</ele></trkpt>
   <trkpt lat="51.268823" lon="13.509349"><ele>131.25</ele></trkpt>
   <trkpt lat="51.268928" lon="13.508865"><ele>130.75</ele></trkpt>
   <trkpt lat="51.269285" lon="13.507056"><ele>130.5</ele></trkpt>
   <trkpt lat="51.269564" lon="13.505349"><ele>131.25</ele></trkpt>
   <trkpt lat="51.269702" lon="13.504372"><ele>129.75</ele></trkpt>
   <trkpt lat="51.269819" lon="13.503421"><ele>128</ele></trkpt>
   <trkpt lat="51.269869" lon="13.502973"><ele>127.5</ele></trkpt>
   <trkpt lat="51.26991" lon="13.502626"><ele>127</ele></trkpt>
   <trkpt lat="51.270013" lon="13.501587"><ele>126</ele></trkpt>
   <trkpt lat="51.270093" lon="13.500587"><ele>127</ele></trkpt>
   <trkpt lat="51.270155" lon="13.499601"><ele>127.75</ele></trkpt>
   <trkpt lat="51.270206" lon="13.49857"><ele>129.5</ele></trkpt>
   <trkpt lat="51.270238" lon="13.49749"><ele>131</ele></trkpt>
   <trkpt lat="51.270249" lon="13.496798"><ele>131.5</ele></trkpt>
   <trkpt lat="51.270254" lon="13.496416"><ele>131.75</ele></trkpt>
   <trkpt lat="51.270251" lon="13.495369"><ele>132.75</ele></trkpt>
   <trkpt lat="51.270229" lon="13.494336"><ele>133.75</ele></trkpt>
   <trkpt lat="51.270201" lon="13.493483"><ele>134.75</ele></trkpt>
   <trkpt lat="51.270172" lon="13.492772"><ele>135.25</ele></trkpt>
   <trkpt lat="51.270146" lon="13.492322"><ele>135.5</ele></trkpt>
   <trkpt lat="51.270016" lon="13.490234"><ele>135</ele></trkpt>
   <trkpt lat="51.269867" lon="13.488184"><ele>136.25</ele></trkpt>
   <trkpt lat="51.269733" lon="13.486154"><ele>136.5</ele></trkpt>
   <trkpt lat="51.269663" lon="13.485116"><ele>136.75</ele></trkpt>
   <trkpt lat="51.269481" lon="13.481998"><ele>139.75</ele></trkpt>
   <trkpt lat="51.269433" lon="13.480934"><ele>141</ele></trkpt>
   <trkpt lat="51.269408" lon="13.479891"><ele>141.5</ele></trkpt>
   <trkpt lat="51.269399" lon="13.478854"><ele>142</ele></trkpt>
   <trkpt lat="51.269397" lon="13.478675"><ele>142</ele></trkpt>
   <trkpt lat="51.269394" lon="13.478259"><ele>141.75</ele></trkpt>
   <trkpt lat="51.269407" lon="13.477367"><ele>141.5</ele></trkpt>
   <trkpt lat="51.269434" lon="13.476451"><ele>141.75</ele></trkpt>
   <trkpt lat="51.26946" lon="13.475865"><ele>142.5</ele></trkpt>
   <trkpt lat="51.269489" lon="13.475205"><ele>142.5</ele></trkpt>
   <trkpt lat="51.269551" lon="13.474317"><ele>142.5</ele></trkpt>
   <trkpt lat="51.269626" lon="13.473286"><ele>142.25</ele></trkpt>
   <trkpt lat="51.26978" lon="13.471754"><ele>141.25</ele></trkpt>
   <trkpt lat="51.26989" lon="13.47089"><ele>140</ele></trkpt>
   <trkpt lat="51.270026" lon="13.469824"><ele>139.25</ele></trkpt>
   <trkpt lat="51.270166" lon="13.468923"><ele>141</ele></trkpt>
   <trkpt lat="51.270321" lon="13.467999"><ele>141</ele></trkpt>
   <trkpt lat="51.270432" lon="13.467383"><ele>140.25</ele></trkpt>
   <trkpt lat="51.270748" lon="13.465834"><ele>137</ele></trkpt>
   <trkpt lat="51.270833" lon="13.465428"><ele>136.5</ele></trkpt>
   <trkpt lat="51.271051" lon="13.464498"><ele>135.5</ele></trkpt>
   <trkpt lat="51.271282" lon="13.463575"><ele>135</ele></trkpt>
   <trkpt lat="51.271538" lon="13.462623"><ele>134</ele></trkpt>
   <trkpt lat="51.271767" lon="13.461821"><ele>133.75</ele></trkpt>
   <trkpt lat="51.272093" lon="13.460754"><ele>131.75</ele></trkpt>
   <trkpt lat="51.272342" lon="13.459983"><ele>130.75</ele></trkpt>
   <trkpt lat="51.27239" lon="13.459838"><ele>130.75</ele></trkpt>
   <trkpt lat="51.272687" lon="13.458997"><ele>130.25</ele></trkpt>
   <trkpt lat="51.272998" lon="13.458152"><ele>130.75</ele></trkpt>
   <trkpt lat="51.273344" lon="13.457241"><ele>131</ele></trkpt>
   <trkpt lat="51.274461" lon="13.454481"><ele>129</ele></trkpt>
   <trkpt lat="51.27454" lon="13.454302"><ele>129</ele></trkpt>
   <trkpt lat="51.274658" lon="13.454013"><ele>129</ele></trkpt>
   <trkpt lat="51.274805" lon="13.453642"><ele>129</ele></trkpt>
   <trkpt lat="51.275791" lon="13.451315"><ele>127.5</ele></trkpt>
   <trkpt lat="51.276256" lon="13.45017"><ele>126.5</ele></trkpt>
   <trkpt lat="51.276316" lon="13.450021"><ele>126.5</ele></trkpt>
   <trkpt lat="51.276418" lon="13.449766"><ele>126.25</ele></trkpt>
   <trkpt lat="51.276449" lon="13.449684"><ele>126.25</ele></trkpt>
   <trkpt lat="51.276943" lon="13.448509"><ele>125.25</ele></trkpt>
   <trkpt lat="51.278061" lon="13.445772"><ele>124.75</ele></trkpt>
   <trkpt lat="51.278108" lon="13.445657"><ele>124.75</ele></trkpt>
   <trkpt lat="51.279336" lon="13.442638"><ele>122.75</ele></trkpt>
   <trkpt lat="51.279478" lon="13.442289"><ele>122.5</ele></trkpt>
   <trkpt lat="51.27959" lon="13.442011"><ele>122.25</ele></trkpt>
   <trkpt lat="51.27966" lon="13.441837"><ele>122</ele></trkpt>
  </trkseg>
 </trk>
</gpx>