<?xml version="1.0" encoding="UTF-8"?>
<!-- track-length = 98962 filtered ascend = 199 plain-ascend = -75 cost=98962 energy=1.2kwh time=2h 11m 57s -->
<gpx 
 xmlns="http://www.topografix.com/GPX/1/1" 
 xmlns:xsi="http://www.w3.org/2001/XMLSchema-instance" 
 xsi:schemaLocation="http://www.topografix.com/GPX/1/1 http://www.topografix.com/GPX/1/1/gpx.xsd" 
 creator="BRouter-1.7.0" version="1.1">
 <trk>
  <name>Erfurt - Leipzig SFS</name>
  <trkseg>
   <trkpt lon="11.037738" lat="50.972056"><ele>197.0</ele></trkpt>
   <trkpt lon="11.038560" lat="50.972306"><ele>197.75</ele></trkpt>
   <trkpt lon="11.038593" lat="50.972316"><ele>197.75</ele></trkpt>
   <trkpt lon="11.038906" lat="50.972412"><ele>197.25</ele></trkpt>
   <trkpt lon="11.039288" lat="50.972529"><ele>196.75</ele></trkpt>
   <trkpt lon="11.039937" lat="50.972721"><ele>196.75</ele></trkpt>
   <trkpt lon="11.040058" lat="50.972759"><ele>196.75</ele></trkpt>
   <trkpt lon="11.040604" lat="50.972922"><ele>196.25</ele></trkpt>
   <trkpt lon="11.041026" lat="50.973033"><ele>195.75</ele></trkpt>
   <trkpt lon="11.041685" lat="50.973194"><ele>194.75</ele></trkpt>
   <trkpt lon="11.041958" lat="50.973250"><ele>194.75</ele></trkpt>
   <trkpt lon="11.041996" lat="50.973258"><ele>194.75</ele></trkpt>
   <trkpt lon="11.042015" lat="50.973262"><ele>194.75</ele></trkpt>
   <trkpt lon="11.042867" lat="50.973422"><ele>195.5</ele></trkpt>
   <trkpt lon="11.043325" lat="50.973499"><ele>196.5</ele></trkpt>
   <trkpt lon="11.044387" lat="50.973627"><ele>198.0</ele></trkpt>
   <trkpt lon="11.045027" lat="50.973686"><ele>199.25</ele></trkpt>
   <trkpt lon="11.045302" lat="50.973706"><ele>199.25</ele></trkpt>
   <trkpt lon="11.046100" lat="50.973748"><ele>199.25</ele></trkpt>
   <trkpt lon="11.046444" lat="50.973762"><ele>199.25</ele></trkpt>
   <trkpt lon="11.047735" lat="50.973858"><ele>198.75</ele></trkpt>
   <trkpt lon="11.047802" lat="50.973863"><ele>198.5</ele></trkpt>
   <trkpt lon="11.047876" lat="50.973866"><ele>198.5</ele></trkpt>
   <trkpt lon="11.048794" lat="50.973909"><ele>198.25</ele></trkpt>
   <trkpt lon="11.049988" lat="50.974020"><ele>198.5</ele></trkpt>
   <trkpt lon="11.050973" lat="50.974140"><ele>198.75</ele></trkpt>
   <trkpt lon="11.056224" lat="50.974778"><ele>199.75</ele></trkpt>
   <trkpt lon="11.057061" lat="50.974880"><ele>200.25</ele></trkpt>
   <trkpt lon="11.059753" lat="50.975205"><ele>199.25</ele></trkpt>
   <trkpt lon="11.060491" lat="50.975298"><ele>199.25</ele></trkpt>
   <trkpt lon="11.060637" lat="50.975318"><ele>199.25</ele></trkpt>
   <trkpt lon="11.061968" lat="50.975529"><ele>200.25</ele></trkpt>
   <trkpt lon="11.062210" lat="50.975564"><ele>200.25</ele></trkpt>
   <trkpt lon="11.063443" lat="50.975756"><ele>201.5</ele></trkpt>
   <trkpt lon="11.064468" lat="50.975878"><ele>202.0</ele></trkpt>
   <trkpt lon="11.064665" lat="50.975902"><ele>202.25</ele></trkpt>
   <trkpt lon="11.064789" lat="50.975916"><ele>202.25</ele></trkpt>
   <trkpt lon="11.064865" lat="50.975924"><ele>202.5</ele></trkpt>
   <trkpt lon="11.065221" lat="50.975968"><ele>202.5</ele></trkpt>
   <trkpt lon="11.066223" lat="50.976091"><ele>203.5</ele></trkpt>
   <trkpt lon="11.066382" lat="50.976110"><ele>203.75</ele></trkpt>
   <trkpt lon="11.067766" lat="50.976280"><ele>203.5</ele></trkpt>
   <trkpt lon="11.069487" lat="50.976491"><ele>204.25</ele></trkpt>
   <trkpt lon="11.070281" lat="50.976598"><ele>204.5</ele></trkpt>
   <trkpt lon="11.070644" lat="50.976651"><ele>204.75</ele></trkpt>
   <trkpt lon="11.070657" lat="50.976653"><ele>204.75</ele></trkpt>
   <trkpt lon="11.073324" lat="50.977074"><ele>206.5</ele></trkpt>
   <trkpt lon="11.074087" lat="50.977202"><ele>206.25</ele></trkpt>
   <trkpt lon="11.074900" lat="50.977357"><ele>207.0</ele></trkpt>
   <trkpt lon="11.075528" lat="50.977493"><ele>207.5</ele></trkpt>
   <trkpt lon="11.075671" lat="50.977526"><ele>207.75</ele></trkpt>
   <trkpt lon="11.076224" lat="50.977652"><ele>208.25</ele></trkpt>
   <trkpt lon="11.077102" lat="50.977877"><ele>209.0</ele></trkpt>
   <trkpt lon="11.077981" lat="50.978127"><ele>209.5</ele></trkpt>
   <trkpt lon="11.078122" lat="50.978174"><ele>209.5</ele></trkpt>
   <trkpt lon="11.079002" lat="50.978461"><ele>211.5</ele></trkpt>
   <trkpt lon="11.079331" lat="50.978572"><ele>212.75</ele></trkpt>
   <trkpt lon="11.080132" lat="50.978859"><ele>215.0</ele></trkpt>
   <trkpt lon="11.082435" lat="50.979704"><ele>221.5</ele></trkpt>
   <trkpt lon="11.083056" lat="50.979922"><ele>220.75</ele></trkpt>
   <trkpt lon="11.083503" lat="50.980075"><ele>220.75</ele></trkpt>
   <trkpt lon="11.083889" lat="50.980199"><ele>222.0</ele></trkpt>
   <trkpt lon="11.084316" lat="50.980334"><ele>223.25</ele></trkpt>
   <trkpt lon="11.085300" lat="50.980626"><ele>224.25</ele></trkpt>
   <trkpt lon="11.086579" lat="50.980971"><ele>222.75</ele></trkpt>
   <trkpt lon="11.087656" lat="50.981237"><ele>222.0</ele></trkpt>
   <trkpt lon="11.088987" lat="50.981554"><ele>220.5</ele></trkpt>
   <trkpt lon="11.089449" lat="50.981673"><ele>219.75</ele></trkpt>
   <trkpt lon="11.091392" lat="50.982150"><ele>219.5</ele></trkpt>
   <trkpt lon="11.091994" lat="50.982309"><ele>219.0</ele></trkpt>
   <trkpt lon="11.093877" lat="50.982854"><ele>213.0</ele></trkpt>
   <trkpt lon="11.094100" lat="50.982911"><ele>212.25</ele></trkpt>
   <trkpt lon="11.094188" lat="50.982934"><ele>211.75</ele></trkpt>
   <trkpt lon="11.095256" lat="50.983220"><ele>208.5</ele></trkpt>
   <trkpt lon="11.095607" lat="50.983323"><ele>206.0</ele></trkpt>
   <trkpt lon="11.095783" lat="50.983373"><ele>204.75</ele></trkpt>
   <trkpt lon="11.095903" lat="50.983407"><ele>204.0</ele></trkpt>
   <trkpt lon="11.098159" lat="50.984055"><ele>204.0</ele></trkpt>
   <trkpt lon="11.098449" lat="50.984134"><ele>204.0</ele></trkpt>
   <trkpt lon="11.099155" lat="50.984324"><ele>203.25</ele></trkpt>
   <trkpt lon="11.100445" lat="50.984661"><ele>203.0</ele></trkpt>
   <trkpt lon="11.101600" lat="50.984975"><ele>203.75</ele></trkpt>
   <trkpt lon="11.103193" lat="50.985407"><ele>203.0</ele></trkpt>
   <trkpt lon="11.103761" lat="50.985570"><ele>204.25</ele></trkpt>
   <trkpt lon="11.104326" lat="50.985726"><ele>206.25</ele></trkpt>
   <trkpt lon="11.104581" lat="50.985797"><ele>207.25</ele></trkpt>
   <trkpt lon="11.104589" lat="50.985799"><ele>207.25</ele></trkpt>
   <trkpt lon="11.106204" lat="50.986246"><ele>208.5</ele></trkpt>
   <trkpt lon="11.106491" lat="50.986325"><ele>208.75</ele></trkpt>
   <trkpt lon="11.106943" lat="50.986451"><ele>209.0</ele></trkpt>
   <trkpt lon="11.111695" lat="50.987768"><ele>214.0</ele></trkpt>
   <trkpt lon="11.112136" lat="50.987891"><ele>213.75</ele></trkpt>
   <trkpt lon="11.113018" lat="50.988161"><ele>213.25</ele></trkpt>
   <trkpt lon="11.113455" lat="50.988305"><ele>213.0</ele></trkpt>
   <trkpt lon="11.114514" lat="50.988679"><ele>213.0</ele></trkpt>
   <trkpt lon="11.114784" lat="50.988787"><ele>213.0</ele></trkpt>
   <trkpt lon="11.115415" lat="50.989035"><ele>213.0</ele></trkpt>
   <trkpt lon="11.115874" lat="50.989231"><ele>212.75</ele></trkpt>
   <trkpt lon="11.116697" lat="50.989598"><ele>213.5</ele></trkpt>
   <trkpt lon="11.117193" lat="50.989836"><ele>213.25</ele></trkpt>
   <trkpt lon="11.117772" lat="50.990132"><ele>212.25</ele></trkpt>
   <trkpt lon="11.118460" lat="50.990503"><ele>210.5</ele></trkpt>
   <trkpt lon="11.119122" lat="50.990890"><ele>209.5</ele></trkpt>
   <trkpt lon="11.119292" lat="50.990992"><ele>209.5</ele></trkpt>
   <trkpt lon="11.120084" lat="50.991499"><ele>209.5</ele></trkpt>
   <trkpt lon="11.120676" lat="50.991910"><ele>208.5</ele></trkpt>
   <trkpt lon="11.120965" lat="50.992126"><ele>207.75</ele></trkpt>
   <trkpt lon="11.121532" lat="50.992557"><ele>206.5</ele></trkpt>
   <trkpt lon="11.122071" lat="50.993001"><ele>205.5</ele></trkpt>
   <trkpt lon="11.122413" lat="50.993283"><ele>205.0</ele></trkpt>
   <trkpt lon="11.122680" lat="50.993519"><ele>204.25</ele></trkpt>
   <trkpt lon="11.123298" lat="50.994095"><ele>202.25</ele></trkpt>
   <trkpt lon="11.123531" lat="50.994316"><ele>201.75</ele></trkpt>
   <trkpt lon="11.123949" lat="50.994736"><ele>201.25</ele></trkpt>
   <trkpt lon="11.124477" lat="50.995290"><ele>200.0</ele></trkpt>
   <trkpt lon="11.125000" lat="50.995857"><ele>197.75</ele></trkpt>
   <trkpt lon="11.125292" lat="50.996184"><ele>197.75</ele></trkpt>
   <trkpt lon="11.125881" lat="50.996847"><ele>197.0</ele></trkpt>
   <trkpt lon="11.126692" lat="50.997828"><ele>197.25</ele></trkpt>
   <trkpt lon="11.126950" lat="50.998163"><ele>195.5</ele></trkpt>
   <trkpt lon="11.127660" lat="50.999088"><ele>193.25</ele></trkpt>
   <trkpt lon="11.128391" lat="51.000039"><ele>193.0</ele></trkpt>
   <trkpt lon="11.129003" lat="51.000849"><ele>192.0</ele></trkpt>
   <trkpt lon="11.129620" lat="51.001664"><ele>192.25</ele></trkpt>
   <trkpt lon="11.131638" lat="51.004277"><ele>191.75</ele></trkpt>
   <trkpt lon="11.131788" lat="51.004474"><ele>191.5</ele></trkpt>
   <trkpt lon="11.131872" lat="51.004578"><ele>191.25</ele></trkpt>
   <trkpt lon="11.133517" lat="51.006575"><ele>190.0</ele></trkpt>
   <trkpt lon="11.134752" lat="51.008038"><ele>190.25</ele></trkpt>
   <trkpt lon="11.137211" lat="51.010965"><ele>196.25</ele></trkpt>
   <trkpt lon="11.138885" lat="51.012963"><ele>192.0</ele></trkpt>
   <trkpt lon="11.140151" lat="51.014467"><ele>186.25</ele></trkpt>
   <trkpt lon="11.141377" lat="51.015924"><ele>184.0</ele></trkpt>
   <trkpt lon="11.142716" lat="51.017514"><ele>180.25</ele></trkpt>
   <trkpt lon="11.143231" lat="51.018125"><ele>180.75</ele></trkpt>
   <trkpt lon="11.143594" lat="51.018546"><ele>181.75</ele></trkpt>
   <trkpt lon="11.143869" lat="51.018887"><ele>183.25</ele></trkpt>
   <trkpt lon="11.145554" lat="51.020890"><ele>189.5</ele></trkpt>
   <trkpt lon="11.146821" lat="51.022388"><ele>189.25</ele></trkpt>
   <trkpt lon="11.147705" lat="51.023403"><ele>186.75</ele></trkpt>
   <trkpt lon="11.148109" lat="51.023852"><ele>186.0</ele></trkpt>
   <trkpt lon="11.149549" lat="51.025408"><ele>184.5</ele></trkpt>
   <trkpt lon="11.150834" lat="51.026738"><ele>180.75</ele></trkpt>
   <trkpt lon="11.152149" lat="51.028030"><ele>180.25</ele></trkpt>
   <trkpt lon="11.152566" lat="51.028442"><ele>179.75</ele></trkpt>
   <trkpt lon="11.152757" lat="51.028620"><ele>179.75</ele></trkpt>
   <trkpt lon="11.154280" lat="51.030039"><ele>179.0</ele></trkpt>
   <trkpt lon="11.155794" lat="51.031386"><ele>181.5</ele></trkpt>
   <trkpt lon="11.157499" lat="51.032830"><ele>180.75</ele></trkpt>
   <trkpt lon="11.158994" lat="51.034045"><ele>179.25</ele></trkpt>
   <trkpt lon="11.159245" lat="51.034249"><ele>179.25</ele></trkpt>
   <trkpt lon="11.161256" lat="51.035801"><ele>177.0</ele></trkpt>
   <trkpt lon="11.162993" lat="51.037084"><ele>177.5</ele></trkpt>
   <trkpt lon="11.163149" lat="51.037197"><ele>177.5</ele></trkpt>
   <trkpt lon="11.163386" lat="51.037364"><ele>177.75</ele></trkpt>
   <trkpt lon="11.164839" lat="51.038388"><ele>180.25</ele></trkpt>
   <trkpt lon="11.166308" lat="51.039388"><ele>181.75</ele></trkpt>
   <trkpt lon="11.166786" lat="51.039702"><ele>183.75</ele></trkpt>
   <trkpt lon="11.168641" lat="51.040905"><ele>192.75</ele></trkpt>
   <trkpt lon="11.170427" lat="51.042017"><ele>192.75</ele></trkpt>
   <trkpt lon="11.172916" lat="51.043543"><ele>191.5</ele></trkpt>
   <trkpt lon="11.174710" lat="51.044642"><ele>191.5</ele></trkpt>
   <trkpt lon="11.176801" lat="51.045926"><ele>192.0</ele></trkpt>
   <trkpt lon="11.177693" lat="51.046471"><ele>193.25</ele></trkpt>
   <trkpt lon="11.179205" lat="51.047399"><ele>196.0</ele></trkpt>
   <trkpt lon="11.181033" lat="51.048517"><ele>202.0</ele></trkpt>
   <trkpt lon="11.182596" lat="51.049466"><ele>207.5</ele></trkpt>
   <trkpt lon="11.182907" lat="51.049662"><ele>207.75</ele></trkpt>
   <trkpt lon="11.183568" lat="51.050058"><ele>208.0</ele></trkpt>
   <trkpt lon="11.185180" lat="51.051006"><ele>207.25</ele></trkpt>
   <trkpt lon="11.186538" lat="51.051764"><ele>204.25</ele></trkpt>
   <trkpt lon="11.187402" lat="51.052257"><ele>203.75</ele></trkpt>
   <trkpt lon="11.189418" lat="51.053342"><ele>204.25</ele></trkpt>
   <trkpt lon="11.191373" lat="51.054354"><ele>210.0</ele></trkpt>
   <trkpt lon="11.194163" lat="51.055729"><ele>215.25</ele></trkpt>
   <trkpt lon="11.195993" lat="51.056591"><ele>218.25</ele></trkpt>
   <trkpt lon="11.196775" lat="51.056933"><ele>218.0</ele></trkpt>
   <trkpt lon="11.198423" lat="51.057685"><ele>216.0</ele></trkpt>
   <trkpt lon="11.200647" lat="51.058636"><ele>212.25</ele></trkpt>
   <trkpt lon="11.201765" lat="51.059103"><ele>212.0</ele></trkpt>
   <trkpt lon="11.202912" lat="51.059568"><ele>211.25</ele></trkpt>
   <trkpt lon="11.204706" lat="51.060273"><ele>212.5</ele></trkpt>
   <trkpt lon="11.205967" lat="51.060750"><ele>213.0</ele></trkpt>
   <trkpt lon="11.207938" lat="51.061482"><ele>215.75</ele></trkpt>
   <trkpt lon="11.209180" lat="51.061924"><ele>216.5</ele></trkpt>
   <trkpt lon="11.210428" lat="51.062356"><ele>215.0</ele></trkpt>
   <trkpt lon="11.212828" lat="51.063157"><ele>211.0</ele></trkpt>
   <trkpt lon="11.214194" lat="51.063598"><ele>209.25</ele></trkpt>
   <trkpt lon="11.215278" lat="51.063933"><ele>208.5</ele></trkpt>
   <trkpt lon="11.216094" lat="51.064183"><ele>208.5</ele></trkpt>
   <trkpt lon="11.219529" lat="51.065180"><ele>205.0</ele></trkpt>
   <trkpt lon="11.219781" lat="51.065251"><ele>204.5</ele></trkpt>
   <trkpt lon="11.220614" lat="51.065490"><ele>204.0</ele></trkpt>
   <trkpt lon="11.222647" lat="51.066072"><ele>205.0</ele></trkpt>
   <trkpt lon="11.226809" lat="51.067263"><ele>203.25</ele></trkpt>
   <trkpt lon="11.227105" lat="51.067348"><ele>203.5</ele></trkpt>
   <trkpt lon="11.229125" lat="51.067926"><ele>206.75</ele></trkpt>
   <trkpt lon="11.235142" lat="51.069649"><ele>208.25</ele></trkpt>
   <trkpt lon="11.236270" lat="51.069984"><ele>208.0</ele></trkpt>
   <trkpt lon="11.237290" lat="51.070261"><ele>207.75</ele></trkpt>
   <trkpt lon="11.241446" lat="51.071451"><ele>207.25</ele></trkpt>
   <trkpt lon="11.244581" lat="51.072360"><ele>204.75</ele></trkpt>
   <trkpt lon="11.249265" lat="51.073705"><ele>198.75</ele></trkpt>
   <trkpt lon="11.251997" lat="51.074486"><ele>197.25</ele></trkpt>
   <trkpt lon="11.254376" lat="51.075173"><ele>195.0</ele></trkpt>
   <trkpt lon="11.256941" lat="51.075945"><ele>192.5</ele></trkpt>
   <trkpt lon="11.259286" lat="51.076670"><ele>189.75</ele></trkpt>
   <trkpt lon="11.261510" lat="51.077390"><ele>189.0</ele></trkpt>
   <trkpt lon="11.261757" lat="51.077475"><ele>189.0</ele></trkpt>
   <trkpt lon="11.262118" lat="51.077595"><ele>188.75</ele></trkpt>
   <trkpt lon="11.266105" lat="51.078924"><ele>188.0</ele></trkpt>
   <trkpt lon="11.266253" lat="51.078973"><ele>188.25</ele></trkpt>
   <trkpt lon="11.267964" lat="51.079545"><ele>187.25</ele></trkpt>
   <trkpt lon="11.280037" lat="51.083585"><ele>190.5</ele></trkpt>
   <trkpt lon="11.287606" lat="51.086118"><ele>189.75</ele></trkpt>
   <trkpt lon="11.289970" lat="51.086909"><ele>188.75</ele></trkpt>
   <trkpt lon="11.292662" lat="51.087812"><ele>190.25</ele></trkpt>
   <trkpt lon="11.296562" lat="51.089138"><ele>188.0</ele></trkpt>
   <trkpt lon="11.302600" lat="51.091159"><ele>188.0</ele></trkpt>
   <trkpt lon="11.303552" lat="51.091475"><ele>188.25</ele></trkpt>
   <trkpt lon="11.303852" lat="51.091576"><ele>188.5</ele></trkpt>
   <trkpt lon="11.304955" lat="51.091940"><ele>188.5</ele></trkpt>
   <trkpt lon="11.304985" lat="51.091951"><ele>188.5</ele></trkpt>
   <trkpt lon="11.306450" lat="51.092443"><ele>190.5</ele></trkpt>
   <trkpt lon="11.307720" lat="51.092867"><ele>191.5</ele></trkpt>
   <trkpt lon="11.309020" lat="51.093305"><ele>191.0</ele></trkpt>
   <trkpt lon="11.309472" lat="51.093452"><ele>191.0</ele></trkpt>
   <trkpt lon="11.310465" lat="51.093785"><ele>191.5</ele></trkpt>
   <trkpt lon="11.311645" lat="51.094180"><ele>191.75</ele></trkpt>
   <trkpt lon="11.314161" lat="51.095023"><ele>192.75</ele></trkpt>
   <trkpt lon="11.316042" lat="51.095654"><ele>193.5</ele></trkpt>
   <trkpt lon="11.316964" lat="51.095964"><ele>193.75</ele></trkpt>
   <trkpt lon="11.317125" lat="51.096015"><ele>194.0</ele></trkpt>
   <trkpt lon="11.317337" lat="51.096084"><ele>195.75</ele></trkpt>
   <trkpt lon="11.317439" lat="51.096121"><ele>196.75</ele></trkpt>
   <trkpt lon="11.317583" lat="51.096170"><ele>197.75</ele></trkpt>
   <trkpt lon="11.320276" lat="51.097067"><ele>210.25</ele></trkpt>
   <trkpt lon="11.320484" lat="51.097140"><ele>210.75</ele></trkpt>
   <trkpt lon="11.321380" lat="51.097441"><ele>212.5</ele></trkpt>
   <trkpt lon="11.323233" lat="51.098099"><ele>210.75</ele></trkpt>
   <trkpt lon="11.324992" lat="51.098689"><ele>212.5</ele></trkpt>
   <trkpt lon="11.325507" lat="51.098864"><ele>213.25</ele></trkpt>
   <trkpt lon="11.327169" lat="51.099420"><ele>217.0</ele></trkpt>
   <trkpt lon="11.327992" lat="51.099697"><ele>218.5</ele></trkpt>
   <trkpt lon="11.329879" lat="51.100323"><ele>220.25</ele></trkpt>
   <trkpt lon="11.333038" lat="51.101380"><ele>218.75</ele></trkpt>
   <trkpt lon="11.335065" lat="51.102058"><ele>218.0</ele></trkpt>
   <trkpt lon="11.337032" lat="51.102717"><ele>217.75</ele></trkpt>
   <trkpt lon="11.337102" lat="51.102740"><ele>217.75</ele></trkpt>
   <trkpt lon="11.339259" lat="51.103462"><ele>215.75</ele></trkpt>
   <trkpt lon="11.340926" lat="51.104021"><ele>217.5</ele></trkpt>
   <trkpt lon="11.343589" lat="51.104861"><ele>218.75</ele></trkpt>
   <trkpt lon="11.344509" lat="51.105165"><ele>218.5</ele></trkpt>
   <trkpt lon="11.345455" lat="51.105484"><ele>217.75</ele></trkpt>
   <trkpt lon="11.348249" lat="51.106414"><ele>216.25</ele></trkpt>
   <trkpt lon="11.350118" lat="51.107044"><ele>213.0</ele></trkpt>
   <trkpt lon="11.351681" lat="51.107574"><ele>211.5</ele></trkpt>
   <trkpt lon="11.353176" lat="51.108110"><ele>207.25</ele></trkpt>
   <trkpt lon="11.355500" lat="51.108951"><ele>206.5</ele></trkpt>
   <trkpt lon="11.356306" lat="51.109247"><ele>206.0</ele></trkpt>
   <trkpt lon="11.357875" lat="51.109840"><ele>204.0</ele></trkpt>
   <trkpt lon="11.361223" lat="51.111143"><ele>199.5</ele></trkpt>
   <trkpt lon="11.365362" lat="51.112843"><ele>194.25</ele></trkpt>
   <trkpt lon="11.367448" lat="51.113741"><ele>191.0</ele></trkpt>
   <trkpt lon="11.369673" lat="51.114719"><ele>186.75</ele></trkpt>
   <trkpt lon="11.372053" lat="51.115779"><ele>185.0</ele></trkpt>
   <trkpt lon="11.374017" lat="51.116655"><ele>182.0</ele></trkpt>
   <trkpt lon="11.374203" lat="51.116737"><ele>181.75</ele></trkpt>
   <trkpt lon="11.374671" lat="51.116945"><ele>181.25</ele></trkpt>
   <trkpt lon="11.377425" lat="51.118174"><ele>178.5</ele></trkpt>
   <trkpt lon="11.378961" lat="51.118857"><ele>177.5</ele></trkpt>
   <trkpt lon="11.381755" lat="51.120079"><ele>178.0</ele></trkpt>
   <trkpt lon="11.383808" lat="51.120944"><ele>179.0</ele></trkpt>
   <trkpt lon="11.385898" lat="51.121798"><ele>178.75</ele></trkpt>
   <trkpt lon="11.386432" lat="51.121994"><ele>178.75</ele></trkpt>
   <trkpt lon="11.387981" lat="51.122624"><ele>179.75</ele></trkpt>
   <trkpt lon="11.391062" lat="51.123793"><ele>180.0</ele></trkpt>
   <trkpt lon="11.392182" lat="51.124206"><ele>179.25</ele></trkpt>
   <trkpt lon="11.393163" lat="51.124562"><ele>179.75</ele></trkpt>
   <trkpt lon="11.395912" lat="51.125526"><ele>178.75</ele></trkpt>
   <trkpt lon="11.398345" lat="51.126352"><ele>177.25</ele></trkpt>
   <trkpt lon="11.400239" lat="51.126969"><ele>175.25</ele></trkpt>
   <trkpt lon="11.401186" lat="51.127271"><ele>174.5</ele></trkpt>
   <trkpt lon="11.402239" lat="51.127594"><ele>175.5</ele></trkpt>
   <trkpt lon="11.403642" lat="51.128032"><ele>176.75</ele></trkpt>
   <trkpt lon="11.405595" lat="51.128615"><ele>178.75</ele></trkpt>
   <trkpt lon="11.408534" lat="51.129457"><ele>181.5</ele></trkpt>
   <trkpt lon="11.415510" lat="51.131374"><ele>188.5</ele></trkpt>
   <trkpt lon="11.417029" lat="51.131791"><ele>188.5</ele></trkpt>
   <trkpt lon="11.422115" lat="51.133184"><ele>192.0</ele></trkpt>
   <trkpt lon="11.424901" lat="51.133946"><ele>190.75</ele></trkpt>
   <trkpt lon="11.429242" lat="51.135134"><ele>188.25</ele></trkpt>
   <trkpt lon="11.437598" lat="51.137421"><ele>182.0</ele></trkpt>
   <trkpt lon="11.438255" lat="51.137603"><ele>183.0</ele></trkpt>
   <trkpt lon="11.439720" lat="51.138008"><ele>185.0</ele></trkpt>
   <trkpt lon="11.440868" lat="51.138325"><ele>187.75</ele></trkpt>
   <trkpt lon="11.442414" lat="51.138768"><ele>191.5</ele></trkpt>
   <trkpt lon="11.442807" lat="51.138887"><ele>192.5</ele></trkpt>
   <trkpt lon="11.443963" lat="51.139237"><ele>195.25</ele></trkpt>
   <trkpt lon="11.445257" lat="51.139653"><ele>196.0</ele></trkpt>
   <trkpt lon="11.447203" lat="51.140298"><ele>199.25</ele></trkpt>
   <trkpt lon="11.449558" lat="51.141135"><ele>201.75</ele></trkpt>
   <trkpt lon="11.451107" lat="51.141715"><ele>203.25</ele></trkpt>
   <trkpt lon="11.451587" lat="51.141902"><ele>204.0</ele></trkpt>
   <trkpt lon="11.454238" lat="51.142979"><ele>205.0</ele></trkpt>
   <trkpt lon="11.455402" lat="51.143476"><ele>205.25</ele></trkpt>
   <trkpt lon="11.456538" lat="51.143975"><ele>207.0</ele></trkpt>
   <trkpt lon="11.457835" lat="51.144571"><ele>209.0</ele></trkpt>
   <trkpt lon="11.459028" lat="51.145119"><ele>211.5</ele></trkpt>
   <trkpt lon="11.460555" lat="51.145872"><ele>216.25</ele></trkpt>
   <trkpt lon="11.464537" lat="51.148011"><ele>222.25</ele></trkpt>
   <trkpt lon="11.465557" lat="51.148607"><ele>217.75</ele></trkpt>
   <trkpt lon="11.466243" lat="51.149022"><ele>217.0</ele></trkpt>
   <trkpt lon="11.468484" lat="51.150426"><ele>220.0</ele></trkpt>
   <trkpt lon="11.469247" lat="51.150904"><ele>219.75</ele></trkpt>
   <trkpt lon="11.470285" lat="51.151616"><ele>216.5</ele></trkpt>
   <trkpt lon="11.470497" lat="51.151757"><ele>216.25</ele></trkpt>
   <trkpt lon="11.470646" lat="51.151863"><ele>216.0</ele></trkpt>
   <trkpt lon="11.471757" lat="51.152643"><ele>215.25</ele></trkpt>
   <trkpt lon="11.472320" lat="51.153057"><ele>216.25</ele></trkpt>
   <trkpt lon="11.473123" lat="51.153648"><ele>219.5</ele></trkpt>
   <trkpt lon="11.474645" lat="51.154820"><ele>224.75</ele></trkpt>
   <trkpt lon="11.475679" lat="51.155650"><ele>229.5</ele></trkpt>
   <trkpt lon="11.475752" lat="51.155712"><ele>230.0</ele></trkpt>
   <trkpt lon="11.475808" lat="51.155760"><ele>229.75</ele></trkpt>
   <trkpt lon="11.482716" lat="51.162310"><ele>229.25</ele></trkpt>
   <trkpt lon="11.489305" lat="51.169252"><ele>228.5</ele></trkpt>
   <trkpt lon="11.496497" lat="51.176675"><ele>228.0</ele></trkpt>
   <trkpt lon="11.502612" lat="51.183068"><ele>227.25</ele></trkpt>
   <trkpt lon="11.506331" lat="51.186434"><ele>227.0</ele></trkpt>
   <trkpt lon="11.510519" lat="51.189659"><ele>226.75</ele></trkpt>
   <trkpt lon="11.516204" lat="51.193451"><ele>226.25</ele></trkpt>
   <trkpt lon="11.519455" lat="51.195332"><ele>226.0</ele></trkpt>
   <trkpt lon="11.523033" lat="51.197204"><ele>225.75</ele></trkpt>
   <trkpt lon="11.525934" lat="51.198545"><ele>225.5</ele></trkpt>
   <trkpt lon="11.529097" lat="51.199860"><ele>225.5</ele></trkpt>
   <trkpt lon="11.534894" lat="51.202182"><ele>225.0</ele></trkpt>
   <trkpt lon="11.538028" lat="51.203438"><ele>225.0</ele></trkpt>
   <trkpt lon="11.538042" lat="51.203443"><ele>225.0</ele></trkpt>
   <trkpt lon="11.538147" lat="51.203484"><ele>223.75</ele></trkpt>
   <trkpt lon="11.539153" lat="51.203870"><ele>218.75</ele></trkpt>
   <trkpt lon="11.540427" lat="51.204357"><ele>216.25</ele></trkpt>
   <trkpt lon="11.540609" lat="51.204427"><ele>216.0</ele></trkpt>
   <trkpt lon="11.541067" lat="51.204602"><ele>215.0</ele></trkpt>
   <trkpt lon="11.542884" lat="51.205297"><ele>215.0</ele></trkpt>
   <trkpt lon="11.543356" lat="51.205474"><ele>217.0</ele></trkpt>
   <trkpt lon="11.544705" lat="51.205980"><ele>223.5</ele></trkpt>
   <trkpt lon="11.549299" lat="51.207934"><ele>217.75</ele></trkpt>
   <trkpt lon="11.550105" lat="51.208250"><ele>216.0</ele></trkpt>
   <trkpt lon="11.550256" lat="51.208299"><ele>216.0</ele></trkpt>
   <trkpt lon="11.550509" lat="51.208396"><ele>216.5</ele></trkpt>
   <trkpt lon="11.550647" lat="51.208449"><ele>216.5</ele></trkpt>
   <trkpt lon="11.550867" lat="51.208533"><ele>217.0</ele></trkpt>
   <trkpt lon="11.553424" lat="51.209511"><ele>220.25</ele></trkpt>
   <trkpt lon="11.554242" lat="51.209823"><ele>221.5</ele></trkpt>
   <trkpt lon="11.554348" lat="51.209865"><ele>221.25</ele></trkpt>
   <trkpt lon="11.555318" lat="51.210269"><ele>221.25</ele></trkpt>
   <trkpt lon="11.557126" lat="51.210991"><ele>221.0</ele></trkpt>
   <trkpt lon="11.561477" lat="51.213037"><ele>220.5</ele></trkpt>
   <trkpt lon="11.563856" lat="51.214230"><ele>220.25</ele></trkpt>
   <trkpt lon="11.570325" lat="51.217808"><ele>219.5</ele></trkpt>
   <trkpt lon="11.576118" lat="51.221850"><ele>218.75</ele></trkpt>
   <trkpt lon="11.581101" lat="51.226217"><ele>218.0</ele></trkpt>
   <trkpt lon="11.583197" lat="51.228587"><ele>217.5</ele></trkpt>
   <trkpt lon="11.585326" lat="51.230881"><ele>217.0</ele></trkpt>
   <trkpt lon="11.586634" lat="51.232658"><ele>216.75</ele></trkpt>
   <trkpt lon="11.588478" lat="51.235230"><ele>216.5</ele></trkpt>
   <trkpt lon="11.597190" lat="51.247484"><ele>214.5</ele></trkpt>
   <trkpt lon="11.603403" lat="51.255543"><ele>213.25</ele></trkpt>
   <trkpt lon="11.604958" lat="51.257087"><ele>213.0</ele></trkpt>
   <trkpt lon="11.605767" lat="51.257902"><ele>213.0</ele></trkpt>
   <trkpt lon="11.606869" lat="51.258942"><ele>209.75</ele></trkpt>
   <trkpt lon="11.608538" lat="51.260436"><ele>204.0</ele></trkpt>
   <trkpt lon="11.609119" lat="51.260929"><ele>202.0</ele></trkpt>
   <trkpt lon="11.609683" lat="51.261420"><ele>200.0</ele></trkpt>
   <trkpt lon="11.610845" lat="51.262400"><ele>197.75</ele></trkpt>
   <trkpt lon="11.611442" lat="51.262885"><ele>196.25</ele></trkpt>
   <trkpt lon="11.612025" lat="51.263374"><ele>194.75</ele></trkpt>
   <trkpt lon="11.613062" lat="51.264226"><ele>192.75</ele></trkpt>
   <trkpt lon="11.614443" lat="51.265313"><ele>188.0</ele></trkpt>
   <trkpt lon="11.615056" lat="51.265783"><ele>186.0</ele></trkpt>
   <trkpt lon="11.615425" lat="51.266056"><ele>184.75</ele></trkpt>
   <trkpt lon="11.619346" lat="51.268945"><ele>177.5</ele></trkpt>
   <trkpt lon="11.619564" lat="51.269105"><ele>177.25</ele></trkpt>
   <trkpt lon="11.624302" lat="51.272575"><ele>161.0</ele></trkpt>
   <trkpt lon="11.625378" lat="51.273362"><ele>161.75</ele></trkpt>
   <trkpt lon="11.627373" lat="51.274787"><ele>163.0</ele></trkpt>
   <trkpt lon="11.629480" lat="51.276218"><ele>164.5</ele></trkpt>
   <trkpt lon="11.632799" lat="51.278280"><ele>166.75</ele></trkpt>
   <trkpt lon="11.634217" lat="51.279152"><ele>167.5</ele></trkpt>
   <trkpt lon="11.635644" lat="51.280003"><ele>168.5</ele></trkpt>
   <trkpt lon="11.637257" lat="51.280951"><ele>169.5</ele></trkpt>
   <trkpt lon="11.638478" lat="51.281639"><ele>170.25</ele></trkpt>
   <trkpt lon="11.638903" lat="51.281879"><ele>170.5</ele></trkpt>
   <trkpt lon="11.645148" lat="51.285329"><ele>174.25</ele></trkpt>
   <trkpt lon="11.647337" lat="51.286546"><ele>175.75</ele></trkpt>
   <trkpt lon="11.649560" lat="51.287728"><ele>177.0</ele></trkpt>
   <trkpt lon="11.650236" lat="51.288080"><ele>177.5</ele></trkpt>
   <trkpt lon="11.653410" lat="51.289701"><ele>179.25</ele></trkpt>
   <trkpt lon="11.655462" lat="51.290706"><ele>181.75</ele></trkpt>
   <trkpt lon="11.656250" lat="51.291049"><ele>182.75</ele></trkpt>
   <trkpt lon="11.658622" lat="51.292081"><ele>185.5</ele></trkpt>
   <trkpt lon="11.661727" lat="51.293214"><ele>189.25</ele></trkpt>
   <trkpt lon="11.664949" lat="51.294350"><ele>193.0</ele></trkpt>
   <trkpt lon="11.673396" lat="51.297168"><ele>202.5</ele></trkpt>
   <trkpt lon="11.681207" lat="51.300153"><ele>211.75</ele></trkpt>
   <trkpt lon="11.681352" lat="51.300215"><ele>211.75</ele></trkpt>
   <trkpt lon="11.681473" lat="51.300265"><ele>211.75</ele></trkpt>
   <trkpt lon="11.683597" lat="51.301160"><ele>211.75</ele></trkpt>
   <trkpt lon="11.685504" lat="51.302015"><ele>212.0</ele></trkpt>
   <trkpt lon="11.687834" lat="51.303091"><ele>211.5</ele></trkpt>
   <trkpt lon="11.689286" lat="51.303764"><ele>210.25</ele></trkpt>
   <trkpt lon="11.690268" lat="51.304213"><ele>210.0</ele></trkpt>
   <trkpt lon="11.690416" lat="51.304281"><ele>210.0</ele></trkpt>
   <trkpt lon="11.692318" lat="51.305157"><ele>208.75</ele></trkpt>
   <trkpt lon="11.694584" lat="51.306202"><ele>206.5</ele></trkpt>
   <trkpt lon="11.695128" lat="51.306450"><ele>206.25</ele></trkpt>
   <trkpt lon="11.697616" lat="51.307599"><ele>204.75</ele></trkpt>
   <trkpt lon="11.704645" lat="51.310842"><ele>201.25</ele></trkpt>
   <trkpt lon="11.706915" lat="51.311887"><ele>198.75</ele></trkpt>
   <trkpt lon="11.707058" lat="51.311957"><ele>198.75</ele></trkpt>
   <trkpt lon="11.707494" lat="51.312154"><ele>198.5</ele></trkpt>
   <trkpt lon="11.709360" lat="51.313016"><ele>199.25</ele></trkpt>
   <trkpt lon="11.714748" lat="51.315494"><ele>200.5</ele></trkpt>
   <trkpt lon="11.715920" lat="51.316036"><ele>200.0</ele></trkpt>
   <trkpt lon="11.718417" lat="51.317179"><ele>200.0</ele></trkpt>
   <trkpt lon="11.719663" lat="51.317737"><ele>200.0</ele></trkpt>
   <trkpt lon="11.721094" lat="51.318365"><ele>199.75</ele></trkpt>
   <trkpt lon="11.722541" lat="51.318953"><ele>198.75</ele></trkpt>
   <trkpt lon="11.724314" lat="51.319663"><ele>196.0</ele></trkpt>
   <trkpt lon="11.726123" lat="51.320348"><ele>193.5</ele></trkpt>
   <trkpt lon="11.727373" lat="51.320779"><ele>193.0</ele></trkpt>
   <trkpt lon="11.730029" lat="51.321694"><ele>190.75</ele></trkpt>
   <trkpt lon="11.732309" lat="51.322437"><ele>189.0</ele></trkpt>
   <trkpt lon="11.732937" lat="51.322642"><ele>188.75</ele></trkpt>
   <trkpt lon="11.734464" lat="51.323107"><ele>188.5</ele></trkpt>
   <trkpt lon="11.736509" lat="51.323698"><ele>185.25</ele></trkpt>
   <trkpt lon="11.739364" lat="51.324457"><ele>181.75</ele></trkpt>
   <trkpt lon="11.742228" lat="51.325142"><ele>178.25</ele></trkpt>
   <trkpt lon="11.746099" lat="51.326041"><ele>174.5</ele></trkpt>
   <trkpt lon="11.747275" lat="51.326314"><ele>173.0</ele></trkpt>
   <trkpt lon="11.756166" lat="51.328350"><ele>165.5</ele></trkpt>
   <trkpt lon="11.756664" lat="51.328469"><ele>165.0</ele></trkpt>
   <trkpt lon="11.756865" lat="51.328516"><ele>164.75</ele></trkpt>
   <trkpt lon="11.762275" lat="51.329767"><ele>159.25</ele></trkpt>
   <trkpt lon="11.767358" lat="51.330958"><ele>148.0</ele></trkpt>
   <trkpt lon="11.767721" lat="51.331043"><ele>147.0</ele></trkpt>
   <trkpt lon="11.771968" lat="51.332023"><ele>147.25</ele></trkpt>
   <trkpt lon="11.772851" lat="51.332231"><ele>149.75</ele></trkpt>
   <trkpt lon="11.775296" lat="51.332829"><ele>155.0</ele></trkpt>
   <trkpt lon="11.778487" lat="51.333694"><ele>160.0</ele></trkpt>
   <trkpt lon="11.780526" lat="51.334286"><ele>158.5</ele></trkpt>
   <trkpt lon="11.781258" lat="51.334499"><ele>157.25</ele></trkpt>
   <trkpt lon="11.783663" lat="51.335244"><ele>153.5</ele></trkpt>
   <trkpt lon="11.787096" lat="51.336379"><ele>147.75</ele></trkpt>
   <trkpt lon="11.790153" lat="51.337482"><ele>141.0</ele></trkpt>
   <trkpt lon="11.791153" lat="51.337864"><ele>141.25</ele></trkpt>
   <trkpt lon="11.793218" lat="51.338653"><ele>140.75</ele></trkpt>
   <trkpt lon="11.795186" lat="51.339477"><ele>135.5</ele></trkpt>
   <trkpt lon="11.797121" lat="51.340301"><ele>135.0</ele></trkpt>
   <trkpt lon="11.800923" lat="51.342010"><ele>136.0</ele></trkpt>
   <trkpt lon="11.802880" lat="51.342974"><ele>135.25</ele></trkpt>
   <trkpt lon="11.810828" lat="51.346885"><ele>126.0</ele></trkpt>
   <trkpt lon="11.814150" lat="51.348545"><ele>124.0</ele></trkpt>
   <trkpt lon="11.814291" lat="51.348616"><ele>123.75</ele></trkpt>
   <trkpt lon="11.815144" lat="51.349038"><ele>122.75</ele></trkpt>
   <trkpt lon="11.815810" lat="51.349368"><ele>123.25</ele></trkpt>
   <trkpt lon="11.816458" lat="51.349688"><ele>123.0</ele></trkpt>
   <trkpt lon="11.819040" lat="51.350966"><ele>123.75</ele></trkpt>
   <trkpt lon="11.822406" lat="51.352607"><ele>122.75</ele></trkpt>
   <trkpt lon="11.825430" lat="51.354095"><ele>122.0</ele></trkpt>
   <trkpt lon="11.827468" lat="51.355105"><ele>120.75</ele></trkpt>
   <trkpt lon="11.835705" lat="51.359198"><ele>119.0</ele></trkpt>
   <trkpt lon="11.839555" lat="51.361058"><ele>119.0</ele></trkpt>
   <trkpt lon="11.841688" lat="51.362075"><ele>118.25</ele></trkpt>
   <trkpt lon="11.842945" lat="51.362675"><ele>117.75</ele></trkpt>
   <trkpt lon="11.845836" lat="51.363959"><ele>118.25</ele></trkpt>
   <trkpt lon="11.848878" lat="51.365189"><ele>116.75</ele></trkpt>
   <trkpt lon="11.851650" lat="51.366242"><ele>113.5</ele></trkpt>
   <trkpt lon="11.854945" lat="51.367456"><ele>112.0</ele></trkpt>
   <trkpt lon="11.857822" lat="51.368429"><ele>113.0</ele></trkpt>
   <trkpt lon="11.864139" lat="51.370551"><ele>115.5</ele></trkpt>
   <trkpt lon="11.865926" lat="51.371152"><ele>116.5</ele></trkpt>
   <trkpt lon="11.868708" lat="51.372174"><ele>116.75</ele></trkpt>
   <trkpt lon="11.871224" lat="51.373194"><ele>116.25</ele></trkpt>
   <trkpt lon="11.872159" lat="51.373593"><ele>115.75</ele></trkpt>
   <trkpt lon="11.873805" lat="51.374295"><ele>113.5</ele></trkpt>
   <trkpt lon="11.875666" lat="51.375155"><ele>113.0</ele></trkpt>
   <trkpt lon="11.879305" lat="51.376972"><ele>110.0</ele></trkpt>
   <trkpt lon="11.881132" lat="51.377954"><ele>111.5</ele></trkpt>
   <trkpt lon="11.885250" lat="51.380361"><ele>109.0</ele></trkpt>
   <trkpt lon="11.886040" lat="51.380879"><ele>106.5</ele></trkpt>
   <trkpt lon="11.887170" lat="51.381620"><ele>105.0</ele></trkpt>
   <trkpt lon="11.887338" lat="51.381725"><ele>105.25</ele></trkpt>
   <trkpt lon="11.888169" lat="51.382248"><ele>108.0</ele></trkpt>
   <trkpt lon="11.889995" lat="51.383394"><ele>108.0</ele></trkpt>
   <trkpt lon="11.890185" lat="51.383511"><ele>108.0</ele></trkpt>
   <trkpt lon="11.890963" lat="51.384006"><ele>107.75</ele></trkpt>
   <trkpt lon="11.893083" lat="51.385289"><ele>106.25</ele></trkpt>
   <trkpt lon="11.893834" lat="51.385766"><ele>106.0</ele></trkpt>
   <trkpt lon="11.894430" lat="51.386120"><ele>106.0</ele></trkpt>
   <trkpt lon="11.895405" lat="51.386679"><ele>106.0</ele></trkpt>
   <trkpt lon="11.895761" lat="51.386898"><ele>105.75</ele></trkpt>
   <trkpt lon="11.903393" lat="51.391730"><ele>108.0</ele></trkpt>
   <trkpt lon="11.903896" lat="51.392056"><ele>108.25</ele></trkpt>
   <trkpt lon="11.904766" lat="51.392671"><ele>109.0</ele></trkpt>
   <trkpt lon="11.905289" lat="51.393016"><ele>109.5</ele></trkpt>
   <trkpt lon="11.906274" lat="51.393641"><ele>109.75</ele></trkpt>
   <trkpt lon="11.908923" lat="51.395303"><ele>107.0</ele></trkpt>
   <trkpt lon="11.909915" lat="51.395902"><ele>106.0</ele></trkpt>
   <trkpt lon="11.910987" lat="51.396525"><ele>104.0</ele></trkpt>
   <trkpt lon="11.911568" lat="51.396850"><ele>103.25</ele></trkpt>
   <trkpt lon="11.912809" lat="51.397517"><ele>104.0</ele></trkpt>
   <trkpt lon="11.915025" lat="51.398601"><ele>107.0</ele></trkpt>
   <trkpt lon="11.916311" lat="51.399184"><ele>107.0</ele></trkpt>
   <trkpt lon="11.916763" lat="51.399389"><ele>107.0</ele></trkpt>
   <trkpt lon="11.917385" lat="51.399671"><ele>106.5</ele></trkpt>
   <trkpt lon="11.919187" lat="51.400392"><ele>106.25</ele></trkpt>
   <trkpt lon="11.919808" lat="51.400626"><ele>106.75</ele></trkpt>
   <trkpt lon="11.921027" lat="51.401085"><ele>107.5</ele></trkpt>
   <trkpt lon="11.923371" lat="51.401900"><ele>108.0</ele></trkpt>
   <trkpt lon="11.925041" lat="51.402423"><ele>109.0</ele></trkpt>
   <trkpt lon="11.926780" lat="51.402931"><ele>109.0</ele></trkpt>
   <trkpt lon="11.928031" lat="51.403271"><ele>108.25</ele></trkpt>
   <trkpt lon="11.929325" lat="51.403588"><ele>107.25</ele></trkpt>
   <trkpt lon="11.929954" lat="51.403730"><ele>107.0</ele></trkpt>
   <trkpt lon="11.930612" lat="51.403878"><ele>105.25</ele></trkpt>
   <trkpt lon="11.931839" lat="51.404173"><ele>101.5</ele></trkpt>
   <trkpt lon="11.932339" lat="51.404277"><ele>100.0</ele></trkpt>
   <trkpt lon="11.933437" lat="51.404481"><ele>95.25</ele></trkpt>
   <trkpt lon="11.934696" lat="51.404735"><ele>95.0</ele></trkpt>
   <trkpt lon="11.940325" lat="51.405849"><ele>94.25</ele></trkpt>
   <trkpt lon="11.944128" lat="51.406604"><ele>94.0</ele></trkpt>
   <trkpt lon="11.952806" lat="51.408325"><ele>92.75</ele></trkpt>
   <trkpt lon="11.955943" lat="51.408907"><ele>92.5</ele></trkpt>
   <trkpt lon="11.957168" lat="51.409112"><ele>92.25</ele></trkpt>
   <trkpt lon="11.957918" lat="51.409225"><ele>92.25</ele></trkpt>
   <trkpt lon="11.958411" lat="51.409300"><ele>92.25</ele></trkpt>
   <trkpt lon="11.962777" lat="51.409881"><ele>91.75</ele></trkpt>
   <trkpt lon="11.963380" lat="51.409955"><ele>91.75</ele></trkpt>
   <trkpt lon="11.965780" lat="51.410253"><ele>91.25</ele></trkpt>
   <trkpt lon="11.967513" lat="51.410472"><ele>91.25</ele></trkpt>
   <trkpt lon="11.968711" lat="51.410600"><ele>91.0</ele></trkpt>
   <trkpt lon="11.969017" lat="51.410632"><ele>91.0</ele></trkpt>
   <trkpt lon="11.969183" lat="51.410648"><ele>91.0</ele></trkpt>
   <trkpt lon="11.970005" lat="51.410726"><ele>91.0</ele></trkpt>
   <trkpt lon="11.971584" lat="51.410830"><ele>90.75</ele></trkpt>
   <trkpt lon="11.972456" lat="51.410890"><ele>90.5</ele></trkpt>
   <trkpt lon="11.973818" lat="51.410957"><ele>90.5</ele></trkpt>
   <trkpt lon="11.974672" lat="51.410997"><ele>90.25</ele></trkpt>
   <trkpt lon="11.975135" lat="51.411018"><ele>90.25</ele></trkpt>
   <trkpt lon="11.975457" lat="51.411033"><ele>90.25</ele></trkpt>
   <trkpt lon="11.977728" lat="51.411097"><ele>90.0</ele></trkpt>
   <trkpt lon="11.978906" lat="51.411117"><ele>90.0</ele></trkpt>
   <trkpt lon="11.982511" lat="51.411202"><ele>89.5</ele></trkpt>
   <trkpt lon="11.985186" lat="51.411252"><ele>89.25</ele></trkpt>
   <trkpt lon="11.986182" lat="51.411271"><ele>89.0</ele></trkpt>
   <trkpt lon="11.987110" lat="51.411298"><ele>89.0</ele></trkpt>
   <trkpt lon="11.988441" lat="51.411347"><ele>88.75</ele></trkpt>
   <trkpt lon="11.989116" lat="51.411383"><ele>88.75</ele></trkpt>
   <trkpt lon="11.990883" lat="51.411492"><ele>88.5</ele></trkpt>
   <trkpt lon="11.992338" lat="51.411610"><ele>88.5</ele></trkpt>
   <trkpt lon="11.993582" lat="51.411727"><ele>88.25</ele></trkpt>
   <trkpt lon="11.995072" lat="51.411896"><ele>88.0</ele></trkpt>
   <trkpt lon="11.996407" lat="51.412071"><ele>88.0</ele></trkpt>
   <trkpt lon="11.997137" lat="51.412173"><ele>87.75</ele></trkpt>
   <trkpt lon="11.998096" lat="51.412319"><ele>87.75</ele></trkpt>
   <trkpt lon="11.999466" lat="51.412547"><ele>87.5</ele></trkpt>
   <trkpt lon="12.000528" lat="51.412742"><ele>87.5</ele></trkpt>
   <trkpt lon="12.001813" lat="51.412994"><ele>87.25</ele></trkpt>
   <trkpt lon="12.003305" lat="51.413313"><ele>87.25</ele></trkpt>
   <trkpt lon="12.005003" lat="51.413719"><ele>87.0</ele></trkpt>
   <trkpt lon="12.007004" lat="51.414232"><ele>86.75</ele></trkpt>
   <trkpt lon="12.013424" lat="51.415982"><ele>86.0</ele></trkpt>
   <trkpt lon="12.023541" lat="51.418741"><ele>84.75</ele></trkpt>
   <trkpt lon="12.023979" lat="51.418860"><ele>84.75</ele></trkpt>
   <trkpt lon="12.026543" lat="51.419558"><ele>84.75</ele></trkpt>
   <trkpt lon="12.030883" lat="51.420748"><ele>93.0</ele></trkpt>
   <trkpt lon="12.031674" lat="51.420971"><ele>95.25</ele></trkpt>
   <trkpt lon="12.033211" lat="51.421420"><ele>99.5</ele></trkpt>
   <trkpt lon="12.034576" lat="51.421837"><ele>101.75</ele></trkpt>
   <trkpt lon="12.035350" lat="51.422080"><ele>102.5</ele></trkpt>
   <trkpt lon="12.036917" lat="51.422594"><ele>102.75</ele></trkpt>
   <trkpt lon="12.038510" lat="51.423140"><ele>104.25</ele></trkpt>
   <trkpt lon="12.039295" lat="51.423418"><ele>105.0</ele></trkpt>
   <trkpt lon="12.041646" lat="51.424269"><ele>105.75</ele></trkpt>
   <trkpt lon="12.043738" lat="51.425030"><ele>105.75</ele></trkpt>
   <trkpt lon="12.050019" lat="51.427314"><ele>106.25</ele></trkpt>
   <trkpt lon="12.051433" lat="51.427812"><ele>105.75</ele></trkpt>
   <trkpt lon="12.055754" lat="51.429376"><ele>102.0</ele></trkpt>
   <trkpt lon="12.057177" lat="51.429883"><ele>101.25</ele></trkpt>
   <trkpt lon="12.058705" lat="51.430398"><ele>101.0</ele></trkpt>
   <trkpt lon="12.060165" lat="51.430861"><ele>100.75</ele></trkpt>
   <trkpt lon="12.061603" lat="51.431278"><ele>100.75</ele></trkpt>
   <trkpt lon="12.063143" lat="51.431710"><ele>99.75</ele></trkpt>
   <trkpt lon="12.063949" lat="51.431910"><ele>99.5</ele></trkpt>
   <trkpt lon="12.064705" lat="51.432099"><ele>99.25</ele></trkpt>
   <trkpt lon="12.066335" lat="51.432484"><ele>99.5</ele></trkpt>
   <trkpt lon="12.068029" lat="51.432847"><ele>100.25</ele></trkpt>
   <trkpt lon="12.069605" lat="51.433163"><ele>101.5</ele></trkpt>
   <trkpt lon="12.070225" lat="51.433272"><ele>102.0</ele></trkpt>
   <trkpt lon="12.071203" lat="51.433444"><ele>102.0</ele></trkpt>
   <trkpt lon="12.072827" lat="51.433703"><ele>103.0</ele></trkpt>
   <trkpt lon="12.074437" lat="51.433925"><ele>104.0</ele></trkpt>
   <trkpt lon="12.076370" lat="51.434170"><ele>105.5</ele></trkpt>
   <trkpt lon="12.077874" lat="51.434325"><ele>106.25</ele></trkpt>
   <trkpt lon="12.079614" lat="51.434479"><ele>107.5</ele></trkpt>
   <trkpt lon="12.081457" lat="51.434615"><ele>109.0</ele></trkpt>
   <trkpt lon="12.082958" lat="51.434693"><ele>109.25</ele></trkpt>
   <trkpt lon="12.084573" lat="51.434754"><ele>109.25</ele></trkpt>
   <trkpt lon="12.086459" lat="51.434793"><ele>109.0</ele></trkpt>
   <trkpt lon="12.087380" lat="51.434800"><ele>109.0</ele></trkpt>
   <trkpt lon="12.088306" lat="51.434795"><ele>108.25</ele></trkpt>
   <trkpt lon="12.089316" lat="51.434778"><ele>107.0</ele></trkpt>
   <trkpt lon="12.090164" lat="51.434765"><ele>107.0</ele></trkpt>
   <trkpt lon="12.091224" lat="51.434729"><ele>107.0</ele></trkpt>
   <trkpt lon="12.092268" lat="51.434685"><ele>106.5</ele></trkpt>
   <trkpt lon="12.093392" lat="51.434624"><ele>105.75</ele></trkpt>
   <trkpt lon="12.094505" lat="51.434553"><ele>105.75</ele></trkpt>
   <trkpt lon="12.094741" lat="51.434535"><ele>105.5</ele></trkpt>
   <trkpt lon="12.096427" lat="51.434409"><ele>105.5</ele></trkpt>
   <trkpt lon="12.098016" lat="51.434280"><ele>105.25</ele></trkpt>
   <trkpt lon="12.098898" lat="51.434207"><ele>105.0</ele></trkpt>
   <trkpt lon="12.100232" lat="51.434096"><ele>105.75</ele></trkpt>
   <trkpt lon="12.101843" lat="51.433960"><ele>105.25</ele></trkpt>
   <trkpt lon="12.102438" lat="51.433909"><ele>104.5</ele></trkpt>
   <trkpt lon="12.102948" lat="51.433868"><ele>104.25</ele></trkpt>
   <trkpt lon="12.103892" lat="51.433789"><ele>104.0</ele></trkpt>
   <trkpt lon="12.104534" lat="51.433737"><ele>104.0</ele></trkpt>
   <trkpt lon="12.109025" lat="51.433361"><ele>107.75</ele></trkpt>
   <trkpt lon="12.114317" lat="51.432918"><ele>109.25</ele></trkpt>
   <trkpt lon="12.115896" lat="51.432793"><ele>109.0</ele></trkpt>
   <trkpt lon="12.117898" lat="51.432625"><ele>109.25</ele></trkpt>
   <trkpt lon="12.118112" lat="51.432606"><ele>109.5</ele></trkpt>
   <trkpt lon="12.118202" lat="51.432599"><ele>109.5</ele></trkpt>
   <trkpt lon="12.118786" lat="51.432543"><ele>109.75</ele></trkpt>
   <trkpt lon="12.122568" lat="51.432227"><ele>111.5</ele></trkpt>
   <trkpt lon="12.123836" lat="51.432120"><ele>110.75</ele></trkpt>
   <trkpt lon="12.125524" lat="51.431978"><ele>112.25</ele></trkpt>
   <trkpt lon="12.128695" lat="51.431720"><ele>110.25</ele></trkpt>
   <trkpt lon="12.129144" lat="51.431683"><ele>110.75</ele></trkpt>
   <trkpt lon="12.129686" lat="51.431631"><ele>112.25</ele></trkpt>
   <trkpt lon="12.135154" lat="51.431174"><ele>112.0</ele></trkpt>
   <trkpt lon="12.136113" lat="51.431098"><ele>112.0</ele></trkpt>
   <trkpt lon="12.138129" lat="51.430974"><ele>111.25</ele></trkpt>
   <trkpt lon="12.138260" lat="51.430961"><ele>111.0</ele></trkpt>
   <trkpt lon="12.138984" lat="51.430900"><ele>111.0</ele></trkpt>
   <trkpt lon="12.139092" lat="51.430891"><ele>111.0</ele></trkpt>
   <trkpt lon="12.139141" lat="51.430887"><ele>111.0</ele></trkpt>
   <trkpt lon="12.143168" lat="51.430540"><ele>114.25</ele></trkpt>
   <trkpt lon="12.146870" lat="51.430230"><ele>119.0</ele></trkpt>
   <trkpt lon="12.164835" lat="51.428716"><ele>122.0</ele></trkpt>
   <trkpt lon="12.171114" lat="51.428199"><ele>117.5</ele></trkpt>
   <trkpt lon="12.172366" lat="51.428085"><ele>118.5</ele></trkpt>
   <trkpt lon="12.175333" lat="51.427832"><ele>121.0</ele></trkpt>
   <trkpt lon="12.177576" lat="51.427640"><ele>121.75</ele></trkpt>
   <trkpt lon="12.178340" lat="51.427568"><ele>121.0</ele></trkpt>
   <trkpt lon="12.179072" lat="51.427500"><ele>121.25</ele></trkpt>
  </trkseg>
 </trk>
</gpx>
