<?xml version="1.0" encoding="UTF-8"?>
<!-- track-length = 23981 filtered ascend = 10 plain-ascend = -126 cost=23981 energy=.3kwh time=31m 58s -->
<gpx 
 xmlns="http://www.topografix.com/GPX/1/1" 
 xmlns:xsi="http://www.w3.org/2001/XMLSchema-instance" 
 xsi:schemaLocation="http://www.topografix.com/GPX/1/1 http://www.topografix.com/GPX/1/1/gpx.xsd" 
 creator="BRouter-1.7.0" version="1.1">
 <trk>
  <name>Falkenberg - Herlasgruen</name>
  <trkseg>
   <trkpt lon="12.359268" lat="50.478557"><ele>549.5</ele></trkpt>
   <trkpt lon="12.359749" lat="50.478668"><ele>549.25</ele></trkpt>
   <trkpt lon="12.360803" lat="50.478922"><ele>549.5</ele></trkpt>
   <trkpt lon="12.361663" lat="50.479132"><ele>550.0</ele></trkpt>
   <trkpt lon="12.361839" lat="50.479180"><ele>550.25</ele></trkpt>
   <trkpt lon="12.362222" lat="50.479305"><ele>550.5</ele></trkpt>
   <trkpt lon="12.362599" lat="50.479450"><ele>550.75</ele></trkpt>
   <trkpt lon="12.362976" lat="50.479622"><ele>550.75</ele></trkpt>
   <trkpt lon="12.363320" lat="50.479786"><ele>550.75</ele></trkpt>
   <trkpt lon="12.363674" lat="50.479978"><ele>550.75</ele></trkpt>
   <trkpt lon="12.364171" lat="50.480262"><ele>551.0</ele></trkpt>
   <trkpt lon="12.364226" lat="50.480294"><ele>551.0</ele></trkpt>
   <trkpt lon="12.364573" lat="50.480508"><ele>551.75</ele></trkpt>
   <trkpt lon="12.364802" lat="50.480669"><ele>552.25</ele></trkpt>
   <trkpt lon="12.365059" lat="50.480879"><ele>552.75</ele></trkpt>
   <trkpt lon="12.365254" lat="50.481076"><ele>552.5</ele></trkpt>
   <trkpt lon="12.365412" lat="50.481285"><ele>552.25</ele></trkpt>
   <trkpt lon="12.365477" lat="50.481392"><ele>552.0</ele></trkpt>
   <trkpt lon="12.365598" lat="50.481626"><ele>551.5</ele></trkpt>
   <trkpt lon="12.365803" lat="50.482081"><ele>550.75</ele></trkpt>
   <trkpt lon="12.365919" lat="50.482291"><ele>550.75</ele></trkpt>
   <trkpt lon="12.366045" lat="50.482483"><ele>551.0</ele></trkpt>
   <trkpt lon="12.366267" lat="50.482761"><ele>552.25</ele></trkpt>
   <trkpt lon="12.367829" lat="50.484515"><ele>552.0</ele></trkpt>
   <trkpt lon="12.367970" lat="50.484694"><ele>552.0</ele></trkpt>
   <trkpt lon="12.368096" lat="50.484874"><ele>552.0</ele></trkpt>
   <trkpt lon="12.368219" lat="50.485069"><ele>552.0</ele></trkpt>
   <trkpt lon="12.368375" lat="50.485356"><ele>550.75</ele></trkpt>
   <trkpt lon="12.368531" lat="50.485724"><ele>549.5</ele></trkpt>
   <trkpt lon="12.368642" lat="50.486080"><ele>548.25</ele></trkpt>
   <trkpt lon="12.369227" lat="50.488117"><ele>545.75</ele></trkpt>
   <trkpt lon="12.369391" lat="50.488581"><ele>546.5</ele></trkpt>
   <trkpt lon="12.369481" lat="50.488803"><ele>547.25</ele></trkpt>
   <trkpt lon="12.369584" lat="50.489039"><ele>548.0</ele></trkpt>
   <trkpt lon="12.369858" lat="50.489581"><ele>549.0</ele></trkpt>
   <trkpt lon="12.371641" lat="50.492893"><ele>552.25</ele></trkpt>
   <trkpt lon="12.371795" lat="50.493215"><ele>553.75</ele></trkpt>
   <trkpt lon="12.371924" lat="50.493520"><ele>553.25</ele></trkpt>
   <trkpt lon="12.372039" lat="50.493830"><ele>552.0</ele></trkpt>
   <trkpt lon="12.373863" lat="50.499360"><ele>549.25</ele></trkpt>
   <trkpt lon="12.373942" lat="50.499596"><ele>549.75</ele></trkpt>
   <trkpt lon="12.374032" lat="50.499826"><ele>550.25</ele></trkpt>
   <trkpt lon="12.374138" lat="50.500054"><ele>550.75</ele></trkpt>
   <trkpt lon="12.374375" lat="50.500456"><ele>551.25</ele></trkpt>
   <trkpt lon="12.374518" lat="50.500659"><ele>551.25</ele></trkpt>
   <trkpt lon="12.374678" lat="50.500861"><ele>551.0</ele></trkpt>
   <trkpt lon="12.374864" lat="50.501072"><ele>549.75</ele></trkpt>
   <trkpt lon="12.375061" lat="50.501276"><ele>549.0</ele></trkpt>
   <trkpt lon="12.376897" lat="50.503107"><ele>547.0</ele></trkpt>
   <trkpt lon="12.377209" lat="50.503419"><ele>546.25</ele></trkpt>
   <trkpt lon="12.377519" lat="50.503742"><ele>545.5</ele></trkpt>
   <trkpt lon="12.377893" lat="50.504180"><ele>544.75</ele></trkpt>
   <trkpt lon="12.378217" lat="50.504626"><ele>545.25</ele></trkpt>
   <trkpt lon="12.378369" lat="50.504861"><ele>545.25</ele></trkpt>
   <trkpt lon="12.378515" lat="50.505109"><ele>545.25</ele></trkpt>
   <trkpt lon="12.378649" lat="50.505373"><ele>545.0</ele></trkpt>
   <trkpt lon="12.378771" lat="50.505639"><ele>544.75</ele></trkpt>
   <trkpt lon="12.378882" lat="50.505913"><ele>544.25</ele></trkpt>
   <trkpt lon="12.378982" lat="50.506193"><ele>543.5</ele></trkpt>
   <trkpt lon="12.379261" lat="50.506969"><ele>543.0</ele></trkpt>
   <trkpt lon="12.380387" lat="50.510116"><ele>544.75</ele></trkpt>
   <trkpt lon="12.380589" lat="50.510681"><ele>545.0</ele></trkpt>
   <trkpt lon="12.381150" lat="50.512126"><ele>547.25</ele></trkpt>
   <trkpt lon="12.381495" lat="50.513077"><ele>547.5</ele></trkpt>
   <trkpt lon="12.382097" lat="50.514755"><ele>542.75</ele></trkpt>
   <trkpt lon="12.382239" lat="50.515250"><ele>541.5</ele></trkpt>
   <trkpt lon="12.382286" lat="50.515475"><ele>541.25</ele></trkpt>
   <trkpt lon="12.382321" lat="50.515710"><ele>540.75</ele></trkpt>
   <trkpt lon="12.382343" lat="50.515930"><ele>540.25</ele></trkpt>
   <trkpt lon="12.382355" lat="50.516357"><ele>539.75</ele></trkpt>
   <trkpt lon="12.382309" lat="50.516903"><ele>539.75</ele></trkpt>
   <trkpt lon="12.382133" lat="50.518367"><ele>541.25</ele></trkpt>
   <trkpt lon="12.382117" lat="50.518498"><ele>541.25</ele></trkpt>
   <trkpt lon="12.382030" lat="50.519208"><ele>541.0</ele></trkpt>
   <trkpt lon="12.381720" lat="50.521728"><ele>539.5</ele></trkpt>
   <trkpt lon="12.381700" lat="50.521974"><ele>539.0</ele></trkpt>
   <trkpt lon="12.381673" lat="50.522611"><ele>538.0</ele></trkpt>
   <trkpt lon="12.381614" lat="50.523173"><ele>538.75</ele></trkpt>
   <trkpt lon="12.381561" lat="50.523579"><ele>537.75</ele></trkpt>
   <trkpt lon="12.381512" lat="50.523782"><ele>537.0</ele></trkpt>
   <trkpt lon="12.381441" lat="50.523969"><ele>536.25</ele></trkpt>
   <trkpt lon="12.381344" lat="50.524167"><ele>535.75</ele></trkpt>
   <trkpt lon="12.381249" lat="50.524320"><ele>535.0</ele></trkpt>
   <trkpt lon="12.381023" lat="50.524608"><ele>534.25</ele></trkpt>
   <trkpt lon="12.380898" lat="50.524735"><ele>534.0</ele></trkpt>
   <trkpt lon="12.380747" lat="50.524873"><ele>533.75</ele></trkpt>
   <trkpt lon="12.380573" lat="50.525011"><ele>533.75</ele></trkpt>
   <trkpt lon="12.380397" lat="50.525135"><ele>534.0</ele></trkpt>
   <trkpt lon="12.380203" lat="50.525254"><ele>534.5</ele></trkpt>
   <trkpt lon="12.380010" lat="50.525357"><ele>535.0</ele></trkpt>
   <trkpt lon="12.379579" lat="50.525564"><ele>534.75</ele></trkpt>
   <trkpt lon="12.377829" lat="50.526362"><ele>534.0</ele></trkpt>
   <trkpt lon="12.373866" lat="50.528180"><ele>526.0</ele></trkpt>
   <trkpt lon="12.373445" lat="50.528406"><ele>525.5</ele></trkpt>
   <trkpt lon="12.373266" lat="50.528524"><ele>525.0</ele></trkpt>
   <trkpt lon="12.373107" lat="50.528640"><ele>525.0</ele></trkpt>
   <trkpt lon="12.372942" lat="50.528781"><ele>524.75</ele></trkpt>
   <trkpt lon="12.372793" lat="50.528926"><ele>524.75</ele></trkpt>
   <trkpt lon="12.372657" lat="50.529082"><ele>525.0</ele></trkpt>
   <trkpt lon="12.372537" lat="50.529246"><ele>525.0</ele></trkpt>
   <trkpt lon="12.372448" lat="50.529395"><ele>525.0</ele></trkpt>
   <trkpt lon="12.372370" lat="50.529551"><ele>525.0</ele></trkpt>
   <trkpt lon="12.372305" lat="50.529733"><ele>525.0</ele></trkpt>
   <trkpt lon="12.372255" lat="50.529938"><ele>525.25</ele></trkpt>
   <trkpt lon="12.372233" lat="50.530108"><ele>525.25</ele></trkpt>
   <trkpt lon="12.372231" lat="50.530270"><ele>525.0</ele></trkpt>
   <trkpt lon="12.372249" lat="50.530465"><ele>525.0</ele></trkpt>
   <trkpt lon="12.372289" lat="50.530656"><ele>525.25</ele></trkpt>
   <trkpt lon="12.372351" lat="50.530836"><ele>525.25</ele></trkpt>
   <trkpt lon="12.372438" lat="50.531024"><ele>525.5</ele></trkpt>
   <trkpt lon="12.372590" lat="50.531284"><ele>525.75</ele></trkpt>
   <trkpt lon="12.373575" lat="50.532810"><ele>526.0</ele></trkpt>
   <trkpt lon="12.373697" lat="50.533034"><ele>525.5</ele></trkpt>
   <trkpt lon="12.373773" lat="50.533211"><ele>524.75</ele></trkpt>
   <trkpt lon="12.373824" lat="50.533390"><ele>524.75</ele></trkpt>
   <trkpt lon="12.373853" lat="50.533547"><ele>525.75</ele></trkpt>
   <trkpt lon="12.373867" lat="50.533711"><ele>526.75</ele></trkpt>
   <trkpt lon="12.373864" lat="50.533851"><ele>527.5</ele></trkpt>
   <trkpt lon="12.373846" lat="50.534029"><ele>528.5</ele></trkpt>
   <trkpt lon="12.373809" lat="50.534206"><ele>529.25</ele></trkpt>
   <trkpt lon="12.373757" lat="50.534357"><ele>529.75</ele></trkpt>
   <trkpt lon="12.373694" lat="50.534498"><ele>530.0</ele></trkpt>
   <trkpt lon="12.373591" lat="50.534689"><ele>530.75</ele></trkpt>
   <trkpt lon="12.373449" lat="50.534885"><ele>532.0</ele></trkpt>
   <trkpt lon="12.373335" lat="50.535018"><ele>532.75</ele></trkpt>
   <trkpt lon="12.373195" lat="50.535157"><ele>532.5</ele></trkpt>
   <trkpt lon="12.373021" lat="50.535308"><ele>532.0</ele></trkpt>
   <trkpt lon="12.372846" lat="50.535439"><ele>531.5</ele></trkpt>
   <trkpt lon="12.372651" lat="50.535565"><ele>530.75</ele></trkpt>
   <trkpt lon="12.372287" lat="50.535757"><ele>529.5</ele></trkpt>
   <trkpt lon="12.372061" lat="50.535858"><ele>528.75</ele></trkpt>
   <trkpt lon="12.371837" lat="50.535938"><ele>528.25</ele></trkpt>
   <trkpt lon="12.371584" lat="50.536017"><ele>527.5</ele></trkpt>
   <trkpt lon="12.371320" lat="50.536086"><ele>526.25</ele></trkpt>
   <trkpt lon="12.371037" lat="50.536148"><ele>525.0</ele></trkpt>
   <trkpt lon="12.368922" lat="50.536526"><ele>527.0</ele></trkpt>
   <trkpt lon="12.368421" lat="50.536592"><ele>528.75</ele></trkpt>
   <trkpt lon="12.368174" lat="50.536612"><ele>529.25</ele></trkpt>
   <trkpt lon="12.367887" lat="50.536625"><ele>530.0</ele></trkpt>
   <trkpt lon="12.367589" lat="50.536629"><ele>530.5</ele></trkpt>
   <trkpt lon="12.367325" lat="50.536620"><ele>531.0</ele></trkpt>
   <trkpt lon="12.367054" lat="50.536603"><ele>531.25</ele></trkpt>
   <trkpt lon="12.366590" lat="50.536551"><ele>531.25</ele></trkpt>
   <trkpt lon="12.366338" lat="50.536508"><ele>530.5</ele></trkpt>
   <trkpt lon="12.366061" lat="50.536451"><ele>529.5</ele></trkpt>
   <trkpt lon="12.365808" lat="50.536389"><ele>528.25</ele></trkpt>
   <trkpt lon="12.365528" lat="50.536305"><ele>526.5</ele></trkpt>
   <trkpt lon="12.365275" lat="50.536218"><ele>524.5</ele></trkpt>
   <trkpt lon="12.365012" lat="50.536113"><ele>522.0</ele></trkpt>
   <trkpt lon="12.364767" lat="50.536002"><ele>522.0</ele></trkpt>
   <trkpt lon="12.364563" lat="50.535895"><ele>522.25</ele></trkpt>
   <trkpt lon="12.364365" lat="50.535783"><ele>522.75</ele></trkpt>
   <trkpt lon="12.364146" lat="50.535648"><ele>522.75</ele></trkpt>
   <trkpt lon="12.361057" lat="50.533649"><ele>516.75</ele></trkpt>
   <trkpt lon="12.360553" lat="50.533345"><ele>517.0</ele></trkpt>
   <trkpt lon="12.360358" lat="50.533244"><ele>517.25</ele></trkpt>
   <trkpt lon="12.360120" lat="50.533136"><ele>517.75</ele></trkpt>
   <trkpt lon="12.359858" lat="50.533033"><ele>518.25</ele></trkpt>
   <trkpt lon="12.359578" lat="50.532936"><ele>519.25</ele></trkpt>
   <trkpt lon="12.359292" lat="50.532850"><ele>520.25</ele></trkpt>
   <trkpt lon="12.359019" lat="50.532783"><ele>521.25</ele></trkpt>
   <trkpt lon="12.358682" lat="50.532720"><ele>522.5</ele></trkpt>
   <trkpt lon="12.358345" lat="50.532668"><ele>524.0</ele></trkpt>
   <trkpt lon="12.357956" lat="50.532627"><ele>523.0</ele></trkpt>
   <trkpt lon="12.357548" lat="50.532613"><ele>522.0</ele></trkpt>
   <trkpt lon="12.357078" lat="50.532628"><ele>521.5</ele></trkpt>
   <trkpt lon="12.356632" lat="50.532664"><ele>521.0</ele></trkpt>
   <trkpt lon="12.356141" lat="50.532727"><ele>519.0</ele></trkpt>
   <trkpt lon="12.355505" lat="50.532834"><ele>517.0</ele></trkpt>
   <trkpt lon="12.353777" lat="50.533169"><ele>515.25</ele></trkpt>
   <trkpt lon="12.350191" lat="50.533870"><ele>518.5</ele></trkpt>
   <trkpt lon="12.349690" lat="50.533992"><ele>519.0</ele></trkpt>
   <trkpt lon="12.348738" lat="50.534254"><ele>520.0</ele></trkpt>
   <trkpt lon="12.348285" lat="50.534392"><ele>520.25</ele></trkpt>
   <trkpt lon="12.347756" lat="50.534576"><ele>518.25</ele></trkpt>
   <trkpt lon="12.347224" lat="50.534774"><ele>516.25</ele></trkpt>
   <trkpt lon="12.346552" lat="50.535056"><ele>513.25</ele></trkpt>
   <trkpt lon="12.346070" lat="50.535282"><ele>511.0</ele></trkpt>
   <trkpt lon="12.345670" lat="50.535502"><ele>509.25</ele></trkpt>
   <trkpt lon="12.345475" lat="50.535632"><ele>508.75</ele></trkpt>
   <trkpt lon="12.345303" lat="50.535762"><ele>508.5</ele></trkpt>
   <trkpt lon="12.345102" lat="50.535936"><ele>508.25</ele></trkpt>
   <trkpt lon="12.344924" lat="50.536123"><ele>508.0</ele></trkpt>
   <trkpt lon="12.344770" lat="50.536316"><ele>508.25</ele></trkpt>
   <trkpt lon="12.344601" lat="50.536563"><ele>508.75</ele></trkpt>
   <trkpt lon="12.344462" lat="50.536803"><ele>508.75</ele></trkpt>
   <trkpt lon="12.344180" lat="50.537326"><ele>507.0</ele></trkpt>
   <trkpt lon="12.344040" lat="50.537608"><ele>506.0</ele></trkpt>
   <trkpt lon="12.343959" lat="50.537836"><ele>505.5</ele></trkpt>
   <trkpt lon="12.343911" lat="50.538065"><ele>505.25</ele></trkpt>
   <trkpt lon="12.343892" lat="50.538279"><ele>505.0</ele></trkpt>
   <trkpt lon="12.343909" lat="50.538443"><ele>505.25</ele></trkpt>
   <trkpt lon="12.343941" lat="50.538636"><ele>506.25</ele></trkpt>
   <trkpt lon="12.344001" lat="50.538839"><ele>507.25</ele></trkpt>
   <trkpt lon="12.344098" lat="50.539056"><ele>508.25</ele></trkpt>
   <trkpt lon="12.344222" lat="50.539280"><ele>508.5</ele></trkpt>
   <trkpt lon="12.344467" lat="50.539666"><ele>508.0</ele></trkpt>
   <trkpt lon="12.345053" lat="50.540667"><ele>504.0</ele></trkpt>
   <trkpt lon="12.345335" lat="50.541111"><ele>500.0</ele></trkpt>
   <trkpt lon="12.345382" lat="50.541202"><ele>499.25</ele></trkpt>
   <trkpt lon="12.345437" lat="50.541309"><ele>498.25</ele></trkpt>
   <trkpt lon="12.345483" lat="50.541431"><ele>497.5</ele></trkpt>
   <trkpt lon="12.345537" lat="50.541634"><ele>496.0</ele></trkpt>
   <trkpt lon="12.345561" lat="50.541871"><ele>496.0</ele></trkpt>
   <trkpt lon="12.345557" lat="50.542002"><ele>496.0</ele></trkpt>
   <trkpt lon="12.345545" lat="50.542130"><ele>496.0</ele></trkpt>
   <trkpt lon="12.345514" lat="50.542275"><ele>496.25</ele></trkpt>
   <trkpt lon="12.345467" lat="50.542430"><ele>496.25</ele></trkpt>
   <trkpt lon="12.345337" lat="50.542698"><ele>495.75</ele></trkpt>
   <trkpt lon="12.345205" lat="50.542895"><ele>495.5</ele></trkpt>
   <trkpt lon="12.345130" lat="50.542987"><ele>495.25</ele></trkpt>
   <trkpt lon="12.344988" lat="50.543153"><ele>495.5</ele></trkpt>
   <trkpt lon="12.344905" lat="50.543237"><ele>495.75</ele></trkpt>
   <trkpt lon="12.344817" lat="50.543320"><ele>496.25</ele></trkpt>
   <trkpt lon="12.344620" lat="50.543479"><ele>496.25</ele></trkpt>
   <trkpt lon="12.344459" lat="50.543595"><ele>496.0</ele></trkpt>
   <trkpt lon="12.344282" lat="50.543708"><ele>495.75</ele></trkpt>
   <trkpt lon="12.343916" lat="50.543906"><ele>495.0</ele></trkpt>
   <trkpt lon="12.343733" lat="50.543995"><ele>494.5</ele></trkpt>
   <trkpt lon="12.343449" lat="50.544137"><ele>493.0</ele></trkpt>
   <trkpt lon="12.341500" lat="50.545087"><ele>493.25</ele></trkpt>
   <trkpt lon="12.339023" lat="50.546298"><ele>500.0</ele></trkpt>
   <trkpt lon="12.338366" lat="50.546612"><ele>501.25</ele></trkpt>
   <trkpt lon="12.338110" lat="50.546727"><ele>501.25</ele></trkpt>
   <trkpt lon="12.337875" lat="50.546819"><ele>501.5</ele></trkpt>
   <trkpt lon="12.337594" lat="50.546909"><ele>501.75</ele></trkpt>
   <trkpt lon="12.337327" lat="50.546975"><ele>502.0</ele></trkpt>
   <trkpt lon="12.337040" lat="50.547025"><ele>502.25</ele></trkpt>
   <trkpt lon="12.336721" lat="50.547062"><ele>502.5</ele></trkpt>
   <trkpt lon="12.336084" lat="50.547088"><ele>502.75</ele></trkpt>
   <trkpt lon="12.333800" lat="50.547150"><ele>501.5</ele></trkpt>
   <trkpt lon="12.333546" lat="50.547164"><ele>501.25</ele></trkpt>
   <trkpt lon="12.333308" lat="50.547185"><ele>501.0</ele></trkpt>
   <trkpt lon="12.333114" lat="50.547208"><ele>499.25</ele></trkpt>
   <trkpt lon="12.332813" lat="50.547254"><ele>496.75</ele></trkpt>
   <trkpt lon="12.332526" lat="50.547309"><ele>494.5</ele></trkpt>
   <trkpt lon="12.332247" lat="50.547375"><ele>492.25</ele></trkpt>
   <trkpt lon="12.331958" lat="50.547455"><ele>490.25</ele></trkpt>
   <trkpt lon="12.331687" lat="50.547549"><ele>488.25</ele></trkpt>
   <trkpt lon="12.331461" lat="50.547636"><ele>487.25</ele></trkpt>
   <trkpt lon="12.331214" lat="50.547743"><ele>486.0</ele></trkpt>
   <trkpt lon="12.330986" lat="50.547858"><ele>485.0</ele></trkpt>
   <trkpt lon="12.330758" lat="50.547986"><ele>484.25</ele></trkpt>
   <trkpt lon="12.330548" lat="50.548118"><ele>483.75</ele></trkpt>
   <trkpt lon="12.330365" lat="50.548250"><ele>483.5</ele></trkpt>
   <trkpt lon="12.330205" lat="50.548376"><ele>483.25</ele></trkpt>
   <trkpt lon="12.330041" lat="50.548523"><ele>483.25</ele></trkpt>
   <trkpt lon="12.329889" lat="50.548679"><ele>483.5</ele></trkpt>
   <trkpt lon="12.329759" lat="50.548837"><ele>484.25</ele></trkpt>
   <trkpt lon="12.329597" lat="50.549069"><ele>485.25</ele></trkpt>
   <trkpt lon="12.329509" lat="50.549222"><ele>486.0</ele></trkpt>
   <trkpt lon="12.329437" lat="50.549376"><ele>487.0</ele></trkpt>
   <trkpt lon="12.329323" lat="50.549705"><ele>489.5</ele></trkpt>
   <trkpt lon="12.329040" lat="50.550681"><ele>492.75</ele></trkpt>
   <trkpt lon="12.328962" lat="50.550919"><ele>493.0</ele></trkpt>
   <trkpt lon="12.328886" lat="50.551111"><ele>492.5</ele></trkpt>
   <trkpt lon="12.328805" lat="50.551253"><ele>492.0</ele></trkpt>
   <trkpt lon="12.328578" lat="50.551562"><ele>491.25</ele></trkpt>
   <trkpt lon="12.328426" lat="50.551727"><ele>491.0</ele></trkpt>
   <trkpt lon="12.328298" lat="50.551842"><ele>491.0</ele></trkpt>
   <trkpt lon="12.328054" lat="50.552029"><ele>490.25</ele></trkpt>
   <trkpt lon="12.327853" lat="50.552161"><ele>489.75</ele></trkpt>
   <trkpt lon="12.327643" lat="50.552284"><ele>489.25</ele></trkpt>
   <trkpt lon="12.327481" lat="50.552366"><ele>488.75</ele></trkpt>
   <trkpt lon="12.327306" lat="50.552443"><ele>488.25</ele></trkpt>
   <trkpt lon="12.327004" lat="50.552561"><ele>488.25</ele></trkpt>
   <trkpt lon="12.326879" lat="50.552602"><ele>488.5</ele></trkpt>
   <trkpt lon="12.326682" lat="50.552660"><ele>488.75</ele></trkpt>
   <trkpt lon="12.326478" lat="50.552712"><ele>488.0</ele></trkpt>
   <trkpt lon="12.326270" lat="50.552756"><ele>487.25</ele></trkpt>
   <trkpt lon="12.325833" lat="50.552831"><ele>486.0</ele></trkpt>
   <trkpt lon="12.324458" lat="50.553013"><ele>484.0</ele></trkpt>
   <trkpt lon="12.320138" lat="50.553586"><ele>480.0</ele></trkpt>
   <trkpt lon="12.319411" lat="50.553688"><ele>476.75</ele></trkpt>
   <trkpt lon="12.319042" lat="50.553750"><ele>475.25</ele></trkpt>
   <trkpt lon="12.318715" lat="50.553813"><ele>474.5</ele></trkpt>
   <trkpt lon="12.318418" lat="50.553875"><ele>473.75</ele></trkpt>
   <trkpt lon="12.317914" lat="50.553993"><ele>473.0</ele></trkpt>
   <trkpt lon="12.316010" lat="50.554503"><ele>471.75</ele></trkpt>
   <trkpt lon="12.313334" lat="50.555223"><ele>471.75</ele></trkpt>
   <trkpt lon="12.312706" lat="50.555385"><ele>472.25</ele></trkpt>
   <trkpt lon="12.312255" lat="50.555477"><ele>473.0</ele></trkpt>
   <trkpt lon="12.311983" lat="50.555519"><ele>473.25</ele></trkpt>
   <trkpt lon="12.311706" lat="50.555549"><ele>473.5</ele></trkpt>
   <trkpt lon="12.311437" lat="50.555569"><ele>473.25</ele></trkpt>
   <trkpt lon="12.311125" lat="50.555580"><ele>472.75</ele></trkpt>
   <trkpt lon="12.310833" lat="50.555578"><ele>472.0</ele></trkpt>
   <trkpt lon="12.310576" lat="50.555567"><ele>471.75</ele></trkpt>
   <trkpt lon="12.310330" lat="50.555547"><ele>471.5</ele></trkpt>
   <trkpt lon="12.310066" lat="50.555517"><ele>471.0</ele></trkpt>
   <trkpt lon="12.309814" lat="50.555480"><ele>470.25</ele></trkpt>
   <trkpt lon="12.309555" lat="50.555432"><ele>469.75</ele></trkpt>
   <trkpt lon="12.309312" lat="50.555376"><ele>469.0</ele></trkpt>
   <trkpt lon="12.309030" lat="50.555300"><ele>468.5</ele></trkpt>
   <trkpt lon="12.308723" lat="50.555200"><ele>468.0</ele></trkpt>
   <trkpt lon="12.308433" lat="50.555088"><ele>468.0</ele></trkpt>
   <trkpt lon="12.308160" lat="50.554965"><ele>467.75</ele></trkpt>
   <trkpt lon="12.307905" lat="50.554831"><ele>467.5</ele></trkpt>
   <trkpt lon="12.307663" lat="50.554689"><ele>467.5</ele></trkpt>
   <trkpt lon="12.307444" lat="50.554534"><ele>467.25</ele></trkpt>
   <trkpt lon="12.307224" lat="50.554361"><ele>467.25</ele></trkpt>
   <trkpt lon="12.306906" lat="50.554050"><ele>467.75</ele></trkpt>
   <trkpt lon="12.306799" lat="50.553923"><ele>468.25</ele></trkpt>
   <trkpt lon="12.306599" lat="50.553624"><ele>469.25</ele></trkpt>
   <trkpt lon="12.306440" lat="50.553299"><ele>470.25</ele></trkpt>
   <trkpt lon="12.305499" lat="50.550657"><ele>469.0</ele></trkpt>
   <trkpt lon="12.305423" lat="50.550463"><ele>468.75</ele></trkpt>
   <trkpt lon="12.305337" lat="50.550288"><ele>468.5</ele></trkpt>
   <trkpt lon="12.305244" lat="50.550138"><ele>468.25</ele></trkpt>
   <trkpt lon="12.305116" lat="50.549965"><ele>467.75</ele></trkpt>
   <trkpt lon="12.304965" lat="50.549797"><ele>467.5</ele></trkpt>
   <trkpt lon="12.304784" lat="50.549630"><ele>467.5</ele></trkpt>
   <trkpt lon="12.304594" lat="50.549469"><ele>468.0</ele></trkpt>
   <trkpt lon="12.304386" lat="50.549316"><ele>468.25</ele></trkpt>
   <trkpt lon="12.304002" lat="50.549066"><ele>469.0</ele></trkpt>
   <trkpt lon="12.303514" lat="50.548795"><ele>469.5</ele></trkpt>
   <trkpt lon="12.302848" lat="50.548443"><ele>470.75</ele></trkpt>
   <trkpt lon="12.301906" lat="50.547984"><ele>472.5</ele></trkpt>
   <trkpt lon="12.299697" lat="50.546914"><ele>470.25</ele></trkpt>
   <trkpt lon="12.299613" lat="50.546874"><ele>470.0</ele></trkpt>
   <trkpt lon="12.299212" lat="50.546679"><ele>469.75</ele></trkpt>
   <trkpt lon="12.298764" lat="50.546497"><ele>468.75</ele></trkpt>
   <trkpt lon="12.298514" lat="50.546414"><ele>468.0</ele></trkpt>
   <trkpt lon="12.298246" lat="50.546339"><ele>467.75</ele></trkpt>
   <trkpt lon="12.297957" lat="50.546273"><ele>467.75</ele></trkpt>
   <trkpt lon="12.297689" lat="50.546222"><ele>467.75</ele></trkpt>
   <trkpt lon="12.297410" lat="50.546177"><ele>468.0</ele></trkpt>
   <trkpt lon="12.297127" lat="50.546141"><ele>468.25</ele></trkpt>
   <trkpt lon="12.296610" lat="50.546098"><ele>468.5</ele></trkpt>
   <trkpt lon="12.295983" lat="50.546084"><ele>468.75</ele></trkpt>
   <trkpt lon="12.295502" lat="50.546103"><ele>469.0</ele></trkpt>
   <trkpt lon="12.295226" lat="50.546126"><ele>469.5</ele></trkpt>
   <trkpt lon="12.294950" lat="50.546157"><ele>469.5</ele></trkpt>
   <trkpt lon="12.294695" lat="50.546191"><ele>469.25</ele></trkpt>
   <trkpt lon="12.294424" lat="50.546238"><ele>469.25</ele></trkpt>
   <trkpt lon="12.294135" lat="50.546296"><ele>469.0</ele></trkpt>
   <trkpt lon="12.293852" lat="50.546363"><ele>469.25</ele></trkpt>
   <trkpt lon="12.293565" lat="50.546442"><ele>469.25</ele></trkpt>
   <trkpt lon="12.290099" lat="50.547440"><ele>465.75</ele></trkpt>
   <trkpt lon="12.289723" lat="50.547530"><ele>466.25</ele></trkpt>
   <trkpt lon="12.289464" lat="50.547578"><ele>467.0</ele></trkpt>
   <trkpt lon="12.289264" lat="50.547603"><ele>467.25</ele></trkpt>
   <trkpt lon="12.288824" lat="50.547640"><ele>467.5</ele></trkpt>
   <trkpt lon="12.288564" lat="50.547645"><ele>467.5</ele></trkpt>
   <trkpt lon="12.288298" lat="50.547638"><ele>467.5</ele></trkpt>
   <trkpt lon="12.287887" lat="50.547605"><ele>468.0</ele></trkpt>
   <trkpt lon="12.287474" lat="50.547544"><ele>468.0</ele></trkpt>
   <trkpt lon="12.287252" lat="50.547502"><ele>468.25</ele></trkpt>
   <trkpt lon="12.285575" lat="50.547168"><ele>468.25</ele></trkpt>
   <trkpt lon="12.284443" lat="50.546952"><ele>467.75</ele></trkpt>
   <trkpt lon="12.284241" lat="50.546918"><ele>467.75</ele></trkpt>
   <trkpt lon="12.283907" lat="50.546880"><ele>467.5</ele></trkpt>
   <trkpt lon="12.283516" lat="50.546860"><ele>467.5</ele></trkpt>
   <trkpt lon="12.283330" lat="50.546858"><ele>467.25</ele></trkpt>
   <trkpt lon="12.282958" lat="50.546868"><ele>467.25</ele></trkpt>
   <trkpt lon="12.282792" lat="50.546882"><ele>467.25</ele></trkpt>
   <trkpt lon="12.282591" lat="50.546904"><ele>467.25</ele></trkpt>
   <trkpt lon="12.282215" lat="50.546963"><ele>467.0</ele></trkpt>
   <trkpt lon="12.282017" lat="50.547006"><ele>467.0</ele></trkpt>
   <trkpt lon="12.281759" lat="50.547072"><ele>467.0</ele></trkpt>
   <trkpt lon="12.281407" lat="50.547187"><ele>467.5</ele></trkpt>
   <trkpt lon="12.281178" lat="50.547279"><ele>468.25</ele></trkpt>
   <trkpt lon="12.280599" lat="50.547545"><ele>469.25</ele></trkpt>
   <trkpt lon="12.274754" lat="50.550359"><ele>467.75</ele></trkpt>
   <trkpt lon="12.274197" lat="50.550630"><ele>465.5</ele></trkpt>
   <trkpt lon="12.273751" lat="50.550844"><ele>463.5</ele></trkpt>
   <trkpt lon="12.273418" lat="50.550975"><ele>462.5</ele></trkpt>
   <trkpt lon="12.273083" lat="50.551080"><ele>462.5</ele></trkpt>
   <trkpt lon="12.272897" lat="50.551125"><ele>463.0</ele></trkpt>
   <trkpt lon="12.272709" lat="50.551162"><ele>463.25</ele></trkpt>
   <trkpt lon="12.272508" lat="50.551193"><ele>463.75</ele></trkpt>
   <trkpt lon="12.272312" lat="50.551214"><ele>464.0</ele></trkpt>
   <trkpt lon="12.272093" lat="50.551228"><ele>464.0</ele></trkpt>
   <trkpt lon="12.271890" lat="50.551234"><ele>464.25</ele></trkpt>
   <trkpt lon="12.271701" lat="50.551231"><ele>464.25</ele></trkpt>
   <trkpt lon="12.271498" lat="50.551220"><ele>464.75</ele></trkpt>
   <trkpt lon="12.271309" lat="50.551202"><ele>465.0</ele></trkpt>
   <trkpt lon="12.270946" lat="50.551145"><ele>466.0</ele></trkpt>
   <trkpt lon="12.270746" lat="50.551101"><ele>466.25</ele></trkpt>
   <trkpt lon="12.270545" lat="50.551048"><ele>466.75</ele></trkpt>
   <trkpt lon="12.270346" lat="50.550983"><ele>467.0</ele></trkpt>
   <trkpt lon="12.269998" lat="50.550840"><ele>468.0</ele></trkpt>
   <trkpt lon="12.269842" lat="50.550761"><ele>468.5</ele></trkpt>
   <trkpt lon="12.269682" lat="50.550669"><ele>469.0</ele></trkpt>
   <trkpt lon="12.269532" lat="50.550569"><ele>469.25</ele></trkpt>
   <trkpt lon="12.269392" lat="50.550463"><ele>469.75</ele></trkpt>
   <trkpt lon="12.269125" lat="50.550222"><ele>470.25</ele></trkpt>
   <trkpt lon="12.264373" lat="50.545431"><ele>464.0</ele></trkpt>
   <trkpt lon="12.260792" lat="50.541813"><ele>464.5</ele></trkpt>
   <trkpt lon="12.260561" lat="50.541587"><ele>463.75</ele></trkpt>
   <trkpt lon="12.260363" lat="50.541421"><ele>463.5</ele></trkpt>
   <trkpt lon="12.260148" lat="50.541268"><ele>463.25</ele></trkpt>
   <trkpt lon="12.259943" lat="50.541148"><ele>463.25</ele></trkpt>
   <trkpt lon="12.259719" lat="50.541038"><ele>462.75</ele></trkpt>
   <trkpt lon="12.259482" lat="50.540942"><ele>462.5</ele></trkpt>
   <trkpt lon="12.259240" lat="50.540858"><ele>462.0</ele></trkpt>
   <trkpt lon="12.258966" lat="50.540780"><ele>461.75</ele></trkpt>
   <trkpt lon="12.258710" lat="50.540724"><ele>461.5</ele></trkpt>
   <trkpt lon="12.258433" lat="50.540681"><ele>461.75</ele></trkpt>
   <trkpt lon="12.257997" lat="50.540633"><ele>462.0</ele></trkpt>
   <trkpt lon="12.257765" lat="50.540619"><ele>462.0</ele></trkpt>
   <trkpt lon="12.257570" lat="50.540614"><ele>462.25</ele></trkpt>
   <trkpt lon="12.257378" lat="50.540617"><ele>462.25</ele></trkpt>
   <trkpt lon="12.257171" lat="50.540629"><ele>462.5</ele></trkpt>
   <trkpt lon="12.256964" lat="50.540648"><ele>462.5</ele></trkpt>
   <trkpt lon="12.256516" lat="50.540721"><ele>462.75</ele></trkpt>
   <trkpt lon="12.256306" lat="50.540766"><ele>462.75</ele></trkpt>
   <trkpt lon="12.256071" lat="50.540826"><ele>462.75</ele></trkpt>
   <trkpt lon="12.255669" lat="50.540956"><ele>463.0</ele></trkpt>
   <trkpt lon="12.255482" lat="50.541029"><ele>463.0</ele></trkpt>
   <trkpt lon="12.255326" lat="50.541103"><ele>463.25</ele></trkpt>
   <trkpt lon="12.255039" lat="50.541261"><ele>463.5</ele></trkpt>
   <trkpt lon="12.254877" lat="50.541366"><ele>463.25</ele></trkpt>
   <trkpt lon="12.254717" lat="50.541481"><ele>463.0</ele></trkpt>
   <trkpt lon="12.254550" lat="50.541618"><ele>462.75</ele></trkpt>
   <trkpt lon="12.254426" lat="50.541731"><ele>462.25</ele></trkpt>
   <trkpt lon="12.254301" lat="50.541867"><ele>461.75</ele></trkpt>
   <trkpt lon="12.254199" lat="50.542005"><ele>461.25</ele></trkpt>
   <trkpt lon="12.254111" lat="50.542144"><ele>460.5</ele></trkpt>
   <trkpt lon="12.254043" lat="50.542289"><ele>460.0</ele></trkpt>
   <trkpt lon="12.253993" lat="50.542431"><ele>459.5</ele></trkpt>
   <trkpt lon="12.253960" lat="50.542566"><ele>459.25</ele></trkpt>
   <trkpt lon="12.253940" lat="50.542708"><ele>459.0</ele></trkpt>
   <trkpt lon="12.253935" lat="50.542853"><ele>458.75</ele></trkpt>
   <trkpt lon="12.253951" lat="50.543146"><ele>458.5</ele></trkpt>
   <trkpt lon="12.254054" lat="50.544340"><ele>456.75</ele></trkpt>
   <trkpt lon="12.254089" lat="50.544854"><ele>457.25</ele></trkpt>
   <trkpt lon="12.254087" lat="50.545021"><ele>457.75</ele></trkpt>
   <trkpt lon="12.254069" lat="50.545195"><ele>459.0</ele></trkpt>
   <trkpt lon="12.254040" lat="50.545355"><ele>460.0</ele></trkpt>
   <trkpt lon="12.253987" lat="50.545536"><ele>461.5</ele></trkpt>
   <trkpt lon="12.253937" lat="50.545676"><ele>462.5</ele></trkpt>
   <trkpt lon="12.253869" lat="50.545825"><ele>463.75</ele></trkpt>
   <trkpt lon="12.253648" lat="50.546211"><ele>467.0</ele></trkpt>
   <trkpt lon="12.253058" lat="50.547056"><ele>471.5</ele></trkpt>
   <trkpt lon="12.252743" lat="50.547567"><ele>471.5</ele></trkpt>
   <trkpt lon="12.252593" lat="50.547826"><ele>471.75</ele></trkpt>
   <trkpt lon="12.252275" lat="50.548437"><ele>473.0</ele></trkpt>
   <trkpt lon="12.252052" lat="50.548971"><ele>472.5</ele></trkpt>
   <trkpt lon="12.251995" lat="50.549138"><ele>472.0</ele></trkpt>
   <trkpt lon="12.251941" lat="50.549343"><ele>471.0</ele></trkpt>
   <trkpt lon="12.251886" lat="50.549611"><ele>469.5</ele></trkpt>
   <trkpt lon="12.251840" lat="50.549900"><ele>468.25</ele></trkpt>
   <trkpt lon="12.251673" lat="50.551784"><ele>465.5</ele></trkpt>
   <trkpt lon="12.251624" lat="50.552171"><ele>463.75</ele></trkpt>
   <trkpt lon="12.251575" lat="50.552385"><ele>462.75</ele></trkpt>
   <trkpt lon="12.251510" lat="50.552600"><ele>461.5</ele></trkpt>
   <trkpt lon="12.251416" lat="50.552832"><ele>460.5</ele></trkpt>
   <trkpt lon="12.251310" lat="50.553044"><ele>459.25</ele></trkpt>
   <trkpt lon="12.251209" lat="50.553218"><ele>458.5</ele></trkpt>
   <trkpt lon="12.251004" lat="50.553506"><ele>458.5</ele></trkpt>
   <trkpt lon="12.250878" lat="50.553653"><ele>459.0</ele></trkpt>
   <trkpt lon="12.250116" lat="50.554474"><ele>461.0</ele></trkpt>
   <trkpt lon="12.249342" lat="50.555278"><ele>459.0</ele></trkpt>
   <trkpt lon="12.249155" lat="50.555446"><ele>458.25</ele></trkpt>
   <trkpt lon="12.248940" lat="50.555625"><ele>457.75</ele></trkpt>
   <trkpt lon="12.248672" lat="50.555835"><ele>457.0</ele></trkpt>
   <trkpt lon="12.248389" lat="50.556038"><ele>456.0</ele></trkpt>
   <trkpt lon="12.248106" lat="50.556213"><ele>454.75</ele></trkpt>
   <trkpt lon="12.247698" lat="50.556441"><ele>453.25</ele></trkpt>
   <trkpt lon="12.244620" lat="50.558063"><ele>451.0</ele></trkpt>
   <trkpt lon="12.242660" lat="50.559094"><ele>443.75</ele></trkpt>
   <trkpt lon="12.242180" lat="50.559365"><ele>441.25</ele></trkpt>
   <trkpt lon="12.241800" lat="50.559616"><ele>439.25</ele></trkpt>
   <trkpt lon="12.241443" lat="50.559886"><ele>437.25</ele></trkpt>
   <trkpt lon="12.241139" lat="50.560149"><ele>436.0</ele></trkpt>
   <trkpt lon="12.240916" lat="50.560368"><ele>435.5</ele></trkpt>
   <trkpt lon="12.240672" lat="50.560642"><ele>435.5</ele></trkpt>
   <trkpt lon="12.240448" lat="50.560937"><ele>436.0</ele></trkpt>
   <trkpt lon="12.240279" lat="50.561201"><ele>436.5</ele></trkpt>
   <trkpt lon="12.240130" lat="50.561469"><ele>436.75</ele></trkpt>
   <trkpt lon="12.238139" lat="50.565297"><ele>434.5</ele></trkpt>
   <trkpt lon="12.236876" lat="50.567734"><ele>426.75</ele></trkpt>
   <trkpt lon="12.236555" lat="50.568354"><ele>425.5</ele></trkpt>
   <trkpt lon="12.236488" lat="50.568486"><ele>425.5</ele></trkpt>
   <trkpt lon="12.236276" lat="50.568890"><ele>426.25</ele></trkpt>
   <trkpt lon="12.236137" lat="50.569119"><ele>426.75</ele></trkpt>
   <trkpt lon="12.236067" lat="50.569219"><ele>426.75</ele></trkpt>
   <trkpt lon="12.235907" lat="50.569402"><ele>426.5</ele></trkpt>
   <trkpt lon="12.235727" lat="50.569565"><ele>426.0</ele></trkpt>
   <trkpt lon="12.235512" lat="50.569712"><ele>426.0</ele></trkpt>
   <trkpt lon="12.235379" lat="50.569788"><ele>425.75</ele></trkpt>
   <trkpt lon="12.235215" lat="50.569868"><ele>425.75</ele></trkpt>
   <trkpt lon="12.234965" lat="50.569969"><ele>425.75</ele></trkpt>
   <trkpt lon="12.234732" lat="50.570040"><ele>425.75</ele></trkpt>
   <trkpt lon="12.234582" lat="50.570076"><ele>425.75</ele></trkpt>
   <trkpt lon="12.234382" lat="50.570115"><ele>425.75</ele></trkpt>
   <trkpt lon="12.234078" lat="50.570151"><ele>425.5</ele></trkpt>
   <trkpt lon="12.233913" lat="50.570161"><ele>425.75</ele></trkpt>
   <trkpt lon="12.233630" lat="50.570161"><ele>425.75</ele></trkpt>
   <trkpt lon="12.233323" lat="50.570138"><ele>425.5</ele></trkpt>
   <trkpt lon="12.233166" lat="50.570117"><ele>425.5</ele></trkpt>
   <trkpt lon="12.233015" lat="50.570092"><ele>425.5</ele></trkpt>
   <trkpt lon="12.232344" lat="50.569960"><ele>425.5</ele></trkpt>
   <trkpt lon="12.231980" lat="50.569901"><ele>425.0</ele></trkpt>
   <trkpt lon="12.231918" lat="50.569892"><ele>425.0</ele></trkpt>
   <trkpt lon="12.231479" lat="50.569832"><ele>424.5</ele></trkpt>
   <trkpt lon="12.231263" lat="50.569808"><ele>424.25</ele></trkpt>
   <trkpt lon="12.230828" lat="50.569771"><ele>423.75</ele></trkpt>
   <trkpt lon="12.230428" lat="50.569748"><ele>423.5</ele></trkpt>
   <trkpt lon="12.229762" lat="50.569733"><ele>422.75</ele></trkpt>
   <trkpt lon="12.229543" lat="50.569736"><ele>422.5</ele></trkpt>
   <trkpt lon="12.229135" lat="50.569757"><ele>422.0</ele></trkpt>
   <trkpt lon="12.228741" lat="50.569792"><ele>421.75</ele></trkpt>
   <trkpt lon="12.228373" lat="50.569813"><ele>421.75</ele></trkpt>
   <trkpt lon="12.228295" lat="50.569814"><ele>421.75</ele></trkpt>
   <trkpt lon="12.227685" lat="50.569823"><ele>421.75</ele></trkpt>
   <trkpt lon="12.227251" lat="50.569823"><ele>421.5</ele></trkpt>
   <trkpt lon="12.226270" lat="50.569797"><ele>422.0</ele></trkpt>
   <trkpt lon="12.225745" lat="50.569769"><ele>422.25</ele></trkpt>
   <trkpt lon="12.224899" lat="50.569711"><ele>423.0</ele></trkpt>
   <trkpt lon="12.224702" lat="50.569699"><ele>423.5</ele></trkpt>
   <trkpt lon="12.224096" lat="50.569664"><ele>425.0</ele></trkpt>
   <trkpt lon="12.223567" lat="50.569647"><ele>426.0</ele></trkpt>
   <trkpt lon="12.222983" lat="50.569649"><ele>427.0</ele></trkpt>
   <trkpt lon="12.222372" lat="50.569681"><ele>427.75</ele></trkpt>
   <trkpt lon="12.221895" lat="50.569728"><ele>428.0</ele></trkpt>
   <trkpt lon="12.221422" lat="50.569794"><ele>428.25</ele></trkpt>
   <trkpt lon="12.220929" lat="50.569881"><ele>428.5</ele></trkpt>
   <trkpt lon="12.220330" lat="50.570008"><ele>429.0</ele></trkpt>
   <trkpt lon="12.219902" lat="50.570108"><ele>428.75</ele></trkpt>
   <trkpt lon="12.218539" lat="50.570428"><ele>426.0</ele></trkpt>
   <trkpt lon="12.218141" lat="50.570515"><ele>425.75</ele></trkpt>
   <trkpt lon="12.217743" lat="50.570594"><ele>425.0</ele></trkpt>
   <trkpt lon="12.217480" lat="50.570640"><ele>424.5</ele></trkpt>
   <trkpt lon="12.217139" lat="50.570691"><ele>423.75</ele></trkpt>
   <trkpt lon="12.216821" lat="50.570728"><ele>422.75</ele></trkpt>
   <trkpt lon="12.215960" lat="50.570791"><ele>421.25</ele></trkpt>
   <trkpt lon="12.215242" lat="50.570802"><ele>420.5</ele></trkpt>
   <trkpt lon="12.214360" lat="50.570748"><ele>420.5</ele></trkpt>
   <trkpt lon="12.211988" lat="50.570492"><ele>422.5</ele></trkpt>
   <trkpt lon="12.211237" lat="50.570427"><ele>423.5</ele></trkpt>
   <trkpt lon="12.210685" lat="50.570400"><ele>423.75</ele></trkpt>
   <trkpt lon="12.209892" lat="50.570411"><ele>423.0</ele></trkpt>
   <trkpt lon="12.209632" lat="50.570426"><ele>422.25</ele></trkpt>
  </trkseg>
 </trk>
</gpx>
