<?xml version="1.0" encoding="UTF-8"?>
<!-- track-length = 29491 filtered ascend = 51 plain-ascend = 17 cost=29491 energy=0.4kwh time=39m 19s -->
<gpx 
 xmlns="http://www.topografix.com/GPX/1/1" 
 xmlns:xsi="http://www.w3.org/2001/XMLSchema-instance" 
 xsi:schemaLocation="http://www.topografix.com/GPX/1/1 http://www.topografix.com/GPX/1/1/gpx.xsd" 
 version="1.1" 
 creator="BRouter-Web 0.18.1">
 <trk>
  <name>FFLF - Wiesbaden</name>
  <trkseg>
   <trkpt lat="50.030217" lon="8.500783"><ele>98</ele></trkpt>
   <trkpt lat="50.029285" lon="8.497801"><ele>99.5</ele></trkpt>
   <trkpt lat="50.029265" lon="8.497736"><ele>99.5</ele></trkpt>
   <trkpt lat="50.029238" lon="8.497652"><ele>99.25</ele></trkpt>
   <trkpt lat="50.029041" lon="8.497036"><ele>99</ele></trkpt>
   <trkpt lat="50.028471" lon="8.49536"><ele>101.75</ele></trkpt>
   <trkpt lat="50.028329" lon="8.494927"><ele>102</ele></trkpt>
   <trkpt lat="50.02799" lon="8.493817"><ele>103</ele></trkpt>
   <trkpt lat="50.027791" lon="8.493087"><ele>103</ele></trkpt>
   <trkpt lat="50.027623" lon="8.492409"><ele>102.75</ele></trkpt>
   <trkpt lat="50.027373" lon="8.491297"><ele>101.5</ele></trkpt>
   <trkpt lat="50.027247" lon="8.490666"><ele>101.75</ele></trkpt>
   <trkpt lat="50.027031" lon="8.489394"><ele>99.75</ele></trkpt>
   <trkpt lat="50.026917" lon="8.488559"><ele>98</ele></trkpt>
   <trkpt lat="50.02683" lon="8.487853"><ele>97</ele></trkpt>
   <trkpt lat="50.02675" lon="8.48702"><ele>96.75</ele></trkpt>
   <trkpt lat="50.026681" lon="8.486125"><ele>96.25</ele></trkpt>
   <trkpt lat="50.026581" lon="8.484093"><ele>96.25</ele></trkpt>
   <trkpt lat="50.026515" lon="8.482766"><ele>96.75</ele></trkpt>
   <trkpt lat="50.026472" lon="8.482064"><ele>96.5</ele></trkpt>
   <trkpt lat="50.026421" lon="8.481449"><ele>96.75</ele></trkpt>
   <trkpt lat="50.026365" lon="8.480887"><ele>96.5</ele></trkpt>
   <trkpt lat="50.02628" lon="8.48011"><ele>96.25</ele></trkpt>
   <trkpt lat="50.026179" lon="8.4795"><ele>96</ele></trkpt>
   <trkpt lat="50.02605" lon="8.478952"><ele>95.75</ele></trkpt>
   <trkpt lat="50.025896" lon="8.478377"><ele>95.75</ele></trkpt>
   <trkpt lat="50.025785" lon="8.47799"><ele>95.75</ele></trkpt>
   <trkpt lat="50.025592" lon="8.477386"><ele>95.5</ele></trkpt>
   <trkpt lat="50.025494" lon="8.477108"><ele>95.75</ele></trkpt>
   <trkpt lat="50.025268" lon="8.476519"><ele>95.5</ele></trkpt>
   <trkpt lat="50.025148" lon="8.476235"><ele>95.25</ele></trkpt>
   <trkpt lat="50.025065" lon="8.476045"><ele>95.25</ele></trkpt>
   <trkpt lat="50.024903" lon="8.475697"><ele>94.5</ele></trkpt>
   <trkpt lat="50.024671" lon="8.475231"><ele>93.75</ele></trkpt>
   <trkpt lat="50.024566" lon="8.475042"><ele>93.5</ele></trkpt>
   <trkpt lat="50.024436" lon="8.474806"><ele>93.25</ele></trkpt>
   <trkpt lat="50.02421" lon="8.474425"><ele>92.5</ele></trkpt>
   <trkpt lat="50.023878" lon="8.473916"><ele>93</ele></trkpt>
   <trkpt lat="50.023647" lon="8.473594"><ele>93.25</ele></trkpt>
   <trkpt lat="50.023407" lon="8.473282"><ele>93.5</ele></trkpt>
   <trkpt lat="50.022945" lon="8.472724"><ele>94.5</ele></trkpt>
   <trkpt lat="50.022693" lon="8.472435"><ele>94.75</ele></trkpt>
   <trkpt lat="50.022042" lon="8.471652"><ele>94</ele></trkpt>
   <trkpt lat="50.02148" lon="8.470945"><ele>94.5</ele></trkpt>
   <trkpt lat="50.020758" lon="8.469999"><ele>94.75</ele></trkpt>
   <trkpt lat="50.019956" lon="8.469027"><ele>97</ele></trkpt>
   <trkpt lat="50.019928" lon="8.468992"><ele>96.75</ele></trkpt>
   <trkpt lat="50.019811" lon="8.468855"><ele>96.25</ele></trkpt>
   <trkpt lat="50.018321" lon="8.467044"><ele>94.75</ele></trkpt>
   <trkpt lat="50.018013" lon="8.466682"><ele>95.5</ele></trkpt>
   <trkpt lat="50.016965" lon="8.46545"><ele>94</ele></trkpt>
   <trkpt lat="50.016363" lon="8.464701"><ele>95</ele></trkpt>
   <trkpt lat="50.015817" lon="8.464038"><ele>94.75</ele></trkpt>
   <trkpt lat="50.015363" lon="8.463457"><ele>95</ele></trkpt>
   <trkpt lat="50.014975" lon="8.462935"><ele>95.5</ele></trkpt>
   <trkpt lat="50.01425" lon="8.461933"><ele>94.25</ele></trkpt>
   <trkpt lat="50.013791" lon="8.461298"><ele>92.75</ele></trkpt>
   <trkpt lat="50.013421" lon="8.460756"><ele>91.75</ele></trkpt>
   <trkpt lat="50.013172" lon="8.460383"><ele>92</ele></trkpt>
   <trkpt lat="50.012404" lon="8.459199"><ele>91.75</ele></trkpt>
   <trkpt lat="50.011675" lon="8.458011"><ele>90.25</ele></trkpt>
   <trkpt lat="50.01135" lon="8.457443"><ele>91.25</ele></trkpt>
   <trkpt lat="50.0108" lon="8.456551"><ele>92</ele></trkpt>
   <trkpt lat="50.010771" lon="8.456499"><ele>92</ele></trkpt>
   <trkpt lat="50.010744" lon="8.45645"><ele>92.25</ele></trkpt>
   <trkpt lat="50.01046" lon="8.455995"><ele>92.5</ele></trkpt>
   <trkpt lat="50.01011" lon="8.455495"><ele>92</ele></trkpt>
   <trkpt lat="50.010065" lon="8.455426"><ele>92</ele></trkpt>
   <trkpt lat="50.009951" lon="8.455252"><ele>91.75</ele></trkpt>
   <trkpt lat="50.009784" lon="8.454964"><ele>91.25</ele></trkpt>
   <trkpt lat="50.009556" lon="8.454571"><ele>90.5</ele></trkpt>
   <trkpt lat="50.008964" lon="8.453511"><ele>90</ele></trkpt>
   <trkpt lat="50.008712" lon="8.453033"><ele>90.25</ele></trkpt>
   <trkpt lat="50.007766" lon="8.451279"><ele>90.75</ele></trkpt>
   <trkpt lat="50.006394" lon="8.448831"><ele>90.5</ele></trkpt>
   <trkpt lat="50.006243" lon="8.44856"><ele>90.25</ele></trkpt>
   <trkpt lat="50.005855" lon="8.447778"><ele>90</ele></trkpt>
   <trkpt lat="50.005723" lon="8.447542"><ele>90</ele></trkpt>
   <trkpt lat="50.005237" lon="8.446594"><ele>90</ele></trkpt>
   <trkpt lat="50.003162" lon="8.442917"><ele>90.5</ele></trkpt>
   <trkpt lat="50.003135" lon="8.44287"><ele>90.5</ele></trkpt>
   <trkpt lat="50.002948" lon="8.442534"><ele>90.75</ele></trkpt>
   <trkpt lat="50.002648" lon="8.442014"><ele>91.5</ele></trkpt>
   <trkpt lat="50.002573" lon="8.441879"><ele>91.75</ele></trkpt>
   <trkpt lat="50.000034" lon="8.437337"><ele>89</ele></trkpt>
   <trkpt lat="49.998939" lon="8.43542"><ele>88.25</ele></trkpt>
   <trkpt lat="49.99874" lon="8.435067"><ele>88</ele></trkpt>
   <trkpt lat="49.998631" lon="8.434861"><ele>88</ele></trkpt>
   <trkpt lat="49.998003" lon="8.433662"><ele>88.75</ele></trkpt>
   <trkpt lat="49.997564" lon="8.432794"><ele>89</ele></trkpt>
   <trkpt lat="49.997131" lon="8.431871"><ele>87.5</ele></trkpt>
   <trkpt lat="49.996721" lon="8.430911"><ele>87.75</ele></trkpt>
   <trkpt lat="49.99621" lon="8.42971"><ele>89.25</ele></trkpt>
   <trkpt lat="49.995932" lon="8.429007"><ele>89.75</ele></trkpt>
   <trkpt lat="49.995648" lon="8.428262"><ele>88.75</ele></trkpt>
   <trkpt lat="49.995345" lon="8.427389"><ele>88.25</ele></trkpt>
   <trkpt lat="49.995203" lon="8.426979"><ele>87.75</ele></trkpt>
   <trkpt lat="49.9948" lon="8.425672"><ele>86</ele></trkpt>
   <trkpt lat="49.994562" lon="8.424903"><ele>87.75</ele></trkpt>
   <trkpt lat="49.99443" lon="8.424426"><ele>88.75</ele></trkpt>
   <trkpt lat="49.994222" lon="8.423622"><ele>91.75</ele></trkpt>
   <trkpt lat="49.993813" lon="8.422046"><ele>90.75</ele></trkpt>
   <trkpt lat="49.993124" lon="8.419331"><ele>88.5</ele></trkpt>
   <trkpt lat="49.992917" lon="8.418515"><ele>89.75</ele></trkpt>
   <trkpt lat="49.992673" lon="8.417554"><ele>90.5</ele></trkpt>
   <trkpt lat="49.992158" lon="8.415472"><ele>90.5</ele></trkpt>
   <trkpt lat="49.991667" lon="8.413591"><ele>89.25</ele></trkpt>
   <trkpt lat="49.991517" lon="8.413028"><ele>90.25</ele></trkpt>
   <trkpt lat="49.991243" lon="8.411931"><ele>94</ele></trkpt>
   <trkpt lat="49.991216" lon="8.411827"><ele>94.25</ele></trkpt>
   <trkpt lat="49.990933" lon="8.410706"><ele>93.75</ele></trkpt>
   <trkpt lat="49.99091" lon="8.410615"><ele>93.5</ele></trkpt>
   <trkpt lat="49.990667" lon="8.409674"><ele>91.25</ele></trkpt>
   <trkpt lat="49.990359" lon="8.408493"><ele>89</ele></trkpt>
   <trkpt lat="49.989789" lon="8.406383"><ele>91</ele></trkpt>
   <trkpt lat="49.989623" lon="8.405737"><ele>92</ele></trkpt>
   <trkpt lat="49.989431" lon="8.405068"><ele>91.25</ele></trkpt>
   <trkpt lat="49.98923" lon="8.404336"><ele>91</ele></trkpt>
   <trkpt lat="49.989099" lon="8.403891"><ele>90.75</ele></trkpt>
   <trkpt lat="49.9884" lon="8.401187"><ele>89</ele></trkpt>
   <trkpt lat="49.988028" lon="8.399832"><ele>89</ele></trkpt>
   <trkpt lat="49.987899" lon="8.39936"><ele>88</ele></trkpt>
   <trkpt lat="49.987533" lon="8.398008"><ele>86.5</ele></trkpt>
   <trkpt lat="49.98719" lon="8.396675"><ele>88.25</ele></trkpt>
   <trkpt lat="49.986985" lon="8.395838"><ele>88.75</ele></trkpt>
   <trkpt lat="49.986376" lon="8.393351"><ele>93</ele></trkpt>
   <trkpt lat="49.985976" lon="8.39159"><ele>91</ele></trkpt>
   <trkpt lat="49.985825" lon="8.390976"><ele>89</ele></trkpt>
   <trkpt lat="49.985742" lon="8.39067"><ele>89</ele></trkpt>
   <trkpt lat="49.985559" lon="8.389928"><ele>88.5</ele></trkpt>
   <trkpt lat="49.985047" lon="8.387938"><ele>86</ele></trkpt>
   <trkpt lat="49.984793" lon="8.386912"><ele>85.25</ele></trkpt>
   <trkpt lat="49.984575" lon="8.385905"><ele>86.75</ele></trkpt>
   <trkpt lat="49.984548" lon="8.38575"><ele>87</ele></trkpt>
   <trkpt lat="49.984456" lon="8.385218"><ele>87</ele></trkpt>
   <trkpt lat="49.984383" lon="8.384695"><ele>87.25</ele></trkpt>
   <trkpt lat="49.984308" lon="8.384072"><ele>87.5</ele></trkpt>
   <trkpt lat="49.984252" lon="8.383443"><ele>86.5</ele></trkpt>
   <trkpt lat="49.984227" lon="8.382948"><ele>86</ele></trkpt>
   <trkpt lat="49.984212" lon="8.38245"><ele>85.75</ele></trkpt>
   <trkpt lat="49.984195" lon="8.381866"><ele>85</ele></trkpt>
   <trkpt lat="49.984216" lon="8.381105"><ele>84.75</ele></trkpt>
   <trkpt lat="49.984236" lon="8.380643"><ele>84.5</ele></trkpt>
   <trkpt lat="49.984259" lon="8.380253"><ele>84.25</ele></trkpt>
   <trkpt lat="49.984295" lon="8.379796"><ele>84</ele></trkpt>
   <trkpt lat="49.984337" lon="8.379357"><ele>84</ele></trkpt>
   <trkpt lat="49.984418" lon="8.378696"><ele>84</ele></trkpt>
   <trkpt lat="49.984519" lon="8.378054"><ele>84.75</ele></trkpt>
   <trkpt lat="49.984579" lon="8.37771"><ele>85.5</ele></trkpt>
   <trkpt lat="49.984716" lon="8.377052"><ele>86</ele></trkpt>
   <trkpt lat="49.984821" lon="8.376609"><ele>85.75</ele></trkpt>
   <trkpt lat="49.984907" lon="8.376269"><ele>85.75</ele></trkpt>
   <trkpt lat="49.985115" lon="8.375555"><ele>85.5</ele></trkpt>
   <trkpt lat="49.985242" lon="8.375159"><ele>85.25</ele></trkpt>
   <trkpt lat="49.985378" lon="8.374772"><ele>85.75</ele></trkpt>
   <trkpt lat="49.985522" lon="8.374388"><ele>86.5</ele></trkpt>
   <trkpt lat="49.985671" lon="8.374016"><ele>87</ele></trkpt>
   <trkpt lat="49.9858" lon="8.373713"><ele>87</ele></trkpt>
   <trkpt lat="49.985965" lon="8.37335"><ele>86.75</ele></trkpt>
   <trkpt lat="49.986307" lon="8.372637"><ele>87.25</ele></trkpt>
   <trkpt lat="49.986646" lon="8.371991"><ele>86.75</ele></trkpt>
   <trkpt lat="49.986811" lon="8.371666"><ele>86.25</ele></trkpt>
   <trkpt lat="49.98811" lon="8.369217"><ele>86.75</ele></trkpt>
   <trkpt lat="49.988625" lon="8.368232"><ele>85.5</ele></trkpt>
   <trkpt lat="49.989716" lon="8.366182"><ele>86.25</ele></trkpt>
   <trkpt lat="49.990207" lon="8.365093"><ele>86</ele></trkpt>
   <trkpt lat="49.990494" lon="8.364563"><ele>87</ele></trkpt>
   <trkpt lat="49.990995" lon="8.363513"><ele>88</ele></trkpt>
   <trkpt lat="49.99125" lon="8.362957"><ele>88.5</ele></trkpt>
   <trkpt lat="49.991422" lon="8.362552"><ele>88.75</ele></trkpt>
   <trkpt lat="49.991711" lon="8.36171"><ele>85.25</ele></trkpt>
   <trkpt lat="49.991901" lon="8.361198"><ele>86.75</ele></trkpt>
   <trkpt lat="49.992123" lon="8.360444"><ele>87.25</ele></trkpt>
   <trkpt lat="49.992402" lon="8.359556"><ele>87.75</ele></trkpt>
   <trkpt lat="49.992415" lon="8.359521"><ele>87.75</ele></trkpt>
   <trkpt lat="49.992599" lon="8.358968"><ele>89</ele></trkpt>
   <trkpt lat="49.992722" lon="8.358605"><ele>89.25</ele></trkpt>
   <trkpt lat="49.992845" lon="8.358229"><ele>89.5</ele></trkpt>
   <trkpt lat="49.993268" lon="8.357003"><ele>88.25</ele></trkpt>
   <trkpt lat="49.993285" lon="8.35695"><ele>88.25</ele></trkpt>
   <trkpt lat="49.993561" lon="8.356162"><ele>87.5</ele></trkpt>
   <trkpt lat="49.993953" lon="8.354876"><ele>86.75</ele></trkpt>
   <trkpt lat="49.993981" lon="8.35478"><ele>86.75</ele></trkpt>
   <trkpt lat="49.994059" lon="8.354546"><ele>86.5</ele></trkpt>
   <trkpt lat="49.994252" lon="8.353823"><ele>86.25</ele></trkpt>
   <trkpt lat="49.994342" lon="8.353488"><ele>86.5</ele></trkpt>
   <trkpt lat="49.994513" lon="8.352819"><ele>86.75</ele></trkpt>
   <trkpt lat="49.994607" lon="8.352415"><ele>86.75</ele></trkpt>
   <trkpt lat="49.994763" lon="8.35164"><ele>85.5</ele></trkpt>
   <trkpt lat="49.99489" lon="8.350889"><ele>86.75</ele></trkpt>
   <trkpt lat="49.995024" lon="8.349979"><ele>84.75</ele></trkpt>
   <trkpt lat="49.995097" lon="8.349273"><ele>84.75</ele></trkpt>
   <trkpt lat="49.995172" lon="8.348298"><ele>86.75</ele></trkpt>
   <trkpt lat="49.995208" lon="8.347579"><ele>86.25</ele></trkpt>
   <trkpt lat="49.995235" lon="8.346844"><ele>86.5</ele></trkpt>
   <trkpt lat="49.995239" lon="8.346379"><ele>86.25</ele></trkpt>
   <trkpt lat="49.995238" lon="8.345402"><ele>87</ele></trkpt>
   <trkpt lat="49.99516" lon="8.342204"><ele>86.25</ele></trkpt>
   <trkpt lat="49.995062" lon="8.338918"><ele>86</ele></trkpt>
   <trkpt lat="49.994886" lon="8.332498"><ele>87.75</ele></trkpt>
   <trkpt lat="49.994885" lon="8.332479"><ele>87.75</ele></trkpt>
   <trkpt lat="49.99483" lon="8.329913"><ele>85.25</ele></trkpt>
   <trkpt lat="49.994786" lon="8.328845"><ele>87.5</ele></trkpt>
   <trkpt lat="49.994765" lon="8.327595"><ele>86</ele></trkpt>
   <trkpt lat="49.994723" lon="8.325877"><ele>87.25</ele></trkpt>
   <trkpt lat="49.994577" lon="8.320559"><ele>87.75</ele></trkpt>
   <trkpt lat="49.994537" lon="8.319106"><ele>85.75</ele></trkpt>
   <trkpt lat="49.994493" lon="8.317827"><ele>86.75</ele></trkpt>
   <trkpt lat="49.99446" lon="8.317222"><ele>87.25</ele></trkpt>
   <trkpt lat="49.99446" lon="8.317218"><ele>87.25</ele></trkpt>
   <trkpt lat="49.994434" lon="8.316761"><ele>87.5</ele></trkpt>
   <trkpt lat="49.994386" lon="8.316203"><ele>87.5</ele></trkpt>
   <trkpt lat="49.994285" lon="8.31546"><ele>87.75</ele></trkpt>
   <trkpt lat="49.994187" lon="8.314006"><ele>87.75</ele></trkpt>
   <trkpt lat="49.994081" lon="8.312514"><ele>86</ele></trkpt>
   <trkpt lat="49.994058" lon="8.312174"><ele>85.5</ele></trkpt>
   <trkpt lat="49.994033" lon="8.311612"><ele>85</ele></trkpt>
   <trkpt lat="49.994023" lon="8.311233"><ele>85</ele></trkpt>
   <trkpt lat="49.994015" lon="8.310374"><ele>85.75</ele></trkpt>
   <trkpt lat="49.993987" lon="8.309467"><ele>86.5</ele></trkpt>
   <trkpt lat="49.993954" lon="8.309011"><ele>86.5</ele></trkpt>
   <trkpt lat="49.993932" lon="8.308234"><ele>87</ele></trkpt>
   <trkpt lat="49.993903" lon="8.307812"><ele>85.75</ele></trkpt>
   <trkpt lat="49.993819" lon="8.306576"><ele>83.75</ele></trkpt>
   <trkpt lat="49.993794" lon="8.306182"><ele>83.75</ele></trkpt>
   <trkpt lat="49.993734" lon="8.305295"><ele>83.5</ele></trkpt>
   <trkpt lat="49.993655" lon="8.304092"><ele>84</ele></trkpt>
   <trkpt lat="49.993586" lon="8.3031"><ele>85.5</ele></trkpt>
   <trkpt lat="49.993562" lon="8.302601"><ele>86.75</ele></trkpt>
   <trkpt lat="49.993554" lon="8.302503"><ele>86.75</ele></trkpt>
   <trkpt lat="49.993481" lon="8.301641"><ele>87</ele></trkpt>
   <trkpt lat="49.993431" lon="8.301202"><ele>87.25</ele></trkpt>
   <trkpt lat="49.993366" lon="8.300756"><ele>87.25</ele></trkpt>
   <trkpt lat="49.993265" lon="8.300198"><ele>87.5</ele></trkpt>
   <trkpt lat="49.993188" lon="8.299835"><ele>87.75</ele></trkpt>
   <trkpt lat="49.9931" lon="8.29946"><ele>88</ele></trkpt>
   <trkpt lat="49.992823" lon="8.298438"><ele>88.25</ele></trkpt>
   <trkpt lat="49.992289" lon="8.296371"><ele>89.25</ele></trkpt>
   <trkpt lat="49.992055" lon="8.295492"><ele>89.5</ele></trkpt>
   <trkpt lat="49.991431" lon="8.293178"><ele>90.5</ele></trkpt>
   <trkpt lat="49.990888" lon="8.29118"><ele>91.5</ele></trkpt>
   <trkpt lat="49.9908" lon="8.290851"><ele>91.5</ele></trkpt>
   <trkpt lat="49.990698" lon="8.290468"><ele>91.75</ele></trkpt>
   <trkpt lat="49.990678" lon="8.290377"><ele>92.25</ele></trkpt>
   <trkpt lat="49.990603" lon="8.290025"><ele>94.25</ele></trkpt>
   <trkpt lat="49.990542" lon="8.289634"><ele>96.75</ele></trkpt>
   <trkpt lat="49.990518" lon="8.289415"><ele>96.75</ele></trkpt>
   <trkpt lat="49.99049" lon="8.289049"><ele>97.5</ele></trkpt>
   <trkpt lat="49.990481" lon="8.288884"><ele>97.75</ele></trkpt>
   <trkpt lat="49.990481" lon="8.288496"><ele>97.75</ele></trkpt>
   <trkpt lat="49.990493" lon="8.288202"><ele>97.5</ele></trkpt>
   <trkpt lat="49.990532" lon="8.287801"><ele>96.75</ele></trkpt>
   <trkpt lat="49.990594" lon="8.287413"><ele>96.75</ele></trkpt>
   <trkpt lat="49.990611" lon="8.287318"><ele>97.25</ele></trkpt>
   <trkpt lat="49.990688" lon="8.28696"><ele>99.25</ele></trkpt>
   <trkpt lat="49.990758" lon="8.286681"><ele>100.75</ele></trkpt>
   <trkpt lat="49.990853" lon="8.286362"><ele>100</ele></trkpt>
   <trkpt lat="49.990965" lon="8.286054"><ele>99</ele></trkpt>
   <trkpt lat="49.991335" lon="8.285149"><ele>97.75</ele></trkpt>
   <trkpt lat="49.99188" lon="8.283815"><ele>94.75</ele></trkpt>
   <trkpt lat="49.99202" lon="8.283433"><ele>96.25</ele></trkpt>
   <trkpt lat="49.992132" lon="8.283102"><ele>97.25</ele></trkpt>
   <trkpt lat="49.992235" lon="8.282802"><ele>97.25</ele></trkpt>
   <trkpt lat="49.992239" lon="8.28279"><ele>97.25</ele></trkpt>
   <trkpt lat="49.992384" lon="8.28231"><ele>97.25</ele></trkpt>
   <trkpt lat="49.992634" lon="8.281353"><ele>97.25</ele></trkpt>
   <trkpt lat="49.992709" lon="8.281051"><ele>97.25</ele></trkpt>
   <trkpt lat="49.992797" lon="8.280697"><ele>97.75</ele></trkpt>
   <trkpt lat="49.993268" lon="8.278681"><ele>98.5</ele></trkpt>
   <trkpt lat="49.99358" lon="8.277348"><ele>99.25</ele></trkpt>
   <trkpt lat="49.9936" lon="8.277266"><ele>99.5</ele></trkpt>
   <trkpt lat="49.993696" lon="8.276779"><ele>101.5</ele></trkpt>
   <trkpt lat="49.993849" lon="8.275963"><ele>104.75</ele></trkpt>
   <trkpt lat="49.993937" lon="8.275504"><ele>105.75</ele></trkpt>
   <trkpt lat="49.994206" lon="8.274273"><ele>109</ele></trkpt>
   <trkpt lat="49.994259" lon="8.273936"><ele>110</ele></trkpt>
   <trkpt lat="49.994287" lon="8.273695"><ele>110.5</ele></trkpt>
   <trkpt lat="49.994326" lon="8.273187"><ele>112</ele></trkpt>
   <trkpt lat="49.994336" lon="8.272607"><ele>113.5</ele></trkpt>
   <trkpt lat="49.994285" lon="8.271903"><ele>115.25</ele></trkpt>
   <trkpt lat="49.994248" lon="8.271631"><ele>116</ele></trkpt>
   <trkpt lat="49.994185" lon="8.271034"><ele>116</ele></trkpt>
   <trkpt lat="49.99403" lon="8.269772"><ele>116.75</ele></trkpt>
   <trkpt lat="49.993965" lon="8.269217"><ele>115.5</ele></trkpt>
   <trkpt lat="49.993923" lon="8.268719"><ele>115.5</ele></trkpt>
   <trkpt lat="49.993914" lon="8.268389"><ele>115.5</ele></trkpt>
   <trkpt lat="49.993917" lon="8.268077"><ele>117.75</ele></trkpt>
   <trkpt lat="49.993945" lon="8.26759"><ele>117</ele></trkpt>
   <trkpt lat="49.994047" lon="8.266815"><ele>116</ele></trkpt>
   <trkpt lat="49.994141" lon="8.266376"><ele>115.25</ele></trkpt>
   <trkpt lat="49.994276" lon="8.2659"><ele>114.5</ele></trkpt>
   <trkpt lat="49.994417" lon="8.265483"><ele>114</ele></trkpt>
   <trkpt lat="49.994572" lon="8.265122"><ele>113.25</ele></trkpt>
   <trkpt lat="49.994618" lon="8.265011"><ele>113.25</ele></trkpt>
   <trkpt lat="49.994924" lon="8.264462"><ele>112.25</ele></trkpt>
   <trkpt lat="49.995171" lon="8.264094"><ele>111.5</ele></trkpt>
   <trkpt lat="49.995446" lon="8.263766"><ele>110.75</ele></trkpt>
   <trkpt lat="49.995872" lon="8.263351"><ele>109.5</ele></trkpt>
   <trkpt lat="49.998022" lon="8.261435"><ele>104.5</ele></trkpt>
   <trkpt lat="49.998116" lon="8.26135"><ele>104.5</ele></trkpt>
   <trkpt lat="49.998233" lon="8.261235"><ele>101.5</ele></trkpt>
   <trkpt lat="49.998591" lon="8.260934"><ele>97.25</ele></trkpt>
   <trkpt lat="49.998613" lon="8.260912"><ele>97</ele></trkpt>
   <trkpt lat="49.999271" lon="8.260359"><ele>92.75</ele></trkpt>
   <trkpt lat="49.999652" lon="8.260033"><ele>94.25</ele></trkpt>
   <trkpt lat="49.999668" lon="8.260019"><ele>94.25</ele></trkpt>
   <trkpt lat="49.999772" lon="8.259939"><ele>94.75</ele></trkpt>
   <trkpt lat="50.000073" lon="8.259656"><ele>95.5</ele></trkpt>
   <trkpt lat="50.000231" lon="8.259511"><ele>95.5</ele></trkpt>
   <trkpt lat="50.000976" lon="8.258855"><ele>94.5</ele></trkpt>
   <trkpt lat="50.000996" lon="8.258837"><ele>94.5</ele></trkpt>
   <trkpt lat="50.001019" lon="8.258816"><ele>94.5</ele></trkpt>
   <trkpt lat="50.001049" lon="8.25879"><ele>94.5</ele></trkpt>
   <trkpt lat="50.001187" lon="8.258666"><ele>94.25</ele></trkpt>
   <trkpt lat="50.001283" lon="8.25858"><ele>94.25</ele></trkpt>
   <trkpt lat="50.001574" lon="8.25832"><ele>94</ele></trkpt>
   <trkpt lat="50.00159" lon="8.258306"><ele>94</ele></trkpt>
   <trkpt lat="50.001605" lon="8.258292"><ele>94</ele></trkpt>
   <trkpt lat="50.001628" lon="8.258272"><ele>94.25</ele></trkpt>
   <trkpt lat="50.001991" lon="8.257956"><ele>96.25</ele></trkpt>
   <trkpt lat="50.002045" lon="8.257908"><ele>96.5</ele></trkpt>
   <trkpt lat="50.002855" lon="8.257178"><ele>95.25</ele></trkpt>
   <trkpt lat="50.002863" lon="8.257172"><ele>95.25</ele></trkpt>
   <trkpt lat="50.003118" lon="8.25694"><ele>92.25</ele></trkpt>
   <trkpt lat="50.003429" lon="8.256634"><ele>89.5</ele></trkpt>
   <trkpt lat="50.003559" lon="8.256492"><ele>90.5</ele></trkpt>
   <trkpt lat="50.003728" lon="8.256285"><ele>91.5</ele></trkpt>
   <trkpt lat="50.003876" lon="8.25607"><ele>92</ele></trkpt>
   <trkpt lat="50.004009" lon="8.255897"><ele>92</ele></trkpt>
   <trkpt lat="50.004272" lon="8.25558"><ele>91.75</ele></trkpt>
   <trkpt lat="50.004298" lon="8.255554"><ele>91.75</ele></trkpt>
   <trkpt lat="50.004328" lon="8.255519"><ele>92</ele></trkpt>
   <trkpt lat="50.004346" lon="8.255499"><ele>92</ele></trkpt>
   <trkpt lat="50.004518" lon="8.255287"><ele>92</ele></trkpt>
   <trkpt lat="50.004707" lon="8.255048"><ele>92.25</ele></trkpt>
   <trkpt lat="50.004892" lon="8.254795"><ele>92.5</ele></trkpt>
   <trkpt lat="50.005165" lon="8.254443"><ele>92</ele></trkpt>
   <trkpt lat="50.005347" lon="8.254223"><ele>91.5</ele></trkpt>
   <trkpt lat="50.005642" lon="8.253872"><ele>90.75</ele></trkpt>
   <trkpt lat="50.006014" lon="8.253363"><ele>90</ele></trkpt>
   <trkpt lat="50.007056" lon="8.252135"><ele>91</ele></trkpt>
   <trkpt lat="50.008096" lon="8.250891"><ele>91.5</ele></trkpt>
   <trkpt lat="50.008186" lon="8.250786"><ele>91.5</ele></trkpt>
   <trkpt lat="50.008538" lon="8.250363"><ele>91</ele></trkpt>
   <trkpt lat="50.008604" lon="8.25028"><ele>90.75</ele></trkpt>
   <trkpt lat="50.008924" lon="8.249984"><ele>90.5</ele></trkpt>
   <trkpt lat="50.00918" lon="8.249682"><ele>90.5</ele></trkpt>
   <trkpt lat="50.009191" lon="8.249668"><ele>90.5</ele></trkpt>
   <trkpt lat="50.009795" lon="8.248953"><ele>89.75</ele></trkpt>
   <trkpt lat="50.010286" lon="8.248371"><ele>89.5</ele></trkpt>
   <trkpt lat="50.010924" lon="8.247571"><ele>89.75</ele></trkpt>
   <trkpt lat="50.011566" lon="8.246707"><ele>88</ele></trkpt>
   <trkpt lat="50.012007" lon="8.246143"><ele>88</ele></trkpt>
   <trkpt lat="50.01228" lon="8.245816"><ele>88</ele></trkpt>
   <trkpt lat="50.013161" lon="8.244765"><ele>88</ele></trkpt>
   <trkpt lat="50.013453" lon="8.24443"><ele>88</ele></trkpt>
   <trkpt lat="50.013932" lon="8.243912"><ele>88</ele></trkpt>
   <trkpt lat="50.014273" lon="8.243593"><ele>88</ele></trkpt>
   <trkpt lat="50.014756" lon="8.243228"><ele>88</ele></trkpt>
   <trkpt lat="50.015104" lon="8.242997"><ele>88</ele></trkpt>
   <trkpt lat="50.015555" lon="8.242731"><ele>88</ele></trkpt>
   <trkpt lat="50.01591" lon="8.242565"><ele>88.25</ele></trkpt>
   <trkpt lat="50.016282" lon="8.242461"><ele>88.25</ele></trkpt>
   <trkpt lat="50.016564" lon="8.242418"><ele>88</ele></trkpt>
   <trkpt lat="50.01671" lon="8.242414"><ele>87.75</ele></trkpt>
   <trkpt lat="50.01688" lon="8.242414"><ele>88</ele></trkpt>
   <trkpt lat="50.017045" lon="8.24243"><ele>88.25</ele></trkpt>
   <trkpt lat="50.017251" lon="8.242466"><ele>88.5</ele></trkpt>
   <trkpt lat="50.017454" lon="8.242523"><ele>88.75</ele></trkpt>
   <trkpt lat="50.017817" lon="8.242665"><ele>88.75</ele></trkpt>
   <trkpt lat="50.01804" lon="8.242787"><ele>88.75</ele></trkpt>
   <trkpt lat="50.018225" lon="8.242908"><ele>88.5</ele></trkpt>
   <trkpt lat="50.018401" lon="8.243036"><ele>88.5</ele></trkpt>
   <trkpt lat="50.018618" lon="8.243224"><ele>88.5</ele></trkpt>
   <trkpt lat="50.018767" lon="8.243374"><ele>88.25</ele></trkpt>
   <trkpt lat="50.018971" lon="8.243603"><ele>88.25</ele></trkpt>
   <trkpt lat="50.019149" lon="8.243841"><ele>88.5</ele></trkpt>
   <trkpt lat="50.019325" lon="8.244107"><ele>88.5</ele></trkpt>
   <trkpt lat="50.01961" lon="8.244615"><ele>89</ele></trkpt>
   <trkpt lat="50.019754" lon="8.244926"><ele>89.25</ele></trkpt>
   <trkpt lat="50.019842" lon="8.245146"><ele>89.25</ele></trkpt>
   <trkpt lat="50.019955" lon="8.245454"><ele>89</ele></trkpt>
   <trkpt lat="50.020074" lon="8.245846"><ele>89</ele></trkpt>
   <trkpt lat="50.020154" lon="8.246177"><ele>89.25</ele></trkpt>
   <trkpt lat="50.020246" lon="8.246649"><ele>89.5</ele></trkpt>
   <trkpt lat="50.020319" lon="8.24715"><ele>89.75</ele></trkpt>
   <trkpt lat="50.020537" lon="8.248766"><ele>89.5</ele></trkpt>
   <trkpt lat="50.020562" lon="8.248901"><ele>89.5</ele></trkpt>
   <trkpt lat="50.020627" lon="8.249253"><ele>89.5</ele></trkpt>
   <trkpt lat="50.020709" lon="8.249606"><ele>89.5</ele></trkpt>
   <trkpt lat="50.020801" lon="8.249945"><ele>89</ele></trkpt>
   <trkpt lat="50.020906" lon="8.250295"><ele>88.5</ele></trkpt>
   <trkpt lat="50.021088" lon="8.250773"><ele>88</ele></trkpt>
   <trkpt lat="50.021295" lon="8.251238"><ele>88</ele></trkpt>
   <trkpt lat="50.02153" lon="8.25173"><ele>88</ele></trkpt>
   <trkpt lat="50.023329" lon="8.255192"><ele>89</ele></trkpt>
   <trkpt lat="50.023413" lon="8.255353"><ele>89</ele></trkpt>
   <trkpt lat="50.024008" lon="8.256493"><ele>89.5</ele></trkpt>
   <trkpt lat="50.025722" lon="8.259772"><ele>90.25</ele></trkpt>
   <trkpt lat="50.026439" lon="8.261177"><ele>90.75</ele></trkpt>
   <trkpt lat="50.026945" lon="8.262135"><ele>90.75</ele></trkpt>
   <trkpt lat="50.028115" lon="8.264392"><ele>91.5</ele></trkpt>
   <trkpt lat="50.028272" lon="8.264687"><ele>91.5</ele></trkpt>
   <trkpt lat="50.028512" lon="8.26514"><ele>92</ele></trkpt>
   <trkpt lat="50.028759" lon="8.265591"><ele>92</ele></trkpt>
   <trkpt lat="50.028937" lon="8.265887"><ele>91.75</ele></trkpt>
   <trkpt lat="50.029091" lon="8.266118"><ele>91.75</ele></trkpt>
   <trkpt lat="50.029213" lon="8.266301"><ele>91.75</ele></trkpt>
   <trkpt lat="50.029332" lon="8.266465"><ele>91.75</ele></trkpt>
   <trkpt lat="50.029548" lon="8.266729"><ele>91.75</ele></trkpt>
   <trkpt lat="50.029805" lon="8.266971"><ele>91.5</ele></trkpt>
   <trkpt lat="50.030035" lon="8.267159"><ele>91.25</ele></trkpt>
   <trkpt lat="50.030186" lon="8.267277"><ele>91</ele></trkpt>
   <trkpt lat="50.030388" lon="8.267396"><ele>90.5</ele></trkpt>
   <trkpt lat="50.03052" lon="8.267457"><ele>90.25</ele></trkpt>
   <trkpt lat="50.030552" lon="8.267471"><ele>90.25</ele></trkpt>
   <trkpt lat="50.030854" lon="8.267577"><ele>89.75</ele></trkpt>
   <trkpt lat="50.031203" lon="8.267639"><ele>90.5</ele></trkpt>
   <trkpt lat="50.031383" lon="8.267633"><ele>91</ele></trkpt>
   <trkpt lat="50.031461" lon="8.267631"><ele>91</ele></trkpt>
   <trkpt lat="50.031856" lon="8.267572"><ele>91.25</ele></trkpt>
   <trkpt lat="50.032285" lon="8.267413"><ele>90.5</ele></trkpt>
   <trkpt lat="50.032584" lon="8.267236"><ele>90.25</ele></trkpt>
   <trkpt lat="50.032805" lon="8.267074"><ele>90.5</ele></trkpt>
   <trkpt lat="50.032885" lon="8.267013"><ele>90.75</ele></trkpt>
   <trkpt lat="50.033329" lon="8.266538"><ele>90.75</ele></trkpt>
   <trkpt lat="50.033636" lon="8.266095"><ele>91</ele></trkpt>
   <trkpt lat="50.035318" lon="8.263071"><ele>93</ele></trkpt>
   <trkpt lat="50.035803" lon="8.262202"><ele>94</ele></trkpt>
   <trkpt lat="50.036526" lon="8.260893"><ele>94.75</ele></trkpt>
   <trkpt lat="50.036685" lon="8.260648"><ele>95</ele></trkpt>
   <trkpt lat="50.036934" lon="8.260301"><ele>95</ele></trkpt>
   <trkpt lat="50.037193" lon="8.259985"><ele>95</ele></trkpt>
   <trkpt lat="50.037578" lon="8.259554"><ele>95.5</ele></trkpt>
   <trkpt lat="50.037814" lon="8.259298"><ele>95.5</ele></trkpt>
   <trkpt lat="50.038224" lon="8.258891"><ele>95</ele></trkpt>
   <trkpt lat="50.03846" lon="8.258596"><ele>95</ele></trkpt>
   <trkpt lat="50.03873" lon="8.25834"><ele>95</ele></trkpt>
   <trkpt lat="50.038904" lon="8.258192"><ele>94.75</ele></trkpt>
   <trkpt lat="50.03924" lon="8.257943"><ele>94.5</ele></trkpt>
   <trkpt lat="50.039454" lon="8.257799"><ele>94.5</ele></trkpt>
   <trkpt lat="50.039662" lon="8.257659"><ele>94.75</ele></trkpt>
   <trkpt lat="50.039836" lon="8.257532"><ele>94.75</ele></trkpt>
   <trkpt lat="50.040118" lon="8.257327"><ele>94.75</ele></trkpt>
   <trkpt lat="50.040311" lon="8.257176"><ele>94.75</ele></trkpt>
   <trkpt lat="50.040701" lon="8.256814"><ele>94.25</ele></trkpt>
   <trkpt lat="50.040879" lon="8.256664"><ele>94</ele></trkpt>
   <trkpt lat="50.041195" lon="8.256438"><ele>95.75</ele></trkpt>
   <trkpt lat="50.041473" lon="8.256207"><ele>96.75</ele></trkpt>
   <trkpt lat="50.041496" lon="8.256186"><ele>96.75</ele></trkpt>
   <trkpt lat="50.041501" lon="8.256181"><ele>96.75</ele></trkpt>
   <trkpt lat="50.04164" lon="8.256059"><ele>97</ele></trkpt>
   <trkpt lat="50.041802" lon="8.255932"><ele>97.25</ele></trkpt>
   <trkpt lat="50.042103" lon="8.255718"><ele>97</ele></trkpt>
   <trkpt lat="50.042401" lon="8.255543"><ele>96.75</ele></trkpt>
   <trkpt lat="50.042635" lon="8.255418"><ele>96.5</ele></trkpt>
   <trkpt lat="50.042835" lon="8.255334"><ele>96.5</ele></trkpt>
   <trkpt lat="50.043444" lon="8.255147"><ele>96</ele></trkpt>
   <trkpt lat="50.04366" lon="8.25508"><ele>95.75</ele></trkpt>
   <trkpt lat="50.043975" lon="8.255009"><ele>95.75</ele></trkpt>
   <trkpt lat="50.044655" lon="8.254929"><ele>96.75</ele></trkpt>
   <trkpt lat="50.044839" lon="8.25492"><ele>97.25</ele></trkpt>
   <trkpt lat="50.044977" lon="8.254921"><ele>97.5</ele></trkpt>
   <trkpt lat="50.045172" lon="8.254915"><ele>97.25</ele></trkpt>
   <trkpt lat="50.04544" lon="8.254927"><ele>96.75</ele></trkpt>
   <trkpt lat="50.045455" lon="8.254929"><ele>96.5</ele></trkpt>
   <trkpt lat="50.045659" lon="8.254945"><ele>96.25</ele></trkpt>
   <trkpt lat="50.046554" lon="8.255074"><ele>98.25</ele></trkpt>
   <trkpt lat="50.046564" lon="8.255076"><ele>98.25</ele></trkpt>
   <trkpt lat="50.048176" lon="8.255326"><ele>96.5</ele></trkpt>
   <trkpt lat="50.048941" lon="8.255399"><ele>98.25</ele></trkpt>
   <trkpt lat="50.050068" lon="8.255511"><ele>98.25</ele></trkpt>
   <trkpt lat="50.050591" lon="8.255543"><ele>97.75</ele></trkpt>
   <trkpt lat="50.051084" lon="8.255548"><ele>97.5</ele></trkpt>
   <trkpt lat="50.05158" lon="8.255535"><ele>97.5</ele></trkpt>
   <trkpt lat="50.051614" lon="8.255534"><ele>97.5</ele></trkpt>
   <trkpt lat="50.051854" lon="8.25552"><ele>98</ele></trkpt>
   <trkpt lat="50.052413" lon="8.255465"><ele>99.5</ele></trkpt>
   <trkpt lat="50.052804" lon="8.255409"><ele>99</ele></trkpt>
   <trkpt lat="50.052937" lon="8.255385"><ele>98.75</ele></trkpt>
   <trkpt lat="50.05348" lon="8.255279"><ele>98</ele></trkpt>
   <trkpt lat="50.054034" lon="8.25513"><ele>97.25</ele></trkpt>
   <trkpt lat="50.054315" lon="8.255028"><ele>97.25</ele></trkpt>
   <trkpt lat="50.054808" lon="8.254827"><ele>98.5</ele></trkpt>
   <trkpt lat="50.055266" lon="8.254629"><ele>99.25</ele></trkpt>
   <trkpt lat="50.055783" lon="8.254387"><ele>99.25</ele></trkpt>
   <trkpt lat="50.056366" lon="8.254079"><ele>101.25</ele></trkpt>
   <trkpt lat="50.056613" lon="8.253928"><ele>101.75</ele></trkpt>
   <trkpt lat="50.056934" lon="8.253708"><ele>101.25</ele></trkpt>
   <trkpt lat="50.057426" lon="8.253303"><ele>100</ele></trkpt>
   <trkpt lat="50.057596" lon="8.25314"><ele>101.25</ele></trkpt>
   <trkpt lat="50.057927" lon="8.252797"><ele>104.25</ele></trkpt>
   <trkpt lat="50.058283" lon="8.252408"><ele>106.75</ele></trkpt>
   <trkpt lat="50.058732" lon="8.251877"><ele>106</ele></trkpt>
   <trkpt lat="50.059312" lon="8.251225"><ele>108.5</ele></trkpt>
   <trkpt lat="50.059794" lon="8.250734"><ele>111.75</ele></trkpt>
   <trkpt lat="50.060463" lon="8.250099"><ele>113.75</ele></trkpt>
   <trkpt lat="50.060569" lon="8.249998"><ele>113.5</ele></trkpt>
   <trkpt lat="50.061324" lon="8.249288"><ele>116.5</ele></trkpt>
   <trkpt lat="50.062025" lon="8.248673"><ele>115.25</ele></trkpt>
   <trkpt lat="50.06239" lon="8.248334"><ele>112.25</ele></trkpt>
   <trkpt lat="50.062715" lon="8.248047"><ele>112.75</ele></trkpt>
   <trkpt lat="50.062944" lon="8.247856"><ele>112.75</ele></trkpt>
   <trkpt lat="50.062953" lon="8.247849"><ele>112.75</ele></trkpt>
   <trkpt lat="50.063119" lon="8.247711"><ele>112.5</ele></trkpt>
   <trkpt lat="50.063315" lon="8.24758"><ele>111.5</ele></trkpt>
   <trkpt lat="50.063522" lon="8.247442"><ele>111.25</ele></trkpt>
   <trkpt lat="50.063767" lon="8.247244"><ele>110.75</ele></trkpt>
   <trkpt lat="50.063929" lon="8.247147"><ele>109.75</ele></trkpt>
   <trkpt lat="50.064036" lon="8.247096"><ele>109</ele></trkpt>
   <trkpt lat="50.064295" lon="8.247002"><ele>107.75</ele></trkpt>
   <trkpt lat="50.064553" lon="8.246915"><ele>107.5</ele></trkpt>
   <trkpt lat="50.065231" lon="8.246645"><ele>107.25</ele></trkpt>
   <trkpt lat="50.065535" lon="8.246532"><ele>107.75</ele></trkpt>
   <trkpt lat="50.065859" lon="8.246346"><ele>107.75</ele></trkpt>
   <trkpt lat="50.065872" lon="8.246339"><ele>108</ele></trkpt>
   <trkpt lat="50.066884" lon="8.245758"><ele>107.5</ele></trkpt>
   <trkpt lat="50.067178" lon="8.245574"><ele>107.25</ele></trkpt>
   <trkpt lat="50.06755" lon="8.245359"><ele>106.75</ele></trkpt>
   <trkpt lat="50.067865" lon="8.245179"><ele>106.5</ele></trkpt>
   <trkpt lat="50.06826" lon="8.244948"><ele>106.25</ele></trkpt>
   <trkpt lat="50.068302" lon="8.244923"><ele>106.25</ele></trkpt>
   <trkpt lat="50.06903" lon="8.244499"><ele>110.5</ele></trkpt>
   <trkpt lat="50.069047" lon="8.244489"><ele>110.5</ele></trkpt>
   <trkpt lat="50.069748" lon="8.244078"><ele>112.75</ele></trkpt>
   <trkpt lat="50.070314" lon="8.243771"><ele>113.75</ele></trkpt>
   <trkpt lat="50.070426" lon="8.243709"><ele>114</ele></trkpt>
   <trkpt lat="50.07046" lon="8.24369"><ele>114</ele></trkpt>
  </trkseg>
 </trk>
</gpx>