<?xml version="1.0" encoding="UTF-8"?>
<!-- track-length = 7025 filtered ascend = 6 plain-ascend = -15 cost=7025 energy=0.1kwh time=9m 21s -->
<gpx 
 xmlns="http://www.topografix.com/GPX/1/1" 
 xmlns:xsi="http://www.w3.org/2001/XMLSchema-instance" 
 xsi:schemaLocation="http://www.topografix.com/GPX/1/1 http://www.topografix.com/GPX/1/1/gpx.xsd" 
 version="1.1" 
 creator="BRouter-Web 0.18.1">
 <trk>
  <name>FFLU - FFS</name>
  <trkseg>
   <trkpt lat="50.066131" lon="8.61438"><ele>119.5</ele></trkpt>
   <trkpt lat="50.066137" lon="8.614396"><ele>119.5</ele></trkpt>
   <trkpt lat="50.066267" lon="8.6148"><ele>119.25</ele></trkpt>
   <trkpt lat="50.06641" lon="8.615341"><ele>118.75</ele></trkpt>
   <trkpt lat="50.066475" lon="8.615641"><ele>118.5</ele></trkpt>
   <trkpt lat="50.066529" lon="8.615935"><ele>118.25</ele></trkpt>
   <trkpt lat="50.066564" lon="8.616149"><ele>118</ele></trkpt>
   <trkpt lat="50.066608" lon="8.616491"><ele>117.75</ele></trkpt>
   <trkpt lat="50.066648" lon="8.616939"><ele>117.5</ele></trkpt>
   <trkpt lat="50.066659" lon="8.617081"><ele>117.5</ele></trkpt>
   <trkpt lat="50.066677" lon="8.617516"><ele>117</ele></trkpt>
   <trkpt lat="50.066693" lon="8.618674"><ele>115.5</ele></trkpt>
   <trkpt lat="50.066715" lon="8.620599"><ele>114</ele></trkpt>
   <trkpt lat="50.066717" lon="8.620807"><ele>114</ele></trkpt>
   <trkpt lat="50.066726" lon="8.62147"><ele>114</ele></trkpt>
   <trkpt lat="50.066736" lon="8.622361"><ele>113.25</ele></trkpt>
   <trkpt lat="50.066743" lon="8.623106"><ele>112.5</ele></trkpt>
   <trkpt lat="50.066759" lon="8.623731"><ele>112.25</ele></trkpt>
   <trkpt lat="50.06676" lon="8.62374"><ele>112.25</ele></trkpt>
   <trkpt lat="50.066769" lon="8.62396"><ele>112.25</ele></trkpt>
   <trkpt lat="50.066807" lon="8.624514"><ele>112.5</ele></trkpt>
   <trkpt lat="50.066851" lon="8.625036"><ele>113</ele></trkpt>
   <trkpt lat="50.066891" lon="8.62546"><ele>113</ele></trkpt>
   <trkpt lat="50.066897" lon="8.625522"><ele>113</ele></trkpt>
   <trkpt lat="50.067016" lon="8.627167"><ele>111.25</ele></trkpt>
   <trkpt lat="50.067025" lon="8.62726"><ele>111.25</ele></trkpt>
   <trkpt lat="50.067027" lon="8.627286"><ele>111.25</ele></trkpt>
   <trkpt lat="50.067094" lon="8.627922"><ele>110.25</ele></trkpt>
   <trkpt lat="50.067189" lon="8.628594"><ele>110</ele></trkpt>
   <trkpt lat="50.06733" lon="8.629401"><ele>109.75</ele></trkpt>
   <trkpt lat="50.067468" lon="8.630092"><ele>109.75</ele></trkpt>
   <trkpt lat="50.067585" lon="8.630601"><ele>110.25</ele></trkpt>
   <trkpt lat="50.067622" lon="8.630761"><ele>110.25</ele></trkpt>
   <trkpt lat="50.067634" lon="8.630809"><ele>110.25</ele></trkpt>
   <trkpt lat="50.067637" lon="8.630822"><ele>110.25</ele></trkpt>
   <trkpt lat="50.067805" lon="8.631436"><ele>110.5</ele></trkpt>
   <trkpt lat="50.067881" lon="8.631702"><ele>110.25</ele></trkpt>
   <trkpt lat="50.067991" lon="8.632078"><ele>110.75</ele></trkpt>
   <trkpt lat="50.06813" lon="8.63255"><ele>110.75</ele></trkpt>
   <trkpt lat="50.068143" lon="8.632595"><ele>110.75</ele></trkpt>
   <trkpt lat="50.068401" lon="8.633465"><ele>110.5</ele></trkpt>
   <trkpt lat="50.068423" lon="8.633538"><ele>110.5</ele></trkpt>
   <trkpt lat="50.06846" lon="8.633666"><ele>111</ele></trkpt>
   <trkpt lat="50.068585" lon="8.634147"><ele>111.75</ele></trkpt>
   <trkpt lat="50.068781" lon="8.635045"><ele>112.5</ele></trkpt>
   <trkpt lat="50.069036" lon="8.635919"><ele>112.25</ele></trkpt>
   <trkpt lat="50.06907" lon="8.636037"><ele>112</ele></trkpt>
   <trkpt lat="50.069088" lon="8.636099"><ele>112</ele></trkpt>
   <trkpt lat="50.069212" lon="8.636556"><ele>111.25</ele></trkpt>
   <trkpt lat="50.069338" lon="8.6371"><ele>111.75</ele></trkpt>
   <trkpt lat="50.069456" lon="8.637542"><ele>112.25</ele></trkpt>
   <trkpt lat="50.069488" lon="8.637652"><ele>112.5</ele></trkpt>
   <trkpt lat="50.069573" lon="8.637957"><ele>112.75</ele></trkpt>
   <trkpt lat="50.069733" lon="8.638623"><ele>112.5</ele></trkpt>
   <trkpt lat="50.069846" lon="8.639047"><ele>112.25</ele></trkpt>
   <trkpt lat="50.069882" lon="8.639168"><ele>112.25</ele></trkpt>
   <trkpt lat="50.0699" lon="8.63923"><ele>112.25</ele></trkpt>
   <trkpt lat="50.069998" lon="8.639586"><ele>112</ele></trkpt>
   <trkpt lat="50.070101" lon="8.640027"><ele>112</ele></trkpt>
   <trkpt lat="50.070213" lon="8.64044"><ele>112</ele></trkpt>
   <trkpt lat="50.070264" lon="8.64062"><ele>112</ele></trkpt>
   <trkpt lat="50.07063" lon="8.642009"><ele>111.25</ele></trkpt>
   <trkpt lat="50.070774" lon="8.642511"><ele>112</ele></trkpt>
   <trkpt lat="50.070784" lon="8.642551"><ele>112</ele></trkpt>
   <trkpt lat="50.070807" lon="8.642626"><ele>112.25</ele></trkpt>
   <trkpt lat="50.070901" lon="8.642951"><ele>112.75</ele></trkpt>
   <trkpt lat="50.071015" lon="8.643332"><ele>113.25</ele></trkpt>
   <trkpt lat="50.071133" lon="8.643742"><ele>113.25</ele></trkpt>
   <trkpt lat="50.071916" lon="8.646376"><ele>115.5</ele></trkpt>
   <trkpt lat="50.07214" lon="8.647136"><ele>115.25</ele></trkpt>
   <trkpt lat="50.07229" lon="8.647633"><ele>115.25</ele></trkpt>
   <trkpt lat="50.072794" lon="8.6493"><ele>115.25</ele></trkpt>
   <trkpt lat="50.072889" lon="8.649625"><ele>116.75</ele></trkpt>
   <trkpt lat="50.073366" lon="8.651276"><ele>116.5</ele></trkpt>
   <trkpt lat="50.073887" lon="8.653009"><ele>116</ele></trkpt>
   <trkpt lat="50.074045" lon="8.653531"><ele>115.5</ele></trkpt>
   <trkpt lat="50.074107" lon="8.653745"><ele>116.5</ele></trkpt>
   <trkpt lat="50.074153" lon="8.653907"><ele>117</ele></trkpt>
   <trkpt lat="50.074572" lon="8.655349"><ele>120.75</ele></trkpt>
   <trkpt lat="50.074778" lon="8.656038"><ele>120.75</ele></trkpt>
   <trkpt lat="50.075114" lon="8.657181"><ele>119.25</ele></trkpt>
   <trkpt lat="50.075305" lon="8.657805"><ele>119.5</ele></trkpt>
   <trkpt lat="50.07531" lon="8.657822"><ele>119.5</ele></trkpt>
   <trkpt lat="50.075484" lon="8.658437"><ele>119.5</ele></trkpt>
   <trkpt lat="50.075493" lon="8.658466"><ele>119.5</ele></trkpt>
   <trkpt lat="50.07585" lon="8.659667"><ele>118</ele></trkpt>
   <trkpt lat="50.07612" lon="8.660591"><ele>118</ele></trkpt>
   <trkpt lat="50.076252" lon="8.66103"><ele>118.5</ele></trkpt>
   <trkpt lat="50.076258" lon="8.661049"><ele>118.5</ele></trkpt>
   <trkpt lat="50.076546" lon="8.662031"><ele>120.5</ele></trkpt>
   <trkpt lat="50.076607" lon="8.662232"><ele>120.75</ele></trkpt>
   <trkpt lat="50.07682" lon="8.662963"><ele>121.25</ele></trkpt>
   <trkpt lat="50.077145" lon="8.664047"><ele>120.25</ele></trkpt>
   <trkpt lat="50.077522" lon="8.665324"><ele>118.75</ele></trkpt>
   <trkpt lat="50.077636" lon="8.665717"><ele>119.75</ele></trkpt>
   <trkpt lat="50.078371" lon="8.668185"><ele>118.25</ele></trkpt>
   <trkpt lat="50.078418" lon="8.668342"><ele>118.25</ele></trkpt>
   <trkpt lat="50.078606" lon="8.668979"><ele>118.25</ele></trkpt>
   <trkpt lat="50.078637" lon="8.669083"><ele>118.25</ele></trkpt>
   <trkpt lat="50.078933" lon="8.670084"><ele>115.25</ele></trkpt>
   <trkpt lat="50.07904" lon="8.670439"><ele>114.5</ele></trkpt>
   <trkpt lat="50.079275" lon="8.671139"><ele>112.75</ele></trkpt>
   <trkpt lat="50.079337" lon="8.671307"><ele>112.5</ele></trkpt>
   <trkpt lat="50.079357" lon="8.671359"><ele>112.5</ele></trkpt>
   <trkpt lat="50.079452" lon="8.671614"><ele>112</ele></trkpt>
   <trkpt lat="50.079629" lon="8.672058"><ele>111</ele></trkpt>
   <trkpt lat="50.079807" lon="8.672472"><ele>110.25</ele></trkpt>
   <trkpt lat="50.07986" lon="8.672588"><ele>110.25</ele></trkpt>
   <trkpt lat="50.08005" lon="8.672988"><ele>110.5</ele></trkpt>
   <trkpt lat="50.080091" lon="8.673073"><ele>110.5</ele></trkpt>
   <trkpt lat="50.080479" lon="8.673811"><ele>111.25</ele></trkpt>
   <trkpt lat="50.080773" lon="8.674312"><ele>112.25</ele></trkpt>
   <trkpt lat="50.081068" lon="8.674773"><ele>112.75</ele></trkpt>
   <trkpt lat="50.081413" lon="8.675264"><ele>113.75</ele></trkpt>
   <trkpt lat="50.081782" lon="8.675748"><ele>115</ele></trkpt>
   <trkpt lat="50.082242" lon="8.676278"><ele>116</ele></trkpt>
   <trkpt lat="50.082922" lon="8.676965"><ele>117.75</ele></trkpt>
   <trkpt lat="50.083296" lon="8.677286"><ele>118.75</ele></trkpt>
   <trkpt lat="50.084409" lon="8.678088"><ele>119.25</ele></trkpt>
   <trkpt lat="50.084841" lon="8.678321"><ele>119.25</ele></trkpt>
   <trkpt lat="50.085313" lon="8.678554"><ele>119.25</ele></trkpt>
   <trkpt lat="50.085581" lon="8.678659"><ele>119.25</ele></trkpt>
   <trkpt lat="50.086153" lon="8.678847"><ele>118</ele></trkpt>
   <trkpt lat="50.08629" lon="8.678892"><ele>118</ele></trkpt>
   <trkpt lat="50.086873" lon="8.679015"><ele>117.25</ele></trkpt>
   <trkpt lat="50.087496" lon="8.679082"><ele>116.5</ele></trkpt>
   <trkpt lat="50.089391" lon="8.67917"><ele>110</ele></trkpt>
   <trkpt lat="50.09085" lon="8.679229"><ele>110</ele></trkpt>
   <trkpt lat="50.091576" lon="8.679264"><ele>106.75</ele></trkpt>
   <trkpt lat="50.091824" lon="8.679276"><ele>105.75</ele></trkpt>
   <trkpt lat="50.092104" lon="8.679286"><ele>104.75</ele></trkpt>
   <trkpt lat="50.092124" lon="8.679286"><ele>104.5</ele></trkpt>
   <trkpt lat="50.092853" lon="8.679319"><ele>103.25</ele></trkpt>
   <trkpt lat="50.092872" lon="8.67932"><ele>103.25</ele></trkpt>
   <trkpt lat="50.092918" lon="8.679321"><ele>103.25</ele></trkpt>
   <trkpt lat="50.092944" lon="8.679321"><ele>103.25</ele></trkpt>
   <trkpt lat="50.093957" lon="8.679368"><ele>102.5</ele></trkpt>
   <trkpt lat="50.093962" lon="8.679368"><ele>102.5</ele></trkpt>
   <trkpt lat="50.094115" lon="8.679375"><ele>102.5</ele></trkpt>
   <trkpt lat="50.094362" lon="8.679393"><ele>102</ele></trkpt>
   <trkpt lat="50.094652" lon="8.679419"><ele>101.75</ele></trkpt>
   <trkpt lat="50.09495" lon="8.679475"><ele>101.25</ele></trkpt>
   <trkpt lat="50.095192" lon="8.679556"><ele>101</ele></trkpt>
   <trkpt lat="50.095421" lon="8.679665"><ele>101</ele></trkpt>
   <trkpt lat="50.095595" lon="8.679767"><ele>101</ele></trkpt>
   <trkpt lat="50.095746" lon="8.679876"><ele>100.75</ele></trkpt>
   <trkpt lat="50.095916" lon="8.680016"><ele>100.75</ele></trkpt>
   <trkpt lat="50.096131" lon="8.680225"><ele>100.25</ele></trkpt>
   <trkpt lat="50.096335" lon="8.680467"><ele>100</ele></trkpt>
   <trkpt lat="50.096358" lon="8.680499"><ele>100</ele></trkpt>
   <trkpt lat="50.096509" lon="8.680721"><ele>100</ele></trkpt>
   <trkpt lat="50.096585" lon="8.680854"><ele>100</ele></trkpt>
   <trkpt lat="50.096676" lon="8.681034"><ele>100</ele></trkpt>
   <trkpt lat="50.096813" lon="8.681353"><ele>100.5</ele></trkpt>
   <trkpt lat="50.09709" lon="8.682073"><ele>101.25</ele></trkpt>
   <trkpt lat="50.09727" lon="8.682498"><ele>101.75</ele></trkpt>
   <trkpt lat="50.097767" lon="8.683567"><ele>102.5</ele></trkpt>
   <trkpt lat="50.097959" lon="8.683994"><ele>102.25</ele></trkpt>
   <trkpt lat="50.09805" lon="8.684192"><ele>102.25</ele></trkpt>
   <trkpt lat="50.09806" lon="8.684217"><ele>102.25</ele></trkpt>
   <trkpt lat="50.098097" lon="8.684295"><ele>102.25</ele></trkpt>
   <trkpt lat="50.098422" lon="8.685021"><ele>102</ele></trkpt>
   <trkpt lat="50.098631" lon="8.685488"><ele>102.75</ele></trkpt>
   <trkpt lat="50.098694" lon="8.685625"><ele>102.75</ele></trkpt>
   <trkpt lat="50.099084" lon="8.686497"><ele>102</ele></trkpt>
  </trkseg>
 </trk>
</gpx>