<?xml version="1.0" encoding="UTF-8"?>
<!-- track-length = 20248 filtered ascend = 0 plain-ascend = 0 cost=20249 energy=0.2kwh time=27m  -->
<gpx 
 xmlns="http://www.topografix.com/GPX/1/1" 
 xmlns:xsi="http://www.w3.org/2001/XMLSchema-instance" 
 xsi:schemaLocation="http://www.topografix.com/GPX/1/1 http://www.topografix.com/GPX/1/1/gpx.xsd" 
 version="1.1" 
 creator="BRouter-Web 0.18.1">
 <trk>
  <name>flamsbana</name>
  <trkseg>
   <trkpt lat="60.735295" lon="7.122537"/>
   <trkpt lat="60.735362" lon="7.122519"/>
   <trkpt lat="60.73554" lon="7.122518"/>
   <trkpt lat="60.735572" lon="7.122523"/>
   <trkpt lat="60.735992" lon="7.122606"/>
   <trkpt lat="60.736012" lon="7.122608"/>
   <trkpt lat="60.736187" lon="7.122615"/>
   <trkpt lat="60.736332" lon="7.122596"/>
   <trkpt lat="60.736461" lon="7.122563"/>
   <trkpt lat="60.736869" lon="7.122393"/>
   <trkpt lat="60.736884" lon="7.122387"/>
   <trkpt lat="60.737137" lon="7.122296"/>
   <trkpt lat="60.737449" lon="7.122234"/>
   <trkpt lat="60.737873" lon="7.122201"/>
   <trkpt lat="60.738066" lon="7.122205"/>
   <trkpt lat="60.738199" lon="7.122224"/>
   <trkpt lat="60.738396" lon="7.122289"/>
   <trkpt lat="60.738582" lon="7.122389"/>
   <trkpt lat="60.738698" lon="7.122489"/>
   <trkpt lat="60.738785" lon="7.122584"/>
   <trkpt lat="60.73888" lon="7.122705"/>
   <trkpt lat="60.739014" lon="7.122915"/>
   <trkpt lat="60.739143" lon="7.123173"/>
   <trkpt lat="60.739272" lon="7.123497"/>
   <trkpt lat="60.73937" lon="7.123793"/>
   <trkpt lat="60.739482" lon="7.124165"/>
   <trkpt lat="60.73961" lon="7.124633"/>
   <trkpt lat="60.739692" lon="7.124903"/>
   <trkpt lat="60.739853" lon="7.125365"/>
   <trkpt lat="60.740007" lon="7.125778"/>
   <trkpt lat="60.740204" lon="7.126249"/>
   <trkpt lat="60.7405" lon="7.126898"/>
   <trkpt lat="60.740627" lon="7.127147"/>
   <trkpt lat="60.740729" lon="7.127332"/>
   <trkpt lat="60.740852" lon="7.127517"/>
   <trkpt lat="60.740927" lon="7.12761"/>
   <trkpt lat="60.741043" lon="7.127724"/>
   <trkpt lat="60.741141" lon="7.127813"/>
   <trkpt lat="60.741219" lon="7.127866"/>
   <trkpt lat="60.741407" lon="7.127952"/>
   <trkpt lat="60.741532" lon="7.128"/>
   <trkpt lat="60.741737" lon="7.128054"/>
   <trkpt lat="60.741923" lon="7.128065"/>
   <trkpt lat="60.742374" lon="7.128069"/>
   <trkpt lat="60.742695" lon="7.128083"/>
   <trkpt lat="60.74283" lon="7.128106"/>
   <trkpt lat="60.742968" lon="7.128155"/>
   <trkpt lat="60.743122" lon="7.128245"/>
   <trkpt lat="60.743243" lon="7.128347"/>
   <trkpt lat="60.7433" lon="7.128407"/>
   <trkpt lat="60.743472" lon="7.12863"/>
   <trkpt lat="60.743574" lon="7.128803"/>
   <trkpt lat="60.743667" lon="7.129"/>
   <trkpt lat="60.743706" lon="7.129091"/>
   <trkpt lat="60.743724" lon="7.129135"/>
   <trkpt lat="60.743791" lon="7.129326"/>
   <trkpt lat="60.743864" lon="7.129584"/>
   <trkpt lat="60.743929" lon="7.12989"/>
   <trkpt lat="60.743977" lon="7.130236"/>
   <trkpt lat="60.744002" lon="7.130534"/>
   <trkpt lat="60.744007" lon="7.130656"/>
   <trkpt lat="60.74401" lon="7.130917"/>
   <trkpt lat="60.743992" lon="7.13127"/>
   <trkpt lat="60.743964" lon="7.131542"/>
   <trkpt lat="60.743926" lon="7.131782"/>
   <trkpt lat="60.743892" lon="7.131952"/>
   <trkpt lat="60.743805" lon="7.132288"/>
   <trkpt lat="60.743691" lon="7.132626"/>
   <trkpt lat="60.743546" lon="7.132979"/>
   <trkpt lat="60.743308" lon="7.133492"/>
   <trkpt lat="60.743079" lon="7.133923"/>
   <trkpt lat="60.742801" lon="7.134374"/>
   <trkpt lat="60.742699" lon="7.134524"/>
   <trkpt lat="60.742531" lon="7.134747"/>
   <trkpt lat="60.742011" lon="7.135367"/>
   <trkpt lat="60.741909" lon="7.135507"/>
   <trkpt lat="60.741685" lon="7.135877"/>
   <trkpt lat="60.741565" lon="7.136134"/>
   <trkpt lat="60.741454" lon="7.136432"/>
   <trkpt lat="60.741398" lon="7.136623"/>
   <trkpt lat="60.741312" lon="7.13695"/>
   <trkpt lat="60.741269" lon="7.137151"/>
   <trkpt lat="60.741219" lon="7.137444"/>
   <trkpt lat="60.741189" lon="7.13767"/>
   <trkpt lat="60.741164" lon="7.137927"/>
   <trkpt lat="60.74115" lon="7.138183"/>
   <trkpt lat="60.741146" lon="7.138326"/>
   <trkpt lat="60.741157" lon="7.138729"/>
   <trkpt lat="60.741185" lon="7.139033"/>
   <trkpt lat="60.741227" lon="7.139315"/>
   <trkpt lat="60.741281" lon="7.139581"/>
   <trkpt lat="60.741325" lon="7.139749"/>
   <trkpt lat="60.741376" lon="7.13992"/>
   <trkpt lat="60.741452" lon="7.140128"/>
   <trkpt lat="60.741542" lon="7.140331"/>
   <trkpt lat="60.741686" lon="7.140585"/>
   <trkpt lat="60.741859" lon="7.14081"/>
   <trkpt lat="60.742012" lon="7.140951"/>
   <trkpt lat="60.742149" lon="7.141042"/>
   <trkpt lat="60.742326" lon="7.14111"/>
   <trkpt lat="60.742454" lon="7.141129"/>
   <trkpt lat="60.7426" lon="7.141119"/>
   <trkpt lat="60.742742" lon="7.141083"/>
   <trkpt lat="60.742857" lon="7.141025"/>
   <trkpt lat="60.742997" lon="7.140926"/>
   <trkpt lat="60.743168" lon="7.140759"/>
   <trkpt lat="60.743244" lon="7.140663"/>
   <trkpt lat="60.743372" lon="7.140455"/>
   <trkpt lat="60.743475" lon="7.140253"/>
   <trkpt lat="60.743532" lon="7.140123"/>
   <trkpt lat="60.743631" lon="7.139856"/>
   <trkpt lat="60.743864" lon="7.139169"/>
   <trkpt lat="60.744029" lon="7.13869"/>
   <trkpt lat="60.744054" lon="7.138619"/>
   <trkpt lat="60.745105" lon="7.135564"/>
   <trkpt lat="60.745177" lon="7.135336"/>
   <trkpt lat="60.745225" lon="7.135147"/>
   <trkpt lat="60.74529" lon="7.134827"/>
   <trkpt lat="60.745317" lon="7.134644"/>
   <trkpt lat="60.745363" lon="7.134043"/>
   <trkpt lat="60.745361" lon="7.133636"/>
   <trkpt lat="60.745324" lon="7.133184"/>
   <trkpt lat="60.745244" lon="7.132731"/>
   <trkpt lat="60.745167" lon="7.132519"/>
   <trkpt lat="60.744969" lon="7.132057"/>
   <trkpt lat="60.744834" lon="7.131814"/>
   <trkpt lat="60.744701" lon="7.131617"/>
   <trkpt lat="60.744547" lon="7.131436"/>
   <trkpt lat="60.744398" lon="7.131339"/>
   <trkpt lat="60.744258" lon="7.131296"/>
   <trkpt lat="60.744076" lon="7.131282"/>
   <trkpt lat="60.743946" lon="7.131286"/>
   <trkpt lat="60.743748" lon="7.131304"/>
   <trkpt lat="60.743463" lon="7.131366"/>
   <trkpt lat="60.743217" lon="7.131405"/>
   <trkpt lat="60.742892" lon="7.131417"/>
   <trkpt lat="60.742557" lon="7.131269"/>
   <trkpt lat="60.742322" lon="7.131036"/>
   <trkpt lat="60.742141" lon="7.130751"/>
   <trkpt lat="60.741981" lon="7.130446"/>
   <trkpt lat="60.741845" lon="7.130115"/>
   <trkpt lat="60.741747" lon="7.129666"/>
   <trkpt lat="60.741687" lon="7.129242"/>
   <trkpt lat="60.741645" lon="7.128823"/>
   <trkpt lat="60.741636" lon="7.12841"/>
   <trkpt lat="60.741651" lon="7.128026"/>
   <trkpt lat="60.741691" lon="7.127727"/>
   <trkpt lat="60.74175" lon="7.127386"/>
   <trkpt lat="60.741831" lon="7.127076"/>
   <trkpt lat="60.741997" lon="7.12672"/>
   <trkpt lat="60.742197" lon="7.126375"/>
   <trkpt lat="60.742415" lon="7.126126"/>
   <trkpt lat="60.742569" lon="7.126007"/>
   <trkpt lat="60.742724" lon="7.125921"/>
   <trkpt lat="60.742877" lon="7.125883"/>
   <trkpt lat="60.743024" lon="7.125884"/>
   <trkpt lat="60.743193" lon="7.125917"/>
   <trkpt lat="60.743455" lon="7.126014"/>
   <trkpt lat="60.743556" lon="7.126057"/>
   <trkpt lat="60.743644" lon="7.126132"/>
   <trkpt lat="60.74466" lon="7.127369"/>
   <trkpt lat="60.744793" lon="7.127596"/>
   <trkpt lat="60.744884" lon="7.127789"/>
   <trkpt lat="60.744959" lon="7.12799"/>
   <trkpt lat="60.745032" lon="7.128221"/>
   <trkpt lat="60.745097" lon="7.128512"/>
   <trkpt lat="60.745142" lon="7.128823"/>
   <trkpt lat="60.745163" lon="7.129043"/>
   <trkpt lat="60.745165" lon="7.129264"/>
   <trkpt lat="60.745132" lon="7.130203"/>
   <trkpt lat="60.745134" lon="7.13057"/>
   <trkpt lat="60.745152" lon="7.130922"/>
   <trkpt lat="60.745204" lon="7.131264"/>
   <trkpt lat="60.745256" lon="7.131531"/>
   <trkpt lat="60.745408" lon="7.132051"/>
   <trkpt lat="60.745579" lon="7.132487"/>
   <trkpt lat="60.745794" lon="7.133101"/>
   <trkpt lat="60.74632" lon="7.134433"/>
   <trkpt lat="60.746543" lon="7.134968"/>
   <trkpt lat="60.746686" lon="7.13526"/>
   <trkpt lat="60.746768" lon="7.135379"/>
   <trkpt lat="60.746842" lon="7.135475"/>
   <trkpt lat="60.746959" lon="7.135598"/>
   <trkpt lat="60.747089" lon="7.135699"/>
   <trkpt lat="60.747225" lon="7.135772"/>
   <trkpt lat="60.747299" lon="7.135805"/>
   <trkpt lat="60.747394" lon="7.135821"/>
   <trkpt lat="60.747494" lon="7.135819"/>
   <trkpt lat="60.747746" lon="7.135769"/>
   <trkpt lat="60.747964" lon="7.13568"/>
   <trkpt lat="60.748208" lon="7.135417"/>
   <trkpt lat="60.748419" lon="7.135084"/>
   <trkpt lat="60.748637" lon="7.134596"/>
   <trkpt lat="60.748726" lon="7.134263"/>
   <trkpt lat="60.748788" lon="7.133919"/>
   <trkpt lat="60.748844" lon="7.133406"/>
   <trkpt lat="60.74884" lon="7.133"/>
   <trkpt lat="60.748839" lon="7.132911"/>
   <trkpt lat="60.748805" lon="7.132562"/>
   <trkpt lat="60.74873" lon="7.131871"/>
   <trkpt lat="60.748617" lon="7.131404"/>
   <trkpt lat="60.748455" lon="7.131006"/>
   <trkpt lat="60.748154" lon="7.1305"/>
   <trkpt lat="60.748016" lon="7.130213"/>
   <trkpt lat="60.747895" lon="7.129844"/>
   <trkpt lat="60.747833" lon="7.129534"/>
   <trkpt lat="60.74779" lon="7.129209"/>
   <trkpt lat="60.74777" lon="7.128958"/>
   <trkpt lat="60.747764" lon="7.128802"/>
   <trkpt lat="60.747766" lon="7.1285"/>
   <trkpt lat="60.747791" lon="7.128142"/>
   <trkpt lat="60.747883" lon="7.127551"/>
   <trkpt lat="60.748104" lon="7.126276"/>
   <trkpt lat="60.748141" lon="7.126033"/>
   <trkpt lat="60.748169" lon="7.125751"/>
   <trkpt lat="60.748184" lon="7.125521"/>
   <trkpt lat="60.748189" lon="7.125138"/>
   <trkpt lat="60.748158" lon="7.12439"/>
   <trkpt lat="60.748153" lon="7.124031"/>
   <trkpt lat="60.748168" lon="7.1237"/>
   <trkpt lat="60.748185" lon="7.123524"/>
   <trkpt lat="60.74825" lon="7.123095"/>
   <trkpt lat="60.748341" lon="7.122687"/>
   <trkpt lat="60.748455" lon="7.122303"/>
   <trkpt lat="60.748557" lon="7.122069"/>
   <trkpt lat="60.749355" lon="7.120836"/>
   <trkpt lat="60.755571" lon="7.111227"/>
   <trkpt lat="60.755825" lon="7.110855"/>
   <trkpt lat="60.756025" lon="7.11056"/>
   <trkpt lat="60.756228" lon="7.109978"/>
   <trkpt lat="60.756306" lon="7.109617"/>
   <trkpt lat="60.756384" lon="7.109095"/>
   <trkpt lat="60.756393" lon="7.108637"/>
   <trkpt lat="60.756353" lon="7.107223"/>
   <trkpt lat="60.756369" lon="7.106667"/>
   <trkpt lat="60.756454" lon="7.105812"/>
   <trkpt lat="60.756476" lon="7.105638"/>
   <trkpt lat="60.756535" lon="7.105276"/>
   <trkpt lat="60.756591" lon="7.104997"/>
   <trkpt lat="60.756661" lon="7.104718"/>
   <trkpt lat="60.756763" lon="7.104376"/>
   <trkpt lat="60.75694" lon="7.103856"/>
   <trkpt lat="60.757001" lon="7.103696"/>
   <trkpt lat="60.757129" lon="7.103401"/>
   <trkpt lat="60.757267" lon="7.103129"/>
   <trkpt lat="60.757412" lon="7.102882"/>
   <trkpt lat="60.757568" lon="7.102638"/>
   <trkpt lat="60.758219" lon="7.101656"/>
   <trkpt lat="60.7585" lon="7.101281"/>
   <trkpt lat="60.758945" lon="7.100845"/>
   <trkpt lat="60.759196" lon="7.100551"/>
   <trkpt lat="60.75949" lon="7.10003"/>
   <trkpt lat="60.759748" lon="7.099305"/>
   <trkpt lat="60.759838" lon="7.098988"/>
   <trkpt lat="60.759978" lon="7.098606"/>
   <trkpt lat="60.76022" lon="7.098105"/>
   <trkpt lat="60.760542" lon="7.097656"/>
   <trkpt lat="60.760844" lon="7.097457"/>
   <trkpt lat="60.761355" lon="7.097189"/>
   <trkpt lat="60.761908" lon="7.097089"/>
   <trkpt lat="60.762307" lon="7.097234"/>
   <trkpt lat="60.762733" lon="7.097618"/>
   <trkpt lat="60.762964" lon="7.097961"/>
   <trkpt lat="60.76333" lon="7.098705"/>
   <trkpt lat="60.764121" lon="7.100696"/>
   <trkpt lat="60.764352" lon="7.101302"/>
   <trkpt lat="60.764623" lon="7.101943"/>
   <trkpt lat="60.764704" lon="7.102134"/>
   <trkpt lat="60.764921" lon="7.10257"/>
   <trkpt lat="60.765136" lon="7.102881"/>
   <trkpt lat="60.765283" lon="7.102999"/>
   <trkpt lat="60.765419" lon="7.103074"/>
   <trkpt lat="60.76554" lon="7.103106"/>
   <trkpt lat="60.765656" lon="7.103117"/>
   <trkpt lat="60.765769" lon="7.103112"/>
   <trkpt lat="60.766219" lon="7.103048"/>
   <trkpt lat="60.766583" lon="7.10303"/>
   <trkpt lat="60.767255" lon="7.103064"/>
   <trkpt lat="60.767733" lon="7.103047"/>
   <trkpt lat="60.768065" lon="7.102995"/>
   <trkpt lat="60.769192" lon="7.102721"/>
   <trkpt lat="60.770127" lon="7.102495"/>
   <trkpt lat="60.770443" lon="7.102388"/>
   <trkpt lat="60.770677" lon="7.102283"/>
   <trkpt lat="60.770963" lon="7.102121"/>
   <trkpt lat="60.7712" lon="7.101986"/>
   <trkpt lat="60.771259" lon="7.101965"/>
   <trkpt lat="60.771422" lon="7.101917"/>
   <trkpt lat="60.771609" lon="7.101893"/>
   <trkpt lat="60.771722" lon="7.101904"/>
   <trkpt lat="60.771866" lon="7.101934"/>
   <trkpt lat="60.772114" lon="7.102035"/>
   <trkpt lat="60.772365" lon="7.102198"/>
   <trkpt lat="60.772651" lon="7.102359"/>
   <trkpt lat="60.772995" lon="7.102505"/>
   <trkpt lat="60.773308" lon="7.102599"/>
   <trkpt lat="60.773421" lon="7.102622"/>
   <trkpt lat="60.773905" lon="7.102681"/>
   <trkpt lat="60.774022" lon="7.102678"/>
   <trkpt lat="60.774313" lon="7.102648"/>
   <trkpt lat="60.774707" lon="7.102562"/>
   <trkpt lat="60.775277" lon="7.102426"/>
   <trkpt lat="60.775513" lon="7.102392"/>
   <trkpt lat="60.775771" lon="7.102409"/>
   <trkpt lat="60.776049" lon="7.102495"/>
   <trkpt lat="60.776263" lon="7.102642"/>
   <trkpt lat="60.776365" lon="7.102727"/>
   <trkpt lat="60.776459" lon="7.102827"/>
   <trkpt lat="60.776835" lon="7.103214"/>
   <trkpt lat="60.776913" lon="7.103276"/>
   <trkpt lat="60.777084" lon="7.103377"/>
   <trkpt lat="60.777237" lon="7.103426"/>
   <trkpt lat="60.777324" lon="7.103441"/>
   <trkpt lat="60.777438" lon="7.103438"/>
   <trkpt lat="60.777544" lon="7.103419"/>
   <trkpt lat="60.777669" lon="7.103368"/>
   <trkpt lat="60.777802" lon="7.10329"/>
   <trkpt lat="60.777885" lon="7.103227"/>
   <trkpt lat="60.778047" lon="7.10306"/>
   <trkpt lat="60.778186" lon="7.102869"/>
   <trkpt lat="60.778319" lon="7.102629"/>
   <trkpt lat="60.778446" lon="7.102331"/>
   <trkpt lat="60.778518" lon="7.102112"/>
   <trkpt lat="60.778607" lon="7.101757"/>
   <trkpt lat="60.778641" lon="7.101571"/>
   <trkpt lat="60.778679" lon="7.101287"/>
   <trkpt lat="60.778761" lon="7.100587"/>
   <trkpt lat="60.778787" lon="7.100411"/>
   <trkpt lat="60.778886" lon="7.09997"/>
   <trkpt lat="60.778938" lon="7.099798"/>
   <trkpt lat="60.779002" lon="7.099616"/>
   <trkpt lat="60.779068" lon="7.099455"/>
   <trkpt lat="60.779143" lon="7.099297"/>
   <trkpt lat="60.779283" lon="7.099064"/>
   <trkpt lat="60.779378" lon="7.098933"/>
   <trkpt lat="60.779678" lon="7.098561"/>
   <trkpt lat="60.779723" lon="7.098503"/>
   <trkpt lat="60.779767" lon="7.098451"/>
   <trkpt lat="60.780282" lon="7.097818"/>
   <trkpt lat="60.780514" lon="7.097548"/>
   <trkpt lat="60.780737" lon="7.097356"/>
   <trkpt lat="60.780907" lon="7.097265"/>
   <trkpt lat="60.781101" lon="7.097243"/>
   <trkpt lat="60.781326" lon="7.097313"/>
   <trkpt lat="60.781822" lon="7.097732"/>
   <trkpt lat="60.781968" lon="7.097855"/>
   <trkpt lat="60.782061" lon="7.097922"/>
   <trkpt lat="60.782217" lon="7.098004"/>
   <trkpt lat="60.782283" lon="7.09802"/>
   <trkpt lat="60.78238" lon="7.098043"/>
   <trkpt lat="60.782487" lon="7.098049"/>
   <trkpt lat="60.782576" lon="7.098042"/>
   <trkpt lat="60.782771" lon="7.097988"/>
   <trkpt lat="60.782996" lon="7.097895"/>
   <trkpt lat="60.783325" lon="7.097717"/>
   <trkpt lat="60.783591" lon="7.097543"/>
   <trkpt lat="60.783751" lon="7.097405"/>
   <trkpt lat="60.783792" lon="7.097362"/>
   <trkpt lat="60.783917" lon="7.097215"/>
   <trkpt lat="60.783973" lon="7.097126"/>
   <trkpt lat="60.784039" lon="7.097013"/>
   <trkpt lat="60.784103" lon="7.096902"/>
   <trkpt lat="60.784226" lon="7.096618"/>
   <trkpt lat="60.784299" lon="7.096417"/>
   <trkpt lat="60.784463" lon="7.09585"/>
   <trkpt lat="60.784547" lon="7.095595"/>
   <trkpt lat="60.784642" lon="7.09537"/>
   <trkpt lat="60.784706" lon="7.095252"/>
   <trkpt lat="60.78475" lon="7.095171"/>
   <trkpt lat="60.784821" lon="7.095065"/>
   <trkpt lat="60.784882" lon="7.094987"/>
   <trkpt lat="60.785016" lon="7.094855"/>
   <trkpt lat="60.785151" lon="7.094753"/>
   <trkpt lat="60.78532" lon="7.09468"/>
   <trkpt lat="60.785458" lon="7.094656"/>
   <trkpt lat="60.785746" lon="7.094675"/>
   <trkpt lat="60.785821" lon="7.094681"/>
   <trkpt lat="60.786046" lon="7.094681"/>
   <trkpt lat="60.78605" lon="7.094681"/>
   <trkpt lat="60.786142" lon="7.094666"/>
   <trkpt lat="60.786299" lon="7.094624"/>
   <trkpt lat="60.786398" lon="7.094598"/>
   <trkpt lat="60.786582" lon="7.094578"/>
   <trkpt lat="60.786748" lon="7.094584"/>
   <trkpt lat="60.786953" lon="7.094617"/>
   <trkpt lat="60.787082" lon="7.094653"/>
   <trkpt lat="60.787298" lon="7.094736"/>
   <trkpt lat="60.787492" lon="7.094829"/>
   <trkpt lat="60.787558" lon="7.094871"/>
   <trkpt lat="60.787715" lon="7.095008"/>
   <trkpt lat="60.787867" lon="7.095204"/>
   <trkpt lat="60.787999" lon="7.095436"/>
   <trkpt lat="60.788066" lon="7.095579"/>
   <trkpt lat="60.788168" lon="7.095833"/>
   <trkpt lat="60.788594" lon="7.096984"/>
   <trkpt lat="60.788728" lon="7.097311"/>
   <trkpt lat="60.78877" lon="7.097401"/>
   <trkpt lat="60.788814" lon="7.097482"/>
   <trkpt lat="60.788821" lon="7.097496"/>
   <trkpt lat="60.788875" lon="7.097594"/>
   <trkpt lat="60.788985" lon="7.097746"/>
   <trkpt lat="60.789021" lon="7.09779"/>
   <trkpt lat="60.789125" lon="7.0979"/>
   <trkpt lat="60.789256" lon="7.097999"/>
   <trkpt lat="60.789376" lon="7.098054"/>
   <trkpt lat="60.789523" lon="7.098095"/>
   <trkpt lat="60.789627" lon="7.098102"/>
   <trkpt lat="60.789789" lon="7.098067"/>
   <trkpt lat="60.789913" lon="7.09801"/>
   <trkpt lat="60.790146" lon="7.097852"/>
   <trkpt lat="60.790242" lon="7.097787"/>
   <trkpt lat="60.79025" lon="7.097782"/>
   <trkpt lat="60.790434" lon="7.097683"/>
   <trkpt lat="60.790517" lon="7.097655"/>
   <trkpt lat="60.79059" lon="7.097638"/>
   <trkpt lat="60.790708" lon="7.097638"/>
   <trkpt lat="60.790857" lon="7.097668"/>
   <trkpt lat="60.790949" lon="7.097706"/>
   <trkpt lat="60.791019" lon="7.09775"/>
   <trkpt lat="60.791166" lon="7.097867"/>
   <trkpt lat="60.79125" lon="7.097961"/>
   <trkpt lat="60.791345" lon="7.098091"/>
   <trkpt lat="60.791455" lon="7.098268"/>
   <trkpt lat="60.791901" lon="7.099071"/>
   <trkpt lat="60.792098" lon="7.099407"/>
   <trkpt lat="60.792252" lon="7.099647"/>
   <trkpt lat="60.792502" lon="7.100005"/>
   <trkpt lat="60.792639" lon="7.100181"/>
   <trkpt lat="60.792848" lon="7.100424"/>
   <trkpt lat="60.792975" lon="7.100544"/>
   <trkpt lat="60.793122" lon="7.100655"/>
   <trkpt lat="60.793268" lon="7.100739"/>
   <trkpt lat="60.793524" lon="7.100859"/>
   <trkpt lat="60.793698" lon="7.100972"/>
   <trkpt lat="60.793763" lon="7.101025"/>
   <trkpt lat="60.793874" lon="7.101132"/>
   <trkpt lat="60.79397" lon="7.10124"/>
   <trkpt lat="60.794251" lon="7.101582"/>
   <trkpt lat="60.794499" lon="7.101829"/>
   <trkpt lat="60.794639" lon="7.101933"/>
   <trkpt lat="60.794796" lon="7.102015"/>
   <trkpt lat="60.795035" lon="7.102106"/>
   <trkpt lat="60.795467" lon="7.102219"/>
   <trkpt lat="60.795801" lon="7.102269"/>
   <trkpt lat="60.796554" lon="7.102343"/>
   <trkpt lat="60.796767" lon="7.102381"/>
   <trkpt lat="60.796917" lon="7.102442"/>
   <trkpt lat="60.797038" lon="7.10252"/>
   <trkpt lat="60.797194" lon="7.102651"/>
   <trkpt lat="60.797269" lon="7.102733"/>
   <trkpt lat="60.798297" lon="7.103959"/>
   <trkpt lat="60.798452" lon="7.104173"/>
   <trkpt lat="60.798627" lon="7.104462"/>
   <trkpt lat="60.798769" lon="7.104728"/>
   <trkpt lat="60.798911" lon="7.105038"/>
   <trkpt lat="60.799761" lon="7.10715"/>
   <trkpt lat="60.799811" lon="7.107258"/>
   <trkpt lat="60.799908" lon="7.107448"/>
   <trkpt lat="60.80005" lon="7.107665"/>
   <trkpt lat="60.80025" lon="7.107885"/>
   <trkpt lat="60.80041" lon="7.108003"/>
   <trkpt lat="60.800685" lon="7.108176"/>
   <trkpt lat="60.800992" lon="7.108446"/>
   <trkpt lat="60.801271" lon="7.108814"/>
   <trkpt lat="60.801477" lon="7.109204"/>
   <trkpt lat="60.801886" lon="7.110046"/>
   <trkpt lat="60.802199" lon="7.110666"/>
   <trkpt lat="60.80248" lon="7.111191"/>
   <trkpt lat="60.802616" lon="7.111394"/>
   <trkpt lat="60.802749" lon="7.111554"/>
   <trkpt lat="60.802835" lon="7.11163"/>
   <trkpt lat="60.802925" lon="7.111709"/>
   <trkpt lat="60.803103" lon="7.111791"/>
   <trkpt lat="60.80394" lon="7.112108"/>
   <trkpt lat="60.804113" lon="7.112214"/>
   <trkpt lat="60.804249" lon="7.112328"/>
   <trkpt lat="60.804368" lon="7.112482"/>
   <trkpt lat="60.804375" lon="7.112491"/>
   <trkpt lat="60.804866" lon="7.113175"/>
   <trkpt lat="60.805273" lon="7.113741"/>
   <trkpt lat="60.805373" lon="7.1139"/>
   <trkpt lat="60.80551" lon="7.114159"/>
   <trkpt lat="60.80563" lon="7.114436"/>
   <trkpt lat="60.805709" lon="7.114668"/>
   <trkpt lat="60.805774" lon="7.114889"/>
   <trkpt lat="60.806203" lon="7.116597"/>
   <trkpt lat="60.806289" lon="7.116968"/>
   <trkpt lat="60.80631" lon="7.117072"/>
   <trkpt lat="60.806323" lon="7.117158"/>
   <trkpt lat="60.806368" lon="7.117528"/>
   <trkpt lat="60.806386" lon="7.117832"/>
   <trkpt lat="60.80639" lon="7.118146"/>
   <trkpt lat="60.806378" lon="7.118543"/>
   <trkpt lat="60.806372" lon="7.118755"/>
   <trkpt lat="60.806365" lon="7.118948"/>
   <trkpt lat="60.806366" lon="7.11931"/>
   <trkpt lat="60.806383" lon="7.119602"/>
   <trkpt lat="60.806422" lon="7.119911"/>
   <trkpt lat="60.80647" lon="7.120181"/>
   <trkpt lat="60.806766" lon="7.1217"/>
   <trkpt lat="60.806769" lon="7.121715"/>
   <trkpt lat="60.806823" lon="7.121991"/>
   <trkpt lat="60.806905" lon="7.12234"/>
   <trkpt lat="60.806974" lon="7.122563"/>
   <trkpt lat="60.807022" lon="7.122697"/>
   <trkpt lat="60.807068" lon="7.122802"/>
   <trkpt lat="60.80717" lon="7.122998"/>
   <trkpt lat="60.807224" lon="7.123086"/>
   <trkpt lat="60.807288" lon="7.123171"/>
   <trkpt lat="60.807456" lon="7.123353"/>
   <trkpt lat="60.807555" lon="7.123435"/>
   <trkpt lat="60.807628" lon="7.123479"/>
   <trkpt lat="60.807712" lon="7.12351"/>
   <trkpt lat="60.807831" lon="7.123539"/>
   <trkpt lat="60.808011" lon="7.123556"/>
   <trkpt lat="60.808584" lon="7.1235"/>
   <trkpt lat="60.808927" lon="7.123467"/>
   <trkpt lat="60.809136" lon="7.123459"/>
   <trkpt lat="60.80926" lon="7.123468"/>
   <trkpt lat="60.809437" lon="7.123504"/>
   <trkpt lat="60.809642" lon="7.123575"/>
   <trkpt lat="60.809976" lon="7.123733"/>
   <trkpt lat="60.810296" lon="7.124012"/>
   <trkpt lat="60.810693" lon="7.124387"/>
   <trkpt lat="60.811018" lon="7.124526"/>
   <trkpt lat="60.811305" lon="7.124494"/>
   <trkpt lat="60.81185" lon="7.124261"/>
   <trkpt lat="60.811975" lon="7.12421"/>
   <trkpt lat="60.812163" lon="7.124162"/>
   <trkpt lat="60.812296" lon="7.124138"/>
   <trkpt lat="60.812557" lon="7.124128"/>
   <trkpt lat="60.812713" lon="7.124138"/>
   <trkpt lat="60.81297" lon="7.124182"/>
   <trkpt lat="60.813196" lon="7.124206"/>
   <trkpt lat="60.813461" lon="7.124213"/>
   <trkpt lat="60.813701" lon="7.124203"/>
   <trkpt lat="60.814104" lon="7.124139"/>
   <trkpt lat="60.814385" lon="7.12407"/>
   <trkpt lat="60.814669" lon="7.123987"/>
   <trkpt lat="60.81481" lon="7.123929"/>
   <trkpt lat="60.815019" lon="7.123842"/>
   <trkpt lat="60.8153" lon="7.123683"/>
   <trkpt lat="60.815509" lon="7.123534"/>
   <trkpt lat="60.815515" lon="7.123529"/>
   <trkpt lat="60.815609" lon="7.123459"/>
   <trkpt lat="60.815846" lon="7.123253"/>
   <trkpt lat="60.816111" lon="7.123002"/>
   <trkpt lat="60.816218" lon="7.122917"/>
   <trkpt lat="60.816345" lon="7.122842"/>
   <trkpt lat="60.816436" lon="7.122803"/>
   <trkpt lat="60.816556" lon="7.122773"/>
   <trkpt lat="60.81665" lon="7.122765"/>
   <trkpt lat="60.816823" lon="7.122782"/>
   <trkpt lat="60.817297" lon="7.122965"/>
   <trkpt lat="60.817767" lon="7.123136"/>
   <trkpt lat="60.817858" lon="7.123146"/>
   <trkpt lat="60.817957" lon="7.12314"/>
   <trkpt lat="60.818126" lon="7.123086"/>
   <trkpt lat="60.81821" lon="7.12304"/>
   <trkpt lat="60.818354" lon="7.122933"/>
   <trkpt lat="60.818487" lon="7.12279"/>
   <trkpt lat="60.818598" lon="7.122641"/>
   <trkpt lat="60.818941" lon="7.122114"/>
   <trkpt lat="60.819218" lon="7.121758"/>
   <trkpt lat="60.81944" lon="7.121569"/>
   <trkpt lat="60.820046" lon="7.121084"/>
   <trkpt lat="60.820245" lon="7.120969"/>
   <trkpt lat="60.820342" lon="7.120925"/>
   <trkpt lat="60.820501" lon="7.12088"/>
   <trkpt lat="60.820774" lon="7.12086"/>
   <trkpt lat="60.821382" lon="7.120897"/>
   <trkpt lat="60.821473" lon="7.120889"/>
   <trkpt lat="60.821651" lon="7.120844"/>
   <trkpt lat="60.82173" lon="7.120808"/>
   <trkpt lat="60.821869" lon="7.120714"/>
   <trkpt lat="60.821937" lon="7.120656"/>
   <trkpt lat="60.822024" lon="7.120561"/>
   <trkpt lat="60.8221" lon="7.120475"/>
   <trkpt lat="60.822173" lon="7.12037"/>
   <trkpt lat="60.822302" lon="7.120137"/>
   <trkpt lat="60.822381" lon="7.119978"/>
   <trkpt lat="60.822537" lon="7.119606"/>
   <trkpt lat="60.822646" lon="7.119379"/>
   <trkpt lat="60.822671" lon="7.119326"/>
   <trkpt lat="60.822841" lon="7.119052"/>
   <trkpt lat="60.822903" lon="7.118964"/>
   <trkpt lat="60.822966" lon="7.118894"/>
   <trkpt lat="60.823038" lon="7.118828"/>
   <trkpt lat="60.823209" lon="7.118705"/>
   <trkpt lat="60.823415" lon="7.118614"/>
   <trkpt lat="60.823605" lon="7.118595"/>
   <trkpt lat="60.823691" lon="7.118602"/>
   <trkpt lat="60.823818" lon="7.118636"/>
   <trkpt lat="60.824029" lon="7.118739"/>
   <trkpt lat="60.824283" lon="7.118875"/>
   <trkpt lat="60.827147" lon="7.120262"/>
   <trkpt lat="60.827532" lon="7.120557"/>
   <trkpt lat="60.827788" lon="7.120922"/>
   <trkpt lat="60.828104" lon="7.121627"/>
   <trkpt lat="60.828202" lon="7.121843"/>
   <trkpt lat="60.828311" lon="7.122118"/>
   <trkpt lat="60.828404" lon="7.122395"/>
   <trkpt lat="60.828547" lon="7.122841"/>
   <trkpt lat="60.828627" lon="7.123067"/>
   <trkpt lat="60.828725" lon="7.12329"/>
   <trkpt lat="60.828781" lon="7.1234"/>
   <trkpt lat="60.828848" lon="7.123518"/>
   <trkpt lat="60.829" lon="7.123735"/>
   <trkpt lat="60.829123" lon="7.123856"/>
   <trkpt lat="60.829294" lon="7.123976"/>
   <trkpt lat="60.829385" lon="7.124018"/>
   <trkpt lat="60.829521" lon="7.12406"/>
   <trkpt lat="60.829676" lon="7.124075"/>
   <trkpt lat="60.829827" lon="7.124055"/>
   <trkpt lat="60.829931" lon="7.124021"/>
   <trkpt lat="60.83006" lon="7.123962"/>
   <trkpt lat="60.83049" lon="7.123714"/>
   <trkpt lat="60.830805" lon="7.123571"/>
   <trkpt lat="60.831188" lon="7.12345"/>
   <trkpt lat="60.831571" lon="7.123388"/>
   <trkpt lat="60.831891" lon="7.123379"/>
   <trkpt lat="60.832258" lon="7.123423"/>
   <trkpt lat="60.832685" lon="7.123532"/>
   <trkpt lat="60.832904" lon="7.123619"/>
   <trkpt lat="60.833068" lon="7.123714"/>
   <trkpt lat="60.833235" lon="7.123846"/>
   <trkpt lat="60.833387" lon="7.124003"/>
   <trkpt lat="60.833475" lon="7.124112"/>
   <trkpt lat="60.8336" lon="7.124293"/>
   <trkpt lat="60.834029" lon="7.12506"/>
   <trkpt lat="60.834091" lon="7.125157"/>
   <trkpt lat="60.834296" lon="7.125431"/>
   <trkpt lat="60.834494" lon="7.125643"/>
   <trkpt lat="60.834679" lon="7.125794"/>
   <trkpt lat="60.834889" lon="7.125922"/>
   <trkpt lat="60.835111" lon="7.126001"/>
   <trkpt lat="60.83522" lon="7.12602"/>
   <trkpt lat="60.835341" lon="7.126018"/>
   <trkpt lat="60.83545" lon="7.125994"/>
   <trkpt lat="60.835533" lon="7.12596"/>
   <trkpt lat="60.835658" lon="7.125896"/>
   <trkpt lat="60.835767" lon="7.125816"/>
   <trkpt lat="60.8359" lon="7.125686"/>
   <trkpt lat="60.836015" lon="7.125545"/>
   <trkpt lat="60.83637" lon="7.125069"/>
   <trkpt lat="60.836462" lon="7.124953"/>
   <trkpt lat="60.836636" lon="7.124775"/>
   <trkpt lat="60.836789" lon="7.124653"/>
   <trkpt lat="60.836908" lon="7.124573"/>
   <trkpt lat="60.83837" lon="7.123682"/>
   <trkpt lat="60.838705" lon="7.12348"/>
   <trkpt lat="60.838875" lon="7.123377"/>
   <trkpt lat="60.839258" lon="7.123145"/>
   <trkpt lat="60.839329" lon="7.1231"/>
   <trkpt lat="60.839389" lon="7.123064"/>
   <trkpt lat="60.839621" lon="7.122922"/>
   <trkpt lat="60.839759" lon="7.122835"/>
   <trkpt lat="60.840343" lon="7.122462"/>
   <trkpt lat="60.840536" lon="7.122363"/>
   <trkpt lat="60.840633" lon="7.122332"/>
   <trkpt lat="60.840836" lon="7.122321"/>
   <trkpt lat="60.841118" lon="7.12237"/>
   <trkpt lat="60.841734" lon="7.122501"/>
   <trkpt lat="60.84199" lon="7.122556"/>
   <trkpt lat="60.84218" lon="7.122545"/>
   <trkpt lat="60.842334" lon="7.122498"/>
   <trkpt lat="60.842425" lon="7.122449"/>
   <trkpt lat="60.842584" lon="7.122331"/>
   <trkpt lat="60.842734" lon="7.122169"/>
   <trkpt lat="60.842896" lon="7.121946"/>
   <trkpt lat="60.843331" lon="7.121301"/>
   <trkpt lat="60.843542" lon="7.121033"/>
   <trkpt lat="60.843692" lon="7.120856"/>
   <trkpt lat="60.843823" lon="7.12072"/>
   <trkpt lat="60.843835" lon="7.120708"/>
   <trkpt lat="60.844075" lon="7.120478"/>
   <trkpt lat="60.844089" lon="7.120466"/>
   <trkpt lat="60.844389" lon="7.120237"/>
   <trkpt lat="60.844634" lon="7.12009"/>
   <trkpt lat="60.844838" lon="7.119986"/>
   <trkpt lat="60.844967" lon="7.119935"/>
   <trkpt lat="60.844977" lon="7.119931"/>
   <trkpt lat="60.84525" lon="7.119837"/>
   <trkpt lat="60.845631" lon="7.119764"/>
   <trkpt lat="60.846587" lon="7.119657"/>
   <trkpt lat="60.846791" lon="7.119592"/>
   <trkpt lat="60.846954" lon="7.119489"/>
   <trkpt lat="60.84706" lon="7.119401"/>
   <trkpt lat="60.847177" lon="7.119269"/>
   <trkpt lat="60.847305" lon="7.119091"/>
   <trkpt lat="60.847413" lon="7.118899"/>
   <trkpt lat="60.847465" lon="7.118791"/>
   <trkpt lat="60.847561" lon="7.118559"/>
   <trkpt lat="60.847881" lon="7.11756"/>
   <trkpt lat="60.847976" lon="7.117287"/>
   <trkpt lat="60.848099" lon="7.116981"/>
   <trkpt lat="60.848222" lon="7.116711"/>
   <trkpt lat="60.84834" lon="7.116484"/>
   <trkpt lat="60.848487" lon="7.116238"/>
   <trkpt lat="60.848644" lon="7.11601"/>
   <trkpt lat="60.848802" lon="7.115813"/>
   <trkpt lat="60.849003" lon="7.115604"/>
   <trkpt lat="60.849224" lon="7.115415"/>
   <trkpt lat="60.849744" lon="7.114983"/>
   <trkpt lat="60.849953" lon="7.114794"/>
   <trkpt lat="60.850143" lon="7.114609"/>
   <trkpt lat="60.850874" lon="7.113854"/>
   <trkpt lat="60.851031" lon="7.113692"/>
   <trkpt lat="60.851267" lon="7.113445"/>
   <trkpt lat="60.851672" lon="7.113023"/>
   <trkpt lat="60.851907" lon="7.112788"/>
   <trkpt lat="60.852032" lon="7.112676"/>
   <trkpt lat="60.852204" lon="7.112538"/>
   <trkpt lat="60.85241" lon="7.112396"/>
   <trkpt lat="60.852576" lon="7.112292"/>
   <trkpt lat="60.852698" lon="7.11223"/>
   <trkpt lat="60.852986" lon="7.112105"/>
   <trkpt lat="60.853217" lon="7.112034"/>
   <trkpt lat="60.853726" lon="7.111944"/>
   <trkpt lat="60.853759" lon="7.111939"/>
   <trkpt lat="60.854165" lon="7.111877"/>
   <trkpt lat="60.854289" lon="7.111858"/>
   <trkpt lat="60.854687" lon="7.111798"/>
   <trkpt lat="60.854795" lon="7.11177"/>
   <trkpt lat="60.854942" lon="7.111719"/>
   <trkpt lat="60.855163" lon="7.111612"/>
   <trkpt lat="60.855355" lon="7.111482"/>
   <trkpt lat="60.855488" lon="7.111374"/>
   <trkpt lat="60.85556" lon="7.111303"/>
   <trkpt lat="60.855768" lon="7.111082"/>
   <trkpt lat="60.855969" lon="7.110824"/>
   <trkpt lat="60.856762" lon="7.109792"/>
   <trkpt lat="60.857122" lon="7.109323"/>
   <trkpt lat="60.857189" lon="7.109235"/>
   <trkpt lat="60.857216" lon="7.1092"/>
   <trkpt lat="60.857309" lon="7.109078"/>
   <trkpt lat="60.857545" lon="7.10877"/>
   <trkpt lat="60.857642" lon="7.108659"/>
   <trkpt lat="60.857736" lon="7.10857"/>
   <trkpt lat="60.857831" lon="7.108499"/>
   <trkpt lat="60.857922" lon="7.108444"/>
   <trkpt lat="60.858083" lon="7.108381"/>
   <trkpt lat="60.858366" lon="7.108346"/>
   <trkpt lat="60.858613" lon="7.108323"/>
   <trkpt lat="60.858763" lon="7.10828"/>
   <trkpt lat="60.858877" lon="7.108229"/>
   <trkpt lat="60.859003" lon="7.108158"/>
   <trkpt lat="60.859455" lon="7.107856"/>
   <trkpt lat="60.859592" lon="7.107796"/>
   <trkpt lat="60.85975" lon="7.107751"/>
   <trkpt lat="60.859841" lon="7.107741"/>
   <trkpt lat="60.860268" lon="7.107785"/>
   <trkpt lat="60.86043" lon="7.107808"/>
   <trkpt lat="60.860477" lon="7.107814"/>
   <trkpt lat="60.860662" lon="7.107838"/>
   <trkpt lat="60.860671" lon="7.107839"/>
   <trkpt lat="60.861213" lon="7.107909"/>
   <trkpt lat="60.861441" lon="7.107968"/>
   <trkpt lat="60.861551" lon="7.108025"/>
   <trkpt lat="60.861739" lon="7.108169"/>
   <trkpt lat="60.861821" lon="7.108253"/>
   <trkpt lat="60.861908" lon="7.108361"/>
   <trkpt lat="60.86199" lon="7.108482"/>
   <trkpt lat="60.862106" lon="7.108694"/>
   <trkpt lat="60.862143" lon="7.108776"/>
   <trkpt lat="60.862147" lon="7.108786"/>
   <trkpt lat="60.862188" lon="7.108882"/>
   <trkpt lat="60.862251" lon="7.10906"/>
   <trkpt lat="60.862306" lon="7.109254"/>
   <trkpt lat="60.862356" lon="7.109456"/>
   <trkpt lat="60.862447" lon="7.109915"/>
   <trkpt lat="60.862526" lon="7.11036"/>
   <trkpt lat="60.862611" lon="7.110806"/>
   <trkpt lat="60.862651" lon="7.111023"/>
   <trkpt lat="60.862674" lon="7.111146"/>
   <trkpt lat="60.862735" lon="7.111552"/>
   <trkpt lat="60.862838" lon="7.112559"/>
   <trkpt lat="60.862888" lon="7.113214"/>
   <trkpt lat="60.86293" lon="7.113864"/>
   <trkpt lat="60.862971" lon="7.114419"/>
  </trkseg>
 </trk>
</gpx>