<?xml version="1.0" encoding="UTF-8"?>
<!-- track-length = 13743 filtered ascend = 28 plain-ascend = 10 cost=13744 energy=0.2kwh time=18m 20s -->
<gpx 
 xmlns="http://www.topografix.com/GPX/1/1" 
 xmlns:xsi="http://www.w3.org/2001/XMLSchema-instance" 
 xsi:schemaLocation="http://www.topografix.com/GPX/1/1 http://www.topografix.com/GPX/1/1/gpx.xsd" 
 version="1.1" 
 creator="BRouter-Web 0.18.1">
 <trk>
  <name>Flensburg</name>
  <trkseg>
   <trkpt lat="54.728495" lon="9.388057"><ele>34</ele></trkpt>
   <trkpt lat="54.731171" lon="9.386192"><ele>32.5</ele></trkpt>
   <trkpt lat="54.731187" lon="9.386181"><ele>32.5</ele></trkpt>
   <trkpt lat="54.732989" lon="9.384912"><ele>34.75</ele></trkpt>
   <trkpt lat="54.733743" lon="9.384389"><ele>33.25</ele></trkpt>
   <trkpt lat="54.734203" lon="9.384091"><ele>32</ele></trkpt>
   <trkpt lat="54.734907" lon="9.383681"><ele>32.75</ele></trkpt>
   <trkpt lat="54.735581" lon="9.38334"><ele>35</ele></trkpt>
   <trkpt lat="54.736254" lon="9.383045"><ele>36.25</ele></trkpt>
   <trkpt lat="54.736779" lon="9.382849"><ele>37.25</ele></trkpt>
   <trkpt lat="54.737102" lon="9.38274"><ele>36.75</ele></trkpt>
   <trkpt lat="54.737702" lon="9.382567"><ele>36</ele></trkpt>
   <trkpt lat="54.738169" lon="9.382455"><ele>35.75</ele></trkpt>
   <trkpt lat="54.738957" lon="9.382312"><ele>36.5</ele></trkpt>
   <trkpt lat="54.739477" lon="9.382247"><ele>37.5</ele></trkpt>
   <trkpt lat="54.739862" lon="9.38222"><ele>38.25</ele></trkpt>
   <trkpt lat="54.739892" lon="9.382218"><ele>38.25</ele></trkpt>
   <trkpt lat="54.7399" lon="9.382218"><ele>38.25</ele></trkpt>
   <trkpt lat="54.74033" lon="9.382196"><ele>39.25</ele></trkpt>
   <trkpt lat="54.740811" lon="9.38221"><ele>40.5</ele></trkpt>
   <trkpt lat="54.74116" lon="9.38225"><ele>41.75</ele></trkpt>
   <trkpt lat="54.741329" lon="9.382283"><ele>42.5</ele></trkpt>
   <trkpt lat="54.74173" lon="9.382383"><ele>43.75</ele></trkpt>
   <trkpt lat="54.741777" lon="9.382395"><ele>43.75</ele></trkpt>
   <trkpt lat="54.742191" lon="9.38256"><ele>42.5</ele></trkpt>
   <trkpt lat="54.742422" lon="9.38267"><ele>41.75</ele></trkpt>
   <trkpt lat="54.742623" lon="9.382782"><ele>41</ele></trkpt>
   <trkpt lat="54.743185" lon="9.38315"><ele>40.25</ele></trkpt>
   <trkpt lat="54.743696" lon="9.383518"><ele>39.5</ele></trkpt>
   <trkpt lat="54.743705" lon="9.383525"><ele>39.5</ele></trkpt>
   <trkpt lat="54.745635" lon="9.384946"><ele>39.75</ele></trkpt>
   <trkpt lat="54.748395" lon="9.386987"><ele>39.75</ele></trkpt>
   <trkpt lat="54.74908" lon="9.387466"><ele>39</ele></trkpt>
   <trkpt lat="54.749544" lon="9.387744"><ele>39.25</ele></trkpt>
   <trkpt lat="54.74987" lon="9.387926"><ele>39.75</ele></trkpt>
   <trkpt lat="54.750957" lon="9.388504"><ele>39.5</ele></trkpt>
   <trkpt lat="54.751254" lon="9.388674"><ele>39.25</ele></trkpt>
   <trkpt lat="54.751737" lon="9.38899"><ele>38.75</ele></trkpt>
   <trkpt lat="54.752074" lon="9.389253"><ele>38.25</ele></trkpt>
   <trkpt lat="54.75229" lon="9.389448"><ele>38</ele></trkpt>
   <trkpt lat="54.752567" lon="9.389718"><ele>38</ele></trkpt>
   <trkpt lat="54.752889" lon="9.390091"><ele>38.75</ele></trkpt>
   <trkpt lat="54.75312" lon="9.390376"><ele>39.5</ele></trkpt>
   <trkpt lat="54.753454" lon="9.390848"><ele>40</ele></trkpt>
   <trkpt lat="54.753759" lon="9.391333"><ele>39.75</ele></trkpt>
   <trkpt lat="54.755369" lon="9.394061"><ele>39.5</ele></trkpt>
   <trkpt lat="54.758389" lon="9.398974"><ele>38.75</ele></trkpt>
   <trkpt lat="54.758548" lon="9.399241"><ele>38.75</ele></trkpt>
   <trkpt lat="54.758621" lon="9.399366"><ele>38.5</ele></trkpt>
   <trkpt lat="54.758931" lon="9.399912"><ele>38.75</ele></trkpt>
   <trkpt lat="54.759206" lon="9.400451"><ele>39</ele></trkpt>
   <trkpt lat="54.759412" lon="9.400901"><ele>39</ele></trkpt>
   <trkpt lat="54.759572" lon="9.401273"><ele>39</ele></trkpt>
   <trkpt lat="54.759887" lon="9.402049"><ele>38.25</ele></trkpt>
   <trkpt lat="54.760431" lon="9.403428"><ele>37</ele></trkpt>
   <trkpt lat="54.760496" lon="9.403602"><ele>37</ele></trkpt>
   <trkpt lat="54.760514" lon="9.403648"><ele>37</ele></trkpt>
   <trkpt lat="54.760915" lon="9.404663"><ele>37</ele></trkpt>
   <trkpt lat="54.761074" lon="9.405057"><ele>36.75</ele></trkpt>
   <trkpt lat="54.761225" lon="9.40544"><ele>36.75</ele></trkpt>
   <trkpt lat="54.761499" lon="9.406093"><ele>35.75</ele></trkpt>
   <trkpt lat="54.761745" lon="9.406643"><ele>34.75</ele></trkpt>
   <trkpt lat="54.761942" lon="9.407059"><ele>34.5</ele></trkpt>
   <trkpt lat="54.76216" lon="9.407505"><ele>34.25</ele></trkpt>
   <trkpt lat="54.762519" lon="9.408195"><ele>33</ele></trkpt>
   <trkpt lat="54.762848" lon="9.408794"><ele>32.75</ele></trkpt>
   <trkpt lat="54.763106" lon="9.409246"><ele>32.5</ele></trkpt>
   <trkpt lat="54.763519" lon="9.409931"><ele>32.75</ele></trkpt>
   <trkpt lat="54.763752" lon="9.410298"><ele>33.5</ele></trkpt>
   <trkpt lat="54.764034" lon="9.410725"><ele>34</ele></trkpt>
   <trkpt lat="54.764419" lon="9.411284"><ele>34.75</ele></trkpt>
   <trkpt lat="54.764521" lon="9.411435"><ele>34.75</ele></trkpt>
   <trkpt lat="54.765076" lon="9.412192"><ele>34</ele></trkpt>
   <trkpt lat="54.76554" lon="9.412803"><ele>33.25</ele></trkpt>
   <trkpt lat="54.766563" lon="9.414123"><ele>30.25</ele></trkpt>
   <trkpt lat="54.767879" lon="9.415799"><ele>29.75</ele></trkpt>
   <trkpt lat="54.768159" lon="9.416177"><ele>30.75</ele></trkpt>
   <trkpt lat="54.768814" lon="9.417018"><ele>31</ele></trkpt>
   <trkpt lat="54.768844" lon="9.417057"><ele>31</ele></trkpt>
   <trkpt lat="54.769531" lon="9.417924"><ele>28</ele></trkpt>
   <trkpt lat="54.769709" lon="9.418131"><ele>27.5</ele></trkpt>
   <trkpt lat="54.770074" lon="9.418528"><ele>26.75</ele></trkpt>
   <trkpt lat="54.770367" lon="9.418831"><ele>26.5</ele></trkpt>
   <trkpt lat="54.770815" lon="9.419274"><ele>25.75</ele></trkpt>
   <trkpt lat="54.772564" lon="9.420977"><ele>24.25</ele></trkpt>
   <trkpt lat="54.772784" lon="9.421191"><ele>23.5</ele></trkpt>
   <trkpt lat="54.772791" lon="9.421198"><ele>23.5</ele></trkpt>
   <trkpt lat="54.77336" lon="9.421776"><ele>22.25</ele></trkpt>
   <trkpt lat="54.773519" lon="9.421951"><ele>22.75</ele></trkpt>
   <trkpt lat="54.773673" lon="9.422137"><ele>23.25</ele></trkpt>
   <trkpt lat="54.773947" lon="9.422518"><ele>24</ele></trkpt>
   <trkpt lat="54.774063" lon="9.422707"><ele>24.25</ele></trkpt>
   <trkpt lat="54.774328" lon="9.423168"><ele>24.25</ele></trkpt>
   <trkpt lat="54.774463" lon="9.423442"><ele>24</ele></trkpt>
   <trkpt lat="54.774646" lon="9.423859"><ele>24.25</ele></trkpt>
   <trkpt lat="54.774848" lon="9.424398"><ele>24.5</ele></trkpt>
   <trkpt lat="54.774965" lon="9.424759"><ele>24.5</ele></trkpt>
   <trkpt lat="54.775022" lon="9.424955"><ele>24.75</ele></trkpt>
   <trkpt lat="54.775168" lon="9.425543"><ele>25.75</ele></trkpt>
   <trkpt lat="54.775244" lon="9.425893"><ele>26.25</ele></trkpt>
   <trkpt lat="54.775276" lon="9.426075"><ele>26.75</ele></trkpt>
   <trkpt lat="54.775367" lon="9.426676"><ele>28.25</ele></trkpt>
   <trkpt lat="54.775388" lon="9.426857"><ele>28.5</ele></trkpt>
   <trkpt lat="54.775407" lon="9.427038"><ele>28.75</ele></trkpt>
   <trkpt lat="54.775439" lon="9.427527"><ele>29.75</ele></trkpt>
   <trkpt lat="54.775465" lon="9.428105"><ele>31.25</ele></trkpt>
   <trkpt lat="54.775465" lon="9.428148"><ele>31.5</ele></trkpt>
   <trkpt lat="54.775466" lon="9.428333"><ele>32</ele></trkpt>
   <trkpt lat="54.77549" lon="9.429184"><ele>32.75</ele></trkpt>
   <trkpt lat="54.775427" lon="9.429972"><ele>34.75</ele></trkpt>
   <trkpt lat="54.775406" lon="9.430193"><ele>35.25</ele></trkpt>
   <trkpt lat="54.775341" lon="9.430648"><ele>36</ele></trkpt>
   <trkpt lat="54.775167" lon="9.431663"><ele>37.5</ele></trkpt>
   <trkpt lat="54.775139" lon="9.431827"><ele>37.5</ele></trkpt>
   <trkpt lat="54.775063" lon="9.432268"><ele>37</ele></trkpt>
   <trkpt lat="54.774942" lon="9.432878"><ele>36.25</ele></trkpt>
   <trkpt lat="54.77481" lon="9.433394"><ele>35.75</ele></trkpt>
   <trkpt lat="54.774675" lon="9.433855"><ele>35.25</ele></trkpt>
   <trkpt lat="54.774149" lon="9.435541"><ele>32</ele></trkpt>
   <trkpt lat="54.773991" lon="9.436053"><ele>30.75</ele></trkpt>
   <trkpt lat="54.773957" lon="9.436164"><ele>30.75</ele></trkpt>
   <trkpt lat="54.773474" lon="9.437755"><ele>29</ele></trkpt>
   <trkpt lat="54.77322" lon="9.438714"><ele>27.5</ele></trkpt>
   <trkpt lat="54.772355" lon="9.441525"><ele>23.5</ele></trkpt>
   <trkpt lat="54.772244" lon="9.441915"><ele>23.5</ele></trkpt>
   <trkpt lat="54.772199" lon="9.442073"><ele>23.75</ele></trkpt>
   <trkpt lat="54.771922" lon="9.443274"><ele>28</ele></trkpt>
   <trkpt lat="54.771858" lon="9.443525"><ele>28.5</ele></trkpt>
   <trkpt lat="54.771764" lon="9.443832"><ele>28.75</ele></trkpt>
   <trkpt lat="54.771563" lon="9.44444"><ele>29.5</ele></trkpt>
   <trkpt lat="54.771535" lon="9.444517"><ele>29.75</ele></trkpt>
   <trkpt lat="54.771357" lon="9.444981"><ele>31</ele></trkpt>
   <trkpt lat="54.771281" lon="9.445162"><ele>31.5</ele></trkpt>
   <trkpt lat="54.771059" lon="9.445645"><ele>32.75</ele></trkpt>
   <trkpt lat="54.770905" lon="9.445935"><ele>32.75</ele></trkpt>
   <trkpt lat="54.770621" lon="9.446416"><ele>31.25</ele></trkpt>
   <trkpt lat="54.77033" lon="9.446825"><ele>31</ele></trkpt>
   <trkpt lat="54.769952" lon="9.447282"><ele>30.75</ele></trkpt>
   <trkpt lat="54.769767" lon="9.447474"><ele>30.75</ele></trkpt>
   <trkpt lat="54.769524" lon="9.447702"><ele>30.75</ele></trkpt>
   <trkpt lat="54.769122" lon="9.448011"><ele>31.25</ele></trkpt>
   <trkpt lat="54.768965" lon="9.448106"><ele>31.5</ele></trkpt>
   <trkpt lat="54.768516" lon="9.448338"><ele>33</ele></trkpt>
   <trkpt lat="54.768177" lon="9.448449"><ele>34.75</ele></trkpt>
   <trkpt lat="54.767791" lon="9.44855"><ele>36.5</ele></trkpt>
   <trkpt lat="54.767593" lon="9.448576"><ele>37.5</ele></trkpt>
   <trkpt lat="54.7672" lon="9.448585"><ele>37.25</ele></trkpt>
   <trkpt lat="54.766731" lon="9.448527"><ele>36.25</ele></trkpt>
   <trkpt lat="54.76646" lon="9.44846"><ele>36.25</ele></trkpt>
   <trkpt lat="54.76619" lon="9.448361"><ele>36.5</ele></trkpt>
   <trkpt lat="54.765791" lon="9.448162"><ele>36.75</ele></trkpt>
   <trkpt lat="54.765422" lon="9.447929"><ele>36.75</ele></trkpt>
   <trkpt lat="54.765084" lon="9.44766"><ele>36.25</ele></trkpt>
   <trkpt lat="54.76466" lon="9.447243"><ele>36</ele></trkpt>
   <trkpt lat="54.764333" lon="9.446861"><ele>36</ele></trkpt>
   <trkpt lat="54.764026" lon="9.446416"><ele>36</ele></trkpt>
   <trkpt lat="54.763706" lon="9.44587"><ele>36.5</ele></trkpt>
   <trkpt lat="54.76346" lon="9.445349"><ele>36.75</ele></trkpt>
   <trkpt lat="54.763334" lon="9.445069"><ele>36.75</ele></trkpt>
   <trkpt lat="54.76311" lon="9.44454"><ele>36.25</ele></trkpt>
   <trkpt lat="54.762975" lon="9.444132"><ele>35.75</ele></trkpt>
   <trkpt lat="54.762823" lon="9.443608"><ele>35.5</ele></trkpt>
   <trkpt lat="54.762698" lon="9.443096"><ele>35.75</ele></trkpt>
   <trkpt lat="54.762592" lon="9.44256"><ele>36.5</ele></trkpt>
   <trkpt lat="54.76248" lon="9.44183"><ele>37</ele></trkpt>
   <trkpt lat="54.762453" lon="9.441603"><ele>36.75</ele></trkpt>
   <trkpt lat="54.762401" lon="9.440957"><ele>36.25</ele></trkpt>
   <trkpt lat="54.762369" lon="9.440143"><ele>35.25</ele></trkpt>
   <trkpt lat="54.762374" lon="9.439567"><ele>35</ele></trkpt>
   <trkpt lat="54.762406" lon="9.438994"><ele>35</ele></trkpt>
   <trkpt lat="54.762473" lon="9.438271"><ele>35</ele></trkpt>
   <trkpt lat="54.762617" lon="9.437185"><ele>35.25</ele></trkpt>
   <trkpt lat="54.763165" lon="9.43325"><ele>34.5</ele></trkpt>
   <trkpt lat="54.763875" lon="9.42795"><ele>31.75</ele></trkpt>
   <trkpt lat="54.763892" lon="9.42782"><ele>31.75</ele></trkpt>
   <trkpt lat="54.763929" lon="9.427547"><ele>31.75</ele></trkpt>
   <trkpt lat="54.76408" lon="9.426425"><ele>31.75</ele></trkpt>
   <trkpt lat="54.76411" lon="9.426192"><ele>32.5</ele></trkpt>
   <trkpt lat="54.764111" lon="9.42618"><ele>32.75</ele></trkpt>
   <trkpt lat="54.764595" lon="9.422514"><ele>30</ele></trkpt>
   <trkpt lat="54.764669" lon="9.421905"><ele>30</ele></trkpt>
   <trkpt lat="54.764786" lon="9.420781"><ele>31.75</ele></trkpt>
   <trkpt lat="54.764814" lon="9.420389"><ele>32.5</ele></trkpt>
   <trkpt lat="54.764835" lon="9.419991"><ele>33.25</ele></trkpt>
   <trkpt lat="54.764847" lon="9.419552"><ele>33.75</ele></trkpt>
   <trkpt lat="54.76485" lon="9.419112"><ele>34.25</ele></trkpt>
   <trkpt lat="54.764844" lon="9.418709"><ele>34.25</ele></trkpt>
   <trkpt lat="54.764828" lon="9.418309"><ele>34.25</ele></trkpt>
   <trkpt lat="54.764783" lon="9.417575"><ele>34.25</ele></trkpt>
   <trkpt lat="54.764759" lon="9.417249"><ele>34.5</ele></trkpt>
   <trkpt lat="54.764471" lon="9.413501"><ele>39</ele></trkpt>
   <trkpt lat="54.764428" lon="9.413002"><ele>38.75</ele></trkpt>
   <trkpt lat="54.764384" lon="9.412562"><ele>37.75</ele></trkpt>
   <trkpt lat="54.76433" lon="9.412125"><ele>36.75</ele></trkpt>
   <trkpt lat="54.7642" lon="9.411266"><ele>35</ele></trkpt>
   <trkpt lat="54.764056" lon="9.410444"><ele>33.5</ele></trkpt>
   <trkpt lat="54.76358" lon="9.40756"><ele>33.75</ele></trkpt>
   <trkpt lat="54.76353" lon="9.407251"><ele>34.25</ele></trkpt>
   <trkpt lat="54.763455" lon="9.406634"><ele>35.25</ele></trkpt>
   <trkpt lat="54.763406" lon="9.406025"><ele>35.75</ele></trkpt>
   <trkpt lat="54.763375" lon="9.405433"><ele>36.5</ele></trkpt>
   <trkpt lat="54.763372" lon="9.40486"><ele>37</ele></trkpt>
   <trkpt lat="54.763389" lon="9.40429"><ele>37</ele></trkpt>
   <trkpt lat="54.763432" lon="9.403718"><ele>37.25</ele></trkpt>
   <trkpt lat="54.763483" lon="9.4032"><ele>37.5</ele></trkpt>
   <trkpt lat="54.763551" lon="9.402727"><ele>37.5</ele></trkpt>
   <trkpt lat="54.763639" lon="9.402249"><ele>37.5</ele></trkpt>
   <trkpt lat="54.76375" lon="9.40175"><ele>37.75</ele></trkpt>
   <trkpt lat="54.763887" lon="9.401245"><ele>38</ele></trkpt>
   <trkpt lat="54.764054" lon="9.40074"><ele>38</ele></trkpt>
   <trkpt lat="54.76423" lon="9.40027"><ele>38</ele></trkpt>
   <trkpt lat="54.764468" lon="9.399739"><ele>38.5</ele></trkpt>
   <trkpt lat="54.764766" lon="9.399198"><ele>38.75</ele></trkpt>
   <trkpt lat="54.765076" lon="9.398725"><ele>39</ele></trkpt>
   <trkpt lat="54.765242" lon="9.398495"><ele>39.5</ele></trkpt>
   <trkpt lat="54.765618" lon="9.398034"><ele>40.5</ele></trkpt>
   <trkpt lat="54.767854" lon="9.39544"><ele>37</ele></trkpt>
   <trkpt lat="54.770211" lon="9.392649"><ele>34.5</ele></trkpt>
   <trkpt lat="54.770251" lon="9.392604"><ele>34.75</ele></trkpt>
   <trkpt lat="54.770499" lon="9.392312"><ele>35.75</ele></trkpt>
   <trkpt lat="54.771151" lon="9.391449"><ele>37</ele></trkpt>
   <trkpt lat="54.771443" lon="9.391093"><ele>36.5</ele></trkpt>
   <trkpt lat="54.771593" lon="9.390917"><ele>36.25</ele></trkpt>
   <trkpt lat="54.773634" lon="9.388559"><ele>35.5</ele></trkpt>
   <trkpt lat="54.773635" lon="9.388557"><ele>35.5</ele></trkpt>
   <trkpt lat="54.775377" lon="9.386529"><ele>37.75</ele></trkpt>
   <trkpt lat="54.776208" lon="9.385621"><ele>39.25</ele></trkpt>
   <trkpt lat="54.776794" lon="9.385057"><ele>40.25</ele></trkpt>
   <trkpt lat="54.777375" lon="9.384556"><ele>41.5</ele></trkpt>
   <trkpt lat="54.777914" lon="9.384143"><ele>41</ele></trkpt>
   <trkpt lat="54.778753" lon="9.383587"><ele>38.75</ele></trkpt>
   <trkpt lat="54.779861" lon="9.382956"><ele>43</ele></trkpt>
  </trkseg>
 </trk>
</gpx>