<?xml version="1.0" encoding="UTF-8"?>
<!-- track-length = 64912 filtered ascend = 92 plain-ascend = 16 cost=64912 energy=0.8kwh time=1h 26m 33s -->
<gpx 
 xmlns="http://www.topografix.com/GPX/1/1" 
 xmlns:xsi="http://www.w3.org/2001/XMLSchema-instance" 
 xsi:schemaLocation="http://www.topografix.com/GPX/1/1 http://www.topografix.com/GPX/1/1/gpx.xsd" 
 version="1.1" 
 creator="BRouter-Web 0.18.1">
 <trk>
  <name>frankfurtaschaffenburg</name>
  <trkseg>
   <trkpt lat="50.106743" lon="8.663102"><ele>114</ele></trkpt>
   <trkpt lat="50.106578" lon="8.662687"><ele>113.5</ele></trkpt>
   <trkpt lat="50.106017" lon="8.661253"><ele>107.5</ele></trkpt>
   <trkpt lat="50.105917" lon="8.660995"><ele>106</ele></trkpt>
   <trkpt lat="50.105738" lon="8.660548"><ele>103.75</ele></trkpt>
   <trkpt lat="50.105733" lon="8.660534"><ele>103.75</ele></trkpt>
   <trkpt lat="50.105294" lon="8.659425"><ele>101.5</ele></trkpt>
   <trkpt lat="50.105245" lon="8.659292"><ele>101.25</ele></trkpt>
   <trkpt lat="50.105113" lon="8.658908"><ele>100.25</ele></trkpt>
   <trkpt lat="50.104998" lon="8.658668"><ele>99.75</ele></trkpt>
   <trkpt lat="50.104768" lon="8.658206"><ele>98.25</ele></trkpt>
   <trkpt lat="50.104551" lon="8.657771"><ele>98.25</ele></trkpt>
   <trkpt lat="50.104351" lon="8.657266"><ele>98.25</ele></trkpt>
   <trkpt lat="50.104165" lon="8.65679"><ele>98.75</ele></trkpt>
   <trkpt lat="50.103942" lon="8.656344"><ele>98.75</ele></trkpt>
   <trkpt lat="50.103829" lon="8.656125"><ele>98.25</ele></trkpt>
   <trkpt lat="50.103722" lon="8.655913"><ele>98</ele></trkpt>
   <trkpt lat="50.103662" lon="8.655792"><ele>97.75</ele></trkpt>
   <trkpt lat="50.103602" lon="8.655665"><ele>97.75</ele></trkpt>
   <trkpt lat="50.103404" lon="8.655221"><ele>97.25</ele></trkpt>
   <trkpt lat="50.103336" lon="8.655045"><ele>97</ele></trkpt>
   <trkpt lat="50.103025" lon="8.654193"><ele>98.75</ele></trkpt>
   <trkpt lat="50.102504" lon="8.652724"><ele>97.5</ele></trkpt>
   <trkpt lat="50.102345" lon="8.652313"><ele>98.25</ele></trkpt>
   <trkpt lat="50.102188" lon="8.651951"><ele>99.25</ele></trkpt>
   <trkpt lat="50.102099" lon="8.651765"><ele>99.75</ele></trkpt>
   <trkpt lat="50.101966" lon="8.651523"><ele>100</ele></trkpt>
   <trkpt lat="50.101847" lon="8.651349"><ele>100.25</ele></trkpt>
   <trkpt lat="50.101598" lon="8.651009"><ele>100</ele></trkpt>
   <trkpt lat="50.101424" lon="8.650822"><ele>99.5</ele></trkpt>
   <trkpt lat="50.101316" lon="8.650716"><ele>99.25</ele></trkpt>
   <trkpt lat="50.101155" lon="8.650582"><ele>99</ele></trkpt>
   <trkpt lat="50.100906" lon="8.650407"><ele>99</ele></trkpt>
   <trkpt lat="50.100789" lon="8.650342"><ele>99</ele></trkpt>
   <trkpt lat="50.100583" lon="8.650244"><ele>99</ele></trkpt>
   <trkpt lat="50.100495" lon="8.650212"><ele>99</ele></trkpt>
   <trkpt lat="50.100214" lon="8.650134"><ele>99</ele></trkpt>
   <trkpt lat="50.100109" lon="8.650118"><ele>99</ele></trkpt>
   <trkpt lat="50.099913" lon="8.650107"><ele>99.25</ele></trkpt>
   <trkpt lat="50.099755" lon="8.650111"><ele>99.75</ele></trkpt>
   <trkpt lat="50.099563" lon="8.65014"><ele>100.25</ele></trkpt>
   <trkpt lat="50.099382" lon="8.650193"><ele>101</ele></trkpt>
   <trkpt lat="50.099124" lon="8.650294"><ele>101.5</ele></trkpt>
   <trkpt lat="50.098978" lon="8.65037"><ele>101.5</ele></trkpt>
   <trkpt lat="50.098726" lon="8.650549"><ele>101.5</ele></trkpt>
   <trkpt lat="50.098556" lon="8.650695"><ele>101.5</ele></trkpt>
   <trkpt lat="50.098509" lon="8.650737"><ele>101.5</ele></trkpt>
   <trkpt lat="50.098388" lon="8.650859"><ele>101.75</ele></trkpt>
   <trkpt lat="50.098027" lon="8.651249"><ele>101.75</ele></trkpt>
   <trkpt lat="50.097777" lon="8.651531"><ele>101.5</ele></trkpt>
   <trkpt lat="50.097347" lon="8.652009"><ele>101.25</ele></trkpt>
   <trkpt lat="50.096772" lon="8.652647"><ele>100.5</ele></trkpt>
   <trkpt lat="50.096753" lon="8.652668"><ele>100.5</ele></trkpt>
   <trkpt lat="50.094653" lon="8.655017"><ele>99.75</ele></trkpt>
   <trkpt lat="50.09451" lon="8.655177"><ele>100</ele></trkpt>
   <trkpt lat="50.094392" lon="8.65532"><ele>100.25</ele></trkpt>
   <trkpt lat="50.094276" lon="8.655472"><ele>100.5</ele></trkpt>
   <trkpt lat="50.094099" lon="8.655733"><ele>100.75</ele></trkpt>
   <trkpt lat="50.09388" lon="8.656113"><ele>100.5</ele></trkpt>
   <trkpt lat="50.093777" lon="8.656314"><ele>100.25</ele></trkpt>
   <trkpt lat="50.093603" lon="8.656691"><ele>100.5</ele></trkpt>
   <trkpt lat="50.093434" lon="8.657099"><ele>100.75</ele></trkpt>
   <trkpt lat="50.093263" lon="8.657638"><ele>100.5</ele></trkpt>
   <trkpt lat="50.093222" lon="8.657793"><ele>100.25</ele></trkpt>
   <trkpt lat="50.093119" lon="8.65824"><ele>99.75</ele></trkpt>
   <trkpt lat="50.093034" lon="8.658697"><ele>99.25</ele></trkpt>
   <trkpt lat="50.092857" lon="8.659918"><ele>98.5</ele></trkpt>
   <trkpt lat="50.092855" lon="8.659927"><ele>98.5</ele></trkpt>
   <trkpt lat="50.09282" lon="8.660174"><ele>98.5</ele></trkpt>
   <trkpt lat="50.092775" lon="8.660454"><ele>98.5</ele></trkpt>
   <trkpt lat="50.092692" lon="8.660997"><ele>98.75</ele></trkpt>
   <trkpt lat="50.09261" lon="8.661468"><ele>98.75</ele></trkpt>
   <trkpt lat="50.092525" lon="8.661877"><ele>99.25</ele></trkpt>
   <trkpt lat="50.092438" lon="8.66225"><ele>99.75</ele></trkpt>
   <trkpt lat="50.092338" lon="8.662638"><ele>100.25</ele></trkpt>
   <trkpt lat="50.092221" lon="8.663039"><ele>100.75</ele></trkpt>
   <trkpt lat="50.092046" lon="8.663556"><ele>101</ele></trkpt>
   <trkpt lat="50.091965" lon="8.663784"><ele>101</ele></trkpt>
   <trkpt lat="50.091844" lon="8.664105"><ele>101</ele></trkpt>
   <trkpt lat="50.091707" lon="8.664455"><ele>100.5</ele></trkpt>
   <trkpt lat="50.091498" lon="8.664928"><ele>100.25</ele></trkpt>
   <trkpt lat="50.091374" lon="8.665204"><ele>100.5</ele></trkpt>
   <trkpt lat="50.090982" lon="8.66595"><ele>101.5</ele></trkpt>
   <trkpt lat="50.090772" lon="8.666297"><ele>102</ele></trkpt>
   <trkpt lat="50.090477" lon="8.666747"><ele>102.25</ele></trkpt>
   <trkpt lat="50.0904" lon="8.666852"><ele>102.5</ele></trkpt>
   <trkpt lat="50.090304" lon="8.666986"><ele>102.5</ele></trkpt>
   <trkpt lat="50.089894" lon="8.667537"><ele>102.75</ele></trkpt>
   <trkpt lat="50.08969" lon="8.667813"><ele>102.25</ele></trkpt>
   <trkpt lat="50.089486" lon="8.668051"><ele>101.5</ele></trkpt>
   <trkpt lat="50.089121" lon="8.66841"><ele>101</ele></trkpt>
   <trkpt lat="50.088607" lon="8.668842"><ele>103.5</ele></trkpt>
   <trkpt lat="50.088382" lon="8.669021"><ele>104.75</ele></trkpt>
   <trkpt lat="50.088174" lon="8.669172"><ele>105.25</ele></trkpt>
   <trkpt lat="50.087667" lon="8.669436"><ele>106</ele></trkpt>
   <trkpt lat="50.087101" lon="8.669691"><ele>107.75</ele></trkpt>
   <trkpt lat="50.087019" lon="8.669736"><ele>108.25</ele></trkpt>
   <trkpt lat="50.086774" lon="8.669835"><ele>109.5</ele></trkpt>
   <trkpt lat="50.086033" lon="8.67007"><ele>109.75</ele></trkpt>
   <trkpt lat="50.085644" lon="8.670147"><ele>109.5</ele></trkpt>
   <trkpt lat="50.08534" lon="8.670191"><ele>109</ele></trkpt>
   <trkpt lat="50.084951" lon="8.670221"><ele>108.75</ele></trkpt>
   <trkpt lat="50.084899" lon="8.670225"><ele>108.75</ele></trkpt>
   <trkpt lat="50.084528" lon="8.670226"><ele>109.75</ele></trkpt>
   <trkpt lat="50.084259" lon="8.67021"><ele>110.5</ele></trkpt>
   <trkpt lat="50.083737" lon="8.670155"><ele>110.25</ele></trkpt>
   <trkpt lat="50.083278" lon="8.670089"><ele>109.75</ele></trkpt>
   <trkpt lat="50.083208" lon="8.670077"><ele>109.5</ele></trkpt>
   <trkpt lat="50.082467" lon="8.669973"><ele>108</ele></trkpt>
   <trkpt lat="50.081303" lon="8.6698"><ele>109.75</ele></trkpt>
   <trkpt lat="50.080463" lon="8.669687"><ele>109.5</ele></trkpt>
   <trkpt lat="50.080014" lon="8.669609"><ele>110.25</ele></trkpt>
   <trkpt lat="50.079182" lon="8.669493"><ele>115.25</ele></trkpt>
   <trkpt lat="50.078937" lon="8.66946"><ele>116.5</ele></trkpt>
   <trkpt lat="50.078211" lon="8.669351"><ele>119.75</ele></trkpt>
   <trkpt lat="50.077583" lon="8.669255"><ele>121.75</ele></trkpt>
   <trkpt lat="50.07505" lon="8.668898"><ele>122</ele></trkpt>
   <trkpt lat="50.074047" lon="8.668744"><ele>120.5</ele></trkpt>
   <trkpt lat="50.072354" lon="8.668493"><ele>117.75</ele></trkpt>
   <trkpt lat="50.071045" lon="8.668307"><ele>115.5</ele></trkpt>
   <trkpt lat="50.070019" lon="8.668155"><ele>117.75</ele></trkpt>
   <trkpt lat="50.069776" lon="8.668126"><ele>117.5</ele></trkpt>
   <trkpt lat="50.069746" lon="8.668122"><ele>117.5</ele></trkpt>
   <trkpt lat="50.066695" lon="8.667671"><ele>121.25</ele></trkpt>
   <trkpt lat="50.06572" lon="8.667526"><ele>122.5</ele></trkpt>
   <trkpt lat="50.065338" lon="8.667473"><ele>123</ele></trkpt>
   <trkpt lat="50.065281" lon="8.667465"><ele>123</ele></trkpt>
   <trkpt lat="50.064428" lon="8.667339"><ele>123.25</ele></trkpt>
   <trkpt lat="50.064395" lon="8.667336"><ele>123.25</ele></trkpt>
   <trkpt lat="50.064303" lon="8.667325"><ele>123.5</ele></trkpt>
   <trkpt lat="50.064266" lon="8.667319"><ele>123.75</ele></trkpt>
   <trkpt lat="50.062821" lon="8.667105"><ele>123.25</ele></trkpt>
   <trkpt lat="50.061746" lon="8.666957"><ele>122.5</ele></trkpt>
   <trkpt lat="50.060668" lon="8.666791"><ele>118</ele></trkpt>
   <trkpt lat="50.059648" lon="8.666649"><ele>120.5</ele></trkpt>
   <trkpt lat="50.058885" lon="8.666531"><ele>120.5</ele></trkpt>
   <trkpt lat="50.05664" lon="8.666206"><ele>121.5</ele></trkpt>
   <trkpt lat="50.053213" lon="8.665711"><ele>120</ele></trkpt>
   <trkpt lat="50.049069" lon="8.6651"><ele>119.25</ele></trkpt>
   <trkpt lat="50.046867" lon="8.664785"><ele>125.5</ele></trkpt>
   <trkpt lat="50.045691" lon="8.664608"><ele>127.5</ele></trkpt>
   <trkpt lat="50.042742" lon="8.664184"><ele>126.5</ele></trkpt>
   <trkpt lat="50.042592" lon="8.664161"><ele>126.75</ele></trkpt>
   <trkpt lat="50.039868" lon="8.663758"><ele>127.75</ele></trkpt>
   <trkpt lat="50.038651" lon="8.663582"><ele>126.25</ele></trkpt>
   <trkpt lat="50.034142" lon="8.662925"><ele>131.25</ele></trkpt>
   <trkpt lat="50.029969" lon="8.662326"><ele>131</ele></trkpt>
   <trkpt lat="50.029195" lon="8.66221"><ele>128.25</ele></trkpt>
   <trkpt lat="50.027338" lon="8.66194"><ele>126.25</ele></trkpt>
   <trkpt lat="50.02729" lon="8.66193"><ele>126.25</ele></trkpt>
   <trkpt lat="50.027186" lon="8.661916"><ele>126.25</ele></trkpt>
   <trkpt lat="50.027152" lon="8.66191"><ele>126.5</ele></trkpt>
   <trkpt lat="50.026591" lon="8.661825"><ele>127.25</ele></trkpt>
   <trkpt lat="50.026571" lon="8.661822"><ele>127.25</ele></trkpt>
   <trkpt lat="50.025881" lon="8.661722"><ele>128.75</ele></trkpt>
   <trkpt lat="50.021866" lon="8.66114"><ele>125.25</ele></trkpt>
   <trkpt lat="50.021339" lon="8.661062"><ele>125.25</ele></trkpt>
   <trkpt lat="50.017678" lon="8.660529"><ele>135.75</ele></trkpt>
   <trkpt lat="50.016864" lon="8.660412"><ele>134.25</ele></trkpt>
   <trkpt lat="50.015222" lon="8.660164"><ele>133.5</ele></trkpt>
   <trkpt lat="50.008371" lon="8.659172"><ele>129</ele></trkpt>
   <trkpt lat="50.008364" lon="8.659171"><ele>129</ele></trkpt>
   <trkpt lat="50.006562" lon="8.65891"><ele>127.25</ele></trkpt>
   <trkpt lat="50.006399" lon="8.658887"><ele>127</ele></trkpt>
   <trkpt lat="50.005724" lon="8.658792"><ele>126.75</ele></trkpt>
   <trkpt lat="50.005547" lon="8.658765"><ele>126.25</ele></trkpt>
   <trkpt lat="50.005365" lon="8.658737"><ele>126</ele></trkpt>
   <trkpt lat="50.004265" lon="8.65858"><ele>126</ele></trkpt>
   <trkpt lat="50.003027" lon="8.6584"><ele>127</ele></trkpt>
   <trkpt lat="50.001767" lon="8.658214"><ele>125.75</ele></trkpt>
   <trkpt lat="50.001512" lon="8.658177"><ele>125.75</ele></trkpt>
   <trkpt lat="50.001224" lon="8.658136"><ele>125.25</ele></trkpt>
   <trkpt lat="50.000609" lon="8.658047"><ele>125</ele></trkpt>
   <trkpt lat="49.998014" lon="8.657671"><ele>123</ele></trkpt>
   <trkpt lat="49.996608" lon="8.657461"><ele>123</ele></trkpt>
   <trkpt lat="49.996508" lon="8.657448"><ele>123</ele></trkpt>
   <trkpt lat="49.995286" lon="8.657257"><ele>122.25</ele></trkpt>
   <trkpt lat="49.994512" lon="8.657158"><ele>122</ele></trkpt>
   <trkpt lat="49.993499" lon="8.657008"><ele>124.25</ele></trkpt>
   <trkpt lat="49.989503" lon="8.65643"><ele>125.75</ele></trkpt>
   <trkpt lat="49.989028" lon="8.656359"><ele>125.5</ele></trkpt>
   <trkpt lat="49.986029" lon="8.655922"><ele>123.75</ele></trkpt>
   <trkpt lat="49.981271" lon="8.655216"><ele>120.25</ele></trkpt>
   <trkpt lat="49.980847" lon="8.65517"><ele>119.5</ele></trkpt>
   <trkpt lat="49.97876" lon="8.654862"><ele>117.75</ele></trkpt>
   <trkpt lat="49.978609" lon="8.654845"><ele>117.5</ele></trkpt>
   <trkpt lat="49.975427" lon="8.654385"><ele>118.25</ele></trkpt>
   <trkpt lat="49.974005" lon="8.654166"><ele>117.75</ele></trkpt>
   <trkpt lat="49.969379" lon="8.653507"><ele>118</ele></trkpt>
   <trkpt lat="49.964706" lon="8.652826"><ele>118.25</ele></trkpt>
   <trkpt lat="49.96434" lon="8.652773"><ele>118.5</ele></trkpt>
   <trkpt lat="49.964134" lon="8.652743"><ele>118.5</ele></trkpt>
   <trkpt lat="49.963502" lon="8.652661"><ele>118.75</ele></trkpt>
   <trkpt lat="49.956261" lon="8.65161"><ele>121</ele></trkpt>
   <trkpt lat="49.955822" lon="8.651546"><ele>121.25</ele></trkpt>
   <trkpt lat="49.954316" lon="8.651326"><ele>122</ele></trkpt>
   <trkpt lat="49.951582" lon="8.650938"><ele>119.5</ele></trkpt>
   <trkpt lat="49.951053" lon="8.650861"><ele>121.25</ele></trkpt>
   <trkpt lat="49.950338" lon="8.65076"><ele>121.25</ele></trkpt>
   <trkpt lat="49.949596" lon="8.65065"><ele>121</ele></trkpt>
   <trkpt lat="49.945953" lon="8.650121"><ele>123.25</ele></trkpt>
   <trkpt lat="49.943534" lon="8.649771"><ele>128</ele></trkpt>
   <trkpt lat="49.94302" lon="8.649696"><ele>126.25</ele></trkpt>
   <trkpt lat="49.941927" lon="8.649536"><ele>120.75</ele></trkpt>
   <trkpt lat="49.941181" lon="8.649429"><ele>122.25</ele></trkpt>
   <trkpt lat="49.939325" lon="8.649154"><ele>119.25</ele></trkpt>
   <trkpt lat="49.934118" lon="8.648399"><ele>119.75</ele></trkpt>
   <trkpt lat="49.933766" lon="8.648348"><ele>120.25</ele></trkpt>
   <trkpt lat="49.930803" lon="8.64792"><ele>121.25</ele></trkpt>
   <trkpt lat="49.92947" lon="8.647727"><ele>121.5</ele></trkpt>
   <trkpt lat="49.929086" lon="8.647669"><ele>121.75</ele></trkpt>
   <trkpt lat="49.928939" lon="8.647648"><ele>121.75</ele></trkpt>
   <trkpt lat="49.925572" lon="8.647172"><ele>121.5</ele></trkpt>
   <trkpt lat="49.925348" lon="8.647137"><ele>121.5</ele></trkpt>
   <trkpt lat="49.924077" lon="8.64694"><ele>121.25</ele></trkpt>
   <trkpt lat="49.922104" lon="8.646655"><ele>120.25</ele></trkpt>
   <trkpt lat="49.920514" lon="8.646427"><ele>125.25</ele></trkpt>
   <trkpt lat="49.920483" lon="8.646422"><ele>125.25</ele></trkpt>
   <trkpt lat="49.918805" lon="8.646182"><ele>123.25</ele></trkpt>
   <trkpt lat="49.916998" lon="8.645945"><ele>123</ele></trkpt>
   <trkpt lat="49.916963" lon="8.645939"><ele>123</ele></trkpt>
   <trkpt lat="49.91694" lon="8.645935"><ele>123</ele></trkpt>
   <trkpt lat="49.916684" lon="8.645893"><ele>123</ele></trkpt>
   <trkpt lat="49.916374" lon="8.645829"><ele>123.25</ele></trkpt>
   <trkpt lat="49.915868" lon="8.645695"><ele>123.75</ele></trkpt>
   <trkpt lat="49.915675" lon="8.645663"><ele>124</ele></trkpt>
   <trkpt lat="49.915333" lon="8.64562"><ele>124.25</ele></trkpt>
   <trkpt lat="49.91482" lon="8.645547"><ele>124.5</ele></trkpt>
   <trkpt lat="49.908707" lon="8.644658"><ele>123.5</ele></trkpt>
   <trkpt lat="49.907876" lon="8.644535"><ele>123.25</ele></trkpt>
   <trkpt lat="49.90763" lon="8.644508"><ele>123.25</ele></trkpt>
   <trkpt lat="49.907094" lon="8.644493"><ele>123.75</ele></trkpt>
   <trkpt lat="49.906892" lon="8.644473"><ele>124</ele></trkpt>
   <trkpt lat="49.906768" lon="8.644458"><ele>124</ele></trkpt>
   <trkpt lat="49.906756" lon="8.644456"><ele>124</ele></trkpt>
   <trkpt lat="49.906471" lon="8.644428"><ele>125</ele></trkpt>
   <trkpt lat="49.906301" lon="8.644421"><ele>125.5</ele></trkpt>
   <trkpt lat="49.906191" lon="8.644416"><ele>126</ele></trkpt>
   <trkpt lat="49.905869" lon="8.644379"><ele>127</ele></trkpt>
   <trkpt lat="49.905839" lon="8.644375"><ele>127</ele></trkpt>
   <trkpt lat="49.905757" lon="8.644364"><ele>127.25</ele></trkpt>
   <trkpt lat="49.905479" lon="8.644337"><ele>127.25</ele></trkpt>
   <trkpt lat="49.905045" lon="8.644328"><ele>127.5</ele></trkpt>
   <trkpt lat="49.904782" lon="8.644313"><ele>127.25</ele></trkpt>
   <trkpt lat="49.904357" lon="8.644253"><ele>127</ele></trkpt>
   <trkpt lat="49.90374" lon="8.644135"><ele>126.75</ele></trkpt>
   <trkpt lat="49.903354" lon="8.644049"><ele>126.5</ele></trkpt>
   <trkpt lat="49.903289" lon="8.644035"><ele>126.5</ele></trkpt>
   <trkpt lat="49.903147" lon="8.644003"><ele>126.5</ele></trkpt>
   <trkpt lat="49.902596" lon="8.643844"><ele>126.5</ele></trkpt>
   <trkpt lat="49.902233" lon="8.643736"><ele>126.25</ele></trkpt>
   <trkpt lat="49.901461" lon="8.643417"><ele>126.5</ele></trkpt>
   <trkpt lat="49.901092" lon="8.643231"><ele>126</ele></trkpt>
   <trkpt lat="49.898179" lon="8.641664"><ele>128.25</ele></trkpt>
   <trkpt lat="49.897458" lon="8.64129"><ele>129.5</ele></trkpt>
   <trkpt lat="49.897208" lon="8.641192"><ele>129</ele></trkpt>
   <trkpt lat="49.896953" lon="8.641127"><ele>128.5</ele></trkpt>
   <trkpt lat="49.896559" lon="8.641109"><ele>128</ele></trkpt>
   <trkpt lat="49.89631" lon="8.641135"><ele>127.25</ele></trkpt>
   <trkpt lat="49.896203" lon="8.641157"><ele>127.25</ele></trkpt>
   <trkpt lat="49.896101" lon="8.641182"><ele>127</ele></trkpt>
   <trkpt lat="49.895879" lon="8.641256"><ele>127</ele></trkpt>
   <trkpt lat="49.895793" lon="8.641301"><ele>127.25</ele></trkpt>
   <trkpt lat="49.895583" lon="8.641411"><ele>127.75</ele></trkpt>
   <trkpt lat="49.895351" lon="8.64158"><ele>127.75</ele></trkpt>
   <trkpt lat="49.895048" lon="8.641834"><ele>127.25</ele></trkpt>
   <trkpt lat="49.894767" lon="8.64215"><ele>127.75</ele></trkpt>
   <trkpt lat="49.894508" lon="8.642543"><ele>128.5</ele></trkpt>
   <trkpt lat="49.894333" lon="8.642863"><ele>128.75</ele></trkpt>
   <trkpt lat="49.893974" lon="8.643636"><ele>128.25</ele></trkpt>
   <trkpt lat="49.893524" lon="8.644643"><ele>127.25</ele></trkpt>
   <trkpt lat="49.893244" lon="8.645309"><ele>127.5</ele></trkpt>
   <trkpt lat="49.89289" lon="8.646304"><ele>127.25</ele></trkpt>
   <trkpt lat="49.892839" lon="8.646482"><ele>127</ele></trkpt>
   <trkpt lat="49.892619" lon="8.647279"><ele>128.5</ele></trkpt>
   <trkpt lat="49.892606" lon="8.647347"><ele>128.75</ele></trkpt>
   <trkpt lat="49.892593" lon="8.647409"><ele>129</ele></trkpt>
   <trkpt lat="49.892439" lon="8.648184"><ele>129.5</ele></trkpt>
   <trkpt lat="49.89232" lon="8.648957"><ele>128.75</ele></trkpt>
   <trkpt lat="49.892307" lon="8.649084"><ele>128.75</ele></trkpt>
   <trkpt lat="49.892228" lon="8.649782"><ele>128.75</ele></trkpt>
   <trkpt lat="49.892169" lon="8.650738"><ele>129.5</ele></trkpt>
   <trkpt lat="49.892156" lon="8.650847"><ele>129.5</ele></trkpt>
   <trkpt lat="49.892149" lon="8.651077"><ele>130.25</ele></trkpt>
   <trkpt lat="49.892157" lon="8.651792"><ele>133.25</ele></trkpt>
   <trkpt lat="49.892183" lon="8.652496"><ele>139.75</ele></trkpt>
   <trkpt lat="49.892217" lon="8.653139"><ele>138.5</ele></trkpt>
   <trkpt lat="49.892309" lon="8.654097"><ele>135</ele></trkpt>
   <trkpt lat="49.892405" lon="8.654756"><ele>134.75</ele></trkpt>
   <trkpt lat="49.892537" lon="8.655495"><ele>134.5</ele></trkpt>
   <trkpt lat="49.892759" lon="8.656415"><ele>134.75</ele></trkpt>
   <trkpt lat="49.892924" lon="8.656989"><ele>134</ele></trkpt>
   <trkpt lat="49.893074" lon="8.657448"><ele>132.25</ele></trkpt>
   <trkpt lat="49.893314" lon="8.658117"><ele>131.25</ele></trkpt>
   <trkpt lat="49.893563" lon="8.658709"><ele>131</ele></trkpt>
   <trkpt lat="49.89376" lon="8.659128"><ele>131</ele></trkpt>
   <trkpt lat="49.893932" lon="8.659475"><ele>131.75</ele></trkpt>
   <trkpt lat="49.894341" lon="8.660203"><ele>132.75</ele></trkpt>
   <trkpt lat="49.894852" lon="8.661008"><ele>132.75</ele></trkpt>
   <trkpt lat="49.89615" lon="8.663001"><ele>134.25</ele></trkpt>
   <trkpt lat="49.896372" lon="8.663354"><ele>134.25</ele></trkpt>
   <trkpt lat="49.896856" lon="8.664116"><ele>135.25</ele></trkpt>
   <trkpt lat="49.897342" lon="8.664877"><ele>135.75</ele></trkpt>
   <trkpt lat="49.897757" lon="8.6655"><ele>135.75</ele></trkpt>
   <trkpt lat="49.898869" lon="8.667232"><ele>138</ele></trkpt>
   <trkpt lat="49.898902" lon="8.667285"><ele>138</ele></trkpt>
   <trkpt lat="49.899827" lon="8.668731"><ele>139.25</ele></trkpt>
   <trkpt lat="49.901257" lon="8.671058"><ele>138.25</ele></trkpt>
   <trkpt lat="49.901629" lon="8.67168"><ele>138</ele></trkpt>
   <trkpt lat="49.902001" lon="8.672303"><ele>138.75</ele></trkpt>
   <trkpt lat="49.902557" lon="8.673195"><ele>139.75</ele></trkpt>
   <trkpt lat="49.903178" lon="8.674129"><ele>140</ele></trkpt>
   <trkpt lat="49.903479" lon="8.674569"><ele>139.75</ele></trkpt>
   <trkpt lat="49.903792" lon="8.67501"><ele>140</ele></trkpt>
   <trkpt lat="49.904153" lon="8.675483"><ele>139.25</ele></trkpt>
   <trkpt lat="49.904414" lon="8.675844"><ele>139.25</ele></trkpt>
   <trkpt lat="49.904497" lon="8.67596"><ele>139.5</ele></trkpt>
   <trkpt lat="49.904696" lon="8.676232"><ele>140.25</ele></trkpt>
   <trkpt lat="49.904776" lon="8.67634"><ele>140.75</ele></trkpt>
   <trkpt lat="49.904848" lon="8.676438"><ele>141</ele></trkpt>
   <trkpt lat="49.905305" lon="8.677061"><ele>141.75</ele></trkpt>
   <trkpt lat="49.905392" lon="8.67718"><ele>141.75</ele></trkpt>
   <trkpt lat="49.905415" lon="8.677212"><ele>141.75</ele></trkpt>
   <trkpt lat="49.905514" lon="8.677347"><ele>141.5</ele></trkpt>
   <trkpt lat="49.905752" lon="8.67776"><ele>141</ele></trkpt>
   <trkpt lat="49.906038" lon="8.678255"><ele>140.75</ele></trkpt>
   <trkpt lat="49.906144" lon="8.678407"><ele>140.5</ele></trkpt>
   <trkpt lat="49.90642" lon="8.678789"><ele>140.25</ele></trkpt>
   <trkpt lat="49.906725" lon="8.679225"><ele>140</ele></trkpt>
   <trkpt lat="49.906927" lon="8.679518"><ele>140.25</ele></trkpt>
   <trkpt lat="49.90697" lon="8.679579"><ele>140.25</ele></trkpt>
   <trkpt lat="49.907387" lon="8.680156"><ele>141</ele></trkpt>
   <trkpt lat="49.9082" lon="8.68136"><ele>141.75</ele></trkpt>
   <trkpt lat="49.908232" lon="8.681407"><ele>141.75</ele></trkpt>
   <trkpt lat="49.90952" lon="8.683314"><ele>142</ele></trkpt>
   <trkpt lat="49.910772" lon="8.685167"><ele>142</ele></trkpt>
   <trkpt lat="49.911331" lon="8.685994"><ele>142</ele></trkpt>
   <trkpt lat="49.911744" lon="8.686606"><ele>141.75</ele></trkpt>
   <trkpt lat="49.912026" lon="8.687059"><ele>143</ele></trkpt>
   <trkpt lat="49.912458" lon="8.687739"><ele>143.5</ele></trkpt>
   <trkpt lat="49.912686" lon="8.688212"><ele>144.25</ele></trkpt>
   <trkpt lat="49.912767" lon="8.68834"><ele>144.25</ele></trkpt>
   <trkpt lat="49.913056" lon="8.688804"><ele>144.75</ele></trkpt>
   <trkpt lat="49.913317" lon="8.689243"><ele>145</ele></trkpt>
   <trkpt lat="49.913503" lon="8.689607"><ele>145</ele></trkpt>
   <trkpt lat="49.9137" lon="8.690013"><ele>145</ele></trkpt>
   <trkpt lat="49.913916" lon="8.690548"><ele>146.5</ele></trkpt>
   <trkpt lat="49.914017" lon="8.690828"><ele>147</ele></trkpt>
   <trkpt lat="49.914289" lon="8.691636"><ele>150</ele></trkpt>
   <trkpt lat="49.91432" lon="8.691733"><ele>150.5</ele></trkpt>
   <trkpt lat="49.914529" lon="8.692414"><ele>154.75</ele></trkpt>
   <trkpt lat="49.914624" lon="8.69275"><ele>154.5</ele></trkpt>
   <trkpt lat="49.914713" lon="8.693065"><ele>153.25</ele></trkpt>
   <trkpt lat="49.914796" lon="8.693391"><ele>152.5</ele></trkpt>
   <trkpt lat="49.914946" lon="8.693995"><ele>151.5</ele></trkpt>
   <trkpt lat="49.91502" lon="8.694336"><ele>151.5</ele></trkpt>
   <trkpt lat="49.915186" lon="8.695152"><ele>153.75</ele></trkpt>
   <trkpt lat="49.915299" lon="8.695777"><ele>154.25</ele></trkpt>
   <trkpt lat="49.915384" lon="8.696301"><ele>153.75</ele></trkpt>
   <trkpt lat="49.915448" lon="8.696759"><ele>153</ele></trkpt>
   <trkpt lat="49.915799" lon="8.699517"><ele>154</ele></trkpt>
   <trkpt lat="49.915839" lon="8.699835"><ele>154.5</ele></trkpt>
   <trkpt lat="49.916117" lon="8.702019"><ele>155.25</ele></trkpt>
   <trkpt lat="49.916458" lon="8.704704"><ele>155.75</ele></trkpt>
   <trkpt lat="49.916534" lon="8.705297"><ele>155.25</ele></trkpt>
   <trkpt lat="49.91658" lon="8.70566"><ele>155.25</ele></trkpt>
   <trkpt lat="49.916813" lon="8.707488"><ele>156.25</ele></trkpt>
   <trkpt lat="49.916941" lon="8.708494"><ele>154.5</ele></trkpt>
   <trkpt lat="49.917133" lon="8.710005"><ele>155</ele></trkpt>
   <trkpt lat="49.91723" lon="8.710764"><ele>155</ele></trkpt>
   <trkpt lat="49.91782" lon="8.715397"><ele>157.25</ele></trkpt>
   <trkpt lat="49.917912" lon="8.716121"><ele>157.75</ele></trkpt>
   <trkpt lat="49.917952" lon="8.716431"><ele>157.5</ele></trkpt>
   <trkpt lat="49.918183" lon="8.718313"><ele>156.75</ele></trkpt>
   <trkpt lat="49.918407" lon="8.720067"><ele>158</ele></trkpt>
   <trkpt lat="49.918599" lon="8.721588"><ele>159</ele></trkpt>
   <trkpt lat="49.919686" lon="8.730073"><ele>158.75</ele></trkpt>
   <trkpt lat="49.919716" lon="8.730312"><ele>158.75</ele></trkpt>
   <trkpt lat="49.920112" lon="8.733562"><ele>159</ele></trkpt>
   <trkpt lat="49.920728" lon="8.738336"><ele>164.75</ele></trkpt>
   <trkpt lat="49.921167" lon="8.741875"><ele>161.5</ele></trkpt>
   <trkpt lat="49.921612" lon="8.745362"><ele>161</ele></trkpt>
   <trkpt lat="49.921621" lon="8.745431"><ele>160.75</ele></trkpt>
   <trkpt lat="49.921705" lon="8.746098"><ele>160</ele></trkpt>
   <trkpt lat="49.922266" lon="8.750553"><ele>164</ele></trkpt>
   <trkpt lat="49.922489" lon="8.751845"><ele>163.75</ele></trkpt>
   <trkpt lat="49.922822" lon="8.754651"><ele>162.75</ele></trkpt>
   <trkpt lat="49.923307" lon="8.75829"><ele>162.75</ele></trkpt>
   <trkpt lat="49.925072" lon="8.772088"><ele>176</ele></trkpt>
   <trkpt lat="49.925542" lon="8.775789"><ele>171.25</ele></trkpt>
   <trkpt lat="49.92565" lon="8.776769"><ele>170.5</ele></trkpt>
   <trkpt lat="49.925737" lon="8.777841"><ele>173</ele></trkpt>
   <trkpt lat="49.925802" lon="8.779108"><ele>170.5</ele></trkpt>
   <trkpt lat="49.925842" lon="8.780395"><ele>168.5</ele></trkpt>
   <trkpt lat="49.925824" lon="8.781717"><ele>168</ele></trkpt>
   <trkpt lat="49.925779" lon="8.783004"><ele>167.75</ele></trkpt>
   <trkpt lat="49.925709" lon="8.784088"><ele>167.5</ele></trkpt>
   <trkpt lat="49.925636" lon="8.784957"><ele>169.75</ele></trkpt>
   <trkpt lat="49.925546" lon="8.785772"><ele>168</ele></trkpt>
   <trkpt lat="49.92545" lon="8.78656"><ele>167.25</ele></trkpt>
   <trkpt lat="49.925172" lon="8.788292"><ele>167.25</ele></trkpt>
   <trkpt lat="49.924958" lon="8.789391"><ele>166.25</ele></trkpt>
   <trkpt lat="49.924712" lon="8.790491"><ele>167.5</ele></trkpt>
   <trkpt lat="49.924321" lon="8.791981"><ele>169.5</ele></trkpt>
   <trkpt lat="49.924034" lon="8.792952"><ele>169.25</ele></trkpt>
   <trkpt lat="49.923758" lon="8.793786"><ele>169.25</ele></trkpt>
   <trkpt lat="49.923434" lon="8.794707"><ele>166.5</ele></trkpt>
   <trkpt lat="49.923093" lon="8.795596"><ele>165.5</ele></trkpt>
   <trkpt lat="49.922779" lon="8.796321"><ele>164</ele></trkpt>
   <trkpt lat="49.922538" lon="8.796867"><ele>162.75</ele></trkpt>
   <trkpt lat="49.922294" lon="8.797378"><ele>163</ele></trkpt>
   <trkpt lat="49.921923" lon="8.798131"><ele>162</ele></trkpt>
   <trkpt lat="49.920002" lon="8.801761"><ele>157.25</ele></trkpt>
   <trkpt lat="49.917039" lon="8.807396"><ele>155.75</ele></trkpt>
   <trkpt lat="49.91605" lon="8.809292"><ele>153.25</ele></trkpt>
   <trkpt lat="49.914666" lon="8.811901"><ele>158.75</ele></trkpt>
   <trkpt lat="49.910642" lon="8.819591"><ele>155.75</ele></trkpt>
   <trkpt lat="49.906607" lon="8.827291"><ele>143.5</ele></trkpt>
   <trkpt lat="49.906148" lon="8.828181"><ele>145</ele></trkpt>
   <trkpt lat="49.90594" lon="8.828627"><ele>144.5</ele></trkpt>
   <trkpt lat="49.905736" lon="8.829097"><ele>144</ele></trkpt>
   <trkpt lat="49.905365" lon="8.830071"><ele>143</ele></trkpt>
   <trkpt lat="49.905139" lon="8.830704"><ele>144.25</ele></trkpt>
   <trkpt lat="49.90506" lon="8.830958"><ele>144.5</ele></trkpt>
   <trkpt lat="49.904864" lon="8.831649"><ele>144</ele></trkpt>
   <trkpt lat="49.904713" lon="8.832234"><ele>143</ele></trkpt>
   <trkpt lat="49.904395" lon="8.833661"><ele>141.25</ele></trkpt>
   <trkpt lat="49.904275" lon="8.834379"><ele>141.25</ele></trkpt>
   <trkpt lat="49.904229" lon="8.834698"><ele>142</ele></trkpt>
   <trkpt lat="49.90409" lon="8.835854"><ele>142.75</ele></trkpt>
   <trkpt lat="49.904054" lon="8.836183"><ele>142.5</ele></trkpt>
   <trkpt lat="49.903956" lon="8.837173"><ele>142</ele></trkpt>
   <trkpt lat="49.903931" lon="8.837435"><ele>142.25</ele></trkpt>
   <trkpt lat="49.903903" lon="8.837753"><ele>143</ele></trkpt>
   <trkpt lat="49.903897" lon="8.8378"><ele>143</ele></trkpt>
   <trkpt lat="49.903864" lon="8.838261"><ele>144.5</ele></trkpt>
   <trkpt lat="49.903861" lon="8.8384"><ele>144.75</ele></trkpt>
   <trkpt lat="49.90386" lon="8.838536"><ele>144.75</ele></trkpt>
   <trkpt lat="49.903844" lon="8.838879"><ele>145.25</ele></trkpt>
   <trkpt lat="49.903814" lon="8.839413"><ele>145.5</ele></trkpt>
   <trkpt lat="49.903781" lon="8.839842"><ele>145.25</ele></trkpt>
   <trkpt lat="49.903773" lon="8.839948"><ele>145.25</ele></trkpt>
   <trkpt lat="49.903689" lon="8.840829"><ele>146</ele></trkpt>
   <trkpt lat="49.903518" lon="8.842576"><ele>144.25</ele></trkpt>
   <trkpt lat="49.903374" lon="8.843767"><ele>143.5</ele></trkpt>
   <trkpt lat="49.903329" lon="8.844221"><ele>144</ele></trkpt>
   <trkpt lat="49.903309" lon="8.844479"><ele>144.25</ele></trkpt>
   <trkpt lat="49.903253" lon="8.845176"><ele>144.75</ele></trkpt>
   <trkpt lat="49.903239" lon="8.845315"><ele>144.5</ele></trkpt>
   <trkpt lat="49.903189" lon="8.845867"><ele>143.75</ele></trkpt>
   <trkpt lat="49.903129" lon="8.847068"><ele>143.25</ele></trkpt>
   <trkpt lat="49.903141" lon="8.848219"><ele>142.5</ele></trkpt>
   <trkpt lat="49.903162" lon="8.848707"><ele>142.75</ele></trkpt>
   <trkpt lat="49.903206" lon="8.849199"><ele>143.25</ele></trkpt>
   <trkpt lat="49.903294" lon="8.850069"><ele>143</ele></trkpt>
   <trkpt lat="49.90337" lon="8.850727"><ele>142.75</ele></trkpt>
   <trkpt lat="49.903426" lon="8.851116"><ele>142.75</ele></trkpt>
   <trkpt lat="49.903488" lon="8.851436"><ele>142.75</ele></trkpt>
   <trkpt lat="49.903595" lon="8.851922"><ele>143</ele></trkpt>
   <trkpt lat="49.903854" lon="8.852931"><ele>143.75</ele></trkpt>
   <trkpt lat="49.903998" lon="8.853417"><ele>144</ele></trkpt>
   <trkpt lat="49.90413" lon="8.853816"><ele>144</ele></trkpt>
   <trkpt lat="49.904271" lon="8.854211"><ele>143.5</ele></trkpt>
   <trkpt lat="49.904427" lon="8.854622"><ele>142.5</ele></trkpt>
   <trkpt lat="49.904595" lon="8.855034"><ele>142</ele></trkpt>
   <trkpt lat="49.904803" lon="8.8555"><ele>142.5</ele></trkpt>
   <trkpt lat="49.905033" lon="8.855967"><ele>142.75</ele></trkpt>
   <trkpt lat="49.905797" lon="8.857397"><ele>142</ele></trkpt>
   <trkpt lat="49.907808" lon="8.861244"><ele>141.75</ele></trkpt>
   <trkpt lat="49.909133" lon="8.86375"><ele>141.25</ele></trkpt>
   <trkpt lat="49.910744" lon="8.86683"><ele>141.75</ele></trkpt>
   <trkpt lat="49.912307" lon="8.86982"><ele>139.75</ele></trkpt>
   <trkpt lat="49.914167" lon="8.873366"><ele>137</ele></trkpt>
   <trkpt lat="49.917391" lon="8.879507"><ele>135.75</ele></trkpt>
   <trkpt lat="49.917673" lon="8.880069"><ele>136.75</ele></trkpt>
   <trkpt lat="49.918648" lon="8.881966"><ele>136.25</ele></trkpt>
   <trkpt lat="49.919882" lon="8.884317"><ele>135.5</ele></trkpt>
   <trkpt lat="49.922251" lon="8.888826"><ele>134</ele></trkpt>
   <trkpt lat="49.922649" lon="8.889584"><ele>135</ele></trkpt>
   <trkpt lat="49.923084" lon="8.890419"><ele>134.25</ele></trkpt>
   <trkpt lat="49.923328" lon="8.890878"><ele>134</ele></trkpt>
   <trkpt lat="49.923351" lon="8.890922"><ele>134</ele></trkpt>
   <trkpt lat="49.924574" lon="8.89325"><ele>134.25</ele></trkpt>
   <trkpt lat="49.926559" lon="8.897054"><ele>133.25</ele></trkpt>
   <trkpt lat="49.926615" lon="8.897159"><ele>133.5</ele></trkpt>
   <trkpt lat="49.928432" lon="8.900616"><ele>133</ele></trkpt>
   <trkpt lat="49.928668" lon="8.901077"><ele>133.25</ele></trkpt>
   <trkpt lat="49.928707" lon="8.90115"><ele>133.25</ele></trkpt>
   <trkpt lat="49.929003" lon="8.901721"><ele>132.75</ele></trkpt>
   <trkpt lat="49.929046" lon="8.901804"><ele>132.75</ele></trkpt>
   <trkpt lat="49.929456" lon="8.902589"><ele>132</ele></trkpt>
   <trkpt lat="49.935561" lon="8.914276"><ele>135.25</ele></trkpt>
   <trkpt lat="49.93638" lon="8.915854"><ele>133</ele></trkpt>
   <trkpt lat="49.936752" lon="8.916552"><ele>133</ele></trkpt>
   <trkpt lat="49.936772" lon="8.91659"><ele>133</ele></trkpt>
   <trkpt lat="49.936803" lon="8.916651"><ele>133</ele></trkpt>
   <trkpt lat="49.937078" lon="8.917178"><ele>132.5</ele></trkpt>
   <trkpt lat="49.938404" lon="8.919721"><ele>131.25</ele></trkpt>
   <trkpt lat="49.93936" lon="8.921574"><ele>131.5</ele></trkpt>
   <trkpt lat="49.941201" lon="8.925079"><ele>129.25</ele></trkpt>
   <trkpt lat="49.942473" lon="8.927501"><ele>129.75</ele></trkpt>
   <trkpt lat="49.945293" lon="8.932885"><ele>129.5</ele></trkpt>
   <trkpt lat="49.946988" lon="8.93615"><ele>127.75</ele></trkpt>
   <trkpt lat="49.950509" lon="8.942894"><ele>126.5</ele></trkpt>
   <trkpt lat="49.952796" lon="8.947274"><ele>126.25</ele></trkpt>
   <trkpt lat="49.953917" lon="8.949458"><ele>126.5</ele></trkpt>
   <trkpt lat="49.954013" lon="8.949655"><ele>126.75</ele></trkpt>
   <trkpt lat="49.954204" lon="8.950117"><ele>126.75</ele></trkpt>
   <trkpt lat="49.954284" lon="8.950293"><ele>126.5</ele></trkpt>
   <trkpt lat="49.954344" lon="8.950412"><ele>126.5</ele></trkpt>
   <trkpt lat="49.95438" lon="8.950482"><ele>126.25</ele></trkpt>
   <trkpt lat="49.955611" lon="8.95289"><ele>126.75</ele></trkpt>
   <trkpt lat="49.955674" lon="8.953012"><ele>127</ele></trkpt>
   <trkpt lat="49.955978" lon="8.953542"><ele>127.75</ele></trkpt>
   <trkpt lat="49.956098" lon="8.953773"><ele>127.75</ele></trkpt>
   <trkpt lat="49.956219" lon="8.954008"><ele>127.5</ele></trkpt>
   <trkpt lat="49.956576" lon="8.954694"><ele>127.5</ele></trkpt>
   <trkpt lat="49.956613" lon="8.954767"><ele>127.5</ele></trkpt>
   <trkpt lat="49.956675" lon="8.954887"><ele>127.75</ele></trkpt>
   <trkpt lat="49.957767" lon="8.95701"><ele>126.5</ele></trkpt>
   <trkpt lat="49.958203" lon="8.95787"><ele>126.75</ele></trkpt>
   <trkpt lat="49.959328" lon="8.960187"><ele>126.75</ele></trkpt>
   <trkpt lat="49.959517" lon="8.960602"><ele>126.75</ele></trkpt>
   <trkpt lat="49.959865" lon="8.961403"><ele>127.25</ele></trkpt>
   <trkpt lat="49.96025" lon="8.962402"><ele>126.75</ele></trkpt>
   <trkpt lat="49.9606" lon="8.963403"><ele>126.75</ele></trkpt>
   <trkpt lat="49.96179" lon="8.967541"><ele>127.5</ele></trkpt>
   <trkpt lat="49.962491" lon="8.969964"><ele>126.75</ele></trkpt>
   <trkpt lat="49.962531" lon="8.970113"><ele>127</ele></trkpt>
   <trkpt lat="49.963007" lon="8.97179"><ele>127.5</ele></trkpt>
   <trkpt lat="49.963171" lon="8.972554"><ele>128.25</ele></trkpt>
   <trkpt lat="49.963304" lon="8.973323"><ele>129.75</ele></trkpt>
   <trkpt lat="49.963493" lon="8.974602"><ele>126.75</ele></trkpt>
   <trkpt lat="49.96431" lon="8.980577"><ele>121.75</ele></trkpt>
   <trkpt lat="49.965349" lon="8.988279"><ele>123.75</ele></trkpt>
   <trkpt lat="49.967626" lon="9.004944"><ele>120.75</ele></trkpt>
   <trkpt lat="49.968209" lon="9.009228"><ele>130.5</ele></trkpt>
   <trkpt lat="49.969849" lon="9.021237"><ele>128</ele></trkpt>
   <trkpt lat="49.969978" lon="9.022141"><ele>129.75</ele></trkpt>
   <trkpt lat="49.970435" lon="9.025406"><ele>136.5</ele></trkpt>
   <trkpt lat="49.971836" lon="9.035725"><ele>130</ele></trkpt>
   <trkpt lat="49.972115" lon="9.037811"><ele>130.5</ele></trkpt>
   <trkpt lat="49.972885" lon="9.043528"><ele>127.75</ele></trkpt>
   <trkpt lat="49.972966" lon="9.044193"><ele>125.75</ele></trkpt>
   <trkpt lat="49.973576" lon="9.048724"><ele>128.25</ele></trkpt>
   <trkpt lat="49.973582" lon="9.04877"><ele>128.25</ele></trkpt>
   <trkpt lat="49.973977" lon="9.051686"><ele>124.75</ele></trkpt>
   <trkpt lat="49.973989" lon="9.051784"><ele>124.75</ele></trkpt>
   <trkpt lat="49.974113" lon="9.052957"><ele>124.25</ele></trkpt>
   <trkpt lat="49.974203" lon="9.053603"><ele>125.25</ele></trkpt>
   <trkpt lat="49.974327" lon="9.0546"><ele>125.25</ele></trkpt>
   <trkpt lat="49.97454" lon="9.056198"><ele>123.5</ele></trkpt>
   <trkpt lat="49.974661" lon="9.057136"><ele>120.75</ele></trkpt>
   <trkpt lat="49.974858" lon="9.058354"><ele>118.75</ele></trkpt>
   <trkpt lat="49.975064" lon="9.059295"><ele>118</ele></trkpt>
   <trkpt lat="49.975182" lon="9.059775"><ele>118</ele></trkpt>
   <trkpt lat="49.975325" lon="9.0603"><ele>118</ele></trkpt>
   <trkpt lat="49.975538" lon="9.061006"><ele>117.5</ele></trkpt>
   <trkpt lat="49.975878" lon="9.061948"><ele>118.25</ele></trkpt>
   <trkpt lat="49.976164" lon="9.062623"><ele>118.5</ele></trkpt>
   <trkpt lat="49.976419" lon="9.063175"><ele>118.75</ele></trkpt>
   <trkpt lat="49.976684" lon="9.063674"><ele>118</ele></trkpt>
   <trkpt lat="49.976758" lon="9.063809"><ele>118</ele></trkpt>
   <trkpt lat="49.976878" lon="9.06402"><ele>118</ele></trkpt>
   <trkpt lat="49.977224" lon="9.064593"><ele>118.25</ele></trkpt>
   <trkpt lat="49.977696" lon="9.065352"><ele>118.25</ele></trkpt>
   <trkpt lat="49.977725" lon="9.065401"><ele>118</ele></trkpt>
   <trkpt lat="49.978084" lon="9.065944"><ele>117.25</ele></trkpt>
   <trkpt lat="49.978986" lon="9.067344"><ele>114</ele></trkpt>
   <trkpt lat="49.979236" lon="9.067709"><ele>113.5</ele></trkpt>
   <trkpt lat="49.979703" lon="9.068444"><ele>112.5</ele></trkpt>
   <trkpt lat="49.980657" lon="9.069942"><ele>110.75</ele></trkpt>
   <trkpt lat="49.980908" lon="9.070352"><ele>111</ele></trkpt>
   <trkpt lat="49.981021" lon="9.070542"><ele>111</ele></trkpt>
   <trkpt lat="49.981204" lon="9.07088"><ele>111.25</ele></trkpt>
   <trkpt lat="49.981437" lon="9.071353"><ele>113.25</ele></trkpt>
   <trkpt lat="49.981592" lon="9.071705"><ele>115.75</ele></trkpt>
   <trkpt lat="49.981655" lon="9.071871"><ele>117.5</ele></trkpt>
   <trkpt lat="49.98184" lon="9.072347"><ele>121.25</ele></trkpt>
   <trkpt lat="49.981999" lon="9.072805"><ele>120.5</ele></trkpt>
   <trkpt lat="49.982134" lon="9.07326"><ele>118.25</ele></trkpt>
   <trkpt lat="49.982214" lon="9.073571"><ele>117.5</ele></trkpt>
   <trkpt lat="49.982338" lon="9.074118"><ele>116.25</ele></trkpt>
   <trkpt lat="49.982471" lon="9.074857"><ele>115</ele></trkpt>
   <trkpt lat="49.982567" lon="9.075536"><ele>114.75</ele></trkpt>
   <trkpt lat="49.982612" lon="9.076231"><ele>114.25</ele></trkpt>
   <trkpt lat="49.982637" lon="9.0769"><ele>114</ele></trkpt>
   <trkpt lat="49.982625" lon="9.077939"><ele>114</ele></trkpt>
   <trkpt lat="49.982604" lon="9.079024"><ele>113.25</ele></trkpt>
   <trkpt lat="49.982598" lon="9.079213"><ele>113.25</ele></trkpt>
   <trkpt lat="49.982585" lon="9.079657"><ele>113.25</ele></trkpt>
   <trkpt lat="49.982511" lon="9.081718"><ele>116.75</ele></trkpt>
   <trkpt lat="49.982511" lon="9.081746"><ele>116.75</ele></trkpt>
   <trkpt lat="49.982507" lon="9.082169"><ele>116.25</ele></trkpt>
   <trkpt lat="49.982515" lon="9.082661"><ele>116</ele></trkpt>
   <trkpt lat="49.982472" lon="9.083771"><ele>116</ele></trkpt>
   <trkpt lat="49.982445" lon="9.084686"><ele>116.5</ele></trkpt>
   <trkpt lat="49.982415" lon="9.085645"><ele>116.25</ele></trkpt>
   <trkpt lat="49.982414" lon="9.085704"><ele>116.25</ele></trkpt>
   <trkpt lat="49.982409" lon="9.08582"><ele>116</ele></trkpt>
   <trkpt lat="49.982398" lon="9.086082"><ele>116.5</ele></trkpt>
   <trkpt lat="49.982392" lon="9.08624"><ele>116.5</ele></trkpt>
   <trkpt lat="49.982379" lon="9.086541"><ele>117</ele></trkpt>
   <trkpt lat="49.982308" lon="9.088647"><ele>118</ele></trkpt>
   <trkpt lat="49.98228" lon="9.089718"><ele>118.25</ele></trkpt>
   <trkpt lat="49.982201" lon="9.091998"><ele>118.75</ele></trkpt>
   <trkpt lat="49.982139" lon="9.093912"><ele>116.75</ele></trkpt>
   <trkpt lat="49.98196" lon="9.098812"><ele>117.25</ele></trkpt>
   <trkpt lat="49.981921" lon="9.099921"><ele>117.5</ele></trkpt>
   <trkpt lat="49.981877" lon="9.101419"><ele>118.25</ele></trkpt>
   <trkpt lat="49.981824" lon="9.103533"><ele>118</ele></trkpt>
   <trkpt lat="49.98176" lon="9.105188"><ele>118.75</ele></trkpt>
   <trkpt lat="49.981721" lon="9.106306"><ele>118.75</ele></trkpt>
   <trkpt lat="49.981684" lon="9.107336"><ele>118</ele></trkpt>
   <trkpt lat="49.981659" lon="9.108087"><ele>118</ele></trkpt>
   <trkpt lat="49.981594" lon="9.109701"><ele>116.75</ele></trkpt>
   <trkpt lat="49.981563" lon="9.110614"><ele>117.5</ele></trkpt>
   <trkpt lat="49.981522" lon="9.11185"><ele>117</ele></trkpt>
   <trkpt lat="49.981519" lon="9.111932"><ele>117.25</ele></trkpt>
   <trkpt lat="49.981517" lon="9.112598"><ele>117.75</ele></trkpt>
   <trkpt lat="49.981517" lon="9.113104"><ele>118.25</ele></trkpt>
   <trkpt lat="49.981517" lon="9.113169"><ele>118.5</ele></trkpt>
   <trkpt lat="49.981515" lon="9.113226"><ele>118.5</ele></trkpt>
   <trkpt lat="49.98147" lon="9.114645"><ele>117.75</ele></trkpt>
   <trkpt lat="49.981394" lon="9.117168"><ele>121.5</ele></trkpt>
   <trkpt lat="49.981349" lon="9.118333"><ele>124.75</ele></trkpt>
   <trkpt lat="49.981247" lon="9.121442"><ele>125.75</ele></trkpt>
   <trkpt lat="49.981053" lon="9.126985"><ele>126.75</ele></trkpt>
   <trkpt lat="49.981052" lon="9.12701"><ele>126.75</ele></trkpt>
   <trkpt lat="49.981034" lon="9.127568"><ele>126.75</ele></trkpt>
   <trkpt lat="49.980966" lon="9.129644"><ele>126.75</ele></trkpt>
   <trkpt lat="49.980892" lon="9.131835"><ele>127</ele></trkpt>
   <trkpt lat="49.980891" lon="9.131889"><ele>127</ele></trkpt>
   <trkpt lat="49.980846" lon="9.132822"><ele>127.25</ele></trkpt>
   <trkpt lat="49.980843" lon="9.132979"><ele>127.5</ele></trkpt>
   <trkpt lat="49.980842" lon="9.134304"><ele>127.25</ele></trkpt>
   <trkpt lat="49.980843" lon="9.134345"><ele>127.25</ele></trkpt>
   <trkpt lat="49.980841" lon="9.13439"><ele>127.5</ele></trkpt>
   <trkpt lat="49.980836" lon="9.134517"><ele>127.75</ele></trkpt>
   <trkpt lat="49.980836" lon="9.134536"><ele>129</ele></trkpt>
  </trkseg>
 </trk>
</gpx>