<?xml version="1.0" encoding="UTF-8"?>
<!-- track-length = 13598 filtered ascend = 27 plain-ascend = -2 cost=13598 energy=0.2kwh time=18m 8s -->
<gpx 
 xmlns="http://www.topografix.com/GPX/1/1" 
 xmlns:xsi="http://www.w3.org/2001/XMLSchema-instance" 
 xsi:schemaLocation="http://www.topografix.com/GPX/1/1 http://www.topografix.com/GPX/1/1/gpx.xsd" 
 version="1.1" 
 creator="BRouter-Web 0.18.1">
 <trk>
  <name>Fredericia</name>
  <trkseg>
   <trkpt lat="55.544929" lon="9.616125"><ele>27.25</ele></trkpt>
   <trkpt lat="55.544937" lon="9.617972"><ele>26.75</ele></trkpt>
   <trkpt lat="55.544941" lon="9.619003"><ele>26.75</ele></trkpt>
   <trkpt lat="55.544957" lon="9.619843"><ele>27.5</ele></trkpt>
   <trkpt lat="55.544989" lon="9.620675"><ele>27.75</ele></trkpt>
   <trkpt lat="55.545039" lon="9.621516"><ele>28</ele></trkpt>
   <trkpt lat="55.545079" lon="9.622036"><ele>28</ele></trkpt>
   <trkpt lat="55.545194" lon="9.622976"><ele>27.5</ele></trkpt>
   <trkpt lat="55.545224" lon="9.623261"><ele>27.25</ele></trkpt>
   <trkpt lat="55.545363" lon="9.624603"><ele>26.25</ele></trkpt>
   <trkpt lat="55.545473" lon="9.625498"><ele>26</ele></trkpt>
   <trkpt lat="55.545625" lon="9.626592"><ele>25.25</ele></trkpt>
   <trkpt lat="55.547428" lon="9.638626"><ele>24.25</ele></trkpt>
   <trkpt lat="55.547764" lon="9.640931"><ele>26.25</ele></trkpt>
   <trkpt lat="55.547979" lon="9.642578"><ele>26.75</ele></trkpt>
   <trkpt lat="55.548163" lon="9.643913"><ele>25.25</ele></trkpt>
   <trkpt lat="55.548885" lon="9.648744"><ele>24.5</ele></trkpt>
   <trkpt lat="55.549087" lon="9.65005"><ele>25</ele></trkpt>
   <trkpt lat="55.549385" lon="9.651857"><ele>25.5</ele></trkpt>
   <trkpt lat="55.549606" lon="9.653235"><ele>26.25</ele></trkpt>
   <trkpt lat="55.549877" lon="9.655041"><ele>26.75</ele></trkpt>
   <trkpt lat="55.550327" lon="9.658064"><ele>26.5</ele></trkpt>
   <trkpt lat="55.553078" lon="9.676483"><ele>28.5</ele></trkpt>
   <trkpt lat="55.55314" lon="9.676893"><ele>28.25</ele></trkpt>
   <trkpt lat="55.554892" lon="9.688669"><ele>27.5</ele></trkpt>
   <trkpt lat="55.555865" lon="9.695203"><ele>26</ele></trkpt>
   <trkpt lat="55.556071" lon="9.696556"><ele>27</ele></trkpt>
   <trkpt lat="55.55645" lon="9.698818"><ele>25</ele></trkpt>
   <trkpt lat="55.556897" lon="9.701356"><ele>24</ele></trkpt>
   <trkpt lat="55.557288" lon="9.703666"><ele>25.5</ele></trkpt>
   <trkpt lat="55.557372" lon="9.704266"><ele>24.5</ele></trkpt>
   <trkpt lat="55.557462" lon="9.704982"><ele>22.75</ele></trkpt>
   <trkpt lat="55.557516" lon="9.705472"><ele>20</ele></trkpt>
   <trkpt lat="55.557568" lon="9.706016"><ele>17</ele></trkpt>
   <trkpt lat="55.55761" lon="9.706524"><ele>13.5</ele></trkpt>
   <trkpt lat="55.557645" lon="9.707068"><ele>12.5</ele></trkpt>
   <trkpt lat="55.55767" lon="9.707572"><ele>12.25</ele></trkpt>
   <trkpt lat="55.557683" lon="9.708082"><ele>11.5</ele></trkpt>
   <trkpt lat="55.557689" lon="9.709223"><ele>14</ele></trkpt>
   <trkpt lat="55.55755" lon="9.719148"><ele>22.75</ele></trkpt>
   <trkpt lat="55.557551" lon="9.720349"><ele>24.25</ele></trkpt>
   <trkpt lat="55.557566" lon="9.721117"><ele>23</ele></trkpt>
   <trkpt lat="55.557603" lon="9.721892"><ele>21</ele></trkpt>
   <trkpt lat="55.557649" lon="9.722518"><ele>18.75</ele></trkpt>
   <trkpt lat="55.557714" lon="9.723186"><ele>16.25</ele></trkpt>
   <trkpt lat="55.5578" lon="9.723874"><ele>15.25</ele></trkpt>
   <trkpt lat="55.557908" lon="9.724589"><ele>14.25</ele></trkpt>
   <trkpt lat="55.558044" lon="9.725333"><ele>12.75</ele></trkpt>
   <trkpt lat="55.558204" lon="9.726073"><ele>10.5</ele></trkpt>
   <trkpt lat="55.558347" lon="9.72666"><ele>9</ele></trkpt>
   <trkpt lat="55.55861" lon="9.727651"><ele>10.25</ele></trkpt>
   <trkpt lat="55.55901" lon="9.72911"><ele>11.5</ele></trkpt>
   <trkpt lat="55.559263" lon="9.730014"><ele>10.5</ele></trkpt>
   <trkpt lat="55.559522" lon="9.730817"><ele>10</ele></trkpt>
   <trkpt lat="55.559634" lon="9.731132"><ele>9.5</ele></trkpt>
   <trkpt lat="55.559759" lon="9.731461"><ele>9.25</ele></trkpt>
   <trkpt lat="55.559886" lon="9.731763"><ele>9</ele></trkpt>
   <trkpt lat="55.56012" lon="9.732272"><ele>9</ele></trkpt>
   <trkpt lat="55.560353" lon="9.732719"><ele>8.75</ele></trkpt>
   <trkpt lat="55.5606" lon="9.733147"><ele>8.5</ele></trkpt>
   <trkpt lat="55.560861" lon="9.733561"><ele>8.5</ele></trkpt>
   <trkpt lat="55.561138" lon="9.733953"><ele>8</ele></trkpt>
   <trkpt lat="55.561482" lon="9.734413"><ele>7.75</ele></trkpt>
   <trkpt lat="55.561747" lon="9.73473"><ele>8</ele></trkpt>
   <trkpt lat="55.56203" lon="9.735043"><ele>9</ele></trkpt>
   <trkpt lat="55.562472" lon="9.735488"><ele>10.5</ele></trkpt>
   <trkpt lat="55.562742" lon="9.735728"><ele>11.25</ele></trkpt>
   <trkpt lat="55.563005" lon="9.735945"><ele>12</ele></trkpt>
   <trkpt lat="55.563611" lon="9.736396"><ele>12.25</ele></trkpt>
   <trkpt lat="55.563907" lon="9.736605"><ele>11.75</ele></trkpt>
   <trkpt lat="55.564388" lon="9.737063"><ele>11.5</ele></trkpt>
   <trkpt lat="55.564919" lon="9.737328"><ele>11.25</ele></trkpt>
   <trkpt lat="55.566117" lon="9.738173"><ele>9.5</ele></trkpt>
   <trkpt lat="55.566626" lon="9.738506"><ele>10</ele></trkpt>
   <trkpt lat="55.566934" lon="9.738678"><ele>10</ele></trkpt>
   <trkpt lat="55.568453" lon="9.739421"><ele>10</ele></trkpt>
   <trkpt lat="55.569535" lon="9.73995"><ele>11.5</ele></trkpt>
   <trkpt lat="55.568453" lon="9.739421"><ele>10</ele></trkpt>
   <trkpt lat="55.566934" lon="9.738678"><ele>10</ele></trkpt>
   <trkpt lat="55.566626" lon="9.738506"><ele>10</ele></trkpt>
   <trkpt lat="55.566117" lon="9.738173"><ele>9.5</ele></trkpt>
   <trkpt lat="55.564919" lon="9.737328"><ele>11.25</ele></trkpt>
   <trkpt lat="55.564388" lon="9.737063"><ele>11.5</ele></trkpt>
   <trkpt lat="55.563907" lon="9.736605"><ele>11.75</ele></trkpt>
   <trkpt lat="55.563621" lon="9.736334"><ele>12.5</ele></trkpt>
   <trkpt lat="55.563224" lon="9.735934"><ele>13</ele></trkpt>
   <trkpt lat="55.563059" lon="9.735784"><ele>12.75</ele></trkpt>
   <trkpt lat="55.562754" lon="9.735531"><ele>11.75</ele></trkpt>
   <trkpt lat="55.562439" lon="9.735249"><ele>11</ele></trkpt>
   <trkpt lat="55.562075" lon="9.734883"><ele>9.75</ele></trkpt>
   <trkpt lat="55.561805" lon="9.73458"><ele>8.75</ele></trkpt>
   <trkpt lat="55.561544" lon="9.734259"><ele>8.25</ele></trkpt>
   <trkpt lat="55.561209" lon="9.733807"><ele>8.75</ele></trkpt>
   <trkpt lat="55.560932" lon="9.733387"><ele>9</ele></trkpt>
   <trkpt lat="55.560671" lon="9.732958"><ele>9.5</ele></trkpt>
   <trkpt lat="55.56045" lon="9.732558"><ele>9.75</ele></trkpt>
   <trkpt lat="55.560238" lon="9.732148"><ele>10</ele></trkpt>
   <trkpt lat="55.56007" lon="9.731796"><ele>10</ele></trkpt>
   <trkpt lat="55.559913" lon="9.731454"><ele>10</ele></trkpt>
   <trkpt lat="55.559593" lon="9.730723"><ele>10.75</ele></trkpt>
   <trkpt lat="55.559289" lon="9.72998"><ele>10.75</ele></trkpt>
   <trkpt lat="55.558979" lon="9.729276"><ele>10.75</ele></trkpt>
   <trkpt lat="55.55863" lon="9.728419"><ele>9</ele></trkpt>
   <trkpt lat="55.558504" lon="9.728084"><ele>8.25</ele></trkpt>
   <trkpt lat="55.558243" lon="9.727325"><ele>7.75</ele></trkpt>
   <trkpt lat="55.558098" lon="9.726858"><ele>7.5</ele></trkpt>
   <trkpt lat="55.557938" lon="9.726282"><ele>8.5</ele></trkpt>
   <trkpt lat="55.557796" lon="9.725726"><ele>10.25</ele></trkpt>
   <trkpt lat="55.557313" lon="9.723697"><ele>14.75</ele></trkpt>
   <trkpt lat="55.556967" lon="9.722165"><ele>19.5</ele></trkpt>
   <trkpt lat="55.556536" lon="9.720383"><ele>23</ele></trkpt>
   <trkpt lat="55.556241" lon="9.719328"><ele>22.25</ele></trkpt>
   <trkpt lat="55.556025" lon="9.718665"><ele>20.75</ele></trkpt>
   <trkpt lat="55.555756" lon="9.71794"><ele>18.5</ele></trkpt>
   <trkpt lat="55.555194" lon="9.716651"><ele>14.25</ele></trkpt>
   <trkpt lat="55.554863" lon="9.716007"><ele>11</ele></trkpt>
   <trkpt lat="55.554374" lon="9.715165"><ele>6.75</ele></trkpt>
   <trkpt lat="55.554205" lon="9.714911"><ele>5.75</ele></trkpt>
   <trkpt lat="55.553668" lon="9.714175"><ele>3.25</ele></trkpt>
   <trkpt lat="55.553178" lon="9.713588"><ele>3.25</ele></trkpt>
   <trkpt lat="55.552818" lon="9.713213"><ele>4.5</ele></trkpt>
   <trkpt lat="55.552395" lon="9.712802"><ele>5.25</ele></trkpt>
   <trkpt lat="55.551817" lon="9.712348"><ele>6.75</ele></trkpt>
   <trkpt lat="55.551424" lon="9.712076"><ele>8.5</ele></trkpt>
   <trkpt lat="55.549982" lon="9.711309"><ele>19</ele></trkpt>
   <trkpt lat="55.546043" lon="9.709372"><ele>20.5</ele></trkpt>
   <trkpt lat="55.543724" lon="9.708221"><ele>21</ele></trkpt>
   <trkpt lat="55.542739" lon="9.707757"><ele>21.25</ele></trkpt>
   <trkpt lat="55.542114" lon="9.707527"><ele>22.25</ele></trkpt>
   <trkpt lat="55.541399" lon="9.707346"><ele>22.25</ele></trkpt>
   <trkpt lat="55.541013" lon="9.707277"><ele>21.25</ele></trkpt>
   <trkpt lat="55.540781" lon="9.707254"><ele>21</ele></trkpt>
   <trkpt lat="55.540299" lon="9.707226"><ele>21.5</ele></trkpt>
   <trkpt lat="55.540047" lon="9.70723"><ele>21.75</ele></trkpt>
   <trkpt lat="55.53948" lon="9.707273"><ele>23</ele></trkpt>
   <trkpt lat="55.539075" lon="9.707335"><ele>23.5</ele></trkpt>
   <trkpt lat="55.538552" lon="9.707454"><ele>23</ele></trkpt>
   <trkpt lat="55.538211" lon="9.707559"><ele>23</ele></trkpt>
   <trkpt lat="55.537786" lon="9.707711"><ele>23</ele></trkpt>
   <trkpt lat="55.537216" lon="9.707967"><ele>23</ele></trkpt>
   <trkpt lat="55.536843" lon="9.708164"><ele>23.5</ele></trkpt>
   <trkpt lat="55.536564" lon="9.708324"><ele>23.75</ele></trkpt>
   <trkpt lat="55.536116" lon="9.708585"><ele>23.25</ele></trkpt>
   <trkpt lat="55.535545" lon="9.70899"><ele>23.5</ele></trkpt>
   <trkpt lat="55.535445" lon="9.70906"><ele>23.5</ele></trkpt>
   <trkpt lat="55.535137" lon="9.709255"><ele>23.75</ele></trkpt>
   <trkpt lat="55.534733" lon="9.709471"><ele>24.25</ele></trkpt>
   <trkpt lat="55.534296" lon="9.709702"><ele>24.25</ele></trkpt>
   <trkpt lat="55.533969" lon="9.709938"><ele>24.75</ele></trkpt>
   <trkpt lat="55.533729" lon="9.710128"><ele>24.5</ele></trkpt>
  </trkseg>
 </trk>
</gpx>