<?xml version="1.0" encoding="UTF-8"?>
<!-- track-length = 30857 filtered ascend = 281 plain-ascend = 223 cost=30857 energy=0.4kwh time=41m 9s -->
<gpx 
 xmlns="http://www.topografix.com/GPX/1/1" 
 xmlns:xsi="http://www.w3.org/2001/XMLSchema-instance" 
 xsi:schemaLocation="http://www.topografix.com/GPX/1/1 http://www.topografix.com/GPX/1/1/gpx.xsd" 
 version="1.1" 
 creator="BRouter-Web 0.18.1">
 <trk>
  <name>Freiberg -&gt; Holzhau</name>
  <trkseg>
   <trkpt lat="50.908426" lon="13.344006"><ele>413</ele></trkpt>
   <trkpt lat="50.908404" lon="13.344201"><ele>413</ele></trkpt>
   <trkpt lat="50.908332" lon="13.344795"><ele>413.75</ele></trkpt>
   <trkpt lat="50.9081" lon="13.346802"><ele>412</ele></trkpt>
   <trkpt lat="50.907947" lon="13.348123"><ele>411.5</ele></trkpt>
   <trkpt lat="50.90791" lon="13.348388"><ele>411.25</ele></trkpt>
   <trkpt lat="50.9077" lon="13.349603"><ele>410.75</ele></trkpt>
   <trkpt lat="50.907667" lon="13.349807"><ele>410.75</ele></trkpt>
   <trkpt lat="50.907596" lon="13.350255"><ele>410.75</ele></trkpt>
   <trkpt lat="50.907493" lon="13.351138"><ele>410.75</ele></trkpt>
   <trkpt lat="50.907403" lon="13.35199"><ele>410.75</ele></trkpt>
   <trkpt lat="50.907381" lon="13.352256"><ele>410.75</ele></trkpt>
   <trkpt lat="50.907359" lon="13.352668"><ele>410.25</ele></trkpt>
   <trkpt lat="50.907347" lon="13.352901"><ele>410</ele></trkpt>
   <trkpt lat="50.907335" lon="13.353165"><ele>409.5</ele></trkpt>
   <trkpt lat="50.907303" lon="13.353627"><ele>409</ele></trkpt>
   <trkpt lat="50.907243" lon="13.354166"><ele>408.25</ele></trkpt>
   <trkpt lat="50.907146" lon="13.354836"><ele>407.5</ele></trkpt>
   <trkpt lat="50.907001" lon="13.355809"><ele>407.75</ele></trkpt>
   <trkpt lat="50.906959" lon="13.356201"><ele>408.25</ele></trkpt>
   <trkpt lat="50.906935" lon="13.356523"><ele>408.75</ele></trkpt>
   <trkpt lat="50.906901" lon="13.357192"><ele>409.5</ele></trkpt>
   <trkpt lat="50.906896" lon="13.357361"><ele>409.75</ele></trkpt>
   <trkpt lat="50.90687" lon="13.358025"><ele>411</ele></trkpt>
   <trkpt lat="50.906852" lon="13.35827"><ele>411.5</ele></trkpt>
   <trkpt lat="50.906826" lon="13.3585"><ele>412</ele></trkpt>
   <trkpt lat="50.906761" lon="13.358899"><ele>412.5</ele></trkpt>
   <trkpt lat="50.906684" lon="13.359223"><ele>413</ele></trkpt>
   <trkpt lat="50.906596" lon="13.359556"><ele>413.5</ele></trkpt>
   <trkpt lat="50.906475" lon="13.359902"><ele>413.5</ele></trkpt>
   <trkpt lat="50.906347" lon="13.360191"><ele>413.75</ele></trkpt>
   <trkpt lat="50.906226" lon="13.36043"><ele>414.25</ele></trkpt>
   <trkpt lat="50.906224" lon="13.360433"><ele>414.25</ele></trkpt>
   <trkpt lat="50.906223" lon="13.360435"><ele>414.25</ele></trkpt>
   <trkpt lat="50.906068" lon="13.360702"><ele>414.5</ele></trkpt>
   <trkpt lat="50.905901" lon="13.36097"><ele>415.25</ele></trkpt>
   <trkpt lat="50.905564" lon="13.361446"><ele>415.75</ele></trkpt>
   <trkpt lat="50.905407" lon="13.361626"><ele>415.75</ele></trkpt>
   <trkpt lat="50.905354" lon="13.361686"><ele>415.75</ele></trkpt>
   <trkpt lat="50.905269" lon="13.361782"><ele>415.5</ele></trkpt>
   <trkpt lat="50.905064" lon="13.361984"><ele>415.5</ele></trkpt>
   <trkpt lat="50.904895" lon="13.362134"><ele>416</ele></trkpt>
   <trkpt lat="50.904675" lon="13.362293"><ele>416.5</ele></trkpt>
   <trkpt lat="50.904395" lon="13.362474"><ele>417</ele></trkpt>
   <trkpt lat="50.904111" lon="13.362631"><ele>417.75</ele></trkpt>
   <trkpt lat="50.903888" lon="13.362719"><ele>418.5</ele></trkpt>
   <trkpt lat="50.903664" lon="13.362785"><ele>419.25</ele></trkpt>
   <trkpt lat="50.903411" lon="13.362835"><ele>420</ele></trkpt>
   <trkpt lat="50.903408" lon="13.362836"><ele>420</ele></trkpt>
   <trkpt lat="50.903404" lon="13.362836"><ele>420</ele></trkpt>
   <trkpt lat="50.903097" lon="13.362871"><ele>420.25</ele></trkpt>
   <trkpt lat="50.902769" lon="13.362859"><ele>420.5</ele></trkpt>
   <trkpt lat="50.901917" lon="13.362765"><ele>419</ele></trkpt>
   <trkpt lat="50.901365" lon="13.36273"><ele>418.5</ele></trkpt>
   <trkpt lat="50.901027" lon="13.362759"><ele>418.75</ele></trkpt>
   <trkpt lat="50.900597" lon="13.362847"><ele>419.25</ele></trkpt>
   <trkpt lat="50.900151" lon="13.363029"><ele>420.5</ele></trkpt>
   <trkpt lat="50.899733" lon="13.363282"><ele>422.25</ele></trkpt>
   <trkpt lat="50.899351" lon="13.363562"><ele>423</ele></trkpt>
   <trkpt lat="50.897899" lon="13.365057"><ele>427.5</ele></trkpt>
   <trkpt lat="50.897655" lon="13.365269"><ele>427.5</ele></trkpt>
   <trkpt lat="50.897399" lon="13.365424"><ele>427</ele></trkpt>
   <trkpt lat="50.896885" lon="13.365678"><ele>426</ele></trkpt>
   <trkpt lat="50.896478" lon="13.365772"><ele>425</ele></trkpt>
   <trkpt lat="50.896191" lon="13.365805"><ele>424</ele></trkpt>
   <trkpt lat="50.895869" lon="13.36579"><ele>422.75</ele></trkpt>
   <trkpt lat="50.895442" lon="13.365713"><ele>424.75</ele></trkpt>
   <trkpt lat="50.894953" lon="13.365492"><ele>427.75</ele></trkpt>
   <trkpt lat="50.894313" lon="13.365057"><ele>431.75</ele></trkpt>
   <trkpt lat="50.894001" lon="13.364765"><ele>432.5</ele></trkpt>
   <trkpt lat="50.893715" lon="13.364415"><ele>432.25</ele></trkpt>
   <trkpt lat="50.893577" lon="13.364215"><ele>432.25</ele></trkpt>
   <trkpt lat="50.893109" lon="13.363386"><ele>431.75</ele></trkpt>
   <trkpt lat="50.892204" lon="13.361703"><ele>430.75</ele></trkpt>
   <trkpt lat="50.891868" lon="13.361186"><ele>430.5</ele></trkpt>
   <trkpt lat="50.891495" lon="13.360703"><ele>430.5</ele></trkpt>
   <trkpt lat="50.891185" lon="13.360383"><ele>430.75</ele></trkpt>
   <trkpt lat="50.890845" lon="13.360092"><ele>431.25</ele></trkpt>
   <trkpt lat="50.890216" lon="13.35969"><ele>433</ele></trkpt>
   <trkpt lat="50.889007" lon="13.359172"><ele>433.5</ele></trkpt>
   <trkpt lat="50.888526" lon="13.358938"><ele>433.5</ele></trkpt>
   <trkpt lat="50.888052" lon="13.358601"><ele>434.5</ele></trkpt>
   <trkpt lat="50.887631" lon="13.358208"><ele>436.75</ele></trkpt>
   <trkpt lat="50.887102" lon="13.357664"><ele>436.5</ele></trkpt>
   <trkpt lat="50.886371" lon="13.356894"><ele>437</ele></trkpt>
   <trkpt lat="50.886312" lon="13.356848"><ele>437</ele></trkpt>
   <trkpt lat="50.886141" lon="13.356695"><ele>437.25</ele></trkpt>
   <trkpt lat="50.885905" lon="13.356535"><ele>437.5</ele></trkpt>
   <trkpt lat="50.885858" lon="13.356503"><ele>437.75</ele></trkpt>
   <trkpt lat="50.88545" lon="13.356294"><ele>438.5</ele></trkpt>
   <trkpt lat="50.885144" lon="13.356178"><ele>439.25</ele></trkpt>
   <trkpt lat="50.884856" lon="13.356133"><ele>440.25</ele></trkpt>
   <trkpt lat="50.884296" lon="13.356095"><ele>442.25</ele></trkpt>
   <trkpt lat="50.884068" lon="13.356132"><ele>442.75</ele></trkpt>
   <trkpt lat="50.883609" lon="13.356268"><ele>443</ele></trkpt>
   <trkpt lat="50.883171" lon="13.356493"><ele>443.25</ele></trkpt>
   <trkpt lat="50.88275" lon="13.356801"><ele>442.75</ele></trkpt>
   <trkpt lat="50.882279" lon="13.357285"><ele>443.25</ele></trkpt>
   <trkpt lat="50.881913" lon="13.357791"><ele>443</ele></trkpt>
   <trkpt lat="50.88147" lon="13.358519"><ele>443.75</ele></trkpt>
   <trkpt lat="50.881382" lon="13.358675"><ele>444.5</ele></trkpt>
   <trkpt lat="50.881293" lon="13.358828"><ele>445</ele></trkpt>
   <trkpt lat="50.880941" lon="13.359381"><ele>445.25</ele></trkpt>
   <trkpt lat="50.880628" lon="13.359785"><ele>445</ele></trkpt>
   <trkpt lat="50.88036" lon="13.360116"><ele>445</ele></trkpt>
   <trkpt lat="50.879976" lon="13.360458"><ele>444.5</ele></trkpt>
   <trkpt lat="50.878221" lon="13.361758"><ele>447</ele></trkpt>
   <trkpt lat="50.877033" lon="13.36265"><ele>447</ele></trkpt>
   <trkpt lat="50.875707" lon="13.363644"><ele>448.5</ele></trkpt>
   <trkpt lat="50.875182" lon="13.364036"><ele>449.5</ele></trkpt>
   <trkpt lat="50.875114" lon="13.364087"><ele>449.75</ele></trkpt>
   <trkpt lat="50.874951" lon="13.364233"><ele>450</ele></trkpt>
   <trkpt lat="50.874734" lon="13.364459"><ele>451</ele></trkpt>
   <trkpt lat="50.874462" lon="13.364784"><ele>452</ele></trkpt>
   <trkpt lat="50.873995" lon="13.365548"><ele>452.5</ele></trkpt>
   <trkpt lat="50.873675" lon="13.366102"><ele>452</ele></trkpt>
   <trkpt lat="50.873364" lon="13.366663"><ele>450.75</ele></trkpt>
   <trkpt lat="50.872598" lon="13.368103"><ele>444.75</ele></trkpt>
   <trkpt lat="50.872264" lon="13.368872"><ele>443.25</ele></trkpt>
   <trkpt lat="50.87211" lon="13.369295"><ele>442.75</ele></trkpt>
   <trkpt lat="50.871977" lon="13.369726"><ele>442</ele></trkpt>
   <trkpt lat="50.871859" lon="13.370157"><ele>441.5</ele></trkpt>
   <trkpt lat="50.871787" lon="13.370453"><ele>441.5</ele></trkpt>
   <trkpt lat="50.871739" lon="13.370685"><ele>441.5</ele></trkpt>
   <trkpt lat="50.871716" lon="13.370799"><ele>441.5</ele></trkpt>
   <trkpt lat="50.871658" lon="13.371119"><ele>441.25</ele></trkpt>
   <trkpt lat="50.871598" lon="13.371527"><ele>440.75</ele></trkpt>
   <trkpt lat="50.871523" lon="13.372113"><ele>440.5</ele></trkpt>
   <trkpt lat="50.87146" lon="13.372602"><ele>440</ele></trkpt>
   <trkpt lat="50.871255" lon="13.374186"><ele>438.75</ele></trkpt>
   <trkpt lat="50.871252" lon="13.374212"><ele>438.75</ele></trkpt>
   <trkpt lat="50.871087" lon="13.375467"><ele>438</ele></trkpt>
   <trkpt lat="50.871044" lon="13.37574"><ele>437.75</ele></trkpt>
   <trkpt lat="50.870963" lon="13.376151"><ele>437.25</ele></trkpt>
   <trkpt lat="50.870875" lon="13.376486"><ele>437</ele></trkpt>
   <trkpt lat="50.87077" lon="13.376804"><ele>436.75</ele></trkpt>
   <trkpt lat="50.870646" lon="13.377133"><ele>436.75</ele></trkpt>
   <trkpt lat="50.870483" lon="13.377492"><ele>436.5</ele></trkpt>
   <trkpt lat="50.870269" lon="13.377898"><ele>436.25</ele></trkpt>
   <trkpt lat="50.870076" lon="13.378198"><ele>436</ele></trkpt>
   <trkpt lat="50.869867" lon="13.37848"><ele>435.75</ele></trkpt>
   <trkpt lat="50.8697" lon="13.378678"><ele>435.75</ele></trkpt>
   <trkpt lat="50.869517" lon="13.37887"><ele>435.75</ele></trkpt>
   <trkpt lat="50.869139" lon="13.379176"><ele>436</ele></trkpt>
   <trkpt lat="50.868838" lon="13.379395"><ele>436</ele></trkpt>
   <trkpt lat="50.868694" lon="13.379509"><ele>436</ele></trkpt>
   <trkpt lat="50.868261" lon="13.379843"><ele>435.75</ele></trkpt>
   <trkpt lat="50.868161" lon="13.379928"><ele>435.75</ele></trkpt>
   <trkpt lat="50.867859" lon="13.380187"><ele>435.75</ele></trkpt>
   <trkpt lat="50.867455" lon="13.380631"><ele>435</ele></trkpt>
   <trkpt lat="50.867389" lon="13.380704"><ele>434.75</ele></trkpt>
   <trkpt lat="50.867324" lon="13.380784"><ele>434.25</ele></trkpt>
   <trkpt lat="50.866565" lon="13.381719"><ele>431</ele></trkpt>
   <trkpt lat="50.866082" lon="13.382263"><ele>430.5</ele></trkpt>
   <trkpt lat="50.865805" lon="13.382575"><ele>429.5</ele></trkpt>
   <trkpt lat="50.865264" lon="13.383067"><ele>430.25</ele></trkpt>
   <trkpt lat="50.864893" lon="13.383298"><ele>431.5</ele></trkpt>
   <trkpt lat="50.864527" lon="13.383445"><ele>431.75</ele></trkpt>
   <trkpt lat="50.864127" lon="13.383543"><ele>432.25</ele></trkpt>
   <trkpt lat="50.863711" lon="13.383573"><ele>433</ele></trkpt>
   <trkpt lat="50.861739" lon="13.38339"><ele>424</ele></trkpt>
   <trkpt lat="50.861259" lon="13.383418"><ele>422.75</ele></trkpt>
   <trkpt lat="50.860787" lon="13.383607"><ele>421.5</ele></trkpt>
   <trkpt lat="50.860288" lon="13.383944"><ele>424.5</ele></trkpt>
   <trkpt lat="50.859329" lon="13.384845"><ele>430.75</ele></trkpt>
   <trkpt lat="50.857703" lon="13.386733"><ele>427</ele></trkpt>
   <trkpt lat="50.856568" lon="13.388121"><ele>422</ele></trkpt>
   <trkpt lat="50.855959" lon="13.388706"><ele>423.25</ele></trkpt>
   <trkpt lat="50.854302" lon="13.38953"><ele>428.5</ele></trkpt>
   <trkpt lat="50.852603" lon="13.390307"><ele>416.5</ele></trkpt>
   <trkpt lat="50.85196" lon="13.390768"><ele>413</ele></trkpt>
   <trkpt lat="50.85144" lon="13.39131"><ele>412.25</ele></trkpt>
   <trkpt lat="50.850876" lon="13.39232"><ele>411.5</ele></trkpt>
   <trkpt lat="50.850431" lon="13.393385"><ele>415</ele></trkpt>
   <trkpt lat="50.850085" lon="13.394595"><ele>419.75</ele></trkpt>
   <trkpt lat="50.84976" lon="13.395527"><ele>422</ele></trkpt>
   <trkpt lat="50.849428" lon="13.396237"><ele>421.5</ele></trkpt>
   <trkpt lat="50.849048" lon="13.396758"><ele>422</ele></trkpt>
   <trkpt lat="50.848696" lon="13.397163"><ele>420</ele></trkpt>
   <trkpt lat="50.848264" lon="13.397517"><ele>417.25</ele></trkpt>
   <trkpt lat="50.847908" lon="13.397735"><ele>412</ele></trkpt>
   <trkpt lat="50.847088" lon="13.398156"><ele>405.5</ele></trkpt>
   <trkpt lat="50.846617" lon="13.398452"><ele>404.5</ele></trkpt>
   <trkpt lat="50.846179" lon="13.39874"><ele>406.75</ele></trkpt>
   <trkpt lat="50.845799" lon="13.399157"><ele>407.25</ele></trkpt>
   <trkpt lat="50.84534" lon="13.399787"><ele>405</ele></trkpt>
   <trkpt lat="50.844785" lon="13.400643"><ele>400.25</ele></trkpt>
   <trkpt lat="50.843763" lon="13.402273"><ele>393.5</ele></trkpt>
   <trkpt lat="50.84353" lon="13.402591"><ele>393.75</ele></trkpt>
   <trkpt lat="50.843297" lon="13.40287"><ele>394.25</ele></trkpt>
   <trkpt lat="50.842993" lon="13.403168"><ele>395</ele></trkpt>
   <trkpt lat="50.842464" lon="13.403505"><ele>396.25</ele></trkpt>
   <trkpt lat="50.84211" lon="13.403678"><ele>397.5</ele></trkpt>
   <trkpt lat="50.841741" lon="13.40378"><ele>398.75</ele></trkpt>
   <trkpt lat="50.841626" lon="13.403795"><ele>399</ele></trkpt>
   <trkpt lat="50.84146" lon="13.403806"><ele>399.5</ele></trkpt>
   <trkpt lat="50.841125" lon="13.403823"><ele>400.5</ele></trkpt>
   <trkpt lat="50.840885" lon="13.403835"><ele>401.25</ele></trkpt>
   <trkpt lat="50.840388" lon="13.403801"><ele>402.25</ele></trkpt>
   <trkpt lat="50.839906" lon="13.403709"><ele>402.75</ele></trkpt>
   <trkpt lat="50.838199" lon="13.403381"><ele>403.75</ele></trkpt>
   <trkpt lat="50.837397" lon="13.403257"><ele>404.75</ele></trkpt>
   <trkpt lat="50.836148" lon="13.402989"><ele>405.5</ele></trkpt>
   <trkpt lat="50.835612" lon="13.402951"><ele>405.25</ele></trkpt>
   <trkpt lat="50.834676" lon="13.403037"><ele>404.75</ele></trkpt>
   <trkpt lat="50.832423" lon="13.403355"><ele>405</ele></trkpt>
   <trkpt lat="50.831486" lon="13.403471"><ele>406</ele></trkpt>
   <trkpt lat="50.830826" lon="13.403607"><ele>407.5</ele></trkpt>
   <trkpt lat="50.830016" lon="13.404023"><ele>407</ele></trkpt>
   <trkpt lat="50.829394" lon="13.40461"><ele>407</ele></trkpt>
   <trkpt lat="50.828933" lon="13.405227"><ele>407.75</ele></trkpt>
   <trkpt lat="50.827966" lon="13.4066"><ele>407.75</ele></trkpt>
   <trkpt lat="50.827884" lon="13.406721"><ele>408.25</ele></trkpt>
   <trkpt lat="50.827456" lon="13.407304"><ele>409.75</ele></trkpt>
   <trkpt lat="50.827153" lon="13.407628"><ele>409.75</ele></trkpt>
   <trkpt lat="50.826784" lon="13.407929"><ele>408.25</ele></trkpt>
   <trkpt lat="50.826603" lon="13.408037"><ele>408.25</ele></trkpt>
   <trkpt lat="50.826325" lon="13.408188"><ele>410.75</ele></trkpt>
   <trkpt lat="50.825976" lon="13.408327"><ele>413.5</ele></trkpt>
   <trkpt lat="50.825628" lon="13.408402"><ele>418.25</ele></trkpt>
   <trkpt lat="50.825543" lon="13.408419"><ele>419.5</ele></trkpt>
   <trkpt lat="50.825232" lon="13.408431"><ele>425</ele></trkpt>
   <trkpt lat="50.824837" lon="13.408389"><ele>427</ele></trkpt>
   <trkpt lat="50.824469" lon="13.408267"><ele>423.75</ele></trkpt>
   <trkpt lat="50.824152" lon="13.40812"><ele>421.25</ele></trkpt>
   <trkpt lat="50.824058" lon="13.408073"><ele>420.5</ele></trkpt>
   <trkpt lat="50.823812" lon="13.407925"><ele>418.25</ele></trkpt>
   <trkpt lat="50.823564" lon="13.407739"><ele>415.75</ele></trkpt>
   <trkpt lat="50.823434" lon="13.40762"><ele>414.25</ele></trkpt>
   <trkpt lat="50.823298" lon="13.407488"><ele>413</ele></trkpt>
   <trkpt lat="50.823205" lon="13.407386"><ele>413</ele></trkpt>
   <trkpt lat="50.822899" lon="13.407005"><ele>412.25</ele></trkpt>
   <trkpt lat="50.821722" lon="13.405124"><ele>416</ele></trkpt>
   <trkpt lat="50.820905" lon="13.403815"><ele>422.25</ele></trkpt>
   <trkpt lat="50.82077" lon="13.403617"><ele>422.75</ele></trkpt>
   <trkpt lat="50.820669" lon="13.403474"><ele>422.75</ele></trkpt>
   <trkpt lat="50.820573" lon="13.403353"><ele>422.5</ele></trkpt>
   <trkpt lat="50.820392" lon="13.403146"><ele>424.5</ele></trkpt>
   <trkpt lat="50.820204" lon="13.402969"><ele>426.25</ele></trkpt>
   <trkpt lat="50.819979" lon="13.402779"><ele>428.5</ele></trkpt>
   <trkpt lat="50.819747" lon="13.402619"><ele>431.75</ele></trkpt>
   <trkpt lat="50.819414" lon="13.402432"><ele>435.25</ele></trkpt>
   <trkpt lat="50.819181" lon="13.402346"><ele>437</ele></trkpt>
   <trkpt lat="50.818921" lon="13.402263"><ele>437.5</ele></trkpt>
   <trkpt lat="50.818418" lon="13.402184"><ele>437.25</ele></trkpt>
   <trkpt lat="50.817625" lon="13.402098"><ele>431</ele></trkpt>
   <trkpt lat="50.817282" lon="13.40206"><ele>428.5</ele></trkpt>
   <trkpt lat="50.816902" lon="13.402008"><ele>426</ele></trkpt>
   <trkpt lat="50.816523" lon="13.401993"><ele>424.25</ele></trkpt>
   <trkpt lat="50.815865" lon="13.402077"><ele>424.25</ele></trkpt>
   <trkpt lat="50.815498" lon="13.402234"><ele>424.75</ele></trkpt>
   <trkpt lat="50.815146" lon="13.402424"><ele>425</ele></trkpt>
   <trkpt lat="50.813903" lon="13.403684"><ele>424.25</ele></trkpt>
   <trkpt lat="50.812528" lon="13.405256"><ele>423</ele></trkpt>
   <trkpt lat="50.812232" lon="13.40568"><ele>424.5</ele></trkpt>
   <trkpt lat="50.812087" lon="13.405908"><ele>424.75</ele></trkpt>
   <trkpt lat="50.812027" lon="13.406015"><ele>425</ele></trkpt>
   <trkpt lat="50.811849" lon="13.406373"><ele>425.25</ele></trkpt>
   <trkpt lat="50.811692" lon="13.406748"><ele>425.5</ele></trkpt>
   <trkpt lat="50.811479" lon="13.407305"><ele>426.5</ele></trkpt>
   <trkpt lat="50.811465" lon="13.40734"><ele>426.5</ele></trkpt>
   <trkpt lat="50.811432" lon="13.40743"><ele>426.75</ele></trkpt>
   <trkpt lat="50.811071" lon="13.408394"><ele>426.5</ele></trkpt>
   <trkpt lat="50.810916" lon="13.408767"><ele>427</ele></trkpt>
   <trkpt lat="50.810747" lon="13.409126"><ele>428</ele></trkpt>
   <trkpt lat="50.810349" lon="13.40987"><ele>429</ele></trkpt>
   <trkpt lat="50.809914" lon="13.410664"><ele>428.5</ele></trkpt>
   <trkpt lat="50.809628" lon="13.411286"><ele>429</ele></trkpt>
   <trkpt lat="50.809445" lon="13.41172"><ele>428.75</ele></trkpt>
   <trkpt lat="50.809312" lon="13.41211"><ele>429.5</ele></trkpt>
   <trkpt lat="50.809201" lon="13.412485"><ele>429.5</ele></trkpt>
   <trkpt lat="50.809159" lon="13.412644"><ele>429.5</ele></trkpt>
   <trkpt lat="50.809024" lon="13.41328"><ele>431.5</ele></trkpt>
   <trkpt lat="50.808502" lon="13.416613"><ele>433</ele></trkpt>
   <trkpt lat="50.808166" lon="13.41871"><ele>434</ele></trkpt>
   <trkpt lat="50.808112" lon="13.419052"><ele>434.75</ele></trkpt>
   <trkpt lat="50.807971" lon="13.419718"><ele>435.25</ele></trkpt>
   <trkpt lat="50.807889" lon="13.420195"><ele>435.75</ele></trkpt>
   <trkpt lat="50.807813" lon="13.420571"><ele>436.25</ele></trkpt>
   <trkpt lat="50.80766" lon="13.421168"><ele>437</ele></trkpt>
   <trkpt lat="50.807509" lon="13.421621"><ele>436.75</ele></trkpt>
   <trkpt lat="50.807342" lon="13.422018"><ele>438.5</ele></trkpt>
   <trkpt lat="50.807148" lon="13.422406"><ele>439.5</ele></trkpt>
   <trkpt lat="50.80692" lon="13.422752"><ele>439.25</ele></trkpt>
   <trkpt lat="50.806879" lon="13.422818"><ele>439</ele></trkpt>
   <trkpt lat="50.806668" lon="13.42309"><ele>438</ele></trkpt>
   <trkpt lat="50.806359" lon="13.423431"><ele>438.75</ele></trkpt>
   <trkpt lat="50.80597" lon="13.423795"><ele>441</ele></trkpt>
   <trkpt lat="50.805578" lon="13.424109"><ele>442.25</ele></trkpt>
   <trkpt lat="50.804957" lon="13.424631"><ele>442</ele></trkpt>
   <trkpt lat="50.804455" lon="13.425129"><ele>441.25</ele></trkpt>
   <trkpt lat="50.804116" lon="13.425584"><ele>442.5</ele></trkpt>
   <trkpt lat="50.803893" lon="13.425993"><ele>444</ele></trkpt>
   <trkpt lat="50.803824" lon="13.426134"><ele>444.25</ele></trkpt>
   <trkpt lat="50.803652" lon="13.426536"><ele>444.25</ele></trkpt>
   <trkpt lat="50.80349" lon="13.426975"><ele>444</ele></trkpt>
   <trkpt lat="50.803261" lon="13.427929"><ele>446</ele></trkpt>
   <trkpt lat="50.803133" lon="13.429049"><ele>450.25</ele></trkpt>
   <trkpt lat="50.802998" lon="13.430365"><ele>453.75</ele></trkpt>
   <trkpt lat="50.802666" lon="13.434139"><ele>456.75</ele></trkpt>
   <trkpt lat="50.802477" lon="13.435818"><ele>454</ele></trkpt>
   <trkpt lat="50.802328" lon="13.436706"><ele>454.25</ele></trkpt>
   <trkpt lat="50.802164" lon="13.437441"><ele>456.5</ele></trkpt>
   <trkpt lat="50.801908" lon="13.438476"><ele>456.75</ele></trkpt>
   <trkpt lat="50.800469" lon="13.444878"><ele>464.5</ele></trkpt>
   <trkpt lat="50.799805" lon="13.44788"><ele>464.5</ele></trkpt>
   <trkpt lat="50.799619" lon="13.448457"><ele>463.5</ele></trkpt>
   <trkpt lat="50.799475" lon="13.448798"><ele>462.25</ele></trkpt>
   <trkpt lat="50.799339" lon="13.449076"><ele>460.75</ele></trkpt>
   <trkpt lat="50.799232" lon="13.449314"><ele>459.5</ele></trkpt>
   <trkpt lat="50.798957" lon="13.449783"><ele>463.5</ele></trkpt>
   <trkpt lat="50.798455" lon="13.45041"><ele>472.5</ele></trkpt>
   <trkpt lat="50.798173" lon="13.450654"><ele>475</ele></trkpt>
   <trkpt lat="50.797703" lon="13.450983"><ele>477.5</ele></trkpt>
   <trkpt lat="50.797351" lon="13.451132"><ele>478.5</ele></trkpt>
   <trkpt lat="50.797011" lon="13.451254"><ele>479.5</ele></trkpt>
   <trkpt lat="50.796335" lon="13.451412"><ele>478.5</ele></trkpt>
   <trkpt lat="50.796121" lon="13.451472"><ele>476.75</ele></trkpt>
   <trkpt lat="50.795837" lon="13.451555"><ele>474.25</ele></trkpt>
   <trkpt lat="50.795583" lon="13.45166"><ele>472.25</ele></trkpt>
   <trkpt lat="50.795127" lon="13.451944"><ele>476.5</ele></trkpt>
   <trkpt lat="50.794687" lon="13.452293"><ele>480.75</ele></trkpt>
   <trkpt lat="50.793849" lon="13.453402"><ele>476.5</ele></trkpt>
   <trkpt lat="50.793497" lon="13.453868"><ele>476.25</ele></trkpt>
   <trkpt lat="50.788973" lon="13.460578"><ele>486</ele></trkpt>
   <trkpt lat="50.788227" lon="13.461581"><ele>482</ele></trkpt>
   <trkpt lat="50.787611" lon="13.462156"><ele>488</ele></trkpt>
   <trkpt lat="50.786941" lon="13.462617"><ele>490.25</ele></trkpt>
   <trkpt lat="50.784661" lon="13.463612"><ele>481</ele></trkpt>
   <trkpt lat="50.784053" lon="13.463967"><ele>482</ele></trkpt>
   <trkpt lat="50.78361" lon="13.46428"><ele>482.25</ele></trkpt>
   <trkpt lat="50.783183" lon="13.46472"><ele>482</ele></trkpt>
   <trkpt lat="50.782872" lon="13.46513"><ele>480.75</ele></trkpt>
   <trkpt lat="50.782776" lon="13.465271"><ele>481</ele></trkpt>
   <trkpt lat="50.782046" lon="13.466526"><ele>481.5</ele></trkpt>
   <trkpt lat="50.780161" lon="13.469855"><ele>484.5</ele></trkpt>
   <trkpt lat="50.779326" lon="13.471334"><ele>490.5</ele></trkpt>
   <trkpt lat="50.778085" lon="13.473467"><ele>492.75</ele></trkpt>
   <trkpt lat="50.776385" lon="13.476454"><ele>497</ele></trkpt>
   <trkpt lat="50.775648" lon="13.477825"><ele>494.25</ele></trkpt>
   <trkpt lat="50.775262" lon="13.478855"><ele>494.25</ele></trkpt>
   <trkpt lat="50.774192" lon="13.482222"><ele>494.25</ele></trkpt>
   <trkpt lat="50.773919" lon="13.482896"><ele>495</ele></trkpt>
   <trkpt lat="50.773856" lon="13.48305"><ele>495.25</ele></trkpt>
   <trkpt lat="50.773343" lon="13.483905"><ele>496.75</ele></trkpt>
   <trkpt lat="50.773121" lon="13.484205"><ele>497.25</ele></trkpt>
   <trkpt lat="50.772662" lon="13.484667"><ele>495.5</ele></trkpt>
   <trkpt lat="50.772268" lon="13.484975"><ele>494</ele></trkpt>
   <trkpt lat="50.772117" lon="13.485077"><ele>493.75</ele></trkpt>
   <trkpt lat="50.771573" lon="13.485349"><ele>493.75</ele></trkpt>
   <trkpt lat="50.771465" lon="13.485385"><ele>494.75</ele></trkpt>
   <trkpt lat="50.770904" lon="13.485543"><ele>500.25</ele></trkpt>
   <trkpt lat="50.769603" lon="13.485813"><ele>515</ele></trkpt>
   <trkpt lat="50.769001" lon="13.485987"><ele>515.75</ele></trkpt>
   <trkpt lat="50.768596" lon="13.486139"><ele>513</ele></trkpt>
   <trkpt lat="50.76825" lon="13.486311"><ele>509.5</ele></trkpt>
   <trkpt lat="50.765572" lon="13.487752"><ele>512.5</ele></trkpt>
   <trkpt lat="50.764121" lon="13.488818"><ele>514</ele></trkpt>
   <trkpt lat="50.762555" lon="13.490627"><ele>515.75</ele></trkpt>
   <trkpt lat="50.761333" lon="13.492525"><ele>520</ele></trkpt>
   <trkpt lat="50.760623" lon="13.493587"><ele>520.25</ele></trkpt>
   <trkpt lat="50.760447" lon="13.493784"><ele>520.25</ele></trkpt>
   <trkpt lat="50.7602" lon="13.494104"><ele>518.5</ele></trkpt>
   <trkpt lat="50.759932" lon="13.4944"><ele>516</ele></trkpt>
   <trkpt lat="50.758351" lon="13.496042"><ele>513.25</ele></trkpt>
   <trkpt lat="50.756754" lon="13.497645"><ele>517.75</ele></trkpt>
   <trkpt lat="50.75592" lon="13.498523"><ele>515.75</ele></trkpt>
   <trkpt lat="50.755305" lon="13.499193"><ele>517</ele></trkpt>
   <trkpt lat="50.755239" lon="13.499255"><ele>517.25</ele></trkpt>
   <trkpt lat="50.755137" lon="13.49936"><ele>517.25</ele></trkpt>
   <trkpt lat="50.75504" lon="13.49946"><ele>517.5</ele></trkpt>
   <trkpt lat="50.753213" lon="13.501329"><ele>522.25</ele></trkpt>
   <trkpt lat="50.75192" lon="13.50333"><ele>524.5</ele></trkpt>
   <trkpt lat="50.750542" lon="13.505622"><ele>527</ele></trkpt>
   <trkpt lat="50.749204" lon="13.508087"><ele>527.5</ele></trkpt>
   <trkpt lat="50.749167" lon="13.508175"><ele>527.25</ele></trkpt>
   <trkpt lat="50.748549" lon="13.509724"><ele>526.75</ele></trkpt>
   <trkpt lat="50.747905" lon="13.511407"><ele>527.5</ele></trkpt>
   <trkpt lat="50.747595" lon="13.51216"><ele>529.5</ele></trkpt>
   <trkpt lat="50.747286" lon="13.512745"><ele>533.75</ele></trkpt>
   <trkpt lat="50.747077" lon="13.513092"><ele>536.75</ele></trkpt>
   <trkpt lat="50.746854" lon="13.513405"><ele>539.25</ele></trkpt>
   <trkpt lat="50.746537" lon="13.513791"><ele>541.25</ele></trkpt>
   <trkpt lat="50.746156" lon="13.514179"><ele>542.75</ele></trkpt>
   <trkpt lat="50.745675" lon="13.514557"><ele>543.75</ele></trkpt>
   <trkpt lat="50.74472" lon="13.515126"><ele>545.75</ele></trkpt>
   <trkpt lat="50.743969" lon="13.515528"><ele>545.25</ele></trkpt>
   <trkpt lat="50.743462" lon="13.516054"><ele>541.25</ele></trkpt>
   <trkpt lat="50.743034" lon="13.516536"><ele>540.5</ele></trkpt>
   <trkpt lat="50.742666" lon="13.517144"><ele>541.75</ele></trkpt>
   <trkpt lat="50.74233" lon="13.517885"><ele>540.75</ele></trkpt>
   <trkpt lat="50.742046" lon="13.518717"><ele>541</ele></trkpt>
   <trkpt lat="50.741911" lon="13.519281"><ele>541.75</ele></trkpt>
   <trkpt lat="50.741813" lon="13.519814"><ele>541.25</ele></trkpt>
   <trkpt lat="50.741762" lon="13.520213"><ele>541.25</ele></trkpt>
   <trkpt lat="50.741718" lon="13.520628"><ele>541.5</ele></trkpt>
   <trkpt lat="50.741649" lon="13.521471"><ele>542</ele></trkpt>
   <trkpt lat="50.74163" lon="13.521804"><ele>542.25</ele></trkpt>
   <trkpt lat="50.74162" lon="13.522235"><ele>542.5</ele></trkpt>
   <trkpt lat="50.741607" lon="13.52248"><ele>542.5</ele></trkpt>
   <trkpt lat="50.741588" lon="13.522697"><ele>542.75</ele></trkpt>
   <trkpt lat="50.741505" lon="13.523627"><ele>544</ele></trkpt>
   <trkpt lat="50.741464" lon="13.523941"><ele>544.5</ele></trkpt>
   <trkpt lat="50.741404" lon="13.524352"><ele>545</ele></trkpt>
   <trkpt lat="50.741285" lon="13.524982"><ele>546.5</ele></trkpt>
   <trkpt lat="50.741221" lon="13.525258"><ele>546.5</ele></trkpt>
   <trkpt lat="50.741029" lon="13.526012"><ele>545.25</ele></trkpt>
   <trkpt lat="50.740158" lon="13.529364"><ele>552.5</ele></trkpt>
   <trkpt lat="50.739964" lon="13.530112"><ele>552</ele></trkpt>
   <trkpt lat="50.739794" lon="13.530764"><ele>556.25</ele></trkpt>
   <trkpt lat="50.738828" lon="13.534486"><ele>554.75</ele></trkpt>
   <trkpt lat="50.738255" lon="13.53786"><ele>556</ele></trkpt>
   <trkpt lat="50.73759" lon="13.541991"><ele>562</ele></trkpt>
   <trkpt lat="50.737354" lon="13.543025"><ele>563.25</ele></trkpt>
   <trkpt lat="50.737124" lon="13.543807"><ele>566.25</ele></trkpt>
   <trkpt lat="50.736865" lon="13.544708"><ele>569.75</ele></trkpt>
   <trkpt lat="50.736694" lon="13.545406"><ele>571.25</ele></trkpt>
   <trkpt lat="50.736589" lon="13.546032"><ele>572.5</ele></trkpt>
   <trkpt lat="50.736487" lon="13.547005"><ele>573.5</ele></trkpt>
   <trkpt lat="50.736348" lon="13.550461"><ele>575.25</ele></trkpt>
   <trkpt lat="50.736298" lon="13.551375"><ele>573.25</ele></trkpt>
   <trkpt lat="50.736175" lon="13.552225"><ele>573</ele></trkpt>
   <trkpt lat="50.736013" lon="13.553023"><ele>572.5</ele></trkpt>
   <trkpt lat="50.735827" lon="13.553634"><ele>572.5</ele></trkpt>
   <trkpt lat="50.735706" lon="13.553984"><ele>574</ele></trkpt>
   <trkpt lat="50.734628" lon="13.556879"><ele>580.75</ele></trkpt>
   <trkpt lat="50.734352" lon="13.557895"><ele>580.25</ele></trkpt>
   <trkpt lat="50.7342" lon="13.558623"><ele>578.75</ele></trkpt>
   <trkpt lat="50.734162" lon="13.55881"><ele>579</ele></trkpt>
   <trkpt lat="50.734039" lon="13.559433"><ele>581</ele></trkpt>
   <trkpt lat="50.733923" lon="13.559981"><ele>583.25</ele></trkpt>
   <trkpt lat="50.733773" lon="13.560726"><ele>586.75</ele></trkpt>
   <trkpt lat="50.733713" lon="13.561128"><ele>588.5</ele></trkpt>
   <trkpt lat="50.733671" lon="13.561749"><ele>590.75</ele></trkpt>
   <trkpt lat="50.733703" lon="13.562335"><ele>591.75</ele></trkpt>
   <trkpt lat="50.733808" lon="13.563411"><ele>592.75</ele></trkpt>
   <trkpt lat="50.73399" lon="13.564788"><ele>589.5</ele></trkpt>
   <trkpt lat="50.734128" lon="13.565954"><ele>588.75</ele></trkpt>
   <trkpt lat="50.734253" lon="13.567097"><ele>589.5</ele></trkpt>
   <trkpt lat="50.734272" lon="13.567592"><ele>589.5</ele></trkpt>
   <trkpt lat="50.73428" lon="13.568166"><ele>590.25</ele></trkpt>
   <trkpt lat="50.734273" lon="13.568518"><ele>590.5</ele></trkpt>
   <trkpt lat="50.73402" lon="13.571071"><ele>596</ele></trkpt>
   <trkpt lat="50.733907" lon="13.573494"><ele>600.5</ele></trkpt>
   <trkpt lat="50.733871" lon="13.57499"><ele>599.75</ele></trkpt>
   <trkpt lat="50.733839" lon="13.5767"><ele>599</ele></trkpt>
   <trkpt lat="50.733785" lon="13.579878"><ele>603.25</ele></trkpt>
   <trkpt lat="50.733768" lon="13.581132"><ele>603.75</ele></trkpt>
   <trkpt lat="50.73369" lon="13.584487"><ele>609.75</ele></trkpt>
   <trkpt lat="50.733686" lon="13.584775"><ele>610.5</ele></trkpt>
   <trkpt lat="50.733697" lon="13.585642"><ele>612.25</ele></trkpt>
   <trkpt lat="50.73372" lon="13.58621"><ele>613.5</ele></trkpt>
   <trkpt lat="50.733873" lon="13.588582"><ele>616.75</ele></trkpt>
   <trkpt lat="50.733915" lon="13.589302"><ele>618.5</ele></trkpt>
   <trkpt lat="50.73399" lon="13.590365"><ele>620.75</ele></trkpt>
   <trkpt lat="50.734036" lon="13.590848"><ele>621.5</ele></trkpt>
   <trkpt lat="50.734121" lon="13.591641"><ele>622.75</ele></trkpt>
   <trkpt lat="50.734168" lon="13.592056"><ele>626</ele></trkpt>
   <trkpt lat="50.734211" lon="13.592377"><ele>636</ele></trkpt>
  </trkseg>
 </trk>
</gpx>