<?xml version="1.0" encoding="UTF-8"?>
<!-- track-length = 24558 filtered ascend = 231 plain-ascend = 225 cost=24558 energy=0.4kwh time=32m 45s -->
<gpx 
 xmlns="http://www.topografix.com/GPX/1/1" 
 xmlns:xsi="http://www.w3.org/2001/XMLSchema-instance" 
 xsi:schemaLocation="http://www.topografix.com/GPX/1/1 http://www.topografix.com/GPX/1/1/gpx.xsd" 
 version="1.1" 
 creator="BRouter-Web 0.18.1">
 <trk>
  <name>Fulda - Gersfeld</name>
  <trkseg>
   <trkpt lat="50.530153" lon="9.687891"><ele>272.5</ele></trkpt>
   <trkpt lat="50.529752" lon="9.687607"><ele>272.5</ele></trkpt>
   <trkpt lat="50.529423" lon="9.687363"><ele>272</ele></trkpt>
   <trkpt lat="50.528804" lon="9.686894"><ele>272.25</ele></trkpt>
   <trkpt lat="50.52785" lon="9.68619"><ele>271.25</ele></trkpt>
   <trkpt lat="50.527557" lon="9.68597"><ele>270.25</ele></trkpt>
   <trkpt lat="50.527027" lon="9.685585"><ele>270.75</ele></trkpt>
   <trkpt lat="50.526473" lon="9.685164"><ele>270.5</ele></trkpt>
   <trkpt lat="50.526406" lon="9.685118"><ele>270.5</ele></trkpt>
   <trkpt lat="50.525672" lon="9.684567"><ele>270.75</ele></trkpt>
   <trkpt lat="50.524321" lon="9.683552"><ele>270.5</ele></trkpt>
   <trkpt lat="50.523415" lon="9.68299"><ele>268.75</ele></trkpt>
   <trkpt lat="50.522289" lon="9.682164"><ele>271</ele></trkpt>
   <trkpt lat="50.521867" lon="9.681855"><ele>270</ele></trkpt>
   <trkpt lat="50.521012" lon="9.681277"><ele>268</ele></trkpt>
   <trkpt lat="50.520479" lon="9.680893"><ele>266.75</ele></trkpt>
   <trkpt lat="50.520458" lon="9.680875"><ele>266.5</ele></trkpt>
   <trkpt lat="50.519515" lon="9.680177"><ele>265.5</ele></trkpt>
   <trkpt lat="50.51913" lon="9.67989"><ele>266.25</ele></trkpt>
   <trkpt lat="50.518407" lon="9.679343"><ele>265.75</ele></trkpt>
   <trkpt lat="50.517922" lon="9.678973"><ele>264.5</ele></trkpt>
   <trkpt lat="50.517053" lon="9.678336"><ele>262.5</ele></trkpt>
   <trkpt lat="50.516259" lon="9.677743"><ele>262.75</ele></trkpt>
   <trkpt lat="50.516075" lon="9.677614"><ele>262.75</ele></trkpt>
   <trkpt lat="50.515737" lon="9.677379"><ele>263</ele></trkpt>
   <trkpt lat="50.514113" lon="9.67627"><ele>263</ele></trkpt>
   <trkpt lat="50.514038" lon="9.67621"><ele>262.75</ele></trkpt>
   <trkpt lat="50.513918" lon="9.676114"><ele>262.5</ele></trkpt>
   <trkpt lat="50.513859" lon="9.676071"><ele>262.25</ele></trkpt>
   <trkpt lat="50.513482" lon="9.675815"><ele>261.75</ele></trkpt>
   <trkpt lat="50.513199" lon="9.675671"><ele>262.25</ele></trkpt>
   <trkpt lat="50.512834" lon="9.675516"><ele>263.5</ele></trkpt>
   <trkpt lat="50.512748" lon="9.675487"><ele>263.75</ele></trkpt>
   <trkpt lat="50.512527" lon="9.675426"><ele>264.25</ele></trkpt>
   <trkpt lat="50.512182" lon="9.675368"><ele>264.5</ele></trkpt>
   <trkpt lat="50.51185" lon="9.67536"><ele>264.75</ele></trkpt>
   <trkpt lat="50.511644" lon="9.675379"><ele>264.75</ele></trkpt>
   <trkpt lat="50.511444" lon="9.675421"><ele>265</ele></trkpt>
   <trkpt lat="50.511166" lon="9.67552"><ele>265.5</ele></trkpt>
   <trkpt lat="50.511038" lon="9.675584"><ele>265.75</ele></trkpt>
   <trkpt lat="50.510907" lon="9.675662"><ele>266.25</ele></trkpt>
   <trkpt lat="50.510697" lon="9.675805"><ele>266.5</ele></trkpt>
   <trkpt lat="50.5102" lon="9.676205"><ele>267</ele></trkpt>
   <trkpt lat="50.508571" lon="9.677546"><ele>271</ele></trkpt>
   <trkpt lat="50.508421" lon="9.677677"><ele>271.5</ele></trkpt>
   <trkpt lat="50.508247" lon="9.677837"><ele>271.5</ele></trkpt>
   <trkpt lat="50.507744" lon="9.67835"><ele>268.25</ele></trkpt>
   <trkpt lat="50.505982" lon="9.680171"><ele>269</ele></trkpt>
   <trkpt lat="50.505628" lon="9.680562"><ele>269.5</ele></trkpt>
   <trkpt lat="50.505316" lon="9.680942"><ele>270</ele></trkpt>
   <trkpt lat="50.505036" lon="9.681318"><ele>270.25</ele></trkpt>
   <trkpt lat="50.504751" lon="9.681737"><ele>270.5</ele></trkpt>
   <trkpt lat="50.504389" lon="9.682341"><ele>271</ele></trkpt>
   <trkpt lat="50.503821" lon="9.683385"><ele>270.5</ele></trkpt>
   <trkpt lat="50.503654" lon="9.683661"><ele>270</ele></trkpt>
   <trkpt lat="50.503113" lon="9.684436"><ele>270.75</ele></trkpt>
   <trkpt lat="50.502593" lon="9.685164"><ele>271.75</ele></trkpt>
   <trkpt lat="50.502187" lon="9.685751"><ele>273.25</ele></trkpt>
   <trkpt lat="50.502066" lon="9.685958"><ele>273.75</ele></trkpt>
   <trkpt lat="50.501954" lon="9.68617"><ele>274</ele></trkpt>
   <trkpt lat="50.501587" lon="9.686903"><ele>273.75</ele></trkpt>
   <trkpt lat="50.501373" lon="9.687305"><ele>273.5</ele></trkpt>
   <trkpt lat="50.501179" lon="9.687599"><ele>273.5</ele></trkpt>
   <trkpt lat="50.500937" lon="9.687899"><ele>273.5</ele></trkpt>
   <trkpt lat="50.500211" lon="9.688682"><ele>273.25</ele></trkpt>
   <trkpt lat="50.499988" lon="9.688938"><ele>273.75</ele></trkpt>
   <trkpt lat="50.498" lon="9.691413"><ele>277.5</ele></trkpt>
   <trkpt lat="50.496969" lon="9.692612"><ele>280.5</ele></trkpt>
   <trkpt lat="50.496333" lon="9.693185"><ele>281</ele></trkpt>
   <trkpt lat="50.495954" lon="9.693414"><ele>280.75</ele></trkpt>
   <trkpt lat="50.495628" lon="9.693576"><ele>280.5</ele></trkpt>
   <trkpt lat="50.495219" lon="9.693751"><ele>280</ele></trkpt>
   <trkpt lat="50.495026" lon="9.69385"><ele>279.75</ele></trkpt>
   <trkpt lat="50.494462" lon="9.694224"><ele>279</ele></trkpt>
   <trkpt lat="50.493617" lon="9.694783"><ele>277.75</ele></trkpt>
   <trkpt lat="50.493542" lon="9.694838"><ele>277.5</ele></trkpt>
   <trkpt lat="50.493398" lon="9.694929"><ele>277</ele></trkpt>
   <trkpt lat="50.492781" lon="9.69536"><ele>277.25</ele></trkpt>
   <trkpt lat="50.492458" lon="9.695555"><ele>277</ele></trkpt>
   <trkpt lat="50.492182" lon="9.695786"><ele>277</ele></trkpt>
   <trkpt lat="50.491847" lon="9.696098"><ele>277.25</ele></trkpt>
   <trkpt lat="50.491432" lon="9.69669"><ele>278</ele></trkpt>
   <trkpt lat="50.491197" lon="9.697152"><ele>278.5</ele></trkpt>
   <trkpt lat="50.491022" lon="9.697577"><ele>278.5</ele></trkpt>
   <trkpt lat="50.490957" lon="9.697743"><ele>278.5</ele></trkpt>
   <trkpt lat="50.490751" lon="9.698281"><ele>279.5</ele></trkpt>
   <trkpt lat="50.490054" lon="9.700114"><ele>279.5</ele></trkpt>
   <trkpt lat="50.489346" lon="9.701928"><ele>285.5</ele></trkpt>
   <trkpt lat="50.489228" lon="9.702191"><ele>286</ele></trkpt>
   <trkpt lat="50.488995" lon="9.702617"><ele>286.75</ele></trkpt>
   <trkpt lat="50.488513" lon="9.70343"><ele>286.25</ele></trkpt>
   <trkpt lat="50.488357" lon="9.703749"><ele>286.5</ele></trkpt>
   <trkpt lat="50.488117" lon="9.704282"><ele>287.25</ele></trkpt>
   <trkpt lat="50.487601" lon="9.705539"><ele>287.75</ele></trkpt>
   <trkpt lat="50.487013" lon="9.707057"><ele>290.75</ele></trkpt>
   <trkpt lat="50.486218" lon="9.708816"><ele>294.25</ele></trkpt>
   <trkpt lat="50.482777" lon="9.716231"><ele>301</ele></trkpt>
   <trkpt lat="50.48262" lon="9.716632"><ele>302.25</ele></trkpt>
   <trkpt lat="50.482448" lon="9.71714"><ele>302.25</ele></trkpt>
   <trkpt lat="50.48223" lon="9.717958"><ele>302.75</ele></trkpt>
   <trkpt lat="50.481595" lon="9.720464"><ele>304.25</ele></trkpt>
   <trkpt lat="50.481205" lon="9.72183"><ele>305.5</ele></trkpt>
   <trkpt lat="50.481153" lon="9.721987"><ele>305.75</ele></trkpt>
   <trkpt lat="50.481086" lon="9.72221"><ele>306</ele></trkpt>
   <trkpt lat="50.480806" lon="9.723174"><ele>307.5</ele></trkpt>
   <trkpt lat="50.479346" lon="9.728057"><ele>310</ele></trkpt>
   <trkpt lat="50.479213" lon="9.728611"><ele>310</ele></trkpt>
   <trkpt lat="50.47913" lon="9.729183"><ele>309.75</ele></trkpt>
   <trkpt lat="50.479103" lon="9.729646"><ele>310</ele></trkpt>
   <trkpt lat="50.479107" lon="9.730091"><ele>310.5</ele></trkpt>
   <trkpt lat="50.479126" lon="9.730341"><ele>310.5</ele></trkpt>
   <trkpt lat="50.479158" lon="9.730648"><ele>310.75</ele></trkpt>
   <trkpt lat="50.479191" lon="9.730867"><ele>311</ele></trkpt>
   <trkpt lat="50.479244" lon="9.731152"><ele>311.5</ele></trkpt>
   <trkpt lat="50.479295" lon="9.731371"><ele>312</ele></trkpt>
   <trkpt lat="50.47937" lon="9.731651"><ele>312.5</ele></trkpt>
   <trkpt lat="50.4796" lon="9.73243"><ele>314</ele></trkpt>
   <trkpt lat="50.479683" lon="9.732755"><ele>314.5</ele></trkpt>
   <trkpt lat="50.479749" lon="9.733048"><ele>315.25</ele></trkpt>
   <trkpt lat="50.4798" lon="9.733358"><ele>315.75</ele></trkpt>
   <trkpt lat="50.479835" lon="9.733623"><ele>316.25</ele></trkpt>
   <trkpt lat="50.479857" lon="9.733932"><ele>316.75</ele></trkpt>
   <trkpt lat="50.479866" lon="9.734278"><ele>317.25</ele></trkpt>
   <trkpt lat="50.479864" lon="9.734547"><ele>317.5</ele></trkpt>
   <trkpt lat="50.479836" lon="9.734984"><ele>317.75</ele></trkpt>
   <trkpt lat="50.479562" lon="9.738001"><ele>319.75</ele></trkpt>
   <trkpt lat="50.479495" lon="9.738505"><ele>320.25</ele></trkpt>
   <trkpt lat="50.479452" lon="9.738767"><ele>320.5</ele></trkpt>
   <trkpt lat="50.47924" lon="9.739807"><ele>321.75</ele></trkpt>
   <trkpt lat="50.478714" lon="9.742266"><ele>323</ele></trkpt>
   <trkpt lat="50.478492" lon="9.743314"><ele>323.5</ele></trkpt>
   <trkpt lat="50.477913" lon="9.745987"><ele>322.5</ele></trkpt>
   <trkpt lat="50.477538" lon="9.74776"><ele>322.5</ele></trkpt>
   <trkpt lat="50.47739" lon="9.748491"><ele>323.25</ele></trkpt>
   <trkpt lat="50.477357" lon="9.748683"><ele>323.25</ele></trkpt>
   <trkpt lat="50.477334" lon="9.748859"><ele>323.25</ele></trkpt>
   <trkpt lat="50.477311" lon="9.749073"><ele>323.25</ele></trkpt>
   <trkpt lat="50.477298" lon="9.749281"><ele>323.5</ele></trkpt>
   <trkpt lat="50.477289" lon="9.749543"><ele>324</ele></trkpt>
   <trkpt lat="50.477288" lon="9.749779"><ele>324.25</ele></trkpt>
   <trkpt lat="50.477297" lon="9.750016"><ele>325</ele></trkpt>
   <trkpt lat="50.477347" lon="9.750508"><ele>325.5</ele></trkpt>
   <trkpt lat="50.477393" lon="9.750798"><ele>326</ele></trkpt>
   <trkpt lat="50.477442" lon="9.751057"><ele>326.25</ele></trkpt>
   <trkpt lat="50.477574" lon="9.751658"><ele>326.25</ele></trkpt>
   <trkpt lat="50.478378" lon="9.755376"><ele>332.25</ele></trkpt>
   <trkpt lat="50.478428" lon="9.755605"><ele>332.75</ele></trkpt>
   <trkpt lat="50.478652" lon="9.756641"><ele>334.75</ele></trkpt>
   <trkpt lat="50.478773" lon="9.757203"><ele>334.75</ele></trkpt>
   <trkpt lat="50.478821" lon="9.757413"><ele>335</ele></trkpt>
   <trkpt lat="50.478894" lon="9.757687"><ele>335.25</ele></trkpt>
   <trkpt lat="50.478962" lon="9.757934"><ele>335.25</ele></trkpt>
   <trkpt lat="50.479033" lon="9.758161"><ele>335.75</ele></trkpt>
   <trkpt lat="50.479111" lon="9.758387"><ele>336</ele></trkpt>
   <trkpt lat="50.47981" lon="9.760297"><ele>339</ele></trkpt>
   <trkpt lat="50.479901" lon="9.760555"><ele>339.5</ele></trkpt>
   <trkpt lat="50.479975" lon="9.760787"><ele>339.75</ele></trkpt>
   <trkpt lat="50.480082" lon="9.761185"><ele>339.5</ele></trkpt>
   <trkpt lat="50.480125" lon="9.761386"><ele>339.25</ele></trkpt>
   <trkpt lat="50.480293" lon="9.762278"><ele>338.5</ele></trkpt>
   <trkpt lat="50.480384" lon="9.762794"><ele>338</ele></trkpt>
   <trkpt lat="50.480481" lon="9.763338"><ele>337.25</ele></trkpt>
   <trkpt lat="50.480729" lon="9.764714"><ele>338</ele></trkpt>
   <trkpt lat="50.480876" lon="9.765599"><ele>338.75</ele></trkpt>
   <trkpt lat="50.480881" lon="9.765631"><ele>338.75</ele></trkpt>
   <trkpt lat="50.480899" lon="9.76574"><ele>338.75</ele></trkpt>
   <trkpt lat="50.480912" lon="9.765821"><ele>339</ele></trkpt>
   <trkpt lat="50.481193" lon="9.7676"><ele>338.25</ele></trkpt>
   <trkpt lat="50.481223" lon="9.767785"><ele>337.75</ele></trkpt>
   <trkpt lat="50.481256" lon="9.767996"><ele>337.5</ele></trkpt>
   <trkpt lat="50.481479" lon="9.769417"><ele>337.25</ele></trkpt>
   <trkpt lat="50.481549" lon="9.769926"><ele>337.5</ele></trkpt>
   <trkpt lat="50.481563" lon="9.770166"><ele>338</ele></trkpt>
   <trkpt lat="50.481565" lon="9.770445"><ele>338.75</ele></trkpt>
   <trkpt lat="50.481558" lon="9.770621"><ele>339</ele></trkpt>
   <trkpt lat="50.48153" lon="9.770916"><ele>339.75</ele></trkpt>
   <trkpt lat="50.481477" lon="9.771229"><ele>340.75</ele></trkpt>
   <trkpt lat="50.481429" lon="9.771423"><ele>341.25</ele></trkpt>
   <trkpt lat="50.481357" lon="9.771674"><ele>341.75</ele></trkpt>
   <trkpt lat="50.481315" lon="9.771786"><ele>341.5</ele></trkpt>
   <trkpt lat="50.481212" lon="9.772029"><ele>341</ele></trkpt>
   <trkpt lat="50.4811" lon="9.772244"><ele>340.25</ele></trkpt>
   <trkpt lat="50.480906" lon="9.772532"><ele>339.25</ele></trkpt>
   <trkpt lat="50.480701" lon="9.772759"><ele>337.5</ele></trkpt>
   <trkpt lat="50.480606" lon="9.772838"><ele>336.75</ele></trkpt>
   <trkpt lat="50.480571" lon="9.772871"><ele>336.5</ele></trkpt>
   <trkpt lat="50.480469" lon="9.772942"><ele>335.75</ele></trkpt>
   <trkpt lat="50.48031" lon="9.773032"><ele>334.5</ele></trkpt>
   <trkpt lat="50.48015" lon="9.773097"><ele>333.25</ele></trkpt>
   <trkpt lat="50.479997" lon="9.773137"><ele>332</ele></trkpt>
   <trkpt lat="50.479823" lon="9.773158"><ele>332.25</ele></trkpt>
   <trkpt lat="50.479677" lon="9.773155"><ele>332.25</ele></trkpt>
   <trkpt lat="50.479521" lon="9.773132"><ele>332.5</ele></trkpt>
   <trkpt lat="50.479337" lon="9.773074"><ele>332.5</ele></trkpt>
   <trkpt lat="50.479207" lon="9.773012"><ele>333.25</ele></trkpt>
   <trkpt lat="50.479088" lon="9.772942"><ele>333.75</ele></trkpt>
   <trkpt lat="50.478968" lon="9.772859"><ele>334.5</ele></trkpt>
   <trkpt lat="50.478235" lon="9.77229"><ele>334.75</ele></trkpt>
   <trkpt lat="50.477415" lon="9.771644"><ele>338.5</ele></trkpt>
   <trkpt lat="50.47702" lon="9.771344"><ele>340.5</ele></trkpt>
   <trkpt lat="50.476846" lon="9.771233"><ele>341.5</ele></trkpt>
   <trkpt lat="50.476707" lon="9.771159"><ele>342.25</ele></trkpt>
   <trkpt lat="50.476545" lon="9.771088"><ele>342.75</ele></trkpt>
   <trkpt lat="50.476324" lon="9.771019"><ele>343.25</ele></trkpt>
   <trkpt lat="50.47608" lon="9.770976"><ele>343.75</ele></trkpt>
   <trkpt lat="50.475757" lon="9.770962"><ele>344.25</ele></trkpt>
   <trkpt lat="50.473171" lon="9.770984"><ele>340.75</ele></trkpt>
   <trkpt lat="50.471786" lon="9.770996"><ele>340.75</ele></trkpt>
   <trkpt lat="50.471298" lon="9.770972"><ele>341.75</ele></trkpt>
   <trkpt lat="50.468152" lon="9.770431"><ele>345</ele></trkpt>
   <trkpt lat="50.463429" lon="9.769608"><ele>347</ele></trkpt>
   <trkpt lat="50.461666" lon="9.769278"><ele>348.25</ele></trkpt>
   <trkpt lat="50.461326" lon="9.769251"><ele>348.75</ele></trkpt>
   <trkpt lat="50.461024" lon="9.769269"><ele>349</ele></trkpt>
   <trkpt lat="50.460689" lon="9.769354"><ele>349.5</ele></trkpt>
   <trkpt lat="50.459539" lon="9.769695"><ele>350.5</ele></trkpt>
   <trkpt lat="50.459235" lon="9.769791"><ele>350.75</ele></trkpt>
   <trkpt lat="50.457881" lon="9.770176"><ele>349.5</ele></trkpt>
   <trkpt lat="50.457743" lon="9.770226"><ele>349.5</ele></trkpt>
   <trkpt lat="50.457578" lon="9.770294"><ele>349.5</ele></trkpt>
   <trkpt lat="50.457444" lon="9.770368"><ele>349.25</ele></trkpt>
   <trkpt lat="50.457315" lon="9.770451"><ele>349</ele></trkpt>
   <trkpt lat="50.457177" lon="9.770558"><ele>348.5</ele></trkpt>
   <trkpt lat="50.457012" lon="9.77071"><ele>348.25</ele></trkpt>
   <trkpt lat="50.456917" lon="9.770811"><ele>348.25</ele></trkpt>
   <trkpt lat="50.456745" lon="9.771024"><ele>348.5</ele></trkpt>
   <trkpt lat="50.456328" lon="9.771599"><ele>348.5</ele></trkpt>
   <trkpt lat="50.456127" lon="9.771894"><ele>348</ele></trkpt>
   <trkpt lat="50.455967" lon="9.772161"><ele>347.75</ele></trkpt>
   <trkpt lat="50.455847" lon="9.772391"><ele>347.5</ele></trkpt>
   <trkpt lat="50.455722" lon="9.77267"><ele>347.25</ele></trkpt>
   <trkpt lat="50.455667" lon="9.772808"><ele>347</ele></trkpt>
   <trkpt lat="50.455604" lon="9.772991"><ele>347</ele></trkpt>
   <trkpt lat="50.455514" lon="9.773288"><ele>347</ele></trkpt>
   <trkpt lat="50.455473" lon="9.773446"><ele>347</ele></trkpt>
   <trkpt lat="50.455399" lon="9.773794"><ele>346.5</ele></trkpt>
   <trkpt lat="50.455357" lon="9.774043"><ele>346.25</ele></trkpt>
   <trkpt lat="50.455311" lon="9.774478"><ele>346.5</ele></trkpt>
   <trkpt lat="50.455279" lon="9.774951"><ele>347</ele></trkpt>
   <trkpt lat="50.455266" lon="9.775364"><ele>347</ele></trkpt>
   <trkpt lat="50.455272" lon="9.775662"><ele>347</ele></trkpt>
   <trkpt lat="50.455307" lon="9.776068"><ele>347.75</ele></trkpt>
   <trkpt lat="50.455379" lon="9.77651"><ele>349.25</ele></trkpt>
   <trkpt lat="50.455563" lon="9.777331"><ele>350.75</ele></trkpt>
   <trkpt lat="50.455634" lon="9.777688"><ele>350.75</ele></trkpt>
   <trkpt lat="50.455657" lon="9.777827"><ele>350.75</ele></trkpt>
   <trkpt lat="50.455687" lon="9.778071"><ele>350.5</ele></trkpt>
   <trkpt lat="50.455705" lon="9.778292"><ele>350.25</ele></trkpt>
   <trkpt lat="50.455714" lon="9.778517"><ele>350.25</ele></trkpt>
   <trkpt lat="50.455713" lon="9.77877"><ele>350.25</ele></trkpt>
   <trkpt lat="50.4557" lon="9.779063"><ele>350</ele></trkpt>
   <trkpt lat="50.455607" lon="9.780232"><ele>349.25</ele></trkpt>
   <trkpt lat="50.455588" lon="9.780595"><ele>349.25</ele></trkpt>
   <trkpt lat="50.455586" lon="9.780923"><ele>349.25</ele></trkpt>
   <trkpt lat="50.4556" lon="9.781269"><ele>349.75</ele></trkpt>
   <trkpt lat="50.455623" lon="9.781531"><ele>350.5</ele></trkpt>
   <trkpt lat="50.455648" lon="9.78174"><ele>350.75</ele></trkpt>
   <trkpt lat="50.45598" lon="9.784019"><ele>354.25</ele></trkpt>
   <trkpt lat="50.456023" lon="9.784457"><ele>354.5</ele></trkpt>
   <trkpt lat="50.456034" lon="9.78477"><ele>354.25</ele></trkpt>
   <trkpt lat="50.456032" lon="9.785063"><ele>353.75</ele></trkpt>
   <trkpt lat="50.455983" lon="9.78849"><ele>351.25</ele></trkpt>
   <trkpt lat="50.455976" lon="9.788876"><ele>351.25</ele></trkpt>
   <trkpt lat="50.455976" lon="9.788944"><ele>351</ele></trkpt>
   <trkpt lat="50.455962" lon="9.78952"><ele>351.25</ele></trkpt>
   <trkpt lat="50.455939" lon="9.789938"><ele>351.5</ele></trkpt>
   <trkpt lat="50.455919" lon="9.790177"><ele>351.5</ele></trkpt>
   <trkpt lat="50.455891" lon="9.790422"><ele>351.25</ele></trkpt>
   <trkpt lat="50.45584" lon="9.790754"><ele>351</ele></trkpt>
   <trkpt lat="50.455738" lon="9.791274"><ele>351.25</ele></trkpt>
   <trkpt lat="50.455617" lon="9.791712"><ele>351.75</ele></trkpt>
   <trkpt lat="50.455457" lon="9.792182"><ele>353.75</ele></trkpt>
   <trkpt lat="50.455339" lon="9.792472"><ele>354.5</ele></trkpt>
   <trkpt lat="50.455271" lon="9.792621"><ele>354.75</ele></trkpt>
   <trkpt lat="50.455084" lon="9.79299"><ele>355.25</ele></trkpt>
   <trkpt lat="50.45496" lon="9.7932"><ele>355.25</ele></trkpt>
   <trkpt lat="50.454806" lon="9.793431"><ele>356</ele></trkpt>
   <trkpt lat="50.454583" lon="9.793734"><ele>357</ele></trkpt>
   <trkpt lat="50.453857" lon="9.794666"><ele>355</ele></trkpt>
   <trkpt lat="50.453542" lon="9.795081"><ele>353.75</ele></trkpt>
   <trkpt lat="50.453424" lon="9.795224"><ele>353.25</ele></trkpt>
   <trkpt lat="50.453293" lon="9.795391"><ele>352.75</ele></trkpt>
   <trkpt lat="50.453185" lon="9.795526"><ele>353.25</ele></trkpt>
   <trkpt lat="50.452711" lon="9.796137"><ele>353.25</ele></trkpt>
   <trkpt lat="50.45236" lon="9.796592"><ele>353</ele></trkpt>
   <trkpt lat="50.452088" lon="9.796993"><ele>354.75</ele></trkpt>
   <trkpt lat="50.451898" lon="9.797328"><ele>355.75</ele></trkpt>
   <trkpt lat="50.451819" lon="9.797488"><ele>356</ele></trkpt>
   <trkpt lat="50.45166" lon="9.797839"><ele>356.25</ele></trkpt>
   <trkpt lat="50.451512" lon="9.798236"><ele>357.25</ele></trkpt>
   <trkpt lat="50.451468" lon="9.798378"><ele>357.5</ele></trkpt>
   <trkpt lat="50.451375" lon="9.798702"><ele>358.5</ele></trkpt>
   <trkpt lat="50.451297" lon="9.799014"><ele>359</ele></trkpt>
   <trkpt lat="50.451222" lon="9.799406"><ele>359.5</ele></trkpt>
   <trkpt lat="50.451066" lon="9.800474"><ele>360.25</ele></trkpt>
   <trkpt lat="50.451023" lon="9.800714"><ele>360.5</ele></trkpt>
   <trkpt lat="50.450957" lon="9.801018"><ele>360.75</ele></trkpt>
   <trkpt lat="50.450857" lon="9.80138"><ele>361</ele></trkpt>
   <trkpt lat="50.450775" lon="9.80162"><ele>361.5</ele></trkpt>
   <trkpt lat="50.450067" lon="9.80342"><ele>363.5</ele></trkpt>
   <trkpt lat="50.449947" lon="9.803743"><ele>364.25</ele></trkpt>
   <trkpt lat="50.449852" lon="9.804029"><ele>365.5</ele></trkpt>
   <trkpt lat="50.449752" lon="9.804381"><ele>366.75</ele></trkpt>
   <trkpt lat="50.449669" lon="9.804729"><ele>367.25</ele></trkpt>
   <trkpt lat="50.449627" lon="9.804931"><ele>367.5</ele></trkpt>
   <trkpt lat="50.449568" lon="9.805265"><ele>368</ele></trkpt>
   <trkpt lat="50.449335" lon="9.806722"><ele>371.25</ele></trkpt>
   <trkpt lat="50.449249" lon="9.807165"><ele>371.25</ele></trkpt>
   <trkpt lat="50.449074" lon="9.807999"><ele>370.75</ele></trkpt>
   <trkpt lat="50.448914" lon="9.808782"><ele>372.25</ele></trkpt>
   <trkpt lat="50.448792" lon="9.809339"><ele>374.25</ele></trkpt>
   <trkpt lat="50.448713" lon="9.809641"><ele>375.5</ele></trkpt>
   <trkpt lat="50.448654" lon="9.809843"><ele>376.25</ele></trkpt>
   <trkpt lat="50.448538" lon="9.810189"><ele>377.5</ele></trkpt>
   <trkpt lat="50.448443" lon="9.810446"><ele>378</ele></trkpt>
   <trkpt lat="50.448329" lon="9.810798"><ele>378</ele></trkpt>
   <trkpt lat="50.448285" lon="9.810951"><ele>378.5</ele></trkpt>
   <trkpt lat="50.448208" lon="9.811275"><ele>378.75</ele></trkpt>
   <trkpt lat="50.448182" lon="9.811408"><ele>378.75</ele></trkpt>
   <trkpt lat="50.448152" lon="9.81161"><ele>378.75</ele></trkpt>
   <trkpt lat="50.448127" lon="9.811958"><ele>379.75</ele></trkpt>
   <trkpt lat="50.448125" lon="9.812264"><ele>380.5</ele></trkpt>
   <trkpt lat="50.448131" lon="9.812404"><ele>380.75</ele></trkpt>
   <trkpt lat="50.448149" lon="9.812587"><ele>380.75</ele></trkpt>
   <trkpt lat="50.448322" lon="9.814016"><ele>381.5</ele></trkpt>
   <trkpt lat="50.448364" lon="9.814342"><ele>382.25</ele></trkpt>
   <trkpt lat="50.448395" lon="9.81459"><ele>383</ele></trkpt>
   <trkpt lat="50.448442" lon="9.814977"><ele>384</ele></trkpt>
   <trkpt lat="50.448528" lon="9.815649"><ele>382.75</ele></trkpt>
   <trkpt lat="50.448853" lon="9.818199"><ele>380.5</ele></trkpt>
   <trkpt lat="50.449018" lon="9.819556"><ele>381</ele></trkpt>
   <trkpt lat="50.449046" lon="9.8198"><ele>381</ele></trkpt>
   <trkpt lat="50.449083" lon="9.820086"><ele>380.75</ele></trkpt>
   <trkpt lat="50.449129" lon="9.820395"><ele>380.25</ele></trkpt>
   <trkpt lat="50.449238" lon="9.821264"><ele>379.75</ele></trkpt>
   <trkpt lat="50.449266" lon="9.821488"><ele>379.75</ele></trkpt>
   <trkpt lat="50.44928" lon="9.821595"><ele>379.75</ele></trkpt>
   <trkpt lat="50.449537" lon="9.823637"><ele>387</ele></trkpt>
   <trkpt lat="50.449572" lon="9.823941"><ele>387.25</ele></trkpt>
   <trkpt lat="50.449598" lon="9.824249"><ele>388</ele></trkpt>
   <trkpt lat="50.449616" lon="9.824426"><ele>388.5</ele></trkpt>
   <trkpt lat="50.449686" lon="9.825114"><ele>390</ele></trkpt>
   <trkpt lat="50.449991" lon="9.828206"><ele>390.75</ele></trkpt>
   <trkpt lat="50.450205" lon="9.830529"><ele>402.25</ele></trkpt>
   <trkpt lat="50.450326" lon="9.832188"><ele>410.25</ele></trkpt>
   <trkpt lat="50.450366" lon="9.832502"><ele>410.5</ele></trkpt>
   <trkpt lat="50.450421" lon="9.832826"><ele>410.5</ele></trkpt>
   <trkpt lat="50.450522" lon="9.833233"><ele>409</ele></trkpt>
   <trkpt lat="50.451082" lon="9.835194"><ele>400.75</ele></trkpt>
   <trkpt lat="50.451131" lon="9.835396"><ele>400.25</ele></trkpt>
   <trkpt lat="50.451173" lon="9.83558"><ele>400</ele></trkpt>
   <trkpt lat="50.451236" lon="9.83594"><ele>399.5</ele></trkpt>
   <trkpt lat="50.451258" lon="9.836087"><ele>399.5</ele></trkpt>
   <trkpt lat="50.451293" lon="9.83644"><ele>400</ele></trkpt>
   <trkpt lat="50.451316" lon="9.836906"><ele>400.75</ele></trkpt>
   <trkpt lat="50.451314" lon="9.837335"><ele>401.5</ele></trkpt>
   <trkpt lat="50.451197" lon="9.84096"><ele>410</ele></trkpt>
   <trkpt lat="50.451166" lon="9.841651"><ele>411</ele></trkpt>
   <trkpt lat="50.45113" lon="9.842051"><ele>411.75</ele></trkpt>
   <trkpt lat="50.45108" lon="9.842404"><ele>413</ele></trkpt>
   <trkpt lat="50.451043" lon="9.84261"><ele>414</ele></trkpt>
   <trkpt lat="50.450966" lon="9.84298"><ele>416</ele></trkpt>
   <trkpt lat="50.450786" lon="9.843786"><ele>419.75</ele></trkpt>
   <trkpt lat="50.45061" lon="9.844598"><ele>424</ele></trkpt>
   <trkpt lat="50.45052" lon="9.845139"><ele>426.75</ele></trkpt>
   <trkpt lat="50.450481" lon="9.845498"><ele>428.5</ele></trkpt>
   <trkpt lat="50.450459" lon="9.845837"><ele>429.25</ele></trkpt>
   <trkpt lat="50.450452" lon="9.846036"><ele>429.25</ele></trkpt>
   <trkpt lat="50.450452" lon="9.846467"><ele>428.5</ele></trkpt>
   <trkpt lat="50.450472" lon="9.847006"><ele>427.75</ele></trkpt>
   <trkpt lat="50.450507" lon="9.847672"><ele>427.25</ele></trkpt>
   <trkpt lat="50.45053" lon="9.847911"><ele>426.75</ele></trkpt>
   <trkpt lat="50.450573" lon="9.848247"><ele>425.5</ele></trkpt>
   <trkpt lat="50.450626" lon="9.848543"><ele>423.75</ele></trkpt>
   <trkpt lat="50.450708" lon="9.848924"><ele>420.5</ele></trkpt>
   <trkpt lat="50.450876" lon="9.849673"><ele>415.5</ele></trkpt>
   <trkpt lat="50.450934" lon="9.849933"><ele>415.25</ele></trkpt>
   <trkpt lat="50.451058" lon="9.850487"><ele>415.5</ele></trkpt>
   <trkpt lat="50.451204" lon="9.851069"><ele>415.75</ele></trkpt>
   <trkpt lat="50.451793" lon="9.853188"><ele>416.75</ele></trkpt>
   <trkpt lat="50.452152" lon="9.854485"><ele>419</ele></trkpt>
   <trkpt lat="50.452256" lon="9.854899"><ele>419</ele></trkpt>
   <trkpt lat="50.452293" lon="9.855084"><ele>419</ele></trkpt>
   <trkpt lat="50.452329" lon="9.855295"><ele>419.25</ele></trkpt>
   <trkpt lat="50.452424" lon="9.85595"><ele>420.25</ele></trkpt>
   <trkpt lat="50.452578" lon="9.857066"><ele>421.75</ele></trkpt>
   <trkpt lat="50.452632" lon="9.857521"><ele>422</ele></trkpt>
   <trkpt lat="50.452645" lon="9.857674"><ele>422.25</ele></trkpt>
   <trkpt lat="50.452656" lon="9.857933"><ele>422.75</ele></trkpt>
   <trkpt lat="50.452658" lon="9.85809"><ele>423.25</ele></trkpt>
   <trkpt lat="50.452651" lon="9.858285"><ele>423.75</ele></trkpt>
   <trkpt lat="50.452638" lon="9.858523"><ele>424.75</ele></trkpt>
   <trkpt lat="50.452554" lon="9.859501"><ele>429.25</ele></trkpt>
   <trkpt lat="50.452542" lon="9.859852"><ele>430.75</ele></trkpt>
   <trkpt lat="50.452543" lon="9.859988"><ele>431.25</ele></trkpt>
   <trkpt lat="50.452561" lon="9.860373"><ele>434.25</ele></trkpt>
   <trkpt lat="50.452654" lon="9.86158"><ele>442.5</ele></trkpt>
   <trkpt lat="50.452715" lon="9.862134"><ele>445</ele></trkpt>
   <trkpt lat="50.452815" lon="9.862805"><ele>446.5</ele></trkpt>
   <trkpt lat="50.452903" lon="9.863213"><ele>446</ele></trkpt>
   <trkpt lat="50.453029" lon="9.86368"><ele>445.5</ele></trkpt>
   <trkpt lat="50.453417" lon="9.865045"><ele>447</ele></trkpt>
   <trkpt lat="50.453505" lon="9.865376"><ele>447.75</ele></trkpt>
   <trkpt lat="50.453591" lon="9.865763"><ele>448.5</ele></trkpt>
   <trkpt lat="50.453648" lon="9.866085"><ele>449.5</ele></trkpt>
   <trkpt lat="50.453694" lon="9.866453"><ele>450.75</ele></trkpt>
   <trkpt lat="50.453722" lon="9.866788"><ele>452</ele></trkpt>
   <trkpt lat="50.453735" lon="9.867007"><ele>452</ele></trkpt>
   <trkpt lat="50.453768" lon="9.868253"><ele>454.25</ele></trkpt>
   <trkpt lat="50.453785" lon="9.86851"><ele>454.75</ele></trkpt>
   <trkpt lat="50.453829" lon="9.868908"><ele>455.25</ele></trkpt>
   <trkpt lat="50.454219" lon="9.871579"><ele>461.25</ele></trkpt>
   <trkpt lat="50.454295" lon="9.872066"><ele>462</ele></trkpt>
   <trkpt lat="50.454373" lon="9.87248"><ele>462</ele></trkpt>
   <trkpt lat="50.454666" lon="9.873843"><ele>461.75</ele></trkpt>
   <trkpt lat="50.454743" lon="9.874232"><ele>460.75</ele></trkpt>
   <trkpt lat="50.454824" lon="9.874708"><ele>460.5</ele></trkpt>
   <trkpt lat="50.454875" lon="9.875091"><ele>460.5</ele></trkpt>
   <trkpt lat="50.454909" lon="9.875413"><ele>460</ele></trkpt>
   <trkpt lat="50.454926" lon="9.875651"><ele>460</ele></trkpt>
   <trkpt lat="50.454957" lon="9.876307"><ele>460.5</ele></trkpt>
   <trkpt lat="50.454953" lon="9.876856"><ele>461.25</ele></trkpt>
   <trkpt lat="50.454944" lon="9.877142"><ele>461.25</ele></trkpt>
   <trkpt lat="50.454925" lon="9.877535"><ele>461.5</ele></trkpt>
   <trkpt lat="50.454866" lon="9.87845"><ele>464</ele></trkpt>
   <trkpt lat="50.45485" lon="9.878816"><ele>465.75</ele></trkpt>
   <trkpt lat="50.454861" lon="9.879305"><ele>467</ele></trkpt>
   <trkpt lat="50.454895" lon="9.879793"><ele>467.25</ele></trkpt>
   <trkpt lat="50.454997" lon="9.881036"><ele>470.5</ele></trkpt>
   <trkpt lat="50.455043" lon="9.881689"><ele>473.25</ele></trkpt>
   <trkpt lat="50.45509" lon="9.882063"><ele>472.5</ele></trkpt>
   <trkpt lat="50.455277" lon="9.883162"><ele>468.5</ele></trkpt>
   <trkpt lat="50.455326" lon="9.883482"><ele>467.25</ele></trkpt>
   <trkpt lat="50.45534" lon="9.883619"><ele>466.75</ele></trkpt>
   <trkpt lat="50.455351" lon="9.883772"><ele>466.5</ele></trkpt>
   <trkpt lat="50.455355" lon="9.884045"><ele>466.5</ele></trkpt>
   <trkpt lat="50.45534" lon="9.884381"><ele>467</ele></trkpt>
   <trkpt lat="50.455324" lon="9.884534"><ele>467.5</ele></trkpt>
   <trkpt lat="50.455274" lon="9.88484"><ele>469</ele></trkpt>
   <trkpt lat="50.455216" lon="9.885089"><ele>470.25</ele></trkpt>
   <trkpt lat="50.455182" lon="9.885206"><ele>470.5</ele></trkpt>
   <trkpt lat="50.45463" lon="9.886751"><ele>470</ele></trkpt>
   <trkpt lat="50.453888" lon="9.888598"><ele>471</ele></trkpt>
   <trkpt lat="50.453191" lon="9.890201"><ele>472.75</ele></trkpt>
   <trkpt lat="50.452956" lon="9.890759"><ele>472.75</ele></trkpt>
   <trkpt lat="50.452849" lon="9.891071"><ele>472</ele></trkpt>
   <trkpt lat="50.452744" lon="9.891459"><ele>470.5</ele></trkpt>
   <trkpt lat="50.452644" lon="9.891922"><ele>469.25</ele></trkpt>
   <trkpt lat="50.452399" lon="9.893156"><ele>468.5</ele></trkpt>
   <trkpt lat="50.452367" lon="9.893349"><ele>468.5</ele></trkpt>
   <trkpt lat="50.452327" lon="9.893677"><ele>469.25</ele></trkpt>
   <trkpt lat="50.452305" lon="9.893971"><ele>469.5</ele></trkpt>
   <trkpt lat="50.452297" lon="9.894133"><ele>469.5</ele></trkpt>
   <trkpt lat="50.452296" lon="9.894307"><ele>469.25</ele></trkpt>
   <trkpt lat="50.452304" lon="9.89464"><ele>468.75</ele></trkpt>
   <trkpt lat="50.452339" lon="9.895102"><ele>468</ele></trkpt>
   <trkpt lat="50.452424" lon="9.896053"><ele>468.75</ele></trkpt>
   <trkpt lat="50.452455" lon="9.896535"><ele>469.25</ele></trkpt>
   <trkpt lat="50.452458" lon="9.896861"><ele>469.5</ele></trkpt>
   <trkpt lat="50.452452" lon="9.897147"><ele>469.5</ele></trkpt>
   <trkpt lat="50.45244" lon="9.897363"><ele>469.75</ele></trkpt>
   <trkpt lat="50.452409" lon="9.897695"><ele>470.25</ele></trkpt>
   <trkpt lat="50.45237" lon="9.898041"><ele>470.75</ele></trkpt>
   <trkpt lat="50.452136" lon="9.899743"><ele>473.75</ele></trkpt>
   <trkpt lat="50.452119" lon="9.899867"><ele>474</ele></trkpt>
   <trkpt lat="50.451821" lon="9.901972"><ele>482.75</ele></trkpt>
   <trkpt lat="50.451698" lon="9.902907"><ele>481.5</ele></trkpt>
   <trkpt lat="50.451376" lon="9.905221"><ele>485.5</ele></trkpt>
   <trkpt lat="50.451316" lon="9.905625"><ele>486.75</ele></trkpt>
   <trkpt lat="50.451252" lon="9.906"><ele>488</ele></trkpt>
   <trkpt lat="50.451173" lon="9.90639"><ele>489.5</ele></trkpt>
   <trkpt lat="50.451019" lon="9.907052"><ele>491.75</ele></trkpt>
   <trkpt lat="50.450935" lon="9.907378"><ele>492.5</ele></trkpt>
   <trkpt lat="50.450771" lon="9.907945"><ele>493.75</ele></trkpt>
   <trkpt lat="50.450534" lon="9.908669"><ele>494.25</ele></trkpt>
   <trkpt lat="50.450195" lon="9.909603"><ele>495.25</ele></trkpt>
   <trkpt lat="50.450128" lon="9.909795"><ele>495.5</ele></trkpt>
   <trkpt lat="50.450036" lon="9.910093"><ele>495.75</ele></trkpt>
   <trkpt lat="50.449939" lon="9.910461"><ele>495.75</ele></trkpt>
   <trkpt lat="50.449522" lon="9.912474"><ele>495.75</ele></trkpt>
   <trkpt lat="50.449473" lon="9.91276"><ele>496</ele></trkpt>
   <trkpt lat="50.449436" lon="9.913049"><ele>495.5</ele></trkpt>
   <trkpt lat="50.449404" lon="9.91345"><ele>495</ele></trkpt>
   <trkpt lat="50.449395" lon="9.913713"><ele>495.25</ele></trkpt>
   <trkpt lat="50.449393" lon="9.914568"><ele>495.75</ele></trkpt>
   <trkpt lat="50.449392" lon="9.914999"><ele>496.25</ele></trkpt>
  </trkseg>
 </trk>
</gpx>