<?xml version="1.0" encoding="UTF-8"?>
<!-- track-length = 75949 filtered ascend = 95 plain-ascend = -2 cost=75949 energy=0.9kwh time=1h 41m 15s -->
<gpx 
 xmlns="http://www.topografix.com/GPX/1/1" 
 xmlns:xsi="http://www.w3.org/2001/XMLSchema-instance" 
 xsi:schemaLocation="http://www.topografix.com/GPX/1/1 http://www.topografix.com/GPX/1/1/gpx.xsd" 
 version="1.1" 
 creator="BRouter-Web 0.18.1">
 <trk>
  <name>Gdynia - Hel</name>
  <trkseg>
   <trkpt lat="54.522669" lon="18.524751"><ele>11.5</ele></trkpt>
   <trkpt lat="54.522682" lon="18.524722"><ele>11.5</ele></trkpt>
   <trkpt lat="54.522992" lon="18.523971"><ele>11</ele></trkpt>
   <trkpt lat="54.52356" lon="18.522624"><ele>10</ele></trkpt>
   <trkpt lat="54.523603" lon="18.522518"><ele>10.25</ele></trkpt>
   <trkpt lat="54.523738" lon="18.522169"><ele>10.25</ele></trkpt>
   <trkpt lat="54.523834" lon="18.521889"><ele>10.5</ele></trkpt>
   <trkpt lat="54.523973" lon="18.521475"><ele>11</ele></trkpt>
   <trkpt lat="54.524047" lon="18.521278"><ele>11.25</ele></trkpt>
   <trkpt lat="54.524074" lon="18.521208"><ele>11.5</ele></trkpt>
   <trkpt lat="54.524182" lon="18.520931"><ele>11.5</ele></trkpt>
   <trkpt lat="54.524496" lon="18.520122"><ele>11.75</ele></trkpt>
   <trkpt lat="54.524618" lon="18.519807"><ele>11.75</ele></trkpt>
   <trkpt lat="54.524659" lon="18.519701"><ele>11.75</ele></trkpt>
   <trkpt lat="54.524784" lon="18.519359"><ele>12</ele></trkpt>
   <trkpt lat="54.525032" lon="18.518608"><ele>11.5</ele></trkpt>
   <trkpt lat="54.525916" lon="18.516244"><ele>11.5</ele></trkpt>
   <trkpt lat="54.526109" lon="18.515755"><ele>11.75</ele></trkpt>
   <trkpt lat="54.526373" lon="18.515132"><ele>11.25</ele></trkpt>
   <trkpt lat="54.526588" lon="18.514662"><ele>11</ele></trkpt>
   <trkpt lat="54.527189" lon="18.513391"><ele>12</ele></trkpt>
   <trkpt lat="54.527229" lon="18.5133"><ele>12</ele></trkpt>
   <trkpt lat="54.527368" lon="18.512975"><ele>11.75</ele></trkpt>
   <trkpt lat="54.527529" lon="18.512566"><ele>11.75</ele></trkpt>
   <trkpt lat="54.527823" lon="18.51171"><ele>10.75</ele></trkpt>
   <trkpt lat="54.528107" lon="18.510852"><ele>11.75</ele></trkpt>
   <trkpt lat="54.528401" lon="18.51001"><ele>12.75</ele></trkpt>
   <trkpt lat="54.528518" lon="18.50969"><ele>13</ele></trkpt>
   <trkpt lat="54.528652" lon="18.509328"><ele>13.5</ele></trkpt>
   <trkpt lat="54.528986" lon="18.508461"><ele>13</ele></trkpt>
   <trkpt lat="54.529107" lon="18.508164"><ele>12.5</ele></trkpt>
   <trkpt lat="54.529116" lon="18.508143"><ele>12.5</ele></trkpt>
   <trkpt lat="54.529408" lon="18.507466"><ele>13</ele></trkpt>
   <trkpt lat="54.529467" lon="18.507334"><ele>13</ele></trkpt>
   <trkpt lat="54.529771" lon="18.506647"><ele>12.75</ele></trkpt>
   <trkpt lat="54.529913" lon="18.506325"><ele>12.75</ele></trkpt>
   <trkpt lat="54.529974" lon="18.506187"><ele>12.5</ele></trkpt>
   <trkpt lat="54.530085" lon="18.505935"><ele>12.5</ele></trkpt>
   <trkpt lat="54.530302" lon="18.505484"><ele>12</ele></trkpt>
   <trkpt lat="54.53045" lon="18.505201"><ele>11.5</ele></trkpt>
   <trkpt lat="54.530586" lon="18.504907"><ele>11.25</ele></trkpt>
   <trkpt lat="54.531218" lon="18.503476"><ele>11.75</ele></trkpt>
   <trkpt lat="54.532192" lon="18.501276"><ele>10.75</ele></trkpt>
   <trkpt lat="54.532762" lon="18.499949"><ele>9</ele></trkpt>
   <trkpt lat="54.53335" lon="18.49852"><ele>8.5</ele></trkpt>
   <trkpt lat="54.533528" lon="18.498087"><ele>8.75</ele></trkpt>
   <trkpt lat="54.533681" lon="18.497715"><ele>8.75</ele></trkpt>
   <trkpt lat="54.534408" lon="18.495944"><ele>10</ele></trkpt>
   <trkpt lat="54.534459" lon="18.495819"><ele>10.25</ele></trkpt>
   <trkpt lat="54.534612" lon="18.495447"><ele>10.75</ele></trkpt>
   <trkpt lat="54.535291" lon="18.493786"><ele>10</ele></trkpt>
   <trkpt lat="54.535891" lon="18.492237"><ele>12.25</ele></trkpt>
   <trkpt lat="54.536118" lon="18.491642"><ele>13.25</ele></trkpt>
   <trkpt lat="54.536531" lon="18.490565"><ele>11.5</ele></trkpt>
   <trkpt lat="54.536863" lon="18.489733"><ele>11</ele></trkpt>
   <trkpt lat="54.538961" lon="18.484662"><ele>13</ele></trkpt>
   <trkpt lat="54.539168" lon="18.484161"><ele>14</ele></trkpt>
   <trkpt lat="54.539566" lon="18.483211"><ele>15</ele></trkpt>
   <trkpt lat="54.540302" lon="18.48153"><ele>17</ele></trkpt>
   <trkpt lat="54.540533" lon="18.480959"><ele>16.75</ele></trkpt>
   <trkpt lat="54.540936" lon="18.479895"><ele>17.75</ele></trkpt>
   <trkpt lat="54.541203" lon="18.479171"><ele>18</ele></trkpt>
   <trkpt lat="54.541435" lon="18.478486"><ele>17.5</ele></trkpt>
   <trkpt lat="54.54159" lon="18.477989"><ele>17.5</ele></trkpt>
   <trkpt lat="54.541774" lon="18.47737"><ele>17.5</ele></trkpt>
   <trkpt lat="54.541822" lon="18.477206"><ele>17.25</ele></trkpt>
   <trkpt lat="54.542175" lon="18.47596"><ele>17.25</ele></trkpt>
   <trkpt lat="54.542319" lon="18.475434"><ele>17.25</ele></trkpt>
   <trkpt lat="54.54297" lon="18.473086"><ele>20.5</ele></trkpt>
   <trkpt lat="54.54305" lon="18.472806"><ele>20.75</ele></trkpt>
   <trkpt lat="54.543826" lon="18.469999"><ele>21.25</ele></trkpt>
   <trkpt lat="54.544055" lon="18.469168"><ele>22</ele></trkpt>
   <trkpt lat="54.544076" lon="18.469089"><ele>22</ele></trkpt>
   <trkpt lat="54.544104" lon="18.468991"><ele>22.25</ele></trkpt>
   <trkpt lat="54.544208" lon="18.468634"><ele>22.5</ele></trkpt>
   <trkpt lat="54.544443" lon="18.467846"><ele>22.25</ele></trkpt>
   <trkpt lat="54.544674" lon="18.467108"><ele>22.5</ele></trkpt>
   <trkpt lat="54.545224" lon="18.465413"><ele>23.25</ele></trkpt>
   <trkpt lat="54.545431" lon="18.464711"><ele>23</ele></trkpt>
   <trkpt lat="54.546045" lon="18.4625"><ele>23.25</ele></trkpt>
   <trkpt lat="54.546615" lon="18.460438"><ele>21.5</ele></trkpt>
   <trkpt lat="54.547128" lon="18.458588"><ele>21.5</ele></trkpt>
   <trkpt lat="54.547287" lon="18.457982"><ele>21.5</ele></trkpt>
   <trkpt lat="54.547637" lon="18.456599"><ele>20.75</ele></trkpt>
   <trkpt lat="54.547787" lon="18.455769"><ele>20.5</ele></trkpt>
   <trkpt lat="54.54787" lon="18.455432"><ele>20.5</ele></trkpt>
   <trkpt lat="54.548019" lon="18.454898"><ele>20.5</ele></trkpt>
   <trkpt lat="54.548547" lon="18.452983"><ele>20.5</ele></trkpt>
   <trkpt lat="54.548796" lon="18.452037"><ele>20.25</ele></trkpt>
   <trkpt lat="54.549002" lon="18.451171"><ele>19.75</ele></trkpt>
   <trkpt lat="54.549182" lon="18.450379"><ele>18.75</ele></trkpt>
   <trkpt lat="54.549423" lon="18.449195"><ele>18.5</ele></trkpt>
   <trkpt lat="54.549652" lon="18.447907"><ele>18</ele></trkpt>
   <trkpt lat="54.54977" lon="18.447174"><ele>17.25</ele></trkpt>
   <trkpt lat="54.5499" lon="18.446261"><ele>16.75</ele></trkpt>
   <trkpt lat="54.549992" lon="18.445551"><ele>17.25</ele></trkpt>
   <trkpt lat="54.550162" lon="18.444153"><ele>18.25</ele></trkpt>
   <trkpt lat="54.5513" lon="18.434719"><ele>16.25</ele></trkpt>
   <trkpt lat="54.552098" lon="18.428112"><ele>16.25</ele></trkpt>
   <trkpt lat="54.552227" lon="18.427121"><ele>17.25</ele></trkpt>
   <trkpt lat="54.552391" lon="18.425986"><ele>18.25</ele></trkpt>
   <trkpt lat="54.55254" lon="18.425043"><ele>17.75</ele></trkpt>
   <trkpt lat="54.552699" lon="18.424126"><ele>20.5</ele></trkpt>
   <trkpt lat="54.552875" lon="18.42319"><ele>22.25</ele></trkpt>
   <trkpt lat="54.553108" lon="18.422045"><ele>22.25</ele></trkpt>
   <trkpt lat="54.553386" lon="18.420793"><ele>21</ele></trkpt>
   <trkpt lat="54.553606" lon="18.419873"><ele>21.25</ele></trkpt>
   <trkpt lat="54.553876" lon="18.418815"><ele>21.5</ele></trkpt>
   <trkpt lat="54.554184" lon="18.417695"><ele>21.25</ele></trkpt>
   <trkpt lat="54.554286" lon="18.417331"><ele>21.5</ele></trkpt>
   <trkpt lat="54.554556" lon="18.416421"><ele>21.75</ele></trkpt>
   <trkpt lat="54.55498" lon="18.41509"><ele>21</ele></trkpt>
   <trkpt lat="54.555283" lon="18.41419"><ele>20.5</ele></trkpt>
   <trkpt lat="54.555578" lon="18.413361"><ele>19</ele></trkpt>
   <trkpt lat="54.555881" lon="18.412547"><ele>19.75</ele></trkpt>
   <trkpt lat="54.556408" lon="18.411215"><ele>20.75</ele></trkpt>
   <trkpt lat="54.556944" lon="18.409952"><ele>21</ele></trkpt>
   <trkpt lat="54.558343" lon="18.406826"><ele>25.75</ele></trkpt>
   <trkpt lat="54.558603" lon="18.406274"><ele>26.25</ele></trkpt>
   <trkpt lat="54.559081" lon="18.40533"><ele>26.75</ele></trkpt>
   <trkpt lat="54.559083" lon="18.405327"><ele>26.75</ele></trkpt>
   <trkpt lat="54.559565" lon="18.404411"><ele>27</ele></trkpt>
   <trkpt lat="54.560339" lon="18.402915"><ele>26.5</ele></trkpt>
   <trkpt lat="54.560714" lon="18.402225"><ele>27.25</ele></trkpt>
   <trkpt lat="54.56126" lon="18.401252"><ele>28.5</ele></trkpt>
   <trkpt lat="54.561714" lon="18.4004"><ele>28.75</ele></trkpt>
   <trkpt lat="54.565507" lon="18.393093"><ele>25</ele></trkpt>
   <trkpt lat="54.565944" lon="18.392298"><ele>24.75</ele></trkpt>
   <trkpt lat="54.566872" lon="18.390617"><ele>26.25</ele></trkpt>
   <trkpt lat="54.567067" lon="18.390266"><ele>27</ele></trkpt>
   <trkpt lat="54.567599" lon="18.389259"><ele>26.75</ele></trkpt>
   <trkpt lat="54.568416" lon="18.387596"><ele>26.5</ele></trkpt>
   <trkpt lat="54.569005" lon="18.386463"><ele>25.75</ele></trkpt>
   <trkpt lat="54.572153" lon="18.380368"><ele>23</ele></trkpt>
   <trkpt lat="54.572262" lon="18.380158"><ele>22.75</ele></trkpt>
   <trkpt lat="54.573456" lon="18.377853"><ele>21.25</ele></trkpt>
   <trkpt lat="54.575615" lon="18.373677"><ele>26</ele></trkpt>
   <trkpt lat="54.577848" lon="18.369363"><ele>23.75</ele></trkpt>
   <trkpt lat="54.57916" lon="18.366831"><ele>23.75</ele></trkpt>
   <trkpt lat="54.579447" lon="18.36627"><ele>24.25</ele></trkpt>
   <trkpt lat="54.579599" lon="18.365991"><ele>24.5</ele></trkpt>
   <trkpt lat="54.579914" lon="18.365432"><ele>23.75</ele></trkpt>
   <trkpt lat="54.580103" lon="18.365116"><ele>23.25</ele></trkpt>
   <trkpt lat="54.580272" lon="18.364844"><ele>24.5</ele></trkpt>
   <trkpt lat="54.580463" lon="18.364556"><ele>26.25</ele></trkpt>
   <trkpt lat="54.580847" lon="18.364012"><ele>26.5</ele></trkpt>
   <trkpt lat="54.581007" lon="18.3638"><ele>26</ele></trkpt>
   <trkpt lat="54.581437" lon="18.363278"><ele>24.5</ele></trkpt>
   <trkpt lat="54.581652" lon="18.363037"><ele>23.75</ele></trkpt>
   <trkpt lat="54.582077" lon="18.362598"><ele>24</ele></trkpt>
   <trkpt lat="54.582313" lon="18.362375"><ele>23.5</ele></trkpt>
   <trkpt lat="54.582535" lon="18.362179"><ele>23</ele></trkpt>
   <trkpt lat="54.582762" lon="18.361988"><ele>23</ele></trkpt>
   <trkpt lat="54.583121" lon="18.361705"><ele>22.5</ele></trkpt>
   <trkpt lat="54.583167" lon="18.361673"><ele>22.5</ele></trkpt>
   <trkpt lat="54.583703" lon="18.361283"><ele>22.25</ele></trkpt>
   <trkpt lat="54.586939" lon="18.358984"><ele>23.25</ele></trkpt>
   <trkpt lat="54.587697" lon="18.358428"><ele>20</ele></trkpt>
   <trkpt lat="54.587963" lon="18.358232"><ele>21.25</ele></trkpt>
   <trkpt lat="54.588077" lon="18.358155"><ele>22</ele></trkpt>
   <trkpt lat="54.588499" lon="18.357925"><ele>23</ele></trkpt>
   <trkpt lat="54.588659" lon="18.357821"><ele>22.5</ele></trkpt>
   <trkpt lat="54.588796" lon="18.35772"><ele>22</ele></trkpt>
   <trkpt lat="54.588989" lon="18.357593"><ele>20.75</ele></trkpt>
   <trkpt lat="54.589224" lon="18.357469"><ele>18.75</ele></trkpt>
   <trkpt lat="54.589403" lon="18.35735"><ele>18.25</ele></trkpt>
   <trkpt lat="54.589479" lon="18.357299"><ele>18</ele></trkpt>
   <trkpt lat="54.592899" lon="18.354831"><ele>16.25</ele></trkpt>
   <trkpt lat="54.594" lon="18.35404"><ele>16.5</ele></trkpt>
   <trkpt lat="54.594468" lon="18.353699"><ele>16.5</ele></trkpt>
   <trkpt lat="54.595024" lon="18.353248"><ele>16</ele></trkpt>
   <trkpt lat="54.595254" lon="18.353061"><ele>16.25</ele></trkpt>
   <trkpt lat="54.596151" lon="18.352332"><ele>16</ele></trkpt>
   <trkpt lat="54.59632" lon="18.352178"><ele>16</ele></trkpt>
   <trkpt lat="54.596634" lon="18.351845"><ele>16.75</ele></trkpt>
   <trkpt lat="54.59678" lon="18.351726"><ele>16.75</ele></trkpt>
   <trkpt lat="54.596933" lon="18.351617"><ele>17</ele></trkpt>
   <trkpt lat="54.597167" lon="18.351486"><ele>17</ele></trkpt>
   <trkpt lat="54.597319" lon="18.351379"><ele>17.25</ele></trkpt>
   <trkpt lat="54.597639" lon="18.351105"><ele>17.5</ele></trkpt>
   <trkpt lat="54.597864" lon="18.350875"><ele>17.75</ele></trkpt>
   <trkpt lat="54.598339" lon="18.350301"><ele>18.5</ele></trkpt>
   <trkpt lat="54.598888" lon="18.349571"><ele>19.25</ele></trkpt>
   <trkpt lat="54.599179" lon="18.349162"><ele>18.75</ele></trkpt>
   <trkpt lat="54.599492" lon="18.348688"><ele>18.5</ele></trkpt>
   <trkpt lat="54.599856" lon="18.348093"><ele>18.75</ele></trkpt>
   <trkpt lat="54.600178" lon="18.347541"><ele>19.25</ele></trkpt>
   <trkpt lat="54.60039" lon="18.347193"><ele>19.25</ele></trkpt>
   <trkpt lat="54.600772" lon="18.346636"><ele>18.25</ele></trkpt>
   <trkpt lat="54.601031" lon="18.346295"><ele>18.5</ele></trkpt>
   <trkpt lat="54.601288" lon="18.345986"><ele>18.5</ele></trkpt>
   <trkpt lat="54.601535" lon="18.345711"><ele>18.25</ele></trkpt>
   <trkpt lat="54.601894" lon="18.34534"><ele>17.5</ele></trkpt>
   <trkpt lat="54.602194" lon="18.345013"><ele>17.25</ele></trkpt>
   <trkpt lat="54.602469" lon="18.344682"><ele>17.75</ele></trkpt>
   <trkpt lat="54.602695" lon="18.344361"><ele>17.5</ele></trkpt>
   <trkpt lat="54.602928" lon="18.343998"><ele>17.25</ele></trkpt>
   <trkpt lat="54.6031" lon="18.343694"><ele>17</ele></trkpt>
   <trkpt lat="54.603285" lon="18.343333"><ele>17</ele></trkpt>
   <trkpt lat="54.603833" lon="18.342105"><ele>18.25</ele></trkpt>
   <trkpt lat="54.604081" lon="18.341655"><ele>18</ele></trkpt>
   <trkpt lat="54.604292" lon="18.341366"><ele>16.75</ele></trkpt>
   <trkpt lat="54.604466" lon="18.341166"><ele>15</ele></trkpt>
   <trkpt lat="54.604638" lon="18.340999"><ele>13.25</ele></trkpt>
   <trkpt lat="54.604801" lon="18.340867"><ele>11.25</ele></trkpt>
   <trkpt lat="54.604951" lon="18.340761"><ele>9.5</ele></trkpt>
   <trkpt lat="54.605281" lon="18.340597"><ele>8.25</ele></trkpt>
   <trkpt lat="54.605504" lon="18.340524"><ele>7.75</ele></trkpt>
   <trkpt lat="54.605627" lon="18.340484"><ele>7.25</ele></trkpt>
   <trkpt lat="54.60595" lon="18.340378"><ele>6.75</ele></trkpt>
   <trkpt lat="54.60622" lon="18.340285"><ele>7</ele></trkpt>
   <trkpt lat="54.606348" lon="18.340254"><ele>7</ele></trkpt>
   <trkpt lat="54.606485" lon="18.340229"><ele>7</ele></trkpt>
   <trkpt lat="54.606645" lon="18.340216"><ele>7</ele></trkpt>
   <trkpt lat="54.606837" lon="18.340226"><ele>6.5</ele></trkpt>
   <trkpt lat="54.607119" lon="18.340283"><ele>5.75</ele></trkpt>
   <trkpt lat="54.607266" lon="18.340336"><ele>5.5</ele></trkpt>
   <trkpt lat="54.607433" lon="18.340419"><ele>5</ele></trkpt>
   <trkpt lat="54.607479" lon="18.340444"><ele>5</ele></trkpt>
   <trkpt lat="54.607713" lon="18.340596"><ele>5.25</ele></trkpt>
   <trkpt lat="54.607945" lon="18.340774"><ele>5.5</ele></trkpt>
   <trkpt lat="54.610132" lon="18.342527"><ele>6</ele></trkpt>
   <trkpt lat="54.611" lon="18.343225"><ele>5.75</ele></trkpt>
   <trkpt lat="54.615166" lon="18.34657"><ele>9</ele></trkpt>
   <trkpt lat="54.615218" lon="18.346612"><ele>9</ele></trkpt>
   <trkpt lat="54.615268" lon="18.346653"><ele>9</ele></trkpt>
   <trkpt lat="54.618304" lon="18.349089"><ele>11</ele></trkpt>
   <trkpt lat="54.618564" lon="18.349297"><ele>10.75</ele></trkpt>
   <trkpt lat="54.623016" lon="18.352875"><ele>5.5</ele></trkpt>
   <trkpt lat="54.623361" lon="18.353174"><ele>5</ele></trkpt>
   <trkpt lat="54.624214" lon="18.353972"><ele>6</ele></trkpt>
   <trkpt lat="54.624372" lon="18.354126"><ele>6.25</ele></trkpt>
   <trkpt lat="54.624583" lon="18.35435"><ele>6.75</ele></trkpt>
   <trkpt lat="54.624814" lon="18.35462"><ele>7</ele></trkpt>
   <trkpt lat="54.626205" lon="18.356354"><ele>8.75</ele></trkpt>
   <trkpt lat="54.630606" lon="18.361854"><ele>5.5</ele></trkpt>
   <trkpt lat="54.631224" lon="18.36267"><ele>6.75</ele></trkpt>
   <trkpt lat="54.631959" lon="18.363647"><ele>6.75</ele></trkpt>
   <trkpt lat="54.633411" lon="18.365588"><ele>5.25</ele></trkpt>
   <trkpt lat="54.637475" lon="18.371018"><ele>8.5</ele></trkpt>
   <trkpt lat="54.637781" lon="18.371452"><ele>9.5</ele></trkpt>
   <trkpt lat="54.637973" lon="18.371755"><ele>10.25</ele></trkpt>
   <trkpt lat="54.638071" lon="18.371919"><ele>10.5</ele></trkpt>
   <trkpt lat="54.638289" lon="18.372333"><ele>11.75</ele></trkpt>
   <trkpt lat="54.638442" lon="18.372656"><ele>12.5</ele></trkpt>
   <trkpt lat="54.638659" lon="18.373177"><ele>12.5</ele></trkpt>
   <trkpt lat="54.639838" lon="18.376192"><ele>12.75</ele></trkpt>
   <trkpt lat="54.640058" lon="18.376778"><ele>12.75</ele></trkpt>
   <trkpt lat="54.640186" lon="18.377161"><ele>14.5</ele></trkpt>
   <trkpt lat="54.64033" lon="18.377628"><ele>16.25</ele></trkpt>
   <trkpt lat="54.641136" lon="18.380413"><ele>23.25</ele></trkpt>
   <trkpt lat="54.641246" lon="18.380809"><ele>23.5</ele></trkpt>
   <trkpt lat="54.641338" lon="18.381172"><ele>23</ele></trkpt>
   <trkpt lat="54.641424" lon="18.381562"><ele>21.75</ele></trkpt>
   <trkpt lat="54.641542" lon="18.382239"><ele>21</ele></trkpt>
   <trkpt lat="54.641639" lon="18.383006"><ele>18.5</ele></trkpt>
   <trkpt lat="54.641772" lon="18.384203"><ele>16</ele></trkpt>
   <trkpt lat="54.64202" lon="18.38641"><ele>16.75</ele></trkpt>
   <trkpt lat="54.642075" lon="18.386856"><ele>17.25</ele></trkpt>
   <trkpt lat="54.642131" lon="18.387259"><ele>17.75</ele></trkpt>
   <trkpt lat="54.642194" lon="18.387638"><ele>18</ele></trkpt>
   <trkpt lat="54.64226" lon="18.387977"><ele>18.5</ele></trkpt>
   <trkpt lat="54.642337" lon="18.38831"><ele>19.25</ele></trkpt>
   <trkpt lat="54.642418" lon="18.388626"><ele>19.75</ele></trkpt>
   <trkpt lat="54.642501" lon="18.388914"><ele>20.5</ele></trkpt>
   <trkpt lat="54.64259" lon="18.389195"><ele>21.5</ele></trkpt>
   <trkpt lat="54.642709" lon="18.389533"><ele>23</ele></trkpt>
   <trkpt lat="54.642845" lon="18.38987"><ele>24.75</ele></trkpt>
   <trkpt lat="54.642981" lon="18.390177"><ele>25.75</ele></trkpt>
   <trkpt lat="54.643118" lon="18.39046"><ele>26</ele></trkpt>
   <trkpt lat="54.64325" lon="18.390726"><ele>25.75</ele></trkpt>
   <trkpt lat="54.64426" lon="18.392649"><ele>29.75</ele></trkpt>
   <trkpt lat="54.644479" lon="18.393035"><ele>31.5</ele></trkpt>
   <trkpt lat="54.64469" lon="18.393371"><ele>33.25</ele></trkpt>
   <trkpt lat="54.645159" lon="18.394025"><ele>36.25</ele></trkpt>
   <trkpt lat="54.645411" lon="18.394399"><ele>36.25</ele></trkpt>
   <trkpt lat="54.645619" lon="18.39478"><ele>35.5</ele></trkpt>
   <trkpt lat="54.645721" lon="18.395013"><ele>35</ele></trkpt>
   <trkpt lat="54.645814" lon="18.395253"><ele>35</ele></trkpt>
   <trkpt lat="54.6459" lon="18.395547"><ele>35.25</ele></trkpt>
   <trkpt lat="54.645979" lon="18.395868"><ele>35.25</ele></trkpt>
   <trkpt lat="54.646048" lon="18.396188"><ele>34.75</ele></trkpt>
   <trkpt lat="54.646095" lon="18.396487"><ele>34</ele></trkpt>
   <trkpt lat="54.646129" lon="18.396772"><ele>34</ele></trkpt>
   <trkpt lat="54.646159" lon="18.397092"><ele>35</ele></trkpt>
   <trkpt lat="54.646215" lon="18.397954"><ele>37.75</ele></trkpt>
   <trkpt lat="54.646254" lon="18.398289"><ele>39.25</ele></trkpt>
   <trkpt lat="54.646302" lon="18.398589"><ele>38.75</ele></trkpt>
   <trkpt lat="54.646459" lon="18.399244"><ele>37.75</ele></trkpt>
   <trkpt lat="54.646506" lon="18.399396"><ele>37.5</ele></trkpt>
   <trkpt lat="54.646565" lon="18.399561"><ele>37.25</ele></trkpt>
   <trkpt lat="54.64666" lon="18.399794"><ele>37</ele></trkpt>
   <trkpt lat="54.646766" lon="18.40002"><ele>36.75</ele></trkpt>
   <trkpt lat="54.646865" lon="18.4002"><ele>36.25</ele></trkpt>
   <trkpt lat="54.647013" lon="18.400445"><ele>36</ele></trkpt>
   <trkpt lat="54.647602" lon="18.401314"><ele>34.5</ele></trkpt>
   <trkpt lat="54.647825" lon="18.401686"><ele>33.5</ele></trkpt>
   <trkpt lat="54.647941" lon="18.401905"><ele>34.75</ele></trkpt>
   <trkpt lat="54.648051" lon="18.402137"><ele>35.75</ele></trkpt>
   <trkpt lat="54.648167" lon="18.402422"><ele>37.25</ele></trkpt>
   <trkpt lat="54.64826" lon="18.40268"><ele>38.5</ele></trkpt>
   <trkpt lat="54.648373" lon="18.403023"><ele>39.75</ele></trkpt>
   <trkpt lat="54.650504" lon="18.410052"><ele>46.75</ele></trkpt>
   <trkpt lat="54.650647" lon="18.410479"><ele>46.5</ele></trkpt>
   <trkpt lat="54.650807" lon="18.410865"><ele>45.75</ele></trkpt>
   <trkpt lat="54.650913" lon="18.411084"><ele>45.5</ele></trkpt>
   <trkpt lat="54.651021" lon="18.411278"><ele>45.25</ele></trkpt>
   <trkpt lat="54.651116" lon="18.41144"><ele>45.25</ele></trkpt>
   <trkpt lat="54.651224" lon="18.411603"><ele>45</ele></trkpt>
   <trkpt lat="54.651349" lon="18.411781"><ele>44.75</ele></trkpt>
   <trkpt lat="54.651486" lon="18.411953"><ele>44.75</ele></trkpt>
   <trkpt lat="54.651625" lon="18.412108"><ele>45.25</ele></trkpt>
   <trkpt lat="54.651788" lon="18.412279"><ele>45.5</ele></trkpt>
   <trkpt lat="54.652105" lon="18.412547"><ele>45.5</ele></trkpt>
   <trkpt lat="54.652372" lon="18.412726"><ele>45.25</ele></trkpt>
   <trkpt lat="54.653007" lon="18.413119"><ele>44.75</ele></trkpt>
   <trkpt lat="54.653699" lon="18.413527"><ele>44</ele></trkpt>
   <trkpt lat="54.653875" lon="18.413616"><ele>44</ele></trkpt>
   <trkpt lat="54.654578" lon="18.413968"><ele>43.5</ele></trkpt>
   <trkpt lat="54.655062" lon="18.414229"><ele>42.75</ele></trkpt>
   <trkpt lat="54.656115" lon="18.414859"><ele>40.5</ele></trkpt>
   <trkpt lat="54.656601" lon="18.415115"><ele>40</ele></trkpt>
   <trkpt lat="54.656809" lon="18.415203"><ele>40</ele></trkpt>
   <trkpt lat="54.65707" lon="18.415289"><ele>39.75</ele></trkpt>
   <trkpt lat="54.659568" lon="18.416005"><ele>34.75</ele></trkpt>
   <trkpt lat="54.662673" lon="18.41689"><ele>27.5</ele></trkpt>
   <trkpt lat="54.663479" lon="18.417115"><ele>24.75</ele></trkpt>
   <trkpt lat="54.664245" lon="18.41729"><ele>20.5</ele></trkpt>
   <trkpt lat="54.667878" lon="18.417892"><ele>20</ele></trkpt>
   <trkpt lat="54.668549" lon="18.417988"><ele>24</ele></trkpt>
   <trkpt lat="54.668772" lon="18.418002"><ele>25.25</ele></trkpt>
   <trkpt lat="54.668985" lon="18.418003"><ele>26.5</ele></trkpt>
   <trkpt lat="54.669188" lon="18.417988"><ele>27.75</ele></trkpt>
   <trkpt lat="54.669393" lon="18.417955"><ele>28.25</ele></trkpt>
   <trkpt lat="54.669587" lon="18.417909"><ele>28.75</ele></trkpt>
   <trkpt lat="54.669834" lon="18.417832"><ele>29.25</ele></trkpt>
   <trkpt lat="54.670159" lon="18.41771"><ele>29.5</ele></trkpt>
   <trkpt lat="54.671568" lon="18.417112"><ele>29</ele></trkpt>
   <trkpt lat="54.673281" lon="18.416386"><ele>29.25</ele></trkpt>
   <trkpt lat="54.674048" lon="18.416066"><ele>28.75</ele></trkpt>
   <trkpt lat="54.675297" lon="18.415543"><ele>28</ele></trkpt>
   <trkpt lat="54.675328" lon="18.415531"><ele>28</ele></trkpt>
   <trkpt lat="54.676966" lon="18.414844"><ele>25.25</ele></trkpt>
   <trkpt lat="54.677292" lon="18.414697"><ele>24.75</ele></trkpt>
   <trkpt lat="54.677656" lon="18.414516"><ele>24</ele></trkpt>
   <trkpt lat="54.679265" lon="18.413635"><ele>21</ele></trkpt>
   <trkpt lat="54.680253" lon="18.413092"><ele>20</ele></trkpt>
   <trkpt lat="54.681263" lon="18.412541"><ele>18.25</ele></trkpt>
   <trkpt lat="54.681634" lon="18.412381"><ele>17</ele></trkpt>
   <trkpt lat="54.681989" lon="18.412278"><ele>17</ele></trkpt>
   <trkpt lat="54.68223" lon="18.41223"><ele>17</ele></trkpt>
   <trkpt lat="54.682584" lon="18.412189"><ele>17</ele></trkpt>
   <trkpt lat="54.682929" lon="18.412168"><ele>18</ele></trkpt>
   <trkpt lat="54.688987" lon="18.411696"><ele>19</ele></trkpt>
   <trkpt lat="54.689158" lon="18.411682"><ele>19</ele></trkpt>
   <trkpt lat="54.691732" lon="18.411479"><ele>21</ele></trkpt>
   <trkpt lat="54.693187" lon="18.411365"><ele>20.25</ele></trkpt>
   <trkpt lat="54.698129" lon="18.410983"><ele>18</ele></trkpt>
   <trkpt lat="54.698301" lon="18.410973"><ele>17.75</ele></trkpt>
   <trkpt lat="54.698713" lon="18.410978"><ele>17.75</ele></trkpt>
   <trkpt lat="54.700969" lon="18.411078"><ele>17.25</ele></trkpt>
   <trkpt lat="54.707095" lon="18.411364"><ele>16.5</ele></trkpt>
   <trkpt lat="54.708061" lon="18.411404"><ele>15</ele></trkpt>
   <trkpt lat="54.708436" lon="18.411395"><ele>14.25</ele></trkpt>
   <trkpt lat="54.70884" lon="18.411327"><ele>14.25</ele></trkpt>
   <trkpt lat="54.709049" lon="18.411271"><ele>14.25</ele></trkpt>
   <trkpt lat="54.709412" lon="18.411135"><ele>14.5</ele></trkpt>
   <trkpt lat="54.710727" lon="18.410553"><ele>16</ele></trkpt>
   <trkpt lat="54.711599" lon="18.410169"><ele>13.75</ele></trkpt>
   <trkpt lat="54.712088" lon="18.409953"><ele>13.5</ele></trkpt>
   <trkpt lat="54.713456" lon="18.409359"><ele>12</ele></trkpt>
   <trkpt lat="54.714893" lon="18.408711"><ele>11.5</ele></trkpt>
   <trkpt lat="54.715534" lon="18.408421"><ele>13</ele></trkpt>
   <trkpt lat="54.715829" lon="18.408289"><ele>13</ele></trkpt>
   <trkpt lat="54.715883" lon="18.408265"><ele>13</ele></trkpt>
   <trkpt lat="54.717115" lon="18.407695"><ele>13</ele></trkpt>
   <trkpt lat="54.717194" lon="18.407658"><ele>13</ele></trkpt>
   <trkpt lat="54.71725" lon="18.407634"><ele>13</ele></trkpt>
   <trkpt lat="54.717344" lon="18.407586"><ele>13</ele></trkpt>
   <trkpt lat="54.717584" lon="18.407427"><ele>12.75</ele></trkpt>
   <trkpt lat="54.717688" lon="18.407348"><ele>12.5</ele></trkpt>
   <trkpt lat="54.717803" lon="18.40724"><ele>12.25</ele></trkpt>
   <trkpt lat="54.71801" lon="18.407"><ele>11.75</ele></trkpt>
   <trkpt lat="54.718112" lon="18.406865"><ele>11.5</ele></trkpt>
   <trkpt lat="54.71833" lon="18.40654"><ele>11</ele></trkpt>
   <trkpt lat="54.71846" lon="18.406319"><ele>11.25</ele></trkpt>
   <trkpt lat="54.718632" lon="18.40598"><ele>11</ele></trkpt>
   <trkpt lat="54.71875" lon="18.405706"><ele>11</ele></trkpt>
   <trkpt lat="54.718852" lon="18.40543"><ele>10.75</ele></trkpt>
   <trkpt lat="54.718914" lon="18.405233"><ele>10.5</ele></trkpt>
   <trkpt lat="54.718974" lon="18.405017"><ele>10.25</ele></trkpt>
   <trkpt lat="54.719041" lon="18.404739"><ele>9.5</ele></trkpt>
   <trkpt lat="54.71913" lon="18.404211"><ele>8</ele></trkpt>
   <trkpt lat="54.719163" lon="18.403939"><ele>7.25</ele></trkpt>
   <trkpt lat="54.719183" lon="18.403644"><ele>6.5</ele></trkpt>
   <trkpt lat="54.719191" lon="18.403344"><ele>5.75</ele></trkpt>
   <trkpt lat="54.719192" lon="18.403109"><ele>6</ele></trkpt>
   <trkpt lat="54.719184" lon="18.402766"><ele>6.5</ele></trkpt>
   <trkpt lat="54.719033" lon="18.400407"><ele>4.75</ele></trkpt>
   <trkpt lat="54.718882" lon="18.398074"><ele>4.75</ele></trkpt>
   <trkpt lat="54.718871" lon="18.397796"><ele>4.75</ele></trkpt>
   <trkpt lat="54.718867" lon="18.397506"><ele>4.75</ele></trkpt>
   <trkpt lat="54.718873" lon="18.397162"><ele>4.75</ele></trkpt>
   <trkpt lat="54.718888" lon="18.396899"><ele>4.75</ele></trkpt>
   <trkpt lat="54.718912" lon="18.396646"><ele>4.5</ele></trkpt>
   <trkpt lat="54.718946" lon="18.396384"><ele>3.75</ele></trkpt>
   <trkpt lat="54.718986" lon="18.396133"><ele>2.75</ele></trkpt>
   <trkpt lat="54.719026" lon="18.395926"><ele>2</ele></trkpt>
   <trkpt lat="54.719129" lon="18.395497"><ele>0.75</ele></trkpt>
   <trkpt lat="54.719199" lon="18.395263"><ele>0</ele></trkpt>
   <trkpt lat="54.719282" lon="18.395016"><ele>-0.5</ele></trkpt>
   <trkpt lat="54.719359" lon="18.394821"><ele>-1</ele></trkpt>
   <trkpt lat="54.719448" lon="18.394609"><ele>-1.5</ele></trkpt>
   <trkpt lat="54.719551" lon="18.394399"><ele>-1.75</ele></trkpt>
   <trkpt lat="54.719656" lon="18.394213"><ele>-2</ele></trkpt>
   <trkpt lat="54.719755" lon="18.394047"><ele>-2.25</ele></trkpt>
   <trkpt lat="54.719961" lon="18.393759"><ele>-2.75</ele></trkpt>
   <trkpt lat="54.720205" lon="18.393486"><ele>-3</ele></trkpt>
   <trkpt lat="54.720332" lon="18.393368"><ele>-3</ele></trkpt>
   <trkpt lat="54.720483" lon="18.393245"><ele>-2.75</ele></trkpt>
   <trkpt lat="54.720603" lon="18.393161"><ele>-2.75</ele></trkpt>
   <trkpt lat="54.720736" lon="18.393082"><ele>-2.75</ele></trkpt>
   <trkpt lat="54.720986" lon="18.392966"><ele>-3</ele></trkpt>
   <trkpt lat="54.721122" lon="18.392921"><ele>-3</ele></trkpt>
   <trkpt lat="54.721376" lon="18.39287"><ele>-3.25</ele></trkpt>
   <trkpt lat="54.721627" lon="18.392841"><ele>-3.5</ele></trkpt>
   <trkpt lat="54.72188" lon="18.392824"><ele>-3.25</ele></trkpt>
   <trkpt lat="54.726551" lon="18.392754"><ele>-2.75</ele></trkpt>
   <trkpt lat="54.727103" lon="18.392775"><ele>-3</ele></trkpt>
   <trkpt lat="54.72742" lon="18.3928"><ele>-3.25</ele></trkpt>
   <trkpt lat="54.727608" lon="18.392818"><ele>-3.25</ele></trkpt>
   <trkpt lat="54.727916" lon="18.392849"><ele>-3</ele></trkpt>
   <trkpt lat="54.731402" lon="18.393192"><ele>0.5</ele></trkpt>
   <trkpt lat="54.733972" lon="18.393485"><ele>-3.75</ele></trkpt>
   <trkpt lat="54.734142" lon="18.393502"><ele>-3.75</ele></trkpt>
   <trkpt lat="54.73454" lon="18.393507"><ele>-4</ele></trkpt>
   <trkpt lat="54.734716" lon="18.393494"><ele>-4</ele></trkpt>
   <trkpt lat="54.734925" lon="18.393464"><ele>-4</ele></trkpt>
   <trkpt lat="54.73513" lon="18.393416"><ele>-3.75</ele></trkpt>
   <trkpt lat="54.735322" lon="18.393349"><ele>-3.5</ele></trkpt>
   <trkpt lat="54.735531" lon="18.393259"><ele>-3.25</ele></trkpt>
   <trkpt lat="54.735724" lon="18.393162"><ele>-3</ele></trkpt>
   <trkpt lat="54.736044" lon="18.392972"><ele>-3</ele></trkpt>
   <trkpt lat="54.737628" lon="18.391919"><ele>3.75</ele></trkpt>
   <trkpt lat="54.738484" lon="18.391341"><ele>7.5</ele></trkpt>
   <trkpt lat="54.738812" lon="18.39109"><ele>8</ele></trkpt>
   <trkpt lat="54.739007" lon="18.390921"><ele>8</ele></trkpt>
   <trkpt lat="54.739366" lon="18.390568"><ele>8</ele></trkpt>
   <trkpt lat="54.740151" lon="18.389727"><ele>9</ele></trkpt>
   <trkpt lat="54.740538" lon="18.389325"><ele>9</ele></trkpt>
   <trkpt lat="54.74072" lon="18.389152"><ele>9</ele></trkpt>
   <trkpt lat="54.740899" lon="18.389006"><ele>9</ele></trkpt>
   <trkpt lat="54.741066" lon="18.388887"><ele>9.25</ele></trkpt>
   <trkpt lat="54.74126" lon="18.388765"><ele>9.5</ele></trkpt>
   <trkpt lat="54.741452" lon="18.388662"><ele>9.5</ele></trkpt>
   <trkpt lat="54.741641" lon="18.388578"><ele>9.75</ele></trkpt>
   <trkpt lat="54.741897" lon="18.388474"><ele>10</ele></trkpt>
   <trkpt lat="54.743862" lon="18.387747"><ele>8</ele></trkpt>
   <trkpt lat="54.744384" lon="18.387554"><ele>6.25</ele></trkpt>
   <trkpt lat="54.746728" lon="18.386685"><ele>7</ele></trkpt>
   <trkpt lat="54.749888" lon="18.38551"><ele>14.75</ele></trkpt>
   <trkpt lat="54.750066" lon="18.385437"><ele>15</ele></trkpt>
   <trkpt lat="54.750392" lon="18.385291"><ele>15.25</ele></trkpt>
   <trkpt lat="54.750692" lon="18.385123"><ele>15.75</ele></trkpt>
   <trkpt lat="54.750802" lon="18.385048"><ele>15.75</ele></trkpt>
   <trkpt lat="54.751017" lon="18.38488"><ele>15.75</ele></trkpt>
   <trkpt lat="54.751161" lon="18.384748"><ele>15.75</ele></trkpt>
   <trkpt lat="54.75143" lon="18.384464"><ele>16.25</ele></trkpt>
   <trkpt lat="54.751646" lon="18.384189"><ele>16.75</ele></trkpt>
   <trkpt lat="54.751854" lon="18.38387"><ele>17.5</ele></trkpt>
   <trkpt lat="54.75209" lon="18.383452"><ele>18.25</ele></trkpt>
   <trkpt lat="54.75212" lon="18.383394"><ele>18.5</ele></trkpt>
   <trkpt lat="54.752347" lon="18.382926"><ele>18.75</ele></trkpt>
   <trkpt lat="54.752497" lon="18.38255"><ele>19</ele></trkpt>
   <trkpt lat="54.752567" lon="18.382349"><ele>18.75</ele></trkpt>
   <trkpt lat="54.752574" lon="18.38233"><ele>18.75</ele></trkpt>
   <trkpt lat="54.7527" lon="18.381934"><ele>18.5</ele></trkpt>
   <trkpt lat="54.752819" lon="18.381499"><ele>18.5</ele></trkpt>
   <trkpt lat="54.75288" lon="18.381238"><ele>18.5</ele></trkpt>
   <trkpt lat="54.752939" lon="18.380938"><ele>18.5</ele></trkpt>
   <trkpt lat="54.752994" lon="18.380618"><ele>18.5</ele></trkpt>
   <trkpt lat="54.753074" lon="18.380004"><ele>18.5</ele></trkpt>
   <trkpt lat="54.75323" lon="18.378498"><ele>19.75</ele></trkpt>
   <trkpt lat="54.753327" lon="18.377676"><ele>20.75</ele></trkpt>
   <trkpt lat="54.753426" lon="18.37695"><ele>21</ele></trkpt>
   <trkpt lat="54.753527" lon="18.376346"><ele>20.5</ele></trkpt>
   <trkpt lat="54.753586" lon="18.376054"><ele>20.25</ele></trkpt>
   <trkpt lat="54.75372" lon="18.375505"><ele>20</ele></trkpt>
   <trkpt lat="54.753798" lon="18.375238"><ele>20</ele></trkpt>
   <trkpt lat="54.753955" lon="18.374783"><ele>20</ele></trkpt>
   <trkpt lat="54.754078" lon="18.374473"><ele>20</ele></trkpt>
   <trkpt lat="54.754166" lon="18.374275"><ele>20</ele></trkpt>
   <trkpt lat="54.754381" lon="18.373853"><ele>20.5</ele></trkpt>
   <trkpt lat="54.754505" lon="18.373642"><ele>20.75</ele></trkpt>
   <trkpt lat="54.754633" lon="18.373444"><ele>21</ele></trkpt>
   <trkpt lat="54.754768" lon="18.373259"><ele>21.25</ele></trkpt>
   <trkpt lat="54.754916" lon="18.37307"><ele>21.25</ele></trkpt>
   <trkpt lat="54.755049" lon="18.372916"><ele>21.25</ele></trkpt>
   <trkpt lat="54.75518" lon="18.37278"><ele>21.25</ele></trkpt>
   <trkpt lat="54.755324" lon="18.372643"><ele>21</ele></trkpt>
   <trkpt lat="54.755494" lon="18.372501"><ele>21</ele></trkpt>
   <trkpt lat="54.755658" lon="18.372378"><ele>21</ele></trkpt>
   <trkpt lat="54.755825" lon="18.372275"><ele>21</ele></trkpt>
   <trkpt lat="54.75602" lon="18.372169"><ele>21</ele></trkpt>
   <trkpt lat="54.756196" lon="18.372093"><ele>21</ele></trkpt>
   <trkpt lat="54.756376" lon="18.37203"><ele>21</ele></trkpt>
   <trkpt lat="54.756737" lon="18.37196"><ele>21</ele></trkpt>
   <trkpt lat="54.756927" lon="18.371942"><ele>21.25</ele></trkpt>
   <trkpt lat="54.757097" lon="18.371944"><ele>21.5</ele></trkpt>
   <trkpt lat="54.757267" lon="18.371959"><ele>21.5</ele></trkpt>
   <trkpt lat="54.757542" lon="18.372015"><ele>22</ele></trkpt>
   <trkpt lat="54.757761" lon="18.372087"><ele>22.25</ele></trkpt>
   <trkpt lat="54.75787" lon="18.372129"><ele>22.25</ele></trkpt>
   <trkpt lat="54.758036" lon="18.37221"><ele>22.5</ele></trkpt>
   <trkpt lat="54.758333" lon="18.372387"><ele>22.75</ele></trkpt>
   <trkpt lat="54.758617" lon="18.372605"><ele>23.75</ele></trkpt>
   <trkpt lat="54.758753" lon="18.372726"><ele>24.25</ele></trkpt>
   <trkpt lat="54.75888" lon="18.372857"><ele>24.5</ele></trkpt>
   <trkpt lat="54.759023" lon="18.373013"><ele>25.25</ele></trkpt>
   <trkpt lat="54.759321" lon="18.373399"><ele>26</ele></trkpt>
   <trkpt lat="54.75946" lon="18.373603"><ele>26</ele></trkpt>
   <trkpt lat="54.760004" lon="18.374474"><ele>26.25</ele></trkpt>
   <trkpt lat="54.76208" lon="18.377848"><ele>28.75</ele></trkpt>
   <trkpt lat="54.764382" lon="18.381588"><ele>32.25</ele></trkpt>
   <trkpt lat="54.764598" lon="18.38194"><ele>32.5</ele></trkpt>
   <trkpt lat="54.765698" lon="18.383729"><ele>33.75</ele></trkpt>
   <trkpt lat="54.768895" lon="18.388922"><ele>33.5</ele></trkpt>
   <trkpt lat="54.769545" lon="18.389977"><ele>33.75</ele></trkpt>
   <trkpt lat="54.769807" lon="18.390375"><ele>34</ele></trkpt>
   <trkpt lat="54.769934" lon="18.390555"><ele>34</ele></trkpt>
   <trkpt lat="54.7702" lon="18.390891"><ele>33.75</ele></trkpt>
   <trkpt lat="54.770342" lon="18.391045"><ele>33.5</ele></trkpt>
   <trkpt lat="54.770607" lon="18.391293"><ele>33.25</ele></trkpt>
   <trkpt lat="54.770848" lon="18.391486"><ele>33</ele></trkpt>
   <trkpt lat="54.771105" lon="18.391646"><ele>33</ele></trkpt>
   <trkpt lat="54.77144" lon="18.391804"><ele>32.75</ele></trkpt>
   <trkpt lat="54.771679" lon="18.391885"><ele>32.5</ele></trkpt>
   <trkpt lat="54.772139" lon="18.391993"><ele>32.5</ele></trkpt>
   <trkpt lat="54.773596" lon="18.392244"><ele>32.25</ele></trkpt>
   <trkpt lat="54.77665" lon="18.392759"><ele>31.5</ele></trkpt>
   <trkpt lat="54.777463" lon="18.39291"><ele>31</ele></trkpt>
   <trkpt lat="54.777633" lon="18.392951"><ele>30.75</ele></trkpt>
   <trkpt lat="54.777976" lon="18.393055"><ele>30</ele></trkpt>
   <trkpt lat="54.77821" lon="18.393153"><ele>29.5</ele></trkpt>
   <trkpt lat="54.778358" lon="18.393222"><ele>29.25</ele></trkpt>
   <trkpt lat="54.778675" lon="18.393409"><ele>29</ele></trkpt>
   <trkpt lat="54.778978" lon="18.393632"><ele>29</ele></trkpt>
   <trkpt lat="54.779139" lon="18.393774"><ele>29</ele></trkpt>
   <trkpt lat="54.779295" lon="18.393919"><ele>29</ele></trkpt>
   <trkpt lat="54.779565" lon="18.39421"><ele>28.75</ele></trkpt>
   <trkpt lat="54.779842" lon="18.394542"><ele>28.5</ele></trkpt>
   <trkpt lat="54.780116" lon="18.394903"><ele>28</ele></trkpt>
   <trkpt lat="54.784557" lon="18.400995"><ele>26</ele></trkpt>
   <trkpt lat="54.785278" lon="18.401983"><ele>23</ele></trkpt>
   <trkpt lat="54.785547" lon="18.402327"><ele>22.25</ele></trkpt>
   <trkpt lat="54.785845" lon="18.402661"><ele>21.75</ele></trkpt>
   <trkpt lat="54.786104" lon="18.4029"><ele>20.75</ele></trkpt>
   <trkpt lat="54.786227" lon="18.402997"><ele>20.25</ele></trkpt>
   <trkpt lat="54.786512" lon="18.403185"><ele>19.5</ele></trkpt>
   <trkpt lat="54.786649" lon="18.403258"><ele>19</ele></trkpt>
   <trkpt lat="54.786813" lon="18.40333"><ele>19</ele></trkpt>
   <trkpt lat="54.787083" lon="18.403421"><ele>18.75</ele></trkpt>
   <trkpt lat="54.787219" lon="18.403453"><ele>18.75</ele></trkpt>
   <trkpt lat="54.787464" lon="18.403488"><ele>18.75</ele></trkpt>
   <trkpt lat="54.787647" lon="18.403497"><ele>18.75</ele></trkpt>
   <trkpt lat="54.787955" lon="18.403474"><ele>18.75</ele></trkpt>
   <trkpt lat="54.788412" lon="18.403376"><ele>18.75</ele></trkpt>
   <trkpt lat="54.790678" lon="18.402732"><ele>16</ele></trkpt>
   <trkpt lat="54.790723" lon="18.402712"><ele>15.75</ele></trkpt>
   <trkpt lat="54.790783" lon="18.402695"><ele>15.75</ele></trkpt>
   <trkpt lat="54.790837" lon="18.402678"><ele>15.75</ele></trkpt>
   <trkpt lat="54.791504" lon="18.402443"><ele>15</ele></trkpt>
   <trkpt lat="54.792398" lon="18.402128"><ele>14</ele></trkpt>
   <trkpt lat="54.793448" lon="18.401826"><ele>14.75</ele></trkpt>
   <trkpt lat="54.793769" lon="18.401734"><ele>15</ele></trkpt>
   <trkpt lat="54.794411" lon="18.401553"><ele>15</ele></trkpt>
   <trkpt lat="54.794665" lon="18.401488"><ele>15</ele></trkpt>
   <trkpt lat="54.794864" lon="18.401453"><ele>15.25</ele></trkpt>
   <trkpt lat="54.795132" lon="18.401439"><ele>15</ele></trkpt>
   <trkpt lat="54.795295" lon="18.401454"><ele>14.75</ele></trkpt>
   <trkpt lat="54.795507" lon="18.401498"><ele>14.5</ele></trkpt>
   <trkpt lat="54.795553" lon="18.40151"><ele>14.5</ele></trkpt>
   <trkpt lat="54.795601" lon="18.401528"><ele>14.25</ele></trkpt>
   <trkpt lat="54.7958" lon="18.401616"><ele>14</ele></trkpt>
   <trkpt lat="54.795934" lon="18.401695"><ele>13.5</ele></trkpt>
   <trkpt lat="54.796069" lon="18.401785"><ele>13.25</ele></trkpt>
   <trkpt lat="54.796281" lon="18.401966"><ele>12.75</ele></trkpt>
   <trkpt lat="54.796508" lon="18.402199"><ele>12.25</ele></trkpt>
   <trkpt lat="54.796645" lon="18.402366"><ele>12</ele></trkpt>
   <trkpt lat="54.796782" lon="18.402549"><ele>11.5</ele></trkpt>
   <trkpt lat="54.79697" lon="18.402827"><ele>10.5</ele></trkpt>
   <trkpt lat="54.797178" lon="18.403195"><ele>9.75</ele></trkpt>
   <trkpt lat="54.797359" lon="18.403604"><ele>9.25</ele></trkpt>
   <trkpt lat="54.797444" lon="18.403829"><ele>9</ele></trkpt>
   <trkpt lat="54.797513" lon="18.404047"><ele>8.75</ele></trkpt>
   <trkpt lat="54.797626" lon="18.404486"><ele>8.5</ele></trkpt>
   <trkpt lat="54.797684" lon="18.40478"><ele>8.25</ele></trkpt>
   <trkpt lat="54.79773" lon="18.405067"><ele>8</ele></trkpt>
   <trkpt lat="54.797763" lon="18.40534"><ele>7.75</ele></trkpt>
   <trkpt lat="54.797791" lon="18.405643"><ele>7.25</ele></trkpt>
   <trkpt lat="54.79781" lon="18.406103"><ele>6.5</ele></trkpt>
   <trkpt lat="54.79781" lon="18.406261"><ele>6.25</ele></trkpt>
   <trkpt lat="54.797809" lon="18.406466"><ele>6</ele></trkpt>
   <trkpt lat="54.797798" lon="18.406724"><ele>5.5</ele></trkpt>
   <trkpt lat="54.797779" lon="18.406978"><ele>5.5</ele></trkpt>
   <trkpt lat="54.797749" lon="18.407252"><ele>5.25</ele></trkpt>
   <trkpt lat="54.79771" lon="18.407529"><ele>5.25</ele></trkpt>
   <trkpt lat="54.797654" lon="18.407821"><ele>5</ele></trkpt>
   <trkpt lat="54.797595" lon="18.408076"><ele>5</ele></trkpt>
   <trkpt lat="54.797527" lon="18.408334"><ele>4.75</ele></trkpt>
   <trkpt lat="54.797369" lon="18.408817"><ele>4.5</ele></trkpt>
   <trkpt lat="54.797277" lon="18.409051"><ele>4.25</ele></trkpt>
   <trkpt lat="54.796643" lon="18.410552"><ele>2</ele></trkpt>
   <trkpt lat="54.79477" lon="18.414928"><ele>0.75</ele></trkpt>
   <trkpt lat="54.794133" lon="18.416415"><ele>0.75</ele></trkpt>
   <trkpt lat="54.794108" lon="18.416471"><ele>0.75</ele></trkpt>
   <trkpt lat="54.793542" lon="18.417794"><ele>0</ele></trkpt>
   <trkpt lat="54.791365" lon="18.422879"><ele>0</ele></trkpt>
   <trkpt lat="54.789427" lon="18.427412"><ele>0.25</ele></trkpt>
   <trkpt lat="54.789105" lon="18.428164"><ele>-0.75</ele></trkpt>
   <trkpt lat="54.788685" lon="18.429144"><ele>1.5</ele></trkpt>
   <trkpt lat="54.784117" lon="18.439812"><ele>1.5</ele></trkpt>
   <trkpt lat="54.784075" lon="18.439915"><ele>1.5</ele></trkpt>
   <trkpt lat="54.783867" lon="18.44043"><ele>1</ele></trkpt>
   <trkpt lat="54.783607" lon="18.441108"><ele>0.75</ele></trkpt>
   <trkpt lat="54.782202" lon="18.444913"><ele>3</ele></trkpt>
   <trkpt lat="54.782042" lon="18.445363"><ele>2.75</ele></trkpt>
   <trkpt lat="54.781891" lon="18.445812"><ele>2.5</ele></trkpt>
   <trkpt lat="54.781744" lon="18.446284"><ele>2.5</ele></trkpt>
   <trkpt lat="54.781601" lon="18.446788"><ele>2.75</ele></trkpt>
   <trkpt lat="54.781019" lon="18.448976"><ele>2</ele></trkpt>
   <trkpt lat="54.780829" lon="18.449669"><ele>1.75</ele></trkpt>
   <trkpt lat="54.780751" lon="18.449927"><ele>1.75</ele></trkpt>
   <trkpt lat="54.780586" lon="18.450447"><ele>1.5</ele></trkpt>
   <trkpt lat="54.780504" lon="18.450666"><ele>1.5</ele></trkpt>
   <trkpt lat="54.780409" lon="18.45091"><ele>1.25</ele></trkpt>
   <trkpt lat="54.780215" lon="18.451367"><ele>1.5</ele></trkpt>
   <trkpt lat="54.779527" lon="18.452854"><ele>1.75</ele></trkpt>
   <trkpt lat="54.779513" lon="18.452889"><ele>1.75</ele></trkpt>
   <trkpt lat="54.779398" lon="18.453133"><ele>1.75</ele></trkpt>
   <trkpt lat="54.777905" lon="18.456326"><ele>1.25</ele></trkpt>
   <trkpt lat="54.776566" lon="18.459191"><ele>1.75</ele></trkpt>
   <trkpt lat="54.776447" lon="18.459455"><ele>2</ele></trkpt>
   <trkpt lat="54.776221" lon="18.45999"><ele>2.25</ele></trkpt>
   <trkpt lat="54.776126" lon="18.460236"><ele>2</ele></trkpt>
   <trkpt lat="54.775918" lon="18.460823"><ele>2.25</ele></trkpt>
   <trkpt lat="54.774544" lon="18.464876"><ele>1.5</ele></trkpt>
   <trkpt lat="54.77433" lon="18.465536"><ele>0.5</ele></trkpt>
   <trkpt lat="54.77425" lon="18.465818"><ele>0.25</ele></trkpt>
   <trkpt lat="54.774131" lon="18.466298"><ele>1</ele></trkpt>
   <trkpt lat="54.774061" lon="18.466628"><ele>1.5</ele></trkpt>
   <trkpt lat="54.774009" lon="18.466912"><ele>1.5</ele></trkpt>
   <trkpt lat="54.773911" lon="18.467579"><ele>1.75</ele></trkpt>
   <trkpt lat="54.773762" lon="18.468846"><ele>2.5</ele></trkpt>
   <trkpt lat="54.773666" lon="18.469587"><ele>2.25</ele></trkpt>
   <trkpt lat="54.773611" lon="18.469917"><ele>2.25</ele></trkpt>
   <trkpt lat="54.773559" lon="18.470188"><ele>1.75</ele></trkpt>
   <trkpt lat="54.77342" lon="18.470783"><ele>1</ele></trkpt>
   <trkpt lat="54.77327" lon="18.471291"><ele>1.25</ele></trkpt>
   <trkpt lat="54.77309" lon="18.471809"><ele>1</ele></trkpt>
   <trkpt lat="54.772956" lon="18.472156"><ele>0.25</ele></trkpt>
   <trkpt lat="54.770432" lon="18.478503"><ele>0.5</ele></trkpt>
   <trkpt lat="54.770091" lon="18.479363"><ele>0.75</ele></trkpt>
   <trkpt lat="54.765949" lon="18.48982"><ele>1.5</ele></trkpt>
   <trkpt lat="54.765011" lon="18.492201"><ele>1.5</ele></trkpt>
   <trkpt lat="54.764851" lon="18.492607"><ele>1.5</ele></trkpt>
   <trkpt lat="54.764578" lon="18.493373"><ele>2</ele></trkpt>
   <trkpt lat="54.762571" lon="18.499518"><ele>1.5</ele></trkpt>
   <trkpt lat="54.761558" lon="18.502622"><ele>1.75</ele></trkpt>
   <trkpt lat="54.761044" lon="18.504195"><ele>0.5</ele></trkpt>
   <trkpt lat="54.760912" lon="18.504649"><ele>-0.25</ele></trkpt>
   <trkpt lat="54.760746" lon="18.505296"><ele>-0.5</ele></trkpt>
   <trkpt lat="54.76073" lon="18.50537"><ele>-0.5</ele></trkpt>
   <trkpt lat="54.760643" lon="18.505784"><ele>-0.25</ele></trkpt>
   <trkpt lat="54.760541" lon="18.506322"><ele>0.25</ele></trkpt>
   <trkpt lat="54.760318" lon="18.507583"><ele>0.5</ele></trkpt>
   <trkpt lat="54.759967" lon="18.509531"><ele>1.75</ele></trkpt>
   <trkpt lat="54.759922" lon="18.509768"><ele>2</ele></trkpt>
   <trkpt lat="54.759803" lon="18.510308"><ele>2</ele></trkpt>
   <trkpt lat="54.759613" lon="18.511056"><ele>1.25</ele></trkpt>
   <trkpt lat="54.759441" lon="18.511646"><ele>1.25</ele></trkpt>
   <trkpt lat="54.759283" lon="18.512136"><ele>0.75</ele></trkpt>
   <trkpt lat="54.759059" lon="18.512763"><ele>1.25</ele></trkpt>
   <trkpt lat="54.758711" lon="18.513638"><ele>1.25</ele></trkpt>
   <trkpt lat="54.758407" lon="18.514389"><ele>1.25</ele></trkpt>
   <trkpt lat="54.756932" lon="18.518044"><ele>2.25</ele></trkpt>
   <trkpt lat="54.756733" lon="18.518567"><ele>2</ele></trkpt>
   <trkpt lat="54.756456" lon="18.519367"><ele>1.75</ele></trkpt>
   <trkpt lat="54.753667" lon="18.528153"><ele>-0.25</ele></trkpt>
   <trkpt lat="54.753458" lon="18.528793"><ele>-0.25</ele></trkpt>
   <trkpt lat="54.753334" lon="18.529136"><ele>0</ele></trkpt>
   <trkpt lat="54.753096" lon="18.529758"><ele>0</ele></trkpt>
   <trkpt lat="54.751899" lon="18.532725"><ele>0.5</ele></trkpt>
   <trkpt lat="54.746763" lon="18.54546"><ele>0.75</ele></trkpt>
   <trkpt lat="54.746473" lon="18.54618"><ele>1</ele></trkpt>
   <trkpt lat="54.741605" lon="18.558182"><ele>1.25</ele></trkpt>
   <trkpt lat="54.741083" lon="18.559483"><ele>1.5</ele></trkpt>
   <trkpt lat="54.740977" lon="18.559771"><ele>1.5</ele></trkpt>
   <trkpt lat="54.740887" lon="18.560038"><ele>1.5</ele></trkpt>
   <trkpt lat="54.740714" lon="18.560583"><ele>1.5</ele></trkpt>
   <trkpt lat="54.739153" lon="18.566155"><ele>2.25</ele></trkpt>
   <trkpt lat="54.737518" lon="18.571997"><ele>0.5</ele></trkpt>
   <trkpt lat="54.737351" lon="18.572591"><ele>0.25</ele></trkpt>
   <trkpt lat="54.737113" lon="18.573442"><ele>0.25</ele></trkpt>
   <trkpt lat="54.736519" lon="18.575584"><ele>0.25</ele></trkpt>
   <trkpt lat="54.736394" lon="18.576087"><ele>0.75</ele></trkpt>
   <trkpt lat="54.736275" lon="18.576622"><ele>1.5</ele></trkpt>
   <trkpt lat="54.736174" lon="18.577148"><ele>1.5</ele></trkpt>
   <trkpt lat="54.736083" lon="18.577679"><ele>1.75</ele></trkpt>
   <trkpt lat="54.736002" lon="18.578224"><ele>2.25</ele></trkpt>
   <trkpt lat="54.735937" lon="18.578734"><ele>2</ele></trkpt>
   <trkpt lat="54.735778" lon="18.580165"><ele>1.5</ele></trkpt>
   <trkpt lat="54.735741" lon="18.580487"><ele>1</ele></trkpt>
   <trkpt lat="54.735655" lon="18.581282"><ele>0.25</ele></trkpt>
   <trkpt lat="54.735614" lon="18.581595"><ele>0</ele></trkpt>
   <trkpt lat="54.735561" lon="18.581926"><ele>0</ele></trkpt>
   <trkpt lat="54.735504" lon="18.582232"><ele>0</ele></trkpt>
   <trkpt lat="54.735442" lon="18.582503"><ele>0</ele></trkpt>
   <trkpt lat="54.735369" lon="18.582768"><ele>0</ele></trkpt>
   <trkpt lat="54.735301" lon="18.582985"><ele>0</ele></trkpt>
   <trkpt lat="54.735223" lon="18.583202"><ele>0.25</ele></trkpt>
   <trkpt lat="54.735145" lon="18.583398"><ele>0.25</ele></trkpt>
   <trkpt lat="54.735029" lon="18.583648"><ele>0.25</ele></trkpt>
   <trkpt lat="54.734886" lon="18.583917"><ele>0.5</ele></trkpt>
   <trkpt lat="54.734735" lon="18.584174"><ele>0.5</ele></trkpt>
   <trkpt lat="54.734499" lon="18.584517"><ele>0.25</ele></trkpt>
   <trkpt lat="54.734313" lon="18.584746"><ele>0.5</ele></trkpt>
   <trkpt lat="54.73411" lon="18.584969"><ele>0.75</ele></trkpt>
   <trkpt lat="54.733655" lon="18.585421"><ele>1.25</ele></trkpt>
   <trkpt lat="54.733482" lon="18.585592"><ele>1.5</ele></trkpt>
   <trkpt lat="54.733286" lon="18.585814"><ele>1.75</ele></trkpt>
   <trkpt lat="54.733031" lon="18.586131"><ele>1.5</ele></trkpt>
   <trkpt lat="54.732764" lon="18.586502"><ele>1.25</ele></trkpt>
   <trkpt lat="54.732525" lon="18.586878"><ele>1.25</ele></trkpt>
   <trkpt lat="54.732372" lon="18.587144"><ele>1.25</ele></trkpt>
   <trkpt lat="54.732265" lon="18.587349"><ele>1.5</ele></trkpt>
   <trkpt lat="54.732101" lon="18.58767"><ele>1.5</ele></trkpt>
   <trkpt lat="54.731933" lon="18.588038"><ele>1.5</ele></trkpt>
   <trkpt lat="54.731713" lon="18.5886"><ele>1.25</ele></trkpt>
   <trkpt lat="54.731478" lon="18.58929"><ele>1.75</ele></trkpt>
   <trkpt lat="54.731338" lon="18.589741"><ele>1.5</ele></trkpt>
   <trkpt lat="54.730767" lon="18.591661"><ele>1</ele></trkpt>
   <trkpt lat="54.729714" lon="18.595136"><ele>0.25</ele></trkpt>
   <trkpt lat="54.728787" lon="18.598222"><ele>0.75</ele></trkpt>
   <trkpt lat="54.727371" lon="18.602935"><ele>2</ele></trkpt>
   <trkpt lat="54.727154" lon="18.603625"><ele>1.75</ele></trkpt>
   <trkpt lat="54.726937" lon="18.604227"><ele>1.5</ele></trkpt>
   <trkpt lat="54.726189" lon="18.606223"><ele>1</ele></trkpt>
   <trkpt lat="54.725983" lon="18.606796"><ele>1</ele></trkpt>
   <trkpt lat="54.725812" lon="18.607306"><ele>1</ele></trkpt>
   <trkpt lat="54.725706" lon="18.607627"><ele>0.25</ele></trkpt>
   <trkpt lat="54.725579" lon="18.608027"><ele>0.25</ele></trkpt>
   <trkpt lat="54.725338" lon="18.608823"><ele>0.25</ele></trkpt>
   <trkpt lat="54.724494" lon="18.611844"><ele>0</ele></trkpt>
   <trkpt lat="54.723328" lon="18.616007"><ele>0</ele></trkpt>
   <trkpt lat="54.723164" lon="18.616565"><ele>0</ele></trkpt>
   <trkpt lat="54.722981" lon="18.617103"><ele>0</ele></trkpt>
   <trkpt lat="54.722766" lon="18.617638"><ele>0</ele></trkpt>
   <trkpt lat="54.722522" lon="18.618169"><ele>0</ele></trkpt>
   <trkpt lat="54.722371" lon="18.61848"><ele>0</ele></trkpt>
   <trkpt lat="54.721332" lon="18.62054"><ele>0.5</ele></trkpt>
   <trkpt lat="54.721103" lon="18.621028"><ele>0.75</ele></trkpt>
   <trkpt lat="54.720975" lon="18.621321"><ele>0.75</ele></trkpt>
   <trkpt lat="54.720774" lon="18.621807"><ele>0.75</ele></trkpt>
   <trkpt lat="54.720545" lon="18.622419"><ele>0.75</ele></trkpt>
   <trkpt lat="54.719674" lon="18.624853"><ele>0.75</ele></trkpt>
   <trkpt lat="54.719256" lon="18.62602"><ele>1</ele></trkpt>
   <trkpt lat="54.718747" lon="18.627447"><ele>1.75</ele></trkpt>
   <trkpt lat="54.717876" lon="18.629866"><ele>2.75</ele></trkpt>
   <trkpt lat="54.717572" lon="18.630642"><ele>2.75</ele></trkpt>
   <trkpt lat="54.717414" lon="18.631027"><ele>3.25</ele></trkpt>
   <trkpt lat="54.715668" lon="18.63509"><ele>4.5</ele></trkpt>
   <trkpt lat="54.71458" lon="18.637628"><ele>3</ele></trkpt>
   <trkpt lat="54.714041" lon="18.638879"><ele>3.75</ele></trkpt>
   <trkpt lat="54.713566" lon="18.640105"><ele>4.25</ele></trkpt>
   <trkpt lat="54.710832" lon="18.647538"><ele>1</ele></trkpt>
   <trkpt lat="54.709693" lon="18.650628"><ele>1</ele></trkpt>
   <trkpt lat="54.708305" lon="18.654397"><ele>0.5</ele></trkpt>
   <trkpt lat="54.707934" lon="18.655415"><ele>1.5</ele></trkpt>
   <trkpt lat="54.706247" lon="18.659998"><ele>1.25</ele></trkpt>
   <trkpt lat="54.706047" lon="18.660566"><ele>1.5</ele></trkpt>
   <trkpt lat="54.705946" lon="18.660891"><ele>1.5</ele></trkpt>
   <trkpt lat="54.70586" lon="18.661211"><ele>1.5</ele></trkpt>
   <trkpt lat="54.705793" lon="18.661483"><ele>1.5</ele></trkpt>
   <trkpt lat="54.705724" lon="18.661808"><ele>1.5</ele></trkpt>
   <trkpt lat="54.705643" lon="18.662285"><ele>1.5</ele></trkpt>
   <trkpt lat="54.705556" lon="18.663075"><ele>2</ele></trkpt>
   <trkpt lat="54.705467" lon="18.664075"><ele>2</ele></trkpt>
   <trkpt lat="54.705462" lon="18.66414"><ele>2</ele></trkpt>
   <trkpt lat="54.705133" lon="18.66782"><ele>3.25</ele></trkpt>
   <trkpt lat="54.705053" lon="18.668553"><ele>3</ele></trkpt>
   <trkpt lat="54.705013" lon="18.668853"><ele>3</ele></trkpt>
   <trkpt lat="54.704958" lon="18.669144"><ele>2.75</ele></trkpt>
   <trkpt lat="54.704894" lon="18.66944"><ele>2</ele></trkpt>
   <trkpt lat="54.704816" lon="18.669759"><ele>1.5</ele></trkpt>
   <trkpt lat="54.704732" lon="18.670053"><ele>1.25</ele></trkpt>
   <trkpt lat="54.704556" lon="18.670571"><ele>1.25</ele></trkpt>
   <trkpt lat="54.704249" lon="18.671356"><ele>1.5</ele></trkpt>
   <trkpt lat="54.703706" lon="18.672711"><ele>2.75</ele></trkpt>
   <trkpt lat="54.703391" lon="18.673476"><ele>2</ele></trkpt>
   <trkpt lat="54.703213" lon="18.673881"><ele>1.75</ele></trkpt>
   <trkpt lat="54.703072" lon="18.674179"><ele>1.5</ele></trkpt>
   <trkpt lat="54.70296" lon="18.674399"><ele>1.5</ele></trkpt>
   <trkpt lat="54.702864" lon="18.674584"><ele>1.5</ele></trkpt>
   <trkpt lat="54.70245" lon="18.675308"><ele>1.25</ele></trkpt>
   <trkpt lat="54.701677" lon="18.676698"><ele>3</ele></trkpt>
   <trkpt lat="54.701356" lon="18.677283"><ele>2.5</ele></trkpt>
   <trkpt lat="54.700965" lon="18.677997"><ele>1.75</ele></trkpt>
   <trkpt lat="54.700686" lon="18.678472"><ele>1.75</ele></trkpt>
   <trkpt lat="54.699914" lon="18.679866"><ele>2</ele></trkpt>
   <trkpt lat="54.699729" lon="18.680224"><ele>1.5</ele></trkpt>
   <trkpt lat="54.699591" lon="18.680516"><ele>1</ele></trkpt>
   <trkpt lat="54.699455" lon="18.680851"><ele>0.75</ele></trkpt>
   <trkpt lat="54.69931" lon="18.681292"><ele>0.75</ele></trkpt>
   <trkpt lat="54.699238" lon="18.681558"><ele>1</ele></trkpt>
   <trkpt lat="54.699181" lon="18.681802"><ele>1.25</ele></trkpt>
   <trkpt lat="54.699103" lon="18.682209"><ele>2</ele></trkpt>
   <trkpt lat="54.699027" lon="18.682748"><ele>3.25</ele></trkpt>
   <trkpt lat="54.698892" lon="18.68397"><ele>4.5</ele></trkpt>
   <trkpt lat="54.698857" lon="18.68421"><ele>4.5</ele></trkpt>
   <trkpt lat="54.698808" lon="18.684489"><ele>4.25</ele></trkpt>
   <trkpt lat="54.698706" lon="18.684972"><ele>3.75</ele></trkpt>
   <trkpt lat="54.69858" lon="18.685437"><ele>3.25</ele></trkpt>
   <trkpt lat="54.698502" lon="18.685681"><ele>3.25</ele></trkpt>
   <trkpt lat="54.698344" lon="18.686116"><ele>3.25</ele></trkpt>
   <trkpt lat="54.698258" lon="18.686323"><ele>3.25</ele></trkpt>
   <trkpt lat="54.69802" lon="18.686834"><ele>3.5</ele></trkpt>
   <trkpt lat="54.697643" lon="18.687628"><ele>4</ele></trkpt>
   <trkpt lat="54.696533" lon="18.690001"><ele>3.75</ele></trkpt>
   <trkpt lat="54.696469" lon="18.690137"><ele>3.75</ele></trkpt>
   <trkpt lat="54.694198" lon="18.694957"><ele>6</ele></trkpt>
   <trkpt lat="54.693084" lon="18.69733"><ele>6</ele></trkpt>
   <trkpt lat="54.691901" lon="18.699851"><ele>6</ele></trkpt>
   <trkpt lat="54.690854" lon="18.702072"><ele>6</ele></trkpt>
   <trkpt lat="54.688849" lon="18.706327"><ele>7</ele></trkpt>
   <trkpt lat="54.688574" lon="18.706865"><ele>6.25</ele></trkpt>
   <trkpt lat="54.686475" lon="18.710708"><ele>5.5</ele></trkpt>
   <trkpt lat="54.684959" lon="18.713459"><ele>3</ele></trkpt>
   <trkpt lat="54.684859" lon="18.713642"><ele>3</ele></trkpt>
   <trkpt lat="54.683758" lon="18.715618"><ele>2.75</ele></trkpt>
   <trkpt lat="54.682269" lon="18.718337"><ele>5.25</ele></trkpt>
   <trkpt lat="54.680809" lon="18.720983"><ele>6</ele></trkpt>
   <trkpt lat="54.680151" lon="18.722175"><ele>6.5</ele></trkpt>
   <trkpt lat="54.678692" lon="18.724833"><ele>6.25</ele></trkpt>
   <trkpt lat="54.677563" lon="18.726867"><ele>8</ele></trkpt>
   <trkpt lat="54.674912" lon="18.731659"><ele>6</ele></trkpt>
   <trkpt lat="54.672487" lon="18.736033"><ele>5.25</ele></trkpt>
   <trkpt lat="54.667937" lon="18.744228"><ele>5.25</ele></trkpt>
   <trkpt lat="54.666274" lon="18.747221"><ele>4</ele></trkpt>
   <trkpt lat="54.661178" lon="18.756389"><ele>8.25</ele></trkpt>
   <trkpt lat="54.660069" lon="18.758427"><ele>9.75</ele></trkpt>
   <trkpt lat="54.656069" lon="18.765777"><ele>7.25</ele></trkpt>
   <trkpt lat="54.653929" lon="18.769715"><ele>8.75</ele></trkpt>
   <trkpt lat="54.651245" lon="18.774652"><ele>7.75</ele></trkpt>
   <trkpt lat="54.64977" lon="18.777351"><ele>6.25</ele></trkpt>
   <trkpt lat="54.648713" lon="18.779321"><ele>8</ele></trkpt>
   <trkpt lat="54.64832" lon="18.780082"><ele>9</ele></trkpt>
   <trkpt lat="54.647826" lon="18.781078"><ele>9</ele></trkpt>
   <trkpt lat="54.641986" lon="18.792864"><ele>8.5</ele></trkpt>
   <trkpt lat="54.641556" lon="18.793726"><ele>7.75</ele></trkpt>
   <trkpt lat="54.641198" lon="18.794375"><ele>8.5</ele></trkpt>
   <trkpt lat="54.640979" lon="18.794723"><ele>8.75</ele></trkpt>
   <trkpt lat="54.640935" lon="18.794785"><ele>8.75</ele></trkpt>
   <trkpt lat="54.640735" lon="18.795075"><ele>8.75</ele></trkpt>
   <trkpt lat="54.640482" lon="18.795414"><ele>9.25</ele></trkpt>
   <trkpt lat="54.640208" lon="18.795765"><ele>9.75</ele></trkpt>
   <trkpt lat="54.639944" lon="18.796066"><ele>10.25</ele></trkpt>
   <trkpt lat="54.635893" lon="18.800111"><ele>9.25</ele></trkpt>
   <trkpt lat="54.635462" lon="18.800493"><ele>9.25</ele></trkpt>
   <trkpt lat="54.635216" lon="18.800684"><ele>9</ele></trkpt>
   <trkpt lat="54.634971" lon="18.800851"><ele>9</ele></trkpt>
   <trkpt lat="54.63474" lon="18.800995"><ele>9</ele></trkpt>
   <trkpt lat="54.634483" lon="18.801133"><ele>8.75</ele></trkpt>
   <trkpt lat="54.63423" lon="18.801261"><ele>8.5</ele></trkpt>
   <trkpt lat="54.633208" lon="18.801714"><ele>6.75</ele></trkpt>
   <trkpt lat="54.627826" lon="18.804119"><ele>5.75</ele></trkpt>
   <trkpt lat="54.627739" lon="18.804158"><ele>5.75</ele></trkpt>
   <trkpt lat="54.626292" lon="18.804804"><ele>8</ele></trkpt>
   <trkpt lat="54.625973" lon="18.804933"><ele>8.75</ele></trkpt>
   <trkpt lat="54.625786" lon="18.804991"><ele>8.75</ele></trkpt>
   <trkpt lat="54.625616" lon="18.805043"><ele>8.5</ele></trkpt>
   <trkpt lat="54.62528" lon="18.805118"><ele>8.25</ele></trkpt>
   <trkpt lat="54.624967" lon="18.805164"><ele>7.75</ele></trkpt>
   <trkpt lat="54.624641" lon="18.805189"><ele>7.5</ele></trkpt>
   <trkpt lat="54.624355" lon="18.805189"><ele>7</ele></trkpt>
   <trkpt lat="54.624028" lon="18.805164"><ele>7</ele></trkpt>
   <trkpt lat="54.6237" lon="18.805118"><ele>7</ele></trkpt>
   <trkpt lat="54.623328" lon="18.805032"><ele>7</ele></trkpt>
   <trkpt lat="54.618091" lon="18.803289"><ele>3.75</ele></trkpt>
   <trkpt lat="54.618074" lon="18.803283"><ele>3.75</ele></trkpt>
   <trkpt lat="54.617678" lon="18.803147"><ele>3.75</ele></trkpt>
   <trkpt lat="54.617384" lon="18.80305"><ele>3.5</ele></trkpt>
   <trkpt lat="54.616832" lon="18.802867"><ele>3</ele></trkpt>
   <trkpt lat="54.615879" lon="18.802547"><ele>2</ele></trkpt>
   <trkpt lat="54.615766" lon="18.802502"><ele>2</ele></trkpt>
   <trkpt lat="54.615466" lon="18.802336"><ele>2</ele></trkpt>
   <trkpt lat="54.61517" lon="18.802141"><ele>2</ele></trkpt>
   <trkpt lat="54.614952" lon="18.802016"><ele>1.75</ele></trkpt>
   <trkpt lat="54.614814" lon="18.801956"><ele>1.5</ele></trkpt>
   <trkpt lat="54.613543" lon="18.801532"><ele>0</ele></trkpt>
   <trkpt lat="54.61338" lon="18.801487"><ele>0</ele></trkpt>
   <trkpt lat="54.613019" lon="18.801414"><ele>0</ele></trkpt>
   <trkpt lat="54.612886" lon="18.801373"><ele>0</ele></trkpt>
   <trkpt lat="54.612753" lon="18.801332"><ele>0</ele></trkpt>
   <trkpt lat="54.612599" lon="18.801281"><ele>0</ele></trkpt>
   <trkpt lat="54.612465" lon="18.801222"><ele>0</ele></trkpt>
   <trkpt lat="54.612436" lon="18.801206"><ele>0</ele></trkpt>
   <trkpt lat="54.612007" lon="18.800985"><ele>1</ele></trkpt>
   <trkpt lat="54.611886" lon="18.800937"><ele>1.25</ele></trkpt>
   <trkpt lat="54.611196" lon="18.800708"><ele>1.75</ele></trkpt>
   <trkpt lat="54.610742" lon="18.800555"><ele>1.5</ele></trkpt>
   <trkpt lat="54.61034" lon="18.80045"><ele>1.5</ele></trkpt>
   <trkpt lat="54.610142" lon="18.80041"><ele>1.25</ele></trkpt>
   <trkpt lat="54.6099" lon="18.800376"><ele>1</ele></trkpt>
  </trkseg>
 </trk>
</gpx>