<?xml version="1.0" encoding="UTF-8"?>
<!-- track-length = 48426 filtered ascend = 87 plain-ascend = -10 cost=48453 energy=0.6kwh time=1h 4m 33s -->
<gpx 
 xmlns="http://www.topografix.com/GPX/1/1" 
 xmlns:xsi="http://www.w3.org/2001/XMLSchema-instance" 
 xsi:schemaLocation="http://www.topografix.com/GPX/1/1 http://www.topografix.com/GPX/1/1/gpx.xsd" 
 version="1.1" 
 creator="BRouter-Web 0.18.1">
 <trk>
  <name>gesundbrhbf</name>
  <trkseg>
   <trkpt lat="52.313454" lon="13.424261"><ele>49.5</ele></trkpt>
   <trkpt lat="52.313923" lon="13.424101"><ele>49</ele></trkpt>
   <trkpt lat="52.314678" lon="13.423854"><ele>49.25</ele></trkpt>
   <trkpt lat="52.315875" lon="13.423436"><ele>49</ele></trkpt>
   <trkpt lat="52.316698" lon="13.423146"><ele>47.25</ele></trkpt>
   <trkpt lat="52.31704" lon="13.423043"><ele>46</ele></trkpt>
   <trkpt lat="52.318034" lon="13.422698"><ele>42.5</ele></trkpt>
   <trkpt lat="52.320003" lon="13.42203"><ele>42</ele></trkpt>
   <trkpt lat="52.320221" lon="13.421958"><ele>42</ele></trkpt>
   <trkpt lat="52.322021" lon="13.421354"><ele>42.25</ele></trkpt>
   <trkpt lat="52.323757" lon="13.420756"><ele>41</ele></trkpt>
   <trkpt lat="52.325514" lon="13.42016"><ele>42</ele></trkpt>
   <trkpt lat="52.326406" lon="13.41985"><ele>42</ele></trkpt>
   <trkpt lat="52.326774" lon="13.419729"><ele>42.25</ele></trkpt>
   <trkpt lat="52.326978" lon="13.419659"><ele>42.75</ele></trkpt>
   <trkpt lat="52.327335" lon="13.419537"><ele>43.25</ele></trkpt>
   <trkpt lat="52.328886" lon="13.418996"><ele>44.5</ele></trkpt>
   <trkpt lat="52.329274" lon="13.418861"><ele>44.25</ele></trkpt>
   <trkpt lat="52.330481" lon="13.418446"><ele>45.75</ele></trkpt>
   <trkpt lat="52.331864" lon="13.41797"><ele>44.75</ele></trkpt>
   <trkpt lat="52.331879" lon="13.417965"><ele>44.75</ele></trkpt>
   <trkpt lat="52.332166" lon="13.417869"><ele>43.75</ele></trkpt>
   <trkpt lat="52.332541" lon="13.417734"><ele>42.5</ele></trkpt>
   <trkpt lat="52.333573" lon="13.417402"><ele>44.25</ele></trkpt>
   <trkpt lat="52.335517" lon="13.416717"><ele>44.75</ele></trkpt>
   <trkpt lat="52.335728" lon="13.416642"><ele>44.25</ele></trkpt>
   <trkpt lat="52.335836" lon="13.416605"><ele>43.75</ele></trkpt>
   <trkpt lat="52.335945" lon="13.416565"><ele>43.5</ele></trkpt>
   <trkpt lat="52.337072" lon="13.416181"><ele>41.75</ele></trkpt>
   <trkpt lat="52.337185" lon="13.416146"><ele>41.75</ele></trkpt>
   <trkpt lat="52.337506" lon="13.416038"><ele>41.25</ele></trkpt>
   <trkpt lat="52.337697" lon="13.415969"><ele>41.5</ele></trkpt>
   <trkpt lat="52.33773" lon="13.415956"><ele>41.5</ele></trkpt>
   <trkpt lat="52.337755" lon="13.415948"><ele>41.5</ele></trkpt>
   <trkpt lat="52.338187" lon="13.415738"><ele>42.5</ele></trkpt>
   <trkpt lat="52.338393" lon="13.415666"><ele>43</ele></trkpt>
   <trkpt lat="52.339237" lon="13.415369"><ele>43.75</ele></trkpt>
   <trkpt lat="52.340305" lon="13.415066"><ele>43.75</ele></trkpt>
   <trkpt lat="52.3409" lon="13.414865"><ele>43.75</ele></trkpt>
   <trkpt lat="52.341114" lon="13.414796"><ele>43.5</ele></trkpt>
   <trkpt lat="52.341368" lon="13.414725"><ele>43.5</ele></trkpt>
   <trkpt lat="52.342345" lon="13.414491"><ele>44.25</ele></trkpt>
   <trkpt lat="52.342451" lon="13.414461"><ele>44.5</ele></trkpt>
   <trkpt lat="52.342788" lon="13.414386"><ele>45.25</ele></trkpt>
   <trkpt lat="52.343044" lon="13.41433"><ele>45.5</ele></trkpt>
   <trkpt lat="52.343591" lon="13.414186"><ele>46</ele></trkpt>
   <trkpt lat="52.344005" lon="13.414051"><ele>46</ele></trkpt>
   <trkpt lat="52.344772" lon="13.413788"><ele>46</ele></trkpt>
   <trkpt lat="52.344899" lon="13.413744"><ele>46</ele></trkpt>
   <trkpt lat="52.345791" lon="13.413434"><ele>46</ele></trkpt>
   <trkpt lat="52.346257" lon="13.413288"><ele>46</ele></trkpt>
   <trkpt lat="52.346441" lon="13.41324"><ele>46</ele></trkpt>
   <trkpt lat="52.346689" lon="13.413187"><ele>45.75</ele></trkpt>
   <trkpt lat="52.346939" lon="13.413149"><ele>45.5</ele></trkpt>
   <trkpt lat="52.347129" lon="13.413134"><ele>45.5</ele></trkpt>
   <trkpt lat="52.347324" lon="13.413132"><ele>45.25</ele></trkpt>
   <trkpt lat="52.347512" lon="13.413141"><ele>45</ele></trkpt>
   <trkpt lat="52.347829" lon="13.413183"><ele>45.25</ele></trkpt>
   <trkpt lat="52.34801" lon="13.413218"><ele>45.5</ele></trkpt>
   <trkpt lat="52.348366" lon="13.413326"><ele>46</ele></trkpt>
   <trkpt lat="52.348706" lon="13.413468"><ele>46.75</ele></trkpt>
   <trkpt lat="52.348956" lon="13.413597"><ele>47.5</ele></trkpt>
   <trkpt lat="52.349182" lon="13.413731"><ele>47.75</ele></trkpt>
   <trkpt lat="52.349374" lon="13.413862"><ele>47.75</ele></trkpt>
   <trkpt lat="52.349651" lon="13.414081"><ele>47.25</ele></trkpt>
   <trkpt lat="52.349831" lon="13.414242"><ele>47</ele></trkpt>
   <trkpt lat="52.350002" lon="13.414409"><ele>46.5</ele></trkpt>
   <trkpt lat="52.350157" lon="13.414571"><ele>46</ele></trkpt>
   <trkpt lat="52.350447" lon="13.414912"><ele>45.5</ele></trkpt>
   <trkpt lat="52.350725" lon="13.415283"><ele>45.25</ele></trkpt>
   <trkpt lat="52.350955" lon="13.415636"><ele>45.5</ele></trkpt>
   <trkpt lat="52.351108" lon="13.415895"><ele>45.25</ele></trkpt>
   <trkpt lat="52.351322" lon="13.416293"><ele>45</ele></trkpt>
   <trkpt lat="52.351478" lon="13.41661"><ele>44.5</ele></trkpt>
   <trkpt lat="52.351606" lon="13.416913"><ele>44.25</ele></trkpt>
   <trkpt lat="52.351727" lon="13.417221"><ele>44.75</ele></trkpt>
   <trkpt lat="52.351855" lon="13.41757"><ele>45.75</ele></trkpt>
   <trkpt lat="52.352009" lon="13.418008"><ele>46.25</ele></trkpt>
   <trkpt lat="52.352066" lon="13.418203"><ele>46.5</ele></trkpt>
   <trkpt lat="52.352072" lon="13.418222"><ele>46.5</ele></trkpt>
   <trkpt lat="52.352438" lon="13.419479"><ele>44.75</ele></trkpt>
   <trkpt lat="52.352574" lon="13.420005"><ele>44.25</ele></trkpt>
   <trkpt lat="52.353054" lon="13.421737"><ele>45.25</ele></trkpt>
   <trkpt lat="52.353228" lon="13.422419"><ele>45</ele></trkpt>
   <trkpt lat="52.353479" lon="13.42332"><ele>44.5</ele></trkpt>
   <trkpt lat="52.353747" lon="13.424212"><ele>44.75</ele></trkpt>
   <trkpt lat="52.353835" lon="13.424557"><ele>44.25</ele></trkpt>
   <trkpt lat="52.35394" lon="13.424986"><ele>43.75</ele></trkpt>
   <trkpt lat="52.35445" lon="13.42723"><ele>43</ele></trkpt>
   <trkpt lat="52.354517" lon="13.427504"><ele>42.75</ele></trkpt>
   <trkpt lat="52.354696" lon="13.428186"><ele>41.5</ele></trkpt>
   <trkpt lat="52.354706" lon="13.428228"><ele>41.5</ele></trkpt>
   <trkpt lat="52.355125" lon="13.429979"><ele>40.75</ele></trkpt>
   <trkpt lat="52.35515" lon="13.43007"><ele>40.75</ele></trkpt>
   <trkpt lat="52.355276" lon="13.430524"><ele>41.25</ele></trkpt>
   <trkpt lat="52.35549" lon="13.431233"><ele>42</ele></trkpt>
   <trkpt lat="52.355982" lon="13.432785"><ele>42.75</ele></trkpt>
   <trkpt lat="52.356112" lon="13.433174"><ele>42.25</ele></trkpt>
   <trkpt lat="52.35613" lon="13.433226"><ele>42.25</ele></trkpt>
   <trkpt lat="52.356335" lon="13.433822"><ele>42</ele></trkpt>
   <trkpt lat="52.356566" lon="13.434455"><ele>42.25</ele></trkpt>
   <trkpt lat="52.357008" lon="13.435616"><ele>44</ele></trkpt>
   <trkpt lat="52.357337" lon="13.436432"><ele>45.5</ele></trkpt>
   <trkpt lat="52.357703" lon="13.437292"><ele>45.5</ele></trkpt>
   <trkpt lat="52.358077" lon="13.438141"><ele>44.25</ele></trkpt>
   <trkpt lat="52.359294" lon="13.440891"><ele>43</ele></trkpt>
   <trkpt lat="52.360101" lon="13.442716"><ele>45.75</ele></trkpt>
   <trkpt lat="52.360142" lon="13.44281"><ele>45.5</ele></trkpt>
   <trkpt lat="52.360701" lon="13.444072"><ele>44</ele></trkpt>
   <trkpt lat="52.361114" lon="13.444987"><ele>43.5</ele></trkpt>
   <trkpt lat="52.362301" lon="13.447611"><ele>44</ele></trkpt>
   <trkpt lat="52.362331" lon="13.447681"><ele>44</ele></trkpt>
   <trkpt lat="52.362804" lon="13.448874"><ele>43.75</ele></trkpt>
   <trkpt lat="52.363355" lon="13.450312"><ele>43.25</ele></trkpt>
   <trkpt lat="52.363833" lon="13.451572"><ele>43.5</ele></trkpt>
   <trkpt lat="52.364012" lon="13.452114"><ele>42.5</ele></trkpt>
   <trkpt lat="52.364178" lon="13.452679"><ele>42</ele></trkpt>
   <trkpt lat="52.364268" lon="13.453031"><ele>42</ele></trkpt>
   <trkpt lat="52.36443" lon="13.453735"><ele>42.25</ele></trkpt>
   <trkpt lat="52.364504" lon="13.454094"><ele>42.25</ele></trkpt>
   <trkpt lat="52.364571" lon="13.454456"><ele>42</ele></trkpt>
   <trkpt lat="52.364678" lon="13.455166"><ele>41.25</ele></trkpt>
   <trkpt lat="52.364723" lon="13.455508"><ele>41.25</ele></trkpt>
   <trkpt lat="52.36476" lon="13.455853"><ele>40.75</ele></trkpt>
   <trkpt lat="52.364797" lon="13.456266"><ele>40.25</ele></trkpt>
   <trkpt lat="52.364844" lon="13.457125"><ele>40</ele></trkpt>
   <trkpt lat="52.364858" lon="13.45752"><ele>39.75</ele></trkpt>
   <trkpt lat="52.364819" lon="13.458243"><ele>39</ele></trkpt>
   <trkpt lat="52.36471" lon="13.459285"><ele>39</ele></trkpt>
   <trkpt lat="52.364667" lon="13.459609"><ele>39.25</ele></trkpt>
   <trkpt lat="52.364561" lon="13.460245"><ele>39.25</ele></trkpt>
   <trkpt lat="52.364436" lon="13.460876"><ele>38.75</ele></trkpt>
   <trkpt lat="52.364297" lon="13.461484"><ele>38</ele></trkpt>
   <trkpt lat="52.363628" lon="13.464251"><ele>38.25</ele></trkpt>
   <trkpt lat="52.363457" lon="13.465063"><ele>38.75</ele></trkpt>
   <trkpt lat="52.363361" lon="13.465606"><ele>38.75</ele></trkpt>
   <trkpt lat="52.363285" lon="13.466049"><ele>39</ele></trkpt>
   <trkpt lat="52.363179" lon="13.466788"><ele>39.75</ele></trkpt>
   <trkpt lat="52.363094" lon="13.467543"><ele>39.75</ele></trkpt>
   <trkpt lat="52.363025" lon="13.468287"><ele>39.25</ele></trkpt>
   <trkpt lat="52.362942" lon="13.469308"><ele>38.75</ele></trkpt>
   <trkpt lat="52.362856" lon="13.470387"><ele>38.25</ele></trkpt>
   <trkpt lat="52.362802" lon="13.470949"><ele>38.25</ele></trkpt>
   <trkpt lat="52.362742" lon="13.471459"><ele>38.75</ele></trkpt>
   <trkpt lat="52.362602" lon="13.472518"><ele>39</ele></trkpt>
   <trkpt lat="52.362521" lon="13.473066"><ele>39</ele></trkpt>
   <trkpt lat="52.362432" lon="13.473609"><ele>39</ele></trkpt>
   <trkpt lat="52.362288" lon="13.474381"><ele>39.5</ele></trkpt>
   <trkpt lat="52.362046" lon="13.475534"><ele>40.5</ele></trkpt>
   <trkpt lat="52.36201" lon="13.475685"><ele>40.5</ele></trkpt>
   <trkpt lat="52.361772" lon="13.476699"><ele>40.75</ele></trkpt>
   <trkpt lat="52.360445" lon="13.482058"/>
   <trkpt lat="52.360217" lon="13.483314"/>
   <trkpt lat="52.359998" lon="13.48488"/>
   <trkpt lat="52.359884" lon="13.486426"/>
   <trkpt lat="52.359838" lon="13.488041"/>
   <trkpt lat="52.359899" lon="13.489701"><ele>44.75</ele></trkpt>
   <trkpt lat="52.360018" lon="13.491185"><ele>44.75</ele></trkpt>
   <trkpt lat="52.360144" lon="13.492227"><ele>44.75</ele></trkpt>
   <trkpt lat="52.360343" lon="13.49339"><ele>44.75</ele></trkpt>
   <trkpt lat="52.360586" lon="13.494428"><ele>44.75</ele></trkpt>
   <trkpt lat="52.361354" lon="13.497698"><ele>44.75</ele></trkpt>
   <trkpt lat="52.361358" lon="13.497714"><ele>44.75</ele></trkpt>
   <trkpt lat="52.362125" lon="13.500962"><ele>44.75</ele></trkpt>
   <trkpt lat="52.362492" lon="13.502411"><ele>44.75</ele></trkpt>
   <trkpt lat="52.362646" lon="13.5031"><ele>44.75</ele></trkpt>
   <trkpt lat="52.363069" lon="13.505075"><ele>44.75</ele></trkpt>
   <trkpt lat="52.363073" lon="13.505091"><ele>44.75</ele></trkpt>
   <trkpt lat="52.363484" lon="13.506979"><ele>44.75</ele></trkpt>
   <trkpt lat="52.363548" lon="13.507272"><ele>44.75</ele></trkpt>
   <trkpt lat="52.364802" lon="13.512517"><ele>44.75</ele></trkpt>
   <trkpt lat="52.364873" lon="13.512801"><ele>44.75</ele></trkpt>
   <trkpt lat="52.365046" lon="13.513494"><ele>44.75</ele></trkpt>
   <trkpt lat="52.365396" lon="13.514804"><ele>44.75</ele></trkpt>
   <trkpt lat="52.365402" lon="13.514825"><ele>44.75</ele></trkpt>
   <trkpt lat="52.365944" lon="13.516842"><ele>44.75</ele></trkpt>
   <trkpt lat="52.36631" lon="13.51831"><ele>44.75</ele></trkpt>
   <trkpt lat="52.366634" lon="13.519677"><ele>45.5</ele></trkpt>
   <trkpt lat="52.367014" lon="13.521271"><ele>45.75</ele></trkpt>
   <trkpt lat="52.367208" lon="13.522135"><ele>45.25</ele></trkpt>
   <trkpt lat="52.367435" lon="13.523182"><ele>44</ele></trkpt>
   <trkpt lat="52.367469" lon="13.523331"><ele>44</ele></trkpt>
   <trkpt lat="52.367882" lon="13.525091"><ele>45</ele></trkpt>
   <trkpt lat="52.368161" lon="13.526258"><ele>44.5</ele></trkpt>
   <trkpt lat="52.36823" lon="13.526523"><ele>44.5</ele></trkpt>
   <trkpt lat="52.368436" lon="13.527255"><ele>44.75</ele></trkpt>
   <trkpt lat="52.368598" lon="13.527752"><ele>44.75</ele></trkpt>
   <trkpt lat="52.368748" lon="13.528173"><ele>45.25</ele></trkpt>
   <trkpt lat="52.368916" lon="13.528597"><ele>45.25</ele></trkpt>
   <trkpt lat="52.369066" lon="13.528936"><ele>45</ele></trkpt>
   <trkpt lat="52.369252" lon="13.529332"><ele>44.75</ele></trkpt>
   <trkpt lat="52.369439" lon="13.529704"><ele>44.5</ele></trkpt>
   <trkpt lat="52.369606" lon="13.530014"><ele>44.5</ele></trkpt>
   <trkpt lat="52.369938" lon="13.530585"><ele>44.25</ele></trkpt>
   <trkpt lat="52.370269" lon="13.531102"><ele>44</ele></trkpt>
   <trkpt lat="52.370475" lon="13.5314"><ele>44</ele></trkpt>
   <trkpt lat="52.370689" lon="13.531689"><ele>43.75</ele></trkpt>
   <trkpt lat="52.371008" lon="13.532084"><ele>43.25</ele></trkpt>
   <trkpt lat="52.371193" lon="13.532294"><ele>42.75</ele></trkpt>
   <trkpt lat="52.371396" lon="13.532505"><ele>42.25</ele></trkpt>
   <trkpt lat="52.371854" lon="13.532949"><ele>41.25</ele></trkpt>
   <trkpt lat="52.372195" lon="13.533234"><ele>41.25</ele></trkpt>
   <trkpt lat="52.372513" lon="13.533477"><ele>42</ele></trkpt>
   <trkpt lat="52.372999" lon="13.533793"><ele>42.75</ele></trkpt>
   <trkpt lat="52.37398" lon="13.534399"><ele>44.75</ele></trkpt>
   <trkpt lat="52.374225" lon="13.53455"><ele>45.25</ele></trkpt>
   <trkpt lat="52.374586" lon="13.534791"><ele>46.5</ele></trkpt>
   <trkpt lat="52.375041" lon="13.535128"><ele>47.5</ele></trkpt>
   <trkpt lat="52.375375" lon="13.535426"><ele>45</ele></trkpt>
   <trkpt lat="52.375785" lon="13.535848"><ele>41.25</ele></trkpt>
   <trkpt lat="52.37607" lon="13.536181"><ele>40.25</ele></trkpt>
   <trkpt lat="52.376261" lon="13.536429"><ele>40</ele></trkpt>
   <trkpt lat="52.376591" lon="13.536903"><ele>40</ele></trkpt>
   <trkpt lat="52.376804" lon="13.537244"><ele>40.5</ele></trkpt>
   <trkpt lat="52.376956" lon="13.537509"><ele>41</ele></trkpt>
   <trkpt lat="52.377107" lon="13.537799"><ele>40.75</ele></trkpt>
   <trkpt lat="52.377265" lon="13.538114"><ele>40.5</ele></trkpt>
   <trkpt lat="52.37742" lon="13.538449"><ele>40.25</ele></trkpt>
   <trkpt lat="52.377543" lon="13.53874"><ele>40.25</ele></trkpt>
   <trkpt lat="52.37766" lon="13.539036"><ele>40.5</ele></trkpt>
   <trkpt lat="52.3778" lon="13.539416"><ele>41</ele></trkpt>
   <trkpt lat="52.377931" lon="13.539802"><ele>41.5</ele></trkpt>
   <trkpt lat="52.378036" lon="13.540148"><ele>42</ele></trkpt>
   <trkpt lat="52.378212" lon="13.540807"><ele>41.75</ele></trkpt>
   <trkpt lat="52.378369" lon="13.541494"><ele>41</ele></trkpt>
   <trkpt lat="52.378743" lon="13.543318"><ele>40</ele></trkpt>
   <trkpt lat="52.378929" lon="13.54422"><ele>39.5</ele></trkpt>
   <trkpt lat="52.37897" lon="13.544422"><ele>39.75</ele></trkpt>
   <trkpt lat="52.379232" lon="13.545691"><ele>40</ele></trkpt>
   <trkpt lat="52.379559" lon="13.547316"><ele>41.25</ele></trkpt>
   <trkpt lat="52.379901" lon="13.549139"><ele>42</ele></trkpt>
   <trkpt lat="52.379912" lon="13.549207"><ele>41.75</ele></trkpt>
   <trkpt lat="52.380388" lon="13.551891"><ele>39.25</ele></trkpt>
   <trkpt lat="52.380652" lon="13.553311"><ele>39.75</ele></trkpt>
   <trkpt lat="52.380823" lon="13.554141"><ele>40</ele></trkpt>
   <trkpt lat="52.381093" lon="13.555402"><ele>41.5</ele></trkpt>
   <trkpt lat="52.38144" lon="13.557011"><ele>45</ele></trkpt>
   <trkpt lat="52.381571" lon="13.557556"><ele>47.5</ele></trkpt>
   <trkpt lat="52.38168" lon="13.557952"><ele>49.5</ele></trkpt>
   <trkpt lat="52.381797" lon="13.558336"><ele>51.25</ele></trkpt>
   <trkpt lat="52.382043" lon="13.559019"><ele>51.25</ele></trkpt>
   <trkpt lat="52.382152" lon="13.559291"><ele>51.25</ele></trkpt>
   <trkpt lat="52.382316" lon="13.559664"><ele>51.5</ele></trkpt>
   <trkpt lat="52.382482" lon="13.560017"><ele>52</ele></trkpt>
   <trkpt lat="52.382809" lon="13.560623"><ele>51.75</ele></trkpt>
   <trkpt lat="52.384034" lon="13.562653"><ele>48.75</ele></trkpt>
   <trkpt lat="52.38426" lon="13.563072"><ele>47.75</ele></trkpt>
   <trkpt lat="52.384538" lon="13.563652"><ele>48.75</ele></trkpt>
   <trkpt lat="52.384778" lon="13.56424"><ele>49.75</ele></trkpt>
   <trkpt lat="52.385004" lon="13.564883"><ele>50.75</ele></trkpt>
   <trkpt lat="52.385108" lon="13.565219"><ele>51</ele></trkpt>
   <trkpt lat="52.385265" lon="13.565795"><ele>51</ele></trkpt>
   <trkpt lat="52.38539" lon="13.566329"><ele>50.75</ele></trkpt>
   <trkpt lat="52.389016" lon="13.583216"><ele>49.5</ele></trkpt>
   <trkpt lat="52.389591" lon="13.585901"><ele>49.25</ele></trkpt>
   <trkpt lat="52.389843" lon="13.587077"><ele>48.25</ele></trkpt>
   <trkpt lat="52.390371" lon="13.58954"><ele>51</ele></trkpt>
   <trkpt lat="52.390438" lon="13.589852"><ele>51.25</ele></trkpt>
   <trkpt lat="52.390585" lon="13.590485"><ele>50.75</ele></trkpt>
   <trkpt lat="52.390739" lon="13.59111"><ele>49.75</ele></trkpt>
   <trkpt lat="52.390905" lon="13.591838"><ele>49</ele></trkpt>
   <trkpt lat="52.390912" lon="13.591868"><ele>49</ele></trkpt>
   <trkpt lat="52.391061" lon="13.592558"><ele>49</ele></trkpt>
   <trkpt lat="52.391252" lon="13.593367"><ele>48.75</ele></trkpt>
   <trkpt lat="52.391338" lon="13.593679"><ele>48.25</ele></trkpt>
   <trkpt lat="52.391414" lon="13.593936"><ele>48</ele></trkpt>
   <trkpt lat="52.391623" lon="13.594528"><ele>47.75</ele></trkpt>
   <trkpt lat="52.39185" lon="13.595034"><ele>48.25</ele></trkpt>
   <trkpt lat="52.392001" lon="13.595331"><ele>48.75</ele></trkpt>
   <trkpt lat="52.392215" lon="13.595697"><ele>49.25</ele></trkpt>
   <trkpt lat="52.392449" lon="13.596033"><ele>50</ele></trkpt>
   <trkpt lat="52.392649" lon="13.596278"><ele>49.75</ele></trkpt>
   <trkpt lat="52.392848" lon="13.596503"><ele>49.25</ele></trkpt>
   <trkpt lat="52.393077" lon="13.596715"><ele>48</ele></trkpt>
   <trkpt lat="52.393339" lon="13.596924"><ele>45.5</ele></trkpt>
   <trkpt lat="52.39356" lon="13.59707"><ele>43.75</ele></trkpt>
   <trkpt lat="52.39391" lon="13.59727"><ele>41.5</ele></trkpt>
   <trkpt lat="52.394205" lon="13.597387"><ele>40.25</ele></trkpt>
   <trkpt lat="52.39448" lon="13.597465"><ele>40.75</ele></trkpt>
   <trkpt lat="52.394703" lon="13.5975"><ele>41.25</ele></trkpt>
   <trkpt lat="52.394918" lon="13.597518"><ele>41.5</ele></trkpt>
   <trkpt lat="52.395125" lon="13.597513"><ele>42</ele></trkpt>
   <trkpt lat="52.39535" lon="13.597492"><ele>42.25</ele></trkpt>
   <trkpt lat="52.395601" lon="13.597446"><ele>43</ele></trkpt>
   <trkpt lat="52.395806" lon="13.597387"><ele>43.5</ele></trkpt>
   <trkpt lat="52.396012" lon="13.597307"><ele>43.25</ele></trkpt>
   <trkpt lat="52.396262" lon="13.597191"><ele>42.75</ele></trkpt>
   <trkpt lat="52.396472" lon="13.59707"><ele>42.25</ele></trkpt>
   <trkpt lat="52.396701" lon="13.596912"><ele>41.75</ele></trkpt>
   <trkpt lat="52.396961" lon="13.596697"><ele>41</ele></trkpt>
   <trkpt lat="52.396999" lon="13.596664"><ele>41</ele></trkpt>
   <trkpt lat="52.397379" lon="13.596261"><ele>40</ele></trkpt>
   <trkpt lat="52.397575" lon="13.596022"><ele>40</ele></trkpt>
   <trkpt lat="52.397863" lon="13.595615"><ele>40.25</ele></trkpt>
   <trkpt lat="52.398666" lon="13.594443"><ele>42</ele></trkpt>
   <trkpt lat="52.398685" lon="13.594415"><ele>42</ele></trkpt>
   <trkpt lat="52.398746" lon="13.594338"><ele>42.25</ele></trkpt>
   <trkpt lat="52.39914" lon="13.593819"><ele>43.25</ele></trkpt>
   <trkpt lat="52.399555" lon="13.593225"><ele>43.75</ele></trkpt>
   <trkpt lat="52.399666" lon="13.593051"><ele>44.25</ele></trkpt>
   <trkpt lat="52.40021" lon="13.59229"><ele>45.75</ele></trkpt>
   <trkpt lat="52.400616" lon="13.591705"><ele>44.25</ele></trkpt>
   <trkpt lat="52.400883" lon="13.591303"><ele>43.75</ele></trkpt>
   <trkpt lat="52.401745" lon="13.590007"><ele>43.75</ele></trkpt>
   <trkpt lat="52.402233" lon="13.589273"><ele>44</ele></trkpt>
   <trkpt lat="52.402401" lon="13.589019"><ele>44</ele></trkpt>
   <trkpt lat="52.402567" lon="13.588768"><ele>43.75</ele></trkpt>
   <trkpt lat="52.402898" lon="13.588271"><ele>43</ele></trkpt>
   <trkpt lat="52.402953" lon="13.588191"><ele>42.75</ele></trkpt>
   <trkpt lat="52.403497" lon="13.587368"><ele>40.75</ele></trkpt>
   <trkpt lat="52.403683" lon="13.587088"><ele>40.25</ele></trkpt>
   <trkpt lat="52.403793" lon="13.58693"><ele>40</ele></trkpt>
   <trkpt lat="52.405078" lon="13.58501"><ele>37.25</ele></trkpt>
   <trkpt lat="52.405644" lon="13.584118"><ele>37.25</ele></trkpt>
   <trkpt lat="52.405771" lon="13.583909"><ele>37.25</ele></trkpt>
   <trkpt lat="52.405776" lon="13.583902"><ele>37</ele></trkpt>
   <trkpt lat="52.406235" lon="13.583246"><ele>35.5</ele></trkpt>
   <trkpt lat="52.406326" lon="13.583088"><ele>35.25</ele></trkpt>
   <trkpt lat="52.407735" lon="13.580678"><ele>35</ele></trkpt>
   <trkpt lat="52.408173" lon="13.579977"><ele>35</ele></trkpt>
   <trkpt lat="52.408598" lon="13.579256"><ele>35.25</ele></trkpt>
   <trkpt lat="52.409048" lon="13.578537"><ele>35</ele></trkpt>
   <trkpt lat="52.409562" lon="13.577777"><ele>35.75</ele></trkpt>
   <trkpt lat="52.410211" lon="13.576836"><ele>37</ele></trkpt>
   <trkpt lat="52.41033" lon="13.576677"><ele>37</ele></trkpt>
   <trkpt lat="52.410866" lon="13.575966"><ele>36</ele></trkpt>
   <trkpt lat="52.411064" lon="13.575633"><ele>36.25</ele></trkpt>
   <trkpt lat="52.411423" lon="13.57516"><ele>36.5</ele></trkpt>
   <trkpt lat="52.411973" lon="13.574444"><ele>36.5</ele></trkpt>
   <trkpt lat="52.412349" lon="13.573943"><ele>36.75</ele></trkpt>
   <trkpt lat="52.413003" lon="13.573075"><ele>35.5</ele></trkpt>
   <trkpt lat="52.413054" lon="13.573008"><ele>35.5</ele></trkpt>
   <trkpt lat="52.413194" lon="13.572823"><ele>35</ele></trkpt>
   <trkpt lat="52.41398" lon="13.571785"><ele>36.5</ele></trkpt>
   <trkpt lat="52.414419" lon="13.571172"><ele>37.5</ele></trkpt>
   <trkpt lat="52.414849" lon="13.570527"><ele>37</ele></trkpt>
   <trkpt lat="52.415292" lon="13.569822"><ele>37.25</ele></trkpt>
   <trkpt lat="52.415765" lon="13.568998"><ele>36.75</ele></trkpt>
   <trkpt lat="52.415882" lon="13.568795"><ele>36.5</ele></trkpt>
   <trkpt lat="52.416034" lon="13.568517"><ele>36.5</ele></trkpt>
   <trkpt lat="52.417376" lon="13.566082"><ele>35.25</ele></trkpt>
   <trkpt lat="52.417587" lon="13.565708"><ele>35</ele></trkpt>
   <trkpt lat="52.418203" lon="13.564661"><ele>35.25</ele></trkpt>
   <trkpt lat="52.418786" lon="13.563868"><ele>34.25</ele></trkpt>
   <trkpt lat="52.418831" lon="13.563805"><ele>34.25</ele></trkpt>
   <trkpt lat="52.419296" lon="13.563323"><ele>34</ele></trkpt>
   <trkpt lat="52.42038" lon="13.562286"><ele>34.5</ele></trkpt>
   <trkpt lat="52.420476" lon="13.562176"><ele>34.25</ele></trkpt>
   <trkpt lat="52.421495" lon="13.561009"><ele>35.5</ele></trkpt>
   <trkpt lat="52.421791" lon="13.560574"><ele>35.75</ele></trkpt>
   <trkpt lat="52.422158" lon="13.560035"><ele>36</ele></trkpt>
   <trkpt lat="52.422266" lon="13.559876"><ele>35.75</ele></trkpt>
   <trkpt lat="52.422521" lon="13.5595"><ele>35.25</ele></trkpt>
   <trkpt lat="52.422632" lon="13.559336"><ele>35</ele></trkpt>
   <trkpt lat="52.424593" lon="13.556443"><ele>35.5</ele></trkpt>
   <trkpt lat="52.425033" lon="13.555794"><ele>33.75</ele></trkpt>
   <trkpt lat="52.425067" lon="13.555742"><ele>33.75</ele></trkpt>
   <trkpt lat="52.425749" lon="13.554721"><ele>34</ele></trkpt>
   <trkpt lat="52.426107" lon="13.554195"><ele>33.5</ele></trkpt>
   <trkpt lat="52.426504" lon="13.553587"><ele>34.25</ele></trkpt>
   <trkpt lat="52.426862" lon="13.552986"><ele>34.25</ele></trkpt>
   <trkpt lat="52.427498" lon="13.551834"><ele>34.75</ele></trkpt>
   <trkpt lat="52.427853" lon="13.551254"><ele>34.5</ele></trkpt>
   <trkpt lat="52.428066" lon="13.550935"><ele>34.5</ele></trkpt>
   <trkpt lat="52.428516" lon="13.550263"><ele>34.5</ele></trkpt>
   <trkpt lat="52.428705" lon="13.54997"><ele>34.75</ele></trkpt>
   <trkpt lat="52.430437" lon="13.547375"><ele>34</ele></trkpt>
   <trkpt lat="52.431139" lon="13.546322"><ele>34.5</ele></trkpt>
   <trkpt lat="52.432495" lon="13.544374"><ele>34.25</ele></trkpt>
   <trkpt lat="52.433496" lon="13.542997"><ele>33.75</ele></trkpt>
   <trkpt lat="52.433579" lon="13.542885"><ele>34</ele></trkpt>
   <trkpt lat="52.434431" lon="13.541731"><ele>35</ele></trkpt>
   <trkpt lat="52.434989" lon="13.54094"><ele>34</ele></trkpt>
   <trkpt lat="52.435036" lon="13.540874"><ele>34</ele></trkpt>
   <trkpt lat="52.435411" lon="13.540326"><ele>35.25</ele></trkpt>
   <trkpt lat="52.435985" lon="13.539506"><ele>35.5</ele></trkpt>
   <trkpt lat="52.43638" lon="13.538982"><ele>34.75</ele></trkpt>
   <trkpt lat="52.436778" lon="13.53846"><ele>34.25</ele></trkpt>
   <trkpt lat="52.436834" lon="13.538386"><ele>34.25</ele></trkpt>
   <trkpt lat="52.437215" lon="13.53788"><ele>34.25</ele></trkpt>
   <trkpt lat="52.437557" lon="13.537411"><ele>35</ele></trkpt>
   <trkpt lat="52.438179" lon="13.536505"><ele>34.75</ele></trkpt>
   <trkpt lat="52.438184" lon="13.536498"><ele>34.75</ele></trkpt>
   <trkpt lat="52.440311" lon="13.533378"><ele>33.75</ele></trkpt>
   <trkpt lat="52.4417" lon="13.531339"><ele>33</ele></trkpt>
   <trkpt lat="52.442604" lon="13.530009"><ele>33.75</ele></trkpt>
   <trkpt lat="52.443842" lon="13.528193"><ele>32.75</ele></trkpt>
   <trkpt lat="52.444944" lon="13.526575"><ele>32</ele></trkpt>
   <trkpt lat="52.445619" lon="13.525577"><ele>33.25</ele></trkpt>
   <trkpt lat="52.445906" lon="13.525133"><ele>34</ele></trkpt>
   <trkpt lat="52.446098" lon="13.524803"><ele>33.75</ele></trkpt>
   <trkpt lat="52.446873" lon="13.523479"><ele>32.75</ele></trkpt>
   <trkpt lat="52.447082" lon="13.523121"><ele>32.5</ele></trkpt>
   <trkpt lat="52.447504" lon="13.522372"><ele>33</ele></trkpt>
   <trkpt lat="52.447697" lon="13.521995"><ele>33</ele></trkpt>
   <trkpt lat="52.448088" lon="13.521173"><ele>33</ele></trkpt>
   <trkpt lat="52.449168" lon="13.518863"><ele>32</ele></trkpt>
   <trkpt lat="52.44942" lon="13.518347"><ele>32.75</ele></trkpt>
   <trkpt lat="52.450119" lon="13.517043"><ele>33.5</ele></trkpt>
   <trkpt lat="52.450666" lon="13.516026"><ele>34.5</ele></trkpt>
   <trkpt lat="52.450943" lon="13.515536"><ele>35</ele></trkpt>
   <trkpt lat="52.451224" lon="13.515062"><ele>35.25</ele></trkpt>
   <trkpt lat="52.451479" lon="13.514652"><ele>35.5</ele></trkpt>
   <trkpt lat="52.451739" lon="13.514251"><ele>35.75</ele></trkpt>
   <trkpt lat="52.452858" lon="13.512521"><ele>34.25</ele></trkpt>
   <trkpt lat="52.453943" lon="13.510845"><ele>34.25</ele></trkpt>
   <trkpt lat="52.453994" lon="13.510766"><ele>34</ele></trkpt>
   <trkpt lat="52.454018" lon="13.510728"><ele>34</ele></trkpt>
   <trkpt lat="52.45415" lon="13.510525"><ele>33.5</ele></trkpt>
   <trkpt lat="52.454231" lon="13.510398"><ele>33.75</ele></trkpt>
   <trkpt lat="52.454246" lon="13.510374"><ele>33.75</ele></trkpt>
   <trkpt lat="52.454879" lon="13.509393"><ele>36</ele></trkpt>
   <trkpt lat="52.455532" lon="13.508387"><ele>35.5</ele></trkpt>
   <trkpt lat="52.455781" lon="13.508002"><ele>35.75</ele></trkpt>
   <trkpt lat="52.456752" lon="13.506505"><ele>34.75</ele></trkpt>
   <trkpt lat="52.456873" lon="13.506323"><ele>34.5</ele></trkpt>
   <trkpt lat="52.458819" lon="13.503312"><ele>33.75</ele></trkpt>
   <trkpt lat="52.458877" lon="13.503224"><ele>33.5</ele></trkpt>
   <trkpt lat="52.459005" lon="13.503024"><ele>33</ele></trkpt>
   <trkpt lat="52.4602" lon="13.501185"><ele>33.75</ele></trkpt>
   <trkpt lat="52.460208" lon="13.501173"><ele>33.75</ele></trkpt>
   <trkpt lat="52.460281" lon="13.501062"><ele>33.75</ele></trkpt>
   <trkpt lat="52.460392" lon="13.500888"><ele>33.75</ele></trkpt>
   <trkpt lat="52.460461" lon="13.500782"><ele>34</ele></trkpt>
   <trkpt lat="52.46204" lon="13.498345"><ele>34.25</ele></trkpt>
   <trkpt lat="52.462621" lon="13.497443"><ele>35</ele></trkpt>
   <trkpt lat="52.46283" lon="13.497107"><ele>35</ele></trkpt>
   <trkpt lat="52.463188" lon="13.496502"><ele>34.75</ele></trkpt>
   <trkpt lat="52.463643" lon="13.495686"><ele>33.5</ele></trkpt>
   <trkpt lat="52.464458" lon="13.49413"><ele>31.75</ele></trkpt>
   <trkpt lat="52.464626" lon="13.49383"><ele>31.75</ele></trkpt>
   <trkpt lat="52.464894" lon="13.493371"><ele>31.75</ele></trkpt>
   <trkpt lat="52.465121" lon="13.493003"><ele>33.5</ele></trkpt>
   <trkpt lat="52.465354" lon="13.492646"><ele>35</ele></trkpt>
   <trkpt lat="52.467455" lon="13.489515"><ele>37.5</ele></trkpt>
   <trkpt lat="52.467587" lon="13.489319"><ele>37.75</ele></trkpt>
   <trkpt lat="52.468227" lon="13.488331"><ele>37.75</ele></trkpt>
   <trkpt lat="52.468395" lon="13.488065"><ele>37.5</ele></trkpt>
   <trkpt lat="52.468467" lon="13.487952"><ele>37.25</ele></trkpt>
   <trkpt lat="52.469141" lon="13.486887"><ele>36</ele></trkpt>
   <trkpt lat="52.470061" lon="13.485399"><ele>34.5</ele></trkpt>
   <trkpt lat="52.470329" lon="13.484982"><ele>35.25</ele></trkpt>
   <trkpt lat="52.470881" lon="13.484179"><ele>34</ele></trkpt>
   <trkpt lat="52.471294" lon="13.483554"><ele>35</ele></trkpt>
   <trkpt lat="52.472745" lon="13.481401"><ele>36</ele></trkpt>
   <trkpt lat="52.472977" lon="13.481061"><ele>35.5</ele></trkpt>
   <trkpt lat="52.473156" lon="13.480794"><ele>35.75</ele></trkpt>
   <trkpt lat="52.473163" lon="13.480784"><ele>35.75</ele></trkpt>
   <trkpt lat="52.476211" lon="13.476357"><ele>35.75</ele></trkpt>
   <trkpt lat="52.476368" lon="13.476129"><ele>35.5</ele></trkpt>
   <trkpt lat="52.479614" lon="13.471431"><ele>32.25</ele></trkpt>
   <trkpt lat="52.481764" lon="13.46828"><ele>35</ele></trkpt>
   <trkpt lat="52.482585" lon="13.467079"><ele>34</ele></trkpt>
   <trkpt lat="52.482839" lon="13.466692"><ele>33.75</ele></trkpt>
   <trkpt lat="52.482958" lon="13.466499"><ele>33.75</ele></trkpt>
   <trkpt lat="52.483099" lon="13.466273"><ele>34</ele></trkpt>
   <trkpt lat="52.483292" lon="13.465959"><ele>34</ele></trkpt>
   <trkpt lat="52.483592" lon="13.465482"><ele>34.25</ele></trkpt>
   <trkpt lat="52.484771" lon="13.463574"><ele>35.75</ele></trkpt>
   <trkpt lat="52.484894" lon="13.463375"><ele>35.75</ele></trkpt>
   <trkpt lat="52.485038" lon="13.463126"><ele>35.5</ele></trkpt>
   <trkpt lat="52.485736" lon="13.461963"><ele>33.5</ele></trkpt>
   <trkpt lat="52.486031" lon="13.461486"><ele>33.25</ele></trkpt>
   <trkpt lat="52.486269" lon="13.46115"><ele>34</ele></trkpt>
   <trkpt lat="52.486499" lon="13.460858"><ele>35</ele></trkpt>
   <trkpt lat="52.486755" lon="13.460588"><ele>36</ele></trkpt>
   <trkpt lat="52.487009" lon="13.46036"><ele>37</ele></trkpt>
   <trkpt lat="52.487287" lon="13.460158"><ele>38</ele></trkpt>
   <trkpt lat="52.487439" lon="13.460062"><ele>38.5</ele></trkpt>
   <trkpt lat="52.487586" lon="13.459982"><ele>38.75</ele></trkpt>
   <trkpt lat="52.487898" lon="13.459858"><ele>38.25</ele></trkpt>
   <trkpt lat="52.488115" lon="13.45979"><ele>38</ele></trkpt>
   <trkpt lat="52.488346" lon="13.459741"><ele>37.5</ele></trkpt>
   <trkpt lat="52.488555" lon="13.459713"><ele>37.5</ele></trkpt>
   <trkpt lat="52.488863" lon="13.459722"><ele>37.25</ele></trkpt>
   <trkpt lat="52.489197" lon="13.459762"><ele>37.25</ele></trkpt>
   <trkpt lat="52.489553" lon="13.459835"><ele>37</ele></trkpt>
   <trkpt lat="52.489735" lon="13.459882"><ele>36.75</ele></trkpt>
   <trkpt lat="52.489778" lon="13.459891"><ele>36.5</ele></trkpt>
   <trkpt lat="52.489784" lon="13.459893"><ele>36.5</ele></trkpt>
   <trkpt lat="52.490024" lon="13.459947"><ele>36.25</ele></trkpt>
   <trkpt lat="52.490521" lon="13.460058"><ele>37</ele></trkpt>
   <trkpt lat="52.490932" lon="13.460163"><ele>38</ele></trkpt>
   <trkpt lat="52.491346" lon="13.460312"><ele>38.5</ele></trkpt>
   <trkpt lat="52.491737" lon="13.4605"><ele>38.75</ele></trkpt>
   <trkpt lat="52.492256" lon="13.460816"><ele>37.5</ele></trkpt>
   <trkpt lat="52.492616" lon="13.461049"><ele>36.75</ele></trkpt>
   <trkpt lat="52.492719" lon="13.46112"><ele>36.75</ele></trkpt>
   <trkpt lat="52.49284" lon="13.461221"><ele>36.75</ele></trkpt>
   <trkpt lat="52.493061" lon="13.461432"><ele>37</ele></trkpt>
   <trkpt lat="52.493575" lon="13.461966"><ele>38</ele></trkpt>
   <trkpt lat="52.493908" lon="13.462286"><ele>38</ele></trkpt>
   <trkpt lat="52.494235" lon="13.462617"><ele>37.5</ele></trkpt>
   <trkpt lat="52.494445" lon="13.462844"><ele>37.25</ele></trkpt>
   <trkpt lat="52.494538" lon="13.46295"><ele>37</ele></trkpt>
   <trkpt lat="52.49483" lon="13.463292"><ele>34.75</ele></trkpt>
   <trkpt lat="52.495153" lon="13.463707"><ele>33.5</ele></trkpt>
   <trkpt lat="52.495646" lon="13.464357"><ele>31</ele></trkpt>
   <trkpt lat="52.495807" lon="13.464553"><ele>30.5</ele></trkpt>
   <trkpt lat="52.496106" lon="13.464923"><ele>31.5</ele></trkpt>
   <trkpt lat="52.496561" lon="13.465472"><ele>34.5</ele></trkpt>
   <trkpt lat="52.496852" lon="13.465873"><ele>34.75</ele></trkpt>
   <trkpt lat="52.496982" lon="13.466062"><ele>34.5</ele></trkpt>
   <trkpt lat="52.497172" lon="13.466342"><ele>34.25</ele></trkpt>
   <trkpt lat="52.497356" lon="13.466583"><ele>34</ele></trkpt>
   <trkpt lat="52.497572" lon="13.466846"><ele>34</ele></trkpt>
   <trkpt lat="52.497862" lon="13.467147"><ele>34</ele></trkpt>
   <trkpt lat="52.498031" lon="13.467303"><ele>34</ele></trkpt>
   <trkpt lat="52.498305" lon="13.467528"><ele>33.75</ele></trkpt>
   <trkpt lat="52.498592" lon="13.467713"><ele>34</ele></trkpt>
   <trkpt lat="52.498731" lon="13.467791"><ele>34.25</ele></trkpt>
   <trkpt lat="52.499096" lon="13.467965"><ele>34.25</ele></trkpt>
   <trkpt lat="52.500199" lon="13.468404"><ele>36</ele></trkpt>
   <trkpt lat="52.500652" lon="13.468585"><ele>36</ele></trkpt>
   <trkpt lat="52.501297" lon="13.468848"><ele>35.25</ele></trkpt>
   <trkpt lat="52.501568" lon="13.468981"><ele>34.75</ele></trkpt>
   <trkpt lat="52.501876" lon="13.469161"><ele>34.5</ele></trkpt>
   <trkpt lat="52.50224" lon="13.46942"><ele>35</ele></trkpt>
   <trkpt lat="52.502499" lon="13.469627"><ele>35.25</ele></trkpt>
   <trkpt lat="52.502686" lon="13.469753"><ele>35.5</ele></trkpt>
   <trkpt lat="52.503101" lon="13.46998"><ele>36.25</ele></trkpt>
   <trkpt lat="52.50328" lon="13.470053"><ele>36.5</ele></trkpt>
   <trkpt lat="52.503356" lon="13.470084"><ele>36.5</ele></trkpt>
   <trkpt lat="52.503722" lon="13.470198"><ele>37.25</ele></trkpt>
   <trkpt lat="52.5039" lon="13.470253"><ele>37.25</ele></trkpt>
   <trkpt lat="52.504063" lon="13.470303"><ele>37.75</ele></trkpt>
   <trkpt lat="52.504141" lon="13.470336"><ele>37.75</ele></trkpt>
   <trkpt lat="52.504438" lon="13.47048"><ele>38.5</ele></trkpt>
   <trkpt lat="52.504662" lon="13.470613"><ele>39</ele></trkpt>
   <trkpt lat="52.504998" lon="13.470861"><ele>40</ele></trkpt>
   <trkpt lat="52.505205" lon="13.471042"><ele>40.25</ele></trkpt>
   <trkpt lat="52.505263" lon="13.471098"><ele>40.5</ele></trkpt>
   <trkpt lat="52.505365" lon="13.471195"><ele>40.75</ele></trkpt>
   <trkpt lat="52.505445" lon="13.471271"><ele>41</ele></trkpt>
   <trkpt lat="52.505683" lon="13.471501"><ele>41</ele></trkpt>
   <trkpt lat="52.505877" lon="13.471683"><ele>41</ele></trkpt>
   <trkpt lat="52.506191" lon="13.471984"><ele>42.25</ele></trkpt>
   <trkpt lat="52.50643" lon="13.472196"><ele>42.75</ele></trkpt>
   <trkpt lat="52.506676" lon="13.472395"><ele>42.75</ele></trkpt>
   <trkpt lat="52.506904" lon="13.472596"><ele>41.5</ele></trkpt>
   <trkpt lat="52.506949" lon="13.472638"><ele>41.25</ele></trkpt>
   <trkpt lat="52.50804" lon="13.473679"><ele>37</ele></trkpt>
   <trkpt lat="52.508149" lon="13.473783"><ele>37</ele></trkpt>
   <trkpt lat="52.509492" lon="13.47506"><ele>37</ele></trkpt>
   <trkpt lat="52.509713" lon="13.475253"><ele>37</ele></trkpt>
   <trkpt lat="52.509736" lon="13.475273"><ele>37</ele></trkpt>
   <trkpt lat="52.510023" lon="13.475467"><ele>37.5</ele></trkpt>
   <trkpt lat="52.510226" lon="13.475575"><ele>38.25</ele></trkpt>
   <trkpt lat="52.510442" lon="13.475662"><ele>39</ele></trkpt>
   <trkpt lat="52.510595" lon="13.475709"><ele>39.75</ele></trkpt>
   <trkpt lat="52.510756" lon="13.475745"><ele>40.25</ele></trkpt>
   <trkpt lat="52.511071" lon="13.47579"><ele>40.5</ele></trkpt>
   <trkpt lat="52.511148" lon="13.475788"><ele>40.25</ele></trkpt>
   <trkpt lat="52.511509" lon="13.475769"><ele>40</ele></trkpt>
   <trkpt lat="52.511825" lon="13.475708"><ele>38.75</ele></trkpt>
   <trkpt lat="52.511895" lon="13.475692"><ele>38.5</ele></trkpt>
   <trkpt lat="52.5123" lon="13.475593"><ele>36.75</ele></trkpt>
   <trkpt lat="52.512572" lon="13.475526"><ele>36</ele></trkpt>
   <trkpt lat="52.512986" lon="13.475423"><ele>37.25</ele></trkpt>
   <trkpt lat="52.513429" lon="13.475333"><ele>39</ele></trkpt>
   <trkpt lat="52.513869" lon="13.475236"><ele>41.75</ele></trkpt>
   <trkpt lat="52.51418" lon="13.475164"><ele>43.75</ele></trkpt>
   <trkpt lat="52.514331" lon="13.475117"><ele>43.5</ele></trkpt>
   <trkpt lat="52.514478" lon="13.475066"><ele>43.25</ele></trkpt>
   <trkpt lat="52.514651" lon="13.474992"><ele>42.75</ele></trkpt>
   <trkpt lat="52.514823" lon="13.474912"><ele>42.5</ele></trkpt>
   <trkpt lat="52.515748" lon="13.474397"><ele>44.25</ele></trkpt>
   <trkpt lat="52.515788" lon="13.474374"><ele>44.25</ele></trkpt>
   <trkpt lat="52.516567" lon="13.473935"><ele>44.5</ele></trkpt>
   <trkpt lat="52.516572" lon="13.473932"><ele>44.5</ele></trkpt>
   <trkpt lat="52.519039" lon="13.472542"><ele>45.75</ele></trkpt>
   <trkpt lat="52.519259" lon="13.47241"><ele>46</ele></trkpt>
   <trkpt lat="52.519469" lon="13.472269"><ele>46.25</ele></trkpt>
   <trkpt lat="52.520642" lon="13.471362"><ele>46.75</ele></trkpt>
   <trkpt lat="52.521145" lon="13.470961"><ele>47</ele></trkpt>
   <trkpt lat="52.521381" lon="13.470769"><ele>46.75</ele></trkpt>
   <trkpt lat="52.521605" lon="13.470542"><ele>46.5</ele></trkpt>
   <trkpt lat="52.521613" lon="13.470533"><ele>46.5</ele></trkpt>
   <trkpt lat="52.521861" lon="13.47027"><ele>46</ele></trkpt>
   <trkpt lat="52.522057" lon="13.470032"><ele>45.5</ele></trkpt>
   <trkpt lat="52.522247" lon="13.46978"><ele>45.5</ele></trkpt>
   <trkpt lat="52.522522" lon="13.469364"><ele>45.75</ele></trkpt>
   <trkpt lat="52.522663" lon="13.469128"><ele>46</ele></trkpt>
   <trkpt lat="52.522777" lon="13.468918"><ele>46</ele></trkpt>
   <trkpt lat="52.522965" lon="13.468535"><ele>45.25</ele></trkpt>
   <trkpt lat="52.523139" lon="13.468137"><ele>44.25</ele></trkpt>
   <trkpt lat="52.523255" lon="13.467838"><ele>44</ele></trkpt>
   <trkpt lat="52.523363" lon="13.467533"><ele>44.25</ele></trkpt>
   <trkpt lat="52.523458" lon="13.467234"><ele>45.25</ele></trkpt>
   <trkpt lat="52.523585" lon="13.466772"><ele>47</ele></trkpt>
   <trkpt lat="52.523592" lon="13.466745"><ele>47</ele></trkpt>
   <trkpt lat="52.523868" lon="13.465641"><ele>54</ele></trkpt>
   <trkpt lat="52.523999" lon="13.464994"><ele>57.5</ele></trkpt>
   <trkpt lat="52.524002" lon="13.464977"><ele>57.5</ele></trkpt>
   <trkpt lat="52.524009" lon="13.464941"><ele>57.5</ele></trkpt>
   <trkpt lat="52.524058" lon="13.464641"><ele>56.25</ele></trkpt>
   <trkpt lat="52.524139" lon="13.464052"><ele>53</ele></trkpt>
   <trkpt lat="52.52432" lon="13.462616"><ele>47.75</ele></trkpt>
   <trkpt lat="52.524374" lon="13.462259"><ele>47.25</ele></trkpt>
   <trkpt lat="52.524419" lon="13.462014"><ele>46.75</ele></trkpt>
   <trkpt lat="52.524485" lon="13.461683"><ele>46.25</ele></trkpt>
   <trkpt lat="52.524567" lon="13.461333"><ele>45.5</ele></trkpt>
   <trkpt lat="52.524571" lon="13.461318"><ele>45.5</ele></trkpt>
   <trkpt lat="52.524718" lon="13.460785"><ele>44.5</ele></trkpt>
   <trkpt lat="52.52483" lon="13.460437"><ele>44.25</ele></trkpt>
   <trkpt lat="52.524925" lon="13.460167"><ele>44</ele></trkpt>
   <trkpt lat="52.525033" lon="13.459887"><ele>44.5</ele></trkpt>
   <trkpt lat="52.525137" lon="13.459639"><ele>45.5</ele></trkpt>
   <trkpt lat="52.525294" lon="13.459297"><ele>46.5</ele></trkpt>
   <trkpt lat="52.525468" lon="13.458959"><ele>46.75</ele></trkpt>
   <trkpt lat="52.525591" lon="13.458739"><ele>46.75</ele></trkpt>
   <trkpt lat="52.525861" lon="13.45831"><ele>46</ele></trkpt>
   <trkpt lat="52.52605" lon="13.458049"><ele>47.25</ele></trkpt>
   <trkpt lat="52.526357" lon="13.457667"><ele>48</ele></trkpt>
   <trkpt lat="52.52675" lon="13.457253"><ele>48</ele></trkpt>
   <trkpt lat="52.527174" lon="13.456834"><ele>53</ele></trkpt>
   <trkpt lat="52.527661" lon="13.456337"><ele>56.75</ele></trkpt>
   <trkpt lat="52.527672" lon="13.456325"><ele>56.75</ele></trkpt>
   <trkpt lat="52.528127" lon="13.45586"><ele>55.5</ele></trkpt>
   <trkpt lat="52.530299" lon="13.453686"><ele>46.75</ele></trkpt>
   <trkpt lat="52.533471" lon="13.450513"><ele>49.25</ele></trkpt>
   <trkpt lat="52.535042" lon="13.448943"><ele>49.75</ele></trkpt>
   <trkpt lat="52.535213" lon="13.448772"><ele>49.75</ele></trkpt>
   <trkpt lat="52.535818" lon="13.448171"><ele>50.5</ele></trkpt>
   <trkpt lat="52.535961" lon="13.448032"><ele>51</ele></trkpt>
   <trkpt lat="52.536295" lon="13.447669"><ele>52</ele></trkpt>
   <trkpt lat="52.536428" lon="13.447491"><ele>52.25</ele></trkpt>
   <trkpt lat="52.536558" lon="13.447292"><ele>52</ele></trkpt>
   <trkpt lat="52.536677" lon="13.447084"><ele>51.75</ele></trkpt>
   <trkpt lat="52.53681" lon="13.44682"><ele>51.75</ele></trkpt>
   <trkpt lat="52.537023" lon="13.446368"><ele>51.75</ele></trkpt>
   <trkpt lat="52.537112" lon="13.446166"><ele>51.5</ele></trkpt>
   <trkpt lat="52.537342" lon="13.445553"><ele>50</ele></trkpt>
   <trkpt lat="52.5375" lon="13.44513"><ele>48</ele></trkpt>
   <trkpt lat="52.538939" lon="13.44126"><ele>46</ele></trkpt>
   <trkpt lat="52.539151" lon="13.44076"><ele>45.75</ele></trkpt>
   <trkpt lat="52.539289" lon="13.44046"><ele>45.75</ele></trkpt>
   <trkpt lat="52.540264" lon="13.43834"><ele>44.75</ele></trkpt>
   <trkpt lat="52.540275" lon="13.438318"><ele>44.75</ele></trkpt>
   <trkpt lat="52.540594" lon="13.437626"><ele>46.5</ele></trkpt>
   <trkpt lat="52.540976" lon="13.436757"><ele>48</ele></trkpt>
   <trkpt lat="52.541097" lon="13.436484"><ele>48</ele></trkpt>
   <trkpt lat="52.54126" lon="13.436155"><ele>47.75</ele></trkpt>
   <trkpt lat="52.541447" lon="13.435702"><ele>47</ele></trkpt>
   <trkpt lat="52.541589" lon="13.435322"><ele>46.5</ele></trkpt>
   <trkpt lat="52.541942" lon="13.434373"><ele>47</ele></trkpt>
   <trkpt lat="52.542048" lon="13.434085"><ele>47.5</ele></trkpt>
   <trkpt lat="52.542067" lon="13.434035"><ele>47.5</ele></trkpt>
   <trkpt lat="52.542069" lon="13.434028"><ele>47.5</ele></trkpt>
   <trkpt lat="52.542092" lon="13.433967"><ele>47.5</ele></trkpt>
   <trkpt lat="52.542117" lon="13.4339"><ele>47.5</ele></trkpt>
   <trkpt lat="52.542238" lon="13.433571"><ele>48</ele></trkpt>
   <trkpt lat="52.54241" lon="13.433078"><ele>48.5</ele></trkpt>
   <trkpt lat="52.542578" lon="13.432517"><ele>48</ele></trkpt>
   <trkpt lat="52.542694" lon="13.432076"><ele>48.25</ele></trkpt>
   <trkpt lat="52.543036" lon="13.430746"><ele>48.5</ele></trkpt>
   <trkpt lat="52.543047" lon="13.430705"><ele>48.5</ele></trkpt>
   <trkpt lat="52.543229" lon="13.430033"><ele>48</ele></trkpt>
   <trkpt lat="52.543344" lon="13.42965"><ele>48.75</ele></trkpt>
   <trkpt lat="52.543469" lon="13.429264"><ele>49.75</ele></trkpt>
   <trkpt lat="52.543779" lon="13.428356"><ele>51.25</ele></trkpt>
   <trkpt lat="52.543784" lon="13.428341"><ele>51.25</ele></trkpt>
   <trkpt lat="52.543948" lon="13.427882"><ele>52</ele></trkpt>
   <trkpt lat="52.544427" lon="13.426495"><ele>55</ele></trkpt>
   <trkpt lat="52.544613" lon="13.426"><ele>55.5</ele></trkpt>
   <trkpt lat="52.544617" lon="13.425989"><ele>55.5</ele></trkpt>
   <trkpt lat="52.544667" lon="13.425862"><ele>55.5</ele></trkpt>
   <trkpt lat="52.544765" lon="13.425616"><ele>55.25</ele></trkpt>
   <trkpt lat="52.544946" lon="13.425242"><ele>54.25</ele></trkpt>
   <trkpt lat="52.545221" lon="13.424718"><ele>55.25</ele></trkpt>
   <trkpt lat="52.547191" lon="13.421134"><ele>52.5</ele></trkpt>
   <trkpt lat="52.547304" lon="13.420907"><ele>51.5</ele></trkpt>
   <trkpt lat="52.54749" lon="13.420488"><ele>49.5</ele></trkpt>
   <trkpt lat="52.547497" lon="13.420472"><ele>49.5</ele></trkpt>
   <trkpt lat="52.547567" lon="13.420293"><ele>49.5</ele></trkpt>
   <trkpt lat="52.547583" lon="13.420252"><ele>49.5</ele></trkpt>
   <trkpt lat="52.547955" lon="13.419171"><ele>51.25</ele></trkpt>
   <trkpt lat="52.548498" lon="13.417531"><ele>52.75</ele></trkpt>
   <trkpt lat="52.548502" lon="13.417518"><ele>52.75</ele></trkpt>
   <trkpt lat="52.548724" lon="13.416856"><ele>54</ele></trkpt>
   <trkpt lat="52.548926" lon="13.416215"><ele>54</ele></trkpt>
   <trkpt lat="52.549083" lon="13.415596"><ele>54.25</ele></trkpt>
   <trkpt lat="52.549175" lon="13.415185"><ele>54.25</ele></trkpt>
   <trkpt lat="52.5493" lon="13.414355"><ele>53.5</ele></trkpt>
   <trkpt lat="52.549338" lon="13.413978"><ele>53.25</ele></trkpt>
   <trkpt lat="52.549386" lon="13.413339"><ele>52.75</ele></trkpt>
   <trkpt lat="52.549406" lon="13.413005"><ele>52.75</ele></trkpt>
   <trkpt lat="52.54948" lon="13.411826"><ele>52.75</ele></trkpt>
   <trkpt lat="52.549592" lon="13.409992"><ele>48.75</ele></trkpt>
   <trkpt lat="52.549602" lon="13.40938"><ele>50</ele></trkpt>
   <trkpt lat="52.549599" lon="13.408774"><ele>51</ele></trkpt>
   <trkpt lat="52.549565" lon="13.407867"><ele>52.75</ele></trkpt>
   <trkpt lat="52.549535" lon="13.407323"><ele>53.5</ele></trkpt>
   <trkpt lat="52.549517" lon="13.406951"><ele>53.75</ele></trkpt>
   <trkpt lat="52.549474" lon="13.405494"><ele>51.75</ele></trkpt>
   <trkpt lat="52.54947" lon="13.405425"><ele>51.75</ele></trkpt>
   <trkpt lat="52.549464" lon="13.405334"><ele>51.75</ele></trkpt>
   <trkpt lat="52.549382" lon="13.403633"><ele>49.5</ele></trkpt>
   <trkpt lat="52.549318" lon="13.402582"><ele>47.75</ele></trkpt>
   <trkpt lat="52.54929" lon="13.401595"><ele>46.5</ele></trkpt>
   <trkpt lat="52.549283" lon="13.401023"><ele>45</ele></trkpt>
   <trkpt lat="52.549276" lon="13.3999"><ele>42.5</ele></trkpt>
   <trkpt lat="52.549304" lon="13.398574"><ele>38.75</ele></trkpt>
   <trkpt lat="52.549298" lon="13.398008"><ele>38.5</ele></trkpt>
   <trkpt lat="52.549285" lon="13.397705"><ele>38.75</ele></trkpt>
   <trkpt lat="52.549239" lon="13.397145"><ele>39.5</ele></trkpt>
   <trkpt lat="52.549073" lon="13.395983"><ele>41</ele></trkpt>
   <trkpt lat="52.54893" lon="13.39513"><ele>41</ele></trkpt>
   <trkpt lat="52.548901" lon="13.394881"><ele>41.5</ele></trkpt>
   <trkpt lat="52.548858" lon="13.394372"><ele>42.5</ele></trkpt>
   <trkpt lat="52.548831" lon="13.393814"><ele>43.25</ele></trkpt>
   <trkpt lat="52.548826" lon="13.393344"><ele>43.75</ele></trkpt>
   <trkpt lat="52.548831" lon="13.392825"><ele>43.75</ele></trkpt>
   <trkpt lat="52.548812" lon="13.392299"><ele>44</ele></trkpt>
   <trkpt lat="52.548804" lon="13.392154"><ele>44</ele></trkpt>
   <trkpt lat="52.548718" lon="13.390526"><ele>45</ele></trkpt>
   <trkpt lat="52.5487" lon="13.390211"><ele>46</ele></trkpt>
   <trkpt lat="52.548659" lon="13.389437"><ele>45.5</ele></trkpt>
   <trkpt lat="52.548627" lon="13.388922"><ele>46</ele></trkpt>
   <trkpt lat="52.548582" lon="13.388255"><ele>46.5</ele></trkpt>
   <trkpt lat="52.548542" lon="13.38774"><ele>46.5</ele></trkpt>
   <trkpt lat="52.548523" lon="13.387383"><ele>46.5</ele></trkpt>
   <trkpt lat="52.548509" lon="13.387075"><ele>46.75</ele></trkpt>
   <trkpt lat="52.548452" lon="13.385995"><ele>46</ele></trkpt>
   <trkpt lat="52.548446" lon="13.385868"><ele>45.75</ele></trkpt>
   <trkpt lat="52.548423" lon="13.385422"><ele>45</ele></trkpt>
   <trkpt lat="52.548416" lon="13.38529"><ele>44.75</ele></trkpt>
   <trkpt lat="52.548322" lon="13.38409"><ele>42</ele></trkpt>
   <trkpt lat="52.548285" lon="13.38333"><ele>41.25</ele></trkpt>
   <trkpt lat="52.548251" lon="13.38277"><ele>42.75</ele></trkpt>
   <trkpt lat="52.548206" lon="13.382163"><ele>43.5</ele></trkpt>
   <trkpt lat="52.548117" lon="13.381382"><ele>43.5</ele></trkpt>
   <trkpt lat="52.547997" lon="13.380687"><ele>43.25</ele></trkpt>
   <trkpt lat="52.547879" lon="13.38014"><ele>44.25</ele></trkpt>
   <trkpt lat="52.547815" lon="13.379872"><ele>45</ele></trkpt>
   <trkpt lat="52.547581" lon="13.378948"><ele>46.25</ele></trkpt>
   <trkpt lat="52.547528" lon="13.378761"><ele>46.25</ele></trkpt>
   <trkpt lat="52.547313" lon="13.378015"><ele>44.5</ele></trkpt>
   <trkpt lat="52.547116" lon="13.377432"><ele>42.25</ele></trkpt>
   <trkpt lat="52.54699" lon="13.3771"><ele>41.25</ele></trkpt>
   <trkpt lat="52.546752" lon="13.376526"><ele>40</ele></trkpt>
   <trkpt lat="52.546611" lon="13.376195"><ele>40</ele></trkpt>
   <trkpt lat="52.546542" lon="13.376035"><ele>40.25</ele></trkpt>
   <trkpt lat="52.546361" lon="13.37561"><ele>40.5</ele></trkpt>
   <trkpt lat="52.546207" lon="13.375246"><ele>40.25</ele></trkpt>
   <trkpt lat="52.545738" lon="13.374141"><ele>39</ele></trkpt>
   <trkpt lat="52.545023" lon="13.372466"><ele>41</ele></trkpt>
   <trkpt lat="52.544591" lon="13.371447"><ele>42</ele></trkpt>
   <trkpt lat="52.544532" lon="13.371309"><ele>41.75</ele></trkpt>
   <trkpt lat="52.54434" lon="13.370873"><ele>40.25</ele></trkpt>
   <trkpt lat="52.544028" lon="13.37017"><ele>38.5</ele></trkpt>
   <trkpt lat="52.543708" lon="13.369449"><ele>39.5</ele></trkpt>
   <trkpt lat="52.543675" lon="13.369376"><ele>39.75</ele></trkpt>
   <trkpt lat="52.543526" lon="13.369039"><ele>40</ele></trkpt>
   <trkpt lat="52.542468" lon="13.366661"><ele>35</ele></trkpt>
   <trkpt lat="52.542444" lon="13.366607"><ele>35.25</ele></trkpt>
   <trkpt lat="52.54221" lon="13.36609"><ele>37.75</ele></trkpt>
   <trkpt lat="52.542155" lon="13.365978"><ele>38.25</ele></trkpt>
   <trkpt lat="52.541857" lon="13.365333"><ele>40.25</ele></trkpt>
   <trkpt lat="52.541578" lon="13.364762"><ele>40.5</ele></trkpt>
   <trkpt lat="52.541503" lon="13.364621"><ele>40.25</ele></trkpt>
   <trkpt lat="52.540086" lon="13.36173"><ele>35</ele></trkpt>
   <trkpt lat="52.539823" lon="13.361209"><ele>35.75</ele></trkpt>
   <trkpt lat="52.539755" lon="13.361085"><ele>35.5</ele></trkpt>
   <trkpt lat="52.539749" lon="13.361075"><ele>35.5</ele></trkpt>
   <trkpt lat="52.539533" lon="13.360711"><ele>35.5</ele></trkpt>
   <trkpt lat="52.539362" lon="13.360468"><ele>35.25</ele></trkpt>
   <trkpt lat="52.53918" lon="13.360238"><ele>35.25</ele></trkpt>
   <trkpt lat="52.539037" lon="13.360072"><ele>35</ele></trkpt>
   <trkpt lat="52.538832" lon="13.359854"><ele>35</ele></trkpt>
   <trkpt lat="52.538604" lon="13.359657"><ele>34.75</ele></trkpt>
   <trkpt lat="52.538421" lon="13.359513"><ele>34.75</ele></trkpt>
   <trkpt lat="52.538191" lon="13.359371"><ele>34.5</ele></trkpt>
   <trkpt lat="52.537899" lon="13.359228"><ele>34.25</ele></trkpt>
   <trkpt lat="52.537752" lon="13.359174"><ele>34.25</ele></trkpt>
   <trkpt lat="52.537599" lon="13.359117"><ele>34.25</ele></trkpt>
   <trkpt lat="52.537404" lon="13.359079"><ele>34</ele></trkpt>
   <trkpt lat="52.537195" lon="13.359054"><ele>34</ele></trkpt>
   <trkpt lat="52.536892" lon="13.359051"><ele>33.75</ele></trkpt>
   <trkpt lat="52.536654" lon="13.359074"><ele>33.75</ele></trkpt>
   <trkpt lat="52.536354" lon="13.359139"><ele>33.5</ele></trkpt>
   <trkpt lat="52.536177" lon="13.359197"><ele>33.25</ele></trkpt>
   <trkpt lat="52.53596" lon="13.359289"><ele>33.25</ele></trkpt>
   <trkpt lat="52.535806" lon="13.359369"><ele>33.25</ele></trkpt>
   <trkpt lat="52.535614" lon="13.359487"><ele>33</ele></trkpt>
   <trkpt lat="52.535337" lon="13.359679"><ele>32.75</ele></trkpt>
   <trkpt lat="52.53505" lon="13.359929"><ele>32.75</ele></trkpt>
   <trkpt lat="52.534606" lon="13.360408"><ele>32.5</ele></trkpt>
   <trkpt lat="52.5346" lon="13.360415"><ele>32.5</ele></trkpt>
   <trkpt lat="52.53458" lon="13.360435"><ele>32.25</ele></trkpt>
   <trkpt lat="52.533837" lon="13.361227"><ele>31.75</ele></trkpt>
   <trkpt lat="52.5331" lon="13.362026"><ele>31.5</ele></trkpt>
   <trkpt lat="52.533089" lon="13.362038"><ele>31.5</ele></trkpt>
   <trkpt lat="52.532927" lon="13.362212"><ele>31.5</ele></trkpt>
   <trkpt lat="52.532722" lon="13.36243"><ele>31.25</ele></trkpt>
   <trkpt lat="52.532114" lon="13.363083"><ele>29.75</ele></trkpt>
   <trkpt lat="52.532" lon="13.363203"><ele>29.5</ele></trkpt>
   <trkpt lat="52.530602" lon="13.364697"><ele>29.25</ele></trkpt>
   <trkpt lat="52.530514" lon="13.364791"><ele>29.25</ele></trkpt>
   <trkpt lat="52.530467" lon="13.36484"><ele>29.25</ele></trkpt>
   <trkpt lat="52.529767" lon="13.365592"><ele>30.75</ele></trkpt>
   <trkpt lat="52.529174" lon="13.366227"><ele>29.5</ele></trkpt>
   <trkpt lat="52.529107" lon="13.366298"/>
   <trkpt lat="52.528976" lon="13.366439"/>
   <trkpt lat="52.528688" lon="13.366739"/>
   <trkpt lat="52.528398" lon="13.367016"/>
   <trkpt lat="52.528128" lon="13.367258"/>
   <trkpt lat="52.527854" lon="13.367484"/>
   <trkpt lat="52.527113" lon="13.368026"/>
   <trkpt lat="52.526011" lon="13.368796"/>
   <trkpt lat="52.524846" lon="13.369613"/>
   <trkpt lat="52.523532" lon="13.370533"/>
   <trkpt lat="52.523497" lon="13.370559"/>
   <trkpt lat="52.522266" lon="13.371415"/>
   <trkpt lat="52.521638" lon="13.371818"/>
   <trkpt lat="52.521002" lon="13.372187"/>
   <trkpt lat="52.52051" lon="13.372442"/>
   <trkpt lat="52.520448" lon="13.372473"/>
   <trkpt lat="52.51958" lon="13.372902"/>
   <trkpt lat="52.519409" lon="13.372984"/>
   <trkpt lat="52.519055" lon="13.373171"/>
   <trkpt lat="52.518666" lon="13.373413"/>
   <trkpt lat="52.51847" lon="13.373516"/>
   <trkpt lat="52.518371" lon="13.373561"/>
   <trkpt lat="52.517558" lon="13.373968"/>
   <trkpt lat="52.517354" lon="13.374082"/>
   <trkpt lat="52.51648" lon="13.374564"/>
  </trkseg>
 </trk>
</gpx>