<?xml version="1.0" encoding="UTF-8"?>
<!-- track-length = 21738 filtered ascend = 34 plain-ascend = 0 cost=21738 energy=0.3kwh time=28m 59s -->
<gpx 
 xmlns="http://www.topografix.com/GPX/1/1" 
 xmlns:xsi="http://www.w3.org/2001/XMLSchema-instance" 
 xsi:schemaLocation="http://www.topografix.com/GPX/1/1 http://www.topografix.com/GPX/1/1/gpx.xsd" 
 version="1.1" 
 creator="BRouter-Web 0.18.1">
 <trk>
  <name>Greifswald - Lubmin</name>
  <trkseg>
   <trkpt lat="54.067263" lon="13.411327"><ele>16.25</ele></trkpt>
   <trkpt lat="54.066621" lon="13.412351"><ele>17</ele></trkpt>
   <trkpt lat="54.062954" lon="13.418192"><ele>21</ele></trkpt>
   <trkpt lat="54.061874" lon="13.419912"><ele>22</ele></trkpt>
   <trkpt lat="54.059507" lon="13.423684"><ele>19.5</ele></trkpt>
   <trkpt lat="54.059118" lon="13.424304"><ele>21.25</ele></trkpt>
   <trkpt lat="54.058163" lon="13.425824"><ele>25.5</ele></trkpt>
   <trkpt lat="54.058027" lon="13.426042"><ele>25</ele></trkpt>
   <trkpt lat="54.057665" lon="13.426699"><ele>24</ele></trkpt>
   <trkpt lat="54.057499" lon="13.427003"><ele>24.75</ele></trkpt>
   <trkpt lat="54.057006" lon="13.427991"><ele>25.25</ele></trkpt>
   <trkpt lat="54.05664" lon="13.428818"><ele>25.25</ele></trkpt>
   <trkpt lat="54.056247" lon="13.429774"><ele>26.5</ele></trkpt>
   <trkpt lat="54.056018" lon="13.430397"><ele>27.25</ele></trkpt>
   <trkpt lat="54.055805" lon="13.431008"><ele>28</ele></trkpt>
   <trkpt lat="54.055607" lon="13.431648"><ele>28.75</ele></trkpt>
   <trkpt lat="54.055366" lon="13.432498"><ele>29</ele></trkpt>
   <trkpt lat="54.055218" lon="13.433093"><ele>29</ele></trkpt>
   <trkpt lat="54.054986" lon="13.434086"><ele>30</ele></trkpt>
   <trkpt lat="54.054829" lon="13.434821"><ele>31</ele></trkpt>
   <trkpt lat="54.054524" lon="13.436629"><ele>32.5</ele></trkpt>
   <trkpt lat="54.054367" lon="13.437924"><ele>33.25</ele></trkpt>
   <trkpt lat="54.054264" lon="13.439752"><ele>33</ele></trkpt>
   <trkpt lat="54.054244" lon="13.440197"><ele>33</ele></trkpt>
   <trkpt lat="54.054235" lon="13.440637"><ele>33</ele></trkpt>
   <trkpt lat="54.054225" lon="13.441488"><ele>33</ele></trkpt>
   <trkpt lat="54.054234" lon="13.442217"><ele>33.5</ele></trkpt>
   <trkpt lat="54.054267" lon="13.443164"><ele>34</ele></trkpt>
   <trkpt lat="54.054409" lon="13.445175"><ele>34</ele></trkpt>
   <trkpt lat="54.054817" lon="13.449978"><ele>35</ele></trkpt>
   <trkpt lat="54.056053" lon="13.464897"><ele>30</ele></trkpt>
   <trkpt lat="54.056489" lon="13.470139"><ele>30.25</ele></trkpt>
   <trkpt lat="54.056903" lon="13.475141"><ele>30</ele></trkpt>
   <trkpt lat="54.057012" lon="13.47655"><ele>30</ele></trkpt>
   <trkpt lat="54.057074" lon="13.477526"><ele>29</ele></trkpt>
   <trkpt lat="54.057127" lon="13.478521"><ele>28.25</ele></trkpt>
   <trkpt lat="54.057183" lon="13.480246"><ele>27.25</ele></trkpt>
   <trkpt lat="54.057223" lon="13.482196"><ele>26.75</ele></trkpt>
   <trkpt lat="54.057285" lon="13.484707"><ele>25.75</ele></trkpt>
   <trkpt lat="54.057362" lon="13.486348"><ele>26</ele></trkpt>
   <trkpt lat="54.057501" lon="13.488263"><ele>24.25</ele></trkpt>
   <trkpt lat="54.057677" lon="13.490164"><ele>24</ele></trkpt>
   <trkpt lat="54.058047" lon="13.492879"><ele>24</ele></trkpt>
   <trkpt lat="54.058309" lon="13.494593"><ele>24</ele></trkpt>
   <trkpt lat="54.058949" lon="13.497809"><ele>23.75</ele></trkpt>
   <trkpt lat="54.059567" lon="13.500416"><ele>23</ele></trkpt>
   <trkpt lat="54.060705" lon="13.504479"><ele>21</ele></trkpt>
   <trkpt lat="54.062668" lon="13.511437"><ele>17</ele></trkpt>
   <trkpt lat="54.066571" lon="13.525265"><ele>11</ele></trkpt>
   <trkpt lat="54.069285" lon="13.534879"><ele>10</ele></trkpt>
   <trkpt lat="54.070887" lon="13.540581"><ele>12</ele></trkpt>
   <trkpt lat="54.07104" lon="13.541131"><ele>12</ele></trkpt>
   <trkpt lat="54.071412" lon="13.542405"><ele>12</ele></trkpt>
   <trkpt lat="54.07169" lon="13.543287"><ele>12</ele></trkpt>
   <trkpt lat="54.072011" lon="13.544219"><ele>12</ele></trkpt>
   <trkpt lat="54.072106" lon="13.544467"><ele>12</ele></trkpt>
   <trkpt lat="54.07245" lon="13.54536"><ele>11.75</ele></trkpt>
   <trkpt lat="54.072865" lon="13.546317"><ele>11</ele></trkpt>
   <trkpt lat="54.073206" lon="13.547029"><ele>11</ele></trkpt>
   <trkpt lat="54.074012" lon="13.548514"><ele>11</ele></trkpt>
   <trkpt lat="54.074467" lon="13.549266"><ele>11</ele></trkpt>
   <trkpt lat="54.074555" lon="13.549397"><ele>11</ele></trkpt>
   <trkpt lat="54.075084" lon="13.550177"><ele>11.25</ele></trkpt>
   <trkpt lat="54.076927" lon="13.552616"><ele>9</ele></trkpt>
   <trkpt lat="54.078559" lon="13.554742"><ele>4</ele></trkpt>
   <trkpt lat="54.079373" lon="13.555823"><ele>4</ele></trkpt>
   <trkpt lat="54.080614" lon="13.557451"><ele>3</ele></trkpt>
   <trkpt lat="54.081438" lon="13.558404"><ele>3.75</ele></trkpt>
   <trkpt lat="54.082758" lon="13.559664"><ele>4</ele></trkpt>
   <trkpt lat="54.083189" lon="13.559975"><ele>4</ele></trkpt>
   <trkpt lat="54.084058" lon="13.560601"><ele>5</ele></trkpt>
   <trkpt lat="54.084951" lon="13.561116"><ele>5</ele></trkpt>
   <trkpt lat="54.085367" lon="13.561328"><ele>5</ele></trkpt>
   <trkpt lat="54.089217" lon="13.563364"><ele>15</ele></trkpt>
   <trkpt lat="54.095119" lon="13.566447"><ele>21</ele></trkpt>
   <trkpt lat="54.098146" lon="13.56803"><ele>19</ele></trkpt>
   <trkpt lat="54.098586" lon="13.568261"><ele>19</ele></trkpt>
   <trkpt lat="54.104201" lon="13.571205"><ele>17</ele></trkpt>
   <trkpt lat="54.105491" lon="13.571909"><ele>17</ele></trkpt>
   <trkpt lat="54.10644" lon="13.572489"><ele>17</ele></trkpt>
   <trkpt lat="54.107141" lon="13.572974"><ele>17</ele></trkpt>
   <trkpt lat="54.10863" lon="13.574178"><ele>18</ele></trkpt>
   <trkpt lat="54.109272" lon="13.574775"><ele>19</ele></trkpt>
   <trkpt lat="54.109884" lon="13.575362"><ele>19</ele></trkpt>
   <trkpt lat="54.109983" lon="13.575469"><ele>19</ele></trkpt>
   <trkpt lat="54.111278" lon="13.57687"><ele>20</ele></trkpt>
   <trkpt lat="54.111316" lon="13.576911"><ele>20</ele></trkpt>
   <trkpt lat="54.112687" lon="13.578695"><ele>21</ele></trkpt>
   <trkpt lat="54.114915" lon="13.58184"><ele>20</ele></trkpt>
   <trkpt lat="54.115967" lon="13.583337"><ele>18</ele></trkpt>
   <trkpt lat="54.115972" lon="13.583345"><ele>18</ele></trkpt>
   <trkpt lat="54.116142" lon="13.583585"><ele>18</ele></trkpt>
   <trkpt lat="54.11626" lon="13.583756"><ele>18</ele></trkpt>
   <trkpt lat="54.116263" lon="13.583761"><ele>18</ele></trkpt>
   <trkpt lat="54.117559" lon="13.585615"><ele>18</ele></trkpt>
   <trkpt lat="54.119078" lon="13.587783"><ele>17.25</ele></trkpt>
   <trkpt lat="54.119365" lon="13.588233"><ele>17</ele></trkpt>
   <trkpt lat="54.119753" lon="13.588899"><ele>15.75</ele></trkpt>
   <trkpt lat="54.120201" lon="13.58979"><ele>14.25</ele></trkpt>
   <trkpt lat="54.120514" lon="13.59048"><ele>13</ele></trkpt>
   <trkpt lat="54.12068" lon="13.590898"><ele>14</ele></trkpt>
   <trkpt lat="54.12101" lon="13.591809"><ele>15.5</ele></trkpt>
   <trkpt lat="54.121236" lon="13.592546"><ele>15.25</ele></trkpt>
   <trkpt lat="54.121346" lon="13.592936"><ele>15.25</ele></trkpt>
   <trkpt lat="54.121458" lon="13.593366"><ele>15</ele></trkpt>
   <trkpt lat="54.121597" lon="13.593966"><ele>15.5</ele></trkpt>
   <trkpt lat="54.121678" lon="13.594339"><ele>15</ele></trkpt>
   <trkpt lat="54.121771" lon="13.594816"><ele>15.25</ele></trkpt>
   <trkpt lat="54.123082" lon="13.601688"><ele>17</ele></trkpt>
   <trkpt lat="54.123561" lon="13.60414"><ele>17</ele></trkpt>
   <trkpt lat="54.12359" lon="13.604268"><ele>17</ele></trkpt>
   <trkpt lat="54.123876" lon="13.605526"><ele>15</ele></trkpt>
   <trkpt lat="54.124486" lon="13.60803"><ele>13.75</ele></trkpt>
   <trkpt lat="54.124859" lon="13.609356"><ele>13</ele></trkpt>
   <trkpt lat="54.12512" lon="13.610196"><ele>14</ele></trkpt>
   <trkpt lat="54.125619" lon="13.611793"><ele>16</ele></trkpt>
   <trkpt lat="54.126133" lon="13.613242"><ele>15.75</ele></trkpt>
   <trkpt lat="54.126343" lon="13.613833"><ele>16</ele></trkpt>
   <trkpt lat="54.126369" lon="13.613908"><ele>16</ele></trkpt>
   <trkpt lat="54.127708" lon="13.617746"><ele>19</ele></trkpt>
   <trkpt lat="54.129519" lon="13.622907"><ele>19</ele></trkpt>
   <trkpt lat="54.130587" lon="13.625961"><ele>17</ele></trkpt>
   <trkpt lat="54.13083" lon="13.626656"><ele>17</ele></trkpt>
   <trkpt lat="54.132758" lon="13.632174"><ele>17</ele></trkpt>
   <trkpt lat="54.136427" lon="13.642717"><ele>15.75</ele></trkpt>
   <trkpt lat="54.136698" lon="13.643651"><ele>14.75</ele></trkpt>
   <trkpt lat="54.136933" lon="13.644523"><ele>14</ele></trkpt>
   <trkpt lat="54.137211" lon="13.64575"><ele>13</ele></trkpt>
   <trkpt lat="54.137377" lon="13.646647"><ele>11.25</ele></trkpt>
   <trkpt lat="54.137651" lon="13.64821"><ele>10</ele></trkpt>
   <trkpt lat="54.137745" lon="13.6489"><ele>10</ele></trkpt>
   <trkpt lat="54.137843" lon="13.649622"><ele>10</ele></trkpt>
   <trkpt lat="54.137979" lon="13.651035"><ele>10</ele></trkpt>
   <trkpt lat="54.138019" lon="13.651556"><ele>10.5</ele></trkpt>
   <trkpt lat="54.138058" lon="13.652814"><ele>12</ele></trkpt>
   <trkpt lat="54.138069" lon="13.65323"><ele>12</ele></trkpt>
   <trkpt lat="54.138081" lon="13.653847"><ele>13</ele></trkpt>
   <trkpt lat="54.138088" lon="13.654658"><ele>13</ele></trkpt>
   <trkpt lat="54.138093" lon="13.6551"><ele>13</ele></trkpt>
   <trkpt lat="54.138109" lon="13.65541"><ele>13</ele></trkpt>
   <trkpt lat="54.138116" lon="13.655733"><ele>13</ele></trkpt>
   <trkpt lat="54.138116" lon="13.655785"><ele>13</ele></trkpt>
   <trkpt lat="54.138112" lon="13.656449"><ele>13</ele></trkpt>
   <trkpt lat="54.138109" lon="13.656601"><ele>13</ele></trkpt>
   <trkpt lat="54.1381" lon="13.656864"><ele>13</ele></trkpt>
   <trkpt lat="54.138079" lon="13.657156"><ele>13</ele></trkpt>
   <trkpt lat="54.137602" lon="13.662313"><ele>15.5</ele></trkpt>
   <trkpt lat="54.137559" lon="13.66271"><ele>15.75</ele></trkpt>
   <trkpt lat="54.137505" lon="13.663038"><ele>15.75</ele></trkpt>
   <trkpt lat="54.137457" lon="13.663398"><ele>16.25</ele></trkpt>
   <trkpt lat="54.137446" lon="13.663543"><ele>16.75</ele></trkpt>
   <trkpt lat="54.13737" lon="13.664065"><ele>16.75</ele></trkpt>
   <trkpt lat="54.137302" lon="13.664561"><ele>16.5</ele></trkpt>
   <trkpt lat="54.137294" lon="13.664668"><ele>16.5</ele></trkpt>
   <trkpt lat="54.137249" lon="13.665563"><ele>15.75</ele></trkpt>
   <trkpt lat="54.137236" lon="13.665744"><ele>15.75</ele></trkpt>
   <trkpt lat="54.13722" lon="13.665971"><ele>16</ele></trkpt>
   <trkpt lat="54.137081" lon="13.667482"><ele>16</ele></trkpt>
   <trkpt lat="54.13675" lon="13.671089"><ele>15</ele></trkpt>
   <trkpt lat="54.136712" lon="13.671419"><ele>15</ele></trkpt>
  </trkseg>
 </trk>
</gpx>