<?xml version="1.0" encoding="UTF-8"?>
<!-- track-length = 20681 filtered ascend = 9 plain-ascend = -10 cost=20681 energy=0.2kwh time=27m 35s -->
<gpx 
 xmlns="http://www.topografix.com/GPX/1/1" 
 xmlns:xsi="http://www.w3.org/2001/XMLSchema-instance" 
 xsi:schemaLocation="http://www.topografix.com/GPX/1/1 http://www.topografix.com/GPX/1/1/gpx.xsd" 
 version="1.1" 
 creator="BRouter-Web 0.18.1">
 <trk>
  <name>Großkorbetha - Halle (Saale)</name>
  <trkseg>
   <trkpt lat="51.253262" lon="12.017196"><ele>112</ele></trkpt>
   <trkpt lat="51.254285" lon="12.017995"><ele>112</ele></trkpt>
   <trkpt lat="51.254868" lon="12.018443"><ele>111.75</ele></trkpt>
   <trkpt lat="51.257128" lon="12.020192"><ele>109.75</ele></trkpt>
   <trkpt lat="51.257907" lon="12.020746"><ele>109</ele></trkpt>
   <trkpt lat="51.258697" lon="12.021246"><ele>108</ele></trkpt>
   <trkpt lat="51.258757" lon="12.02128"><ele>107.75</ele></trkpt>
   <trkpt lat="51.25903" lon="12.021437"><ele>107.75</ele></trkpt>
   <trkpt lat="51.259039" lon="12.021442"><ele>107.75</ele></trkpt>
   <trkpt lat="51.259084" lon="12.021468"><ele>107.75</ele></trkpt>
   <trkpt lat="51.259149" lon="12.021501"><ele>107.75</ele></trkpt>
   <trkpt lat="51.259807" lon="12.021828"><ele>105.25</ele></trkpt>
   <trkpt lat="51.260108" lon="12.021948"><ele>104.75</ele></trkpt>
   <trkpt lat="51.260313" lon="12.022013"><ele>105.25</ele></trkpt>
   <trkpt lat="51.260619" lon="12.022107"><ele>106.25</ele></trkpt>
   <trkpt lat="51.260646" lon="12.022113"><ele>106.25</ele></trkpt>
   <trkpt lat="51.260951" lon="12.022186"><ele>107.25</ele></trkpt>
   <trkpt lat="51.261231" lon="12.022238"><ele>107.75</ele></trkpt>
   <trkpt lat="51.261712" lon="12.022295"><ele>108.75</ele></trkpt>
   <trkpt lat="51.262424" lon="12.022371"><ele>109</ele></trkpt>
   <trkpt lat="51.262942" lon="12.022429"><ele>109.5</ele></trkpt>
   <trkpt lat="51.26335" lon="12.022459"><ele>110</ele></trkpt>
   <trkpt lat="51.263457" lon="12.022463"><ele>110</ele></trkpt>
   <trkpt lat="51.263476" lon="12.022466"><ele>110</ele></trkpt>
   <trkpt lat="51.264436" lon="12.022506"><ele>110</ele></trkpt>
   <trkpt lat="51.264903" lon="12.022486"><ele>110</ele></trkpt>
   <trkpt lat="51.265202" lon="12.022466"><ele>110</ele></trkpt>
   <trkpt lat="51.265369" lon="12.022443"><ele>110.25</ele></trkpt>
   <trkpt lat="51.26549" lon="12.022427"><ele>110.5</ele></trkpt>
   <trkpt lat="51.266074" lon="12.022308"><ele>111</ele></trkpt>
   <trkpt lat="51.266191" lon="12.022276"><ele>111</ele></trkpt>
   <trkpt lat="51.266937" lon="12.022076"><ele>111</ele></trkpt>
   <trkpt lat="51.267374" lon="12.021959"><ele>111.25</ele></trkpt>
   <trkpt lat="51.267571" lon="12.021909"><ele>111</ele></trkpt>
   <trkpt lat="51.268033" lon="12.021792"><ele>111</ele></trkpt>
   <trkpt lat="51.269328" lon="12.021464"><ele>112</ele></trkpt>
   <trkpt lat="51.2706" lon="12.021086"><ele>111.25</ele></trkpt>
   <trkpt lat="51.270611" lon="12.021083"><ele>111.25</ele></trkpt>
   <trkpt lat="51.270693" lon="12.021053"><ele>111.25</ele></trkpt>
   <trkpt lat="51.271613" lon="12.020721"><ele>110.75</ele></trkpt>
   <trkpt lat="51.271928" lon="12.020606"><ele>110.25</ele></trkpt>
   <trkpt lat="51.272342" lon="12.020516"><ele>109</ele></trkpt>
   <trkpt lat="51.27279" lon="12.020347"><ele>109.25</ele></trkpt>
   <trkpt lat="51.274217" lon="12.019825"><ele>110.75</ele></trkpt>
   <trkpt lat="51.275508" lon="12.019349"><ele>110.5</ele></trkpt>
   <trkpt lat="51.276551" lon="12.018942"><ele>110.75</ele></trkpt>
   <trkpt lat="51.277268" lon="12.018656"><ele>110.25</ele></trkpt>
   <trkpt lat="51.278281" lon="12.018245"><ele>110</ele></trkpt>
   <trkpt lat="51.281043" lon="12.017109"><ele>108.25</ele></trkpt>
   <trkpt lat="51.281095" lon="12.017088"><ele>108.25</ele></trkpt>
   <trkpt lat="51.28118" lon="12.017054"><ele>108.25</ele></trkpt>
   <trkpt lat="51.281191" lon="12.01705"><ele>108.25</ele></trkpt>
   <trkpt lat="51.281256" lon="12.017025"><ele>108.25</ele></trkpt>
   <trkpt lat="51.282828" lon="12.016383"><ele>107.25</ele></trkpt>
   <trkpt lat="51.282847" lon="12.016376"><ele>107.25</ele></trkpt>
   <trkpt lat="51.285541" lon="12.015276"><ele>106.5</ele></trkpt>
   <trkpt lat="51.286257" lon="12.014985"><ele>107</ele></trkpt>
   <trkpt lat="51.286446" lon="12.01491"><ele>107.25</ele></trkpt>
   <trkpt lat="51.286614" lon="12.014841"><ele>107.75</ele></trkpt>
   <trkpt lat="51.28664" lon="12.014831"><ele>107.75</ele></trkpt>
   <trkpt lat="51.287337" lon="12.014546"><ele>106.75</ele></trkpt>
   <trkpt lat="51.288369" lon="12.01412"><ele>106.75</ele></trkpt>
   <trkpt lat="51.289588" lon="12.013644"><ele>107</ele></trkpt>
   <trkpt lat="51.28998" lon="12.013462"><ele>107.75</ele></trkpt>
   <trkpt lat="51.290149" lon="12.013394"><ele>107.75</ele></trkpt>
   <trkpt lat="51.291883" lon="12.012688"><ele>106.25</ele></trkpt>
   <trkpt lat="51.293043" lon="12.012219"><ele>106.75</ele></trkpt>
   <trkpt lat="51.2931" lon="12.012193"><ele>106.75</ele></trkpt>
   <trkpt lat="51.29314" lon="12.01218"><ele>106.75</ele></trkpt>
   <trkpt lat="51.295056" lon="12.011413"><ele>106</ele></trkpt>
   <trkpt lat="51.295778" lon="12.011119"><ele>105.5</ele></trkpt>
   <trkpt lat="51.296948" lon="12.010641"><ele>106.25</ele></trkpt>
   <trkpt lat="51.298858" lon="12.009864"><ele>105.5</ele></trkpt>
   <trkpt lat="51.30003" lon="12.009382"><ele>103.75</ele></trkpt>
   <trkpt lat="51.300156" lon="12.009328"><ele>103.75</ele></trkpt>
   <trkpt lat="51.301917" lon="12.008579"><ele>104.25</ele></trkpt>
   <trkpt lat="51.303579" lon="12.007872"><ele>105.75</ele></trkpt>
   <trkpt lat="51.304728" lon="12.007402"><ele>106</ele></trkpt>
   <trkpt lat="51.305757" lon="12.00699"><ele>103.5</ele></trkpt>
   <trkpt lat="51.30651" lon="12.006687"><ele>104.75</ele></trkpt>
   <trkpt lat="51.30692" lon="12.006514"><ele>105.5</ele></trkpt>
   <trkpt lat="51.308791" lon="12.005745"><ele>105</ele></trkpt>
   <trkpt lat="51.30932" lon="12.00553"><ele>104.25</ele></trkpt>
   <trkpt lat="51.311051" lon="12.00484"><ele>105.25</ele></trkpt>
   <trkpt lat="51.311908" lon="12.004484"><ele>105.5</ele></trkpt>
   <trkpt lat="51.311978" lon="12.004459"><ele>105.75</ele></trkpt>
   <trkpt lat="51.312334" lon="12.004319"><ele>106.25</ele></trkpt>
   <trkpt lat="51.313787" lon="12.003749"><ele>105.75</ele></trkpt>
   <trkpt lat="51.315412" lon="12.003097"><ele>102.75</ele></trkpt>
   <trkpt lat="51.315783" lon="12.002944"><ele>103</ele></trkpt>
   <trkpt lat="51.317877" lon="12.002091"><ele>101.25</ele></trkpt>
   <trkpt lat="51.320857" lon="12.000884"><ele>102</ele></trkpt>
   <trkpt lat="51.321493" lon="12.000617"><ele>101.75</ele></trkpt>
   <trkpt lat="51.3227" lon="12.00013"><ele>102</ele></trkpt>
   <trkpt lat="51.322989" lon="12.000014"><ele>102</ele></trkpt>
   <trkpt lat="51.32409" lon="11.999562"><ele>102</ele></trkpt>
   <trkpt lat="51.324762" lon="11.999287"><ele>103</ele></trkpt>
   <trkpt lat="51.32478" lon="11.999279"><ele>103</ele></trkpt>
   <trkpt lat="51.326708" lon="11.998491"><ele>103.75</ele></trkpt>
   <trkpt lat="51.327505" lon="11.998163"><ele>103</ele></trkpt>
   <trkpt lat="51.327932" lon="11.997988"><ele>103</ele></trkpt>
   <trkpt lat="51.329598" lon="11.997305"><ele>102</ele></trkpt>
   <trkpt lat="51.32989" lon="11.997186"><ele>102</ele></trkpt>
   <trkpt lat="51.331595" lon="11.996489"><ele>98.5</ele></trkpt>
   <trkpt lat="51.33189" lon="11.99637"><ele>99</ele></trkpt>
   <trkpt lat="51.33218" lon="11.996251"><ele>100</ele></trkpt>
   <trkpt lat="51.334395" lon="11.99534"><ele>101.25</ele></trkpt>
   <trkpt lat="51.334819" lon="11.995165"><ele>101</ele></trkpt>
   <trkpt lat="51.335687" lon="11.994769"><ele>99.75</ele></trkpt>
   <trkpt lat="51.335762" lon="11.994734"><ele>99.75</ele></trkpt>
   <trkpt lat="51.335883" lon="11.994677"><ele>99.5</ele></trkpt>
   <trkpt lat="51.336827" lon="11.994207"><ele>99.75</ele></trkpt>
   <trkpt lat="51.336947" lon="11.994145"><ele>99.5</ele></trkpt>
   <trkpt lat="51.336965" lon="11.994136"><ele>99.5</ele></trkpt>
   <trkpt lat="51.337288" lon="11.993971"><ele>99</ele></trkpt>
   <trkpt lat="51.33837" lon="11.993418"><ele>100</ele></trkpt>
   <trkpt lat="51.338784" lon="11.993208"><ele>99.5</ele></trkpt>
   <trkpt lat="51.342133" lon="11.991508"><ele>100</ele></trkpt>
   <trkpt lat="51.343039" lon="11.991048"><ele>99.5</ele></trkpt>
   <trkpt lat="51.343384" lon="11.990885"><ele>99</ele></trkpt>
   <trkpt lat="51.343969" lon="11.990633"><ele>99</ele></trkpt>
   <trkpt lat="51.344715" lon="11.990357"><ele>99</ele></trkpt>
   <trkpt lat="51.345324" lon="11.990159"><ele>99</ele></trkpt>
   <trkpt lat="51.345768" lon="11.990032"><ele>99</ele></trkpt>
   <trkpt lat="51.346144" lon="11.989939"><ele>99</ele></trkpt>
   <trkpt lat="51.346669" lon="11.989841"><ele>99</ele></trkpt>
   <trkpt lat="51.347042" lon="11.989795"><ele>98.5</ele></trkpt>
   <trkpt lat="51.347315" lon="11.989771"><ele>98.25</ele></trkpt>
   <trkpt lat="51.348013" lon="11.989752"><ele>97.5</ele></trkpt>
   <trkpt lat="51.348314" lon="11.989761"><ele>97.25</ele></trkpt>
   <trkpt lat="51.348567" lon="11.989767"><ele>97</ele></trkpt>
   <trkpt lat="51.349269" lon="11.989785"><ele>96.25</ele></trkpt>
   <trkpt lat="51.349546" lon="11.989792"><ele>96.25</ele></trkpt>
   <trkpt lat="51.350397" lon="11.989816"><ele>97</ele></trkpt>
   <trkpt lat="51.35109" lon="11.98985"><ele>96.25</ele></trkpt>
   <trkpt lat="51.351147" lon="11.989852"><ele>95.75</ele></trkpt>
   <trkpt lat="51.351287" lon="11.989862"><ele>95</ele></trkpt>
   <trkpt lat="51.351331" lon="11.989863"><ele>94.75</ele></trkpt>
   <trkpt lat="51.351552" lon="11.989874"><ele>93.75</ele></trkpt>
   <trkpt lat="51.352152" lon="11.989882"><ele>93.5</ele></trkpt>
   <trkpt lat="51.352566" lon="11.989916"><ele>94</ele></trkpt>
   <trkpt lat="51.352724" lon="11.989937"><ele>94</ele></trkpt>
   <trkpt lat="51.353382" lon="11.990027"><ele>94</ele></trkpt>
   <trkpt lat="51.353399" lon="11.99003"><ele>94</ele></trkpt>
   <trkpt lat="51.353505" lon="11.990044"><ele>94.5</ele></trkpt>
   <trkpt lat="51.35366" lon="11.990066"><ele>95</ele></trkpt>
   <trkpt lat="51.354112" lon="11.990129"><ele>96.75</ele></trkpt>
   <trkpt lat="51.356183" lon="11.990349"><ele>97.75</ele></trkpt>
   <trkpt lat="51.356904" lon="11.990454"><ele>98.75</ele></trkpt>
   <trkpt lat="51.357028" lon="11.990474"><ele>99</ele></trkpt>
   <trkpt lat="51.357426" lon="11.990543"><ele>99</ele></trkpt>
   <trkpt lat="51.358121" lon="11.990665"><ele>99</ele></trkpt>
   <trkpt lat="51.359142" lon="11.990899"><ele>99</ele></trkpt>
   <trkpt lat="51.359776" lon="11.991054"><ele>98.75</ele></trkpt>
   <trkpt lat="51.360114" lon="11.991135"><ele>98.5</ele></trkpt>
   <trkpt lat="51.360763" lon="11.99129"><ele>97.5</ele></trkpt>
   <trkpt lat="51.360898" lon="11.991318"><ele>97.25</ele></trkpt>
   <trkpt lat="51.361844" lon="11.991493"><ele>96</ele></trkpt>
   <trkpt lat="51.362132" lon="11.991543"><ele>95.5</ele></trkpt>
   <trkpt lat="51.362374" lon="11.99158"><ele>95.25</ele></trkpt>
   <trkpt lat="51.362785" lon="11.991648"><ele>95</ele></trkpt>
   <trkpt lat="51.362997" lon="11.991685"><ele>94.75</ele></trkpt>
   <trkpt lat="51.363116" lon="11.991705"><ele>94.75</ele></trkpt>
   <trkpt lat="51.363121" lon="11.991706"><ele>94.75</ele></trkpt>
   <trkpt lat="51.363912" lon="11.991826"><ele>94</ele></trkpt>
   <trkpt lat="51.365368" lon="11.992038"><ele>93.75</ele></trkpt>
   <trkpt lat="51.366803" lon="11.992265"><ele>94</ele></trkpt>
   <trkpt lat="51.366811" lon="11.992267"><ele>94</ele></trkpt>
   <trkpt lat="51.366952" lon="11.992287"><ele>94</ele></trkpt>
   <trkpt lat="51.367058" lon="11.992305"><ele>94</ele></trkpt>
   <trkpt lat="51.370919" lon="11.992938"><ele>99</ele></trkpt>
   <trkpt lat="51.371388" lon="11.993009"><ele>99.25</ele></trkpt>
   <trkpt lat="51.372194" lon="11.99314"><ele>98.75</ele></trkpt>
   <trkpt lat="51.373788" lon="11.993403"><ele>97</ele></trkpt>
   <trkpt lat="51.376382" lon="11.993785"><ele>98</ele></trkpt>
   <trkpt lat="51.376885" lon="11.993848"><ele>97.5</ele></trkpt>
   <trkpt lat="51.377049" lon="11.993871"><ele>96.75</ele></trkpt>
   <trkpt lat="51.377526" lon="11.993913"><ele>95.5</ele></trkpt>
   <trkpt lat="51.378023" lon="11.993943"><ele>93.5</ele></trkpt>
   <trkpt lat="51.378377" lon="11.993954"><ele>92.25</ele></trkpt>
   <trkpt lat="51.379153" lon="11.993943"><ele>91.5</ele></trkpt>
   <trkpt lat="51.380062" lon="11.993887"><ele>91</ele></trkpt>
   <trkpt lat="51.380227" lon="11.993877"><ele>91</ele></trkpt>
   <trkpt lat="51.380252" lon="11.993875"><ele>91</ele></trkpt>
   <trkpt lat="51.380664" lon="11.993862"><ele>91.5</ele></trkpt>
   <trkpt lat="51.381427" lon="11.993909"><ele>91.25</ele></trkpt>
   <trkpt lat="51.381716" lon="11.993904"><ele>91.25</ele></trkpt>
   <trkpt lat="51.381734" lon="11.993904"><ele>91</ele></trkpt>
   <trkpt lat="51.382032" lon="11.993877"><ele>90.75</ele></trkpt>
   <trkpt lat="51.382505" lon="11.993801"><ele>90.25</ele></trkpt>
   <trkpt lat="51.383411" lon="11.993698"><ele>90.75</ele></trkpt>
   <trkpt lat="51.384005" lon="11.993612"><ele>92.25</ele></trkpt>
   <trkpt lat="51.384656" lon="11.993495"><ele>92.75</ele></trkpt>
   <trkpt lat="51.384982" lon="11.993426"><ele>92.5</ele></trkpt>
   <trkpt lat="51.38563" lon="11.993277"><ele>92.25</ele></trkpt>
   <trkpt lat="51.386201" lon="11.993114"><ele>92.25</ele></trkpt>
   <trkpt lat="51.386563" lon="11.992997"><ele>92.5</ele></trkpt>
   <trkpt lat="51.386853" lon="11.992892"><ele>92.25</ele></trkpt>
   <trkpt lat="51.388344" lon="11.9923"><ele>92.75</ele></trkpt>
   <trkpt lat="51.388364" lon="11.992292"><ele>92.75</ele></trkpt>
   <trkpt lat="51.38905" lon="11.992021"><ele>92.75</ele></trkpt>
   <trkpt lat="51.389749" lon="11.99177"><ele>91.5</ele></trkpt>
   <trkpt lat="51.390349" lon="11.991588"><ele>90.25</ele></trkpt>
   <trkpt lat="51.390695" lon="11.991494"><ele>90</ele></trkpt>
   <trkpt lat="51.391236" lon="11.991368"><ele>89.5</ele></trkpt>
   <trkpt lat="51.391623" lon="11.991288"><ele>89</ele></trkpt>
   <trkpt lat="51.392557" lon="11.99113"><ele>84.75</ele></trkpt>
   <trkpt lat="51.393241" lon="11.991045"><ele>84.5</ele></trkpt>
   <trkpt lat="51.393649" lon="11.990969"><ele>84.5</ele></trkpt>
   <trkpt lat="51.393865" lon="11.990922"><ele>84.5</ele></trkpt>
   <trkpt lat="51.393871" lon="11.990921"><ele>84.5</ele></trkpt>
   <trkpt lat="51.394526" lon="11.990781"><ele>84.5</ele></trkpt>
   <trkpt lat="51.395588" lon="11.99058"><ele>83.5</ele></trkpt>
   <trkpt lat="51.396302" lon="11.990458"><ele>82.5</ele></trkpt>
   <trkpt lat="51.396654" lon="11.990402"><ele>82</ele></trkpt>
   <trkpt lat="51.396953" lon="11.990354"><ele>82</ele></trkpt>
   <trkpt lat="51.397062" lon="11.990335"><ele>82.25</ele></trkpt>
   <trkpt lat="51.39785" lon="11.990203"><ele>82.25</ele></trkpt>
   <trkpt lat="51.399247" lon="11.989991"><ele>81</ele></trkpt>
   <trkpt lat="51.400121" lon="11.989898"><ele>81.75</ele></trkpt>
   <trkpt lat="51.400515" lon="11.989863"><ele>81.75</ele></trkpt>
   <trkpt lat="51.401859" lon="11.989753"><ele>82.25</ele></trkpt>
   <trkpt lat="51.40515" lon="11.989465"><ele>81.25</ele></trkpt>
   <trkpt lat="51.405715" lon="11.989423"><ele>81.5</ele></trkpt>
   <trkpt lat="51.405921" lon="11.989407"><ele>81.5</ele></trkpt>
   <trkpt lat="51.409501" lon="11.989128"><ele>80.5</ele></trkpt>
   <trkpt lat="51.411762" lon="11.988946"><ele>80.25</ele></trkpt>
   <trkpt lat="51.412239" lon="11.988908"><ele>81.5</ele></trkpt>
   <trkpt lat="51.412495" lon="11.98889"><ele>82.25</ele></trkpt>
   <trkpt lat="51.414544" lon="11.988724"><ele>81.75</ele></trkpt>
   <trkpt lat="51.414752" lon="11.988707"><ele>81.5</ele></trkpt>
   <trkpt lat="51.415185" lon="11.98867"><ele>81.25</ele></trkpt>
   <trkpt lat="51.415611" lon="11.988632"><ele>81</ele></trkpt>
   <trkpt lat="51.415684" lon="11.988624"><ele>81</ele></trkpt>
   <trkpt lat="51.415695" lon="11.988623"><ele>81</ele></trkpt>
   <trkpt lat="51.416106" lon="11.988598"><ele>81</ele></trkpt>
   <trkpt lat="51.416144" lon="11.988595"><ele>81.25</ele></trkpt>
   <trkpt lat="51.416348" lon="11.988574"><ele>81.25</ele></trkpt>
   <trkpt lat="51.416881" lon="11.988487"><ele>81.75</ele></trkpt>
   <trkpt lat="51.417186" lon="11.988448"><ele>81.75</ele></trkpt>
   <trkpt lat="51.417431" lon="11.988428"><ele>81.75</ele></trkpt>
   <trkpt lat="51.417899" lon="11.988407"><ele>82.25</ele></trkpt>
   <trkpt lat="51.418251" lon="11.98841"><ele>82.75</ele></trkpt>
   <trkpt lat="51.418495" lon="11.988395"><ele>82.5</ele></trkpt>
   <trkpt lat="51.418891" lon="11.988362"><ele>82.25</ele></trkpt>
   <trkpt lat="51.420341" lon="11.988244"><ele>81.75</ele></trkpt>
   <trkpt lat="51.421286" lon="11.988181"><ele>84.75</ele></trkpt>
   <trkpt lat="51.422073" lon="11.988163"><ele>89.5</ele></trkpt>
   <trkpt lat="51.422175" lon="11.988157"><ele>90</ele></trkpt>
   <trkpt lat="51.423262" lon="11.988119"><ele>91.5</ele></trkpt>
   <trkpt lat="51.424352" lon="11.988041"><ele>92.25</ele></trkpt>
   <trkpt lat="51.424561" lon="11.988028"><ele>92.25</ele></trkpt>
   <trkpt lat="51.424924" lon="11.988007"><ele>92.5</ele></trkpt>
   <trkpt lat="51.425148" lon="11.988001"><ele>92.5</ele></trkpt>
   <trkpt lat="51.425409" lon="11.987995"><ele>92.75</ele></trkpt>
   <trkpt lat="51.427597" lon="11.987956"><ele>93.5</ele></trkpt>
   <trkpt lat="51.428115" lon="11.987955"><ele>94</ele></trkpt>
   <trkpt lat="51.428141" lon="11.987955"><ele>94</ele></trkpt>
   <trkpt lat="51.429402" lon="11.987959"><ele>94.75</ele></trkpt>
   <trkpt lat="51.430152" lon="11.987949"><ele>95.25</ele></trkpt>
   <trkpt lat="51.43025" lon="11.987948"><ele>95.25</ele></trkpt>
   <trkpt lat="51.430329" lon="11.987945"><ele>95.25</ele></trkpt>
   <trkpt lat="51.430796" lon="11.98794"><ele>94.75</ele></trkpt>
   <trkpt lat="51.431492" lon="11.987933"><ele>94.75</ele></trkpt>
   <trkpt lat="51.432161" lon="11.987947"><ele>95</ele></trkpt>
   <trkpt lat="51.432866" lon="11.987977"><ele>95</ele></trkpt>
   <trkpt lat="51.433285" lon="11.987998"><ele>95.25</ele></trkpt>
   <trkpt lat="51.433521" lon="11.98801"><ele>95.5</ele></trkpt>
   <trkpt lat="51.433592" lon="11.988012"><ele>95.5</ele></trkpt>
   <trkpt lat="51.433693" lon="11.988014"><ele>95.75</ele></trkpt>
   <trkpt lat="51.435091" lon="11.988074"><ele>97.25</ele></trkpt>
   <trkpt lat="51.435633" lon="11.988101"><ele>98</ele></trkpt>
  </trkseg>
 </trk>
</gpx>