<?xml version="1.0" encoding="UTF-8"?>
<!-- track-length = 32948 filtered ascend = 60 plain-ascend = -15 cost=32948 energy=0.4kwh time=43m 56s -->
<gpx 
 xmlns="http://www.topografix.com/GPX/1/1" 
 xmlns:xsi="http://www.w3.org/2001/XMLSchema-instance" 
 xsi:schemaLocation="http://www.topografix.com/GPX/1/1 http://www.topografix.com/GPX/1/1/gpx.xsd" 
 version="1.1" 
 creator="BRouter-Web 0.18.1">
 <trk>
  <name>Großenhain - Ruhland</name>
  <trkseg>
   <trkpt lat="51.291827" lon="13.523886"><ele>115.75</ele></trkpt>
   <trkpt lat="51.292093" lon="13.52398"><ele>115.5</ele></trkpt>
   <trkpt lat="51.292607" lon="13.524135"><ele>115</ele></trkpt>
   <trkpt lat="51.292792" lon="13.524185"><ele>115.25</ele></trkpt>
   <trkpt lat="51.293024" lon="13.524234"><ele>115.75</ele></trkpt>
   <trkpt lat="51.293309" lon="13.524281"><ele>116</ele></trkpt>
   <trkpt lat="51.293384" lon="13.524294"><ele>116.25</ele></trkpt>
   <trkpt lat="51.293792" lon="13.524366"><ele>116.25</ele></trkpt>
   <trkpt lat="51.293842" lon="13.524375"><ele>116.25</ele></trkpt>
   <trkpt lat="51.293998" lon="13.524393"><ele>116.25</ele></trkpt>
   <trkpt lat="51.294447" lon="13.524473"><ele>116.25</ele></trkpt>
   <trkpt lat="51.294794" lon="13.524551"><ele>116.25</ele></trkpt>
   <trkpt lat="51.295105" lon="13.524641"><ele>116.5</ele></trkpt>
   <trkpt lat="51.295281" lon="13.524704"><ele>116.5</ele></trkpt>
   <trkpt lat="51.295516" lon="13.52482"><ele>116.75</ele></trkpt>
   <trkpt lat="51.295837" lon="13.525025"><ele>117</ele></trkpt>
   <trkpt lat="51.296009" lon="13.525146"><ele>117</ele></trkpt>
   <trkpt lat="51.296191" lon="13.525274"><ele>117.25</ele></trkpt>
   <trkpt lat="51.296209" lon="13.525289"><ele>117.25</ele></trkpt>
   <trkpt lat="51.296449" lon="13.525485"><ele>117.5</ele></trkpt>
   <trkpt lat="51.29665" lon="13.525675"><ele>117.75</ele></trkpt>
   <trkpt lat="51.296848" lon="13.525876"><ele>117.75</ele></trkpt>
   <trkpt lat="51.296982" lon="13.526029"><ele>117.5</ele></trkpt>
   <trkpt lat="51.297065" lon="13.52614"><ele>117.5</ele></trkpt>
   <trkpt lat="51.297334" lon="13.5265"><ele>116.5</ele></trkpt>
   <trkpt lat="51.297498" lon="13.526749"><ele>116</ele></trkpt>
   <trkpt lat="51.297668" lon="13.527039"><ele>115.75</ele></trkpt>
   <trkpt lat="51.297813" lon="13.527299"><ele>115.5</ele></trkpt>
   <trkpt lat="51.297953" lon="13.52758"><ele>115.5</ele></trkpt>
   <trkpt lat="51.298188" lon="13.528089"><ele>115.75</ele></trkpt>
   <trkpt lat="51.298445" lon="13.528783"><ele>116</ele></trkpt>
   <trkpt lat="51.298533" lon="13.529061"><ele>116</ele></trkpt>
   <trkpt lat="51.298629" lon="13.529386"><ele>116</ele></trkpt>
   <trkpt lat="51.298713" lon="13.52971"><ele>116</ele></trkpt>
   <trkpt lat="51.298787" lon="13.530038"><ele>116</ele></trkpt>
   <trkpt lat="51.298922" lon="13.53075"><ele>116.25</ele></trkpt>
   <trkpt lat="51.299065" lon="13.531619"><ele>117</ele></trkpt>
   <trkpt lat="51.299339" lon="13.533313"><ele>119.25</ele></trkpt>
   <trkpt lat="51.299436" lon="13.533899"><ele>120</ele></trkpt>
   <trkpt lat="51.299447" lon="13.53397"><ele>120</ele></trkpt>
   <trkpt lat="51.299459" lon="13.534045"><ele>120.25</ele></trkpt>
   <trkpt lat="51.299695" lon="13.535525"><ele>121.5</ele></trkpt>
   <trkpt lat="51.299757" lon="13.535887"><ele>121.5</ele></trkpt>
   <trkpt lat="51.2999" lon="13.536786"><ele>121</ele></trkpt>
   <trkpt lat="51.300203" lon="13.53866"><ele>121</ele></trkpt>
   <trkpt lat="51.300504" lon="13.540541"><ele>122.5</ele></trkpt>
   <trkpt lat="51.300648" lon="13.541478"><ele>122.75</ele></trkpt>
   <trkpt lat="51.301126" lon="13.544429"><ele>123.25</ele></trkpt>
   <trkpt lat="51.301193" lon="13.544895"><ele>123.25</ele></trkpt>
   <trkpt lat="51.301295" lon="13.545755"><ele>123.5</ele></trkpt>
   <trkpt lat="51.301334" lon="13.546185"><ele>123.75</ele></trkpt>
   <trkpt lat="51.301405" lon="13.547112"><ele>124.25</ele></trkpt>
   <trkpt lat="51.301549" lon="13.550008"><ele>124.5</ele></trkpt>
   <trkpt lat="51.301556" lon="13.550141"><ele>124.5</ele></trkpt>
   <trkpt lat="51.302064" lon="13.56119"><ele>125.25</ele></trkpt>
   <trkpt lat="51.302536" lon="13.57126"><ele>120.5</ele></trkpt>
   <trkpt lat="51.302909" lon="13.579149"><ele>121.25</ele></trkpt>
   <trkpt lat="51.303432" lon="13.590434"><ele>121.5</ele></trkpt>
   <trkpt lat="51.304089" lon="13.604618"><ele>124.75</ele></trkpt>
   <trkpt lat="51.304488" lon="13.613169"><ele>127</ele></trkpt>
   <trkpt lat="51.304899" lon="13.622029"><ele>132.25</ele></trkpt>
   <trkpt lat="51.305263" lon="13.629898"><ele>137</ele></trkpt>
   <trkpt lat="51.305562" lon="13.636356"><ele>132.5</ele></trkpt>
   <trkpt lat="51.305881" lon="13.643331"><ele>129.75</ele></trkpt>
   <trkpt lat="51.305889" lon="13.643536"><ele>129.75</ele></trkpt>
   <trkpt lat="51.306443" lon="13.655456"><ele>140.25</ele></trkpt>
   <trkpt lat="51.306505" lon="13.656809"><ele>139.25</ele></trkpt>
   <trkpt lat="51.306731" lon="13.661888"><ele>140.25</ele></trkpt>
   <trkpt lat="51.306877" lon="13.664935"><ele>145</ele></trkpt>
   <trkpt lat="51.307097" lon="13.669775"><ele>145.25</ele></trkpt>
   <trkpt lat="51.307135" lon="13.670566"><ele>145</ele></trkpt>
   <trkpt lat="51.3072" lon="13.672"><ele>145</ele></trkpt>
   <trkpt lat="51.307257" lon="13.672918"><ele>144.75</ele></trkpt>
   <trkpt lat="51.307326" lon="13.673784"><ele>144.75</ele></trkpt>
   <trkpt lat="51.307421" lon="13.674685"><ele>145.75</ele></trkpt>
   <trkpt lat="51.307549" lon="13.675679"><ele>146</ele></trkpt>
   <trkpt lat="51.307642" lon="13.676296"><ele>146.5</ele></trkpt>
   <trkpt lat="51.307683" lon="13.676559"><ele>147</ele></trkpt>
   <trkpt lat="51.307754" lon="13.676978"><ele>147.5</ele></trkpt>
   <trkpt lat="51.307763" lon="13.677037"><ele>147.75</ele></trkpt>
   <trkpt lat="51.307831" lon="13.677406"><ele>148.25</ele></trkpt>
   <trkpt lat="51.307995" lon="13.678292"><ele>149.5</ele></trkpt>
   <trkpt lat="51.308237" lon="13.679327"><ele>149.75</ele></trkpt>
   <trkpt lat="51.30825" lon="13.679384"><ele>149.75</ele></trkpt>
   <trkpt lat="51.308345" lon="13.679751"><ele>150</ele></trkpt>
   <trkpt lat="51.308525" lon="13.680405"><ele>150.25</ele></trkpt>
   <trkpt lat="51.308581" lon="13.680608"><ele>150.25</ele></trkpt>
   <trkpt lat="51.308748" lon="13.681154"><ele>150</ele></trkpt>
   <trkpt lat="51.309486" lon="13.683493"><ele>149</ele></trkpt>
   <trkpt lat="51.309937" lon="13.684827"><ele>149.75</ele></trkpt>
   <trkpt lat="51.310495" lon="13.686302"><ele>149.25</ele></trkpt>
   <trkpt lat="51.310884" lon="13.687241"><ele>148.25</ele></trkpt>
   <trkpt lat="51.311229" lon="13.688033"><ele>147.5</ele></trkpt>
   <trkpt lat="51.311482" lon="13.688583"><ele>147</ele></trkpt>
   <trkpt lat="51.311958" lon="13.689603"><ele>146.75</ele></trkpt>
   <trkpt lat="51.312243" lon="13.690159"><ele>146.5</ele></trkpt>
   <trkpt lat="51.312818" lon="13.691456"><ele>148</ele></trkpt>
   <trkpt lat="51.313856" lon="13.693701"><ele>152.75</ele></trkpt>
   <trkpt lat="51.314247" lon="13.694524"><ele>152</ele></trkpt>
   <trkpt lat="51.315709" lon="13.697685"><ele>147.5</ele></trkpt>
   <trkpt lat="51.316513" lon="13.699379"><ele>146.5</ele></trkpt>
   <trkpt lat="51.316924" lon="13.700159"><ele>145.5</ele></trkpt>
   <trkpt lat="51.317311" lon="13.700841"><ele>144.75</ele></trkpt>
   <trkpt lat="51.31778" lon="13.701612"><ele>144.25</ele></trkpt>
   <trkpt lat="51.321542" lon="13.707242"><ele>151.5</ele></trkpt>
   <trkpt lat="51.321969" lon="13.707844"><ele>152.75</ele></trkpt>
   <trkpt lat="51.322343" lon="13.708348"><ele>153.5</ele></trkpt>
   <trkpt lat="51.322839" lon="13.708961"><ele>154.25</ele></trkpt>
   <trkpt lat="51.323357" lon="13.70954"><ele>155.5</ele></trkpt>
   <trkpt lat="51.323892" lon="13.7101"><ele>156</ele></trkpt>
   <trkpt lat="51.324431" lon="13.710604"><ele>156.5</ele></trkpt>
   <trkpt lat="51.324969" lon="13.711067"><ele>157</ele></trkpt>
   <trkpt lat="51.325534" lon="13.711508"><ele>157.25</ele></trkpt>
   <trkpt lat="51.326128" lon="13.711925"><ele>157.75</ele></trkpt>
   <trkpt lat="51.326705" lon="13.712283"><ele>157.5</ele></trkpt>
   <trkpt lat="51.327289" lon="13.712593"><ele>157.5</ele></trkpt>
   <trkpt lat="51.327929" lon="13.712896"><ele>157.5</ele></trkpt>
   <trkpt lat="51.328447" lon="13.713109"><ele>157.5</ele></trkpt>
   <trkpt lat="51.328913" lon="13.713271"><ele>158.25</ele></trkpt>
   <trkpt lat="51.329534" lon="13.713457"><ele>159</ele></trkpt>
   <trkpt lat="51.330263" lon="13.713617"><ele>159</ele></trkpt>
   <trkpt lat="51.331501" lon="13.713753"><ele>161.5</ele></trkpt>
   <trkpt lat="51.337317" lon="13.714456"><ele>171.25</ele></trkpt>
   <trkpt lat="51.337661" lon="13.714523"><ele>172</ele></trkpt>
   <trkpt lat="51.338273" lon="13.714674"><ele>173</ele></trkpt>
   <trkpt lat="51.338866" lon="13.714889"><ele>174.75</ele></trkpt>
   <trkpt lat="51.33939" lon="13.7151"><ele>176</ele></trkpt>
   <trkpt lat="51.339626" lon="13.715214"><ele>176.25</ele></trkpt>
   <trkpt lat="51.340209" lon="13.715556"><ele>176</ele></trkpt>
   <trkpt lat="51.340746" lon="13.715918"><ele>175.25</ele></trkpt>
   <trkpt lat="51.341207" lon="13.716256"><ele>173.75</ele></trkpt>
   <trkpt lat="51.341576" lon="13.716582"><ele>171.5</ele></trkpt>
   <trkpt lat="51.341869" lon="13.716875"><ele>170.75</ele></trkpt>
   <trkpt lat="51.342407" lon="13.717445"><ele>170</ele></trkpt>
   <trkpt lat="51.342681" lon="13.717764"><ele>169.25</ele></trkpt>
   <trkpt lat="51.343248" lon="13.718498"><ele>167.25</ele></trkpt>
   <trkpt lat="51.344374" lon="13.72007"><ele>165.75</ele></trkpt>
   <trkpt lat="51.346632" lon="13.723174"><ele>155.75</ele></trkpt>
   <trkpt lat="51.346683" lon="13.723244"><ele>155.25</ele></trkpt>
   <trkpt lat="51.348255" lon="13.72544"><ele>150</ele></trkpt>
   <trkpt lat="51.348653" lon="13.726033"><ele>150</ele></trkpt>
   <trkpt lat="51.349055" lon="13.726689"><ele>148.75</ele></trkpt>
   <trkpt lat="51.349504" lon="13.727495"><ele>146.75</ele></trkpt>
   <trkpt lat="51.349914" lon="13.728293"><ele>147</ele></trkpt>
   <trkpt lat="51.350324" lon="13.72915"><ele>143</ele></trkpt>
   <trkpt lat="51.351958" lon="13.732945"><ele>143.75</ele></trkpt>
   <trkpt lat="51.352029" lon="13.733106"><ele>143.75</ele></trkpt>
   <trkpt lat="51.352203" lon="13.73352"><ele>144.5</ele></trkpt>
   <trkpt lat="51.355358" lon="13.740896"><ele>147.25</ele></trkpt>
   <trkpt lat="51.355717" lon="13.741725"><ele>145</ele></trkpt>
   <trkpt lat="51.356088" lon="13.742558"><ele>142</ele></trkpt>
   <trkpt lat="51.356501" lon="13.743395"><ele>138.25</ele></trkpt>
   <trkpt lat="51.356943" lon="13.744202"><ele>136.75</ele></trkpt>
   <trkpt lat="51.357484" lon="13.745098"><ele>135.75</ele></trkpt>
   <trkpt lat="51.357754" lon="13.745526"><ele>135.75</ele></trkpt>
   <trkpt lat="51.358567" lon="13.74672"><ele>134.75</ele></trkpt>
   <trkpt lat="51.362222" lon="13.751979"><ele>126</ele></trkpt>
   <trkpt lat="51.362606" lon="13.752528"><ele>126</ele></trkpt>
   <trkpt lat="51.363454" lon="13.753759"><ele>124.25</ele></trkpt>
   <trkpt lat="51.365467" lon="13.756655"><ele>121</ele></trkpt>
   <trkpt lat="51.366262" lon="13.757783"><ele>121.5</ele></trkpt>
   <trkpt lat="51.367068" lon="13.758821"><ele>121.75</ele></trkpt>
   <trkpt lat="51.367805" lon="13.759639"><ele>119.5</ele></trkpt>
   <trkpt lat="51.368502" lon="13.760353"><ele>117.25</ele></trkpt>
   <trkpt lat="51.368799" lon="13.760643"><ele>117.5</ele></trkpt>
   <trkpt lat="51.369802" lon="13.761562"><ele>117</ele></trkpt>
   <trkpt lat="51.369963" lon="13.761708"><ele>116.75</ele></trkpt>
   <trkpt lat="51.370245" lon="13.761965"><ele>116.75</ele></trkpt>
   <trkpt lat="51.373192" lon="13.764621"><ele>115.75</ele></trkpt>
   <trkpt lat="51.373571" lon="13.764962"><ele>115.5</ele></trkpt>
   <trkpt lat="51.374701" lon="13.765978"><ele>112.5</ele></trkpt>
   <trkpt lat="51.374808" lon="13.766072"><ele>112.25</ele></trkpt>
   <trkpt lat="51.375037" lon="13.766269"><ele>111.75</ele></trkpt>
   <trkpt lat="51.376126" lon="13.767224"><ele>110</ele></trkpt>
   <trkpt lat="51.376324" lon="13.76741"><ele>109.25</ele></trkpt>
   <trkpt lat="51.376523" lon="13.767591"><ele>108.5</ele></trkpt>
   <trkpt lat="51.378253" lon="13.769095"><ele>108</ele></trkpt>
   <trkpt lat="51.378395" lon="13.769216"><ele>107.75</ele></trkpt>
   <trkpt lat="51.382746" lon="13.773118"><ele>113.5</ele></trkpt>
   <trkpt lat="51.384489" lon="13.774664"><ele>109.5</ele></trkpt>
   <trkpt lat="51.386145" lon="13.776197"><ele>106</ele></trkpt>
   <trkpt lat="51.386601" lon="13.776647"><ele>107.75</ele></trkpt>
   <trkpt lat="51.387054" lon="13.777145"><ele>107.75</ele></trkpt>
   <trkpt lat="51.387455" lon="13.77762"><ele>107.25</ele></trkpt>
   <trkpt lat="51.388078" lon="13.77843"><ele>106.5</ele></trkpt>
   <trkpt lat="51.394184" lon="13.78659"><ele>107</ele></trkpt>
   <trkpt lat="51.395272" lon="13.788048"><ele>106.25</ele></trkpt>
   <trkpt lat="51.411191" lon="13.809288"><ele>106.75</ele></trkpt>
   <trkpt lat="51.416475" lon="13.816333"><ele>109.5</ele></trkpt>
   <trkpt lat="51.419341" lon="13.820142"><ele>108.75</ele></trkpt>
   <trkpt lat="51.424072" lon="13.826476"><ele>109.5</ele></trkpt>
   <trkpt lat="51.433077" lon="13.8385"><ele>107.75</ele></trkpt>
   <trkpt lat="51.43411" lon="13.839867"><ele>107.5</ele></trkpt>
   <trkpt lat="51.435134" lon="13.841223"><ele>108.5</ele></trkpt>
   <trkpt lat="51.438188" lon="13.845323"><ele>108.25</ele></trkpt>
   <trkpt lat="51.438269" lon="13.845433"><ele>108.5</ele></trkpt>
   <trkpt lat="51.438998" lon="13.84641"><ele>108.75</ele></trkpt>
   <trkpt lat="51.441194" lon="13.849348"><ele>111.5</ele></trkpt>
   <trkpt lat="51.443028" lon="13.851816"><ele>103.25</ele></trkpt>
   <trkpt lat="51.443197" lon="13.852052"><ele>103.75</ele></trkpt>
   <trkpt lat="51.447955" lon="13.8587"><ele>102.5</ele></trkpt>
   <trkpt lat="51.448196" lon="13.859057"><ele>102.25</ele></trkpt>
   <trkpt lat="51.44839" lon="13.859363"><ele>102.25</ele></trkpt>
   <trkpt lat="51.448579" lon="13.859682"><ele>102</ele></trkpt>
   <trkpt lat="51.448889" lon="13.860233"><ele>101.5</ele></trkpt>
   <trkpt lat="51.449387" lon="13.861217"><ele>102.75</ele></trkpt>
   <trkpt lat="51.449986" lon="13.862411"><ele>102</ele></trkpt>
   <trkpt lat="51.450259" lon="13.862929"><ele>101.25</ele></trkpt>
   <trkpt lat="51.450339" lon="13.863072"><ele>101.25</ele></trkpt>
   <trkpt lat="51.450613" lon="13.863534"><ele>101.5</ele></trkpt>
   <trkpt lat="51.450897" lon="13.863974"><ele>101.75</ele></trkpt>
   <trkpt lat="51.451258" lon="13.864482"><ele>101.25</ele></trkpt>
   <trkpt lat="51.451449" lon="13.86475"><ele>101.25</ele></trkpt>
   <trkpt lat="51.451505" lon="13.864829"><ele>101</ele></trkpt>
   <trkpt lat="51.451951" lon="13.865449"><ele>101.25</ele></trkpt>
   <trkpt lat="51.452197" lon="13.865793"><ele>101.5</ele></trkpt>
   <trkpt lat="51.452777" lon="13.866601"><ele>100.75</ele></trkpt>
   <trkpt lat="51.453591" lon="13.867734"><ele>99.75</ele></trkpt>
   <trkpt lat="51.455238" lon="13.870023"><ele>100.5</ele></trkpt>
   <trkpt lat="51.455581" lon="13.870507"><ele>100</ele></trkpt>
  </trkseg>
 </trk>
</gpx>