<?xml version="1.0" encoding="UTF-8"?>
<!-- track-length = 28011 filtered ascend = 40 plain-ascend = 12 cost=28011 energy=0.3kwh time=37m 23s -->
<gpx 
 xmlns="http://www.topografix.com/GPX/1/1" 
 xmlns:xsi="http://www.w3.org/2001/XMLSchema-instance" 
 xsi:schemaLocation="http://www.topografix.com/GPX/1/1 http://www.topografix.com/GPX/1/1/gpx.xsd" 
 version="1.1" 
 creator="BRouter-Web 0.18.1">
 <trk>
  <name>Güterumgehung Hamburg</name>
  <trkseg>
   <trkpt lat="53.521595" lon="10.012832"><ele>4.5</ele></trkpt>
   <trkpt lat="53.521802" lon="10.012983"><ele>4.5</ele></trkpt>
   <trkpt lat="53.522214" lon="10.013261"><ele>5.25</ele></trkpt>
   <trkpt lat="53.522753" lon="10.013658"><ele>7</ele></trkpt>
   <trkpt lat="53.523217" lon="10.01403"><ele>7</ele></trkpt>
   <trkpt lat="53.523803" lon="10.014477"><ele>6.75</ele></trkpt>
   <trkpt lat="53.52425" lon="10.014804"><ele>5.75</ele></trkpt>
   <trkpt lat="53.524492" lon="10.014982"><ele>5</ele></trkpt>
   <trkpt lat="53.525165" lon="10.015483"><ele>6.75</ele></trkpt>
   <trkpt lat="53.525482" lon="10.015734"><ele>6.5</ele></trkpt>
   <trkpt lat="53.525931" lon="10.016121"><ele>6</ele></trkpt>
   <trkpt lat="53.526306" lon="10.016468"><ele>5.75</ele></trkpt>
   <trkpt lat="53.526543" lon="10.016714"><ele>5.75</ele></trkpt>
   <trkpt lat="53.526766" lon="10.016911"><ele>5.75</ele></trkpt>
   <trkpt lat="53.527472" lon="10.017696"><ele>5.75</ele></trkpt>
   <trkpt lat="53.527554" lon="10.017774"><ele>6</ele></trkpt>
   <trkpt lat="53.527987" lon="10.018188"><ele>5.75</ele></trkpt>
   <trkpt lat="53.528121" lon="10.01832"><ele>5.75</ele></trkpt>
   <trkpt lat="53.528552" lon="10.018776"><ele>5.25</ele></trkpt>
   <trkpt lat="53.528713" lon="10.018925"><ele>3.25</ele></trkpt>
   <trkpt lat="53.528899" lon="10.019107"><ele>1</ele></trkpt>
   <trkpt lat="53.529135" lon="10.019323"><ele>1.25</ele></trkpt>
   <trkpt lat="53.529265" lon="10.019442"><ele>3.75</ele></trkpt>
   <trkpt lat="53.529891" lon="10.020016"><ele>6.75</ele></trkpt>
   <trkpt lat="53.529903" lon="10.020027"><ele>6.75</ele></trkpt>
   <trkpt lat="53.530605" lon="10.020686"><ele>8</ele></trkpt>
   <trkpt lat="53.530832" lon="10.0209"><ele>7.75</ele></trkpt>
   <trkpt lat="53.531562" lon="10.021561"><ele>7.5</ele></trkpt>
   <trkpt lat="53.531623" lon="10.021616"><ele>7.25</ele></trkpt>
   <trkpt lat="53.531677" lon="10.021664"><ele>6.75</ele></trkpt>
   <trkpt lat="53.534103" lon="10.023886"><ele>6.5</ele></trkpt>
   <trkpt lat="53.534391" lon="10.024148"><ele>8.75</ele></trkpt>
   <trkpt lat="53.534602" lon="10.024334"><ele>6.75</ele></trkpt>
   <trkpt lat="53.534735" lon="10.024445"><ele>7</ele></trkpt>
   <trkpt lat="53.5351" lon="10.024713"><ele>8.75</ele></trkpt>
   <trkpt lat="53.535107" lon="10.024718"><ele>8.75</ele></trkpt>
   <trkpt lat="53.535401" lon="10.024919"><ele>8.5</ele></trkpt>
   <trkpt lat="53.535551" lon="10.025007"><ele>7.75</ele></trkpt>
   <trkpt lat="53.535716" lon="10.025092"><ele>7.75</ele></trkpt>
   <trkpt lat="53.53599" lon="10.025208"><ele>7.75</ele></trkpt>
   <trkpt lat="53.536229" lon="10.025278"><ele>7.75</ele></trkpt>
   <trkpt lat="53.536466" lon="10.025323"><ele>7.75</ele></trkpt>
   <trkpt lat="53.537141" lon="10.025417"><ele>8</ele></trkpt>
   <trkpt lat="53.537467" lon="10.025509"><ele>8.25</ele></trkpt>
   <trkpt lat="53.537768" lon="10.025641"><ele>8.25</ele></trkpt>
   <trkpt lat="53.538001" lon="10.025777"><ele>8.25</ele></trkpt>
   <trkpt lat="53.538165" lon="10.025897"><ele>8.5</ele></trkpt>
   <trkpt lat="53.538264" lon="10.025983"><ele>8.5</ele></trkpt>
   <trkpt lat="53.538464" lon="10.026171"><ele>8.5</ele></trkpt>
   <trkpt lat="53.538472" lon="10.026179"><ele>8.5</ele></trkpt>
   <trkpt lat="53.538578" lon="10.026293"><ele>8.5</ele></trkpt>
   <trkpt lat="53.538714" lon="10.026465"><ele>8.5</ele></trkpt>
   <trkpt lat="53.538946" lon="10.026806"><ele>8.75</ele></trkpt>
   <trkpt lat="53.53903" lon="10.026952"><ele>8.75</ele></trkpt>
   <trkpt lat="53.53914" lon="10.027157"><ele>8.75</ele></trkpt>
   <trkpt lat="53.539242" lon="10.02738"><ele>8.75</ele></trkpt>
   <trkpt lat="53.539389" lon="10.027751"><ele>9</ele></trkpt>
   <trkpt lat="53.539516" lon="10.028149"><ele>9</ele></trkpt>
   <trkpt lat="53.539611" lon="10.028523"><ele>9</ele></trkpt>
   <trkpt lat="53.53969" lon="10.028932"><ele>9</ele></trkpt>
   <trkpt lat="53.539736" lon="10.029284"><ele>9.25</ele></trkpt>
   <trkpt lat="53.539762" lon="10.029524"><ele>8.75</ele></trkpt>
   <trkpt lat="53.53977" lon="10.029649"><ele>8.75</ele></trkpt>
   <trkpt lat="53.539786" lon="10.029881"><ele>8.25</ele></trkpt>
   <trkpt lat="53.539795" lon="10.030298"><ele>8.25</ele></trkpt>
   <trkpt lat="53.539789" lon="10.030653"><ele>8</ele></trkpt>
   <trkpt lat="53.539772" lon="10.031007"><ele>7.75</ele></trkpt>
   <trkpt lat="53.539749" lon="10.031244"><ele>6.75</ele></trkpt>
   <trkpt lat="53.539748" lon="10.031249"><ele>6.75</ele></trkpt>
   <trkpt lat="53.539725" lon="10.031452"><ele>6.25</ele></trkpt>
   <trkpt lat="53.539643" lon="10.03197"><ele>5.5</ele></trkpt>
   <trkpt lat="53.539577" lon="10.032285"><ele>5</ele></trkpt>
   <trkpt lat="53.539573" lon="10.0323"><ele>5</ele></trkpt>
   <trkpt lat="53.539571" lon="10.032309"><ele>5</ele></trkpt>
   <trkpt lat="53.539541" lon="10.032445"><ele>4.75</ele></trkpt>
   <trkpt lat="53.539408" lon="10.032981"><ele>4</ele></trkpt>
   <trkpt lat="53.538717" lon="10.035568"><ele>4</ele></trkpt>
   <trkpt lat="53.538629" lon="10.035915"><ele>5</ele></trkpt>
   <trkpt lat="53.538247" lon="10.037525"><ele>4</ele></trkpt>
   <trkpt lat="53.538232" lon="10.037589"><ele>3.75</ele></trkpt>
   <trkpt lat="53.538207" lon="10.037682"><ele>3.5</ele></trkpt>
   <trkpt lat="53.53818" lon="10.037781"><ele>3.25</ele></trkpt>
   <trkpt lat="53.537958" lon="10.038613"><ele>3.25</ele></trkpt>
   <trkpt lat="53.537761" lon="10.039397"><ele>2.75</ele></trkpt>
   <trkpt lat="53.537744" lon="10.03947"><ele>2.75</ele></trkpt>
   <trkpt lat="53.537733" lon="10.039524"><ele>2.75</ele></trkpt>
   <trkpt lat="53.537613" lon="10.040053"><ele>2</ele></trkpt>
   <trkpt lat="53.537488" lon="10.040693"><ele>2</ele></trkpt>
   <trkpt lat="53.537169" lon="10.04234"><ele>1</ele></trkpt>
   <trkpt lat="53.536711" lon="10.044707"><ele>1</ele></trkpt>
   <trkpt lat="53.536446" lon="10.046095"><ele>1.25</ele></trkpt>
   <trkpt lat="53.53617" lon="10.047716"><ele>1.5</ele></trkpt>
   <trkpt lat="53.535739" lon="10.050321"><ele>1</ele></trkpt>
   <trkpt lat="53.53558" lon="10.051374"><ele>1</ele></trkpt>
   <trkpt lat="53.53538" lon="10.052854"><ele>1.5</ele></trkpt>
   <trkpt lat="53.535139" lon="10.054568"><ele>4.25</ele></trkpt>
   <trkpt lat="53.534879" lon="10.056457"><ele>2.25</ele></trkpt>
   <trkpt lat="53.534816" lon="10.056915"><ele>2</ele></trkpt>
   <trkpt lat="53.534796" lon="10.057058"><ele>1.75</ele></trkpt>
   <trkpt lat="53.534643" lon="10.058182"><ele>4</ele></trkpt>
   <trkpt lat="53.534391" lon="10.059715"><ele>2.75</ele></trkpt>
   <trkpt lat="53.534202" lon="10.060805"><ele>3.25</ele></trkpt>
   <trkpt lat="53.534009" lon="10.061926"><ele>4.5</ele></trkpt>
   <trkpt lat="53.5339" lon="10.062557"><ele>4.25</ele></trkpt>
   <trkpt lat="53.533829" lon="10.063067"><ele>5</ele></trkpt>
   <trkpt lat="53.533784" lon="10.063483"><ele>5</ele></trkpt>
   <trkpt lat="53.53376" lon="10.063919"><ele>5</ele></trkpt>
   <trkpt lat="53.533768" lon="10.064462"><ele>4.75</ele></trkpt>
   <trkpt lat="53.533793" lon="10.064815"><ele>4.75</ele></trkpt>
   <trkpt lat="53.53384" lon="10.065184"><ele>5.5</ele></trkpt>
   <trkpt lat="53.533885" lon="10.065442"><ele>6.5</ele></trkpt>
   <trkpt lat="53.533949" lon="10.065742"><ele>6</ele></trkpt>
   <trkpt lat="53.534073" lon="10.066181"><ele>5</ele></trkpt>
   <trkpt lat="53.534152" lon="10.066414"><ele>6.75</ele></trkpt>
   <trkpt lat="53.53429" lon="10.066745"><ele>4.5</ele></trkpt>
   <trkpt lat="53.534481" lon="10.067122"><ele>5.25</ele></trkpt>
   <trkpt lat="53.534539" lon="10.067221"><ele>5.75</ele></trkpt>
   <trkpt lat="53.534658" lon="10.067406"><ele>6.25</ele></trkpt>
   <trkpt lat="53.534783" lon="10.067577"><ele>7</ele></trkpt>
   <trkpt lat="53.535006" lon="10.067833"><ele>6.5</ele></trkpt>
   <trkpt lat="53.535291" lon="10.068097"><ele>6.75</ele></trkpt>
   <trkpt lat="53.535512" lon="10.068275"><ele>6.25</ele></trkpt>
   <trkpt lat="53.535712" lon="10.068431"><ele>6</ele></trkpt>
   <trkpt lat="53.536323" lon="10.068904"><ele>5.5</ele></trkpt>
   <trkpt lat="53.536742" lon="10.069231"><ele>5.5</ele></trkpt>
   <trkpt lat="53.536958" lon="10.069389"><ele>4.5</ele></trkpt>
   <trkpt lat="53.537464" lon="10.069779"><ele>4.75</ele></trkpt>
   <trkpt lat="53.538004" lon="10.070194"><ele>5</ele></trkpt>
   <trkpt lat="53.538437" lon="10.070455"><ele>5</ele></trkpt>
   <trkpt lat="53.538821" lon="10.070631"><ele>5.25</ele></trkpt>
   <trkpt lat="53.538992" lon="10.070666"><ele>5.25</ele></trkpt>
   <trkpt lat="53.539292" lon="10.07068"><ele>6</ele></trkpt>
   <trkpt lat="53.539443" lon="10.070668"><ele>6</ele></trkpt>
   <trkpt lat="53.539648" lon="10.070635"><ele>6.25</ele></trkpt>
   <trkpt lat="53.543286" lon="10.069821"><ele>6.5</ele></trkpt>
   <trkpt lat="53.544989" lon="10.06944"><ele>7.75</ele></trkpt>
   <trkpt lat="53.548316" lon="10.068687"><ele>7.25</ele></trkpt>
   <trkpt lat="53.54887" lon="10.068561"><ele>8.25</ele></trkpt>
   <trkpt lat="53.549351" lon="10.068483"><ele>5.5</ele></trkpt>
   <trkpt lat="53.550174" lon="10.06833"><ele>8</ele></trkpt>
   <trkpt lat="53.550392" lon="10.068292"><ele>9</ele></trkpt>
   <trkpt lat="53.553164" lon="10.067807"><ele>7.5</ele></trkpt>
   <trkpt lat="53.553791" lon="10.067703"><ele>9.25</ele></trkpt>
   <trkpt lat="53.557126" lon="10.067147"><ele>11</ele></trkpt>
   <trkpt lat="53.55782" lon="10.067032"><ele>11.5</ele></trkpt>
   <trkpt lat="53.558923" lon="10.066851"><ele>11.5</ele></trkpt>
   <trkpt lat="53.559077" lon="10.066808"><ele>11.75</ele></trkpt>
   <trkpt lat="53.559264" lon="10.066747"><ele>11.75</ele></trkpt>
   <trkpt lat="53.559481" lon="10.066643"><ele>11.5</ele></trkpt>
   <trkpt lat="53.559694" lon="10.066525"><ele>13</ele></trkpt>
   <trkpt lat="53.559911" lon="10.066383"><ele>11</ele></trkpt>
   <trkpt lat="53.561833" lon="10.065152"><ele>12.5</ele></trkpt>
   <trkpt lat="53.56292" lon="10.064477"><ele>11.25</ele></trkpt>
   <trkpt lat="53.562964" lon="10.064448"><ele>10.5</ele></trkpt>
   <trkpt lat="53.563392" lon="10.064192"><ele>11</ele></trkpt>
   <trkpt lat="53.566288" lon="10.062382"><ele>9</ele></trkpt>
   <trkpt lat="53.566673" lon="10.062111"><ele>7.75</ele></trkpt>
   <trkpt lat="53.568215" lon="10.061126"><ele>9.5</ele></trkpt>
   <trkpt lat="53.568504" lon="10.060955"><ele>10.25</ele></trkpt>
   <trkpt lat="53.569498" lon="10.06031"><ele>10.5</ele></trkpt>
   <trkpt lat="53.570066" lon="10.059972"><ele>11.5</ele></trkpt>
   <trkpt lat="53.570978" lon="10.059477"><ele>10.75</ele></trkpt>
   <trkpt lat="53.571172" lon="10.059385"><ele>11.25</ele></trkpt>
   <trkpt lat="53.572896" lon="10.058558"><ele>11</ele></trkpt>
   <trkpt lat="53.573987" lon="10.058016"><ele>10.75</ele></trkpt>
   <trkpt lat="53.574153" lon="10.057934"><ele>10.25</ele></trkpt>
   <trkpt lat="53.574495" lon="10.057787"><ele>11.75</ele></trkpt>
   <trkpt lat="53.574538" lon="10.057772"><ele>11.75</ele></trkpt>
   <trkpt lat="53.574666" lon="10.057731"><ele>11.75</ele></trkpt>
   <trkpt lat="53.574816" lon="10.057699"><ele>11.75</ele></trkpt>
   <trkpt lat="53.575218" lon="10.057663"><ele>11.75</ele></trkpt>
   <trkpt lat="53.575822" lon="10.057649"><ele>9</ele></trkpt>
   <trkpt lat="53.576017" lon="10.057642"><ele>9.75</ele></trkpt>
   <trkpt lat="53.577007" lon="10.057593"><ele>12.75</ele></trkpt>
   <trkpt lat="53.577198" lon="10.057568"><ele>13.25</ele></trkpt>
   <trkpt lat="53.577655" lon="10.057483"><ele>14</ele></trkpt>
   <trkpt lat="53.578112" lon="10.057341"><ele>13.75</ele></trkpt>
   <trkpt lat="53.578616" lon="10.057143"><ele>13.75</ele></trkpt>
   <trkpt lat="53.579248" lon="10.056739"><ele>14</ele></trkpt>
   <trkpt lat="53.579702" lon="10.05643"><ele>13.75</ele></trkpt>
   <trkpt lat="53.580073" lon="10.056164"><ele>12</ele></trkpt>
   <trkpt lat="53.580097" lon="10.056148"><ele>12.25</ele></trkpt>
   <trkpt lat="53.58135" lon="10.055302"><ele>13.75</ele></trkpt>
   <trkpt lat="53.581629" lon="10.0551"><ele>13.5</ele></trkpt>
   <trkpt lat="53.582092" lon="10.054685"><ele>11</ele></trkpt>
   <trkpt lat="53.582305" lon="10.054472"><ele>10</ele></trkpt>
   <trkpt lat="53.583058" lon="10.053586"><ele>7.5</ele></trkpt>
   <trkpt lat="53.58325" lon="10.053329"><ele>8.5</ele></trkpt>
   <trkpt lat="53.583765" lon="10.052561"><ele>12.5</ele></trkpt>
   <trkpt lat="53.584256" lon="10.051786"><ele>13.25</ele></trkpt>
   <trkpt lat="53.584392" lon="10.05158"><ele>13</ele></trkpt>
   <trkpt lat="53.585433" lon="10.049941"><ele>13.5</ele></trkpt>
   <trkpt lat="53.585589" lon="10.049697"><ele>13</ele></trkpt>
   <trkpt lat="53.586154" lon="10.048812"><ele>13.75</ele></trkpt>
   <trkpt lat="53.586339" lon="10.04851"><ele>13.25</ele></trkpt>
   <trkpt lat="53.586572" lon="10.048098"><ele>15.5</ele></trkpt>
   <trkpt lat="53.586644" lon="10.047947"><ele>16</ele></trkpt>
   <trkpt lat="53.586717" lon="10.047788"><ele>16.25</ele></trkpt>
   <trkpt lat="53.58677" lon="10.047654"><ele>15.25</ele></trkpt>
   <trkpt lat="53.58686" lon="10.047395"><ele>15</ele></trkpt>
   <trkpt lat="53.586883" lon="10.047328"><ele>15.25</ele></trkpt>
   <trkpt lat="53.586987" lon="10.046996"><ele>16</ele></trkpt>
   <trkpt lat="53.587111" lon="10.046553"><ele>12.75</ele></trkpt>
   <trkpt lat="53.587243" lon="10.046085"><ele>14</ele></trkpt>
   <trkpt lat="53.587349" lon="10.045636"><ele>14</ele></trkpt>
   <trkpt lat="53.587452" lon="10.04512"><ele>14.75</ele></trkpt>
   <trkpt lat="53.587548" lon="10.044587"><ele>14.75</ele></trkpt>
   <trkpt lat="53.588028" lon="10.041921"><ele>11.5</ele></trkpt>
   <trkpt lat="53.58809" lon="10.041606"><ele>12.25</ele></trkpt>
   <trkpt lat="53.588126" lon="10.041445"><ele>13.25</ele></trkpt>
   <trkpt lat="53.588197" lon="10.041123"><ele>11.75</ele></trkpt>
   <trkpt lat="53.588349" lon="10.040611"><ele>13.25</ele></trkpt>
   <trkpt lat="53.588557" lon="10.040069"><ele>12.5</ele></trkpt>
   <trkpt lat="53.588846" lon="10.039482"><ele>12</ele></trkpt>
   <trkpt lat="53.589154" lon="10.038979"><ele>11.75</ele></trkpt>
   <trkpt lat="53.589507" lon="10.038523"><ele>12.25</ele></trkpt>
   <trkpt lat="53.589852" lon="10.038173"><ele>11.25</ele></trkpt>
   <trkpt lat="53.590226" lon="10.037889"><ele>11.25</ele></trkpt>
   <trkpt lat="53.590515" lon="10.037727"><ele>11</ele></trkpt>
   <trkpt lat="53.590843" lon="10.037585"><ele>11</ele></trkpt>
   <trkpt lat="53.591161" lon="10.037467"><ele>9.75</ele></trkpt>
   <trkpt lat="53.591383" lon="10.037381"><ele>9.25</ele></trkpt>
   <trkpt lat="53.592013" lon="10.037142"><ele>11.75</ele></trkpt>
   <trkpt lat="53.592033" lon="10.037134"><ele>12</ele></trkpt>
   <trkpt lat="53.592319" lon="10.037026"><ele>13.5</ele></trkpt>
   <trkpt lat="53.592915" lon="10.036797"><ele>12.75</ele></trkpt>
   <trkpt lat="53.593459" lon="10.036593"><ele>12.75</ele></trkpt>
   <trkpt lat="53.594071" lon="10.036363"><ele>11.5</ele></trkpt>
   <trkpt lat="53.594768" lon="10.036139"><ele>11.25</ele></trkpt>
   <trkpt lat="53.595262" lon="10.035986"><ele>12</ele></trkpt>
   <trkpt lat="53.595269" lon="10.035984"><ele>12</ele></trkpt>
   <trkpt lat="53.595874" lon="10.035735"><ele>11</ele></trkpt>
   <trkpt lat="53.596225" lon="10.03564"><ele>11.25</ele></trkpt>
   <trkpt lat="53.596415" lon="10.035592"><ele>11</ele></trkpt>
   <trkpt lat="53.596505" lon="10.035567"><ele>11</ele></trkpt>
   <trkpt lat="53.59702" lon="10.035417"><ele>9.5</ele></trkpt>
   <trkpt lat="53.597204" lon="10.035368"><ele>9.25</ele></trkpt>
   <trkpt lat="53.597495" lon="10.035277"><ele>10.75</ele></trkpt>
   <trkpt lat="53.598827" lon="10.034886"><ele>11</ele></trkpt>
   <trkpt lat="53.599283" lon="10.034743"><ele>11</ele></trkpt>
   <trkpt lat="53.600755" lon="10.034314"><ele>11</ele></trkpt>
   <trkpt lat="53.60286" lon="10.033735"><ele>11</ele></trkpt>
   <trkpt lat="53.60364" lon="10.033512"><ele>11.5</ele></trkpt>
   <trkpt lat="53.604877" lon="10.033062"><ele>12</ele></trkpt>
   <trkpt lat="53.605153" lon="10.032997"><ele>12.25</ele></trkpt>
   <trkpt lat="53.605747" lon="10.032916"><ele>13</ele></trkpt>
   <trkpt lat="53.605962" lon="10.032867"><ele>13</ele></trkpt>
   <trkpt lat="53.606166" lon="10.032802"><ele>13</ele></trkpt>
   <trkpt lat="53.606547" lon="10.032678"><ele>13.75</ele></trkpt>
   <trkpt lat="53.607384" lon="10.032408"><ele>14</ele></trkpt>
   <trkpt lat="53.607651" lon="10.032288"><ele>13.5</ele></trkpt>
   <trkpt lat="53.607923" lon="10.032128"><ele>14.25</ele></trkpt>
   <trkpt lat="53.608241" lon="10.031885"><ele>14.75</ele></trkpt>
   <trkpt lat="53.60845" lon="10.031674"><ele>15.75</ele></trkpt>
   <trkpt lat="53.60877" lon="10.031294"><ele>16.5</ele></trkpt>
   <trkpt lat="53.608992" lon="10.030965"><ele>16.75</ele></trkpt>
   <trkpt lat="53.609044" lon="10.030888"><ele>17</ele></trkpt>
   <trkpt lat="53.609222" lon="10.030565"><ele>15.75</ele></trkpt>
   <trkpt lat="53.609399" lon="10.030197"><ele>16.5</ele></trkpt>
   <trkpt lat="53.609566" lon="10.029786"><ele>17.5</ele></trkpt>
   <trkpt lat="53.609634" lon="10.029611"><ele>17.5</ele></trkpt>
   <trkpt lat="53.609725" lon="10.029324"><ele>16</ele></trkpt>
   <trkpt lat="53.609833" lon="10.028968"><ele>17.5</ele></trkpt>
   <trkpt lat="53.610008" lon="10.028079"><ele>16</ele></trkpt>
   <trkpt lat="53.610081" lon="10.027452"><ele>17.5</ele></trkpt>
   <trkpt lat="53.61012" lon="10.026886"><ele>17.25</ele></trkpt>
   <trkpt lat="53.610123" lon="10.026367"><ele>16.75</ele></trkpt>
   <trkpt lat="53.610107" lon="10.02598"><ele>16.25</ele></trkpt>
   <trkpt lat="53.610029" lon="10.025163"><ele>17</ele></trkpt>
   <trkpt lat="53.609949" lon="10.024664"><ele>16.75</ele></trkpt>
   <trkpt lat="53.609871" lon="10.0243"><ele>16.75</ele></trkpt>
   <trkpt lat="53.609826" lon="10.02412"><ele>16.75</ele></trkpt>
   <trkpt lat="53.609623" lon="10.023367"><ele>16.75</ele></trkpt>
   <trkpt lat="53.608747" lon="10.020239"><ele>16</ele></trkpt>
   <trkpt lat="53.608273" lon="10.018569"><ele>16.75</ele></trkpt>
   <trkpt lat="53.607884" lon="10.017199"><ele>16</ele></trkpt>
   <trkpt lat="53.607435" lon="10.015658"><ele>16.5</ele></trkpt>
   <trkpt lat="53.606779" lon="10.013454"><ele>14.5</ele></trkpt>
   <trkpt lat="53.606551" lon="10.012629"><ele>13.25</ele></trkpt>
   <trkpt lat="53.606399" lon="10.01209"><ele>14.25</ele></trkpt>
   <trkpt lat="53.606033" lon="10.010793"><ele>16.5</ele></trkpt>
   <trkpt lat="53.605711" lon="10.009615"><ele>16.25</ele></trkpt>
   <trkpt lat="53.605017" lon="10.006995"><ele>12.5</ele></trkpt>
   <trkpt lat="53.604934" lon="10.006678"><ele>13</ele></trkpt>
   <trkpt lat="53.604662" lon="10.00562"><ele>15.25</ele></trkpt>
   <trkpt lat="53.604032" lon="10.003246"><ele>15</ele></trkpt>
   <trkpt lat="53.603852" lon="10.002385"><ele>14.25</ele></trkpt>
   <trkpt lat="53.603737" lon="10.001864"><ele>14</ele></trkpt>
   <trkpt lat="53.603489" lon="10.000736"><ele>13.5</ele></trkpt>
   <trkpt lat="53.603388" lon="10.000307"><ele>13.5</ele></trkpt>
   <trkpt lat="53.603299" lon="9.999949"><ele>14.75</ele></trkpt>
   <trkpt lat="53.602904" lon="9.9985"><ele>11.75</ele></trkpt>
   <trkpt lat="53.602728" lon="9.997921"><ele>11</ele></trkpt>
   <trkpt lat="53.602481" lon="9.997126"><ele>11.25</ele></trkpt>
   <trkpt lat="53.602213" lon="9.996283"><ele>9.25</ele></trkpt>
   <trkpt lat="53.601915" lon="9.995388"><ele>8.5</ele></trkpt>
   <trkpt lat="53.601629" lon="9.994527"><ele>7.75</ele></trkpt>
   <trkpt lat="53.601465" lon="9.994044"><ele>8</ele></trkpt>
   <trkpt lat="53.601079" lon="9.992848"><ele>11.25</ele></trkpt>
   <trkpt lat="53.600979" lon="9.992521"><ele>8.5</ele></trkpt>
   <trkpt lat="53.600902" lon="9.992224"><ele>9.5</ele></trkpt>
   <trkpt lat="53.600812" lon="9.991817"><ele>8.25</ele></trkpt>
   <trkpt lat="53.600698" lon="9.991099"><ele>4.5</ele></trkpt>
   <trkpt lat="53.600666" lon="9.990708"><ele>7.75</ele></trkpt>
   <trkpt lat="53.600639" lon="9.990214"><ele>8.75</ele></trkpt>
   <trkpt lat="53.600641" lon="9.989633"><ele>8.5</ele></trkpt>
   <trkpt lat="53.600665" lon="9.989173"><ele>7</ele></trkpt>
   <trkpt lat="53.600707" lon="9.988751"><ele>7</ele></trkpt>
   <trkpt lat="53.600737" lon="9.988519"><ele>7.25</ele></trkpt>
   <trkpt lat="53.600805" lon="9.988115"><ele>7.5</ele></trkpt>
   <trkpt lat="53.601153" lon="9.986184"><ele>8.75</ele></trkpt>
   <trkpt lat="53.601184" lon="9.986001"><ele>8.75</ele></trkpt>
   <trkpt lat="53.601349" lon="9.985105"><ele>9.75</ele></trkpt>
   <trkpt lat="53.601477" lon="9.9844"><ele>7.5</ele></trkpt>
   <trkpt lat="53.601853" lon="9.982321"><ele>11</ele></trkpt>
   <trkpt lat="53.601932" lon="9.981881"><ele>11.5</ele></trkpt>
   <trkpt lat="53.602038" lon="9.981174"><ele>9.75</ele></trkpt>
   <trkpt lat="53.60217" lon="9.979938"><ele>10.5</ele></trkpt>
   <trkpt lat="53.602176" lon="9.979878"><ele>10.5</ele></trkpt>
   <trkpt lat="53.602214" lon="9.979546"><ele>10.75</ele></trkpt>
   <trkpt lat="53.602279" lon="9.979131"><ele>10.5</ele></trkpt>
   <trkpt lat="53.602325" lon="9.978736"><ele>10.25</ele></trkpt>
   <trkpt lat="53.602334" lon="9.978627"><ele>10.5</ele></trkpt>
   <trkpt lat="53.602909" lon="9.972363"><ele>11</ele></trkpt>
   <trkpt lat="53.602967" lon="9.971795"><ele>10.5</ele></trkpt>
   <trkpt lat="53.603037" lon="9.97123"><ele>10.75</ele></trkpt>
   <trkpt lat="53.603113" lon="9.970751"><ele>11.5</ele></trkpt>
   <trkpt lat="53.603239" lon="9.970115"><ele>10.75</ele></trkpt>
   <trkpt lat="53.603317" lon="9.96977"><ele>11.75</ele></trkpt>
   <trkpt lat="53.603401" lon="9.969431"><ele>11.75</ele></trkpt>
   <trkpt lat="53.603505" lon="9.969064"><ele>11.25</ele></trkpt>
   <trkpt lat="53.603849" lon="9.967992"><ele>11.5</ele></trkpt>
   <trkpt lat="53.603872" lon="9.967922"><ele>11.75</ele></trkpt>
   <trkpt lat="53.603975" lon="9.967592"><ele>11.5</ele></trkpt>
   <trkpt lat="53.604057" lon="9.967259"><ele>10.75</ele></trkpt>
   <trkpt lat="53.60417" lon="9.966885"><ele>11.75</ele></trkpt>
   <trkpt lat="53.604317" lon="9.96645"><ele>9.5</ele></trkpt>
   <trkpt lat="53.604397" lon="9.96622"><ele>10.25</ele></trkpt>
   <trkpt lat="53.604412" lon="9.966178"><ele>10.75</ele></trkpt>
   <trkpt lat="53.604967" lon="9.964537"><ele>11.25</ele></trkpt>
   <trkpt lat="53.605973" lon="9.961551"><ele>8.75</ele></trkpt>
   <trkpt lat="53.606192" lon="9.960909"><ele>9.25</ele></trkpt>
   <trkpt lat="53.60623" lon="9.960791"><ele>9</ele></trkpt>
   <trkpt lat="53.606513" lon="9.959932"><ele>9</ele></trkpt>
   <trkpt lat="53.606783" lon="9.959109"><ele>8.25</ele></trkpt>
   <trkpt lat="53.607201" lon="9.957725"><ele>10.5</ele></trkpt>
   <trkpt lat="53.607422" lon="9.957017"><ele>8.75</ele></trkpt>
   <trkpt lat="53.60762" lon="9.956309"><ele>8.25</ele></trkpt>
   <trkpt lat="53.607706" lon="9.95594"><ele>8.5</ele></trkpt>
   <trkpt lat="53.60792" lon="9.954775"><ele>8.25</ele></trkpt>
   <trkpt lat="53.608017" lon="9.954031"><ele>10</ele></trkpt>
   <trkpt lat="53.608089" lon="9.953289"><ele>10.5</ele></trkpt>
   <trkpt lat="53.608132" lon="9.952393"><ele>9</ele></trkpt>
   <trkpt lat="53.608148" lon="9.951352"><ele>9</ele></trkpt>
   <trkpt lat="53.608114" lon="9.948928"><ele>9</ele></trkpt>
   <trkpt lat="53.608111" lon="9.948765"><ele>9.5</ele></trkpt>
   <trkpt lat="53.608098" lon="9.947406"><ele>11</ele></trkpt>
   <trkpt lat="53.608041" lon="9.946335"><ele>10.5</ele></trkpt>
   <trkpt lat="53.607915" lon="9.945171"><ele>8.5</ele></trkpt>
   <trkpt lat="53.607869" lon="9.944839"><ele>9.5</ele></trkpt>
   <trkpt lat="53.607181" lon="9.940161"><ele>11</ele></trkpt>
   <trkpt lat="53.606995" lon="9.938794"><ele>9.75</ele></trkpt>
   <trkpt lat="53.606959" lon="9.93855"><ele>9.5</ele></trkpt>
   <trkpt lat="53.605789" lon="9.930486"><ele>12.25</ele></trkpt>
   <trkpt lat="53.605627" lon="9.929365"><ele>11.75</ele></trkpt>
   <trkpt lat="53.605566" lon="9.928934"><ele>12.5</ele></trkpt>
   <trkpt lat="53.605007" lon="9.925055"><ele>15</ele></trkpt>
   <trkpt lat="53.60492" lon="9.924506"><ele>11.25</ele></trkpt>
   <trkpt lat="53.604895" lon="9.924355"><ele>11</ele></trkpt>
   <trkpt lat="53.604774" lon="9.923732"><ele>14.5</ele></trkpt>
   <trkpt lat="53.604652" lon="9.923192"><ele>13.25</ele></trkpt>
   <trkpt lat="53.60448" lon="9.922544"><ele>15</ele></trkpt>
   <trkpt lat="53.604278" lon="9.92189"><ele>13.25</ele></trkpt>
   <trkpt lat="53.60404" lon="9.921226"><ele>14</ele></trkpt>
   <trkpt lat="53.603943" lon="9.920977"><ele>14.25</ele></trkpt>
   <trkpt lat="53.603803" lon="9.92065"><ele>14.75</ele></trkpt>
   <trkpt lat="53.603635" lon="9.920282"><ele>15.5</ele></trkpt>
   <trkpt lat="53.603499" lon="9.919997"><ele>15.5</ele></trkpt>
   <trkpt lat="53.603138" lon="9.919335"><ele>15.5</ele></trkpt>
   <trkpt lat="53.602906" lon="9.918954"><ele>15.5</ele></trkpt>
   <trkpt lat="53.602694" lon="9.918635"><ele>15.5</ele></trkpt>
   <trkpt lat="53.602568" lon="9.918454"><ele>16</ele></trkpt>
   <trkpt lat="53.602066" lon="9.917774"><ele>16</ele></trkpt>
   <trkpt lat="53.601998" lon="9.917686"><ele>16.5</ele></trkpt>
   <trkpt lat="53.60061" lon="9.915857"><ele>15.75</ele></trkpt>
   <trkpt lat="53.600451" lon="9.91564"><ele>16.75</ele></trkpt>
   <trkpt lat="53.599968" lon="9.914984"><ele>18.5</ele></trkpt>
   <trkpt lat="53.599591" lon="9.91434"><ele>17.5</ele></trkpt>
   <trkpt lat="53.599426" lon="9.91399"><ele>18.5</ele></trkpt>
   <trkpt lat="53.599276" lon="9.913631"><ele>17.75</ele></trkpt>
   <trkpt lat="53.599172" lon="9.913329"><ele>20.75</ele></trkpt>
   <trkpt lat="53.599059" lon="9.912959"><ele>17.5</ele></trkpt>
   <trkpt lat="53.598951" lon="9.91253"><ele>19.75</ele></trkpt>
   <trkpt lat="53.598837" lon="9.91195"><ele>18.5</ele></trkpt>
   <trkpt lat="53.59876" lon="9.911345"><ele>17.75</ele></trkpt>
   <trkpt lat="53.598637" lon="9.90954"><ele>18</ele></trkpt>
   <trkpt lat="53.598629" lon="9.909377"><ele>17.75</ele></trkpt>
   <trkpt lat="53.598462" lon="9.906661"><ele>18</ele></trkpt>
   <trkpt lat="53.598448" lon="9.906395"><ele>18.5</ele></trkpt>
   <trkpt lat="53.598406" lon="9.90572"><ele>19.75</ele></trkpt>
   <trkpt lat="53.598333" lon="9.904436"><ele>20.75</ele></trkpt>
   <trkpt lat="53.598317" lon="9.904152"><ele>19.75</ele></trkpt>
   <trkpt lat="53.598301" lon="9.903582"><ele>19</ele></trkpt>
   <trkpt lat="53.598325" lon="9.903012"><ele>20</ele></trkpt>
   <trkpt lat="53.598387" lon="9.902475"><ele>19.75</ele></trkpt>
   <trkpt lat="53.598506" lon="9.901772"><ele>24.25</ele></trkpt>
   <trkpt lat="53.598765" lon="9.900605"><ele>23.75</ele></trkpt>
   <trkpt lat="53.598916" lon="9.90003"><ele>21.25</ele></trkpt>
   <trkpt lat="53.599025" lon="9.899681"><ele>22</ele></trkpt>
   <trkpt lat="53.599158" lon="9.899328"><ele>21.5</ele></trkpt>
   <trkpt lat="53.599271" lon="9.899065"><ele>21.5</ele></trkpt>
   <trkpt lat="53.599391" lon="9.898808"><ele>22</ele></trkpt>
   <trkpt lat="53.599695" lon="9.89823"><ele>22</ele></trkpt>
   <trkpt lat="53.600126" lon="9.897411"><ele>22.25</ele></trkpt>
   <trkpt lat="53.600606" lon="9.896501"><ele>22.5</ele></trkpt>
   <trkpt lat="53.600861" lon="9.896055"><ele>22.75</ele></trkpt>
   <trkpt lat="53.601383" lon="9.895276"><ele>23</ele></trkpt>
   <trkpt lat="53.601697" lon="9.894792"><ele>23</ele></trkpt>
   <trkpt lat="53.601779" lon="9.894644"><ele>23.25</ele></trkpt>
   <trkpt lat="53.602094" lon="9.894035"><ele>23.25</ele></trkpt>
   <trkpt lat="53.602114" lon="9.893994"><ele>23</ele></trkpt>
   <trkpt lat="53.602567" lon="9.893108"><ele>23</ele></trkpt>
   <trkpt lat="53.60257" lon="9.893103"><ele>23</ele></trkpt>
   <trkpt lat="53.602621" lon="9.893008"><ele>23</ele></trkpt>
   <trkpt lat="53.603022" lon="9.892232"><ele>20.25</ele></trkpt>
   <trkpt lat="53.603095" lon="9.892078"><ele>21.25</ele></trkpt>
   <trkpt lat="53.603222" lon="9.891826"><ele>22.75</ele></trkpt>
   <trkpt lat="53.60323" lon="9.891809"><ele>22.75</ele></trkpt>
   <trkpt lat="53.603579" lon="9.890977"><ele>23</ele></trkpt>
   <trkpt lat="53.603647" lon="9.890826"><ele>23</ele></trkpt>
   <trkpt lat="53.603741" lon="9.890619"><ele>23</ele></trkpt>
   <trkpt lat="53.605376" lon="9.887408"><ele>23</ele></trkpt>
   <trkpt lat="53.605441" lon="9.887282"><ele>23</ele></trkpt>
   <trkpt lat="53.606094" lon="9.886027"><ele>23</ele></trkpt>
   <trkpt lat="53.606739" lon="9.884759"><ele>22.75</ele></trkpt>
   <trkpt lat="53.607403" lon="9.883471"><ele>23</ele></trkpt>
   <trkpt lat="53.607474" lon="9.883335"><ele>23</ele></trkpt>
   <trkpt lat="53.607954" lon="9.882394"><ele>23</ele></trkpt>
   <trkpt lat="53.608385" lon="9.881579"><ele>22.75</ele></trkpt>
   <trkpt lat="53.608511" lon="9.881306"><ele>23</ele></trkpt>
   <trkpt lat="53.608789" lon="9.880623"><ele>23</ele></trkpt>
   <trkpt lat="53.609012" lon="9.880082"><ele>23</ele></trkpt>
   <trkpt lat="53.609029" lon="9.880042"><ele>23</ele></trkpt>
   <trkpt lat="53.60914" lon="9.879796"><ele>23</ele></trkpt>
   <trkpt lat="53.609314" lon="9.879445"><ele>23</ele></trkpt>
   <trkpt lat="53.609462" lon="9.87913"><ele>22.75</ele></trkpt>
   <trkpt lat="53.609587" lon="9.878811"><ele>22.75</ele></trkpt>
   <trkpt lat="53.609925" lon="9.877893"><ele>22.25</ele></trkpt>
   <trkpt lat="53.610349" lon="9.876769"><ele>21</ele></trkpt>
   <trkpt lat="53.610698" lon="9.875922"><ele>21</ele></trkpt>
   <trkpt lat="53.610849" lon="9.875559"><ele>21</ele></trkpt>
   <trkpt lat="53.611962" lon="9.873366"><ele>21</ele></trkpt>
   <trkpt lat="53.613151" lon="9.871047"><ele>21</ele></trkpt>
   <trkpt lat="53.613541" lon="9.870289"><ele>21</ele></trkpt>
   <trkpt lat="53.613741" lon="9.869955"><ele>21</ele></trkpt>
   <trkpt lat="53.614177" lon="9.869223"><ele>20.75</ele></trkpt>
   <trkpt lat="53.615619" lon="9.866972"><ele>17</ele></trkpt>
   <trkpt lat="53.615915" lon="9.866511"><ele>17</ele></trkpt>
   <trkpt lat="53.616068" lon="9.866264"><ele>17</ele></trkpt>
   <trkpt lat="53.616398" lon="9.865749"><ele>17</ele></trkpt>
   <trkpt lat="53.617423" lon="9.864139"><ele>17</ele></trkpt>
   <trkpt lat="53.617577" lon="9.863877"><ele>17</ele></trkpt>
   <trkpt lat="53.617666" lon="9.863727"><ele>17</ele></trkpt>
   <trkpt lat="53.618813" lon="9.861527"><ele>15.25</ele></trkpt>
   <trkpt lat="53.61932" lon="9.860525"><ele>15</ele></trkpt>
   <trkpt lat="53.619608" lon="9.859957"><ele>15</ele></trkpt>
   <trkpt lat="53.620039" lon="9.859084"><ele>14</ele></trkpt>
   <trkpt lat="53.620212" lon="9.858738"><ele>14</ele></trkpt>
   <trkpt lat="53.620334" lon="9.858484"><ele>14</ele></trkpt>
   <trkpt lat="53.620388" lon="9.858379"><ele>14</ele></trkpt>
   <trkpt lat="53.620823" lon="9.857495"><ele>14</ele></trkpt>
   <trkpt lat="53.621146" lon="9.856912"><ele>13.75</ele></trkpt>
   <trkpt lat="53.621189" lon="9.856834"><ele>14</ele></trkpt>
   <trkpt lat="53.621348" lon="9.856592"><ele>14</ele></trkpt>
   <trkpt lat="53.62155" lon="9.856319"><ele>14</ele></trkpt>
   <trkpt lat="53.621692" lon="9.856102"><ele>14</ele></trkpt>
   <trkpt lat="53.621783" lon="9.855963"><ele>14</ele></trkpt>
   <trkpt lat="53.621954" lon="9.85565"><ele>14</ele></trkpt>
   <trkpt lat="53.622305" lon="9.85496"><ele>14</ele></trkpt>
   <trkpt lat="53.623712" lon="9.852197"><ele>12.5</ele></trkpt>
   <trkpt lat="53.623815" lon="9.851995"><ele>12.25</ele></trkpt>
   <trkpt lat="53.623819" lon="9.851987"><ele>12.25</ele></trkpt>
   <trkpt lat="53.625225" lon="9.849223"><ele>12</ele></trkpt>
  </trkseg>
 </trk>
</gpx>