<?xml version="1.0" encoding="UTF-8"?>
<!-- track-length = 5417 filtered ascend = 11 plain-ascend = -1 cost=5417 energy=0.1kwh time=7m 13s -->
<gpx 
 xmlns="http://www.topografix.com/GPX/1/1" 
 xmlns:xsi="http://www.w3.org/2001/XMLSchema-instance" 
 xsi:schemaLocation="http://www.topografix.com/GPX/1/1 http://www.topografix.com/GPX/1/1/gpx.xsd" 
 version="1.1" 
 creator="BRouter-Web 0.18.1">
 <trk>
  <name>Halle (Saale) Leuchtturmsiedlung</name>
  <trkseg>
   <trkpt lat="51.434757" lon="11.988002"><ele>97</ele></trkpt>
   <trkpt lat="51.434981" lon="11.988013"><ele>97.25</ele></trkpt>
   <trkpt lat="51.435973" lon="11.98806"><ele>97.75</ele></trkpt>
   <trkpt lat="51.436374" lon="11.988055"><ele>99.25</ele></trkpt>
   <trkpt lat="51.436821" lon="11.988014"><ele>100.25</ele></trkpt>
   <trkpt lat="51.437245" lon="11.988007"><ele>100</ele></trkpt>
   <trkpt lat="51.437451" lon="11.98801"><ele>100</ele></trkpt>
   <trkpt lat="51.438238" lon="11.988027"><ele>101</ele></trkpt>
   <trkpt lat="51.43834" lon="11.98803"><ele>101.25</ele></trkpt>
   <trkpt lat="51.440382" lon="11.988094"><ele>102.5</ele></trkpt>
   <trkpt lat="51.441004" lon="11.98811"><ele>102.5</ele></trkpt>
   <trkpt lat="51.443999" lon="11.988193"><ele>104.5</ele></trkpt>
   <trkpt lat="51.44439" lon="11.988181"><ele>104.75</ele></trkpt>
   <trkpt lat="51.444826" lon="11.988128"><ele>105</ele></trkpt>
   <trkpt lat="51.445149" lon="11.988061"><ele>105.25</ele></trkpt>
   <trkpt lat="51.445521" lon="11.988"><ele>106</ele></trkpt>
   <trkpt lat="51.445835" lon="11.987979"><ele>107</ele></trkpt>
   <trkpt lat="51.446158" lon="11.988003"><ele>107</ele></trkpt>
   <trkpt lat="51.446449" lon="11.988063"><ele>107</ele></trkpt>
   <trkpt lat="51.446579" lon="11.988103"><ele>107</ele></trkpt>
   <trkpt lat="51.446725" lon="11.98816"><ele>107</ele></trkpt>
   <trkpt lat="51.446858" lon="11.988227"><ele>107</ele></trkpt>
   <trkpt lat="51.44698" lon="11.988303"><ele>107.25</ele></trkpt>
   <trkpt lat="51.447093" lon="11.988387"><ele>107.5</ele></trkpt>
   <trkpt lat="51.447213" lon="11.98849"><ele>107.5</ele></trkpt>
   <trkpt lat="51.447316" lon="11.988595"><ele>107.75</ele></trkpt>
   <trkpt lat="51.447414" lon="11.988707"><ele>107.75</ele></trkpt>
   <trkpt lat="51.447536" lon="11.988873"><ele>108</ele></trkpt>
   <trkpt lat="51.447688" lon="11.989104"><ele>108</ele></trkpt>
   <trkpt lat="51.447782" lon="11.989282"><ele>108</ele></trkpt>
   <trkpt lat="51.447836" lon="11.989393"><ele>108</ele></trkpt>
   <trkpt lat="51.448062" lon="11.989943"><ele>108.25</ele></trkpt>
   <trkpt lat="51.448233" lon="11.990397"><ele>108.5</ele></trkpt>
   <trkpt lat="51.448398" lon="11.990816"><ele>108.5</ele></trkpt>
   <trkpt lat="51.448406" lon="11.990839"><ele>108.75</ele></trkpt>
   <trkpt lat="51.448463" lon="11.99099"><ele>108.75</ele></trkpt>
   <trkpt lat="51.448553" lon="11.991193"><ele>108.5</ele></trkpt>
   <trkpt lat="51.448684" lon="11.991453"><ele>107.75</ele></trkpt>
   <trkpt lat="51.449007" lon="11.992005"><ele>106.75</ele></trkpt>
   <trkpt lat="51.449126" lon="11.992202"><ele>106.75</ele></trkpt>
   <trkpt lat="51.449355" lon="11.992541"><ele>106.75</ele></trkpt>
   <trkpt lat="51.449567" lon="11.992823"><ele>106.75</ele></trkpt>
   <trkpt lat="51.44987" lon="11.993174"><ele>106.75</ele></trkpt>
   <trkpt lat="51.450139" lon="11.993425"><ele>106.75</ele></trkpt>
   <trkpt lat="51.450604" lon="11.993813"><ele>106.25</ele></trkpt>
   <trkpt lat="51.451078" lon="11.994089"><ele>105.75</ele></trkpt>
   <trkpt lat="51.451434" lon="11.994224"><ele>106</ele></trkpt>
   <trkpt lat="51.451678" lon="11.994297"><ele>106</ele></trkpt>
   <trkpt lat="51.452135" lon="11.994383"><ele>106</ele></trkpt>
   <trkpt lat="51.452568" lon="11.994418"><ele>106</ele></trkpt>
   <trkpt lat="51.454052" lon="11.994483"><ele>105.5</ele></trkpt>
   <trkpt lat="51.454909" lon="11.994495"><ele>105.5</ele></trkpt>
   <trkpt lat="51.456346" lon="11.994543"><ele>104.75</ele></trkpt>
   <trkpt lat="51.456557" lon="11.994551"><ele>104.5</ele></trkpt>
   <trkpt lat="51.457303" lon="11.994587"><ele>106.25</ele></trkpt>
   <trkpt lat="51.457484" lon="11.994602"><ele>106.75</ele></trkpt>
   <trkpt lat="51.457646" lon="11.994616"><ele>106.5</ele></trkpt>
   <trkpt lat="51.45769" lon="11.994619"><ele>106.5</ele></trkpt>
   <trkpt lat="51.458042" lon="11.994666"><ele>105.75</ele></trkpt>
   <trkpt lat="51.458229" lon="11.994706"><ele>105.5</ele></trkpt>
   <trkpt lat="51.458501" lon="11.994786"><ele>105</ele></trkpt>
   <trkpt lat="51.458629" lon="11.994814"><ele>105</ele></trkpt>
   <trkpt lat="51.458939" lon="11.994855"><ele>104.5</ele></trkpt>
   <trkpt lat="51.459045" lon="11.994862"><ele>104.5</ele></trkpt>
   <trkpt lat="51.459611" lon="11.994909"><ele>104.25</ele></trkpt>
   <trkpt lat="51.459951" lon="11.994956"><ele>104</ele></trkpt>
   <trkpt lat="51.460447" lon="11.995075"><ele>103.25</ele></trkpt>
   <trkpt lat="51.460469" lon="11.995081"><ele>103.25</ele></trkpt>
   <trkpt lat="51.460604" lon="11.995116"><ele>103.25</ele></trkpt>
   <trkpt lat="51.461364" lon="11.995344"><ele>103.5</ele></trkpt>
   <trkpt lat="51.461538" lon="11.995404"><ele>103.75</ele></trkpt>
   <trkpt lat="51.46168" lon="11.995474"><ele>103.75</ele></trkpt>
   <trkpt lat="51.46183" lon="11.995555"><ele>103.75</ele></trkpt>
   <trkpt lat="51.461972" lon="11.995644"><ele>103.5</ele></trkpt>
   <trkpt lat="51.462142" lon="11.99577"><ele>103.25</ele></trkpt>
   <trkpt lat="51.462304" lon="11.9959"><ele>103</ele></trkpt>
   <trkpt lat="51.462571" lon="11.996164"><ele>102.5</ele></trkpt>
   <trkpt lat="51.462832" lon="11.996474"><ele>102.25</ele></trkpt>
   <trkpt lat="51.463026" lon="11.996753"><ele>102.5</ele></trkpt>
   <trkpt lat="51.463246" lon="11.997129"><ele>102.75</ele></trkpt>
   <trkpt lat="51.463346" lon="11.997321"><ele>102.75</ele></trkpt>
   <trkpt lat="51.463431" lon="11.997514"><ele>102.75</ele></trkpt>
   <trkpt lat="51.463528" lon="11.997758"><ele>102</ele></trkpt>
   <trkpt lat="51.463571" lon="11.99787"><ele>101.75</ele></trkpt>
   <trkpt lat="51.463677" lon="11.998196"><ele>101.25</ele></trkpt>
   <trkpt lat="51.463769" lon="11.99853"><ele>101</ele></trkpt>
   <trkpt lat="51.463837" lon="11.998835"><ele>101</ele></trkpt>
   <trkpt lat="51.463871" lon="11.999001"><ele>100.75</ele></trkpt>
   <trkpt lat="51.463898" lon="11.999156"><ele>100.75</ele></trkpt>
   <trkpt lat="51.463915" lon="11.999261"><ele>100.75</ele></trkpt>
   <trkpt lat="51.463962" lon="11.999656"><ele>100.75</ele></trkpt>
   <trkpt lat="51.463983" lon="12.000018"><ele>100.75</ele></trkpt>
   <trkpt lat="51.463991" lon="12.000374"><ele>100.75</ele></trkpt>
   <trkpt lat="51.463989" lon="12.000553"><ele>100.5</ele></trkpt>
   <trkpt lat="51.463985" lon="12.000621"><ele>100.5</ele></trkpt>
   <trkpt lat="51.463973" lon="12.000916"><ele>100.5</ele></trkpt>
   <trkpt lat="51.463941" lon="12.001271"><ele>100.5</ele></trkpt>
   <trkpt lat="51.463863" lon="12.001793"><ele>100.25</ele></trkpt>
   <trkpt lat="51.463793" lon="12.002135"><ele>100.25</ele></trkpt>
   <trkpt lat="51.463751" lon="12.002307"><ele>100.25</ele></trkpt>
   <trkpt lat="51.463603" lon="12.002798"><ele>100.25</ele></trkpt>
   <trkpt lat="51.463452" lon="12.00323"><ele>99.75</ele></trkpt>
   <trkpt lat="51.463086" lon="12.004243"><ele>100.25</ele></trkpt>
   <trkpt lat="51.463034" lon="12.00438"><ele>100.25</ele></trkpt>
   <trkpt lat="51.462953" lon="12.004603"><ele>100.25</ele></trkpt>
   <trkpt lat="51.46285" lon="12.004837"><ele>100.5</ele></trkpt>
   <trkpt lat="51.462724" lon="12.00511"><ele>100.5</ele></trkpt>
   <trkpt lat="51.462562" lon="12.005414"><ele>100.25</ele></trkpt>
   <trkpt lat="51.462352" lon="12.005749"><ele>100</ele></trkpt>
   <trkpt lat="51.462052" lon="12.006195"><ele>99.25</ele></trkpt>
   <trkpt lat="51.461453" lon="12.007083"><ele>98.5</ele></trkpt>
   <trkpt lat="51.46095" lon="12.007895"><ele>98.25</ele></trkpt>
   <trkpt lat="51.460535" lon="12.008682"><ele>98</ele></trkpt>
   <trkpt lat="51.460252" lon="12.009236"><ele>98</ele></trkpt>
   <trkpt lat="51.459871" lon="12.010036"><ele>99</ele></trkpt>
   <trkpt lat="51.459683" lon="12.010488"><ele>98.75</ele></trkpt>
   <trkpt lat="51.459412" lon="12.011228"><ele>98</ele></trkpt>
   <trkpt lat="51.459186" lon="12.011778"><ele>97.75</ele></trkpt>
   <trkpt lat="51.459174" lon="12.011804"><ele>97.75</ele></trkpt>
   <trkpt lat="51.459105" lon="12.011961"><ele>97.75</ele></trkpt>
   <trkpt lat="51.459056" lon="12.012078"><ele>97.75</ele></trkpt>
   <trkpt lat="51.458857" lon="12.012593"><ele>97.5</ele></trkpt>
   <trkpt lat="51.458437" lon="12.013731"><ele>97.75</ele></trkpt>
   <trkpt lat="51.458198" lon="12.014353"><ele>97.75</ele></trkpt>
   <trkpt lat="51.457989" lon="12.014923"><ele>97.25</ele></trkpt>
   <trkpt lat="51.457745" lon="12.015639"><ele>97.5</ele></trkpt>
   <trkpt lat="51.457488" lon="12.016457"><ele>97</ele></trkpt>
   <trkpt lat="51.4573" lon="12.017129"><ele>96.75</ele></trkpt>
   <trkpt lat="51.45709" lon="12.017958"><ele>97.5</ele></trkpt>
   <trkpt lat="51.456685" lon="12.01975"><ele>98</ele></trkpt>
   <trkpt lat="51.456504" lon="12.020598"><ele>98.25</ele></trkpt>
   <trkpt lat="51.456142" lon="12.022284"><ele>94.75</ele></trkpt>
  </trkseg>
 </trk>
</gpx>