<?xml version="1.0" encoding="UTF-8"?>
<!-- track-length = 109076 filtered ascend = 86 plain-ascend = -5 cost=109076 energy=1.3kwh time=2h 25m 26s -->
<gpx 
 xmlns="http://www.topografix.com/GPX/1/1" 
 xmlns:xsi="http://www.w3.org/2001/XMLSchema-instance" 
 xsi:schemaLocation="http://www.topografix.com/GPX/1/1 http://www.topografix.com/GPX/1/1/gpx.xsd" 
 version="1.1" 
 creator="BRouter-Web 0.18.1">
 <trk>
  <name>Halle - Jüterbog</name>
  <trkseg>
   <trkpt lat="51.40753" lon="11.948802"><ele>91.5</ele></trkpt>
   <trkpt lat="51.408325" lon="11.952806"><ele>91.5</ele></trkpt>
   <trkpt lat="51.408907" lon="11.955943"><ele>91.5</ele></trkpt>
   <trkpt lat="51.409112" lon="11.957168"><ele>91.5</ele></trkpt>
   <trkpt lat="51.409225" lon="11.957918"><ele>91.5</ele></trkpt>
   <trkpt lat="51.4093" lon="11.958411"><ele>91.5</ele></trkpt>
   <trkpt lat="51.409881" lon="11.962777"><ele>91.5</ele></trkpt>
   <trkpt lat="51.41019" lon="11.965674"><ele>91.5</ele></trkpt>
   <trkpt lat="51.410294" lon="11.96695"><ele>91.5</ele></trkpt>
   <trkpt lat="51.410391" lon="11.968489"><ele>91.5</ele></trkpt>
   <trkpt lat="51.410411" lon="11.968825"><ele>91.5</ele></trkpt>
   <trkpt lat="51.410433" lon="11.969171"><ele>91.5</ele></trkpt>
   <trkpt lat="51.410567" lon="11.971261"><ele>91.5</ele></trkpt>
   <trkpt lat="51.410633" lon="11.971948"><ele>91.5</ele></trkpt>
   <trkpt lat="51.410718" lon="11.972613"><ele>91.5</ele></trkpt>
   <trkpt lat="51.41085" lon="11.973536"><ele>91.5</ele></trkpt>
   <trkpt lat="51.41098" lon="11.974278"><ele>91.5</ele></trkpt>
   <trkpt lat="51.411112" lon="11.974942"><ele>91.5</ele></trkpt>
   <trkpt lat="51.411297" lon="11.975752"><ele>91.5</ele></trkpt>
   <trkpt lat="51.411421" lon="11.976232"><ele>91.5</ele></trkpt>
   <trkpt lat="51.411542" lon="11.976684"><ele>91.5</ele></trkpt>
   <trkpt lat="51.411658" lon="11.977086"><ele>91.5</ele></trkpt>
   <trkpt lat="51.411783" lon="11.977482"><ele>91.5</ele></trkpt>
   <trkpt lat="51.412032" lon="11.978223"><ele>91.5</ele></trkpt>
   <trkpt lat="51.412166" lon="11.978597"><ele>91.5</ele></trkpt>
   <trkpt lat="51.412309" lon="11.978971"><ele>91.5</ele></trkpt>
   <trkpt lat="51.412604" lon="11.979678"><ele>91.5</ele></trkpt>
   <trkpt lat="51.412923" lon="11.98038"><ele>91.5</ele></trkpt>
   <trkpt lat="51.41337" lon="11.98127"><ele>91.5</ele></trkpt>
   <trkpt lat="51.413527" lon="11.981559"><ele>91.5</ele></trkpt>
   <trkpt lat="51.413783" lon="11.981995"><ele>91.5</ele></trkpt>
   <trkpt lat="51.414056" lon="11.982437"><ele>91.5</ele></trkpt>
   <trkpt lat="51.414357" lon="11.982892"><ele>91.5</ele></trkpt>
   <trkpt lat="51.414593" lon="11.983232"><ele>91.5</ele></trkpt>
   <trkpt lat="51.415013" lon="11.98379"><ele>91.5</ele></trkpt>
   <trkpt lat="51.415268" lon="11.984102"><ele>91.5</ele></trkpt>
   <trkpt lat="51.415667" lon="11.984568"><ele>91.5</ele></trkpt>
   <trkpt lat="51.415916" lon="11.984836"><ele>91.5</ele></trkpt>
   <trkpt lat="51.416294" lon="11.985221"><ele>91.5</ele></trkpt>
   <trkpt lat="51.416582" lon="11.985498"><ele>91.5</ele></trkpt>
   <trkpt lat="51.416926" lon="11.985808"><ele>91.5</ele></trkpt>
   <trkpt lat="51.417399" lon="11.986189"><ele>91.5</ele></trkpt>
   <trkpt lat="51.417891" lon="11.986545"><ele>91.5</ele></trkpt>
   <trkpt lat="51.41825" lon="11.986776"><ele>91.5</ele></trkpt>
   <trkpt lat="51.418799" lon="11.987086"><ele>91.5</ele></trkpt>
   <trkpt lat="51.419076" lon="11.987228"><ele>91.5</ele></trkpt>
   <trkpt lat="51.419361" lon="11.987359"><ele>91.5</ele></trkpt>
   <trkpt lat="51.419658" lon="11.987483"><ele>91.5</ele></trkpt>
   <trkpt lat="51.41994" lon="11.987588"><ele>91.5</ele></trkpt>
   <trkpt lat="51.420292" lon="11.987702"><ele>91.5</ele></trkpt>
   <trkpt lat="51.420867" lon="11.987853"><ele>91.5</ele></trkpt>
   <trkpt lat="51.421212" lon="11.98792"><ele>91.5</ele></trkpt>
   <trkpt lat="51.421708" lon="11.987983"><ele>91.5</ele></trkpt>
   <trkpt lat="51.422199" lon="11.988015"><ele>91.5</ele></trkpt>
   <trkpt lat="51.422574" lon="11.988018"><ele>91.5</ele></trkpt>
   <trkpt lat="51.423248" lon="11.987997"><ele>91.5</ele></trkpt>
   <trkpt lat="51.42456" lon="11.987903"><ele>92</ele></trkpt>
   <trkpt lat="51.42492" lon="11.987882"><ele>92.25</ele></trkpt>
   <trkpt lat="51.425042" lon="11.987878"><ele>92.5</ele></trkpt>
   <trkpt lat="51.426337" lon="11.987859"><ele>93.5</ele></trkpt>
   <trkpt lat="51.427031" lon="11.987842"><ele>93.5</ele></trkpt>
   <trkpt lat="51.427589" lon="11.987832"><ele>93.5</ele></trkpt>
   <trkpt lat="51.428854" lon="11.98782"><ele>94.25</ele></trkpt>
   <trkpt lat="51.428859" lon="11.98782"><ele>94.25</ele></trkpt>
   <trkpt lat="51.428995" lon="11.987822"><ele>94.25</ele></trkpt>
   <trkpt lat="51.428999" lon="11.987822"><ele>94.25</ele></trkpt>
   <trkpt lat="51.429567" lon="11.98783"><ele>94.75</ele></trkpt>
   <trkpt lat="51.432161" lon="11.987947"><ele>95</ele></trkpt>
   <trkpt lat="51.432866" lon="11.987977"><ele>95</ele></trkpt>
   <trkpt lat="51.433285" lon="11.987998"><ele>95.25</ele></trkpt>
   <trkpt lat="51.433521" lon="11.98801"><ele>95.5</ele></trkpt>
   <trkpt lat="51.433592" lon="11.988012"><ele>95.5</ele></trkpt>
   <trkpt lat="51.433693" lon="11.988014"><ele>95.75</ele></trkpt>
   <trkpt lat="51.434032" lon="11.988015"><ele>96</ele></trkpt>
   <trkpt lat="51.434326" lon="11.987997"><ele>96.5</ele></trkpt>
   <trkpt lat="51.43473" lon="11.988001"><ele>97</ele></trkpt>
   <trkpt lat="51.434754" lon="11.988002"><ele>97</ele></trkpt>
   <trkpt lat="51.434981" lon="11.988013"><ele>97.25</ele></trkpt>
   <trkpt lat="51.435973" lon="11.98806"><ele>97.75</ele></trkpt>
   <trkpt lat="51.436217" lon="11.988069"><ele>98.5</ele></trkpt>
   <trkpt lat="51.436866" lon="11.988091"><ele>100</ele></trkpt>
   <trkpt lat="51.437168" lon="11.988101"><ele>100</ele></trkpt>
   <trkpt lat="51.438174" lon="11.988152"><ele>100.75</ele></trkpt>
   <trkpt lat="51.438325" lon="11.98816"><ele>101</ele></trkpt>
   <trkpt lat="51.438757" lon="11.988181"><ele>101.5</ele></trkpt>
   <trkpt lat="51.440255" lon="11.988232"><ele>102</ele></trkpt>
   <trkpt lat="51.44166" lon="11.988294"><ele>102.75</ele></trkpt>
   <trkpt lat="51.441671" lon="11.988295"><ele>102.75</ele></trkpt>
   <trkpt lat="51.442249" lon="11.988326"><ele>103.5</ele></trkpt>
   <trkpt lat="51.443938" lon="11.988404"><ele>104.5</ele></trkpt>
   <trkpt lat="51.443995" lon="11.988408"><ele>104.5</ele></trkpt>
   <trkpt lat="51.444568" lon="11.988448"><ele>105</ele></trkpt>
   <trkpt lat="51.444933" lon="11.988486"><ele>105</ele></trkpt>
   <trkpt lat="51.445214" lon="11.988531"><ele>105.5</ele></trkpt>
   <trkpt lat="51.445438" lon="11.988579"><ele>106</ele></trkpt>
   <trkpt lat="51.445718" lon="11.988666"><ele>106.75</ele></trkpt>
   <trkpt lat="51.445971" lon="11.988759"><ele>107</ele></trkpt>
   <trkpt lat="51.4462" lon="11.988856"><ele>107</ele></trkpt>
   <trkpt lat="51.446473" lon="11.988994"><ele>107</ele></trkpt>
   <trkpt lat="51.446703" lon="11.98913"><ele>107</ele></trkpt>
   <trkpt lat="51.446961" lon="11.9893"><ele>107</ele></trkpt>
   <trkpt lat="51.447205" lon="11.989481"><ele>107.25</ele></trkpt>
   <trkpt lat="51.447364" lon="11.989618"><ele>107.25</ele></trkpt>
   <trkpt lat="51.447671" lon="11.989883"><ele>107.5</ele></trkpt>
   <trkpt lat="51.448199" lon="11.99044"><ele>108.75</ele></trkpt>
   <trkpt lat="51.448552" lon="11.990865"><ele>108.5</ele></trkpt>
   <trkpt lat="51.44865" lon="11.990983"><ele>108.25</ele></trkpt>
   <trkpt lat="51.448934" lon="11.991331"><ele>107.25</ele></trkpt>
   <trkpt lat="51.449363" lon="11.991861"><ele>106</ele></trkpt>
   <trkpt lat="51.449822" lon="11.992378"><ele>106</ele></trkpt>
   <trkpt lat="51.450198" lon="11.992745"><ele>106.25</ele></trkpt>
   <trkpt lat="51.450209" lon="11.992755"><ele>106.25</ele></trkpt>
   <trkpt lat="51.450604" lon="11.993094"><ele>106.25</ele></trkpt>
   <trkpt lat="51.450807" lon="11.993249"><ele>106</ele></trkpt>
   <trkpt lat="51.450989" lon="11.993373"><ele>106</ele></trkpt>
   <trkpt lat="51.451159" lon="11.993482"><ele>106</ele></trkpt>
   <trkpt lat="51.451352" lon="11.993598"><ele>106</ele></trkpt>
   <trkpt lat="51.451474" lon="11.99366"><ele>106</ele></trkpt>
   <trkpt lat="51.451656" lon="11.993751"><ele>106</ele></trkpt>
   <trkpt lat="51.451936" lon="11.993876"><ele>106</ele></trkpt>
   <trkpt lat="51.452006" lon="11.993902"><ele>106</ele></trkpt>
   <trkpt lat="51.452078" lon="11.99393"><ele>106</ele></trkpt>
   <trkpt lat="51.45222" lon="11.993983"><ele>106</ele></trkpt>
   <trkpt lat="51.452419" lon="11.994043"><ele>106</ele></trkpt>
   <trkpt lat="51.452772" lon="11.994128"><ele>106</ele></trkpt>
   <trkpt lat="51.452796" lon="11.994133"><ele>106</ele></trkpt>
   <trkpt lat="51.452805" lon="11.994134"><ele>106</ele></trkpt>
   <trkpt lat="51.453438" lon="11.994223"><ele>106</ele></trkpt>
   <trkpt lat="51.45386" lon="11.994245"><ele>105.75</ele></trkpt>
   <trkpt lat="51.455665" lon="11.994323"><ele>105.5</ele></trkpt>
   <trkpt lat="51.45625" lon="11.994361"><ele>105</ele></trkpt>
   <trkpt lat="51.457294" lon="11.994423"><ele>106.25</ele></trkpt>
   <trkpt lat="51.457475" lon="11.994433"><ele>106.75</ele></trkpt>
   <trkpt lat="51.457907" lon="11.994459"><ele>106.25</ele></trkpt>
   <trkpt lat="51.459214" lon="11.994561"><ele>105.5</ele></trkpt>
   <trkpt lat="51.460585" lon="11.994688"><ele>103.75</ele></trkpt>
   <trkpt lat="51.460601" lon="11.994689"><ele>103.75</ele></trkpt>
   <trkpt lat="51.462695" lon="11.994884"><ele>102.75</ele></trkpt>
   <trkpt lat="51.462703" lon="11.994884"><ele>102.75</ele></trkpt>
   <trkpt lat="51.465633" lon="11.995147"><ele>102</ele></trkpt>
   <trkpt lat="51.466667" lon="11.995246"><ele>101.75</ele></trkpt>
   <trkpt lat="51.467145" lon="11.995289"><ele>101.75</ele></trkpt>
   <trkpt lat="51.46771" lon="11.995306"><ele>101.5</ele></trkpt>
   <trkpt lat="51.46792" lon="11.9953"><ele>101.75</ele></trkpt>
   <trkpt lat="51.468431" lon="11.995255"><ele>102</ele></trkpt>
   <trkpt lat="51.46844" lon="11.995253"><ele>102.25</ele></trkpt>
   <trkpt lat="51.468477" lon="11.995248"><ele>102.25</ele></trkpt>
   <trkpt lat="51.468732" lon="11.995202"><ele>102.75</ele></trkpt>
   <trkpt lat="51.46913" lon="11.99511"><ele>103.75</ele></trkpt>
   <trkpt lat="51.469243" lon="11.995081"><ele>104</ele></trkpt>
   <trkpt lat="51.469531" lon="11.994982"><ele>104</ele></trkpt>
   <trkpt lat="51.469707" lon="11.994903"><ele>104</ele></trkpt>
   <trkpt lat="51.469982" lon="11.994754"><ele>104</ele></trkpt>
   <trkpt lat="51.470307" lon="11.994535"><ele>104.25</ele></trkpt>
   <trkpt lat="51.47043" lon="11.994441"><ele>104.5</ele></trkpt>
   <trkpt lat="51.470575" lon="11.994321"><ele>105</ele></trkpt>
   <trkpt lat="51.470904" lon="11.993998"><ele>106</ele></trkpt>
   <trkpt lat="51.471162" lon="11.993719"><ele>106.25</ele></trkpt>
   <trkpt lat="51.471289" lon="11.993585"><ele>106.25</ele></trkpt>
   <trkpt lat="51.471649" lon="11.993154"><ele>106.25</ele></trkpt>
   <trkpt lat="51.471912" lon="11.992842"><ele>107</ele></trkpt>
   <trkpt lat="51.472236" lon="11.992509"><ele>107.25</ele></trkpt>
   <trkpt lat="51.472488" lon="11.992204"><ele>107</ele></trkpt>
   <trkpt lat="51.472518" lon="11.992164"><ele>107</ele></trkpt>
   <trkpt lat="51.472694" lon="11.991936"><ele>107</ele></trkpt>
   <trkpt lat="51.472846" lon="11.991691"><ele>107</ele></trkpt>
   <trkpt lat="51.472921" lon="11.99157"><ele>107</ele></trkpt>
   <trkpt lat="51.473079" lon="11.991314"><ele>107.25</ele></trkpt>
   <trkpt lat="51.473234" lon="11.991064"><ele>107.5</ele></trkpt>
   <trkpt lat="51.473301" lon="11.990953"><ele>107.75</ele></trkpt>
   <trkpt lat="51.473384" lon="11.990816"><ele>107.75</ele></trkpt>
   <trkpt lat="51.473547" lon="11.990562"><ele>107.75</ele></trkpt>
   <trkpt lat="51.473709" lon="11.990336"><ele>107.75</ele></trkpt>
   <trkpt lat="51.47374" lon="11.990297"><ele>107.75</ele></trkpt>
   <trkpt lat="51.474333" lon="11.989514"><ele>107.5</ele></trkpt>
   <trkpt lat="51.474566" lon="11.98921"><ele>107.75</ele></trkpt>
   <trkpt lat="51.474841" lon="11.988868"><ele>108</ele></trkpt>
   <trkpt lat="51.474908" lon="11.988787"><ele>108</ele></trkpt>
   <trkpt lat="51.474921" lon="11.98877"><ele>108</ele></trkpt>
   <trkpt lat="51.475151" lon="11.988508"><ele>108</ele></trkpt>
   <trkpt lat="51.475385" lon="11.988256"><ele>108.5</ele></trkpt>
   <trkpt lat="51.475609" lon="11.98803"><ele>109.5</ele></trkpt>
   <trkpt lat="51.475621" lon="11.988019"><ele>109.5</ele></trkpt>
   <trkpt lat="51.475779" lon="11.987868"><ele>110</ele></trkpt>
   <trkpt lat="51.476423" lon="11.987288"><ele>111</ele></trkpt>
   <trkpt lat="51.476443" lon="11.987271"><ele>111</ele></trkpt>
   <trkpt lat="51.476997" lon="11.986796"><ele>111.25</ele></trkpt>
   <trkpt lat="51.477002" lon="11.986792"><ele>111.25</ele></trkpt>
   <trkpt lat="51.477422" lon="11.986415"><ele>111.5</ele></trkpt>
   <trkpt lat="51.477608" lon="11.98626"><ele>111</ele></trkpt>
   <trkpt lat="51.477937" lon="11.986033"><ele>109.75</ele></trkpt>
   <trkpt lat="51.478144" lon="11.985919"><ele>109.25</ele></trkpt>
   <trkpt lat="51.478284" lon="11.985855"><ele>109</ele></trkpt>
   <trkpt lat="51.478559" lon="11.985746"><ele>109</ele></trkpt>
   <trkpt lat="51.478652" lon="11.985712"><ele>109</ele></trkpt>
   <trkpt lat="51.47866" lon="11.985709"><ele>109</ele></trkpt>
   <trkpt lat="51.47892" lon="11.985626"><ele>109</ele></trkpt>
   <trkpt lat="51.478984" lon="11.985607"><ele>109</ele></trkpt>
   <trkpt lat="51.479418" lon="11.985501"><ele>108.5</ele></trkpt>
   <trkpt lat="51.479967" lon="11.985383"><ele>108</ele></trkpt>
   <trkpt lat="51.480542" lon="11.985264"><ele>108.5</ele></trkpt>
   <trkpt lat="51.480677" lon="11.985236"><ele>108.75</ele></trkpt>
   <trkpt lat="51.481139" lon="11.98516"><ele>109.5</ele></trkpt>
   <trkpt lat="51.481344" lon="11.98514"><ele>110</ele></trkpt>
   <trkpt lat="51.48202" lon="11.985115"><ele>110.75</ele></trkpt>
   <trkpt lat="51.482098" lon="11.985106"><ele>110.75</ele></trkpt>
   <trkpt lat="51.482264" lon="11.98509"><ele>110.75</ele></trkpt>
   <trkpt lat="51.482477" lon="11.985067"><ele>110.75</ele></trkpt>
   <trkpt lat="51.482625" lon="11.985049"><ele>110.75</ele></trkpt>
   <trkpt lat="51.482811" lon="11.985028"><ele>110.5</ele></trkpt>
   <trkpt lat="51.483215" lon="11.984993"><ele>110</ele></trkpt>
   <trkpt lat="51.483558" lon="11.984997"><ele>110.25</ele></trkpt>
   <trkpt lat="51.483734" lon="11.985013"><ele>110.25</ele></trkpt>
   <trkpt lat="51.48392" lon="11.985044"><ele>110.5</ele></trkpt>
   <trkpt lat="51.484271" lon="11.985142"><ele>110.75</ele></trkpt>
   <trkpt lat="51.484474" lon="11.985222"><ele>110.5</ele></trkpt>
   <trkpt lat="51.484789" lon="11.985364"><ele>110.25</ele></trkpt>
   <trkpt lat="51.485985" lon="11.985933"><ele>110.75</ele></trkpt>
   <trkpt lat="51.486362" lon="11.986135"><ele>110.25</ele></trkpt>
   <trkpt lat="51.486519" lon="11.986235"><ele>110</ele></trkpt>
   <trkpt lat="51.486682" lon="11.986353"><ele>109.5</ele></trkpt>
   <trkpt lat="51.486845" lon="11.986484"><ele>109.25</ele></trkpt>
   <trkpt lat="51.487014" lon="11.986636"><ele>109</ele></trkpt>
   <trkpt lat="51.487185" lon="11.986808"><ele>109</ele></trkpt>
   <trkpt lat="51.487391" lon="11.987034"><ele>109</ele></trkpt>
   <trkpt lat="51.4877" lon="11.987394"><ele>109</ele></trkpt>
   <trkpt lat="51.487818" lon="11.987536"><ele>109.25</ele></trkpt>
   <trkpt lat="51.487831" lon="11.987552"><ele>109.25</ele></trkpt>
   <trkpt lat="51.48832" lon="11.988137"><ele>109</ele></trkpt>
   <trkpt lat="51.489201" lon="11.989191"><ele>111</ele></trkpt>
   <trkpt lat="51.489677" lon="11.989794"><ele>110.75</ele></trkpt>
   <trkpt lat="51.48998" lon="11.990217"><ele>110.5</ele></trkpt>
   <trkpt lat="51.490139" lon="11.990453"><ele>110.5</ele></trkpt>
   <trkpt lat="51.4903" lon="11.990704"><ele>110.5</ele></trkpt>
   <trkpt lat="51.49058" lon="11.991165"><ele>110.25</ele></trkpt>
   <trkpt lat="51.491412" lon="11.992684"><ele>109.25</ele></trkpt>
   <trkpt lat="51.491945" lon="11.993675"><ele>110.25</ele></trkpt>
   <trkpt lat="51.491992" lon="11.993766"><ele>110.25</ele></trkpt>
   <trkpt lat="51.492139" lon="11.994018"><ele>110.5</ele></trkpt>
   <trkpt lat="51.492333" lon="11.994423"><ele>110.75</ele></trkpt>
   <trkpt lat="51.492648" lon="11.995126"><ele>110.5</ele></trkpt>
   <trkpt lat="51.492899" lon="11.995618"><ele>110</ele></trkpt>
   <trkpt lat="51.492952" lon="11.995718"><ele>109.75</ele></trkpt>
   <trkpt lat="51.493237" lon="11.996213"><ele>109.5</ele></trkpt>
   <trkpt lat="51.493543" lon="11.996726"><ele>109.5</ele></trkpt>
   <trkpt lat="51.493821" lon="11.997224"><ele>109</ele></trkpt>
   <trkpt lat="51.493969" lon="11.997503"><ele>109</ele></trkpt>
   <trkpt lat="51.494082" lon="11.997701"><ele>109.25</ele></trkpt>
   <trkpt lat="51.494353" lon="11.998127"><ele>109.5</ele></trkpt>
   <trkpt lat="51.494737" lon="11.99877"><ele>109.25</ele></trkpt>
   <trkpt lat="51.495039" lon="11.999313"><ele>109</ele></trkpt>
   <trkpt lat="51.495261" lon="11.999702"><ele>109.25</ele></trkpt>
   <trkpt lat="51.495766" lon="12.000616"><ele>109</ele></trkpt>
   <trkpt lat="51.496536" lon="12.001994"><ele>109.75</ele></trkpt>
   <trkpt lat="51.496813" lon="12.002473"><ele>110</ele></trkpt>
   <trkpt lat="51.49852" lon="12.005519"><ele>110.5</ele></trkpt>
   <trkpt lat="51.498709" lon="12.005868"><ele>111</ele></trkpt>
   <trkpt lat="51.498762" lon="12.005971"><ele>111</ele></trkpt>
   <trkpt lat="51.499051" lon="12.006541"><ele>111.75</ele></trkpt>
   <trkpt lat="51.499403" lon="12.007296"><ele>112</ele></trkpt>
   <trkpt lat="51.49978" lon="12.008217"><ele>111.25</ele></trkpt>
   <trkpt lat="51.500037" lon="12.008926"><ele>111</ele></trkpt>
   <trkpt lat="51.500252" lon="12.009594"><ele>111.75</ele></trkpt>
   <trkpt lat="51.500336" lon="12.009879"><ele>112.25</ele></trkpt>
   <trkpt lat="51.500485" lon="12.010413"><ele>112.25</ele></trkpt>
   <trkpt lat="51.500594" lon="12.010845"><ele>112.25</ele></trkpt>
   <trkpt lat="51.500664" lon="12.011142"><ele>112</ele></trkpt>
   <trkpt lat="51.500764" lon="12.011637"><ele>111.75</ele></trkpt>
   <trkpt lat="51.500863" lon="12.012124"><ele>111.5</ele></trkpt>
   <trkpt lat="51.501027" lon="12.013232"><ele>110.75</ele></trkpt>
   <trkpt lat="51.501105" lon="12.01392"><ele>110.75</ele></trkpt>
   <trkpt lat="51.501152" lon="12.014479"><ele>111</ele></trkpt>
   <trkpt lat="51.501182" lon="12.014944"><ele>111.25</ele></trkpt>
   <trkpt lat="51.501207" lon="12.015554"><ele>111</ele></trkpt>
   <trkpt lat="51.501217" lon="12.016039"><ele>110.5</ele></trkpt>
   <trkpt lat="51.501216" lon="12.016538"><ele>110</ele></trkpt>
   <trkpt lat="51.501209" lon="12.016805"><ele>109.75</ele></trkpt>
   <trkpt lat="51.501191" lon="12.01734"><ele>109.75</ele></trkpt>
   <trkpt lat="51.501166" lon="12.01785"><ele>110</ele></trkpt>
   <trkpt lat="51.50115" lon="12.018045"><ele>110</ele></trkpt>
   <trkpt lat="51.50112" lon="12.018439"><ele>110.25</ele></trkpt>
   <trkpt lat="51.501016" lon="12.019361"><ele>110</ele></trkpt>
   <trkpt lat="51.50097" lon="12.019682"><ele>110</ele></trkpt>
   <trkpt lat="51.500887" lon="12.020227"><ele>109.5</ele></trkpt>
   <trkpt lat="51.500728" lon="12.021129"><ele>108.25</ele></trkpt>
   <trkpt lat="51.500719" lon="12.021181"><ele>108</ele></trkpt>
   <trkpt lat="51.500608" lon="12.02177"><ele>107.25</ele></trkpt>
   <trkpt lat="51.500581" lon="12.021914"><ele>107.25</ele></trkpt>
   <trkpt lat="51.500399" lon="12.022911"><ele>106.5</ele></trkpt>
   <trkpt lat="51.500321" lon="12.023373"><ele>106.25</ele></trkpt>
   <trkpt lat="51.500194" lon="12.024233"><ele>105.75</ele></trkpt>
   <trkpt lat="51.500161" lon="12.024471"><ele>105.5</ele></trkpt>
   <trkpt lat="51.500062" lon="12.025432"><ele>104.75</ele></trkpt>
   <trkpt lat="51.500034" lon="12.025768"><ele>104.75</ele></trkpt>
   <trkpt lat="51.499992" lon="12.026492"><ele>104.75</ele></trkpt>
   <trkpt lat="51.499975" lon="12.027891"><ele>104.75</ele></trkpt>
   <trkpt lat="51.499976" lon="12.028252"><ele>104.75</ele></trkpt>
   <trkpt lat="51.499976" lon="12.028602"><ele>104.5</ele></trkpt>
   <trkpt lat="51.499983" lon="12.029685"><ele>103.25</ele></trkpt>
   <trkpt lat="51.499991" lon="12.030074"><ele>102.75</ele></trkpt>
   <trkpt lat="51.50003" lon="12.030711"><ele>102.75</ele></trkpt>
   <trkpt lat="51.500044" lon="12.030923"><ele>102.75</ele></trkpt>
   <trkpt lat="51.500076" lon="12.03126"><ele>102.25</ele></trkpt>
   <trkpt lat="51.500147" lon="12.031891"><ele>101.75</ele></trkpt>
   <trkpt lat="51.500254" lon="12.032672"><ele>101.5</ele></trkpt>
   <trkpt lat="51.500381" lon="12.033514"><ele>101.25</ele></trkpt>
   <trkpt lat="51.50046" lon="12.033949"><ele>101.5</ele></trkpt>
   <trkpt lat="51.500472" lon="12.034018"><ele>101.5</ele></trkpt>
   <trkpt lat="51.500503" lon="12.034198"><ele>101.5</ele></trkpt>
   <trkpt lat="51.500527" lon="12.034327"><ele>101.75</ele></trkpt>
   <trkpt lat="51.500896" lon="12.036285"><ele>102.75</ele></trkpt>
   <trkpt lat="51.501404" lon="12.038985"><ele>101</ele></trkpt>
   <trkpt lat="51.5019" lon="12.041618"><ele>99</ele></trkpt>
   <trkpt lat="51.502129" lon="12.042833"><ele>99</ele></trkpt>
   <trkpt lat="51.502211" lon="12.043302"><ele>99</ele></trkpt>
   <trkpt lat="51.502438" lon="12.044504"><ele>98.25</ele></trkpt>
   <trkpt lat="51.502922" lon="12.047075"><ele>100.25</ele></trkpt>
   <trkpt lat="51.503025" lon="12.047594"><ele>100.5</ele></trkpt>
   <trkpt lat="51.503631" lon="12.050855"><ele>96</ele></trkpt>
   <trkpt lat="51.503648" lon="12.050944"><ele>96</ele></trkpt>
   <trkpt lat="51.504118" lon="12.053474"><ele>96.75</ele></trkpt>
   <trkpt lat="51.504195" lon="12.053894"><ele>97</ele></trkpt>
   <trkpt lat="51.505646" lon="12.06164"><ele>99</ele></trkpt>
   <trkpt lat="51.505676" lon="12.061795"><ele>99</ele></trkpt>
   <trkpt lat="51.507063" lon="12.06924"><ele>97</ele></trkpt>
   <trkpt lat="51.509127" lon="12.080319"><ele>99</ele></trkpt>
   <trkpt lat="51.509189" lon="12.080642"><ele>99</ele></trkpt>
   <trkpt lat="51.509753" lon="12.083619"><ele>100.5</ele></trkpt>
   <trkpt lat="51.510275" lon="12.086407"><ele>101.25</ele></trkpt>
   <trkpt lat="51.510763" lon="12.089028"><ele>101.75</ele></trkpt>
   <trkpt lat="51.511286" lon="12.091891"><ele>102.5</ele></trkpt>
   <trkpt lat="51.511374" lon="12.092372"><ele>102.5</ele></trkpt>
   <trkpt lat="51.511656" lon="12.093826"><ele>102</ele></trkpt>
   <trkpt lat="51.511714" lon="12.094123"><ele>102</ele></trkpt>
   <trkpt lat="51.512205" lon="12.096747"><ele>103.5</ele></trkpt>
   <trkpt lat="51.512395" lon="12.097745"><ele>103.25</ele></trkpt>
   <trkpt lat="51.51242" lon="12.097878"><ele>103.25</ele></trkpt>
   <trkpt lat="51.512442" lon="12.097994"><ele>103.25</ele></trkpt>
   <trkpt lat="51.512857" lon="12.10022"><ele>103.25</ele></trkpt>
   <trkpt lat="51.51336" lon="12.102922"><ele>103.5</ele></trkpt>
   <trkpt lat="51.513814" lon="12.105352"><ele>105.25</ele></trkpt>
   <trkpt lat="51.514396" lon="12.108467"><ele>106</ele></trkpt>
   <trkpt lat="51.514905" lon="12.111187"><ele>105.75</ele></trkpt>
   <trkpt lat="51.515337" lon="12.113502"><ele>106</ele></trkpt>
   <trkpt lat="51.51591" lon="12.116571"><ele>106.75</ele></trkpt>
   <trkpt lat="51.516578" lon="12.120118"><ele>107</ele></trkpt>
   <trkpt lat="51.516741" lon="12.12096"><ele>106.75</ele></trkpt>
   <trkpt lat="51.516848" lon="12.121479"><ele>106.5</ele></trkpt>
   <trkpt lat="51.516936" lon="12.121903"><ele>106.25</ele></trkpt>
   <trkpt lat="51.517153" lon="12.122867"><ele>105.75</ele></trkpt>
   <trkpt lat="51.517394" lon="12.123877"><ele>106.5</ele></trkpt>
   <trkpt lat="51.517552" lon="12.124503"><ele>107.25</ele></trkpt>
   <trkpt lat="51.517654" lon="12.124907"><ele>108</ele></trkpt>
   <trkpt lat="51.517922" lon="12.125909"><ele>108.25</ele></trkpt>
   <trkpt lat="51.518055" lon="12.126379"><ele>108</ele></trkpt>
   <trkpt lat="51.518195" lon="12.126876"><ele>107.75</ele></trkpt>
   <trkpt lat="51.518351" lon="12.127394"><ele>108</ele></trkpt>
   <trkpt lat="51.518804" lon="12.128866"><ele>108</ele></trkpt>
   <trkpt lat="51.520835" lon="12.135074"><ele>110</ele></trkpt>
   <trkpt lat="51.521648" lon="12.137551"><ele>110.25</ele></trkpt>
   <trkpt lat="51.522228" lon="12.139319"><ele>109</ele></trkpt>
   <trkpt lat="51.523125" lon="12.142055"><ele>106.5</ele></trkpt>
   <trkpt lat="51.523393" lon="12.142832"><ele>106.5</ele></trkpt>
   <trkpt lat="51.52375" lon="12.14387"><ele>107</ele></trkpt>
   <trkpt lat="51.524373" lon="12.145553"><ele>104.75</ele></trkpt>
   <trkpt lat="51.52503" lon="12.147235"><ele>103.25</ele></trkpt>
   <trkpt lat="51.525389" lon="12.148156"><ele>101.75</ele></trkpt>
   <trkpt lat="51.526103" lon="12.149942"><ele>99.25</ele></trkpt>
   <trkpt lat="51.526998" lon="12.152181"><ele>97.75</ele></trkpt>
   <trkpt lat="51.527172" lon="12.152616"><ele>98</ele></trkpt>
   <trkpt lat="51.527293" lon="12.15292"><ele>98.25</ele></trkpt>
   <trkpt lat="51.527338" lon="12.153035"><ele>98.25</ele></trkpt>
   <trkpt lat="51.528168" lon="12.155162"><ele>99</ele></trkpt>
   <trkpt lat="51.528578" lon="12.156216"><ele>99</ele></trkpt>
   <trkpt lat="51.528844" lon="12.156854"><ele>99.25</ele></trkpt>
   <trkpt lat="51.529037" lon="12.157288"><ele>99</ele></trkpt>
   <trkpt lat="51.52931" lon="12.157957"><ele>99.5</ele></trkpt>
   <trkpt lat="51.52933" lon="12.158007"><ele>99.5</ele></trkpt>
   <trkpt lat="51.529455" lon="12.158329"><ele>99.75</ele></trkpt>
   <trkpt lat="51.529842" lon="12.159314"><ele>100.75</ele></trkpt>
   <trkpt lat="51.531189" lon="12.162746"><ele>100.5</ele></trkpt>
   <trkpt lat="51.53198" lon="12.164756"><ele>100</ele></trkpt>
   <trkpt lat="51.532669" lon="12.166501"><ele>100.5</ele></trkpt>
   <trkpt lat="51.533381" lon="12.168315"><ele>99.75</ele></trkpt>
   <trkpt lat="51.533855" lon="12.16952"><ele>100.25</ele></trkpt>
   <trkpt lat="51.534145" lon="12.170251"><ele>100.75</ele></trkpt>
   <trkpt lat="51.534737" lon="12.171755"><ele>101.5</ele></trkpt>
   <trkpt lat="51.535674" lon="12.174138"><ele>101.75</ele></trkpt>
   <trkpt lat="51.535718" lon="12.174249"><ele>101.75</ele></trkpt>
   <trkpt lat="51.536629" lon="12.176566"><ele>101.75</ele></trkpt>
   <trkpt lat="51.536936" lon="12.177346"><ele>102</ele></trkpt>
   <trkpt lat="51.537553" lon="12.178916"><ele>100.75</ele></trkpt>
   <trkpt lat="51.538033" lon="12.180135"><ele>99.25</ele></trkpt>
   <trkpt lat="51.538572" lon="12.181505"><ele>98.5</ele></trkpt>
   <trkpt lat="51.539644" lon="12.184229"><ele>96.25</ele></trkpt>
   <trkpt lat="51.540364" lon="12.186055"><ele>95.25</ele></trkpt>
   <trkpt lat="51.541356" lon="12.188576"><ele>94.25</ele></trkpt>
   <trkpt lat="51.542691" lon="12.191966"><ele>95.25</ele></trkpt>
   <trkpt lat="51.543311" lon="12.193546"><ele>97</ele></trkpt>
   <trkpt lat="51.544211" lon="12.195832"><ele>96</ele></trkpt>
   <trkpt lat="51.545293" lon="12.198583"><ele>96.25</ele></trkpt>
   <trkpt lat="51.54634" lon="12.201246"><ele>96</ele></trkpt>
   <trkpt lat="51.547305" lon="12.2037"><ele>95.25</ele></trkpt>
   <trkpt lat="51.548252" lon="12.206107"><ele>95.5</ele></trkpt>
   <trkpt lat="51.549332" lon="12.208853"><ele>95.75</ele></trkpt>
   <trkpt lat="51.550045" lon="12.210666"><ele>96</ele></trkpt>
   <trkpt lat="51.551103" lon="12.213356"><ele>94.5</ele></trkpt>
   <trkpt lat="51.552881" lon="12.217877"><ele>93.5</ele></trkpt>
   <trkpt lat="51.554026" lon="12.220787"><ele>95</ele></trkpt>
   <trkpt lat="51.554344" lon="12.221596"><ele>94.75</ele></trkpt>
   <trkpt lat="51.55497" lon="12.223191"><ele>94.75</ele></trkpt>
   <trkpt lat="51.555396" lon="12.224274"><ele>94</ele></trkpt>
   <trkpt lat="51.55601" lon="12.225835"><ele>93.5</ele></trkpt>
   <trkpt lat="51.55692" lon="12.22815"><ele>93.25</ele></trkpt>
   <trkpt lat="51.558552" lon="12.232298"><ele>91.5</ele></trkpt>
   <trkpt lat="51.558595" lon="12.232407"><ele>91.5</ele></trkpt>
   <trkpt lat="51.558892" lon="12.233162"><ele>92.25</ele></trkpt>
   <trkpt lat="51.559574" lon="12.234896"><ele>91</ele></trkpt>
   <trkpt lat="51.559747" lon="12.235334"><ele>90.75</ele></trkpt>
   <trkpt lat="51.563555" lon="12.245015"><ele>90</ele></trkpt>
   <trkpt lat="51.563615" lon="12.245168"><ele>90</ele></trkpt>
   <trkpt lat="51.564632" lon="12.247762"><ele>89.25</ele></trkpt>
   <trkpt lat="51.565698" lon="12.25048"><ele>90</ele></trkpt>
   <trkpt lat="51.565895" lon="12.251"><ele>90</ele></trkpt>
   <trkpt lat="51.566196" lon="12.251849"><ele>90</ele></trkpt>
   <trkpt lat="51.566366" lon="12.252295"><ele>89.5</ele></trkpt>
   <trkpt lat="51.566411" lon="12.25241"><ele>89.5</ele></trkpt>
   <trkpt lat="51.567602" lon="12.255445"><ele>90.75</ele></trkpt>
   <trkpt lat="51.567712" lon="12.255727"><ele>90.5</ele></trkpt>
   <trkpt lat="51.568221" lon="12.257025"><ele>91</ele></trkpt>
   <trkpt lat="51.569202" lon="12.259525"><ele>90.75</ele></trkpt>
   <trkpt lat="51.5693" lon="12.259776"><ele>90.75</ele></trkpt>
   <trkpt lat="51.569626" lon="12.260605"><ele>90.25</ele></trkpt>
   <trkpt lat="51.570374" lon="12.262514"><ele>91</ele></trkpt>
   <trkpt lat="51.570609" lon="12.263117"><ele>91.5</ele></trkpt>
   <trkpt lat="51.570697" lon="12.263343"><ele>91.75</ele></trkpt>
   <trkpt lat="51.571358" lon="12.265015"><ele>93</ele></trkpt>
   <trkpt lat="51.571401" lon="12.265123"><ele>93</ele></trkpt>
   <trkpt lat="51.572128" lon="12.266986"><ele>90.75</ele></trkpt>
   <trkpt lat="51.572819" lon="12.268742"><ele>90</ele></trkpt>
   <trkpt lat="51.572944" lon="12.269042"><ele>89.75</ele></trkpt>
   <trkpt lat="51.573339" lon="12.269976"><ele>89.75</ele></trkpt>
   <trkpt lat="51.573612" lon="12.270579"><ele>90</ele></trkpt>
   <trkpt lat="51.573994" lon="12.271406"><ele>90.5</ele></trkpt>
   <trkpt lat="51.574547" lon="12.272508"><ele>87.75</ele></trkpt>
   <trkpt lat="51.574641" lon="12.272688"><ele>87.25</ele></trkpt>
   <trkpt lat="51.575183" lon="12.273632"><ele>86.75</ele></trkpt>
   <trkpt lat="51.575788" lon="12.274623"><ele>86.5</ele></trkpt>
   <trkpt lat="51.576011" lon="12.274957"><ele>86.5</ele></trkpt>
   <trkpt lat="51.57647" lon="12.275627"><ele>87.5</ele></trkpt>
   <trkpt lat="51.576745" lon="12.276007"><ele>87.5</ele></trkpt>
   <trkpt lat="51.577251" lon="12.276661"><ele>86.5</ele></trkpt>
   <trkpt lat="51.578177" lon="12.277785"><ele>86.25</ele></trkpt>
   <trkpt lat="51.57852" lon="12.278187"><ele>86.5</ele></trkpt>
   <trkpt lat="51.580263" lon="12.280141"><ele>88.25</ele></trkpt>
   <trkpt lat="51.58088" lon="12.280825"><ele>88</ele></trkpt>
   <trkpt lat="51.581279" lon="12.281279"><ele>87.75</ele></trkpt>
   <trkpt lat="51.583711" lon="12.283989"><ele>86.75</ele></trkpt>
   <trkpt lat="51.583974" lon="12.284294"><ele>86.25</ele></trkpt>
   <trkpt lat="51.584907" lon="12.28537"><ele>86.25</ele></trkpt>
   <trkpt lat="51.585484" lon="12.286017"><ele>85.75</ele></trkpt>
   <trkpt lat="51.586015" lon="12.286631"><ele>85.25</ele></trkpt>
   <trkpt lat="51.586712" lon="12.287404"><ele>85.75</ele></trkpt>
   <trkpt lat="51.588136" lon="12.289015"><ele>85</ele></trkpt>
   <trkpt lat="51.5896" lon="12.290687"><ele>85</ele></trkpt>
   <trkpt lat="51.590949" lon="12.292208"><ele>87.25</ele></trkpt>
   <trkpt lat="51.591644" lon="12.292998"><ele>87.75</ele></trkpt>
   <trkpt lat="51.592875" lon="12.294395"><ele>88.5</ele></trkpt>
   <trkpt lat="51.592895" lon="12.294419"><ele>88.5</ele></trkpt>
   <trkpt lat="51.593748" lon="12.295315"><ele>88</ele></trkpt>
   <trkpt lat="51.594351" lon="12.295999"><ele>88.5</ele></trkpt>
   <trkpt lat="51.595024" lon="12.296739"><ele>85.75</ele></trkpt>
   <trkpt lat="51.595379" lon="12.297106"><ele>84.75</ele></trkpt>
   <trkpt lat="51.595754" lon="12.297476"><ele>84</ele></trkpt>
   <trkpt lat="51.596189" lon="12.297884"><ele>83.75</ele></trkpt>
   <trkpt lat="51.596664" lon="12.298307"><ele>83.75</ele></trkpt>
   <trkpt lat="51.598462" lon="12.299881"><ele>82.5</ele></trkpt>
   <trkpt lat="51.599107" lon="12.300471"><ele>82.5</ele></trkpt>
   <trkpt lat="51.599389" lon="12.300751"><ele>82.75</ele></trkpt>
   <trkpt lat="51.599666" lon="12.301046"><ele>83.25</ele></trkpt>
   <trkpt lat="51.599998" lon="12.301424"><ele>83.5</ele></trkpt>
   <trkpt lat="51.600331" lon="12.301828"><ele>84.25</ele></trkpt>
   <trkpt lat="51.601605" lon="12.303435"><ele>86.5</ele></trkpt>
   <trkpt lat="51.602082" lon="12.303997"><ele>86</ele></trkpt>
   <trkpt lat="51.602532" lon="12.304492"><ele>85</ele></trkpt>
   <trkpt lat="51.60369" lon="12.305696"><ele>82.5</ele></trkpt>
   <trkpt lat="51.603992" lon="12.306009"><ele>81.75</ele></trkpt>
   <trkpt lat="51.605278" lon="12.307294"><ele>80.25</ele></trkpt>
   <trkpt lat="51.60613" lon="12.308125"><ele>80.75</ele></trkpt>
   <trkpt lat="51.606603" lon="12.308569"><ele>80.25</ele></trkpt>
   <trkpt lat="51.607242" lon="12.30917"><ele>80.25</ele></trkpt>
   <trkpt lat="51.608601" lon="12.310475"><ele>79</ele></trkpt>
   <trkpt lat="51.608994" lon="12.310834"><ele>78.5</ele></trkpt>
   <trkpt lat="51.609663" lon="12.311467"><ele>77</ele></trkpt>
   <trkpt lat="51.61057" lon="12.312277"><ele>77.75</ele></trkpt>
   <trkpt lat="51.610794" lon="12.312463"><ele>77.75</ele></trkpt>
   <trkpt lat="51.61094" lon="12.312579"><ele>77.75</ele></trkpt>
   <trkpt lat="51.611158" lon="12.312754"><ele>77.75</ele></trkpt>
   <trkpt lat="51.611739" lon="12.313188"><ele>77.75</ele></trkpt>
   <trkpt lat="51.61212" lon="12.313454"><ele>78</ele></trkpt>
   <trkpt lat="51.612393" lon="12.31363"><ele>78</ele></trkpt>
   <trkpt lat="51.612826" lon="12.313901"><ele>78.25</ele></trkpt>
   <trkpt lat="51.613284" lon="12.314164"><ele>78.75</ele></trkpt>
   <trkpt lat="51.613622" lon="12.314344"><ele>78.75</ele></trkpt>
   <trkpt lat="51.613967" lon="12.314514"><ele>78.5</ele></trkpt>
   <trkpt lat="51.614526" lon="12.314765"><ele>78.25</ele></trkpt>
   <trkpt lat="51.615389" lon="12.315102"><ele>78.25</ele></trkpt>
   <trkpt lat="51.61553" lon="12.31515"><ele>78.5</ele></trkpt>
   <trkpt lat="51.616076" lon="12.315317"><ele>79</ele></trkpt>
   <trkpt lat="51.616785" lon="12.315504"><ele>78.75</ele></trkpt>
   <trkpt lat="51.617424" lon="12.315641"><ele>78</ele></trkpt>
   <trkpt lat="51.618857" lon="12.315919"><ele>77.25</ele></trkpt>
   <trkpt lat="51.619952" lon="12.316131"><ele>77</ele></trkpt>
   <trkpt lat="51.620678" lon="12.316272"><ele>76.5</ele></trkpt>
   <trkpt lat="51.620776" lon="12.316291"><ele>76.25</ele></trkpt>
   <trkpt lat="51.62265" lon="12.316684"><ele>77</ele></trkpt>
   <trkpt lat="51.624292" lon="12.31704"><ele>76.75</ele></trkpt>
   <trkpt lat="51.624383" lon="12.317061"><ele>76.5</ele></trkpt>
   <trkpt lat="51.624395" lon="12.317064"><ele>76.5</ele></trkpt>
   <trkpt lat="51.625939" lon="12.317395"><ele>76.75</ele></trkpt>
   <trkpt lat="51.626525" lon="12.317525"><ele>76</ele></trkpt>
   <trkpt lat="51.626639" lon="12.317549"><ele>76</ele></trkpt>
   <trkpt lat="51.627007" lon="12.317655"><ele>76.75</ele></trkpt>
   <trkpt lat="51.627234" lon="12.317745"><ele>77.25</ele></trkpt>
   <trkpt lat="51.627502" lon="12.317834"><ele>77.75</ele></trkpt>
   <trkpt lat="51.627782" lon="12.317914"><ele>77.25</ele></trkpt>
   <trkpt lat="51.629017" lon="12.318165"><ele>76.75</ele></trkpt>
   <trkpt lat="51.630267" lon="12.318449"><ele>75</ele></trkpt>
   <trkpt lat="51.631231" lon="12.318688"><ele>75.25</ele></trkpt>
   <trkpt lat="51.632701" lon="12.319068"><ele>77</ele></trkpt>
   <trkpt lat="51.633394" lon="12.319233"><ele>77</ele></trkpt>
   <trkpt lat="51.63714" lon="12.320207"><ele>75.75</ele></trkpt>
   <trkpt lat="51.637223" lon="12.320228"><ele>75.5</ele></trkpt>
   <trkpt lat="51.638806" lon="12.320634"><ele>75.25</ele></trkpt>
   <trkpt lat="51.639369" lon="12.320796"><ele>75</ele></trkpt>
   <trkpt lat="51.639821" lon="12.320933"><ele>75</ele></trkpt>
   <trkpt lat="51.640625" lon="12.321223"><ele>73.5</ele></trkpt>
   <trkpt lat="51.641239" lon="12.32149"><ele>73.25</ele></trkpt>
   <trkpt lat="51.64176" lon="12.321761"><ele>74</ele></trkpt>
   <trkpt lat="51.642178" lon="12.321997"><ele>74.5</ele></trkpt>
   <trkpt lat="51.642453" lon="12.322166"><ele>74.75</ele></trkpt>
   <trkpt lat="51.64294" lon="12.322493"><ele>74.25</ele></trkpt>
   <trkpt lat="51.64342" lon="12.322848"><ele>74</ele></trkpt>
   <trkpt lat="51.643894" lon="12.323231"><ele>74</ele></trkpt>
   <trkpt lat="51.644448" lon="12.323731"><ele>74</ele></trkpt>
   <trkpt lat="51.645002" lon="12.324252"><ele>74</ele></trkpt>
   <trkpt lat="51.645272" lon="12.324517"><ele>74</ele></trkpt>
   <trkpt lat="51.64553" lon="12.324791"><ele>74.25</ele></trkpt>
   <trkpt lat="51.646032" lon="12.32535"><ele>74</ele></trkpt>
   <trkpt lat="51.646533" lon="12.325925"><ele>73</ele></trkpt>
   <trkpt lat="51.646697" lon="12.326119"><ele>73.25</ele></trkpt>
   <trkpt lat="51.647453" lon="12.327061"><ele>75.25</ele></trkpt>
   <trkpt lat="51.647699" lon="12.327385"><ele>75</ele></trkpt>
   <trkpt lat="51.648419" lon="12.328371"><ele>75.75</ele></trkpt>
   <trkpt lat="51.648751" lon="12.32885"><ele>75.5</ele></trkpt>
   <trkpt lat="51.649179" lon="12.329486"><ele>75.5</ele></trkpt>
   <trkpt lat="51.649377" lon="12.329795"><ele>75</ele></trkpt>
   <trkpt lat="51.649699" lon="12.330321"><ele>74.75</ele></trkpt>
   <trkpt lat="51.649971" lon="12.330788"><ele>74.75</ele></trkpt>
   <trkpt lat="51.650378" lon="12.33155"><ele>74</ele></trkpt>
   <trkpt lat="51.650525" lon="12.331849"><ele>73.75</ele></trkpt>
   <trkpt lat="51.650759" lon="12.332339"><ele>73.75</ele></trkpt>
   <trkpt lat="51.651143" lon="12.333204"><ele>75.5</ele></trkpt>
   <trkpt lat="51.651574" lon="12.33425"><ele>76</ele></trkpt>
   <trkpt lat="51.652007" lon="12.335339"><ele>76.25</ele></trkpt>
   <trkpt lat="51.652059" lon="12.335469"><ele>76</ele></trkpt>
   <trkpt lat="51.653332" lon="12.338768"><ele>77.5</ele></trkpt>
   <trkpt lat="51.65338" lon="12.338896"><ele>77.5</ele></trkpt>
   <trkpt lat="51.653826" lon="12.340086"><ele>79</ele></trkpt>
   <trkpt lat="51.654277" lon="12.341278"><ele>78.25</ele></trkpt>
   <trkpt lat="51.654739" lon="12.342437"><ele>77.75</ele></trkpt>
   <trkpt lat="51.655031" lon="12.343135"><ele>77.5</ele></trkpt>
   <trkpt lat="51.655274" lon="12.343675"><ele>77.25</ele></trkpt>
   <trkpt lat="51.655313" lon="12.34375"><ele>77.25</ele></trkpt>
   <trkpt lat="51.655789" lon="12.344706"><ele>80</ele></trkpt>
   <trkpt lat="51.656143" lon="12.345369"><ele>82.75</ele></trkpt>
   <trkpt lat="51.656328" lon="12.345691"><ele>83.75</ele></trkpt>
   <trkpt lat="51.656656" lon="12.346236"><ele>85.75</ele></trkpt>
   <trkpt lat="51.656929" lon="12.346656"><ele>88.75</ele></trkpt>
   <trkpt lat="51.657375" lon="12.347314"><ele>91.5</ele></trkpt>
   <trkpt lat="51.657835" lon="12.347928"><ele>92.75</ele></trkpt>
   <trkpt lat="51.658299" lon="12.348499"><ele>93.75</ele></trkpt>
   <trkpt lat="51.658693" lon="12.348942"><ele>94</ele></trkpt>
   <trkpt lat="51.659238" lon="12.349509"><ele>91.25</ele></trkpt>
   <trkpt lat="51.65963" lon="12.349882"><ele>90</ele></trkpt>
   <trkpt lat="51.660125" lon="12.350331"><ele>89.75</ele></trkpt>
   <trkpt lat="51.660698" lon="12.350805"><ele>89</ele></trkpt>
   <trkpt lat="51.660925" lon="12.350983"><ele>88.25</ele></trkpt>
   <trkpt lat="51.661147" lon="12.351147"><ele>87</ele></trkpt>
   <trkpt lat="51.661605" lon="12.351465"><ele>85.75</ele></trkpt>
   <trkpt lat="51.661861" lon="12.351627"><ele>85.75</ele></trkpt>
   <trkpt lat="51.662339" lon="12.351906"><ele>86</ele></trkpt>
   <trkpt lat="51.662663" lon="12.352078"><ele>86</ele></trkpt>
   <trkpt lat="51.663184" lon="12.352328"><ele>86.75</ele></trkpt>
   <trkpt lat="51.663699" lon="12.352558"><ele>87</ele></trkpt>
   <trkpt lat="51.664951" lon="12.35307"><ele>88.25</ele></trkpt>
   <trkpt lat="51.665128" lon="12.35314"><ele>88</ele></trkpt>
   <trkpt lat="51.666276" lon="12.353671"><ele>88</ele></trkpt>
   <trkpt lat="51.666492" lon="12.353757"><ele>88</ele></trkpt>
   <trkpt lat="51.666846" lon="12.353931"><ele>88</ele></trkpt>
   <trkpt lat="51.667162" lon="12.354116"><ele>88</ele></trkpt>
   <trkpt lat="51.667256" lon="12.354172"><ele>87.75</ele></trkpt>
   <trkpt lat="51.668033" lon="12.354636"><ele>88.25</ele></trkpt>
   <trkpt lat="51.668276" lon="12.354772"><ele>88.25</ele></trkpt>
   <trkpt lat="51.668689" lon="12.354952"><ele>88.25</ele></trkpt>
   <trkpt lat="51.669871" lon="12.355434"><ele>88</ele></trkpt>
   <trkpt lat="51.670274" lon="12.355637"><ele>88</ele></trkpt>
   <trkpt lat="51.670516" lon="12.355776"><ele>88</ele></trkpt>
   <trkpt lat="51.670816" lon="12.355966"><ele>88</ele></trkpt>
   <trkpt lat="51.671344" lon="12.356338"><ele>89</ele></trkpt>
   <trkpt lat="51.671602" lon="12.356539"><ele>89</ele></trkpt>
   <trkpt lat="51.671866" lon="12.356758"><ele>89</ele></trkpt>
   <trkpt lat="51.673046" lon="12.357814"><ele>89.75</ele></trkpt>
   <trkpt lat="51.6734" lon="12.358162"><ele>89</ele></trkpt>
   <trkpt lat="51.673606" lon="12.358377"><ele>89</ele></trkpt>
   <trkpt lat="51.673813" lon="12.358611"><ele>89</ele></trkpt>
   <trkpt lat="51.67425" lon="12.359112"><ele>89</ele></trkpt>
   <trkpt lat="51.674485" lon="12.35937"><ele>88.75</ele></trkpt>
   <trkpt lat="51.674897" lon="12.359834"><ele>88.75</ele></trkpt>
   <trkpt lat="51.675134" lon="12.36011"><ele>89</ele></trkpt>
   <trkpt lat="51.67546" lon="12.360529"><ele>89.25</ele></trkpt>
   <trkpt lat="51.675603" lon="12.360744"><ele>89.5</ele></trkpt>
   <trkpt lat="51.676242" lon="12.361679"><ele>90.5</ele></trkpt>
   <trkpt lat="51.676449" lon="12.36201"><ele>91</ele></trkpt>
   <trkpt lat="51.676984" lon="12.362979"><ele>92</ele></trkpt>
   <trkpt lat="51.677164" lon="12.363323"><ele>92</ele></trkpt>
   <trkpt lat="51.677617" lon="12.364266"><ele>92</ele></trkpt>
   <trkpt lat="51.677983" lon="12.365134"><ele>92.75</ele></trkpt>
   <trkpt lat="51.678263" lon="12.365838"><ele>92.25</ele></trkpt>
   <trkpt lat="51.678526" lon="12.366567"><ele>92.25</ele></trkpt>
   <trkpt lat="51.678952" lon="12.367904"><ele>93.25</ele></trkpt>
   <trkpt lat="51.679272" lon="12.369073"><ele>94.25</ele></trkpt>
   <trkpt lat="51.679531" lon="12.370149"><ele>94.5</ele></trkpt>
   <trkpt lat="51.679798" lon="12.371537"><ele>94</ele></trkpt>
   <trkpt lat="51.680029" lon="12.372989"><ele>93.5</ele></trkpt>
   <trkpt lat="51.680098" lon="12.373516"><ele>93.5</ele></trkpt>
   <trkpt lat="51.680214" lon="12.374552"><ele>93.75</ele></trkpt>
   <trkpt lat="51.680297" lon="12.37561"><ele>93.25</ele></trkpt>
   <trkpt lat="51.680354" lon="12.376632"><ele>92</ele></trkpt>
   <trkpt lat="51.680373" lon="12.377142"><ele>92</ele></trkpt>
   <trkpt lat="51.680406" lon="12.378225"><ele>92.25</ele></trkpt>
   <trkpt lat="51.680427" lon="12.379304"><ele>93.5</ele></trkpt>
   <trkpt lat="51.680447" lon="12.380947"><ele>94.5</ele></trkpt>
   <trkpt lat="51.680471" lon="12.382537"><ele>95.25</ele></trkpt>
   <trkpt lat="51.6805" lon="12.383623"><ele>95.25</ele></trkpt>
   <trkpt lat="51.680534" lon="12.38455"><ele>94.5</ele></trkpt>
   <trkpt lat="51.68062" lon="12.385776"><ele>93.75</ele></trkpt>
   <trkpt lat="51.68072" lon="12.386852"><ele>92.5</ele></trkpt>
   <trkpt lat="51.680876" lon="12.388169"><ele>91</ele></trkpt>
   <trkpt lat="51.680989" lon="12.388948"><ele>91</ele></trkpt>
   <trkpt lat="51.681159" lon="12.389974"><ele>91</ele></trkpt>
   <trkpt lat="51.681347" lon="12.390952"><ele>90.75</ele></trkpt>
   <trkpt lat="51.681446" lon="12.391435"><ele>90.25</ele></trkpt>
   <trkpt lat="51.681646" lon="12.392344"><ele>90</ele></trkpt>
   <trkpt lat="51.681908" lon="12.39338"><ele>89.25</ele></trkpt>
   <trkpt lat="51.682078" lon="12.393998"><ele>89.75</ele></trkpt>
   <trkpt lat="51.68222" lon="12.394488"><ele>89.75</ele></trkpt>
   <trkpt lat="51.682537" lon="12.395501"><ele>88.75</ele></trkpt>
   <trkpt lat="51.682838" lon="12.396386"><ele>88.25</ele></trkpt>
   <trkpt lat="51.683002" lon="12.396843"><ele>87.75</ele></trkpt>
   <trkpt lat="51.683195" lon="12.397349"><ele>88</ele></trkpt>
   <trkpt lat="51.683693" lon="12.398594"><ele>87.75</ele></trkpt>
   <trkpt lat="51.683727" lon="12.398672"><ele>87.75</ele></trkpt>
   <trkpt lat="51.684013" lon="12.399271"><ele>87.25</ele></trkpt>
   <trkpt lat="51.684091" lon="12.399437"><ele>87.25</ele></trkpt>
   <trkpt lat="51.684545" lon="12.400373"><ele>87.5</ele></trkpt>
   <trkpt lat="51.684893" lon="12.401038"><ele>87.25</ele></trkpt>
   <trkpt lat="51.685319" lon="12.401803"><ele>88.75</ele></trkpt>
   <trkpt lat="51.685603" lon="12.402283"><ele>90</ele></trkpt>
   <trkpt lat="51.685651" lon="12.402363"><ele>90.25</ele></trkpt>
   <trkpt lat="51.686071" lon="12.40305"><ele>91.75</ele></trkpt>
   <trkpt lat="51.686217" lon="12.403256"><ele>91.75</ele></trkpt>
   <trkpt lat="51.686259" lon="12.40332"><ele>91.75</ele></trkpt>
   <trkpt lat="51.686491" lon="12.403682"><ele>91.25</ele></trkpt>
   <trkpt lat="51.687334" lon="12.404921"><ele>88.75</ele></trkpt>
   <trkpt lat="51.687986" lon="12.405874"><ele>91.75</ele></trkpt>
   <trkpt lat="51.688266" lon="12.406294"><ele>92.25</ele></trkpt>
   <trkpt lat="51.688383" lon="12.406462"><ele>92.25</ele></trkpt>
   <trkpt lat="51.68892" lon="12.407252"><ele>91.5</ele></trkpt>
   <trkpt lat="51.690325" lon="12.409315"><ele>92</ele></trkpt>
   <trkpt lat="51.693361" lon="12.413783"><ele>94</ele></trkpt>
   <trkpt lat="51.695276" lon="12.416617"><ele>93.75</ele></trkpt>
   <trkpt lat="51.69633" lon="12.418259"><ele>94.5</ele></trkpt>
   <trkpt lat="51.697944" lon="12.42063"><ele>94.5</ele></trkpt>
   <trkpt lat="51.698212" lon="12.421025"><ele>94.5</ele></trkpt>
   <trkpt lat="51.699259" lon="12.422556"><ele>94</ele></trkpt>
   <trkpt lat="51.699387" lon="12.422742"><ele>94.25</ele></trkpt>
   <trkpt lat="51.699476" lon="12.422875"><ele>94.25</ele></trkpt>
   <trkpt lat="51.702774" lon="12.427734"><ele>91</ele></trkpt>
   <trkpt lat="51.704828" lon="12.430778"><ele>93</ele></trkpt>
   <trkpt lat="51.705458" lon="12.431694"><ele>92.75</ele></trkpt>
   <trkpt lat="51.705719" lon="12.432079"><ele>92</ele></trkpt>
   <trkpt lat="51.709912" lon="12.43825"><ele>88.75</ele></trkpt>
   <trkpt lat="51.712192" lon="12.441615"><ele>91.75</ele></trkpt>
   <trkpt lat="51.718835" lon="12.451393"><ele>96.5</ele></trkpt>
   <trkpt lat="51.720582" lon="12.453988"><ele>94.5</ele></trkpt>
   <trkpt lat="51.720701" lon="12.454164"><ele>94.25</ele></trkpt>
   <trkpt lat="51.721286" lon="12.455112"><ele>93.5</ele></trkpt>
   <trkpt lat="51.721714" lon="12.455778"><ele>93</ele></trkpt>
   <trkpt lat="51.724768" lon="12.460299"><ele>93.5</ele></trkpt>
   <trkpt lat="51.725806" lon="12.461827"><ele>92.75</ele></trkpt>
   <trkpt lat="51.726345" lon="12.462575"><ele>91.25</ele></trkpt>
   <trkpt lat="51.726624" lon="12.462927"><ele>90.5</ele></trkpt>
   <trkpt lat="51.726873" lon="12.463268"><ele>90.75</ele></trkpt>
   <trkpt lat="51.727004" lon="12.463457"><ele>91</ele></trkpt>
   <trkpt lat="51.727642" lon="12.4643"><ele>91.5</ele></trkpt>
   <trkpt lat="51.729551" lon="12.467114"><ele>89.25</ele></trkpt>
   <trkpt lat="51.729633" lon="12.467236"><ele>89.5</ele></trkpt>
   <trkpt lat="51.729818" lon="12.467507"><ele>89.75</ele></trkpt>
   <trkpt lat="51.730059" lon="12.46787"><ele>89.75</ele></trkpt>
   <trkpt lat="51.730129" lon="12.467971"><ele>89.75</ele></trkpt>
   <trkpt lat="51.734205" lon="12.473963"><ele>91</ele></trkpt>
   <trkpt lat="51.736244" lon="12.476963"><ele>92.25</ele></trkpt>
   <trkpt lat="51.736699" lon="12.477632"><ele>92.75</ele></trkpt>
   <trkpt lat="51.736798" lon="12.477777"><ele>92.75</ele></trkpt>
   <trkpt lat="51.745392" lon="12.490401"><ele>93.5</ele></trkpt>
   <trkpt lat="51.74825" lon="12.494596"><ele>92</ele></trkpt>
   <trkpt lat="51.749545" lon="12.496501"><ele>91.75</ele></trkpt>
   <trkpt lat="51.751481" lon="12.499333"><ele>91</ele></trkpt>
   <trkpt lat="51.752409" lon="12.500703"><ele>94.5</ele></trkpt>
   <trkpt lat="51.752485" lon="12.500815"><ele>94.75</ele></trkpt>
   <trkpt lat="51.755633" lon="12.505454"><ele>95</ele></trkpt>
   <trkpt lat="51.756177" lon="12.506261"><ele>94.25</ele></trkpt>
   <trkpt lat="51.756841" lon="12.507323"><ele>94.25</ele></trkpt>
   <trkpt lat="51.758805" lon="12.510207"><ele>93.25</ele></trkpt>
   <trkpt lat="51.764095" lon="12.517991"><ele>86.5</ele></trkpt>
   <trkpt lat="51.765422" lon="12.519942"><ele>86.75</ele></trkpt>
   <trkpt lat="51.768231" lon="12.524075"><ele>96.5</ele></trkpt>
   <trkpt lat="51.773558" lon="12.531907"><ele>95</ele></trkpt>
   <trkpt lat="51.779197" lon="12.540194"><ele>89.25</ele></trkpt>
   <trkpt lat="51.782589" lon="12.545219"><ele>84.5</ele></trkpt>
   <trkpt lat="51.784595" lon="12.54819"><ele>77.5</ele></trkpt>
   <trkpt lat="51.784662" lon="12.548289"><ele>77.25</ele></trkpt>
   <trkpt lat="51.786301" lon="12.550712"><ele>77.5</ele></trkpt>
   <trkpt lat="51.791369" lon="12.558167"><ele>75.25</ele></trkpt>
   <trkpt lat="51.793336" lon="12.561082"><ele>76.5</ele></trkpt>
   <trkpt lat="51.794054" lon="12.562071"><ele>77.5</ele></trkpt>
   <trkpt lat="51.794365" lon="12.5625"><ele>78.75</ele></trkpt>
   <trkpt lat="51.794567" lon="12.562798"><ele>78.5</ele></trkpt>
   <trkpt lat="51.794752" lon="12.563056"><ele>77</ele></trkpt>
   <trkpt lat="51.800233" lon="12.571147"><ele>64.25</ele></trkpt>
   <trkpt lat="51.801598" lon="12.573172"><ele>65.75</ele></trkpt>
   <trkpt lat="51.803651" lon="12.576256"><ele>66.5</ele></trkpt>
   <trkpt lat="51.806685" lon="12.580806"><ele>65.75</ele></trkpt>
   <trkpt lat="51.806753" lon="12.580908"><ele>65.75</ele></trkpt>
   <trkpt lat="51.807617" lon="12.582171"><ele>65</ele></trkpt>
   <trkpt lat="51.812006" lon="12.58853"><ele>64</ele></trkpt>
   <trkpt lat="51.814638" lon="12.592396"><ele>65</ele></trkpt>
   <trkpt lat="51.815906" lon="12.594276"><ele>63.75</ele></trkpt>
   <trkpt lat="51.815986" lon="12.594391"><ele>63.75</ele></trkpt>
   <trkpt lat="51.816066" lon="12.594506"><ele>63.75</ele></trkpt>
   <trkpt lat="51.819829" lon="12.600067"><ele>65</ele></trkpt>
   <trkpt lat="51.820895" lon="12.601628"><ele>65</ele></trkpt>
   <trkpt lat="51.821011" lon="12.601799"><ele>65.75</ele></trkpt>
   <trkpt lat="51.824397" lon="12.606817"><ele>73.25</ele></trkpt>
   <trkpt lat="51.830372" lon="12.615649"><ele>63.75</ele></trkpt>
   <trkpt lat="51.830404" lon="12.615697"><ele>63.75</ele></trkpt>
   <trkpt lat="51.831116" lon="12.616749"><ele>64.5</ele></trkpt>
   <trkpt lat="51.833111" lon="12.619688"><ele>64</ele></trkpt>
   <trkpt lat="51.83399" lon="12.621076"><ele>63</ele></trkpt>
   <trkpt lat="51.834186" lon="12.621368"><ele>63</ele></trkpt>
   <trkpt lat="51.837663" lon="12.626499"><ele>64.75</ele></trkpt>
   <trkpt lat="51.837812" lon="12.62672"><ele>65</ele></trkpt>
   <trkpt lat="51.838144" lon="12.627213"><ele>65</ele></trkpt>
   <trkpt lat="51.838411" lon="12.627609"><ele>65</ele></trkpt>
   <trkpt lat="51.839345" lon="12.62899"><ele>65.75</ele></trkpt>
   <trkpt lat="51.840152" lon="12.630232"><ele>66</ele></trkpt>
   <trkpt lat="51.840387" lon="12.630637"><ele>65.75</ele></trkpt>
   <trkpt lat="51.840663" lon="12.631199"><ele>65.75</ele></trkpt>
   <trkpt lat="51.840886" lon="12.6316"><ele>65.75</ele></trkpt>
   <trkpt lat="51.841326" lon="12.632328"><ele>65.25</ele></trkpt>
   <trkpt lat="51.841876" lon="12.633321"><ele>65.75</ele></trkpt>
   <trkpt lat="51.84241" lon="12.634343"><ele>65.75</ele></trkpt>
   <trkpt lat="51.842803" lon="12.635121"><ele>65.75</ele></trkpt>
   <trkpt lat="51.843481" lon="12.636493"><ele>66.25</ele></trkpt>
   <trkpt lat="51.843755" lon="12.636989"><ele>66</ele></trkpt>
   <trkpt lat="51.843929" lon="12.637329"><ele>66</ele></trkpt>
   <trkpt lat="51.844159" lon="12.637794"><ele>66.25</ele></trkpt>
   <trkpt lat="51.844281" lon="12.638045"><ele>66.5</ele></trkpt>
   <trkpt lat="51.84465" lon="12.638857"><ele>66.75</ele></trkpt>
   <trkpt lat="51.844884" lon="12.639349"><ele>67</ele></trkpt>
   <trkpt lat="51.845971" lon="12.641625"><ele>68.25</ele></trkpt>
   <trkpt lat="51.846554" lon="12.642844"><ele>67.25</ele></trkpt>
   <trkpt lat="51.84694" lon="12.643695"><ele>67.5</ele></trkpt>
   <trkpt lat="51.847255" lon="12.644353"><ele>67.75</ele></trkpt>
   <trkpt lat="51.847603" lon="12.645058"><ele>68.5</ele></trkpt>
   <trkpt lat="51.847811" lon="12.64545"><ele>67.75</ele></trkpt>
   <trkpt lat="51.848005" lon="12.645803"><ele>67.25</ele></trkpt>
   <trkpt lat="51.848215" lon="12.64615"><ele>67</ele></trkpt>
   <trkpt lat="51.848493" lon="12.646581"><ele>66.75</ele></trkpt>
   <trkpt lat="51.848783" lon="12.647014"><ele>66.75</ele></trkpt>
   <trkpt lat="51.849049" lon="12.647382"><ele>66.75</ele></trkpt>
   <trkpt lat="51.849318" lon="12.647737"><ele>66.75</ele></trkpt>
   <trkpt lat="51.849598" lon="12.648074"><ele>66.75</ele></trkpt>
   <trkpt lat="51.849932" lon="12.648441"><ele>66.5</ele></trkpt>
   <trkpt lat="51.849982" lon="12.648492"><ele>66.75</ele></trkpt>
   <trkpt lat="51.850329" lon="12.64884"><ele>66.5</ele></trkpt>
   <trkpt lat="51.850588" lon="12.649076"><ele>66.5</ele></trkpt>
   <trkpt lat="51.851113" lon="12.649503"><ele>67.5</ele></trkpt>
   <trkpt lat="51.85138" lon="12.649698"><ele>68.25</ele></trkpt>
   <trkpt lat="51.851653" lon="12.649878"><ele>69.5</ele></trkpt>
   <trkpt lat="51.851923" lon="12.65004"><ele>69.5</ele></trkpt>
   <trkpt lat="51.852205" lon="12.650196"><ele>69</ele></trkpt>
   <trkpt lat="51.852728" lon="12.65045"><ele>68.25</ele></trkpt>
   <trkpt lat="51.853341" lon="12.650697"><ele>68</ele></trkpt>
   <trkpt lat="51.854525" lon="12.651119"><ele>69.25</ele></trkpt>
   <trkpt lat="51.85606" lon="12.651633"><ele>69.25</ele></trkpt>
   <trkpt lat="51.858614" lon="12.652547"><ele>69.25</ele></trkpt>
   <trkpt lat="51.858957" lon="12.652692"><ele>69.25</ele></trkpt>
   <trkpt lat="51.859393" lon="12.652898"><ele>69.25</ele></trkpt>
   <trkpt lat="51.85961" lon="12.65301"><ele>69.25</ele></trkpt>
   <trkpt lat="51.859931" lon="12.653193"><ele>69.25</ele></trkpt>
   <trkpt lat="51.86025" lon="12.65339"><ele>69.25</ele></trkpt>
   <trkpt lat="51.860427" lon="12.653501"><ele>69.25</ele></trkpt>
   <trkpt lat="51.860724" lon="12.653712"><ele>69.75</ele></trkpt>
   <trkpt lat="51.86098" lon="12.653908"><ele>69.5</ele></trkpt>
   <trkpt lat="51.861433" lon="12.654315"><ele>69.5</ele></trkpt>
   <trkpt lat="51.861707" lon="12.654581"><ele>69.75</ele></trkpt>
   <trkpt lat="51.862159" lon="12.655066"><ele>70.25</ele></trkpt>
   <trkpt lat="51.862467" lon="12.655421"><ele>70.75</ele></trkpt>
   <trkpt lat="51.863513" lon="12.656762"><ele>70.75</ele></trkpt>
   <trkpt lat="51.863776" lon="12.657106"><ele>70.25</ele></trkpt>
   <trkpt lat="51.864641" lon="12.658251"><ele>70</ele></trkpt>
   <trkpt lat="51.865192" lon="12.658978"><ele>69.75</ele></trkpt>
   <trkpt lat="51.865859" lon="12.659798"><ele>70.75</ele></trkpt>
   <trkpt lat="51.866161" lon="12.66016"><ele>71</ele></trkpt>
   <trkpt lat="51.866215" lon="12.660224"><ele>71</ele></trkpt>
   <trkpt lat="51.866562" lon="12.660628"><ele>71</ele></trkpt>
   <trkpt lat="51.86684" lon="12.660937"><ele>71</ele></trkpt>
   <trkpt lat="51.867206" lon="12.661319"><ele>71.25</ele></trkpt>
   <trkpt lat="51.86762" lon="12.661752"><ele>71</ele></trkpt>
   <trkpt lat="51.867881" lon="12.66202"><ele>71</ele></trkpt>
   <trkpt lat="51.869519" lon="12.663744"><ele>70.75</ele></trkpt>
   <trkpt lat="51.86968" lon="12.663905"><ele>70.75</ele></trkpt>
   <trkpt lat="51.869876" lon="12.664102"><ele>70.75</ele></trkpt>
   <trkpt lat="51.870502" lon="12.664732"><ele>70.75</ele></trkpt>
   <trkpt lat="51.871026" lon="12.665278"><ele>70.25</ele></trkpt>
   <trkpt lat="51.871465" lon="12.665735"><ele>71.5</ele></trkpt>
   <trkpt lat="51.871578" lon="12.665852"><ele>71.75</ele></trkpt>
   <trkpt lat="51.871886" lon="12.666205"><ele>71.5</ele></trkpt>
   <trkpt lat="51.87221" lon="12.666618"><ele>71</ele></trkpt>
   <trkpt lat="51.872287" lon="12.666717"><ele>71</ele></trkpt>
   <trkpt lat="51.873035" lon="12.667666"><ele>71.5</ele></trkpt>
   <trkpt lat="51.873378" lon="12.66807"><ele>71.25</ele></trkpt>
   <trkpt lat="51.8736" lon="12.66835"><ele>71.25</ele></trkpt>
   <trkpt lat="51.873875" lon="12.668738"><ele>71.5</ele></trkpt>
   <trkpt lat="51.874179" lon="12.669206"><ele>72</ele></trkpt>
   <trkpt lat="51.874273" lon="12.669371"><ele>72</ele></trkpt>
   <trkpt lat="51.874399" lon="12.669599"><ele>72.25</ele></trkpt>
   <trkpt lat="51.874583" lon="12.669936"><ele>72</ele></trkpt>
   <trkpt lat="51.87497" lon="12.670663"><ele>72</ele></trkpt>
   <trkpt lat="51.875163" lon="12.67107"><ele>72.5</ele></trkpt>
   <trkpt lat="51.87534" lon="12.671514"><ele>72.75</ele></trkpt>
   <trkpt lat="51.875348" lon="12.671535"><ele>72.75</ele></trkpt>
   <trkpt lat="51.875498" lon="12.671936"><ele>73</ele></trkpt>
   <trkpt lat="51.875643" lon="12.672385"><ele>73.5</ele></trkpt>
   <trkpt lat="51.875867" lon="12.673085"><ele>73.25</ele></trkpt>
   <trkpt lat="51.876209" lon="12.674195"><ele>75.25</ele></trkpt>
   <trkpt lat="51.876324" lon="12.674615"><ele>76</ele></trkpt>
   <trkpt lat="51.876401" lon="12.674928"><ele>76.5</ele></trkpt>
   <trkpt lat="51.876446" lon="12.675107"><ele>76.75</ele></trkpt>
   <trkpt lat="51.876571" lon="12.675764"><ele>76.75</ele></trkpt>
   <trkpt lat="51.87663" lon="12.67611"><ele>76.5</ele></trkpt>
   <trkpt lat="51.876812" lon="12.677328"><ele>76.75</ele></trkpt>
   <trkpt lat="51.876855" lon="12.677683"><ele>77</ele></trkpt>
   <trkpt lat="51.876879" lon="12.677909"><ele>77.5</ele></trkpt>
   <trkpt lat="51.876897" lon="12.678095"><ele>77.5</ele></trkpt>
   <trkpt lat="51.876951" lon="12.678616"><ele>77.75</ele></trkpt>
   <trkpt lat="51.876982" lon="12.679035"><ele>77.75</ele></trkpt>
   <trkpt lat="51.877065" lon="12.680448"><ele>76.75</ele></trkpt>
   <trkpt lat="51.877085" lon="12.680818"><ele>77</ele></trkpt>
   <trkpt lat="51.877234" lon="12.68285"><ele>77.75</ele></trkpt>
   <trkpt lat="51.877299" lon="12.684061"><ele>77.5</ele></trkpt>
   <trkpt lat="51.877414" lon="12.685734"><ele>78.75</ele></trkpt>
   <trkpt lat="51.877547" lon="12.687251"><ele>80</ele></trkpt>
   <trkpt lat="51.877674" lon="12.688504"><ele>81</ele></trkpt>
   <trkpt lat="51.877695" lon="12.688712"><ele>80.75</ele></trkpt>
   <trkpt lat="51.877845" lon="12.690223"><ele>79.75</ele></trkpt>
   <trkpt lat="51.877983" lon="12.691864"><ele>79</ele></trkpt>
   <trkpt lat="51.878255" lon="12.695457"><ele>78.75</ele></trkpt>
   <trkpt lat="51.878954" lon="12.704843"><ele>79.25</ele></trkpt>
   <trkpt lat="51.879409" lon="12.710963"><ele>81.75</ele></trkpt>
   <trkpt lat="51.87956" lon="12.713077"><ele>81.5</ele></trkpt>
   <trkpt lat="51.879692" lon="12.714625"><ele>79.5</ele></trkpt>
   <trkpt lat="51.879715" lon="12.714862"><ele>79.25</ele></trkpt>
   <trkpt lat="51.879737" lon="12.715092"><ele>79</ele></trkpt>
   <trkpt lat="51.879953" lon="12.717125"><ele>81.5</ele></trkpt>
   <trkpt lat="51.880071" lon="12.718067"><ele>83</ele></trkpt>
   <trkpt lat="51.880204" lon="12.719053"><ele>84</ele></trkpt>
   <trkpt lat="51.880423" lon="12.720486"><ele>84.75</ele></trkpt>
   <trkpt lat="51.880637" lon="12.721751"><ele>85.25</ele></trkpt>
   <trkpt lat="51.880787" lon="12.722588"><ele>86.5</ele></trkpt>
   <trkpt lat="51.880958" lon="12.723503"><ele>86.5</ele></trkpt>
   <trkpt lat="51.881318" lon="12.725286"><ele>88.75</ele></trkpt>
   <trkpt lat="51.881511" lon="12.72615"><ele>90.5</ele></trkpt>
   <trkpt lat="51.881684" lon="12.72688"><ele>91</ele></trkpt>
   <trkpt lat="51.881934" lon="12.727904"><ele>91.5</ele></trkpt>
   <trkpt lat="51.882162" lon="12.72879"><ele>91.75</ele></trkpt>
   <trkpt lat="51.8824" lon="12.729646"><ele>90.75</ele></trkpt>
   <trkpt lat="51.882737" lon="12.730819"><ele>91.25</ele></trkpt>
   <trkpt lat="51.882943" lon="12.731483"><ele>92.25</ele></trkpt>
   <trkpt lat="51.883259" lon="12.732482"><ele>93.5</ele></trkpt>
   <trkpt lat="51.883403" lon="12.732912"><ele>93</ele></trkpt>
   <trkpt lat="51.883811" lon="12.734071"><ele>90.75</ele></trkpt>
   <trkpt lat="51.884137" lon="12.734952"><ele>89</ele></trkpt>
   <trkpt lat="51.884271" lon="12.735295"><ele>89.5</ele></trkpt>
   <trkpt lat="51.884581" lon="12.736078"><ele>91.25</ele></trkpt>
   <trkpt lat="51.884916" lon="12.736873"><ele>93</ele></trkpt>
   <trkpt lat="51.88531" lon="12.73778"><ele>96.75</ele></trkpt>
   <trkpt lat="51.885576" lon="12.738394"><ele>97.75</ele></trkpt>
   <trkpt lat="51.886299" lon="12.739934"><ele>101</ele></trkpt>
   <trkpt lat="51.886667" lon="12.740677"><ele>101</ele></trkpt>
   <trkpt lat="51.887147" lon="12.741605"><ele>101</ele></trkpt>
   <trkpt lat="51.887459" lon="12.7422"><ele>101</ele></trkpt>
   <trkpt lat="51.887889" lon="12.742987"><ele>99.5</ele></trkpt>
   <trkpt lat="51.88832" lon="12.74374"><ele>97</ele></trkpt>
   <trkpt lat="51.888583" lon="12.744185"><ele>97.5</ele></trkpt>
   <trkpt lat="51.888882" lon="12.744693"><ele>98.25</ele></trkpt>
   <trkpt lat="51.889524" lon="12.745718"><ele>99</ele></trkpt>
   <trkpt lat="51.890438" lon="12.747094"><ele>95.5</ele></trkpt>
   <trkpt lat="51.890891" lon="12.747745"><ele>93.5</ele></trkpt>
   <trkpt lat="51.891135" lon="12.748084"><ele>92.25</ele></trkpt>
   <trkpt lat="51.891381" lon="12.748428"><ele>91.5</ele></trkpt>
   <trkpt lat="51.891763" lon="12.748943"><ele>91</ele></trkpt>
   <trkpt lat="51.892195" lon="12.749484"><ele>91.5</ele></trkpt>
   <trkpt lat="51.892656" lon="12.750048"><ele>93.25</ele></trkpt>
   <trkpt lat="51.893574" lon="12.75111"><ele>95</ele></trkpt>
   <trkpt lat="51.894281" lon="12.751893"><ele>96</ele></trkpt>
   <trkpt lat="51.89493" lon="12.75261"><ele>96.75</ele></trkpt>
   <trkpt lat="51.895051" lon="12.752754"><ele>96.75</ele></trkpt>
   <trkpt lat="51.895117" lon="12.752833"><ele>96.75</ele></trkpt>
   <trkpt lat="51.901112" lon="12.759515"><ele>107</ele></trkpt>
   <trkpt lat="51.901193" lon="12.759605"><ele>107.25</ele></trkpt>
   <trkpt lat="51.901285" lon="12.75971"><ele>107.25</ele></trkpt>
   <trkpt lat="51.901432" lon="12.759877"><ele>106.75</ele></trkpt>
   <trkpt lat="51.902227" lon="12.760784"><ele>108</ele></trkpt>
   <trkpt lat="51.903543" lon="12.762263"><ele>107.25</ele></trkpt>
   <trkpt lat="51.904834" lon="12.763706"><ele>110</ele></trkpt>
   <trkpt lat="51.905383" lon="12.764305"><ele>107</ele></trkpt>
   <trkpt lat="51.905919" lon="12.764888"><ele>100.25</ele></trkpt>
   <trkpt lat="51.909307" lon="12.768686"><ele>100.5</ele></trkpt>
   <trkpt lat="51.910755" lon="12.770292"><ele>96.5</ele></trkpt>
   <trkpt lat="51.911237" lon="12.770827"><ele>97.25</ele></trkpt>
   <trkpt lat="51.912947" lon="12.77277"><ele>100</ele></trkpt>
   <trkpt lat="51.914054" lon="12.774018"><ele>100.75</ele></trkpt>
   <trkpt lat="51.915619" lon="12.775775"><ele>99.75</ele></trkpt>
   <trkpt lat="51.916537" lon="12.776806"><ele>97</ele></trkpt>
   <trkpt lat="51.916629" lon="12.776906"><ele>97</ele></trkpt>
   <trkpt lat="51.917723" lon="12.778158"><ele>100.25</ele></trkpt>
   <trkpt lat="51.918035" lon="12.778526"><ele>100.25</ele></trkpt>
   <trkpt lat="51.918719" lon="12.779364"><ele>99</ele></trkpt>
   <trkpt lat="51.919085" lon="12.77983"><ele>97.5</ele></trkpt>
   <trkpt lat="51.919794" lon="12.780766"><ele>97.75</ele></trkpt>
   <trkpt lat="51.920108" lon="12.781196"><ele>97.5</ele></trkpt>
   <trkpt lat="51.920903" lon="12.782322"><ele>96.25</ele></trkpt>
   <trkpt lat="51.921367" lon="12.783003"><ele>95</ele></trkpt>
   <trkpt lat="51.921623" lon="12.783387"><ele>95.75</ele></trkpt>
   <trkpt lat="51.921913" lon="12.783831"><ele>94.5</ele></trkpt>
   <trkpt lat="51.922176" lon="12.784266"><ele>93.75</ele></trkpt>
   <trkpt lat="51.922407" lon="12.784669"><ele>93.5</ele></trkpt>
   <trkpt lat="51.922746" lon="12.785242"><ele>93.5</ele></trkpt>
   <trkpt lat="51.923321" lon="12.786193"><ele>93.25</ele></trkpt>
   <trkpt lat="51.923723" lon="12.786893"><ele>92.75</ele></trkpt>
   <trkpt lat="51.924077" lon="12.787536"><ele>92</ele></trkpt>
   <trkpt lat="51.924411" lon="12.788165"><ele>91.75</ele></trkpt>
   <trkpt lat="51.924828" lon="12.788984"><ele>91</ele></trkpt>
   <trkpt lat="51.925141" lon="12.789624"><ele>90.5</ele></trkpt>
   <trkpt lat="51.925468" lon="12.790317"><ele>90</ele></trkpt>
   <trkpt lat="51.925815" lon="12.791072"><ele>90.25</ele></trkpt>
   <trkpt lat="51.92613" lon="12.791785"><ele>89.5</ele></trkpt>
   <trkpt lat="51.926171" lon="12.791881"><ele>89.25</ele></trkpt>
   <trkpt lat="51.926314" lon="12.792213"><ele>89</ele></trkpt>
   <trkpt lat="51.926699" lon="12.793139"><ele>90.25</ele></trkpt>
   <trkpt lat="51.927084" lon="12.794105"><ele>89.25</ele></trkpt>
   <trkpt lat="51.927327" lon="12.794737"><ele>90</ele></trkpt>
   <trkpt lat="51.927722" lon="12.795808"><ele>90.5</ele></trkpt>
   <trkpt lat="51.92806" lon="12.796756"><ele>92</ele></trkpt>
   <trkpt lat="51.929132" lon="12.799818"><ele>92.5</ele></trkpt>
   <trkpt lat="51.929173" lon="12.799935"><ele>92.75</ele></trkpt>
   <trkpt lat="51.929724" lon="12.801508"><ele>93.5</ele></trkpt>
   <trkpt lat="51.931257" lon="12.805883"><ele>95.75</ele></trkpt>
   <trkpt lat="51.93204" lon="12.80812"><ele>94.5</ele></trkpt>
   <trkpt lat="51.932135" lon="12.808394"><ele>95</ele></trkpt>
   <trkpt lat="51.934996" lon="12.816563"><ele>101.75</ele></trkpt>
   <trkpt lat="51.935284" lon="12.817383"><ele>102.25</ele></trkpt>
   <trkpt lat="51.936441" lon="12.820687"><ele>106</ele></trkpt>
   <trkpt lat="51.936843" lon="12.821837"><ele>106.25</ele></trkpt>
   <trkpt lat="51.937521" lon="12.823775"><ele>110.5</ele></trkpt>
   <trkpt lat="51.941462" lon="12.835036"><ele>106</ele></trkpt>
   <trkpt lat="51.941534" lon="12.835243"><ele>106</ele></trkpt>
   <trkpt lat="51.941579" lon="12.835369"><ele>106</ele></trkpt>
   <trkpt lat="51.942229" lon="12.837235"><ele>105.25</ele></trkpt>
   <trkpt lat="51.94556" lon="12.846751"><ele>110</ele></trkpt>
   <trkpt lat="51.94647" lon="12.849378"><ele>107.75</ele></trkpt>
   <trkpt lat="51.946845" lon="12.850521"><ele>107</ele></trkpt>
   <trkpt lat="51.947153" lon="12.851504"><ele>106.5</ele></trkpt>
   <trkpt lat="51.947442" lon="12.852478"><ele>106</ele></trkpt>
   <trkpt lat="51.947701" lon="12.853384"><ele>105</ele></trkpt>
   <trkpt lat="51.947987" lon="12.854475"><ele>104.75</ele></trkpt>
   <trkpt lat="51.948237" lon="12.855487"><ele>104</ele></trkpt>
   <trkpt lat="51.948336" lon="12.855915"><ele>104</ele></trkpt>
   <trkpt lat="51.948472" lon="12.856506"><ele>104</ele></trkpt>
   <trkpt lat="51.948695" lon="12.857526"><ele>104.25</ele></trkpt>
   <trkpt lat="51.948909" lon="12.858572"><ele>103.5</ele></trkpt>
   <trkpt lat="51.94904" lon="12.859264"><ele>103.5</ele></trkpt>
   <trkpt lat="51.949732" lon="12.863182"><ele>101.25</ele></trkpt>
   <trkpt lat="51.950002" lon="12.864716"><ele>101.5</ele></trkpt>
   <trkpt lat="51.950203" lon="12.865852"><ele>101.75</ele></trkpt>
   <trkpt lat="51.95157" lon="12.873611"><ele>99</ele></trkpt>
   <trkpt lat="51.953278" lon="12.883285"><ele>97.75</ele></trkpt>
   <trkpt lat="51.954263" lon="12.888864"><ele>96.5</ele></trkpt>
   <trkpt lat="51.954296" lon="12.889045"><ele>96.75</ele></trkpt>
   <trkpt lat="51.9549" lon="12.892507"><ele>99</ele></trkpt>
   <trkpt lat="51.955331" lon="12.894924"><ele>99.75</ele></trkpt>
   <trkpt lat="51.955487" lon="12.895811"><ele>99.5</ele></trkpt>
   <trkpt lat="51.955675" lon="12.89688"><ele>99</ele></trkpt>
   <trkpt lat="51.956279" lon="12.900325"><ele>96.75</ele></trkpt>
   <trkpt lat="51.956331" lon="12.900625"><ele>96.5</ele></trkpt>
   <trkpt lat="51.958167" lon="12.911135"><ele>98.5</ele></trkpt>
   <trkpt lat="51.958673" lon="12.914028"><ele>98</ele></trkpt>
   <trkpt lat="51.959135" lon="12.91666"><ele>98.75</ele></trkpt>
   <trkpt lat="51.959613" lon="12.919393"><ele>99.25</ele></trkpt>
   <trkpt lat="51.962642" lon="12.93665"><ele>96.75</ele></trkpt>
   <trkpt lat="51.962972" lon="12.938542"><ele>96.25</ele></trkpt>
   <trkpt lat="51.963282" lon="12.940387"><ele>97</ele></trkpt>
   <trkpt lat="51.963371" lon="12.941005"><ele>96.75</ele></trkpt>
   <trkpt lat="51.963541" lon="12.942171"><ele>96.75</ele></trkpt>
   <trkpt lat="51.963809" lon="12.944295"><ele>94.5</ele></trkpt>
   <trkpt lat="51.965189" lon="12.955925"><ele>92</ele></trkpt>
   <trkpt lat="51.965797" lon="12.961131"><ele>92</ele></trkpt>
   <trkpt lat="51.966077" lon="12.963453"><ele>92</ele></trkpt>
   <trkpt lat="51.96663" lon="12.968127"><ele>90</ele></trkpt>
   <trkpt lat="51.967116" lon="12.97224"><ele>90</ele></trkpt>
   <trkpt lat="51.96725" lon="12.973369"><ele>90</ele></trkpt>
   <trkpt lat="51.967579" lon="12.976099"><ele>89.25</ele></trkpt>
   <trkpt lat="51.967717" lon="12.97726"><ele>89.5</ele></trkpt>
   <trkpt lat="51.967723" lon="12.977315"><ele>89.5</ele></trkpt>
   <trkpt lat="51.967743" lon="12.977478"><ele>89.5</ele></trkpt>
   <trkpt lat="51.967879" lon="12.978632"><ele>88.75</ele></trkpt>
   <trkpt lat="51.96802" lon="12.979822"><ele>88.25</ele></trkpt>
   <trkpt lat="51.968283" lon="12.98205"><ele>89</ele></trkpt>
   <trkpt lat="51.968308" lon="12.982265"><ele>89</ele></trkpt>
   <trkpt lat="51.968555" lon="12.984409"><ele>88.25</ele></trkpt>
   <trkpt lat="51.968896" lon="12.987269"><ele>88.25</ele></trkpt>
   <trkpt lat="51.970219" lon="12.998412"><ele>80.5</ele></trkpt>
   <trkpt lat="51.97025" lon="12.998668"><ele>80.5</ele></trkpt>
   <trkpt lat="51.970272" lon="12.998853"><ele>80.5</ele></trkpt>
   <trkpt lat="51.970587" lon="13.001528"><ele>80.5</ele></trkpt>
   <trkpt lat="51.970696" lon="13.00244"><ele>81.5</ele></trkpt>
   <trkpt lat="51.97092" lon="13.004234"><ele>84</ele></trkpt>
   <trkpt lat="51.971044" lon="13.005137"><ele>85.5</ele></trkpt>
   <trkpt lat="51.971066" lon="13.005279"><ele>85.75</ele></trkpt>
   <trkpt lat="51.971253" lon="13.006478"><ele>87.25</ele></trkpt>
   <trkpt lat="51.97149" lon="13.007799"><ele>87.25</ele></trkpt>
   <trkpt lat="51.971741" lon="13.00906"><ele>87</ele></trkpt>
   <trkpt lat="51.97184" lon="13.009525"><ele>87.25</ele></trkpt>
   <trkpt lat="51.972067" lon="13.010528"><ele>87.25</ele></trkpt>
   <trkpt lat="51.972412" lon="13.011935"><ele>87.75</ele></trkpt>
   <trkpt lat="51.972755" lon="13.01321"><ele>89</ele></trkpt>
   <trkpt lat="51.973044" lon="13.014204"><ele>89.75</ele></trkpt>
   <trkpt lat="51.973346" lon="13.015173"><ele>90</ele></trkpt>
   <trkpt lat="51.973664" lon="13.016132"><ele>89.5</ele></trkpt>
   <trkpt lat="51.973996" lon="13.017084"><ele>88.75</ele></trkpt>
   <trkpt lat="51.974347" lon="13.018025"><ele>88.75</ele></trkpt>
   <trkpt lat="51.974702" lon="13.018922"><ele>88.25</ele></trkpt>
   <trkpt lat="51.975214" lon="13.020148"><ele>87.25</ele></trkpt>
   <trkpt lat="51.975603" lon="13.021029"><ele>87.5</ele></trkpt>
   <trkpt lat="51.975799" lon="13.021452"><ele>87.75</ele></trkpt>
   <trkpt lat="51.976171" lon="13.022232"><ele>87</ele></trkpt>
   <trkpt lat="51.976537" lon="13.022965"><ele>86.25</ele></trkpt>
   <trkpt lat="51.97691" lon="13.023685"><ele>86.25</ele></trkpt>
   <trkpt lat="51.977101" lon="13.024038"><ele>86.5</ele></trkpt>
   <trkpt lat="51.97769" lon="13.025085"><ele>87.75</ele></trkpt>
   <trkpt lat="51.978094" lon="13.025764"><ele>87</ele></trkpt>
   <trkpt lat="51.978302" lon="13.026099"><ele>86.5</ele></trkpt>
   <trkpt lat="51.978755" lon="13.026806"><ele>86</ele></trkpt>
   <trkpt lat="51.978966" lon="13.027121"><ele>86</ele></trkpt>
   <trkpt lat="51.98135" lon="13.030613"><ele>86.5</ele></trkpt>
   <trkpt lat="51.982782" lon="13.03271"><ele>86.75</ele></trkpt>
   <trkpt lat="51.984141" lon="13.034697"><ele>85.75</ele></trkpt>
   <trkpt lat="51.987141" lon="13.039085"><ele>85</ele></trkpt>
   <trkpt lat="51.988556" lon="13.041147"><ele>81.75</ele></trkpt>
   <trkpt lat="51.988969" lon="13.041748"><ele>83.5</ele></trkpt>
   <trkpt lat="51.989825" lon="13.042996"><ele>84.25</ele></trkpt>
   <trkpt lat="51.99013" lon="13.043445"><ele>84.5</ele></trkpt>
   <trkpt lat="51.990198" lon="13.043544"><ele>84.75</ele></trkpt>
   <trkpt lat="51.990581" lon="13.044104"><ele>85.5</ele></trkpt>
   <trkpt lat="51.99095" lon="13.044643"><ele>85.5</ele></trkpt>
   <trkpt lat="51.991524" lon="13.045482"><ele>83.5</ele></trkpt>
   <trkpt lat="51.993465" lon="13.048325"><ele>81.25</ele></trkpt>
   <trkpt lat="51.993536" lon="13.048427"><ele>81</ele></trkpt>
   <trkpt lat="51.993588" lon="13.048503"><ele>81</ele></trkpt>
   <trkpt lat="51.994344" lon="13.049601"><ele>81.25</ele></trkpt>
   <trkpt lat="51.994602" lon="13.049975"><ele>81.5</ele></trkpt>
   <trkpt lat="51.99475" lon="13.050187"><ele>81.75</ele></trkpt>
   <trkpt lat="51.995919" lon="13.051884"><ele>82.75</ele></trkpt>
   <trkpt lat="51.996102" lon="13.052145"><ele>83.25</ele></trkpt>
   <trkpt lat="51.996557" lon="13.052804"><ele>84.5</ele></trkpt>
   <trkpt lat="51.996611" lon="13.052885"><ele>84.5</ele></trkpt>
   <trkpt lat="51.996668" lon="13.052967"><ele>84.75</ele></trkpt>
   <trkpt lat="51.996792" lon="13.053145"><ele>85</ele></trkpt>
   <trkpt lat="51.997092" lon="13.053585"><ele>85.75</ele></trkpt>
   <trkpt lat="51.997421" lon="13.054063"><ele>85.75</ele></trkpt>
   <trkpt lat="51.99744" lon="13.05409"><ele>85.75</ele></trkpt>
   <trkpt lat="51.997528" lon="13.054218"><ele>85</ele></trkpt>
  </trkseg>
 </trk>
</gpx>