<?xml version="1.0" encoding="UTF-8"?>
<!-- track-length = 29311 filtered ascend = 19 plain-ascend = -8 cost=29311 energy=0.4kwh time=39m 6s -->
<gpx 
 xmlns="http://www.topografix.com/GPX/1/1" 
 xmlns:xsi="http://www.w3.org/2001/XMLSchema-instance" 
 xsi:schemaLocation="http://www.topografix.com/GPX/1/1 http://www.topografix.com/GPX/1/1/gpx.xsd" 
 version="1.1" 
 creator="BRouter-Web 0.18.1">
 <trk>
  <name>Halle (Saale) - Delitzsch Kurve</name>
  <trkseg>
   <trkpt lat="51.477023" lon="11.986772"><ele>109.25</ele></trkpt>
   <trkpt lat="51.477422" lon="11.986415"><ele>109.75</ele></trkpt>
   <trkpt lat="51.477608" lon="11.98626"><ele>109.5</ele></trkpt>
   <trkpt lat="51.477937" lon="11.986033"><ele>109</ele></trkpt>
   <trkpt lat="51.478144" lon="11.985919"><ele>107.25</ele></trkpt>
   <trkpt lat="51.478284" lon="11.985855"><ele>104.75</ele></trkpt>
   <trkpt lat="51.478559" lon="11.985746"><ele>104</ele></trkpt>
   <trkpt lat="51.478597" lon="11.985734"><ele>104</ele></trkpt>
   <trkpt lat="51.47866" lon="11.985709"><ele>104.25</ele></trkpt>
   <trkpt lat="51.47892" lon="11.985626"><ele>106.5</ele></trkpt>
   <trkpt lat="51.478984" lon="11.985607"><ele>107</ele></trkpt>
   <trkpt lat="51.479418" lon="11.985501"><ele>109</ele></trkpt>
   <trkpt lat="51.479967" lon="11.985383"><ele>109</ele></trkpt>
   <trkpt lat="51.480542" lon="11.985264"><ele>109</ele></trkpt>
   <trkpt lat="51.480677" lon="11.985236"><ele>109</ele></trkpt>
   <trkpt lat="51.481139" lon="11.98516"><ele>110</ele></trkpt>
   <trkpt lat="51.481344" lon="11.98514"><ele>110</ele></trkpt>
   <trkpt lat="51.48202" lon="11.985115"><ele>110</ele></trkpt>
   <trkpt lat="51.482249" lon="11.98509"><ele>110.25</ele></trkpt>
   <trkpt lat="51.482264" lon="11.98509"><ele>110.25</ele></trkpt>
   <trkpt lat="51.48262" lon="11.985048"><ele>110</ele></trkpt>
   <trkpt lat="51.482719" lon="11.985035"><ele>110</ele></trkpt>
   <trkpt lat="51.482811" lon="11.985028"><ele>110</ele></trkpt>
   <trkpt lat="51.483215" lon="11.984993"><ele>110</ele></trkpt>
   <trkpt lat="51.483558" lon="11.984997"><ele>110</ele></trkpt>
   <trkpt lat="51.483734" lon="11.985013"><ele>110</ele></trkpt>
   <trkpt lat="51.48392" lon="11.985044"><ele>110</ele></trkpt>
   <trkpt lat="51.484271" lon="11.985142"><ele>110</ele></trkpt>
   <trkpt lat="51.484474" lon="11.985222"><ele>110</ele></trkpt>
   <trkpt lat="51.484789" lon="11.985364"><ele>110</ele></trkpt>
   <trkpt lat="51.485985" lon="11.985933"><ele>110</ele></trkpt>
   <trkpt lat="51.486362" lon="11.986135"><ele>110.75</ele></trkpt>
   <trkpt lat="51.486519" lon="11.986235"><ele>110.75</ele></trkpt>
   <trkpt lat="51.486682" lon="11.986353"><ele>110</ele></trkpt>
   <trkpt lat="51.486845" lon="11.986484"><ele>110.5</ele></trkpt>
   <trkpt lat="51.487014" lon="11.986636"><ele>110.75</ele></trkpt>
   <trkpt lat="51.487185" lon="11.986808"><ele>111</ele></trkpt>
   <trkpt lat="51.487609" lon="11.987286"><ele>111</ele></trkpt>
   <trkpt lat="51.4877" lon="11.987395"><ele>111</ele></trkpt>
   <trkpt lat="51.487703" lon="11.987399"><ele>111</ele></trkpt>
   <trkpt lat="51.487709" lon="11.987407"><ele>111</ele></trkpt>
   <trkpt lat="51.488276" lon="11.98809"><ele>110.75</ele></trkpt>
   <trkpt lat="51.489201" lon="11.989191"><ele>111</ele></trkpt>
   <trkpt lat="51.489677" lon="11.989794"><ele>111</ele></trkpt>
   <trkpt lat="51.48998" lon="11.990217"><ele>111</ele></trkpt>
   <trkpt lat="51.490139" lon="11.990453"><ele>111</ele></trkpt>
   <trkpt lat="51.4903" lon="11.990704"><ele>111</ele></trkpt>
   <trkpt lat="51.49058" lon="11.991165"><ele>111</ele></trkpt>
   <trkpt lat="51.490709" lon="11.991392"><ele>111</ele></trkpt>
   <trkpt lat="51.491945" lon="11.993675"><ele>110.75</ele></trkpt>
   <trkpt lat="51.491951" lon="11.993686"><ele>111</ele></trkpt>
   <trkpt lat="51.49205" lon="11.993872"><ele>111</ele></trkpt>
   <trkpt lat="51.49221" lon="11.994171"><ele>111</ele></trkpt>
   <trkpt lat="51.492333" lon="11.994423"><ele>111</ele></trkpt>
   <trkpt lat="51.492648" lon="11.995126"><ele>111.5</ele></trkpt>
   <trkpt lat="51.492899" lon="11.995618"><ele>111.75</ele></trkpt>
   <trkpt lat="51.492952" lon="11.995718"><ele>111.75</ele></trkpt>
   <trkpt lat="51.49355" lon="11.996739"><ele>111</ele></trkpt>
   <trkpt lat="51.493821" lon="11.997224"><ele>111.75</ele></trkpt>
   <trkpt lat="51.494069" lon="11.997669"><ele>111.25</ele></trkpt>
   <trkpt lat="51.494353" lon="11.998127"><ele>111.25</ele></trkpt>
   <trkpt lat="51.494737" lon="11.99877"><ele>111.25</ele></trkpt>
   <trkpt lat="51.495261" lon="11.999702"><ele>111</ele></trkpt>
   <trkpt lat="51.495766" lon="12.000616"><ele>111.25</ele></trkpt>
   <trkpt lat="51.496403" lon="12.001666"><ele>111.75</ele></trkpt>
   <trkpt lat="51.496561" lon="12.001948"><ele>112</ele></trkpt>
   <trkpt lat="51.497368" lon="12.003375"><ele>111.5</ele></trkpt>
   <trkpt lat="51.497714" lon="12.003954"><ele>112</ele></trkpt>
   <trkpt lat="51.498355" lon="12.004889"><ele>112.25</ele></trkpt>
   <trkpt lat="51.49857" lon="12.005254"><ele>111.75</ele></trkpt>
   <trkpt lat="51.498614" lon="12.005339"><ele>112</ele></trkpt>
   <trkpt lat="51.498863" lon="12.005805"><ele>112.75</ele></trkpt>
   <trkpt lat="51.49909" lon="12.006258"><ele>112.75</ele></trkpt>
   <trkpt lat="51.499255" lon="12.006604"><ele>113</ele></trkpt>
   <trkpt lat="51.499584" lon="12.007343"><ele>113.5</ele></trkpt>
   <trkpt lat="51.499735" lon="12.007707"><ele>113.25</ele></trkpt>
   <trkpt lat="51.499849" lon="12.007997"><ele>113.75</ele></trkpt>
   <trkpt lat="51.50003" lon="12.008488"><ele>113.25</ele></trkpt>
   <trkpt lat="51.500268" lon="12.009198"><ele>113</ele></trkpt>
   <trkpt lat="51.500402" lon="12.009634"><ele>113</ele></trkpt>
   <trkpt lat="51.500645" lon="12.010525"><ele>113</ele></trkpt>
   <trkpt lat="51.500776" lon="12.011066"><ele>113</ele></trkpt>
   <trkpt lat="51.50093" lon="12.011784"><ele>113</ele></trkpt>
   <trkpt lat="51.501074" lon="12.012558"><ele>113</ele></trkpt>
   <trkpt lat="51.501145" lon="12.013011"><ele>113</ele></trkpt>
   <trkpt lat="51.501221" lon="12.013567"><ele>113</ele></trkpt>
   <trkpt lat="51.501296" lon="12.014284"><ele>113</ele></trkpt>
   <trkpt lat="51.501342" lon="12.014888"><ele>112.75</ele></trkpt>
   <trkpt lat="51.501367" lon="12.015334"><ele>112.75</ele></trkpt>
   <trkpt lat="51.501384" lon="12.015757"><ele>112.75</ele></trkpt>
   <trkpt lat="51.501392" lon="12.016216"><ele>113</ele></trkpt>
   <trkpt lat="51.501387" lon="12.016926"><ele>112.75</ele></trkpt>
   <trkpt lat="51.501372" lon="12.017498"><ele>112.75</ele></trkpt>
   <trkpt lat="51.501313" lon="12.018756"><ele>112.75</ele></trkpt>
   <trkpt lat="51.50124" lon="12.01996"><ele>111.5</ele></trkpt>
   <trkpt lat="51.501209" lon="12.020322"><ele>111.25</ele></trkpt>
   <trkpt lat="51.501174" lon="12.020638"><ele>111.5</ele></trkpt>
   <trkpt lat="51.501125" lon="12.02099"><ele>111.75</ele></trkpt>
   <trkpt lat="51.501065" lon="12.021346"><ele>112</ele></trkpt>
   <trkpt lat="51.500906" lon="12.022079"><ele>108</ele></trkpt>
   <trkpt lat="51.50085" lon="12.022329"><ele>107.75</ele></trkpt>
   <trkpt lat="51.500752" lon="12.022758"><ele>109</ele></trkpt>
   <trkpt lat="51.500645" lon="12.023289"><ele>108.5</ele></trkpt>
   <trkpt lat="51.500516" lon="12.023885"><ele>109.5</ele></trkpt>
   <trkpt lat="51.500446" lon="12.024264"><ele>108</ele></trkpt>
   <trkpt lat="51.50041" lon="12.024462"><ele>105.5</ele></trkpt>
   <trkpt lat="51.500381" lon="12.02464"><ele>107</ele></trkpt>
   <trkpt lat="51.500318" lon="12.025063"><ele>109</ele></trkpt>
   <trkpt lat="51.500245" lon="12.025644"><ele>108.75</ele></trkpt>
   <trkpt lat="51.500185" lon="12.026212"><ele>109.75</ele></trkpt>
   <trkpt lat="51.500145" lon="12.026671"><ele>109.25</ele></trkpt>
   <trkpt lat="51.500113" lon="12.027132"><ele>108.75</ele></trkpt>
   <trkpt lat="51.50009" lon="12.027608"><ele>108.25</ele></trkpt>
   <trkpt lat="51.500075" lon="12.02847"><ele>108</ele></trkpt>
   <trkpt lat="51.500075" lon="12.028881"><ele>107.5</ele></trkpt>
   <trkpt lat="51.50009" lon="12.029295"><ele>107.5</ele></trkpt>
   <trkpt lat="51.500115" lon="12.02969"><ele>107.75</ele></trkpt>
   <trkpt lat="51.50015" lon="12.030112"><ele>107.25</ele></trkpt>
   <trkpt lat="51.500254" lon="12.030903"><ele>106</ele></trkpt>
   <trkpt lat="51.500319" lon="12.031289"><ele>105.5</ele></trkpt>
   <trkpt lat="51.500479" lon="12.032076"><ele>104.25</ele></trkpt>
   <trkpt lat="51.500934" lon="12.03408"><ele>103.5</ele></trkpt>
   <trkpt lat="51.50178" lon="12.037814"><ele>101.25</ele></trkpt>
   <trkpt lat="51.501997" lon="12.038743"><ele>101</ele></trkpt>
   <trkpt lat="51.502161" lon="12.039608"><ele>101</ele></trkpt>
   <trkpt lat="51.502253" lon="12.040289"><ele>100</ele></trkpt>
   <trkpt lat="51.502282" lon="12.040621"><ele>100.75</ele></trkpt>
   <trkpt lat="51.502287" lon="12.040668"><ele>100.75</ele></trkpt>
   <trkpt lat="51.502311" lon="12.041097"><ele>100</ele></trkpt>
   <trkpt lat="51.502318" lon="12.041431"><ele>100</ele></trkpt>
   <trkpt lat="51.502313" lon="12.04169"><ele>100</ele></trkpt>
   <trkpt lat="51.502288" lon="12.04224"><ele>99</ele></trkpt>
   <trkpt lat="51.502286" lon="12.042275"><ele>99</ele></trkpt>
   <trkpt lat="51.502236" lon="12.042725"><ele>99</ele></trkpt>
   <trkpt lat="51.50219" lon="12.043025"><ele>99.75</ele></trkpt>
   <trkpt lat="51.502092" lon="12.043566"><ele>101</ele></trkpt>
   <trkpt lat="51.502033" lon="12.043848"><ele>100.25</ele></trkpt>
   <trkpt lat="51.501843" lon="12.044679"><ele>99.25</ele></trkpt>
   <trkpt lat="51.501056" lon="12.04784"><ele>97.75</ele></trkpt>
   <trkpt lat="51.500948" lon="12.048302"><ele>97.5</ele></trkpt>
   <trkpt lat="51.500828" lon="12.048876"><ele>98</ele></trkpt>
   <trkpt lat="51.500741" lon="12.049384"><ele>98</ele></trkpt>
   <trkpt lat="51.500665" lon="12.049952"><ele>100.75</ele></trkpt>
   <trkpt lat="51.500611" lon="12.050552"><ele>100.5</ele></trkpt>
   <trkpt lat="51.500587" lon="12.050889"><ele>98.75</ele></trkpt>
   <trkpt lat="51.500573" lon="12.051197"><ele>98.75</ele></trkpt>
   <trkpt lat="51.50057" lon="12.051861"><ele>98.75</ele></trkpt>
   <trkpt lat="51.500598" lon="12.052858"><ele>98.75</ele></trkpt>
   <trkpt lat="51.500601" lon="12.052955"><ele>98.75</ele></trkpt>
   <trkpt lat="51.500607" lon="12.053113"><ele>98.75</ele></trkpt>
   <trkpt lat="51.500647" lon="12.054291"><ele>98.5</ele></trkpt>
   <trkpt lat="51.500714" lon="12.055984"><ele>98.25</ele></trkpt>
   <trkpt lat="51.500733" lon="12.057885"><ele>99.25</ele></trkpt>
   <trkpt lat="51.500767" lon="12.058856"><ele>99</ele></trkpt>
   <trkpt lat="51.500771" lon="12.058952"><ele>99</ele></trkpt>
   <trkpt lat="51.500874" lon="12.062402"><ele>97.75</ele></trkpt>
   <trkpt lat="51.500932" lon="12.063899"><ele>98</ele></trkpt>
   <trkpt lat="51.501287" lon="12.074863"><ele>99</ele></trkpt>
   <trkpt lat="51.501372" lon="12.077508"><ele>99.75</ele></trkpt>
   <trkpt lat="51.501373" lon="12.077751"><ele>99.75</ele></trkpt>
   <trkpt lat="51.501372" lon="12.077508"><ele>99.75</ele></trkpt>
   <trkpt lat="51.501965" lon="12.095891"><ele>103</ele></trkpt>
   <trkpt lat="51.501969" lon="12.095987"><ele>103</ele></trkpt>
   <trkpt lat="51.50295" lon="12.126777"><ele>109</ele></trkpt>
   <trkpt lat="51.503115" lon="12.132136"><ele>110</ele></trkpt>
   <trkpt lat="51.50317" lon="12.134108"><ele>111</ele></trkpt>
   <trkpt lat="51.503248" lon="12.136701"><ele>110.25</ele></trkpt>
   <trkpt lat="51.503494" lon="12.143998"><ele>108.5</ele></trkpt>
   <trkpt lat="51.503633" lon="12.148451"><ele>107.5</ele></trkpt>
   <trkpt lat="51.503726" lon="12.151411"><ele>107.5</ele></trkpt>
   <trkpt lat="51.504227" lon="12.166962"><ele>103.75</ele></trkpt>
   <trkpt lat="51.504352" lon="12.171006"><ele>106.25</ele></trkpt>
   <trkpt lat="51.504356" lon="12.171137"><ele>106.5</ele></trkpt>
   <trkpt lat="51.504428" lon="12.173481"><ele>106.75</ele></trkpt>
   <trkpt lat="51.505029" lon="12.19247"><ele>108</ele></trkpt>
   <trkpt lat="51.505058" lon="12.193206"><ele>107.5</ele></trkpt>
   <trkpt lat="51.505105" lon="12.194161"><ele>107</ele></trkpt>
   <trkpt lat="51.505161" lon="12.194925"><ele>107</ele></trkpt>
   <trkpt lat="51.505338" lon="12.196921"><ele>106</ele></trkpt>
   <trkpt lat="51.506629" lon="12.210742"><ele>106.25</ele></trkpt>
   <trkpt lat="51.507695" lon="12.222231"><ele>103</ele></trkpt>
   <trkpt lat="51.50785" lon="12.223917"><ele>102.75</ele></trkpt>
   <trkpt lat="51.508039" lon="12.225969"><ele>102.75</ele></trkpt>
   <trkpt lat="51.508185" lon="12.227811"><ele>102</ele></trkpt>
   <trkpt lat="51.508261" lon="12.228628"><ele>102.5</ele></trkpt>
   <trkpt lat="51.508278" lon="12.228815"><ele>102</ele></trkpt>
   <trkpt lat="51.508315" lon="12.229208"><ele>102</ele></trkpt>
   <trkpt lat="51.508814" lon="12.234451"><ele>101.5</ele></trkpt>
   <trkpt lat="51.509724" lon="12.244183"><ele>100.75</ele></trkpt>
   <trkpt lat="51.509951" lon="12.246841"><ele>99.75</ele></trkpt>
   <trkpt lat="51.510073" lon="12.248841"><ele>99</ele></trkpt>
   <trkpt lat="51.510161" lon="12.250396"><ele>98.75</ele></trkpt>
   <trkpt lat="51.511038" lon="12.265387"><ele>100.25</ele></trkpt>
   <trkpt lat="51.511117" lon="12.266739"><ele>100.75</ele></trkpt>
   <trkpt lat="51.512227" lon="12.286045"><ele>104</ele></trkpt>
   <trkpt lat="51.512632" lon="12.293089"><ele>100</ele></trkpt>
   <trkpt lat="51.513818" lon="12.313685"><ele>100</ele></trkpt>
   <trkpt lat="51.514335" lon="12.322724"><ele>98</ele></trkpt>
   <trkpt lat="51.51452" lon="12.327353"><ele>101</ele></trkpt>
   <trkpt lat="51.514562" lon="12.328191"><ele>101.5</ele></trkpt>
   <trkpt lat="51.514644" lon="12.329233"><ele>100</ele></trkpt>
   <trkpt lat="51.514689" lon="12.329653"><ele>100</ele></trkpt>
   <trkpt lat="51.514744" lon="12.330075"><ele>99.75</ele></trkpt>
   <trkpt lat="51.514808" lon="12.33052"><ele>100</ele></trkpt>
   <trkpt lat="51.51491" lon="12.331132"><ele>100</ele></trkpt>
   <trkpt lat="51.514933" lon="12.331243"><ele>99.75</ele></trkpt>
   <trkpt lat="51.515068" lon="12.331892"><ele>99.75</ele></trkpt>
   <trkpt lat="51.515199" lon="12.332428"><ele>100</ele></trkpt>
   <trkpt lat="51.515321" lon="12.332875"><ele>99.5</ele></trkpt>
   <trkpt lat="51.515584" lon="12.333756"><ele>99</ele></trkpt>
   <trkpt lat="51.516208" lon="12.33568"><ele>100</ele></trkpt>
   <trkpt lat="51.516224" lon="12.335728"><ele>100</ele></trkpt>
   <trkpt lat="51.51688" lon="12.337731"><ele>99.25</ele></trkpt>
   <trkpt lat="51.517194" lon="12.338696"><ele>99.75</ele></trkpt>
   <trkpt lat="51.517685" lon="12.340174"><ele>98.75</ele></trkpt>
   <trkpt lat="51.517839" lon="12.340711"><ele>99</ele></trkpt>
   <trkpt lat="51.517928" lon="12.341071"><ele>98.5</ele></trkpt>
   <trkpt lat="51.517998" lon="12.341446"><ele>100</ele></trkpt>
   <trkpt lat="51.518091" lon="12.342024"><ele>99.5</ele></trkpt>
   <trkpt lat="51.518135" lon="12.342459"><ele>97.5</ele></trkpt>
   <trkpt lat="51.518173" lon="12.343146"><ele>95.25</ele></trkpt>
   <trkpt lat="51.518178" lon="12.343377"><ele>95</ele></trkpt>
   <trkpt lat="51.518171" lon="12.343848"><ele>95.5</ele></trkpt>
   <trkpt lat="51.518156" lon="12.344189"><ele>95.5</ele></trkpt>
   <trkpt lat="51.518145" lon="12.344372"><ele>95.75</ele></trkpt>
   <trkpt lat="51.518122" lon="12.344626"><ele>96.75</ele></trkpt>
   <trkpt lat="51.518064" lon="12.345103"><ele>98.75</ele></trkpt>
   <trkpt lat="51.518032" lon="12.34532"><ele>98.5</ele></trkpt>
   <trkpt lat="51.517967" lon="12.345649"><ele>96</ele></trkpt>
   <trkpt lat="51.517908" lon="12.345948"><ele>96</ele></trkpt>
   <trkpt lat="51.517793" lon="12.346393"><ele>98.75</ele></trkpt>
   <trkpt lat="51.51764" lon="12.346908"><ele>96</ele></trkpt>
   <trkpt lat="51.517488" lon="12.347323"><ele>98</ele></trkpt>
   <trkpt lat="51.517398" lon="12.347539"><ele>96.25</ele></trkpt>
   <trkpt lat="51.517144" lon="12.348077"><ele>97.25</ele></trkpt>
   <trkpt lat="51.517103" lon="12.348156"><ele>97</ele></trkpt>
   <trkpt lat="51.51697" lon="12.348395"><ele>97.5</ele></trkpt>
   <trkpt lat="51.516683" lon="12.348854"><ele>97.75</ele></trkpt>
   <trkpt lat="51.516201" lon="12.349551"><ele>97.5</ele></trkpt>
   <trkpt lat="51.5159" lon="12.349944"><ele>97.75</ele></trkpt>
   <trkpt lat="51.515487" lon="12.350444"><ele>98</ele></trkpt>
   <trkpt lat="51.515221" lon="12.350734"><ele>98</ele></trkpt>
   <trkpt lat="51.514694" lon="12.351265"><ele>97.25</ele></trkpt>
   <trkpt lat="51.514483" lon="12.351453"><ele>97</ele></trkpt>
   <trkpt lat="51.513824" lon="12.352028"><ele>96</ele></trkpt>
   <trkpt lat="51.513378" lon="12.352388"><ele>96.5</ele></trkpt>
   <trkpt lat="51.512907" lon="12.352749"><ele>96.75</ele></trkpt>
   <trkpt lat="51.512544" lon="12.352995"><ele>96.75</ele></trkpt>
   <trkpt lat="51.512374" lon="12.353089"><ele>96.75</ele></trkpt>
   <trkpt lat="51.512202" lon="12.353172"><ele>96.75</ele></trkpt>
   <trkpt lat="51.512132" lon="12.353203"><ele>96.75</ele></trkpt>
   <trkpt lat="51.511624" lon="12.353424"><ele>96</ele></trkpt>
   <trkpt lat="51.511149" lon="12.353606"><ele>96.75</ele></trkpt>
   <trkpt lat="51.510689" lon="12.353758"><ele>96.25</ele></trkpt>
   <trkpt lat="51.510437" lon="12.353836"><ele>96.75</ele></trkpt>
   <trkpt lat="51.509785" lon="12.354002"><ele>96.5</ele></trkpt>
   <trkpt lat="51.509377" lon="12.354083"><ele>97</ele></trkpt>
   <trkpt lat="51.508991" lon="12.354147"><ele>97</ele></trkpt>
   <trkpt lat="51.508401" lon="12.354221"><ele>97</ele></trkpt>
   <trkpt lat="51.507111" lon="12.35432"><ele>97</ele></trkpt>
   <trkpt lat="51.506281" lon="12.354436"><ele>97.75</ele></trkpt>
   <trkpt lat="51.506213" lon="12.354441"><ele>97.75</ele></trkpt>
   <trkpt lat="51.505432" lon="12.354501"><ele>98</ele></trkpt>
   <trkpt lat="51.503817" lon="12.354617"><ele>98.5</ele></trkpt>
   <trkpt lat="51.503764" lon="12.354622"><ele>98.5</ele></trkpt>
   <trkpt lat="51.503192" lon="12.354662"><ele>98.75</ele></trkpt>
   <trkpt lat="51.502542" lon="12.354721"><ele>99.75</ele></trkpt>
   <trkpt lat="51.501892" lon="12.354801"><ele>99.5</ele></trkpt>
   <trkpt lat="51.501206" lon="12.354918"><ele>99.25</ele></trkpt>
   <trkpt lat="51.500596" lon="12.355054"><ele>99.5</ele></trkpt>
   <trkpt lat="51.500283" lon="12.355135"><ele>98.5</ele></trkpt>
   <trkpt lat="51.499978" lon="12.355223"><ele>98.75</ele></trkpt>
   <trkpt lat="51.499354" lon="12.355422"><ele>99.25</ele></trkpt>
   <trkpt lat="51.498901" lon="12.355584"><ele>99.5</ele></trkpt>
  </trkseg>
 </trk>
</gpx>