<?xml version="1.0" encoding="UTF-8"?>
<!-- track-length = 24810 filtered ascend = 17 plain-ascend = -21 cost=24810 energy=0.3kwh time=33m 5s -->
<gpx 
 xmlns="http://www.topografix.com/GPX/1/1" 
 xmlns:xsi="http://www.w3.org/2001/XMLSchema-instance" 
 xsi:schemaLocation="http://www.topografix.com/GPX/1/1 http://www.topografix.com/GPX/1/1/gpx.xsd" 
 version="1.1" 
 creator="BRouter-Web 0.18.1">
 <trk>
  <name>Hallsberg - Örebro</name>
  <trkseg>
   <trkpt lat="59.066797" lon="15.109425"><ele>55.5</ele></trkpt>
   <trkpt lat="59.066924" lon="15.110175"><ele>55.5</ele></trkpt>
   <trkpt lat="59.067097" lon="15.111196"><ele>55.5</ele></trkpt>
   <trkpt lat="59.067148" lon="15.111496"><ele>55.75</ele></trkpt>
   <trkpt lat="59.067507" lon="15.113761"><ele>55</ele></trkpt>
   <trkpt lat="59.067635" lon="15.114573"><ele>55</ele></trkpt>
   <trkpt lat="59.067758" lon="15.115349"><ele>55.25</ele></trkpt>
   <trkpt lat="59.067819" lon="15.115702"><ele>55.25</ele></trkpt>
   <trkpt lat="59.067997" lon="15.116527"><ele>54.75</ele></trkpt>
   <trkpt lat="59.06814" lon="15.117419"><ele>54.25</ele></trkpt>
   <trkpt lat="59.068199" lon="15.117844"><ele>53.75</ele></trkpt>
   <trkpt lat="59.068226" lon="15.118021"><ele>53.5</ele></trkpt>
   <trkpt lat="59.068283" lon="15.118455"><ele>53</ele></trkpt>
   <trkpt lat="59.068357" lon="15.118873"><ele>53</ele></trkpt>
   <trkpt lat="59.068404" lon="15.119054"><ele>53</ele></trkpt>
   <trkpt lat="59.06852" lon="15.119502"><ele>53</ele></trkpt>
   <trkpt lat="59.068649" lon="15.119885"><ele>52.5</ele></trkpt>
   <trkpt lat="59.068769" lon="15.120182"><ele>52.25</ele></trkpt>
   <trkpt lat="59.06895" lon="15.120521"><ele>51.75</ele></trkpt>
   <trkpt lat="59.069048" lon="15.120652"><ele>51.25</ele></trkpt>
   <trkpt lat="59.069214" lon="15.120862"><ele>50.75</ele></trkpt>
   <trkpt lat="59.069476" lon="15.121091"><ele>50.5</ele></trkpt>
   <trkpt lat="59.069728" lon="15.121231"><ele>50.5</ele></trkpt>
   <trkpt lat="59.070089" lon="15.121358"><ele>50.25</ele></trkpt>
   <trkpt lat="59.07081" lon="15.121873"><ele>50</ele></trkpt>
   <trkpt lat="59.07128" lon="15.122146"><ele>50</ele></trkpt>
   <trkpt lat="59.071696" lon="15.122314"><ele>50</ele></trkpt>
   <trkpt lat="59.071735" lon="15.122326"><ele>50</ele></trkpt>
   <trkpt lat="59.077843" lon="15.124365"><ele>48</ele></trkpt>
   <trkpt lat="59.084897" lon="15.126713"><ele>49.75</ele></trkpt>
   <trkpt lat="59.085348" lon="15.126864"><ele>50</ele></trkpt>
   <trkpt lat="59.085358" lon="15.126868"><ele>50</ele></trkpt>
   <trkpt lat="59.086668" lon="15.127306"><ele>50</ele></trkpt>
   <trkpt lat="59.094395" lon="15.129889"><ele>52.75</ele></trkpt>
   <trkpt lat="59.095525" lon="15.130266"><ele>52.25</ele></trkpt>
   <trkpt lat="59.097753" lon="15.131011"><ele>50.5</ele></trkpt>
   <trkpt lat="59.103897" lon="15.133062"><ele>51.25</ele></trkpt>
   <trkpt lat="59.10392" lon="15.133069"><ele>51.25</ele></trkpt>
   <trkpt lat="59.104361" lon="15.133218"><ele>51.5</ele></trkpt>
   <trkpt lat="59.110866" lon="15.13539"><ele>49.25</ele></trkpt>
   <trkpt lat="59.111891" lon="15.135732"><ele>49.75</ele></trkpt>
   <trkpt lat="59.113225" lon="15.136179"><ele>51.25</ele></trkpt>
   <trkpt lat="59.113678" lon="15.136331"><ele>50.75</ele></trkpt>
   <trkpt lat="59.113732" lon="15.136349"><ele>50.75</ele></trkpt>
   <trkpt lat="59.113867" lon="15.136395"><ele>50.5</ele></trkpt>
   <trkpt lat="59.1166" lon="15.137309"><ele>49.75</ele></trkpt>
   <trkpt lat="59.120792" lon="15.13871"><ele>53.25</ele></trkpt>
   <trkpt lat="59.120826" lon="15.138721"><ele>53.25</ele></trkpt>
   <trkpt lat="59.120849" lon="15.138728"><ele>53.25</ele></trkpt>
   <trkpt lat="59.122044" lon="15.139113"><ele>54.25</ele></trkpt>
   <trkpt lat="59.123736" lon="15.139637"><ele>55.25</ele></trkpt>
   <trkpt lat="59.124156" lon="15.139769"><ele>55.75</ele></trkpt>
   <trkpt lat="59.124347" lon="15.139834"><ele>56</ele></trkpt>
   <trkpt lat="59.124641" lon="15.139922"><ele>56.25</ele></trkpt>
   <trkpt lat="59.124659" lon="15.139927"><ele>56.5</ele></trkpt>
   <trkpt lat="59.125672" lon="15.140278"><ele>56.5</ele></trkpt>
   <trkpt lat="59.126514" lon="15.140589"><ele>56.75</ele></trkpt>
   <trkpt lat="59.127109" lon="15.140796"><ele>57.5</ele></trkpt>
   <trkpt lat="59.127844" lon="15.141063"><ele>57.25</ele></trkpt>
   <trkpt lat="59.129102" lon="15.141483"><ele>54</ele></trkpt>
   <trkpt lat="59.129374" lon="15.141577"><ele>54</ele></trkpt>
   <trkpt lat="59.130752" lon="15.142042"><ele>56</ele></trkpt>
   <trkpt lat="59.130859" lon="15.142078"><ele>56</ele></trkpt>
   <trkpt lat="59.131193" lon="15.14219"><ele>56</ele></trkpt>
   <trkpt lat="59.131604" lon="15.142327"><ele>56</ele></trkpt>
   <trkpt lat="59.132538" lon="15.142641"><ele>56</ele></trkpt>
   <trkpt lat="59.132632" lon="15.142671"><ele>56</ele></trkpt>
   <trkpt lat="59.134301" lon="15.143231"><ele>55</ele></trkpt>
   <trkpt lat="59.134323" lon="15.143238"><ele>55</ele></trkpt>
   <trkpt lat="59.134342" lon="15.143244"><ele>55</ele></trkpt>
   <trkpt lat="59.137029" lon="15.144142"><ele>53.5</ele></trkpt>
   <trkpt lat="59.138632" lon="15.144714"><ele>54.5</ele></trkpt>
   <trkpt lat="59.139737" lon="15.145155"><ele>49.5</ele></trkpt>
   <trkpt lat="59.143148" lon="15.146515"><ele>43.25</ele></trkpt>
   <trkpt lat="59.147389" lon="15.148203"><ele>43.5</ele></trkpt>
   <trkpt lat="59.148471" lon="15.148635"><ele>41.25</ele></trkpt>
   <trkpt lat="59.149999" lon="15.149242"><ele>38.75</ele></trkpt>
   <trkpt lat="59.150026" lon="15.149253"><ele>38.75</ele></trkpt>
   <trkpt lat="59.157264" lon="15.152118"><ele>38</ele></trkpt>
   <trkpt lat="59.161135" lon="15.153673"><ele>45.75</ele></trkpt>
   <trkpt lat="59.161192" lon="15.153696"><ele>46</ele></trkpt>
   <trkpt lat="59.162085" lon="15.154071"><ele>47.25</ele></trkpt>
   <trkpt lat="59.162981" lon="15.154469"><ele>45.75</ele></trkpt>
   <trkpt lat="59.163432" lon="15.154657"><ele>44.75</ele></trkpt>
   <trkpt lat="59.164228" lon="15.154959"><ele>42.75</ele></trkpt>
   <trkpt lat="59.164787" lon="15.155164"><ele>41.75</ele></trkpt>
   <trkpt lat="59.166061" lon="15.15562"><ele>40.25</ele></trkpt>
   <trkpt lat="59.16721" lon="15.15606"><ele>38.25</ele></trkpt>
   <trkpt lat="59.17019" lon="15.157265"><ele>37.25</ele></trkpt>
   <trkpt lat="59.170691" lon="15.157467"><ele>37.75</ele></trkpt>
   <trkpt lat="59.170706" lon="15.157473"><ele>37.75</ele></trkpt>
   <trkpt lat="59.173625" lon="15.158658"><ele>43</ele></trkpt>
   <trkpt lat="59.173689" lon="15.158683"><ele>43.25</ele></trkpt>
   <trkpt lat="59.174369" lon="15.158945"><ele>45.25</ele></trkpt>
   <trkpt lat="59.174804" lon="15.159084"><ele>45.75</ele></trkpt>
   <trkpt lat="59.175372" lon="15.159228"><ele>45.25</ele></trkpt>
   <trkpt lat="59.176458" lon="15.159427"><ele>44.25</ele></trkpt>
   <trkpt lat="59.177601" lon="15.159627"><ele>42.25</ele></trkpt>
   <trkpt lat="59.179296" lon="15.159912"><ele>41</ele></trkpt>
   <trkpt lat="59.179331" lon="15.159919"><ele>40.75</ele></trkpt>
   <trkpt lat="59.181743" lon="15.16027"><ele>37.75</ele></trkpt>
   <trkpt lat="59.182062" lon="15.160315"><ele>38.25</ele></trkpt>
   <trkpt lat="59.183796" lon="15.160558"><ele>39.25</ele></trkpt>
   <trkpt lat="59.186629" lon="15.160962"><ele>37.75</ele></trkpt>
   <trkpt lat="59.187722" lon="15.161118"><ele>38</ele></trkpt>
   <trkpt lat="59.188608" lon="15.161245"><ele>38.5</ele></trkpt>
   <trkpt lat="59.19083" lon="15.161564"><ele>39</ele></trkpt>
   <trkpt lat="59.191905" lon="15.161765"><ele>39</ele></trkpt>
   <trkpt lat="59.192766" lon="15.161934"><ele>39</ele></trkpt>
   <trkpt lat="59.193481" lon="15.162057"><ele>39</ele></trkpt>
   <trkpt lat="59.195318" lon="15.162325"><ele>40</ele></trkpt>
   <trkpt lat="59.199147" lon="15.162869"><ele>42.75</ele></trkpt>
   <trkpt lat="59.200422" lon="15.163039"><ele>41.75</ele></trkpt>
   <trkpt lat="59.201335" lon="15.163133"><ele>41.75</ele></trkpt>
   <trkpt lat="59.201622" lon="15.163162"><ele>41.75</ele></trkpt>
   <trkpt lat="59.201884" lon="15.163188"><ele>42</ele></trkpt>
   <trkpt lat="59.202111" lon="15.163213"><ele>42.5</ele></trkpt>
   <trkpt lat="59.202158" lon="15.16322"><ele>42.5</ele></trkpt>
   <trkpt lat="59.2036" lon="15.163375"><ele>43</ele></trkpt>
   <trkpt lat="59.2052" lon="15.163593"><ele>42.25</ele></trkpt>
   <trkpt lat="59.206175" lon="15.163736"><ele>43</ele></trkpt>
   <trkpt lat="59.207773" lon="15.164031"><ele>41.5</ele></trkpt>
   <trkpt lat="59.210672" lon="15.164572"><ele>41.25</ele></trkpt>
   <trkpt lat="59.213528" lon="15.165108"><ele>43.5</ele></trkpt>
   <trkpt lat="59.21362" lon="15.165123"><ele>43.5</ele></trkpt>
   <trkpt lat="59.21445" lon="15.16528"><ele>43.25</ele></trkpt>
   <trkpt lat="59.219599" lon="15.166243"><ele>47</ele></trkpt>
   <trkpt lat="59.221271" lon="15.166547"><ele>50.25</ele></trkpt>
   <trkpt lat="59.224549" lon="15.167176"><ele>57.25</ele></trkpt>
   <trkpt lat="59.224619" lon="15.167188"><ele>57.5</ele></trkpt>
   <trkpt lat="59.227178" lon="15.167665"><ele>59</ele></trkpt>
   <trkpt lat="59.227192" lon="15.167667"><ele>59</ele></trkpt>
   <trkpt lat="59.228248" lon="15.167865"><ele>62.25</ele></trkpt>
   <trkpt lat="59.228544" lon="15.167921"><ele>61.75</ele></trkpt>
   <trkpt lat="59.237475" lon="15.169599"><ele>58.25</ele></trkpt>
   <trkpt lat="59.239854" lon="15.170044"><ele>57.25</ele></trkpt>
   <trkpt lat="59.239869" lon="15.170046"><ele>57.25</ele></trkpt>
   <trkpt lat="59.241658" lon="15.170386"><ele>57</ele></trkpt>
   <trkpt lat="59.24209" lon="15.170488"><ele>56.75</ele></trkpt>
   <trkpt lat="59.242297" lon="15.170551"><ele>56.5</ele></trkpt>
   <trkpt lat="59.242731" lon="15.170712"><ele>56.75</ele></trkpt>
   <trkpt lat="59.243227" lon="15.170966"><ele>56.75</ele></trkpt>
   <trkpt lat="59.243498" lon="15.171134"><ele>56</ele></trkpt>
   <trkpt lat="59.243894" lon="15.171416"><ele>54.75</ele></trkpt>
   <trkpt lat="59.24415" lon="15.171627"><ele>54</ele></trkpt>
   <trkpt lat="59.244399" lon="15.171855"><ele>54</ele></trkpt>
   <trkpt lat="59.244617" lon="15.172071"><ele>54.25</ele></trkpt>
   <trkpt lat="59.245067" lon="15.172559"><ele>54.75</ele></trkpt>
   <trkpt lat="59.246048" lon="15.17373"><ele>49</ele></trkpt>
   <trkpt lat="59.249772" lon="15.178197"><ele>39.5</ele></trkpt>
   <trkpt lat="59.249969" lon="15.178433"><ele>39.75</ele></trkpt>
   <trkpt lat="59.250631" lon="15.179229"><ele>39</ele></trkpt>
   <trkpt lat="59.251554" lon="15.180338"><ele>39.25</ele></trkpt>
   <trkpt lat="59.253512" lon="15.182686"><ele>35.75</ele></trkpt>
   <trkpt lat="59.253655" lon="15.182846"><ele>35.75</ele></trkpt>
   <trkpt lat="59.254216" lon="15.183433"><ele>36</ele></trkpt>
   <trkpt lat="59.257099" lon="15.186896"><ele>38</ele></trkpt>
   <trkpt lat="59.260106" lon="15.190425"><ele>35.25</ele></trkpt>
   <trkpt lat="59.261395" lon="15.191963"><ele>32.5</ele></trkpt>
   <trkpt lat="59.263017" lon="15.193909"><ele>32.25</ele></trkpt>
   <trkpt lat="59.264259" lon="15.195394"><ele>32.25</ele></trkpt>
   <trkpt lat="59.265022" lon="15.196305"><ele>35.25</ele></trkpt>
   <trkpt lat="59.265896" lon="15.19738"><ele>34</ele></trkpt>
   <trkpt lat="59.266499" lon="15.198162"><ele>33.5</ele></trkpt>
   <trkpt lat="59.266828" lon="15.198571"><ele>33.25</ele></trkpt>
   <trkpt lat="59.26709" lon="15.198895"><ele>33.75</ele></trkpt>
   <trkpt lat="59.267381" lon="15.199237"><ele>34</ele></trkpt>
   <trkpt lat="59.267804" lon="15.19965"><ele>33.25</ele></trkpt>
   <trkpt lat="59.26789" lon="15.199747"><ele>33</ele></trkpt>
   <trkpt lat="59.26838" lon="15.200314"><ele>32</ele></trkpt>
   <trkpt lat="59.269007" lon="15.20106"><ele>32.5</ele></trkpt>
   <trkpt lat="59.269878" lon="15.202103"><ele>34</ele></trkpt>
   <trkpt lat="59.270148" lon="15.202425"><ele>34</ele></trkpt>
   <trkpt lat="59.270551" lon="15.202942"><ele>33</ele></trkpt>
   <trkpt lat="59.271161" lon="15.203693"><ele>33</ele></trkpt>
   <trkpt lat="59.271267" lon="15.203821"><ele>33.25</ele></trkpt>
   <trkpt lat="59.271592" lon="15.204299"><ele>33.75</ele></trkpt>
   <trkpt lat="59.271938" lon="15.204721"><ele>34</ele></trkpt>
   <trkpt lat="59.272108" lon="15.204927"><ele>34</ele></trkpt>
   <trkpt lat="59.272434" lon="15.205311"><ele>34</ele></trkpt>
   <trkpt lat="59.272732" lon="15.205663"><ele>34.5</ele></trkpt>
   <trkpt lat="59.273173" lon="15.2062"><ele>34.75</ele></trkpt>
   <trkpt lat="59.274109" lon="15.207296"><ele>34.75</ele></trkpt>
   <trkpt lat="59.274414" lon="15.207638"><ele>34.75</ele></trkpt>
   <trkpt lat="59.274915" lon="15.208152"><ele>34.75</ele></trkpt>
   <trkpt lat="59.275349" lon="15.208554"><ele>35.25</ele></trkpt>
   <trkpt lat="59.27575" lon="15.208881"><ele>35.75</ele></trkpt>
   <trkpt lat="59.276081" lon="15.209226"><ele>35.5</ele></trkpt>
   <trkpt lat="59.276217" lon="15.209342"><ele>35.25</ele></trkpt>
   <trkpt lat="59.276486" lon="15.209557"><ele>34.75</ele></trkpt>
   <trkpt lat="59.276832" lon="15.209836"><ele>33.75</ele></trkpt>
   <trkpt lat="59.277575" lon="15.21044"><ele>33</ele></trkpt>
   <trkpt lat="59.277759" lon="15.210589"><ele>33.25</ele></trkpt>
  </trkseg>
 </trk>
</gpx>