<?xml version="1.0" encoding="UTF-8"?>
<!-- track-length = 6938 filtered ascend = 5 plain-ascend = -8 cost=6938 energy=0.1kwh time=9m 15s -->
<gpx 
 xmlns="http://www.topografix.com/GPX/1/1" 
 xmlns:xsi="http://www.w3.org/2001/XMLSchema-instance" 
 xsi:schemaLocation="http://www.topografix.com/GPX/1/1 http://www.topografix.com/GPX/1/1/gpx.xsd" 
 version="1.1" 
 creator="BRouter-Web 0.18.1">
 <trk>
  <name>Hamburg Hbf West Richtung Berlin</name>
  <trkseg>
   <trkpt lat="53.553336" lon="10.005724"><ele>13.25</ele></trkpt>
   <trkpt lat="53.553096" lon="10.005852"><ele>14</ele></trkpt>
   <trkpt lat="53.553036" lon="10.005883"><ele>14</ele></trkpt>
   <trkpt lat="53.55256" lon="10.006119"><ele>14.75</ele></trkpt>
   <trkpt lat="53.552149" lon="10.0063"><ele>15</ele></trkpt>
   <trkpt lat="53.552076" lon="10.006333"><ele>15</ele></trkpt>
   <trkpt lat="53.552021" lon="10.006352"><ele>15</ele></trkpt>
   <trkpt lat="53.552011" lon="10.006355"><ele>15</ele></trkpt>
   <trkpt lat="53.551673" lon="10.006474"><ele>12.25</ele></trkpt>
   <trkpt lat="53.551118" lon="10.006626"><ele>8</ele></trkpt>
   <trkpt lat="53.550602" lon="10.006759"><ele>9.5</ele></trkpt>
   <trkpt lat="53.550513" lon="10.006782"><ele>10</ele></trkpt>
   <trkpt lat="53.55044" lon="10.006799"><ele>10.25</ele></trkpt>
   <trkpt lat="53.550068" lon="10.006892"><ele>9.75</ele></trkpt>
   <trkpt lat="53.550061" lon="10.006894"><ele>9.75</ele></trkpt>
   <trkpt lat="53.550055" lon="10.006896"><ele>9.75</ele></trkpt>
   <trkpt lat="53.549659" lon="10.007076"><ele>8</ele></trkpt>
   <trkpt lat="53.549491" lon="10.007151"><ele>8</ele></trkpt>
   <trkpt lat="53.549293" lon="10.007239"><ele>8</ele></trkpt>
   <trkpt lat="53.549137" lon="10.007313"><ele>8</ele></trkpt>
   <trkpt lat="53.548964" lon="10.007393"><ele>8.25</ele></trkpt>
   <trkpt lat="53.548768" lon="10.007482"><ele>8.75</ele></trkpt>
   <trkpt lat="53.548588" lon="10.007495"><ele>8.75</ele></trkpt>
   <trkpt lat="53.548166" lon="10.007602"><ele>7.75</ele></trkpt>
   <trkpt lat="53.547942" lon="10.007623"><ele>7.25</ele></trkpt>
   <trkpt lat="53.547604" lon="10.007634"><ele>6.75</ele></trkpt>
   <trkpt lat="53.546928" lon="10.007566"><ele>6.75</ele></trkpt>
   <trkpt lat="53.546682" lon="10.007512"><ele>7</ele></trkpt>
   <trkpt lat="53.546454" lon="10.007434"><ele>5.25</ele></trkpt>
   <trkpt lat="53.546245" lon="10.007357"><ele>5</ele></trkpt>
   <trkpt lat="53.545999" lon="10.007268"><ele>5</ele></trkpt>
   <trkpt lat="53.545966" lon="10.007256"><ele>5</ele></trkpt>
   <trkpt lat="53.544784" lon="10.006822"><ele>8</ele></trkpt>
   <trkpt lat="53.544606" lon="10.006768"><ele>8.5</ele></trkpt>
   <trkpt lat="53.544427" lon="10.006726"><ele>9</ele></trkpt>
   <trkpt lat="53.544256" lon="10.006706"><ele>9</ele></trkpt>
   <trkpt lat="53.54394" lon="10.006697"><ele>9.5</ele></trkpt>
   <trkpt lat="53.543533" lon="10.006759"><ele>8.25</ele></trkpt>
   <trkpt lat="53.543346" lon="10.006816"><ele>7.25</ele></trkpt>
   <trkpt lat="53.543237" lon="10.006859"><ele>7.25</ele></trkpt>
   <trkpt lat="53.54308" lon="10.006933"><ele>8.5</ele></trkpt>
   <trkpt lat="53.542989" lon="10.006986"><ele>8.75</ele></trkpt>
   <trkpt lat="53.542829" lon="10.007093"><ele>8</ele></trkpt>
   <trkpt lat="53.542718" lon="10.007185"><ele>7.25</ele></trkpt>
   <trkpt lat="53.542508" lon="10.007393"><ele>7.25</ele></trkpt>
   <trkpt lat="53.542332" lon="10.007606"><ele>7.25</ele></trkpt>
   <trkpt lat="53.542152" lon="10.007842"><ele>6.5</ele></trkpt>
   <trkpt lat="53.541664" lon="10.008509"><ele>7</ele></trkpt>
   <trkpt lat="53.541536" lon="10.008705"><ele>7.5</ele></trkpt>
   <trkpt lat="53.541428" lon="10.008889"><ele>6.5</ele></trkpt>
   <trkpt lat="53.5413" lon="10.009154"><ele>6.75</ele></trkpt>
   <trkpt lat="53.54117" lon="10.009473"><ele>7.25</ele></trkpt>
   <trkpt lat="53.541121" lon="10.009615"><ele>6.5</ele></trkpt>
   <trkpt lat="53.541038" lon="10.009873"><ele>6.5</ele></trkpt>
   <trkpt lat="53.540915" lon="10.010337"><ele>7.5</ele></trkpt>
   <trkpt lat="53.540872" lon="10.010506"><ele>7</ele></trkpt>
   <trkpt lat="53.540781" lon="10.010897"><ele>5.75</ele></trkpt>
   <trkpt lat="53.540586" lon="10.012"><ele>5.75</ele></trkpt>
   <trkpt lat="53.540556" lon="10.012201"><ele>5.75</ele></trkpt>
   <trkpt lat="53.540482" lon="10.012829"><ele>5.25</ele></trkpt>
   <trkpt lat="53.540427" lon="10.013364"><ele>5.25</ele></trkpt>
   <trkpt lat="53.540374" lon="10.013766"><ele>5.5</ele></trkpt>
   <trkpt lat="53.540368" lon="10.013805"><ele>5.5</ele></trkpt>
   <trkpt lat="53.540145" lon="10.01527"><ele>5.25</ele></trkpt>
   <trkpt lat="53.539836" lon="10.01742"><ele>5.5</ele></trkpt>
   <trkpt lat="53.539746" lon="10.018049"><ele>5.75</ele></trkpt>
   <trkpt lat="53.539742" lon="10.018081"><ele>5.75</ele></trkpt>
   <trkpt lat="53.539265" lon="10.021438"><ele>6.25</ele></trkpt>
   <trkpt lat="53.539084" lon="10.022719"><ele>5.75</ele></trkpt>
   <trkpt lat="53.539007" lon="10.023262"/>
   <trkpt lat="53.538941" lon="10.02387"/>
   <trkpt lat="53.538914" lon="10.024324"/>
   <trkpt lat="53.538905" lon="10.024939"><ele>7.5</ele></trkpt>
   <trkpt lat="53.538918" lon="10.025201"><ele>7.5</ele></trkpt>
   <trkpt lat="53.538946" lon="10.02551"><ele>7.5</ele></trkpt>
   <trkpt lat="53.538979" lon="10.025759"><ele>7.5</ele></trkpt>
   <trkpt lat="53.539018" lon="10.025994"><ele>7.5</ele></trkpt>
   <trkpt lat="53.539171" lon="10.026662"><ele>7.5</ele></trkpt>
   <trkpt lat="53.53926" lon="10.026975"><ele>7.5</ele></trkpt>
   <trkpt lat="53.539445" lon="10.027566"><ele>7.5</ele></trkpt>
   <trkpt lat="53.539598" lon="10.02808"><ele>7.5</ele></trkpt>
   <trkpt lat="53.539697" lon="10.028468"><ele>7.5</ele></trkpt>
   <trkpt lat="53.539764" lon="10.028802"><ele>7.5</ele></trkpt>
   <trkpt lat="53.539821" lon="10.029179"><ele>8.5</ele></trkpt>
   <trkpt lat="53.539857" lon="10.029523"><ele>8.5</ele></trkpt>
   <trkpt lat="53.53988" lon="10.029886"><ele>8</ele></trkpt>
   <trkpt lat="53.539888" lon="10.030293"><ele>8.5</ele></trkpt>
   <trkpt lat="53.539882" lon="10.030609"><ele>8.25</ele></trkpt>
   <trkpt lat="53.539869" lon="10.030885"><ele>7.75</ele></trkpt>
   <trkpt lat="53.539813" lon="10.031495"><ele>7.5</ele></trkpt>
   <trkpt lat="53.539787" lon="10.031676"><ele>7.25</ele></trkpt>
   <trkpt lat="53.539755" lon="10.031868"><ele>7.25</ele></trkpt>
   <trkpt lat="53.539742" lon="10.03194"><ele>7.25</ele></trkpt>
   <trkpt lat="53.539616" lon="10.032544"><ele>7</ele></trkpt>
   <trkpt lat="53.539489" lon="10.033046"><ele>7</ele></trkpt>
   <trkpt lat="53.539432" lon="10.033263"><ele>7</ele></trkpt>
   <trkpt lat="53.539109" lon="10.034487"><ele>5.25</ele></trkpt>
   <trkpt lat="53.539035" lon="10.034767"><ele>4.75</ele></trkpt>
   <trkpt lat="53.53902" lon="10.034823"><ele>5</ele></trkpt>
   <trkpt lat="53.53874" lon="10.035896"><ele>4.5</ele></trkpt>
   <trkpt lat="53.538283" lon="10.037622"><ele>4</ele></trkpt>
   <trkpt lat="53.538028" lon="10.038589"><ele>3.75</ele></trkpt>
   <trkpt lat="53.537896" lon="10.039114"><ele>2.5</ele></trkpt>
   <trkpt lat="53.537752" lon="10.039744"><ele>2.75</ele></trkpt>
   <trkpt lat="53.537654" lon="10.040227"><ele>2</ele></trkpt>
   <trkpt lat="53.537493" lon="10.041091"><ele>2</ele></trkpt>
   <trkpt lat="53.537163" lon="10.043004"><ele>1</ele></trkpt>
   <trkpt lat="53.536965" lon="10.044135"><ele>1.75</ele></trkpt>
   <trkpt lat="53.536795" lon="10.045178"><ele>1.25</ele></trkpt>
   <trkpt lat="53.536631" lon="10.046259"><ele>2.25</ele></trkpt>
   <trkpt lat="53.536516" lon="10.047064"><ele>1.25</ele></trkpt>
   <trkpt lat="53.536411" lon="10.047896"><ele>4</ele></trkpt>
   <trkpt lat="53.536308" lon="10.048801"><ele>1.75</ele></trkpt>
   <trkpt lat="53.536175" lon="10.050066"><ele>6.5</ele></trkpt>
   <trkpt lat="53.536097" lon="10.050823"><ele>6.5</ele></trkpt>
   <trkpt lat="53.536036" lon="10.05127"><ele>5.75</ele></trkpt>
   <trkpt lat="53.535992" lon="10.051543"><ele>5.25</ele></trkpt>
   <trkpt lat="53.53589" lon="10.052099"><ele>7</ele></trkpt>
   <trkpt lat="53.535786" lon="10.052584"><ele>6.75</ele></trkpt>
   <trkpt lat="53.535719" lon="10.052856"><ele>5.75</ele></trkpt>
   <trkpt lat="53.535643" lon="10.053166"><ele>6.5</ele></trkpt>
   <trkpt lat="53.535519" lon="10.053622"><ele>7.75</ele></trkpt>
   <trkpt lat="53.535336" lon="10.054231"><ele>6.75</ele></trkpt>
   <trkpt lat="53.535241" lon="10.054505"><ele>7.25</ele></trkpt>
   <trkpt lat="53.534562" lon="10.056626"><ele>3.5</ele></trkpt>
   <trkpt lat="53.534408" lon="10.05709"><ele>7.5</ele></trkpt>
   <trkpt lat="53.534254" lon="10.057556"><ele>5</ele></trkpt>
   <trkpt lat="53.533859" lon="10.058669"><ele>7</ele></trkpt>
   <trkpt lat="53.533748" lon="10.058963"><ele>4.75</ele></trkpt>
   <trkpt lat="53.5337" lon="10.05909"><ele>5.25</ele></trkpt>
   <trkpt lat="53.533692" lon="10.059108"><ele>5.5</ele></trkpt>
   <trkpt lat="53.533526" lon="10.059553"><ele>5.75</ele></trkpt>
   <trkpt lat="53.532671" lon="10.061657"><ele>4.5</ele></trkpt>
   <trkpt lat="53.532305" lon="10.062567"><ele>4.5</ele></trkpt>
   <trkpt lat="53.53159" lon="10.064295"><ele>5.5</ele></trkpt>
   <trkpt lat="53.531271" lon="10.065065"><ele>5.75</ele></trkpt>
   <trkpt lat="53.531001" lon="10.065679"><ele>6</ele></trkpt>
   <trkpt lat="53.530579" lon="10.066602"><ele>6</ele></trkpt>
   <trkpt lat="53.53041" lon="10.066974"><ele>6</ele></trkpt>
   <trkpt lat="53.530187" lon="10.067441"><ele>6</ele></trkpt>
   <trkpt lat="53.529704" lon="10.0684"><ele>6</ele></trkpt>
   <trkpt lat="53.529668" lon="10.068472"><ele>6</ele></trkpt>
   <trkpt lat="53.529635" lon="10.068537"><ele>6</ele></trkpt>
   <trkpt lat="53.529374" lon="10.069054"><ele>6</ele></trkpt>
   <trkpt lat="53.52929" lon="10.069216"><ele>6</ele></trkpt>
   <trkpt lat="53.529027" lon="10.069738"><ele>6</ele></trkpt>
   <trkpt lat="53.528672" lon="10.070434"><ele>6.25</ele></trkpt>
   <trkpt lat="53.528647" lon="10.070482"><ele>6.5</ele></trkpt>
   <trkpt lat="53.52792" lon="10.072023"><ele>5.5</ele></trkpt>
   <trkpt lat="53.527907" lon="10.07205"><ele>5.25</ele></trkpt>
   <trkpt lat="53.527697" lon="10.072471"><ele>5.25</ele></trkpt>
   <trkpt lat="53.527021" lon="10.07381"><ele>6</ele></trkpt>
   <trkpt lat="53.526843" lon="10.074178"><ele>6.25</ele></trkpt>
   <trkpt lat="53.52635" lon="10.075136"><ele>7</ele></trkpt>
   <trkpt lat="53.52628" lon="10.075271"><ele>7</ele></trkpt>
   <trkpt lat="53.523677" lon="10.080472"><ele>5.75</ele></trkpt>
   <trkpt lat="53.523349" lon="10.081127"><ele>5.75</ele></trkpt>
   <trkpt lat="53.522396" lon="10.083034"><ele>3</ele></trkpt>
  </trkseg>
 </trk>
</gpx>