<?xml version="1.0" encoding="UTF-8"?>
<!-- track-length = 16449 filtered ascend = 6 plain-ascend = 3 cost=16449 energy=.2kwh time=21m 56s -->
<gpx 
 xmlns="http://www.topografix.com/GPX/1/1" 
 xmlns:xsi="http://www.w3.org/2001/XMLSchema-instance" 
 xsi:schemaLocation="http://www.topografix.com/GPX/1/1 http://www.topografix.com/GPX/1/1/gpx.xsd" 
 creator="BRouter-1.7.0" version="1.1">
 <trk>
  <name>Hannover - Lehrte</name>
  <trkseg>
   <trkpt lon="9.741023" lat="52.377170"><ele>58.75</ele></trkpt>
   <trkpt lon="9.741536" lat="52.376927"><ele>58.75</ele></trkpt>
   <trkpt lon="9.741588" lat="52.376903"><ele>58.75</ele></trkpt>
   <trkpt lon="9.741589" lat="52.376902"><ele>58.75</ele></trkpt>
   <trkpt lon="9.741659" lat="52.376868"><ele>58.75</ele></trkpt>
   <trkpt lon="9.743173" lat="52.376151"><ele>57.5</ele></trkpt>
   <trkpt lon="9.743230" lat="52.376123"><ele>57.5</ele></trkpt>
   <trkpt lon="9.743559" lat="52.375967"><ele>57.25</ele></trkpt>
   <trkpt lon="9.744024" lat="52.375745"><ele>57.0</ele></trkpt>
   <trkpt lon="9.744833" lat="52.375353"><ele>56.75</ele></trkpt>
   <trkpt lon="9.744838" lat="52.375350"><ele>56.75</ele></trkpt>
   <trkpt lon="9.744874" lat="52.375333"><ele>56.75</ele></trkpt>
   <trkpt lon="9.744910" lat="52.375315"><ele>56.75</ele></trkpt>
   <trkpt lon="9.745508" lat="52.375097"><ele>56.75</ele></trkpt>
   <trkpt lon="9.745569" lat="52.375073"><ele>56.75</ele></trkpt>
   <trkpt lon="9.745909" lat="52.374939"><ele>57.0</ele></trkpt>
   <trkpt lon="9.746074" lat="52.374874"><ele>57.5</ele></trkpt>
   <trkpt lon="9.746599" lat="52.374681"><ele>57.75</ele></trkpt>
   <trkpt lon="9.746871" lat="52.374582"><ele>58.0</ele></trkpt>
   <trkpt lon="9.747069" lat="52.374509"><ele>58.0</ele></trkpt>
   <trkpt lon="9.747802" lat="52.374309"><ele>57.5</ele></trkpt>
   <trkpt lon="9.747934" lat="52.374277"><ele>57.5</ele></trkpt>
   <trkpt lon="9.748076" lat="52.374252"><ele>57.75</ele></trkpt>
   <trkpt lon="9.748509" lat="52.374175"><ele>58.25</ele></trkpt>
   <trkpt lon="9.748908" lat="52.374115"><ele>58.25</ele></trkpt>
   <trkpt lon="9.748964" lat="52.374106"><ele>58.5</ele></trkpt>
   <trkpt lon="9.749943" lat="52.374009"><ele>61.0</ele></trkpt>
   <trkpt lon="9.751024" lat="52.373864"><ele>59.25</ele></trkpt>
   <trkpt lon="9.751345" lat="52.373821"><ele>58.5</ele></trkpt>
   <trkpt lon="9.751921" lat="52.373754"><ele>58.0</ele></trkpt>
   <trkpt lon="9.754318" lat="52.373443"><ele>57.25</ele></trkpt>
   <trkpt lon="9.754407" lat="52.373433"><ele>57.5</ele></trkpt>
   <trkpt lon="9.755902" lat="52.373265"><ele>58.0</ele></trkpt>
   <trkpt lon="9.756534" lat="52.373192"><ele>58.75</ele></trkpt>
   <trkpt lon="9.758201" lat="52.373004"><ele>58.5</ele></trkpt>
   <trkpt lon="9.758559" lat="52.372963"><ele>58.5</ele></trkpt>
   <trkpt lon="9.759169" lat="52.372896"><ele>58.25</ele></trkpt>
   <trkpt lon="9.761137" lat="52.372683"><ele>57.5</ele></trkpt>
   <trkpt lon="9.761607" lat="52.372635"><ele>57.25</ele></trkpt>
   <trkpt lon="9.762772" lat="52.372533"><ele>57.0</ele></trkpt>
   <trkpt lon="9.763310" lat="52.372505"><ele>57.0</ele></trkpt>
   <trkpt lon="9.764160" lat="52.372450"><ele>56.75</ele></trkpt>
   <trkpt lon="9.764874" lat="52.372418"><ele>56.0</ele></trkpt>
   <trkpt lon="9.765800" lat="52.372400"><ele>56.75</ele></trkpt>
   <trkpt lon="9.765820" lat="52.372400"><ele>56.75</ele></trkpt>
   <trkpt lon="9.766337" lat="52.372399"><ele>57.5</ele></trkpt>
   <trkpt lon="9.767148" lat="52.372408"><ele>57.75</ele></trkpt>
   <trkpt lon="9.768368" lat="52.372441"><ele>56.75</ele></trkpt>
   <trkpt lon="9.769799" lat="52.372523"><ele>57.5</ele></trkpt>
   <trkpt lon="9.770220" lat="52.372542"><ele>57.75</ele></trkpt>
   <trkpt lon="9.771170" lat="52.372587"><ele>57.75</ele></trkpt>
   <trkpt lon="9.772132" lat="52.372603"><ele>57.75</ele></trkpt>
   <trkpt lon="9.773699" lat="52.372682"><ele>58.0</ele></trkpt>
   <trkpt lon="9.774198" lat="52.372709"><ele>57.5</ele></trkpt>
   <trkpt lon="9.774672" lat="52.372731"><ele>57.0</ele></trkpt>
   <trkpt lon="9.774701" lat="52.372733"><ele>57.0</ele></trkpt>
   <trkpt lon="9.775114" lat="52.372754"><ele>56.5</ele></trkpt>
   <trkpt lon="9.777595" lat="52.372884"><ele>55.5</ele></trkpt>
   <trkpt lon="9.778371" lat="52.372921"><ele>56.5</ele></trkpt>
   <trkpt lon="9.781250" lat="52.373037"><ele>60.0</ele></trkpt>
   <trkpt lon="9.781260" lat="52.373037"><ele>60.0</ele></trkpt>
   <trkpt lon="9.782183" lat="52.373074"><ele>59.25</ele></trkpt>
   <trkpt lon="9.782720" lat="52.373107"><ele>58.5</ele></trkpt>
   <trkpt lon="9.786684" lat="52.373332"><ele>59.0</ele></trkpt>
   <trkpt lon="9.787140" lat="52.373357"><ele>59.0</ele></trkpt>
   <trkpt lon="9.788990" lat="52.373471"><ele>59.0</ele></trkpt>
   <trkpt lon="9.789600" lat="52.373508"><ele>58.5</ele></trkpt>
   <trkpt lon="9.790953" lat="52.373587"><ele>59.25</ele></trkpt>
   <trkpt lon="9.794438" lat="52.373815"><ele>61.25</ele></trkpt>
   <trkpt lon="9.795135" lat="52.373859"><ele>60.75</ele></trkpt>
   <trkpt lon="9.796304" lat="52.373932"><ele>60.0</ele></trkpt>
   <trkpt lon="9.796604" lat="52.373951"><ele>59.75</ele></trkpt>
   <trkpt lon="9.797100" lat="52.373984"><ele>59.75</ele></trkpt>
   <trkpt lon="9.799863" lat="52.374162"><ele>59.0</ele></trkpt>
   <trkpt lon="9.801364" lat="52.374232"><ele>58.75</ele></trkpt>
   <trkpt lon="9.803082" lat="52.374253"><ele>58.0</ele></trkpt>
   <trkpt lon="9.805210" lat="52.374254"><ele>58.0</ele></trkpt>
   <trkpt lon="9.806040" lat="52.374263"><ele>59.0</ele></trkpt>
   <trkpt lon="9.808781" lat="52.374327"><ele>61.0</ele></trkpt>
   <trkpt lon="9.809548" lat="52.374350"><ele>60.25</ele></trkpt>
   <trkpt lon="9.813210" lat="52.374461"><ele>60.5</ele></trkpt>
   <trkpt lon="9.813666" lat="52.374474"><ele>60.5</ele></trkpt>
   <trkpt lon="9.819668" lat="52.374658"><ele>57.75</ele></trkpt>
   <trkpt lon="9.820842" lat="52.374678"><ele>58.0</ele></trkpt>
   <trkpt lon="9.821033" lat="52.374677"><ele>57.75</ele></trkpt>
   <trkpt lon="9.822117" lat="52.374671"><ele>57.0</ele></trkpt>
   <trkpt lon="9.822605" lat="52.374661"><ele>57.25</ele></trkpt>
   <trkpt lon="9.823137" lat="52.374649"><ele>57.5</ele></trkpt>
   <trkpt lon="9.824237" lat="52.374610"><ele>57.75</ele></trkpt>
   <trkpt lon="9.825981" lat="52.374511"><ele>59.25</ele></trkpt>
   <trkpt lon="9.827253" lat="52.374385"><ele>60.25</ele></trkpt>
   <trkpt lon="9.828745" lat="52.374209"><ele>59.75</ele></trkpt>
   <trkpt lon="9.829938" lat="52.374022"><ele>60.5</ele></trkpt>
   <trkpt lon="9.831330" lat="52.373776"><ele>61.5</ele></trkpt>
   <trkpt lon="9.833489" lat="52.373327"><ele>56.75</ele></trkpt>
   <trkpt lon="9.835301" lat="52.372942"><ele>56.0</ele></trkpt>
   <trkpt lon="9.839227" lat="52.372106"><ele>56.75</ele></trkpt>
   <trkpt lon="9.844481" lat="52.370988"><ele>55.75</ele></trkpt>
   <trkpt lon="9.845883" lat="52.370692"><ele>56.0</ele></trkpt>
   <trkpt lon="9.850003" lat="52.369822"><ele>56.0</ele></trkpt>
   <trkpt lon="9.851080" lat="52.369588"><ele>56.0</ele></trkpt>
   <trkpt lon="9.852111" lat="52.369408"><ele>56.25</ele></trkpt>
   <trkpt lon="9.853191" lat="52.369234"><ele>57.5</ele></trkpt>
   <trkpt lon="9.854259" lat="52.369109"><ele>56.75</ele></trkpt>
   <trkpt lon="9.855367" lat="52.369005"><ele>55.75</ele></trkpt>
   <trkpt lon="9.856699" lat="52.368940"><ele>55.75</ele></trkpt>
   <trkpt lon="9.857130" lat="52.368939"><ele>57.0</ele></trkpt>
   <trkpt lon="9.858627" lat="52.368957"><ele>61.0</ele></trkpt>
   <trkpt lon="9.859943" lat="52.368994"><ele>61.5</ele></trkpt>
   <trkpt lon="9.861550" lat="52.369080"><ele>64.5</ele></trkpt>
   <trkpt lon="9.861585" lat="52.369081"><ele>64.5</ele></trkpt>
   <trkpt lon="9.867552" lat="52.369392"><ele>61.5</ele></trkpt>
   <trkpt lon="9.872049" lat="52.369624"><ele>57.0</ele></trkpt>
   <trkpt lon="9.873415" lat="52.369709"><ele>55.5</ele></trkpt>
   <trkpt lon="9.874774" lat="52.369815"><ele>55.0</ele></trkpt>
   <trkpt lon="9.875744" lat="52.369930"><ele>54.25</ele></trkpt>
   <trkpt lon="9.876789" lat="52.370057"><ele>52.25</ele></trkpt>
   <trkpt lon="9.877604" lat="52.370196"><ele>50.5</ele></trkpt>
   <trkpt lon="9.878811" lat="52.370407"><ele>51.75</ele></trkpt>
   <trkpt lon="9.880162" lat="52.370691"><ele>57.5</ele></trkpt>
   <trkpt lon="9.883610" lat="52.371484"><ele>61.5</ele></trkpt>
   <trkpt lon="9.890859" lat="52.373153"><ele>56.75</ele></trkpt>
   <trkpt lon="9.891281" lat="52.373252"><ele>56.25</ele></trkpt>
   <trkpt lon="9.891818" lat="52.373376"><ele>55.75</ele></trkpt>
   <trkpt lon="9.898152" lat="52.374838"><ele>57.0</ele></trkpt>
   <trkpt lon="9.901658" lat="52.375624"><ele>57.5</ele></trkpt>
   <trkpt lon="9.902881" lat="52.375848"><ele>57.75</ele></trkpt>
   <trkpt lon="9.903882" lat="52.376000"><ele>58.25</ele></trkpt>
   <trkpt lon="9.904850" lat="52.376129"><ele>59.75</ele></trkpt>
   <trkpt lon="9.906127" lat="52.376266"><ele>60.0</ele></trkpt>
   <trkpt lon="9.907056" lat="52.376345"><ele>60.0</ele></trkpt>
   <trkpt lon="9.910185" lat="52.376568"><ele>59.0</ele></trkpt>
   <trkpt lon="9.912468" lat="52.376740"><ele>57.75</ele></trkpt>
   <trkpt lon="9.913317" lat="52.376804"><ele>59.25</ele></trkpt>
   <trkpt lon="9.916215" lat="52.376991"><ele>60.25</ele></trkpt>
   <trkpt lon="9.928056" lat="52.377789"><ele>60.75</ele></trkpt>
   <trkpt lon="9.928569" lat="52.377814"><ele>60.5</ele></trkpt>
   <trkpt lon="9.929269" lat="52.377849"><ele>60.25</ele></trkpt>
   <trkpt lon="9.932766" lat="52.377997"><ele>59.5</ele></trkpt>
   <trkpt lon="9.933420" lat="52.378033"><ele>60.0</ele></trkpt>
   <trkpt lon="9.937299" lat="52.378289"><ele>59.0</ele></trkpt>
   <trkpt lon="9.938837" lat="52.378399"><ele>60.0</ele></trkpt>
   <trkpt lon="9.941536" lat="52.378576"><ele>59.75</ele></trkpt>
   <trkpt lon="9.942603" lat="52.378638"><ele>59.75</ele></trkpt>
   <trkpt lon="9.943298" lat="52.378665"><ele>59.25</ele></trkpt>
   <trkpt lon="9.947692" lat="52.378737"><ele>60.25</ele></trkpt>
   <trkpt lon="9.949234" lat="52.378749"><ele>59.75</ele></trkpt>
   <trkpt lon="9.949758" lat="52.378753"><ele>59.5</ele></trkpt>
   <trkpt lon="9.951042" lat="52.378792"><ele>59.5</ele></trkpt>
   <trkpt lon="9.952147" lat="52.378849"><ele>59.5</ele></trkpt>
   <trkpt lon="9.952463" lat="52.378871"><ele>59.75</ele></trkpt>
   <trkpt lon="9.953751" lat="52.378964"><ele>59.75</ele></trkpt>
   <trkpt lon="9.954609" lat="52.379054"><ele>60.0</ele></trkpt>
   <trkpt lon="9.955155" lat="52.379093"><ele>60.0</ele></trkpt>
   <trkpt lon="9.955692" lat="52.379136"><ele>60.0</ele></trkpt>
   <trkpt lon="9.956918" lat="52.379248"><ele>60.0</ele></trkpt>
   <trkpt lon="9.958254" lat="52.379349"><ele>60.5</ele></trkpt>
   <trkpt lon="9.958360" lat="52.379356"><ele>60.5</ele></trkpt>
   <trkpt lon="9.959463" lat="52.379476"><ele>60.0</ele></trkpt>
   <trkpt lon="9.960358" lat="52.379617"><ele>59.25</ele></trkpt>
   <trkpt lon="9.961718" lat="52.379894"><ele>59.0</ele></trkpt>
   <trkpt lon="9.962010" lat="52.379953"><ele>59.0</ele></trkpt>
   <trkpt lon="9.962701" lat="52.380095"><ele>58.5</ele></trkpt>
   <trkpt lon="9.962743" lat="52.380104"><ele>58.5</ele></trkpt>
   <trkpt lon="9.962771" lat="52.380109"><ele>58.5</ele></trkpt>
   <trkpt lon="9.962933" lat="52.380142"><ele>58.25</ele></trkpt>
   <trkpt lon="9.963421" lat="52.380234"><ele>57.5</ele></trkpt>
   <trkpt lon="9.963852" lat="52.380289"><ele>57.75</ele></trkpt>
   <trkpt lon="9.964271" lat="52.380331"><ele>58.0</ele></trkpt>
   <trkpt lon="9.964759" lat="52.380358"><ele>59.0</ele></trkpt>
   <trkpt lon="9.965159" lat="52.380363"><ele>59.25</ele></trkpt>
   <trkpt lon="9.965711" lat="52.380352"><ele>59.25</ele></trkpt>
   <trkpt lon="9.965914" lat="52.380337"><ele>59.25</ele></trkpt>
   <trkpt lon="9.966259" lat="52.380312"><ele>59.0</ele></trkpt>
   <trkpt lon="9.966744" lat="52.380268"><ele>58.75</ele></trkpt>
   <trkpt lon="9.966798" lat="52.380261"><ele>58.75</ele></trkpt>
   <trkpt lon="9.967510" lat="52.380171"><ele>58.5</ele></trkpt>
   <trkpt lon="9.967944" lat="52.380091"><ele>58.75</ele></trkpt>
   <trkpt lon="9.968183" lat="52.380043"><ele>58.75</ele></trkpt>
   <trkpt lon="9.968230" lat="52.380033"><ele>58.75</ele></trkpt>
   <trkpt lon="9.969037" lat="52.379858"><ele>59.5</ele></trkpt>
   <trkpt lon="9.969328" lat="52.379789"><ele>59.75</ele></trkpt>
   <trkpt lon="9.969658" lat="52.379697"><ele>60.25</ele></trkpt>
   <trkpt lon="9.969687" lat="52.379687"><ele>60.5</ele></trkpt>
   <trkpt lon="9.970515" lat="52.379411"><ele>60.75</ele></trkpt>
   <trkpt lon="9.970688" lat="52.379351"><ele>60.75</ele></trkpt>
   <trkpt lon="9.971407" lat="52.379094"><ele>60.25</ele></trkpt>
   <trkpt lon="9.971660" lat="52.378989"><ele>60.0</ele></trkpt>
   <trkpt lon="9.971712" lat="52.378968"><ele>60.0</ele></trkpt>
   <trkpt lon="9.972082" lat="52.378773"><ele>60.0</ele></trkpt>
   <trkpt lon="9.972439" lat="52.378554"><ele>60.0</ele></trkpt>
   <trkpt lon="9.972727" lat="52.378351"><ele>60.25</ele></trkpt>
   <trkpt lon="9.973062" lat="52.378117"><ele>60.75</ele></trkpt>
   <trkpt lon="9.973617" lat="52.377721"><ele>61.0</ele></trkpt>
   <trkpt lon="9.973632" lat="52.377711"><ele>61.0</ele></trkpt>
   <trkpt lon="9.973732" lat="52.377638"><ele>61.0</ele></trkpt>
   <trkpt lon="9.974025" lat="52.377407"><ele>61.0</ele></trkpt>
   <trkpt lon="9.974163" lat="52.377277"><ele>60.75</ele></trkpt>
   <trkpt lon="9.974505" lat="52.376927"><ele>61.25</ele></trkpt>
   <trkpt lon="9.974553" lat="52.376878"><ele>61.5</ele></trkpt>
  </trkseg>
 </trk>
</gpx>
