<?xml version="1.0" encoding="UTF-8"?>
<!-- track-length = 40250 filtered ascend = 66 plain-ascend = -1 cost=40250 energy=0.5kwh time=53m 40s -->
<gpx 
 xmlns="http://www.topografix.com/GPX/1/1" 
 xmlns:xsi="http://www.w3.org/2001/XMLSchema-instance" 
 xsi:schemaLocation="http://www.topografix.com/GPX/1/1 http://www.topografix.com/GPX/1/1/gpx.xsd" 
 version="1.1" 
 creator="BRouter-Web 0.18.1">
 <trk>
  <name>Hannover - Haste</name>
  <trkseg>
   <trkpt lat="52.356908" lon="9.769278"><ele>56.75</ele></trkpt>
   <trkpt lat="52.356881" lon="9.769292"><ele>57</ele></trkpt>
   <trkpt lat="52.356515" lon="9.76948"><ele>57.5</ele></trkpt>
   <trkpt lat="52.356258" lon="9.769615"><ele>58</ele></trkpt>
   <trkpt lat="52.355995" lon="9.769756"><ele>58.5</ele></trkpt>
   <trkpt lat="52.355579" lon="9.76998"><ele>59.25</ele></trkpt>
   <trkpt lat="52.355181" lon="9.770189"><ele>59.5</ele></trkpt>
   <trkpt lat="52.354508" lon="9.770557"><ele>59.25</ele></trkpt>
   <trkpt lat="52.354303" lon="9.770661"><ele>59</ele></trkpt>
   <trkpt lat="52.354071" lon="9.770781"><ele>59.75</ele></trkpt>
   <trkpt lat="52.353763" lon="9.77093"><ele>62.25</ele></trkpt>
   <trkpt lat="52.353095" lon="9.771258"><ele>65.75</ele></trkpt>
   <trkpt lat="52.352842" lon="9.771388"><ele>66</ele></trkpt>
   <trkpt lat="52.352059" lon="9.771781"><ele>65.25</ele></trkpt>
   <trkpt lat="52.351322" lon="9.772176"><ele>64.25</ele></trkpt>
   <trkpt lat="52.350747" lon="9.772469"><ele>62.75</ele></trkpt>
   <trkpt lat="52.350512" lon="9.772583"><ele>62</ele></trkpt>
   <trkpt lat="52.350241" lon="9.772699"><ele>61.25</ele></trkpt>
   <trkpt lat="52.349983" lon="9.772796"><ele>60.75</ele></trkpt>
   <trkpt lat="52.349863" lon="9.772837"><ele>60.75</ele></trkpt>
   <trkpt lat="52.349738" lon="9.772864"><ele>60.5</ele></trkpt>
   <trkpt lat="52.349484" lon="9.772905"><ele>60.25</ele></trkpt>
   <trkpt lat="52.349327" lon="9.77292"><ele>60</ele></trkpt>
   <trkpt lat="52.349171" lon="9.772926"><ele>60</ele></trkpt>
   <trkpt lat="52.348837" lon="9.772901"><ele>60</ele></trkpt>
   <trkpt lat="52.348491" lon="9.772841"><ele>60.25</ele></trkpt>
   <trkpt lat="52.348277" lon="9.772766"><ele>60.5</ele></trkpt>
   <trkpt lat="52.34808" lon="9.772673"><ele>60.25</ele></trkpt>
   <trkpt lat="52.347798" lon="9.772515"><ele>60.25</ele></trkpt>
   <trkpt lat="52.34776" lon="9.772492"><ele>60.25</ele></trkpt>
   <trkpt lat="52.347653" lon="9.772429"><ele>60.25</ele></trkpt>
   <trkpt lat="52.347529" lon="9.772344"><ele>60</ele></trkpt>
   <trkpt lat="52.347239" lon="9.772131"><ele>59.75</ele></trkpt>
   <trkpt lat="52.346833" lon="9.771712"><ele>59.25</ele></trkpt>
   <trkpt lat="52.346769" lon="9.771633"><ele>59.25</ele></trkpt>
   <trkpt lat="52.346627" lon="9.771459"><ele>59</ele></trkpt>
   <trkpt lat="52.346547" lon="9.771345"><ele>59.25</ele></trkpt>
   <trkpt lat="52.346315" lon="9.771017"><ele>59.75</ele></trkpt>
   <trkpt lat="52.346103" lon="9.770661"><ele>60</ele></trkpt>
   <trkpt lat="52.345943" lon="9.770365"><ele>60.25</ele></trkpt>
   <trkpt lat="52.345832" lon="9.770126"><ele>60.75</ele></trkpt>
   <trkpt lat="52.345741" lon="9.76993"><ele>60.75</ele></trkpt>
   <trkpt lat="52.345588" lon="9.769551"><ele>60.25</ele></trkpt>
   <trkpt lat="52.345419" lon="9.769092"><ele>59.75</ele></trkpt>
   <trkpt lat="52.345291" lon="9.768663"><ele>59.75</ele></trkpt>
   <trkpt lat="52.345236" lon="9.768438"><ele>59.75</ele></trkpt>
   <trkpt lat="52.345172" lon="9.768163"><ele>59.75</ele></trkpt>
   <trkpt lat="52.345095" lon="9.767791"><ele>60</ele></trkpt>
   <trkpt lat="52.345001" lon="9.767284"><ele>60</ele></trkpt>
   <trkpt lat="52.344717" lon="9.765689"><ele>58.75</ele></trkpt>
   <trkpt lat="52.344511" lon="9.764518"><ele>58.5</ele></trkpt>
   <trkpt lat="52.344474" lon="9.764309"><ele>58.5</ele></trkpt>
   <trkpt lat="52.344468" lon="9.764275"><ele>58.5</ele></trkpt>
   <trkpt lat="52.34434" lon="9.763532"><ele>58.25</ele></trkpt>
   <trkpt lat="52.344201" lon="9.762757"><ele>58.75</ele></trkpt>
   <trkpt lat="52.344051" lon="9.762011"><ele>59</ele></trkpt>
   <trkpt lat="52.34391" lon="9.761455"><ele>59</ele></trkpt>
   <trkpt lat="52.343886" lon="9.76136"><ele>59</ele></trkpt>
   <trkpt lat="52.343882" lon="9.761347"><ele>59</ele></trkpt>
   <trkpt lat="52.343849" lon="9.761215"><ele>59</ele></trkpt>
   <trkpt lat="52.343282" lon="9.75925"><ele>59.5</ele></trkpt>
   <trkpt lat="52.343204" lon="9.758984"><ele>59.75</ele></trkpt>
   <trkpt lat="52.342877" lon="9.757851"><ele>59.25</ele></trkpt>
   <trkpt lat="52.3428" lon="9.757583"><ele>58.5</ele></trkpt>
   <trkpt lat="52.3425" lon="9.756509"><ele>57</ele></trkpt>
   <trkpt lat="52.342387" lon="9.756058"><ele>57.25</ele></trkpt>
   <trkpt lat="52.342304" lon="9.755703"><ele>57.5</ele></trkpt>
   <trkpt lat="52.342223" lon="9.755288"><ele>57.75</ele></trkpt>
   <trkpt lat="52.342116" lon="9.754659"><ele>57.25</ele></trkpt>
   <trkpt lat="52.342045" lon="9.754126"><ele>56.75</ele></trkpt>
   <trkpt lat="52.341988" lon="9.753505"><ele>56.75</ele></trkpt>
   <trkpt lat="52.341948" lon="9.752868"><ele>55.75</ele></trkpt>
   <trkpt lat="52.341933" lon="9.752258"><ele>55</ele></trkpt>
   <trkpt lat="52.341941" lon="9.751476"><ele>55</ele></trkpt>
   <trkpt lat="52.341974" lon="9.750868"><ele>55.5</ele></trkpt>
   <trkpt lat="52.34203" lon="9.750236"><ele>56.25</ele></trkpt>
   <trkpt lat="52.342072" lon="9.749898"><ele>56.75</ele></trkpt>
   <trkpt lat="52.342092" lon="9.749737"><ele>56.5</ele></trkpt>
   <trkpt lat="52.342138" lon="9.749417"><ele>56.5</ele></trkpt>
   <trkpt lat="52.34224" lon="9.748817"><ele>56.5</ele></trkpt>
   <trkpt lat="52.342326" lon="9.748407"><ele>57</ele></trkpt>
   <trkpt lat="52.342443" lon="9.747914"><ele>57</ele></trkpt>
   <trkpt lat="52.342649" lon="9.747176"><ele>57.25</ele></trkpt>
   <trkpt lat="52.342891" lon="9.746463"><ele>57.75</ele></trkpt>
   <trkpt lat="52.343052" lon="9.746038"><ele>58</ele></trkpt>
   <trkpt lat="52.343225" lon="9.745639"><ele>58</ele></trkpt>
   <trkpt lat="52.343572" lon="9.744929"><ele>57</ele></trkpt>
   <trkpt lat="52.343851" lon="9.744443"><ele>56.75</ele></trkpt>
   <trkpt lat="52.343982" lon="9.744219"><ele>56.25</ele></trkpt>
   <trkpt lat="52.344268" lon="9.743789"><ele>55.5</ele></trkpt>
   <trkpt lat="52.344464" lon="9.743512"><ele>55.75</ele></trkpt>
   <trkpt lat="52.34471" lon="9.743146"><ele>56</ele></trkpt>
   <trkpt lat="52.344848" lon="9.742941"><ele>56.25</ele></trkpt>
   <trkpt lat="52.344882" lon="9.742888"><ele>56.25</ele></trkpt>
   <trkpt lat="52.345389" lon="9.742125"><ele>55</ele></trkpt>
   <trkpt lat="52.348326" lon="9.737763"><ele>51.25</ele></trkpt>
   <trkpt lat="52.348471" lon="9.737549"><ele>51</ele></trkpt>
   <trkpt lat="52.348574" lon="9.737396"><ele>51.25</ele></trkpt>
   <trkpt lat="52.349237" lon="9.736419"><ele>52.5</ele></trkpt>
   <trkpt lat="52.35012" lon="9.73509"><ele>51.75</ele></trkpt>
   <trkpt lat="52.350354" lon="9.734684"><ele>51.25</ele></trkpt>
   <trkpt lat="52.350436" lon="9.734519"><ele>51</ele></trkpt>
   <trkpt lat="52.350634" lon="9.73412"><ele>50.75</ele></trkpt>
   <trkpt lat="52.350879" lon="9.733507"><ele>50.75</ele></trkpt>
   <trkpt lat="52.351049" lon="9.732987"><ele>50</ele></trkpt>
   <trkpt lat="52.35124" lon="9.732245"><ele>50.25</ele></trkpt>
   <trkpt lat="52.351276" lon="9.732071"><ele>50.5</ele></trkpt>
   <trkpt lat="52.351545" lon="9.730795"><ele>51.75</ele></trkpt>
   <trkpt lat="52.351865" lon="9.729186"><ele>52.5</ele></trkpt>
   <trkpt lat="52.352065" lon="9.728068"><ele>54</ele></trkpt>
   <trkpt lat="52.352168" lon="9.727381"><ele>54.75</ele></trkpt>
   <trkpt lat="52.352213" lon="9.726998"><ele>55.25</ele></trkpt>
   <trkpt lat="52.352251" lon="9.726682"><ele>55.5</ele></trkpt>
   <trkpt lat="52.352285" lon="9.726406"><ele>55.5</ele></trkpt>
   <trkpt lat="52.352385" lon="9.725658"><ele>56</ele></trkpt>
   <trkpt lat="52.352395" lon="9.725588"><ele>56</ele></trkpt>
   <trkpt lat="52.352417" lon="9.725444"><ele>56</ele></trkpt>
   <trkpt lat="52.352542" lon="9.72465"><ele>55.75</ele></trkpt>
   <trkpt lat="52.352613" lon="9.724114"><ele>56</ele></trkpt>
   <trkpt lat="52.352662" lon="9.723745"><ele>56</ele></trkpt>
   <trkpt lat="52.352814" lon="9.722441"><ele>55</ele></trkpt>
   <trkpt lat="52.352862" lon="9.721982"><ele>54.75</ele></trkpt>
   <trkpt lat="52.352882" lon="9.721794"><ele>54.5</ele></trkpt>
   <trkpt lat="52.352893" lon="9.721661"><ele>54.75</ele></trkpt>
   <trkpt lat="52.352914" lon="9.721402"><ele>54.5</ele></trkpt>
   <trkpt lat="52.352951" lon="9.72092"><ele>54</ele></trkpt>
   <trkpt lat="52.352989" lon="9.720503"><ele>54</ele></trkpt>
   <trkpt lat="52.353027" lon="9.720086"><ele>54</ele></trkpt>
   <trkpt lat="52.353053" lon="9.719866"><ele>54</ele></trkpt>
   <trkpt lat="52.353088" lon="9.719561"><ele>54</ele></trkpt>
   <trkpt lat="52.353177" lon="9.718796"><ele>54</ele></trkpt>
   <trkpt lat="52.353203" lon="9.718599"><ele>54.25</ele></trkpt>
   <trkpt lat="52.353207" lon="9.718567"><ele>54.25</ele></trkpt>
   <trkpt lat="52.353233" lon="9.718369"><ele>54.25</ele></trkpt>
   <trkpt lat="52.353354" lon="9.717482"><ele>56</ele></trkpt>
   <trkpt lat="52.35354" lon="9.716067"><ele>59</ele></trkpt>
   <trkpt lat="52.3537" lon="9.714646"><ele>59.75</ele></trkpt>
   <trkpt lat="52.353883" lon="9.712934"><ele>59.5</ele></trkpt>
   <trkpt lat="52.353891" lon="9.712857"><ele>59.25</ele></trkpt>
   <trkpt lat="52.354077" lon="9.711134"><ele>58.25</ele></trkpt>
   <trkpt lat="52.354309" lon="9.708968"><ele>59</ele></trkpt>
   <trkpt lat="52.354496" lon="9.707299"><ele>59</ele></trkpt>
   <trkpt lat="52.355246" lon="9.700907"><ele>59.75</ele></trkpt>
   <trkpt lat="52.355342" lon="9.699988"><ele>60.25</ele></trkpt>
   <trkpt lat="52.355351" lon="9.699876"><ele>60.5</ele></trkpt>
   <trkpt lat="52.355406" lon="9.699233"><ele>62.25</ele></trkpt>
   <trkpt lat="52.355444" lon="9.698486"><ele>63</ele></trkpt>
   <trkpt lat="52.355457" lon="9.698013"><ele>63</ele></trkpt>
   <trkpt lat="52.35546" lon="9.697866"><ele>63</ele></trkpt>
   <trkpt lat="52.355462" lon="9.697434"><ele>62.75</ele></trkpt>
   <trkpt lat="52.355448" lon="9.69666"><ele>62.75</ele></trkpt>
   <trkpt lat="52.355405" lon="9.695845"><ele>61.5</ele></trkpt>
   <trkpt lat="52.355312" lon="9.694787"><ele>60.5</ele></trkpt>
   <trkpt lat="52.355233" lon="9.694019"><ele>60.25</ele></trkpt>
   <trkpt lat="52.355164" lon="9.693461"><ele>59.75</ele></trkpt>
   <trkpt lat="52.355119" lon="9.693112"><ele>59.75</ele></trkpt>
   <trkpt lat="52.355028" lon="9.692409"><ele>60</ele></trkpt>
   <trkpt lat="52.354929" lon="9.691755"><ele>60.25</ele></trkpt>
   <trkpt lat="52.35482" lon="9.691098"><ele>61</ele></trkpt>
   <trkpt lat="52.354705" lon="9.690479"><ele>61</ele></trkpt>
   <trkpt lat="52.354554" lon="9.689732"><ele>60.5</ele></trkpt>
   <trkpt lat="52.354441" lon="9.689226"><ele>60</ele></trkpt>
   <trkpt lat="52.354237" lon="9.688389"><ele>59</ele></trkpt>
   <trkpt lat="52.354019" lon="9.687592"><ele>59.75</ele></trkpt>
   <trkpt lat="52.353942" lon="9.687325"><ele>60</ele></trkpt>
   <trkpt lat="52.353769" lon="9.686759"><ele>60</ele></trkpt>
   <trkpt lat="52.353463" lon="9.68584"><ele>60.75</ele></trkpt>
   <trkpt lat="52.353371" lon="9.685573"><ele>61.25</ele></trkpt>
   <trkpt lat="52.353152" lon="9.684988"><ele>62.25</ele></trkpt>
   <trkpt lat="52.352905" lon="9.684363"><ele>63.5</ele></trkpt>
   <trkpt lat="52.352717" lon="9.683918"><ele>63.75</ele></trkpt>
   <trkpt lat="52.352315" lon="9.683029"><ele>63.75</ele></trkpt>
   <trkpt lat="52.352074" lon="9.682535"><ele>64.75</ele></trkpt>
   <trkpt lat="52.351958" lon="9.682313"><ele>65</ele></trkpt>
   <trkpt lat="52.351672" lon="9.681766"><ele>64.75</ele></trkpt>
   <trkpt lat="52.351169" lon="9.680888"><ele>61.5</ele></trkpt>
   <trkpt lat="52.351038" lon="9.680676"><ele>60.75</ele></trkpt>
   <trkpt lat="52.350776" lon="9.680264"><ele>60</ele></trkpt>
   <trkpt lat="52.350553" lon="9.679933"><ele>60.25</ele></trkpt>
   <trkpt lat="52.35022" lon="9.679448"><ele>61</ele></trkpt>
   <trkpt lat="52.350081" lon="9.679263"><ele>61.5</ele></trkpt>
   <trkpt lat="52.349813" lon="9.678905"><ele>62</ele></trkpt>
   <trkpt lat="52.349592" lon="9.678631"><ele>62</ele></trkpt>
   <trkpt lat="52.34933" lon="9.678313"><ele>62</ele></trkpt>
   <trkpt lat="52.349267" lon="9.678237"><ele>62</ele></trkpt>
   <trkpt lat="52.349087" lon="9.678033"><ele>62</ele></trkpt>
   <trkpt lat="52.348929" lon="9.677854"><ele>61.75</ele></trkpt>
   <trkpt lat="52.348431" lon="9.677325"><ele>60.25</ele></trkpt>
   <trkpt lat="52.34794" lon="9.676827"><ele>60</ele></trkpt>
   <trkpt lat="52.347587" lon="9.676453"><ele>60.25</ele></trkpt>
   <trkpt lat="52.347546" lon="9.676412"><ele>60.25</ele></trkpt>
   <trkpt lat="52.34745" lon="9.676315"><ele>60.5</ele></trkpt>
   <trkpt lat="52.344861" lon="9.673723"><ele>62</ele></trkpt>
   <trkpt lat="52.344568" lon="9.673405"><ele>62.5</ele></trkpt>
   <trkpt lat="52.344457" lon="9.673286"><ele>62.5</ele></trkpt>
   <trkpt lat="52.344417" lon="9.673241"><ele>62.5</ele></trkpt>
   <trkpt lat="52.34424" lon="9.67307"><ele>62.75</ele></trkpt>
   <trkpt lat="52.343695" lon="9.672527"><ele>63.5</ele></trkpt>
   <trkpt lat="52.343042" lon="9.671867"><ele>63.25</ele></trkpt>
   <trkpt lat="52.342312" lon="9.671145"><ele>62.75</ele></trkpt>
   <trkpt lat="52.341767" lon="9.670583"><ele>62.5</ele></trkpt>
   <trkpt lat="52.341699" lon="9.670512"><ele>62.25</ele></trkpt>
   <trkpt lat="52.341303" lon="9.670103"><ele>62.25</ele></trkpt>
   <trkpt lat="52.341159" lon="9.66996"><ele>62.25</ele></trkpt>
   <trkpt lat="52.3406" lon="9.669387"><ele>61.75</ele></trkpt>
   <trkpt lat="52.340009" lon="9.668803"><ele>61</ele></trkpt>
   <trkpt lat="52.339237" lon="9.668035"><ele>62.75</ele></trkpt>
   <trkpt lat="52.339058" lon="9.667856"><ele>63.5</ele></trkpt>
   <trkpt lat="52.338865" lon="9.667658"><ele>63.75</ele></trkpt>
   <trkpt lat="52.33662" lon="9.665392"><ele>63.5</ele></trkpt>
   <trkpt lat="52.336488" lon="9.66526"><ele>63.5</ele></trkpt>
   <trkpt lat="52.336308" lon="9.66508"><ele>63.5</ele></trkpt>
   <trkpt lat="52.335737" lon="9.664496"><ele>63.25</ele></trkpt>
   <trkpt lat="52.334246" lon="9.662994"><ele>60.5</ele></trkpt>
   <trkpt lat="52.333017" lon="9.66175"><ele>61</ele></trkpt>
   <trkpt lat="52.329776" lon="9.658418"><ele>60</ele></trkpt>
   <trkpt lat="52.329771" lon="9.658412"><ele>60</ele></trkpt>
   <trkpt lat="52.329637" lon="9.658273"><ele>60</ele></trkpt>
   <trkpt lat="52.329529" lon="9.658161"><ele>60</ele></trkpt>
   <trkpt lat="52.328604" lon="9.657187"><ele>59.25</ele></trkpt>
   <trkpt lat="52.327834" lon="9.656405"><ele>59.25</ele></trkpt>
   <trkpt lat="52.326931" lon="9.655493"><ele>59.5</ele></trkpt>
   <trkpt lat="52.32478" lon="9.653287"><ele>61</ele></trkpt>
   <trkpt lat="52.323567" lon="9.652059"><ele>61.5</ele></trkpt>
   <trkpt lat="52.322681" lon="9.651138"><ele>61.5</ele></trkpt>
   <trkpt lat="52.322631" lon="9.651086"><ele>61.25</ele></trkpt>
   <trkpt lat="52.322253" lon="9.650708"><ele>61</ele></trkpt>
   <trkpt lat="52.322209" lon="9.650665"><ele>61</ele></trkpt>
   <trkpt lat="52.321981" lon="9.650477"><ele>61.25</ele></trkpt>
   <trkpt lat="52.321836" lon="9.650357"><ele>61.5</ele></trkpt>
   <trkpt lat="52.321767" lon="9.650299"><ele>61.75</ele></trkpt>
   <trkpt lat="52.321154" lon="9.649833"><ele>62.5</ele></trkpt>
   <trkpt lat="52.320966" lon="9.649702"><ele>62.75</ele></trkpt>
   <trkpt lat="52.320638" lon="9.649472"><ele>63.5</ele></trkpt>
   <trkpt lat="52.32039" lon="9.649297"><ele>63.5</ele></trkpt>
   <trkpt lat="52.320345" lon="9.649265"><ele>63.5</ele></trkpt>
   <trkpt lat="52.320233" lon="9.64919"><ele>63.75</ele></trkpt>
   <trkpt lat="52.319292" lon="9.648574"><ele>64</ele></trkpt>
   <trkpt lat="52.31707" lon="9.647167"><ele>67.5</ele></trkpt>
   <trkpt lat="52.314665" lon="9.645652"><ele>68.75</ele></trkpt>
   <trkpt lat="52.312184" lon="9.644037"><ele>69.25</ele></trkpt>
   <trkpt lat="52.310823" lon="9.643236"><ele>65.75</ele></trkpt>
   <trkpt lat="52.31082" lon="9.643234"><ele>65.75</ele></trkpt>
   <trkpt lat="52.310792" lon="9.643217"><ele>65.75</ele></trkpt>
   <trkpt lat="52.309501" lon="9.642392"><ele>65</ele></trkpt>
   <trkpt lat="52.308649" lon="9.64186"><ele>65</ele></trkpt>
   <trkpt lat="52.305844" lon="9.640077"><ele>67.75</ele></trkpt>
   <trkpt lat="52.304995" lon="9.639547"><ele>68.25</ele></trkpt>
   <trkpt lat="52.304965" lon="9.639528"><ele>68.25</ele></trkpt>
   <trkpt lat="52.304936" lon="9.639509"><ele>68.25</ele></trkpt>
   <trkpt lat="52.303426" lon="9.638543"><ele>68</ele></trkpt>
   <trkpt lat="52.302524" lon="9.637984"><ele>67.5</ele></trkpt>
   <trkpt lat="52.301496" lon="9.637351"><ele>67.75</ele></trkpt>
   <trkpt lat="52.301186" lon="9.63716"><ele>67.25</ele></trkpt>
   <trkpt lat="52.300858" lon="9.636961"><ele>67</ele></trkpt>
   <trkpt lat="52.299882" lon="9.636349"><ele>66.75</ele></trkpt>
   <trkpt lat="52.299492" lon="9.636096"><ele>67.5</ele></trkpt>
   <trkpt lat="52.298508" lon="9.635477"><ele>67.5</ele></trkpt>
   <trkpt lat="52.297689" lon="9.634966"><ele>68.5</ele></trkpt>
   <trkpt lat="52.297513" lon="9.634847"><ele>68.75</ele></trkpt>
   <trkpt lat="52.296911" lon="9.634443"><ele>68.25</ele></trkpt>
   <trkpt lat="52.296825" lon="9.634389"><ele>68.25</ele></trkpt>
   <trkpt lat="52.296256" lon="9.634035"><ele>68.25</ele></trkpt>
   <trkpt lat="52.295718" lon="9.6337"><ele>68.75</ele></trkpt>
   <trkpt lat="52.295188" lon="9.633312"><ele>68</ele></trkpt>
   <trkpt lat="52.29466" lon="9.632908"><ele>68</ele></trkpt>
   <trkpt lat="52.294235" lon="9.632473"><ele>67.75</ele></trkpt>
   <trkpt lat="52.293954" lon="9.632097"><ele>67.25</ele></trkpt>
   <trkpt lat="52.293606" lon="9.6315"><ele>66.75</ele></trkpt>
   <trkpt lat="52.293263" lon="9.630841"><ele>66</ele></trkpt>
   <trkpt lat="52.292985" lon="9.630288"><ele>66</ele></trkpt>
   <trkpt lat="52.292752" lon="9.629692"><ele>65.5</ele></trkpt>
   <trkpt lat="52.292712" lon="9.62959"><ele>65.5</ele></trkpt>
   <trkpt lat="52.292549" lon="9.629173"><ele>65</ele></trkpt>
   <trkpt lat="52.291494" lon="9.626463"><ele>67</ele></trkpt>
   <trkpt lat="52.291375" lon="9.626153"><ele>67</ele></trkpt>
   <trkpt lat="52.291286" lon="9.625922"><ele>67.25</ele></trkpt>
   <trkpt lat="52.291219" lon="9.62575"><ele>67.5</ele></trkpt>
   <trkpt lat="52.289962" lon="9.622499"><ele>68.75</ele></trkpt>
   <trkpt lat="52.289296" lon="9.620776"><ele>70</ele></trkpt>
   <trkpt lat="52.286954" lon="9.614676"><ele>77.25</ele></trkpt>
   <trkpt lat="52.286258" lon="9.612836"><ele>79.5</ele></trkpt>
   <trkpt lat="52.286026" lon="9.612134"><ele>79.5</ele></trkpt>
   <trkpt lat="52.285859" lon="9.61159"><ele>79.25</ele></trkpt>
   <trkpt lat="52.285653" lon="9.610835"><ele>80.25</ele></trkpt>
   <trkpt lat="52.28546" lon="9.610068"><ele>80</ele></trkpt>
   <trkpt lat="52.285437" lon="9.60997"><ele>80</ele></trkpt>
   <trkpt lat="52.285294" lon="9.609377"><ele>80</ele></trkpt>
   <trkpt lat="52.285109" lon="9.608603"><ele>79.5</ele></trkpt>
   <trkpt lat="52.284954" lon="9.607958"><ele>79.25</ele></trkpt>
   <trkpt lat="52.284666" lon="9.606749"><ele>79</ele></trkpt>
   <trkpt lat="52.28347" lon="9.601735"><ele>76</ele></trkpt>
   <trkpt lat="52.283398" lon="9.601428"><ele>75.75</ele></trkpt>
   <trkpt lat="52.282401" lon="9.59729"><ele>79.75</ele></trkpt>
   <trkpt lat="52.282205" lon="9.596482"><ele>79.5</ele></trkpt>
   <trkpt lat="52.280535" lon="9.589436"><ele>87</ele></trkpt>
   <trkpt lat="52.280376" lon="9.58859"><ele>87.75</ele></trkpt>
   <trkpt lat="52.280258" lon="9.587812"><ele>88</ele></trkpt>
   <trkpt lat="52.280158" lon="9.586804"><ele>88.5</ele></trkpt>
   <trkpt lat="52.280155" lon="9.586771"><ele>88.5</ele></trkpt>
   <trkpt lat="52.280005" lon="9.583951"><ele>86</ele></trkpt>
   <trkpt lat="52.27999" lon="9.583651"><ele>85.75</ele></trkpt>
   <trkpt lat="52.279976" lon="9.583329"><ele>85.75</ele></trkpt>
   <trkpt lat="52.279969" lon="9.583169"><ele>86</ele></trkpt>
   <trkpt lat="52.279702" lon="9.57725"><ele>92.5</ele></trkpt>
   <trkpt lat="52.279648" lon="9.576014"><ele>93</ele></trkpt>
   <trkpt lat="52.279612" lon="9.575268"><ele>93.25</ele></trkpt>
   <trkpt lat="52.279556" lon="9.574073"><ele>93.25</ele></trkpt>
   <trkpt lat="52.279552" lon="9.573984"><ele>93.25</ele></trkpt>
   <trkpt lat="52.279523" lon="9.573339"><ele>93.25</ele></trkpt>
   <trkpt lat="52.279482" lon="9.572401"><ele>94.25</ele></trkpt>
   <trkpt lat="52.279468" lon="9.57205"><ele>94.5</ele></trkpt>
   <trkpt lat="52.279431" lon="9.571196"><ele>95.5</ele></trkpt>
   <trkpt lat="52.279421" lon="9.570929"><ele>95.75</ele></trkpt>
   <trkpt lat="52.279413" lon="9.570184"><ele>96</ele></trkpt>
   <trkpt lat="52.279414" lon="9.570115"><ele>96.25</ele></trkpt>
   <trkpt lat="52.27943" lon="9.56947"><ele>96.75</ele></trkpt>
   <trkpt lat="52.279441" lon="9.569285"><ele>96.75</ele></trkpt>
   <trkpt lat="52.279531" lon="9.568271"><ele>97</ele></trkpt>
   <trkpt lat="52.279686" lon="9.567287"><ele>98</ele></trkpt>
   <trkpt lat="52.279842" lon="9.566589"><ele>98.75</ele></trkpt>
   <trkpt lat="52.280001" lon="9.566049"><ele>98.75</ele></trkpt>
   <trkpt lat="52.280139" lon="9.565624"><ele>98.75</ele></trkpt>
   <trkpt lat="52.280635" lon="9.564123"><ele>98.25</ele></trkpt>
   <trkpt lat="52.280703" lon="9.563926"><ele>98.25</ele></trkpt>
   <trkpt lat="52.280787" lon="9.563682"><ele>98</ele></trkpt>
   <trkpt lat="52.281395" lon="9.561873"><ele>98.5</ele></trkpt>
   <trkpt lat="52.281687" lon="9.560907"><ele>97.75</ele></trkpt>
   <trkpt lat="52.28184" lon="9.560334"><ele>97.5</ele></trkpt>
   <trkpt lat="52.281938" lon="9.559936"><ele>97.25</ele></trkpt>
   <trkpt lat="52.282136" lon="9.558936"><ele>96.5</ele></trkpt>
   <trkpt lat="52.28227" lon="9.557938"><ele>96.25</ele></trkpt>
   <trkpt lat="52.282334" lon="9.557056"><ele>96.25</ele></trkpt>
   <trkpt lat="52.282355" lon="9.556279"><ele>96.25</ele></trkpt>
   <trkpt lat="52.282338" lon="9.555485"><ele>96.25</ele></trkpt>
   <trkpt lat="52.282253" lon="9.554439"><ele>95.75</ele></trkpt>
   <trkpt lat="52.28216" lon="9.553756"><ele>95.75</ele></trkpt>
   <trkpt lat="52.28204" lon="9.553125"><ele>96</ele></trkpt>
   <trkpt lat="52.281854" lon="9.552289"><ele>96.5</ele></trkpt>
   <trkpt lat="52.281597" lon="9.551434"><ele>96.75</ele></trkpt>
   <trkpt lat="52.281252" lon="9.550508"><ele>96.75</ele></trkpt>
   <trkpt lat="52.279955" lon="9.547278"><ele>97.75</ele></trkpt>
   <trkpt lat="52.279675" lon="9.546535"><ele>97.5</ele></trkpt>
   <trkpt lat="52.279487" lon="9.545976"><ele>97.25</ele></trkpt>
   <trkpt lat="52.2793" lon="9.545305"><ele>97.5</ele></trkpt>
   <trkpt lat="52.279101" lon="9.54433"><ele>96.5</ele></trkpt>
   <trkpt lat="52.278953" lon="9.543323"><ele>95.25</ele></trkpt>
   <trkpt lat="52.278827" lon="9.541954"><ele>94</ele></trkpt>
   <trkpt lat="52.278571" lon="9.538859"><ele>97</ele></trkpt>
   <trkpt lat="52.277915" lon="9.530633"><ele>108.25</ele></trkpt>
   <trkpt lat="52.277806" lon="9.529279"><ele>111.5</ele></trkpt>
   <trkpt lat="52.277748" lon="9.528107"><ele>111.25</ele></trkpt>
   <trkpt lat="52.277773" lon="9.524541"><ele>109.5</ele></trkpt>
   <trkpt lat="52.277807" lon="9.521464"><ele>101</ele></trkpt>
   <trkpt lat="52.277817" lon="9.520217"><ele>101.75</ele></trkpt>
   <trkpt lat="52.27788" lon="9.519164"><ele>104.75</ele></trkpt>
   <trkpt lat="52.277993" lon="9.518096"><ele>106.75</ele></trkpt>
   <trkpt lat="52.278181" lon="9.516824"><ele>106</ele></trkpt>
   <trkpt lat="52.278384" lon="9.515721"><ele>107</ele></trkpt>
   <trkpt lat="52.278401" lon="9.515614"><ele>107</ele></trkpt>
   <trkpt lat="52.278478" lon="9.515126"><ele>107.5</ele></trkpt>
   <trkpt lat="52.278522" lon="9.514878"><ele>107.75</ele></trkpt>
   <trkpt lat="52.278783" lon="9.513401"><ele>107.75</ele></trkpt>
   <trkpt lat="52.278905" lon="9.512672"><ele>107.75</ele></trkpt>
   <trkpt lat="52.278926" lon="9.512558"><ele>107.75</ele></trkpt>
   <trkpt lat="52.279039" lon="9.511894"><ele>107.75</ele></trkpt>
   <trkpt lat="52.279117" lon="9.511433"><ele>108</ele></trkpt>
   <trkpt lat="52.279368" lon="9.509943"><ele>110</ele></trkpt>
   <trkpt lat="52.2794" lon="9.509757"><ele>110.5</ele></trkpt>
   <trkpt lat="52.279444" lon="9.509503"><ele>111</ele></trkpt>
   <trkpt lat="52.279762" lon="9.507726"><ele>113.25</ele></trkpt>
   <trkpt lat="52.279842" lon="9.507243"><ele>114.25</ele></trkpt>
   <trkpt lat="52.27988" lon="9.506991"><ele>114.75</ele></trkpt>
   <trkpt lat="52.279933" lon="9.506712"><ele>115.25</ele></trkpt>
   <trkpt lat="52.280303" lon="9.504587"><ele>110.25</ele></trkpt>
   <trkpt lat="52.280396" lon="9.504114"><ele>110</ele></trkpt>
   <trkpt lat="52.280566" lon="9.503397"><ele>107.5</ele></trkpt>
   <trkpt lat="52.280656" lon="9.503078"><ele>106</ele></trkpt>
   <trkpt lat="52.280862" lon="9.502415"><ele>103.75</ele></trkpt>
   <trkpt lat="52.281186" lon="9.501557"><ele>103.25</ele></trkpt>
   <trkpt lat="52.281462" lon="9.500954"><ele>102.75</ele></trkpt>
   <trkpt lat="52.281717" lon="9.500457"><ele>102.25</ele></trkpt>
   <trkpt lat="52.282186" lon="9.499735"><ele>103.75</ele></trkpt>
   <trkpt lat="52.282496" lon="9.49931"><ele>104.5</ele></trkpt>
   <trkpt lat="52.282823" lon="9.498939"><ele>105</ele></trkpt>
   <trkpt lat="52.282955" lon="9.498802"><ele>105</ele></trkpt>
   <trkpt lat="52.283001" lon="9.498755"><ele>105</ele></trkpt>
   <trkpt lat="52.285679" lon="9.496104"><ele>103.5</ele></trkpt>
   <trkpt lat="52.285683" lon="9.496101"><ele>103.5</ele></trkpt>
   <trkpt lat="52.285843" lon="9.495943"><ele>103.5</ele></trkpt>
   <trkpt lat="52.285915" lon="9.495871"><ele>103.5</ele></trkpt>
   <trkpt lat="52.285916" lon="9.495871"><ele>103.5</ele></trkpt>
   <trkpt lat="52.286988" lon="9.494813"><ele>101</ele></trkpt>
   <trkpt lat="52.287936" lon="9.493871"><ele>102.5</ele></trkpt>
   <trkpt lat="52.289822" lon="9.491991"><ele>104.25</ele></trkpt>
   <trkpt lat="52.290931" lon="9.490911"><ele>104.75</ele></trkpt>
   <trkpt lat="52.292347" lon="9.489527"><ele>104.75</ele></trkpt>
   <trkpt lat="52.292839" lon="9.48893"><ele>103</ele></trkpt>
   <trkpt lat="52.292923" lon="9.488828"><ele>102.75</ele></trkpt>
   <trkpt lat="52.293022" lon="9.488708"><ele>102.5</ele></trkpt>
   <trkpt lat="52.293462" lon="9.488095"><ele>102</ele></trkpt>
   <trkpt lat="52.297554" lon="9.480633"><ele>96</ele></trkpt>
   <trkpt lat="52.301226" lon="9.473891"><ele>96.75</ele></trkpt>
   <trkpt lat="52.301323" lon="9.473714"><ele>96.75</ele></trkpt>
   <trkpt lat="52.30164" lon="9.473137"><ele>97.25</ele></trkpt>
   <trkpt lat="52.301685" lon="9.473055"><ele>97.25</ele></trkpt>
   <trkpt lat="52.302347" lon="9.471851"><ele>97.25</ele></trkpt>
   <trkpt lat="52.303148" lon="9.470372"><ele>100</ele></trkpt>
   <trkpt lat="52.304635" lon="9.467679"><ele>99.5</ele></trkpt>
   <trkpt lat="52.30495" lon="9.467085"><ele>99.5</ele></trkpt>
   <trkpt lat="52.304951" lon="9.467085"><ele>99.5</ele></trkpt>
   <trkpt lat="52.304967" lon="9.467052"><ele>99.5</ele></trkpt>
   <trkpt lat="52.305405" lon="9.466237"><ele>100</ele></trkpt>
   <trkpt lat="52.305538" lon="9.465989"><ele>100.25</ele></trkpt>
   <trkpt lat="52.305722" lon="9.465642"><ele>100.25</ele></trkpt>
   <trkpt lat="52.305974" lon="9.465173"><ele>100</ele></trkpt>
   <trkpt lat="52.306458" lon="9.464325"><ele>98.75</ele></trkpt>
   <trkpt lat="52.307477" lon="9.462477"><ele>98</ele></trkpt>
   <trkpt lat="52.308558" lon="9.460277"><ele>94.5</ele></trkpt>
   <trkpt lat="52.308661" lon="9.460063"><ele>94.5</ele></trkpt>
   <trkpt lat="52.311807" lon="9.453603"><ele>97.5</ele></trkpt>
   <trkpt lat="52.311911" lon="9.453389"><ele>97.5</ele></trkpt>
   <trkpt lat="52.312011" lon="9.453185"><ele>97.75</ele></trkpt>
   <trkpt lat="52.312225" lon="9.452747"><ele>98</ele></trkpt>
   <trkpt lat="52.315068" lon="9.44691"><ele>96.25</ele></trkpt>
   <trkpt lat="52.315523" lon="9.44608"><ele>95.75</ele></trkpt>
   <trkpt lat="52.316062" lon="9.445243"><ele>94.75</ele></trkpt>
   <trkpt lat="52.316661" lon="9.444465"><ele>93</ele></trkpt>
   <trkpt lat="52.317991" lon="9.442927"><ele>89.5</ele></trkpt>
   <trkpt lat="52.320027" lon="9.440589"><ele>89.25</ele></trkpt>
   <trkpt lat="52.321833" lon="9.438499"><ele>91</ele></trkpt>
   <trkpt lat="52.322308" lon="9.437898"><ele>90.75</ele></trkpt>
   <trkpt lat="52.322443" lon="9.437673"><ele>90.75</ele></trkpt>
   <trkpt lat="52.322565" lon="9.437528"><ele>90.5</ele></trkpt>
   <trkpt lat="52.322714" lon="9.437277"><ele>90.25</ele></trkpt>
   <trkpt lat="52.322813" lon="9.43714"><ele>90</ele></trkpt>
   <trkpt lat="52.322987" lon="9.43684"><ele>89.5</ele></trkpt>
   <trkpt lat="52.323029" lon="9.436775"><ele>89.5</ele></trkpt>
   <trkpt lat="52.32307" lon="9.436694"><ele>89.5</ele></trkpt>
   <trkpt lat="52.323128" lon="9.436593"><ele>89.5</ele></trkpt>
   <trkpt lat="52.323132" lon="9.436586"><ele>89.5</ele></trkpt>
   <trkpt lat="52.323379" lon="9.436113"><ele>89.5</ele></trkpt>
   <trkpt lat="52.323595" lon="9.435664"><ele>89</ele></trkpt>
   <trkpt lat="52.323847" lon="9.435104"><ele>88.5</ele></trkpt>
   <trkpt lat="52.324577" lon="9.433441"><ele>85.5</ele></trkpt>
   <trkpt lat="52.324772" lon="9.432995"><ele>85</ele></trkpt>
   <trkpt lat="52.325103" lon="9.432206"><ele>84.75</ele></trkpt>
   <trkpt lat="52.32552" lon="9.431262"><ele>84.5</ele></trkpt>
   <trkpt lat="52.325601" lon="9.43107"><ele>84.25</ele></trkpt>
   <trkpt lat="52.328458" lon="9.424506"><ele>78.5</ele></trkpt>
   <trkpt lat="52.328737" lon="9.423916"><ele>78</ele></trkpt>
   <trkpt lat="52.329006" lon="9.423402"><ele>78</ele></trkpt>
   <trkpt lat="52.329311" lon="9.422858"><ele>77.75</ele></trkpt>
   <trkpt lat="52.331147" lon="9.419668"><ele>76</ele></trkpt>
   <trkpt lat="52.331632" lon="9.418833"><ele>77.25</ele></trkpt>
   <trkpt lat="52.331696" lon="9.418725"><ele>77.25</ele></trkpt>
   <trkpt lat="52.331942" lon="9.418295"><ele>77.5</ele></trkpt>
   <trkpt lat="52.33199" lon="9.418237"><ele>77.75</ele></trkpt>
   <trkpt lat="52.332236" lon="9.41779"><ele>78</ele></trkpt>
   <trkpt lat="52.333274" lon="9.41598"><ele>77.75</ele></trkpt>
   <trkpt lat="52.333512" lon="9.415582"><ele>78</ele></trkpt>
   <trkpt lat="52.334364" lon="9.414093"><ele>77.25</ele></trkpt>
   <trkpt lat="52.334397" lon="9.414047"><ele>77.25</ele></trkpt>
   <trkpt lat="52.334998" lon="9.413003"><ele>75.75</ele></trkpt>
   <trkpt lat="52.335056" lon="9.4129"><ele>75.75</ele></trkpt>
   <trkpt lat="52.335105" lon="9.412813"><ele>76</ele></trkpt>
   <trkpt lat="52.336224" lon="9.410869"><ele>75</ele></trkpt>
   <trkpt lat="52.336344" lon="9.410666"><ele>74.75</ele></trkpt>
   <trkpt lat="52.337597" lon="9.408488"><ele>71.75</ele></trkpt>
   <trkpt lat="52.338163" lon="9.407453"><ele>72</ele></trkpt>
   <trkpt lat="52.338483" lon="9.40677"><ele>72.5</ele></trkpt>
   <trkpt lat="52.338712" lon="9.406247"><ele>72.25</ele></trkpt>
   <trkpt lat="52.338944" lon="9.405651"><ele>71.5</ele></trkpt>
   <trkpt lat="52.339165" lon="9.405045"><ele>71</ele></trkpt>
   <trkpt lat="52.339409" lon="9.404286"><ele>72</ele></trkpt>
   <trkpt lat="52.33961" lon="9.403588"><ele>72.25</ele></trkpt>
   <trkpt lat="52.339727" lon="9.403136"><ele>72.25</ele></trkpt>
   <trkpt lat="52.33975" lon="9.403044"><ele>72.25</ele></trkpt>
   <trkpt lat="52.339888" lon="9.402443"><ele>72.5</ele></trkpt>
   <trkpt lat="52.340034" lon="9.401749"><ele>72.5</ele></trkpt>
   <trkpt lat="52.34018" lon="9.401015"><ele>71.75</ele></trkpt>
   <trkpt lat="52.340751" lon="9.398122"><ele>68.25</ele></trkpt>
   <trkpt lat="52.340998" lon="9.396862"><ele>65.25</ele></trkpt>
   <trkpt lat="52.341123" lon="9.396093"><ele>64</ele></trkpt>
   <trkpt lat="52.34122" lon="9.395322"><ele>63.5</ele></trkpt>
   <trkpt lat="52.341266" lon="9.394854"><ele>63.25</ele></trkpt>
   <trkpt lat="52.341312" lon="9.394207"><ele>62.75</ele></trkpt>
   <trkpt lat="52.341343" lon="9.393556"><ele>62.25</ele></trkpt>
   <trkpt lat="52.341343" lon="9.392882"><ele>62.5</ele></trkpt>
   <trkpt lat="52.341334" lon="9.392211"><ele>62.75</ele></trkpt>
   <trkpt lat="52.341233" lon="9.389918"><ele>65.25</ele></trkpt>
   <trkpt lat="52.341207" lon="9.389358"><ele>65</ele></trkpt>
   <trkpt lat="52.341202" lon="9.389237"><ele>65</ele></trkpt>
   <trkpt lat="52.341155" lon="9.388155"><ele>64.75</ele></trkpt>
   <trkpt lat="52.341037" lon="9.385418"><ele>65</ele></trkpt>
   <trkpt lat="52.341028" lon="9.384826"><ele>65</ele></trkpt>
   <trkpt lat="52.341042" lon="9.38422"><ele>65.5</ele></trkpt>
   <trkpt lat="52.341081" lon="9.383744"><ele>65.5</ele></trkpt>
   <trkpt lat="52.341156" lon="9.383151"><ele>65</ele></trkpt>
   <trkpt lat="52.341231" lon="9.382718"><ele>64.75</ele></trkpt>
   <trkpt lat="52.341341" lon="9.382238"><ele>64.75</ele></trkpt>
   <trkpt lat="52.341449" lon="9.381829"><ele>64.5</ele></trkpt>
   <trkpt lat="52.34158" lon="9.381429"><ele>64.5</ele></trkpt>
   <trkpt lat="52.341725" lon="9.381049"><ele>64.25</ele></trkpt>
   <trkpt lat="52.34177" lon="9.380935"><ele>64.25</ele></trkpt>
   <trkpt lat="52.341824" lon="9.380811"><ele>64.25</ele></trkpt>
   <trkpt lat="52.34207" lon="9.38032"><ele>63.25</ele></trkpt>
   <trkpt lat="52.342261" lon="9.379986"><ele>62.25</ele></trkpt>
   <trkpt lat="52.342475" lon="9.379661"><ele>61.5</ele></trkpt>
   <trkpt lat="52.342663" lon="9.379421"><ele>61.25</ele></trkpt>
   <trkpt lat="52.342906" lon="9.379171"><ele>61</ele></trkpt>
   <trkpt lat="52.343155" lon="9.378967"><ele>60.25</ele></trkpt>
   <trkpt lat="52.343747" lon="9.378589"><ele>59.5</ele></trkpt>
   <trkpt lat="52.344673" lon="9.378024"><ele>59</ele></trkpt>
   <trkpt lat="52.344757" lon="9.377982"><ele>59.25</ele></trkpt>
   <trkpt lat="52.344834" lon="9.377944"><ele>59.25</ele></trkpt>
   <trkpt lat="52.345122" lon="9.377832"><ele>59.25</ele></trkpt>
   <trkpt lat="52.345393" lon="9.377778"><ele>58.75</ele></trkpt>
   <trkpt lat="52.345593" lon="9.377762"><ele>58.5</ele></trkpt>
   <trkpt lat="52.345791" lon="9.377763"><ele>58.25</ele></trkpt>
   <trkpt lat="52.346038" lon="9.377789"><ele>58</ele></trkpt>
   <trkpt lat="52.346513" lon="9.377866"><ele>57.5</ele></trkpt>
   <trkpt lat="52.3469" lon="9.377915"><ele>57</ele></trkpt>
   <trkpt lat="52.347143" lon="9.377919"><ele>56.75</ele></trkpt>
   <trkpt lat="52.354244" lon="9.377747"><ele>55.75</ele></trkpt>
   <trkpt lat="52.357125" lon="9.377679"><ele>54.25</ele></trkpt>
   <trkpt lat="52.367916" lon="9.377411"><ele>54.25</ele></trkpt>
   <trkpt lat="52.36843" lon="9.377421"><ele>55</ele></trkpt>
   <trkpt lat="52.368933" lon="9.377466"><ele>56.25</ele></trkpt>
   <trkpt lat="52.368987" lon="9.377476"><ele>56.5</ele></trkpt>
   <trkpt lat="52.369281" lon="9.377529"><ele>56.75</ele></trkpt>
   <trkpt lat="52.369587" lon="9.377611"><ele>56.25</ele></trkpt>
   <trkpt lat="52.369869" lon="9.377703"><ele>55.75</ele></trkpt>
   <trkpt lat="52.370139" lon="9.377813"><ele>55.25</ele></trkpt>
   <trkpt lat="52.370395" lon="9.377936"><ele>55</ele></trkpt>
   <trkpt lat="52.370637" lon="9.37807"><ele>54.5</ele></trkpt>
   <trkpt lat="52.371044" lon="9.378329"><ele>53.75</ele></trkpt>
   <trkpt lat="52.371446" lon="9.378649"><ele>53.25</ele></trkpt>
   <trkpt lat="52.371959" lon="9.37914"><ele>52.5</ele></trkpt>
   <trkpt lat="52.372447" lon="9.379704"><ele>52.5</ele></trkpt>
   <trkpt lat="52.372933" lon="9.380317"><ele>52.25</ele></trkpt>
   <trkpt lat="52.373565" lon="9.381161"><ele>52.25</ele></trkpt>
   <trkpt lat="52.373921" lon="9.381635"><ele>52.75</ele></trkpt>
   <trkpt lat="52.375135" lon="9.383261"><ele>51.75</ele></trkpt>
   <trkpt lat="52.375174" lon="9.383312"><ele>51.75</ele></trkpt>
   <trkpt lat="52.375328" lon="9.383535"><ele>51.75</ele></trkpt>
   <trkpt lat="52.375767" lon="9.384284"><ele>53.25</ele></trkpt>
   <trkpt lat="52.375828" lon="9.384378"><ele>53.5</ele></trkpt>
   <trkpt lat="52.376018" lon="9.384671"><ele>53.75</ele></trkpt>
   <trkpt lat="52.376243" lon="9.384983"><ele>53.5</ele></trkpt>
   <trkpt lat="52.376291" lon="9.385046"><ele>53.25</ele></trkpt>
   <trkpt lat="52.376425" lon="9.385221"><ele>52.75</ele></trkpt>
   <trkpt lat="52.376638" lon="9.38546"><ele>52</ele></trkpt>
   <trkpt lat="52.376783" lon="9.385607"><ele>52</ele></trkpt>
   <trkpt lat="52.377181" lon="9.386125"><ele>52.25</ele></trkpt>
   <trkpt lat="52.37721" lon="9.386168"><ele>52.25</ele></trkpt>
   <trkpt lat="52.378012" lon="9.387298"><ele>54.75</ele></trkpt>
   <trkpt lat="52.378689" lon="9.388248"><ele>54.5</ele></trkpt>
  </trkseg>
 </trk>
</gpx>