<?xml version="1.0" encoding="UTF-8"?>
<!-- track-length = 38170 filtered ascend = 701 plain-ascend = 636 cost=38170 energy=.6kwh time=50m 54s -->
<gpx 
 xmlns="http://www.topografix.com/GPX/1/1" 
 xmlns:xsi="http://www.w3.org/2001/XMLSchema-instance" 
 xsi:schemaLocation="http://www.topografix.com/GPX/1/1 http://www.topografix.com/GPX/1/1/gpx.xsd" 
 creator="BRouter-1.7.0" version="1.1">
 <trk>
  <name>Heidenau - Altenberg</name>
  <trkseg>
   <trkpt lon="13.857839" lat="50.981658"><ele>119.0</ele></trkpt>
   <trkpt lon="13.858328" lat="50.981364"><ele>119.75</ele></trkpt>
   <trkpt lon="13.858528" lat="50.981245"><ele>120.0</ele></trkpt>
   <trkpt lon="13.859022" lat="50.980942"><ele>120.0</ele></trkpt>
   <trkpt lon="13.859058" lat="50.980918"><ele>119.75</ele></trkpt>
   <trkpt lon="13.859338" lat="50.980744"><ele>119.75</ele></trkpt>
   <trkpt lon="13.859555" lat="50.980561"><ele>119.5</ele></trkpt>
   <trkpt lon="13.859644" lat="50.980477"><ele>119.5</ele></trkpt>
   <trkpt lon="13.859727" lat="50.980365"><ele>119.5</ele></trkpt>
   <trkpt lon="13.859810" lat="50.980209"><ele>119.75</ele></trkpt>
   <trkpt lon="13.859889" lat="50.980065"><ele>119.75</ele></trkpt>
   <trkpt lon="13.859967" lat="50.979867"><ele>120.0</ele></trkpt>
   <trkpt lon="13.859982" lat="50.979681"><ele>120.25</ele></trkpt>
   <trkpt lon="13.859967" lat="50.979485"><ele>120.5</ele></trkpt>
   <trkpt lon="13.859928" lat="50.979341"><ele>120.75</ele></trkpt>
   <trkpt lon="13.859857" lat="50.979175"><ele>120.75</ele></trkpt>
   <trkpt lon="13.859778" lat="50.979038"><ele>120.75</ele></trkpt>
   <trkpt lon="13.859609" lat="50.978701"><ele>120.25</ele></trkpt>
   <trkpt lon="13.859595" lat="50.978674"><ele>120.25</ele></trkpt>
   <trkpt lon="13.859330" lat="50.978151"><ele>120.0</ele></trkpt>
   <trkpt lon="13.859300" lat="50.977908"><ele>120.0</ele></trkpt>
   <trkpt lon="13.859305" lat="50.977667"><ele>120.0</ele></trkpt>
   <trkpt lon="13.859364" lat="50.977410"><ele>120.25</ele></trkpt>
   <trkpt lon="13.859482" lat="50.977163"><ele>121.0</ele></trkpt>
   <trkpt lon="13.859704" lat="50.976870"><ele>122.0</ele></trkpt>
   <trkpt lon="13.860123" lat="50.976392"><ele>123.5</ele></trkpt>
   <trkpt lon="13.860264" lat="50.976194"><ele>123.75</ele></trkpt>
   <trkpt lon="13.860342" lat="50.976047"><ele>124.0</ele></trkpt>
   <trkpt lon="13.860399" lat="50.975900"><ele>124.25</ele></trkpt>
   <trkpt lon="13.860436" lat="50.975767"><ele>124.75</ele></trkpt>
   <trkpt lon="13.860451" lat="50.975632"><ele>125.75</ele></trkpt>
   <trkpt lon="13.860445" lat="50.975377"><ele>127.25</ele></trkpt>
   <trkpt lon="13.860418" lat="50.975250"><ele>128.0</ele></trkpt>
   <trkpt lon="13.860362" lat="50.975103"><ele>129.0</ele></trkpt>
   <trkpt lon="13.860292" lat="50.974958"><ele>130.0</ele></trkpt>
   <trkpt lon="13.860190" lat="50.974731"><ele>130.0</ele></trkpt>
   <trkpt lon="13.859973" lat="50.974477"><ele>130.25</ele></trkpt>
   <trkpt lon="13.859667" lat="50.974250"><ele>131.5</ele></trkpt>
   <trkpt lon="13.859157" lat="50.974007"><ele>133.5</ele></trkpt>
   <trkpt lon="13.858629" lat="50.973855"><ele>134.5</ele></trkpt>
   <trkpt lon="13.857324" lat="50.973489"><ele>135.25</ele></trkpt>
   <trkpt lon="13.856882" lat="50.973339"><ele>134.25</ele></trkpt>
   <trkpt lon="13.855974" lat="50.972919"><ele>135.75</ele></trkpt>
   <trkpt lon="13.853738" lat="50.971680"><ele>140.25</ele></trkpt>
   <trkpt lon="13.853311" lat="50.971309"><ele>140.75</ele></trkpt>
   <trkpt lon="13.852942" lat="50.970921"><ele>144.25</ele></trkpt>
   <trkpt lon="13.852696" lat="50.970601"><ele>148.0</ele></trkpt>
   <trkpt lon="13.852480" lat="50.970224"><ele>151.5</ele></trkpt>
   <trkpt lon="13.852378" lat="50.969743"><ele>151.75</ele></trkpt>
   <trkpt lon="13.852284" lat="50.969111"><ele>151.25</ele></trkpt>
   <trkpt lon="13.852283" lat="50.967313"><ele>142.75</ele></trkpt>
   <trkpt lon="13.852306" lat="50.967022"><ele>141.25</ele></trkpt>
   <trkpt lon="13.852313" lat="50.966873"><ele>140.5</ele></trkpt>
   <trkpt lon="13.852417" lat="50.966438"><ele>139.25</ele></trkpt>
   <trkpt lon="13.852629" lat="50.965912"><ele>139.75</ele></trkpt>
   <trkpt lon="13.852952" lat="50.965407"><ele>139.5</ele></trkpt>
   <trkpt lon="13.853264" lat="50.965041"><ele>139.0</ele></trkpt>
   <trkpt lon="13.853665" lat="50.964692"><ele>140.25</ele></trkpt>
   <trkpt lon="13.855008" lat="50.963753"><ele>137.25</ele></trkpt>
   <trkpt lon="13.855163" lat="50.963636"><ele>138.0</ele></trkpt>
   <trkpt lon="13.855327" lat="50.963488"><ele>138.75</ele></trkpt>
   <trkpt lon="13.855459" lat="50.963344"><ele>139.5</ele></trkpt>
   <trkpt lon="13.855601" lat="50.963143"><ele>139.25</ele></trkpt>
   <trkpt lon="13.855745" lat="50.962840"><ele>139.25</ele></trkpt>
   <trkpt lon="13.855768" lat="50.962773"><ele>139.5</ele></trkpt>
   <trkpt lon="13.855874" lat="50.962297"><ele>138.75</ele></trkpt>
   <trkpt lon="13.855889" lat="50.962194"><ele>138.25</ele></trkpt>
   <trkpt lon="13.855883" lat="50.962081"><ele>137.75</ele></trkpt>
   <trkpt lon="13.855872" lat="50.961999"><ele>137.5</ele></trkpt>
   <trkpt lon="13.855809" lat="50.961684"><ele>136.0</ele></trkpt>
   <trkpt lon="13.855704" lat="50.961398"><ele>135.5</ele></trkpt>
   <trkpt lon="13.855632" lat="50.961244"><ele>135.25</ele></trkpt>
   <trkpt lon="13.855583" lat="50.961140"><ele>135.25</ele></trkpt>
   <trkpt lon="13.855248" lat="50.960548"><ele>135.0</ele></trkpt>
   <trkpt lon="13.855036" lat="50.960245"><ele>135.0</ele></trkpt>
   <trkpt lon="13.854908" lat="50.960083"><ele>135.0</ele></trkpt>
   <trkpt lon="13.854889" lat="50.960058"><ele>135.0</ele></trkpt>
   <trkpt lon="13.854496" lat="50.959601"><ele>136.0</ele></trkpt>
   <trkpt lon="13.854364" lat="50.959435"><ele>136.25</ele></trkpt>
   <trkpt lon="13.854247" lat="50.959263"><ele>136.75</ele></trkpt>
   <trkpt lon="13.854123" lat="50.959049"><ele>137.25</ele></trkpt>
   <trkpt lon="13.854088" lat="50.958954"><ele>137.5</ele></trkpt>
   <trkpt lon="13.854004" lat="50.958643"><ele>138.5</ele></trkpt>
   <trkpt lon="13.853984" lat="50.958480"><ele>139.0</ele></trkpt>
   <trkpt lon="13.853980" lat="50.958289"><ele>139.5</ele></trkpt>
   <trkpt lon="13.854003" lat="50.957793"><ele>141.25</ele></trkpt>
   <trkpt lon="13.854013" lat="50.957586"><ele>142.0</ele></trkpt>
   <trkpt lon="13.853995" lat="50.957351"><ele>143.5</ele></trkpt>
   <trkpt lon="13.853963" lat="50.957185"><ele>145.0</ele></trkpt>
   <trkpt lon="13.853919" lat="50.957020"><ele>146.5</ele></trkpt>
   <trkpt lon="13.853848" lat="50.956837"><ele>148.5</ele></trkpt>
   <trkpt lon="13.853551" lat="50.956343"><ele>151.0</ele></trkpt>
   <trkpt lon="13.852835" lat="50.955341"><ele>155.0</ele></trkpt>
   <trkpt lon="13.852520" lat="50.954923"><ele>158.25</ele></trkpt>
   <trkpt lon="13.851794" lat="50.954202"><ele>163.0</ele></trkpt>
   <trkpt lon="13.851358" lat="50.953751"><ele>161.5</ele></trkpt>
   <trkpt lon="13.851166" lat="50.953514"><ele>161.25</ele></trkpt>
   <trkpt lon="13.850997" lat="50.953221"><ele>160.75</ele></trkpt>
   <trkpt lon="13.850907" lat="50.952971"><ele>159.5</ele></trkpt>
   <trkpt lon="13.850869" lat="50.952815"><ele>158.75</ele></trkpt>
   <trkpt lon="13.850852" lat="50.952608"><ele>158.0</ele></trkpt>
   <trkpt lon="13.850865" lat="50.952342"><ele>158.0</ele></trkpt>
   <trkpt lon="13.850905" lat="50.952173"><ele>158.0</ele></trkpt>
   <trkpt lon="13.850966" lat="50.952003"><ele>158.0</ele></trkpt>
   <trkpt lon="13.851040" lat="50.951834"><ele>158.0</ele></trkpt>
   <trkpt lon="13.851325" lat="50.951408"><ele>163.5</ele></trkpt>
   <trkpt lon="13.851572" lat="50.951166"><ele>168.5</ele></trkpt>
   <trkpt lon="13.851910" lat="50.950926"><ele>171.75</ele></trkpt>
   <trkpt lon="13.852353" lat="50.950713"><ele>170.5</ele></trkpt>
   <trkpt lon="13.852855" lat="50.950517"><ele>169.75</ele></trkpt>
   <trkpt lon="13.853573" lat="50.950289"><ele>171.5</ele></trkpt>
   <trkpt lon="13.853998" lat="50.950191"><ele>172.0</ele></trkpt>
   <trkpt lon="13.854362" lat="50.950092"><ele>172.5</ele></trkpt>
   <trkpt lon="13.854810" lat="50.949904"><ele>173.25</ele></trkpt>
   <trkpt lon="13.855038" lat="50.949801"><ele>173.5</ele></trkpt>
   <trkpt lon="13.855229" lat="50.949701"><ele>174.0</ele></trkpt>
   <trkpt lon="13.855608" lat="50.949452"><ele>174.5</ele></trkpt>
   <trkpt lon="13.855877" lat="50.949184"><ele>174.0</ele></trkpt>
   <trkpt lon="13.856035" lat="50.948987"><ele>172.25</ele></trkpt>
   <trkpt lon="13.856090" lat="50.948903"><ele>171.75</ele></trkpt>
   <trkpt lon="13.856155" lat="50.948781"><ele>171.0</ele></trkpt>
   <trkpt lon="13.856237" lat="50.948675"><ele>170.0</ele></trkpt>
   <trkpt lon="13.856363" lat="50.948476"><ele>168.5</ele></trkpt>
   <trkpt lon="13.856609" lat="50.947660"><ele>168.0</ele></trkpt>
   <trkpt lon="13.856708" lat="50.947401"><ele>169.25</ele></trkpt>
   <trkpt lon="13.856842" lat="50.947148"><ele>171.75</ele></trkpt>
   <trkpt lon="13.856908" lat="50.947029"><ele>172.75</ele></trkpt>
   <trkpt lon="13.856989" lat="50.946909"><ele>173.5</ele></trkpt>
   <trkpt lon="13.857170" lat="50.946683"><ele>173.5</ele></trkpt>
   <trkpt lon="13.857384" lat="50.946443"><ele>174.25</ele></trkpt>
   <trkpt lon="13.857639" lat="50.946213"><ele>175.0</ele></trkpt>
   <trkpt lon="13.858286" lat="50.945824"><ele>176.5</ele></trkpt>
   <trkpt lon="13.858769" lat="50.945561"><ele>177.0</ele></trkpt>
   <trkpt lon="13.859283" lat="50.945319"><ele>176.75</ele></trkpt>
   <trkpt lon="13.859685" lat="50.945148"><ele>176.0</ele></trkpt>
   <trkpt lon="13.859798" lat="50.945100"><ele>176.0</ele></trkpt>
   <trkpt lon="13.860131" lat="50.944975"><ele>175.0</ele></trkpt>
   <trkpt lon="13.860594" lat="50.944825"><ele>173.5</ele></trkpt>
   <trkpt lon="13.861885" lat="50.944437"><ele>170.5</ele></trkpt>
   <trkpt lon="13.862210" lat="50.944315"><ele>171.5</ele></trkpt>
   <trkpt lon="13.862516" lat="50.944181"><ele>172.5</ele></trkpt>
   <trkpt lon="13.862798" lat="50.944023"><ele>174.0</ele></trkpt>
   <trkpt lon="13.863064" lat="50.943845"><ele>176.0</ele></trkpt>
   <trkpt lon="13.863270" lat="50.943678"><ele>178.25</ele></trkpt>
   <trkpt lon="13.863558" lat="50.943398"><ele>181.0</ele></trkpt>
   <trkpt lon="13.863637" lat="50.943283"><ele>181.25</ele></trkpt>
   <trkpt lon="13.863760" lat="50.943056"><ele>179.75</ele></trkpt>
   <trkpt lon="13.863832" lat="50.942889"><ele>178.75</ele></trkpt>
   <trkpt lon="13.863924" lat="50.942548"><ele>177.5</ele></trkpt>
   <trkpt lon="13.863935" lat="50.942367"><ele>176.5</ele></trkpt>
   <trkpt lon="13.863911" lat="50.942118"><ele>175.25</ele></trkpt>
   <trkpt lon="13.863873" lat="50.941888"><ele>174.0</ele></trkpt>
   <trkpt lon="13.863615" lat="50.941091"><ele>175.5</ele></trkpt>
   <trkpt lon="13.863426" lat="50.940603"><ele>176.25</ele></trkpt>
   <trkpt lon="13.863335" lat="50.940293"><ele>177.0</ele></trkpt>
   <trkpt lon="13.863288" lat="50.940037"><ele>177.5</ele></trkpt>
   <trkpt lon="13.863270" lat="50.939809"><ele>178.0</ele></trkpt>
   <trkpt lon="13.863295" lat="50.939522"><ele>178.5</ele></trkpt>
   <trkpt lon="13.863395" lat="50.939035"><ele>179.5</ele></trkpt>
   <trkpt lon="13.863593" lat="50.938180"><ele>179.5</ele></trkpt>
   <trkpt lon="13.863622" lat="50.937972"><ele>181.0</ele></trkpt>
   <trkpt lon="13.863635" lat="50.937759"><ele>182.5</ele></trkpt>
   <trkpt lon="13.863588" lat="50.937409"><ele>183.75</ele></trkpt>
   <trkpt lon="13.863526" lat="50.937222"><ele>184.0</ele></trkpt>
   <trkpt lon="13.863441" lat="50.937033"><ele>183.5</ele></trkpt>
   <trkpt lon="13.863157" lat="50.936668"><ele>183.5</ele></trkpt>
   <trkpt lon="13.862937" lat="50.936438"><ele>184.0</ele></trkpt>
   <trkpt lon="13.862860" lat="50.936376"><ele>184.0</ele></trkpt>
   <trkpt lon="13.862683" lat="50.936234"><ele>183.75</ele></trkpt>
   <trkpt lon="13.862460" lat="50.936083"><ele>183.0</ele></trkpt>
   <trkpt lon="13.862192" lat="50.935942"><ele>184.0</ele></trkpt>
   <trkpt lon="13.861730" lat="50.935721"><ele>186.25</ele></trkpt>
   <trkpt lon="13.861342" lat="50.935522"><ele>188.0</ele></trkpt>
   <trkpt lon="13.858564" lat="50.934169"><ele>188.0</ele></trkpt>
   <trkpt lon="13.858500" lat="50.934134"><ele>187.0</ele></trkpt>
   <trkpt lon="13.858186" lat="50.933985"><ele>186.0</ele></trkpt>
   <trkpt lon="13.857812" lat="50.933761"><ele>187.5</ele></trkpt>
   <trkpt lon="13.857438" lat="50.933518"><ele>188.0</ele></trkpt>
   <trkpt lon="13.857172" lat="50.933342"><ele>188.0</ele></trkpt>
   <trkpt lon="13.855371" lat="50.932149"><ele>191.75</ele></trkpt>
   <trkpt lon="13.854762" lat="50.931753"><ele>189.5</ele></trkpt>
   <trkpt lon="13.854391" lat="50.931547"><ele>194.25</ele></trkpt>
   <trkpt lon="13.854010" lat="50.931370"><ele>199.5</ele></trkpt>
   <trkpt lon="13.853451" lat="50.931198"><ele>202.25</ele></trkpt>
   <trkpt lon="13.853155" lat="50.931133"><ele>203.0</ele></trkpt>
   <trkpt lon="13.852856" lat="50.931075"><ele>203.5</ele></trkpt>
   <trkpt lon="13.852128" lat="50.930948"><ele>203.0</ele></trkpt>
   <trkpt lon="13.851683" lat="50.930847"><ele>200.25</ele></trkpt>
   <trkpt lon="13.851364" lat="50.930757"><ele>204.75</ele></trkpt>
   <trkpt lon="13.851102" lat="50.930663"><ele>207.75</ele></trkpt>
   <trkpt lon="13.850803" lat="50.930530"><ele>209.0</ele></trkpt>
   <trkpt lon="13.850505" lat="50.930400"><ele>208.0</ele></trkpt>
   <trkpt lon="13.849897" lat="50.930092"><ele>199.25</ele></trkpt>
   <trkpt lon="13.849318" lat="50.929846"><ele>199.75</ele></trkpt>
   <trkpt lon="13.849050" lat="50.929744"><ele>200.25</ele></trkpt>
   <trkpt lon="13.848750" lat="50.929654"><ele>200.5</ele></trkpt>
   <trkpt lon="13.848350" lat="50.929563"><ele>200.25</ele></trkpt>
   <trkpt lon="13.848149" lat="50.929524"><ele>199.5</ele></trkpt>
   <trkpt lon="13.847974" lat="50.929503"><ele>199.5</ele></trkpt>
   <trkpt lon="13.847429" lat="50.929444"><ele>199.5</ele></trkpt>
   <trkpt lon="13.846995" lat="50.929421"><ele>199.5</ele></trkpt>
   <trkpt lon="13.846811" lat="50.929420"><ele>199.5</ele></trkpt>
   <trkpt lon="13.845267" lat="50.929442"><ele>199.75</ele></trkpt>
   <trkpt lon="13.844938" lat="50.929419"><ele>199.5</ele></trkpt>
   <trkpt lon="13.844636" lat="50.929389"><ele>198.5</ele></trkpt>
   <trkpt lon="13.844238" lat="50.929335"><ele>197.0</ele></trkpt>
   <trkpt lon="13.843899" lat="50.929261"><ele>195.75</ele></trkpt>
   <trkpt lon="13.843608" lat="50.929185"><ele>194.5</ele></trkpt>
   <trkpt lon="13.843295" lat="50.929083"><ele>194.75</ele></trkpt>
   <trkpt lon="13.843027" lat="50.928968"><ele>197.25</ele></trkpt>
   <trkpt lon="13.842751" lat="50.928840"><ele>198.75</ele></trkpt>
   <trkpt lon="13.842270" lat="50.928540"><ele>197.0</ele></trkpt>
   <trkpt lon="13.842088" lat="50.928397"><ele>196.25</ele></trkpt>
   <trkpt lon="13.841884" lat="50.928204"><ele>195.25</ele></trkpt>
   <trkpt lon="13.841649" lat="50.927958"><ele>194.25</ele></trkpt>
   <trkpt lon="13.840827" lat="50.927044"><ele>194.25</ele></trkpt>
   <trkpt lon="13.840424" lat="50.926674"><ele>192.0</ele></trkpt>
   <trkpt lon="13.839805" lat="50.926135"><ele>191.0</ele></trkpt>
   <trkpt lon="13.839447" lat="50.925873"><ele>190.0</ele></trkpt>
   <trkpt lon="13.839030" lat="50.925585"><ele>190.0</ele></trkpt>
   <trkpt lon="13.838420" lat="50.925179"><ele>188.5</ele></trkpt>
   <trkpt lon="13.838142" lat="50.924980"><ele>190.0</ele></trkpt>
   <trkpt lon="13.837881" lat="50.924769"><ele>193.75</ele></trkpt>
   <trkpt lon="13.837204" lat="50.924114"><ele>197.25</ele></trkpt>
   <trkpt lon="13.836931" lat="50.923799"><ele>198.75</ele></trkpt>
   <trkpt lon="13.836414" lat="50.923137"><ele>205.0</ele></trkpt>
   <trkpt lon="13.836116" lat="50.922798"><ele>210.5</ele></trkpt>
   <trkpt lon="13.835771" lat="50.922452"><ele>213.5</ele></trkpt>
   <trkpt lon="13.835407" lat="50.922212"><ele>215.5</ele></trkpt>
   <trkpt lon="13.834975" lat="50.922014"><ele>214.75</ele></trkpt>
   <trkpt lon="13.834593" lat="50.921876"><ele>216.5</ele></trkpt>
   <trkpt lon="13.834527" lat="50.921861"><ele>216.5</ele></trkpt>
   <trkpt lon="13.833916" lat="50.921694"><ele>215.5</ele></trkpt>
   <trkpt lon="13.833234" lat="50.921505"><ele>220.5</ele></trkpt>
   <trkpt lon="13.832717" lat="50.921294"><ele>227.5</ele></trkpt>
   <trkpt lon="13.832457" lat="50.921162"><ele>228.75</ele></trkpt>
   <trkpt lon="13.832264" lat="50.921033"><ele>228.5</ele></trkpt>
   <trkpt lon="13.832038" lat="50.920842"><ele>226.0</ele></trkpt>
   <trkpt lon="13.831837" lat="50.920646"><ele>222.25</ele></trkpt>
   <trkpt lon="13.831683" lat="50.920405"><ele>217.5</ele></trkpt>
   <trkpt lon="13.831587" lat="50.920209"><ele>217.25</ele></trkpt>
   <trkpt lon="13.831521" lat="50.920013"><ele>216.75</ele></trkpt>
   <trkpt lon="13.831416" lat="50.919539"><ele>216.5</ele></trkpt>
   <trkpt lon="13.831235" lat="50.919015"><ele>217.0</ele></trkpt>
   <trkpt lon="13.831059" lat="50.918739"><ele>217.75</ele></trkpt>
   <trkpt lon="13.830730" lat="50.918398"><ele>216.0</ele></trkpt>
   <trkpt lon="13.830296" lat="50.918009"><ele>213.5</ele></trkpt>
   <trkpt lon="13.830126" lat="50.917839"><ele>211.0</ele></trkpt>
   <trkpt lon="13.829926" lat="50.917680"><ele>208.25</ele></trkpt>
   <trkpt lon="13.829316" lat="50.917119"><ele>204.75</ele></trkpt>
   <trkpt lon="13.829043" lat="50.916883"><ele>203.75</ele></trkpt>
   <trkpt lon="13.828740" lat="50.916655"><ele>202.5</ele></trkpt>
   <trkpt lon="13.828494" lat="50.916518"><ele>202.0</ele></trkpt>
   <trkpt lon="13.828255" lat="50.916399"><ele>201.0</ele></trkpt>
   <trkpt lon="13.828041" lat="50.916309"><ele>201.5</ele></trkpt>
   <trkpt lon="13.827620" lat="50.916175"><ele>201.75</ele></trkpt>
   <trkpt lon="13.827291" lat="50.916095"><ele>201.75</ele></trkpt>
   <trkpt lon="13.826315" lat="50.915907"><ele>201.5</ele></trkpt>
   <trkpt lon="13.825700" lat="50.915797"><ele>202.25</ele></trkpt>
   <trkpt lon="13.824123" lat="50.915509"><ele>205.0</ele></trkpt>
   <trkpt lon="13.823543" lat="50.915387"><ele>205.25</ele></trkpt>
   <trkpt lon="13.823030" lat="50.915261"><ele>206.0</ele></trkpt>
   <trkpt lon="13.818782" lat="50.914220"><ele>206.0</ele></trkpt>
   <trkpt lon="13.818432" lat="50.914118"><ele>206.0</ele></trkpt>
   <trkpt lon="13.818169" lat="50.914034"><ele>206.75</ele></trkpt>
   <trkpt lon="13.817921" lat="50.913937"><ele>207.25</ele></trkpt>
   <trkpt lon="13.817725" lat="50.913845"><ele>207.5</ele></trkpt>
   <trkpt lon="13.817394" lat="50.913647"><ele>208.0</ele></trkpt>
   <trkpt lon="13.817242" lat="50.913536"><ele>208.25</ele></trkpt>
   <trkpt lon="13.817124" lat="50.913435"><ele>208.25</ele></trkpt>
   <trkpt lon="13.817023" lat="50.913331"><ele>208.25</ele></trkpt>
   <trkpt lon="13.816998" lat="50.913305"><ele>208.5</ele></trkpt>
   <trkpt lon="13.816843" lat="50.913128"><ele>209.5</ele></trkpt>
   <trkpt lon="13.816772" lat="50.913035"><ele>210.0</ele></trkpt>
   <trkpt lon="13.816648" lat="50.912842"><ele>210.75</ele></trkpt>
   <trkpt lon="13.816549" lat="50.912511"><ele>212.5</ele></trkpt>
   <trkpt lon="13.816525" lat="50.912398"><ele>212.5</ele></trkpt>
   <trkpt lon="13.816520" lat="50.912274"><ele>212.5</ele></trkpt>
   <trkpt lon="13.816529" lat="50.912070"><ele>212.5</ele></trkpt>
   <trkpt lon="13.816576" lat="50.911851"><ele>212.75</ele></trkpt>
   <trkpt lon="13.816616" lat="50.911737"><ele>212.75</ele></trkpt>
   <trkpt lon="13.816673" lat="50.911612"><ele>213.25</ele></trkpt>
   <trkpt lon="13.816739" lat="50.911492"><ele>214.25</ele></trkpt>
   <trkpt lon="13.816806" lat="50.911395"><ele>215.25</ele></trkpt>
   <trkpt lon="13.816919" lat="50.911252"><ele>216.5</ele></trkpt>
   <trkpt lon="13.817069" lat="50.911096"><ele>217.75</ele></trkpt>
   <trkpt lon="13.817204" lat="50.910975"><ele>218.5</ele></trkpt>
   <trkpt lon="13.817384" lat="50.910829"><ele>219.5</ele></trkpt>
   <trkpt lon="13.817747" lat="50.910575"><ele>220.25</ele></trkpt>
   <trkpt lon="13.818248" lat="50.910230"><ele>218.0</ele></trkpt>
   <trkpt lon="13.818647" lat="50.909936"><ele>224.25</ele></trkpt>
   <trkpt lon="13.818765" lat="50.909835"><ele>227.25</ele></trkpt>
   <trkpt lon="13.818937" lat="50.909654"><ele>231.0</ele></trkpt>
   <trkpt lon="13.819012" lat="50.909560"><ele>232.25</ele></trkpt>
   <trkpt lon="13.819088" lat="50.909443"><ele>233.5</ele></trkpt>
   <trkpt lon="13.819148" lat="50.909331"><ele>234.25</ele></trkpt>
   <trkpt lon="13.819204" lat="50.909189"><ele>234.75</ele></trkpt>
   <trkpt lon="13.819227" lat="50.909105"><ele>235.5</ele></trkpt>
   <trkpt lon="13.819259" lat="50.908926"><ele>237.25</ele></trkpt>
   <trkpt lon="13.819261" lat="50.908765"><ele>238.25</ele></trkpt>
   <trkpt lon="13.819250" lat="50.908647"><ele>239.0</ele></trkpt>
   <trkpt lon="13.819221" lat="50.908531"><ele>239.25</ele></trkpt>
   <trkpt lon="13.819145" lat="50.908308"><ele>240.0</ele></trkpt>
   <trkpt lon="13.819079" lat="50.908183"><ele>240.5</ele></trkpt>
   <trkpt lon="13.818912" lat="50.907956"><ele>240.0</ele></trkpt>
   <trkpt lon="13.818680" lat="50.907728"><ele>237.25</ele></trkpt>
   <trkpt lon="13.818448" lat="50.907556"><ele>232.5</ele></trkpt>
   <trkpt lon="13.818018" lat="50.907333"><ele>234.0</ele></trkpt>
   <trkpt lon="13.817784" lat="50.907242"><ele>235.25</ele></trkpt>
   <trkpt lon="13.817478" lat="50.907158"><ele>235.75</ele></trkpt>
   <trkpt lon="13.817256" lat="50.907104"><ele>235.25</ele></trkpt>
   <trkpt lon="13.817034" lat="50.907061"><ele>234.5</ele></trkpt>
   <trkpt lon="13.816736" lat="50.907031"><ele>233.0</ele></trkpt>
   <trkpt lon="13.816469" lat="50.907019"><ele>232.25</ele></trkpt>
   <trkpt lon="13.815962" lat="50.907045"><ele>231.0</ele></trkpt>
   <trkpt lon="13.814965" lat="50.907148"><ele>228.5</ele></trkpt>
   <trkpt lon="13.814487" lat="50.907155"><ele>227.75</ele></trkpt>
   <trkpt lon="13.814295" lat="50.907143"><ele>227.75</ele></trkpt>
   <trkpt lon="13.814090" lat="50.907120"><ele>228.5</ele></trkpt>
   <trkpt lon="13.813855" lat="50.907084"><ele>229.25</ele></trkpt>
   <trkpt lon="13.813561" lat="50.907013"><ele>230.5</ele></trkpt>
   <trkpt lon="13.813287" lat="50.906921"><ele>230.5</ele></trkpt>
   <trkpt lon="13.813130" lat="50.906860"><ele>230.75</ele></trkpt>
   <trkpt lon="13.812804" lat="50.906712"><ele>230.75</ele></trkpt>
   <trkpt lon="13.812581" lat="50.906580"><ele>230.5</ele></trkpt>
   <trkpt lon="13.812407" lat="50.906445"><ele>230.5</ele></trkpt>
   <trkpt lon="13.812263" lat="50.906319"><ele>230.0</ele></trkpt>
   <trkpt lon="13.812141" lat="50.906188"><ele>229.75</ele></trkpt>
   <trkpt lon="13.812020" lat="50.906039"><ele>229.25</ele></trkpt>
   <trkpt lon="13.811924" lat="50.905869"><ele>228.75</ele></trkpt>
   <trkpt lon="13.811812" lat="50.905474"><ele>231.25</ele></trkpt>
   <trkpt lon="13.811821" lat="50.905202"><ele>234.5</ele></trkpt>
   <trkpt lon="13.811880" lat="50.904935"><ele>238.5</ele></trkpt>
   <trkpt lon="13.812295" lat="50.903448"><ele>239.75</ele></trkpt>
   <trkpt lon="13.812438" lat="50.902933"><ele>238.5</ele></trkpt>
   <trkpt lon="13.812591" lat="50.902381"><ele>237.0</ele></trkpt>
   <trkpt lon="13.812806" lat="50.901598"><ele>237.75</ele></trkpt>
   <trkpt lon="13.812891" lat="50.901174"><ele>240.0</ele></trkpt>
   <trkpt lon="13.812878" lat="50.900872"><ele>241.5</ele></trkpt>
   <trkpt lon="13.812837" lat="50.900657"><ele>244.25</ele></trkpt>
   <trkpt lon="13.812765" lat="50.900455"><ele>246.75</ele></trkpt>
   <trkpt lon="13.812635" lat="50.900201"><ele>248.5</ele></trkpt>
   <trkpt lon="13.812467" lat="50.899965"><ele>248.75</ele></trkpt>
   <trkpt lon="13.812318" lat="50.899804"><ele>248.75</ele></trkpt>
   <trkpt lon="13.812145" lat="50.899645"><ele>247.75</ele></trkpt>
   <trkpt lon="13.811926" lat="50.899471"><ele>245.75</ele></trkpt>
   <trkpt lon="13.810571" lat="50.898499"><ele>246.0</ele></trkpt>
   <trkpt lon="13.810215" lat="50.898275"><ele>243.25</ele></trkpt>
   <trkpt lon="13.809699" lat="50.897868"><ele>252.25</ele></trkpt>
   <trkpt lon="13.809436" lat="50.897639"><ele>255.75</ele></trkpt>
   <trkpt lon="13.808734" lat="50.896975"><ele>255.5</ele></trkpt>
   <trkpt lon="13.808233" lat="50.896300"><ele>247.75</ele></trkpt>
   <trkpt lon="13.808043" lat="50.895903"><ele>245.5</ele></trkpt>
   <trkpt lon="13.807968" lat="50.895623"><ele>243.75</ele></trkpt>
   <trkpt lon="13.807949" lat="50.895480"><ele>243.0</ele></trkpt>
   <trkpt lon="13.807947" lat="50.895333"><ele>242.25</ele></trkpt>
   <trkpt lon="13.807956" lat="50.895208"><ele>241.5</ele></trkpt>
   <trkpt lon="13.807986" lat="50.895002"><ele>241.75</ele></trkpt>
   <trkpt lon="13.808020" lat="50.894866"><ele>241.75</ele></trkpt>
   <trkpt lon="13.808177" lat="50.894525"><ele>240.75</ele></trkpt>
   <trkpt lon="13.808225" lat="50.894441"><ele>240.0</ele></trkpt>
   <trkpt lon="13.808285" lat="50.894365"><ele>239.25</ele></trkpt>
   <trkpt lon="13.808676" lat="50.893722"><ele>240.5</ele></trkpt>
   <trkpt lon="13.809132" lat="50.893016"><ele>243.25</ele></trkpt>
   <trkpt lon="13.810258" lat="50.891221"><ele>240.5</ele></trkpt>
   <trkpt lon="13.810326" lat="50.891112"><ele>241.0</ele></trkpt>
   <trkpt lon="13.810512" lat="50.890814"><ele>241.5</ele></trkpt>
   <trkpt lon="13.810754" lat="50.890333"><ele>240.5</ele></trkpt>
   <trkpt lon="13.810792" lat="50.890227"><ele>240.25</ele></trkpt>
   <trkpt lon="13.810848" lat="50.890063"><ele>240.0</ele></trkpt>
   <trkpt lon="13.810986" lat="50.889586"><ele>240.25</ele></trkpt>
   <trkpt lon="13.811041" lat="50.889385"><ele>240.25</ele></trkpt>
   <trkpt lon="13.811220" lat="50.888728"><ele>242.75</ele></trkpt>
   <trkpt lon="13.811244" lat="50.888642"><ele>243.25</ele></trkpt>
   <trkpt lon="13.811255" lat="50.888601"><ele>243.5</ele></trkpt>
   <trkpt lon="13.811267" lat="50.888553"><ele>243.75</ele></trkpt>
   <trkpt lon="13.811484" lat="50.887756"><ele>244.0</ele></trkpt>
   <trkpt lon="13.811530" lat="50.887584"><ele>243.75</ele></trkpt>
   <trkpt lon="13.811547" lat="50.887523"><ele>243.5</ele></trkpt>
   <trkpt lon="13.811573" lat="50.887427"><ele>243.5</ele></trkpt>
   <trkpt lon="13.811626" lat="50.887235"><ele>243.75</ele></trkpt>
   <trkpt lon="13.811642" lat="50.887178"><ele>243.75</ele></trkpt>
   <trkpt lon="13.811772" lat="50.886704"><ele>245.75</ele></trkpt>
   <trkpt lon="13.811790" lat="50.886635"><ele>246.0</ele></trkpt>
   <trkpt lon="13.811859" lat="50.886375"><ele>247.5</ele></trkpt>
   <trkpt lon="13.811902" lat="50.886215"><ele>248.25</ele></trkpt>
   <trkpt lon="13.811981" lat="50.885918"><ele>249.25</ele></trkpt>
   <trkpt lon="13.812054" lat="50.885643"><ele>249.75</ele></trkpt>
   <trkpt lon="13.812137" lat="50.885334"><ele>250.25</ele></trkpt>
   <trkpt lon="13.812164" lat="50.885232"><ele>250.5</ele></trkpt>
   <trkpt lon="13.812211" lat="50.885051"><ele>250.75</ele></trkpt>
   <trkpt lon="13.812230" lat="50.884967"><ele>250.75</ele></trkpt>
   <trkpt lon="13.812245" lat="50.884902"><ele>250.75</ele></trkpt>
   <trkpt lon="13.812447" lat="50.884085"><ele>249.5</ele></trkpt>
   <trkpt lon="13.812494" lat="50.883895"><ele>249.0</ele></trkpt>
   <trkpt lon="13.812510" lat="50.883830"><ele>248.75</ele></trkpt>
   <trkpt lon="13.812570" lat="50.883585"><ele>247.75</ele></trkpt>
   <trkpt lon="13.812589" lat="50.883512"><ele>247.25</ele></trkpt>
   <trkpt lon="13.812599" lat="50.883471"><ele>247.25</ele></trkpt>
   <trkpt lon="13.813454" lat="50.880102"><ele>253.0</ele></trkpt>
   <trkpt lon="13.813593" lat="50.879527"><ele>254.5</ele></trkpt>
   <trkpt lon="13.813833" lat="50.878539"><ele>254.75</ele></trkpt>
   <trkpt lon="13.813859" lat="50.878171"><ele>254.5</ele></trkpt>
   <trkpt lon="13.813835" lat="50.877803"><ele>255.0</ele></trkpt>
   <trkpt lon="13.813813" lat="50.877542"><ele>255.25</ele></trkpt>
   <trkpt lon="13.813779" lat="50.877319"><ele>256.25</ele></trkpt>
   <trkpt lon="13.813608" lat="50.876297"><ele>263.75</ele></trkpt>
   <trkpt lon="13.813489" lat="50.875508"><ele>270.25</ele></trkpt>
   <trkpt lon="13.813456" lat="50.875127"><ele>272.25</ele></trkpt>
   <trkpt lon="13.813454" lat="50.874953"><ele>273.25</ele></trkpt>
   <trkpt lon="13.813474" lat="50.874682"><ele>276.0</ele></trkpt>
   <trkpt lon="13.813491" lat="50.874577"><ele>277.0</ele></trkpt>
   <trkpt lon="13.813545" lat="50.874377"><ele>278.5</ele></trkpt>
   <trkpt lon="13.813598" lat="50.874240"><ele>279.25</ele></trkpt>
   <trkpt lon="13.813661" lat="50.874112"><ele>280.0</ele></trkpt>
   <trkpt lon="13.813832" lat="50.873810"><ele>281.25</ele></trkpt>
   <trkpt lon="13.814003" lat="50.873533"><ele>281.25</ele></trkpt>
   <trkpt lon="13.814373" lat="50.872972"><ele>279.25</ele></trkpt>
   <trkpt lon="13.814537" lat="50.872699"><ele>278.0</ele></trkpt>
   <trkpt lon="13.814699" lat="50.872395"><ele>276.75</ele></trkpt>
   <trkpt lon="13.814764" lat="50.872166"><ele>277.0</ele></trkpt>
   <trkpt lon="13.814812" lat="50.871936"><ele>278.0</ele></trkpt>
   <trkpt lon="13.814820" lat="50.871786"><ele>279.0</ele></trkpt>
   <trkpt lon="13.814820" lat="50.871599"><ele>279.75</ele></trkpt>
   <trkpt lon="13.814780" lat="50.871365"><ele>278.75</ele></trkpt>
   <trkpt lon="13.814658" lat="50.870975"><ele>278.5</ele></trkpt>
   <trkpt lon="13.814472" lat="50.870473"><ele>277.5</ele></trkpt>
   <trkpt lon="13.814278" lat="50.870017"><ele>275.0</ele></trkpt>
   <trkpt lon="13.813950" lat="50.869211"><ele>272.5</ele></trkpt>
   <trkpt lon="13.813861" lat="50.869004"><ele>272.75</ele></trkpt>
   <trkpt lon="13.813706" lat="50.868740"><ele>274.0</ele></trkpt>
   <trkpt lon="13.813605" lat="50.868615"><ele>274.75</ele></trkpt>
   <trkpt lon="13.813457" lat="50.868460"><ele>276.0</ele></trkpt>
   <trkpt lon="13.813193" lat="50.868228"><ele>280.0</ele></trkpt>
   <trkpt lon="13.812923" lat="50.868016"><ele>285.0</ele></trkpt>
   <trkpt lon="13.812392" lat="50.867652"><ele>288.75</ele></trkpt>
   <trkpt lon="13.811121" lat="50.866869"><ele>288.75</ele></trkpt>
   <trkpt lon="13.810691" lat="50.866619"><ele>286.25</ele></trkpt>
   <trkpt lon="13.810219" lat="50.866346"><ele>286.5</ele></trkpt>
   <trkpt lon="13.809550" lat="50.865983"><ele>289.75</ele></trkpt>
   <trkpt lon="13.808592" lat="50.865540"><ele>292.75</ele></trkpt>
   <trkpt lon="13.808270" lat="50.865341"><ele>295.75</ele></trkpt>
   <trkpt lon="13.807985" lat="50.865132"><ele>299.25</ele></trkpt>
   <trkpt lon="13.807435" lat="50.864651"><ele>300.25</ele></trkpt>
   <trkpt lon="13.807224" lat="50.864323"><ele>300.25</ele></trkpt>
   <trkpt lon="13.807092" lat="50.863987"><ele>300.75</ele></trkpt>
   <trkpt lon="13.806856" lat="50.862669"><ele>302.0</ele></trkpt>
   <trkpt lon="13.806614" lat="50.860984"><ele>308.75</ele></trkpt>
   <trkpt lon="13.806543" lat="50.860593"><ele>312.75</ele></trkpt>
   <trkpt lon="13.806456" lat="50.860293"><ele>315.25</ele></trkpt>
   <trkpt lon="13.806295" lat="50.859992"><ele>316.5</ele></trkpt>
   <trkpt lon="13.805831" lat="50.859340"><ele>317.5</ele></trkpt>
   <trkpt lon="13.805569" lat="50.859051"><ele>313.75</ele></trkpt>
   <trkpt lon="13.805171" lat="50.858649"><ele>308.5</ele></trkpt>
   <trkpt lon="13.804879" lat="50.858448"><ele>305.5</ele></trkpt>
   <trkpt lon="13.804597" lat="50.858295"><ele>305.5</ele></trkpt>
   <trkpt lon="13.804287" lat="50.858160"><ele>310.0</ele></trkpt>
   <trkpt lon="13.803847" lat="50.858005"><ele>313.5</ele></trkpt>
   <trkpt lon="13.803630" lat="50.857939"><ele>314.5</ele></trkpt>
   <trkpt lon="13.803356" lat="50.857890"><ele>315.25</ele></trkpt>
   <trkpt lon="13.802830" lat="50.857813"><ele>318.0</ele></trkpt>
   <trkpt lon="13.802394" lat="50.857776"><ele>320.25</ele></trkpt>
   <trkpt lon="13.801906" lat="50.857744"><ele>322.25</ele></trkpt>
   <trkpt lon="13.800974" lat="50.857706"><ele>319.0</ele></trkpt>
   <trkpt lon="13.800538" lat="50.857706"><ele>317.25</ele></trkpt>
   <trkpt lon="13.800101" lat="50.857723"><ele>315.75</ele></trkpt>
   <trkpt lon="13.799253" lat="50.857782"><ele>315.25</ele></trkpt>
   <trkpt lon="13.798788" lat="50.857807"><ele>314.75</ele></trkpt>
   <trkpt lon="13.798420" lat="50.857816"><ele>314.25</ele></trkpt>
   <trkpt lon="13.797988" lat="50.857799"><ele>316.0</ele></trkpt>
   <trkpt lon="13.797493" lat="50.857735"><ele>317.5</ele></trkpt>
   <trkpt lon="13.796974" lat="50.857619"><ele>316.5</ele></trkpt>
   <trkpt lon="13.796357" lat="50.857414"><ele>321.25</ele></trkpt>
   <trkpt lon="13.796059" lat="50.857276"><ele>327.5</ele></trkpt>
   <trkpt lon="13.795757" lat="50.857115"><ele>331.5</ele></trkpt>
   <trkpt lon="13.795474" lat="50.856920"><ele>332.25</ele></trkpt>
   <trkpt lon="13.795206" lat="50.856693"><ele>329.25</ele></trkpt>
   <trkpt lon="13.794792" lat="50.856266"><ele>329.5</ele></trkpt>
   <trkpt lon="13.793898" lat="50.855509"><ele>330.75</ele></trkpt>
   <trkpt lon="13.793126" lat="50.855085"><ele>331.5</ele></trkpt>
   <trkpt lon="13.792572" lat="50.854865"><ele>332.25</ele></trkpt>
   <trkpt lon="13.792237" lat="50.854746"><ele>332.5</ele></trkpt>
   <trkpt lon="13.791748" lat="50.854626"><ele>333.0</ele></trkpt>
   <trkpt lon="13.791384" lat="50.854553"><ele>333.25</ele></trkpt>
   <trkpt lon="13.790947" lat="50.854483"><ele>333.75</ele></trkpt>
   <trkpt lon="13.790566" lat="50.854477"><ele>334.0</ele></trkpt>
   <trkpt lon="13.790246" lat="50.854489"><ele>332.25</ele></trkpt>
   <trkpt lon="13.789429" lat="50.854575"><ele>328.0</ele></trkpt>
   <trkpt lon="13.788559" lat="50.854646"><ele>323.25</ele></trkpt>
   <trkpt lon="13.788256" lat="50.854656"><ele>323.5</ele></trkpt>
   <trkpt lon="13.787973" lat="50.854650"><ele>323.5</ele></trkpt>
   <trkpt lon="13.787675" lat="50.854634"><ele>323.75</ele></trkpt>
   <trkpt lon="13.787240" lat="50.854590"><ele>324.0</ele></trkpt>
   <trkpt lon="13.787078" lat="50.854561"><ele>324.5</ele></trkpt>
   <trkpt lon="13.786766" lat="50.854494"><ele>325.25</ele></trkpt>
   <trkpt lon="13.786541" lat="50.854428"><ele>326.0</ele></trkpt>
   <trkpt lon="13.786323" lat="50.854353"><ele>326.25</ele></trkpt>
   <trkpt lon="13.786182" lat="50.854302"><ele>326.0</ele></trkpt>
   <trkpt lon="13.786043" lat="50.854241"><ele>325.5</ele></trkpt>
   <trkpt lon="13.785772" lat="50.854110"><ele>325.0</ele></trkpt>
   <trkpt lon="13.785317" lat="50.853818"><ele>328.75</ele></trkpt>
   <trkpt lon="13.784678" lat="50.853358"><ele>332.75</ele></trkpt>
   <trkpt lon="13.784264" lat="50.853047"><ele>336.0</ele></trkpt>
   <trkpt lon="13.784093" lat="50.852930"><ele>335.5</ele></trkpt>
   <trkpt lon="13.783634" lat="50.852598"><ele>330.75</ele></trkpt>
   <trkpt lon="13.783232" lat="50.852296"><ele>329.75</ele></trkpt>
   <trkpt lon="13.783061" lat="50.852142"><ele>329.25</ele></trkpt>
   <trkpt lon="13.782998" lat="50.852071"><ele>329.0</ele></trkpt>
   <trkpt lon="13.782798" lat="50.851797"><ele>328.25</ele></trkpt>
   <trkpt lon="13.782776" lat="50.851778"><ele>328.25</ele></trkpt>
   <trkpt lon="13.782681" lat="50.851597"><ele>328.25</ele></trkpt>
   <trkpt lon="13.782641" lat="50.851502"><ele>328.25</ele></trkpt>
   <trkpt lon="13.782604" lat="50.851388"><ele>328.25</ele></trkpt>
   <trkpt lon="13.782560" lat="50.851170"><ele>328.5</ele></trkpt>
   <trkpt lon="13.782564" lat="50.850955"><ele>329.0</ele></trkpt>
   <trkpt lon="13.782582" lat="50.850827"><ele>329.5</ele></trkpt>
   <trkpt lon="13.782906" lat="50.849014"><ele>334.0</ele></trkpt>
   <trkpt lon="13.782943" lat="50.848759"><ele>337.25</ele></trkpt>
   <trkpt lon="13.782952" lat="50.848639"><ele>338.5</ele></trkpt>
   <trkpt lon="13.782948" lat="50.848548"><ele>339.5</ele></trkpt>
   <trkpt lon="13.782890" lat="50.848341"><ele>341.75</ele></trkpt>
   <trkpt lon="13.782806" lat="50.848125"><ele>343.75</ele></trkpt>
   <trkpt lon="13.782691" lat="50.847933"><ele>345.0</ele></trkpt>
   <trkpt lon="13.782537" lat="50.847761"><ele>344.5</ele></trkpt>
   <trkpt lon="13.782390" lat="50.847620"><ele>343.25</ele></trkpt>
   <trkpt lon="13.782195" lat="50.847472"><ele>341.5</ele></trkpt>
   <trkpt lon="13.782064" lat="50.847398"><ele>341.5</ele></trkpt>
   <trkpt lon="13.781907" lat="50.847323"><ele>341.75</ele></trkpt>
   <trkpt lon="13.781725" lat="50.847241"><ele>342.25</ele></trkpt>
   <trkpt lon="13.781534" lat="50.847167"><ele>342.5</ele></trkpt>
   <trkpt lon="13.781370" lat="50.847119"><ele>342.75</ele></trkpt>
   <trkpt lon="13.781208" lat="50.847083"><ele>343.5</ele></trkpt>
   <trkpt lon="13.780992" lat="50.847041"><ele>344.0</ele></trkpt>
   <trkpt lon="13.780737" lat="50.847014"><ele>344.0</ele></trkpt>
   <trkpt lon="13.780415" lat="50.846996"><ele>343.25</ele></trkpt>
   <trkpt lon="13.780097" lat="50.847001"><ele>342.25</ele></trkpt>
   <trkpt lon="13.779088" lat="50.847076"><ele>343.5</ele></trkpt>
   <trkpt lon="13.778586" lat="50.847104"><ele>344.25</ele></trkpt>
   <trkpt lon="13.778262" lat="50.847107"><ele>344.5</ele></trkpt>
   <trkpt lon="13.777564" lat="50.847065"><ele>345.5</ele></trkpt>
   <trkpt lon="13.777100" lat="50.846999"><ele>346.5</ele></trkpt>
   <trkpt lon="13.776728" lat="50.846922"><ele>347.0</ele></trkpt>
   <trkpt lon="13.776439" lat="50.846853"><ele>346.25</ele></trkpt>
   <trkpt lon="13.776128" lat="50.846778"><ele>344.75</ele></trkpt>
   <trkpt lon="13.775516" lat="50.846565"><ele>343.25</ele></trkpt>
   <trkpt lon="13.774949" lat="50.846325"><ele>344.5</ele></trkpt>
   <trkpt lon="13.774604" lat="50.846167"><ele>345.25</ele></trkpt>
   <trkpt lon="13.774310" lat="50.845971"><ele>346.25</ele></trkpt>
   <trkpt lon="13.774034" lat="50.845751"><ele>347.25</ele></trkpt>
   <trkpt lon="13.773802" lat="50.845469"><ele>349.0</ele></trkpt>
   <trkpt lon="13.773586" lat="50.845135"><ele>350.5</ele></trkpt>
   <trkpt lon="13.773433" lat="50.844704"><ele>351.0</ele></trkpt>
   <trkpt lon="13.773407" lat="50.844166"><ele>353.0</ele></trkpt>
   <trkpt lon="13.773469" lat="50.843530"><ele>361.75</ele></trkpt>
   <trkpt lon="13.773413" lat="50.843104"><ele>367.5</ele></trkpt>
   <trkpt lon="13.772939" lat="50.841915"><ele>394.75</ele></trkpt>
   <trkpt lon="13.771079" lat="50.837464"><ele>393.0</ele></trkpt>
   <trkpt lon="13.771045" lat="50.837332"><ele>390.0</ele></trkpt>
   <trkpt lon="13.770732" lat="50.836560"><ele>377.5</ele></trkpt>
   <trkpt lon="13.770549" lat="50.836144"><ele>376.75</ele></trkpt>
   <trkpt lon="13.770446" lat="50.835857"><ele>376.0</ele></trkpt>
   <trkpt lon="13.770130" lat="50.835125"><ele>378.5</ele></trkpt>
   <trkpt lon="13.770056" lat="50.834923"><ele>379.0</ele></trkpt>
   <trkpt lon="13.770000" lat="50.834693"><ele>380.0</ele></trkpt>
   <trkpt lon="13.769992" lat="50.834552"><ele>381.0</ele></trkpt>
   <trkpt lon="13.770005" lat="50.834377"><ele>382.5</ele></trkpt>
   <trkpt lon="13.770055" lat="50.834108"><ele>387.25</ele></trkpt>
   <trkpt lon="13.770241" lat="50.833703"><ele>395.0</ele></trkpt>
   <trkpt lon="13.770360" lat="50.833512"><ele>398.75</ele></trkpt>
   <trkpt lon="13.770475" lat="50.833379"><ele>401.75</ele></trkpt>
   <trkpt lon="13.770763" lat="50.833112"><ele>401.75</ele></trkpt>
   <trkpt lon="13.771212" lat="50.832798"><ele>404.0</ele></trkpt>
   <trkpt lon="13.771785" lat="50.832492"><ele>402.75</ele></trkpt>
   <trkpt lon="13.772289" lat="50.832173"><ele>404.75</ele></trkpt>
   <trkpt lon="13.772460" lat="50.832027"><ele>404.75</ele></trkpt>
   <trkpt lon="13.772631" lat="50.831850"><ele>404.0</ele></trkpt>
   <trkpt lon="13.772809" lat="50.831552"><ele>402.75</ele></trkpt>
   <trkpt lon="13.772871" lat="50.831405"><ele>402.75</ele></trkpt>
   <trkpt lon="13.772913" lat="50.831212"><ele>403.25</ele></trkpt>
   <trkpt lon="13.772933" lat="50.830921"><ele>404.5</ele></trkpt>
   <trkpt lon="13.772900" lat="50.830740"><ele>404.5</ele></trkpt>
   <trkpt lon="13.772824" lat="50.830551"><ele>402.75</ele></trkpt>
   <trkpt lon="13.772636" lat="50.830261"><ele>400.25</ele></trkpt>
   <trkpt lon="13.772345" lat="50.829924"><ele>398.0</ele></trkpt>
   <trkpt lon="13.771755" lat="50.829330"><ele>395.25</ele></trkpt>
   <trkpt lon="13.771556" lat="50.829109"><ele>394.75</ele></trkpt>
   <trkpt lon="13.771425" lat="50.828929"><ele>397.75</ele></trkpt>
   <trkpt lon="13.771332" lat="50.828743"><ele>399.75</ele></trkpt>
   <trkpt lon="13.771274" lat="50.828525"><ele>401.5</ele></trkpt>
   <trkpt lon="13.771265" lat="50.828386"><ele>402.5</ele></trkpt>
   <trkpt lon="13.771274" lat="50.828246"><ele>402.5</ele></trkpt>
   <trkpt lon="13.771308" lat="50.828080"><ele>401.5</ele></trkpt>
   <trkpt lon="13.771387" lat="50.827886"><ele>400.25</ele></trkpt>
   <trkpt lon="13.771489" lat="50.827711"><ele>399.25</ele></trkpt>
   <trkpt lon="13.771639" lat="50.827525"><ele>398.0</ele></trkpt>
   <trkpt lon="13.772046" lat="50.827149"><ele>404.0</ele></trkpt>
   <trkpt lon="13.772608" lat="50.826626"><ele>408.5</ele></trkpt>
   <trkpt lon="13.772788" lat="50.826448"><ele>409.75</ele></trkpt>
   <trkpt lon="13.772957" lat="50.826224"><ele>408.75</ele></trkpt>
   <trkpt lon="13.773118" lat="50.825984"><ele>406.0</ele></trkpt>
   <trkpt lon="13.773267" lat="50.825717"><ele>403.0</ele></trkpt>
   <trkpt lon="13.773394" lat="50.825435"><ele>402.75</ele></trkpt>
   <trkpt lon="13.773563" lat="50.824984"><ele>403.75</ele></trkpt>
   <trkpt lon="13.773830" lat="50.823937"><ele>407.75</ele></trkpt>
   <trkpt lon="13.773898" lat="50.823722"><ele>409.25</ele></trkpt>
   <trkpt lon="13.773999" lat="50.823496"><ele>410.25</ele></trkpt>
   <trkpt lon="13.774100" lat="50.823304"><ele>411.0</ele></trkpt>
   <trkpt lon="13.774217" lat="50.823145"><ele>412.25</ele></trkpt>
   <trkpt lon="13.774469" lat="50.822840"><ele>412.0</ele></trkpt>
   <trkpt lon="13.774632" lat="50.822712"><ele>409.75</ele></trkpt>
   <trkpt lon="13.775262" lat="50.822334"><ele>409.25</ele></trkpt>
   <trkpt lon="13.776760" lat="50.821514"><ele>410.25</ele></trkpt>
   <trkpt lon="13.777146" lat="50.821255"><ele>417.75</ele></trkpt>
   <trkpt lon="13.777440" lat="50.821023"><ele>420.0</ele></trkpt>
   <trkpt lon="13.777672" lat="50.820764"><ele>420.0</ele></trkpt>
   <trkpt lon="13.778069" lat="50.820267"><ele>418.5</ele></trkpt>
   <trkpt lon="13.778449" lat="50.819708"><ele>416.75</ele></trkpt>
   <trkpt lon="13.778920" lat="50.818940"><ele>424.0</ele></trkpt>
   <trkpt lon="13.779188" lat="50.818564"><ele>424.75</ele></trkpt>
   <trkpt lon="13.779549" lat="50.818142"><ele>420.5</ele></trkpt>
   <trkpt lon="13.779710" lat="50.817977"><ele>418.0</ele></trkpt>
   <trkpt lon="13.779908" lat="50.817776"><ele>414.5</ele></trkpt>
   <trkpt lon="13.780232" lat="50.817493"><ele>414.25</ele></trkpt>
   <trkpt lon="13.780583" lat="50.817216"><ele>419.25</ele></trkpt>
   <trkpt lon="13.781056" lat="50.816896"><ele>418.0</ele></trkpt>
   <trkpt lon="13.781475" lat="50.816662"><ele>410.75</ele></trkpt>
   <trkpt lon="13.781536" lat="50.816628"><ele>410.75</ele></trkpt>
   <trkpt lon="13.781919" lat="50.816456"><ele>412.75</ele></trkpt>
   <trkpt lon="13.782548" lat="50.816244"><ele>415.5</ele></trkpt>
   <trkpt lon="13.783186" lat="50.816066"><ele>413.25</ele></trkpt>
   <trkpt lon="13.783666" lat="50.815934"><ele>410.75</ele></trkpt>
   <trkpt lon="13.785110" lat="50.815547"><ele>410.5</ele></trkpt>
   <trkpt lon="13.785441" lat="50.815440"><ele>411.5</ele></trkpt>
   <trkpt lon="13.786160" lat="50.815155"><ele>411.5</ele></trkpt>
   <trkpt lon="13.786828" lat="50.814744"><ele>412.0</ele></trkpt>
   <trkpt lon="13.787131" lat="50.814514"><ele>413.75</ele></trkpt>
   <trkpt lon="13.787457" lat="50.814212"><ele>414.75</ele></trkpt>
   <trkpt lon="13.787777" lat="50.813825"><ele>416.25</ele></trkpt>
   <trkpt lon="13.787858" lat="50.813721"><ele>416.5</ele></trkpt>
   <trkpt lon="13.788242" lat="50.813157"><ele>417.25</ele></trkpt>
   <trkpt lon="13.788489" lat="50.812817"><ele>418.75</ele></trkpt>
   <trkpt lon="13.788630" lat="50.812656"><ele>419.5</ele></trkpt>
   <trkpt lon="13.788959" lat="50.812325"><ele>423.5</ele></trkpt>
   <trkpt lon="13.789263" lat="50.812094"><ele>426.25</ele></trkpt>
   <trkpt lon="13.789522" lat="50.811941"><ele>426.25</ele></trkpt>
   <trkpt lon="13.789784" lat="50.811801"><ele>424.5</ele></trkpt>
   <trkpt lon="13.790372" lat="50.811534"><ele>426.25</ele></trkpt>
   <trkpt lon="13.790705" lat="50.811393"><ele>428.75</ele></trkpt>
   <trkpt lon="13.792439" lat="50.810740"><ele>425.0</ele></trkpt>
   <trkpt lon="13.792824" lat="50.810589"><ele>425.5</ele></trkpt>
   <trkpt lon="13.793241" lat="50.810410"><ele>423.5</ele></trkpt>
   <trkpt lon="13.794636" lat="50.809747"><ele>423.5</ele></trkpt>
   <trkpt lon="13.795023" lat="50.809537"><ele>422.75</ele></trkpt>
   <trkpt lon="13.795746" lat="50.809107"><ele>425.25</ele></trkpt>
   <trkpt lon="13.795775" lat="50.809089"><ele>425.5</ele></trkpt>
   <trkpt lon="13.795848" lat="50.809045"><ele>425.75</ele></trkpt>
   <trkpt lon="13.796356" lat="50.808738"><ele>426.25</ele></trkpt>
   <trkpt lon="13.796400" lat="50.808712"><ele>426.25</ele></trkpt>
   <trkpt lon="13.796610" lat="50.808587"><ele>425.5</ele></trkpt>
   <trkpt lon="13.797091" lat="50.808317"><ele>426.25</ele></trkpt>
   <trkpt lon="13.797607" lat="50.808039"><ele>431.25</ele></trkpt>
   <trkpt lon="13.798511" lat="50.807598"><ele>432.75</ele></trkpt>
   <trkpt lon="13.799529" lat="50.807106"><ele>441.75</ele></trkpt>
   <trkpt lon="13.800342" lat="50.806770"><ele>443.0</ele></trkpt>
   <trkpt lon="13.800719" lat="50.806641"><ele>443.25</ele></trkpt>
   <trkpt lon="13.800966" lat="50.806576"><ele>444.5</ele></trkpt>
   <trkpt lon="13.801485" lat="50.806446"><ele>445.75</ele></trkpt>
   <trkpt lon="13.801840" lat="50.806389"><ele>446.0</ele></trkpt>
   <trkpt lon="13.802016" lat="50.806377"><ele>446.25</ele></trkpt>
   <trkpt lon="13.802218" lat="50.806372"><ele>446.0</ele></trkpt>
   <trkpt lon="13.802499" lat="50.806387"><ele>445.25</ele></trkpt>
   <trkpt lon="13.802681" lat="50.806415"><ele>444.0</ele></trkpt>
   <trkpt lon="13.802909" lat="50.806467"><ele>442.25</ele></trkpt>
   <trkpt lon="13.803348" lat="50.806582"><ele>439.0</ele></trkpt>
   <trkpt lon="13.803607" lat="50.806656"><ele>438.5</ele></trkpt>
   <trkpt lon="13.803844" lat="50.806724"><ele>440.5</ele></trkpt>
   <trkpt lon="13.804135" lat="50.806793"><ele>443.25</ele></trkpt>
   <trkpt lon="13.804390" lat="50.806830"><ele>445.25</ele></trkpt>
   <trkpt lon="13.804614" lat="50.806848"><ele>446.75</ele></trkpt>
   <trkpt lon="13.804826" lat="50.806854"><ele>447.75</ele></trkpt>
   <trkpt lon="13.805014" lat="50.806843"><ele>448.75</ele></trkpt>
   <trkpt lon="13.805460" lat="50.806764"><ele>453.75</ele></trkpt>
   <trkpt lon="13.805714" lat="50.806687"><ele>455.75</ele></trkpt>
   <trkpt lon="13.806074" lat="50.806521"><ele>459.25</ele></trkpt>
   <trkpt lon="13.806356" lat="50.806316"><ele>459.75</ele></trkpt>
   <trkpt lon="13.806543" lat="50.806113"><ele>457.75</ele></trkpt>
   <trkpt lon="13.806631" lat="50.805951"><ele>455.0</ele></trkpt>
   <trkpt lon="13.806693" lat="50.805750"><ele>453.5</ele></trkpt>
   <trkpt lon="13.806698" lat="50.805529"><ele>453.25</ele></trkpt>
   <trkpt lon="13.806603" lat="50.805211"><ele>452.25</ele></trkpt>
   <trkpt lon="13.805978" lat="50.803530"><ele>455.25</ele></trkpt>
   <trkpt lon="13.805771" lat="50.802951"><ele>453.25</ele></trkpt>
   <trkpt lon="13.805723" lat="50.802820"><ele>452.75</ele></trkpt>
   <trkpt lon="13.805674" lat="50.802678"><ele>452.0</ele></trkpt>
   <trkpt lon="13.805621" lat="50.802412"><ele>450.75</ele></trkpt>
   <trkpt lon="13.805617" lat="50.802204"><ele>450.0</ele></trkpt>
   <trkpt lon="13.805626" lat="50.802037"><ele>449.25</ele></trkpt>
   <trkpt lon="13.805684" lat="50.801827"><ele>448.5</ele></trkpt>
   <trkpt lon="13.805851" lat="50.801494"><ele>447.25</ele></trkpt>
   <trkpt lon="13.806071" lat="50.801200"><ele>445.75</ele></trkpt>
   <trkpt lon="13.807360" lat="50.799639"><ele>445.0</ele></trkpt>
   <trkpt lon="13.808062" lat="50.798792"><ele>444.75</ele></trkpt>
   <trkpt lon="13.808847" lat="50.797952"><ele>447.5</ele></trkpt>
   <trkpt lon="13.808854" lat="50.797946"><ele>447.5</ele></trkpt>
   <trkpt lon="13.809882" lat="50.796831"><ele>451.25</ele></trkpt>
   <trkpt lon="13.810214" lat="50.796485"><ele>452.25</ele></trkpt>
   <trkpt lon="13.810402" lat="50.796310"><ele>452.75</ele></trkpt>
   <trkpt lon="13.810617" lat="50.796148"><ele>453.25</ele></trkpt>
   <trkpt lon="13.810881" lat="50.795986"><ele>453.25</ele></trkpt>
   <trkpt lon="13.811233" lat="50.795823"><ele>452.75</ele></trkpt>
   <trkpt lon="13.811740" lat="50.795625"><ele>454.0</ele></trkpt>
   <trkpt lon="13.812400" lat="50.795363"><ele>456.25</ele></trkpt>
   <trkpt lon="13.812961" lat="50.795078"><ele>455.25</ele></trkpt>
   <trkpt lon="13.814228" lat="50.794290"><ele>458.25</ele></trkpt>
   <trkpt lon="13.815296" lat="50.793624"><ele>459.5</ele></trkpt>
   <trkpt lon="13.815738" lat="50.793340"><ele>460.0</ele></trkpt>
   <trkpt lon="13.816053" lat="50.793135"><ele>461.0</ele></trkpt>
   <trkpt lon="13.816325" lat="50.792919"><ele>461.75</ele></trkpt>
   <trkpt lon="13.816495" lat="50.792755"><ele>461.75</ele></trkpt>
   <trkpt lon="13.816655" lat="50.792565"><ele>461.75</ele></trkpt>
   <trkpt lon="13.816745" lat="50.792407"><ele>462.75</ele></trkpt>
   <trkpt lon="13.816818" lat="50.792239"><ele>463.75</ele></trkpt>
   <trkpt lon="13.816879" lat="50.792083"><ele>465.0</ele></trkpt>
   <trkpt lon="13.816917" lat="50.791894"><ele>466.25</ele></trkpt>
   <trkpt lon="13.816908" lat="50.791680"><ele>467.75</ele></trkpt>
   <trkpt lon="13.816858" lat="50.791380"><ele>468.75</ele></trkpt>
   <trkpt lon="13.816702" lat="50.791054"><ele>468.75</ele></trkpt>
   <trkpt lon="13.816541" lat="50.790837"><ele>469.25</ele></trkpt>
   <trkpt lon="13.816374" lat="50.790654"><ele>472.0</ele></trkpt>
   <trkpt lon="13.816128" lat="50.790422"><ele>474.5</ele></trkpt>
   <trkpt lon="13.815534" lat="50.789935"><ele>474.0</ele></trkpt>
   <trkpt lon="13.815376" lat="50.789787"><ele>474.75</ele></trkpt>
   <trkpt lon="13.815192" lat="50.789587"><ele>475.25</ele></trkpt>
   <trkpt lon="13.815076" lat="50.789408"><ele>476.0</ele></trkpt>
   <trkpt lon="13.814991" lat="50.789215"><ele>477.25</ele></trkpt>
   <trkpt lon="13.814875" lat="50.788687"><ele>479.5</ele></trkpt>
   <trkpt lon="13.814828" lat="50.788381"><ele>480.25</ele></trkpt>
   <trkpt lon="13.814758" lat="50.787896"><ele>479.75</ele></trkpt>
   <trkpt lon="13.814647" lat="50.787176"><ele>479.25</ele></trkpt>
   <trkpt lon="13.814613" lat="50.787053"><ele>479.25</ele></trkpt>
   <trkpt lon="13.814515" lat="50.786758"><ele>479.5</ele></trkpt>
   <trkpt lon="13.814386" lat="50.786530"><ele>479.25</ele></trkpt>
   <trkpt lon="13.814243" lat="50.786318"><ele>478.5</ele></trkpt>
   <trkpt lon="13.814040" lat="50.786061"><ele>477.75</ele></trkpt>
   <trkpt lon="13.813817" lat="50.785809"><ele>477.0</ele></trkpt>
   <trkpt lon="13.812745" lat="50.784655"><ele>495.5</ele></trkpt>
   <trkpt lon="13.812411" lat="50.784356"><ele>497.0</ele></trkpt>
   <trkpt lon="13.811991" lat="50.784036"><ele>495.75</ele></trkpt>
   <trkpt lon="13.811531" lat="50.783739"><ele>495.75</ele></trkpt>
   <trkpt lon="13.811033" lat="50.783466"><ele>497.25</ele></trkpt>
   <trkpt lon="13.810532" lat="50.783240"><ele>496.5</ele></trkpt>
   <trkpt lon="13.810234" lat="50.783117"><ele>496.25</ele></trkpt>
   <trkpt lon="13.809855" lat="50.782986"><ele>497.25</ele></trkpt>
   <trkpt lon="13.809476" lat="50.782879"><ele>500.0</ele></trkpt>
   <trkpt lon="13.809084" lat="50.782799"><ele>501.25</ele></trkpt>
   <trkpt lon="13.808722" lat="50.782744"><ele>502.0</ele></trkpt>
   <trkpt lon="13.808379" lat="50.782704"><ele>502.25</ele></trkpt>
   <trkpt lon="13.806834" lat="50.782592"><ele>500.25</ele></trkpt>
   <trkpt lon="13.805419" lat="50.782478"><ele>498.0</ele></trkpt>
   <trkpt lon="13.804830" lat="50.782425"><ele>498.75</ele></trkpt>
   <trkpt lon="13.804148" lat="50.782327"><ele>500.25</ele></trkpt>
   <trkpt lon="13.803385" lat="50.782177"><ele>501.0</ele></trkpt>
   <trkpt lon="13.802976" lat="50.782087"><ele>502.5</ele></trkpt>
   <trkpt lon="13.802067" lat="50.781882"><ele>505.0</ele></trkpt>
   <trkpt lon="13.801179" lat="50.781638"><ele>506.0</ele></trkpt>
   <trkpt lon="13.800709" lat="50.781509"><ele>508.0</ele></trkpt>
   <trkpt lon="13.799125" lat="50.781074"><ele>511.0</ele></trkpt>
   <trkpt lon="13.797204" lat="50.780559"><ele>518.25</ele></trkpt>
   <trkpt lon="13.796546" lat="50.780382"><ele>520.5</ele></trkpt>
   <trkpt lon="13.794671" lat="50.779855"><ele>523.25</ele></trkpt>
   <trkpt lon="13.794290" lat="50.779719"><ele>523.25</ele></trkpt>
   <trkpt lon="13.793735" lat="50.779483"><ele>522.5</ele></trkpt>
   <trkpt lon="13.793388" lat="50.779277"><ele>522.0</ele></trkpt>
   <trkpt lon="13.793052" lat="50.779049"><ele>525.0</ele></trkpt>
   <trkpt lon="13.793022" lat="50.779021"><ele>525.5</ele></trkpt>
   <trkpt lon="13.792720" lat="50.778736"><ele>530.25</ele></trkpt>
   <trkpt lon="13.792414" lat="50.778384"><ele>533.75</ele></trkpt>
   <trkpt lon="13.792190" lat="50.778104"><ele>535.25</ele></trkpt>
   <trkpt lon="13.791824" lat="50.777569"><ele>534.5</ele></trkpt>
   <trkpt lon="13.791684" lat="50.777199"><ele>534.5</ele></trkpt>
   <trkpt lon="13.791617" lat="50.776819"><ele>536.75</ele></trkpt>
   <trkpt lon="13.791578" lat="50.775912"><ele>544.0</ele></trkpt>
   <trkpt lon="13.791566" lat="50.774891"><ele>547.5</ele></trkpt>
   <trkpt lon="13.791503" lat="50.773724"><ele>548.25</ele></trkpt>
   <trkpt lon="13.791500" lat="50.773060"><ele>551.5</ele></trkpt>
   <trkpt lon="13.791485" lat="50.772739"><ele>554.5</ele></trkpt>
   <trkpt lon="13.791487" lat="50.772592"><ele>555.75</ele></trkpt>
   <trkpt lon="13.791518" lat="50.772370"><ele>557.0</ele></trkpt>
   <trkpt lon="13.791632" lat="50.771848"><ele>557.75</ele></trkpt>
   <trkpt lon="13.791917" lat="50.770747"><ele>562.0</ele></trkpt>
   <trkpt lon="13.792010" lat="50.770176"><ele>561.75</ele></trkpt>
   <trkpt lon="13.791996" lat="50.769707"><ele>563.25</ele></trkpt>
   <trkpt lon="13.791885" lat="50.769213"><ele>565.25</ele></trkpt>
   <trkpt lon="13.791685" lat="50.768749"><ele>567.75</ele></trkpt>
   <trkpt lon="13.791256" lat="50.768256"><ele>575.0</ele></trkpt>
   <trkpt lon="13.790634" lat="50.767739"><ele>577.0</ele></trkpt>
   <trkpt lon="13.789981" lat="50.767261"><ele>575.5</ele></trkpt>
   <trkpt lon="13.789248" lat="50.766751"><ele>577.5</ele></trkpt>
   <trkpt lon="13.788938" lat="50.766518"><ele>577.25</ele></trkpt>
   <trkpt lon="13.788687" lat="50.766299"><ele>577.5</ele></trkpt>
   <trkpt lon="13.788285" lat="50.765893"><ele>576.75</ele></trkpt>
   <trkpt lon="13.787975" lat="50.765321"><ele>581.25</ele></trkpt>
   <trkpt lon="13.787822" lat="50.764904"><ele>583.0</ele></trkpt>
   <trkpt lon="13.787776" lat="50.764610"><ele>584.75</ele></trkpt>
   <trkpt lon="13.787802" lat="50.764323"><ele>586.75</ele></trkpt>
   <trkpt lon="13.787858" lat="50.764056"><ele>588.5</ele></trkpt>
   <trkpt lon="13.787985" lat="50.763765"><ele>590.25</ele></trkpt>
   <trkpt lon="13.788063" lat="50.763635"><ele>591.25</ele></trkpt>
   <trkpt lon="13.788335" lat="50.763319"><ele>594.0</ele></trkpt>
   <trkpt lon="13.788569" lat="50.763114"><ele>600.25</ele></trkpt>
   <trkpt lon="13.788830" lat="50.762942"><ele>600.0</ele></trkpt>
   <trkpt lon="13.789655" lat="50.762487"><ele>599.25</ele></trkpt>
   <trkpt lon="13.789913" lat="50.762295"><ele>599.0</ele></trkpt>
   <trkpt lon="13.790056" lat="50.762143"><ele>599.0</ele></trkpt>
   <trkpt lon="13.790128" lat="50.762034"><ele>598.75</ele></trkpt>
   <trkpt lon="13.790179" lat="50.761937"><ele>598.75</ele></trkpt>
   <trkpt lon="13.790213" lat="50.761846"><ele>598.75</ele></trkpt>
   <trkpt lon="13.790235" lat="50.761744"><ele>598.5</ele></trkpt>
   <trkpt lon="13.790245" lat="50.761630"><ele>598.5</ele></trkpt>
   <trkpt lon="13.790209" lat="50.761407"><ele>598.25</ele></trkpt>
   <trkpt lon="13.790146" lat="50.761224"><ele>598.25</ele></trkpt>
   <trkpt lon="13.790010" lat="50.761025"><ele>598.25</ele></trkpt>
   <trkpt lon="13.789909" lat="50.760916"><ele>595.75</ele></trkpt>
   <trkpt lon="13.789795" lat="50.760826"><ele>593.5</ele></trkpt>
   <trkpt lon="13.789603" lat="50.760698"><ele>592.75</ele></trkpt>
   <trkpt lon="13.789433" lat="50.760610"><ele>592.25</ele></trkpt>
   <trkpt lon="13.789231" lat="50.760535"><ele>591.5</ele></trkpt>
   <trkpt lon="13.788948" lat="50.760449"><ele>590.75</ele></trkpt>
   <trkpt lon="13.788665" lat="50.760396"><ele>590.0</ele></trkpt>
   <trkpt lon="13.788455" lat="50.760372"><ele>589.5</ele></trkpt>
   <trkpt lon="13.788262" lat="50.760365"><ele>589.25</ele></trkpt>
   <trkpt lon="13.788199" lat="50.760362"><ele>589.25</ele></trkpt>
   <trkpt lon="13.788020" lat="50.760352"><ele>590.25</ele></trkpt>
   <trkpt lon="13.787663" lat="50.760355"><ele>592.0</ele></trkpt>
   <trkpt lon="13.787441" lat="50.760373"><ele>593.0</ele></trkpt>
   <trkpt lon="13.787243" lat="50.760398"><ele>593.75</ele></trkpt>
   <trkpt lon="13.787060" lat="50.760433"><ele>594.0</ele></trkpt>
   <trkpt lon="13.786054" lat="50.760697"><ele>593.0</ele></trkpt>
   <trkpt lon="13.785594" lat="50.760807"><ele>592.0</ele></trkpt>
   <trkpt lon="13.785184" lat="50.760933"><ele>591.75</ele></trkpt>
   <trkpt lon="13.784852" lat="50.761048"><ele>592.75</ele></trkpt>
   <trkpt lon="13.784535" lat="50.761164"><ele>595.25</ele></trkpt>
   <trkpt lon="13.784183" lat="50.761299"><ele>598.25</ele></trkpt>
   <trkpt lon="13.784053" lat="50.761365"><ele>599.5</ele></trkpt>
   <trkpt lon="13.784025" lat="50.761381"><ele>599.75</ele></trkpt>
   <trkpt lon="13.783889" lat="50.761456"><ele>601.0</ele></trkpt>
   <trkpt lon="13.783754" lat="50.761528"><ele>602.5</ele></trkpt>
   <trkpt lon="13.783631" lat="50.761632"><ele>604.0</ele></trkpt>
   <trkpt lon="13.783512" lat="50.761742"><ele>605.75</ele></trkpt>
   <trkpt lon="13.783399" lat="50.761881"><ele>607.75</ele></trkpt>
   <trkpt lon="13.783340" lat="50.761991"><ele>609.25</ele></trkpt>
   <trkpt lon="13.783301" lat="50.762117"><ele>610.5</ele></trkpt>
   <trkpt lon="13.783265" lat="50.762267"><ele>612.0</ele></trkpt>
   <trkpt lon="13.783258" lat="50.762405"><ele>613.25</ele></trkpt>
   <trkpt lon="13.783278" lat="50.762535"><ele>613.75</ele></trkpt>
   <trkpt lon="13.784063" lat="50.764474"><ele>609.0</ele></trkpt>
   <trkpt lon="13.784388" lat="50.765318"><ele>609.0</ele></trkpt>
   <trkpt lon="13.784437" lat="50.765460"><ele>609.5</ele></trkpt>
   <trkpt lon="13.784517" lat="50.765618"><ele>610.0</ele></trkpt>
   <trkpt lon="13.784683" lat="50.765826"><ele>609.75</ele></trkpt>
   <trkpt lon="13.784827" lat="50.765987"><ele>611.5</ele></trkpt>
   <trkpt lon="13.785041" lat="50.766185"><ele>613.5</ele></trkpt>
   <trkpt lon="13.786479" lat="50.767300"><ele>618.75</ele></trkpt>
   <trkpt lon="13.786852" lat="50.767604"><ele>621.0</ele></trkpt>
   <trkpt lon="13.787296" lat="50.767928"><ele>621.0</ele></trkpt>
   <trkpt lon="13.787632" lat="50.768202"><ele>622.0</ele></trkpt>
   <trkpt lon="13.787827" lat="50.768381"><ele>622.5</ele></trkpt>
   <trkpt lon="13.787923" lat="50.768512"><ele>622.75</ele></trkpt>
   <trkpt lon="13.788113" lat="50.768816"><ele>623.25</ele></trkpt>
   <trkpt lon="13.788218" lat="50.769169"><ele>626.5</ele></trkpt>
   <trkpt lon="13.788235" lat="50.769353"><ele>626.0</ele></trkpt>
   <trkpt lon="13.788236" lat="50.769552"><ele>626.0</ele></trkpt>
   <trkpt lon="13.788205" lat="50.769707"><ele>626.5</ele></trkpt>
   <trkpt lon="13.788148" lat="50.769867"><ele>627.75</ele></trkpt>
   <trkpt lon="13.788079" lat="50.770006"><ele>629.0</ele></trkpt>
   <trkpt lon="13.788026" lat="50.770090"><ele>628.75</ele></trkpt>
   <trkpt lon="13.787980" lat="50.770162"><ele>628.75</ele></trkpt>
   <trkpt lon="13.787753" lat="50.770444"><ele>628.75</ele></trkpt>
   <trkpt lon="13.787483" lat="50.770680"><ele>629.75</ele></trkpt>
   <trkpt lon="13.787154" lat="50.770893"><ele>631.0</ele></trkpt>
   <trkpt lon="13.786826" lat="50.771055"><ele>632.75</ele></trkpt>
   <trkpt lon="13.786456" lat="50.771207"><ele>634.25</ele></trkpt>
   <trkpt lon="13.785654" lat="50.771459"><ele>638.0</ele></trkpt>
   <trkpt lon="13.784881" lat="50.771717"><ele>640.5</ele></trkpt>
   <trkpt lon="13.784440" lat="50.771905"><ele>643.0</ele></trkpt>
   <trkpt lon="13.784157" lat="50.772052"><ele>644.25</ele></trkpt>
   <trkpt lon="13.783888" lat="50.772221"><ele>644.75</ele></trkpt>
   <trkpt lon="13.783615" lat="50.772426"><ele>645.0</ele></trkpt>
   <trkpt lon="13.783358" lat="50.772646"><ele>646.5</ele></trkpt>
   <trkpt lon="13.783165" lat="50.772863"><ele>648.0</ele></trkpt>
   <trkpt lon="13.782993" lat="50.773103"><ele>648.75</ele></trkpt>
   <trkpt lon="13.782554" lat="50.773833"><ele>653.25</ele></trkpt>
   <trkpt lon="13.782172" lat="50.774495"><ele>655.25</ele></trkpt>
   <trkpt lon="13.782036" lat="50.774778"><ele>655.5</ele></trkpt>
   <trkpt lon="13.781942" lat="50.775045"><ele>655.5</ele></trkpt>
   <trkpt lon="13.781652" lat="50.776144"><ele>660.25</ele></trkpt>
   <trkpt lon="13.781522" lat="50.776403"><ele>662.75</ele></trkpt>
   <trkpt lon="13.781183" lat="50.776743"><ele>666.25</ele></trkpt>
   <trkpt lon="13.780756" lat="50.777086"><ele>667.75</ele></trkpt>
   <trkpt lon="13.780145" lat="50.777593"><ele>671.25</ele></trkpt>
   <trkpt lon="13.780004" lat="50.777749"><ele>672.25</ele></trkpt>
   <trkpt lon="13.779769" lat="50.778049"><ele>674.75</ele></trkpt>
   <trkpt lon="13.779599" lat="50.778395"><ele>676.25</ele></trkpt>
   <trkpt lon="13.779071" lat="50.779559"><ele>679.0</ele></trkpt>
   <trkpt lon="13.778960" lat="50.779743"><ele>679.25</ele></trkpt>
   <trkpt lon="13.778834" lat="50.779910"><ele>680.0</ele></trkpt>
   <trkpt lon="13.778677" lat="50.780082"><ele>681.5</ele></trkpt>
   <trkpt lon="13.778449" lat="50.780289"><ele>684.25</ele></trkpt>
   <trkpt lon="13.778093" lat="50.780494"><ele>686.75</ele></trkpt>
   <trkpt lon="13.777674" lat="50.780680"><ele>687.75</ele></trkpt>
   <trkpt lon="13.777101" lat="50.780838"><ele>687.75</ele></trkpt>
   <trkpt lon="13.776702" lat="50.780902"><ele>688.25</ele></trkpt>
   <trkpt lon="13.776308" lat="50.780925"><ele>688.0</ele></trkpt>
   <trkpt lon="13.775921" lat="50.780919"><ele>687.75</ele></trkpt>
   <trkpt lon="13.775573" lat="50.780889"><ele>688.0</ele></trkpt>
   <trkpt lon="13.775215" lat="50.780825"><ele>689.0</ele></trkpt>
   <trkpt lon="13.774882" lat="50.780742"><ele>689.75</ele></trkpt>
   <trkpt lon="13.774601" lat="50.780639"><ele>689.5</ele></trkpt>
   <trkpt lon="13.774213" lat="50.780459"><ele>689.25</ele></trkpt>
   <trkpt lon="13.773927" lat="50.780282"><ele>689.25</ele></trkpt>
   <trkpt lon="13.773755" lat="50.780138"><ele>689.5</ele></trkpt>
   <trkpt lon="13.773572" lat="50.779941"><ele>690.25</ele></trkpt>
   <trkpt lon="13.773369" lat="50.779668"><ele>692.0</ele></trkpt>
   <trkpt lon="13.773285" lat="50.779494"><ele>693.5</ele></trkpt>
   <trkpt lon="13.773028" lat="50.778877"><ele>696.5</ele></trkpt>
   <trkpt lon="13.772917" lat="50.778675"><ele>696.25</ele></trkpt>
   <trkpt lon="13.772810" lat="50.778489"><ele>696.25</ele></trkpt>
   <trkpt lon="13.772716" lat="50.778350"><ele>696.0</ele></trkpt>
   <trkpt lon="13.772570" lat="50.778182"><ele>695.75</ele></trkpt>
   <trkpt lon="13.772449" lat="50.778065"><ele>695.75</ele></trkpt>
   <trkpt lon="13.772298" lat="50.777946"><ele>695.75</ele></trkpt>
   <trkpt lon="13.771983" lat="50.777729"><ele>696.0</ele></trkpt>
   <trkpt lon="13.771807" lat="50.777633"><ele>696.5</ele></trkpt>
   <trkpt lon="13.771505" lat="50.777483"><ele>697.25</ele></trkpt>
   <trkpt lon="13.771308" lat="50.777394"><ele>697.25</ele></trkpt>
   <trkpt lon="13.770960" lat="50.777233"><ele>697.75</ele></trkpt>
   <trkpt lon="13.770188" lat="50.776868"><ele>700.25</ele></trkpt>
   <trkpt lon="13.770097" lat="50.776826"><ele>700.5</ele></trkpt>
   <trkpt lon="13.769710" lat="50.776601"><ele>702.25</ele></trkpt>
   <trkpt lon="13.769544" lat="50.776486"><ele>702.75</ele></trkpt>
   <trkpt lon="13.769392" lat="50.776356"><ele>703.25</ele></trkpt>
   <trkpt lon="13.769242" lat="50.776202"><ele>704.25</ele></trkpt>
   <trkpt lon="13.769108" lat="50.776053"><ele>705.25</ele></trkpt>
   <trkpt lon="13.768653" lat="50.775486"><ele>708.25</ele></trkpt>
   <trkpt lon="13.767995" lat="50.774645"><ele>710.5</ele></trkpt>
   <trkpt lon="13.767582" lat="50.774059"><ele>712.25</ele></trkpt>
   <trkpt lon="13.765582" lat="50.771221"><ele>727.0</ele></trkpt>
   <trkpt lon="13.765193" lat="50.770871"><ele>729.0</ele></trkpt>
   <trkpt lon="13.764996" lat="50.770710"><ele>729.5</ele></trkpt>
   <trkpt lon="13.764815" lat="50.770584"><ele>730.25</ele></trkpt>
   <trkpt lon="13.764432" lat="50.770364"><ele>731.5</ele></trkpt>
   <trkpt lon="13.764195" lat="50.770250"><ele>732.0</ele></trkpt>
   <trkpt lon="13.763849" lat="50.770110"><ele>733.25</ele></trkpt>
   <trkpt lon="13.763193" lat="50.769904"><ele>735.0</ele></trkpt>
   <trkpt lon="13.762689" lat="50.769776"><ele>736.0</ele></trkpt>
   <trkpt lon="13.762164" lat="50.769685"><ele>736.75</ele></trkpt>
   <trkpt lon="13.761632" lat="50.769614"><ele>737.5</ele></trkpt>
   <trkpt lon="13.760904" lat="50.769536"><ele>738.5</ele></trkpt>
   <trkpt lon="13.759153" lat="50.769364"><ele>742.5</ele></trkpt>
   <trkpt lon="13.758822" lat="50.769318"><ele>743.5</ele></trkpt>
   <trkpt lon="13.758571" lat="50.769267"><ele>744.5</ele></trkpt>
   <trkpt lon="13.758324" lat="50.769205"><ele>745.5</ele></trkpt>
   <trkpt lon="13.758095" lat="50.769135"><ele>746.25</ele></trkpt>
   <trkpt lon="13.757861" lat="50.769042"><ele>747.0</ele></trkpt>
   <trkpt lon="13.757658" lat="50.768942"><ele>747.75</ele></trkpt>
   <trkpt lon="13.757176" lat="50.768660"><ele>748.5</ele></trkpt>
   <trkpt lon="13.756496" lat="50.768213"><ele>749.25</ele></trkpt>
   <trkpt lon="13.756392" lat="50.768148"><ele>749.25</ele></trkpt>
   <trkpt lon="13.756157" lat="50.767963"><ele>749.75</ele></trkpt>
   <trkpt lon="13.755923" lat="50.767843"><ele>749.75</ele></trkpt>
   <trkpt lon="13.754113" lat="50.766648"><ele>753.0</ele></trkpt>
   <trkpt lon="13.753205" lat="50.766049"><ele>753.5</ele></trkpt>
   <trkpt lon="13.753009" lat="50.765919"><ele>754.25</ele></trkpt>
   <trkpt lon="13.752948" lat="50.765881"><ele>754.75</ele></trkpt>
  </trkseg>
 </trk>
</gpx>
