<?xml version="1.0" encoding="UTF-8"?>
<!-- track-length = 9331 filtered ascend = 53 plain-ascend = 41 cost=9331 energy=0.1kwh time=12m 27s -->
<gpx 
 xmlns="http://www.topografix.com/GPX/1/1" 
 xmlns:xsi="http://www.w3.org/2001/XMLSchema-instance" 
 xsi:schemaLocation="http://www.topografix.com/GPX/1/1 http://www.topografix.com/GPX/1/1/gpx.xsd" 
 version="1.1" 
 creator="BRouter-Web 0.18.1">
 <trk>
  <name>Hildesheim - NBS</name>
  <trkseg>
   <trkpt lat="52.160529" lon="9.953337"><ele>86.75</ele></trkpt>
   <trkpt lat="52.160489" lon="9.953176"><ele>86.75</ele></trkpt>
   <trkpt lat="52.160225" lon="9.952133"><ele>86.75</ele></trkpt>
   <trkpt lat="52.160218" lon="9.952107"><ele>86.75</ele></trkpt>
   <trkpt lat="52.16018" lon="9.951958"><ele>86.5</ele></trkpt>
   <trkpt lat="52.1601" lon="9.951697"><ele>86.25</ele></trkpt>
   <trkpt lat="52.159877" lon="9.951118"><ele>85.75</ele></trkpt>
   <trkpt lat="52.159683" lon="9.95061"><ele>85.5</ele></trkpt>
   <trkpt lat="52.159557" lon="9.950235"><ele>85.25</ele></trkpt>
   <trkpt lat="52.159502" lon="9.950023"><ele>85.25</ele></trkpt>
   <trkpt lat="52.159434" lon="9.94977"><ele>85.25</ele></trkpt>
   <trkpt lat="52.159362" lon="9.949476"><ele>85.25</ele></trkpt>
   <trkpt lat="52.159324" lon="9.949328"><ele>85.25</ele></trkpt>
   <trkpt lat="52.159009" lon="9.94808"><ele>85</ele></trkpt>
   <trkpt lat="52.158873" lon="9.947531"><ele>85.5</ele></trkpt>
   <trkpt lat="52.158726" lon="9.946879"><ele>85.75</ele></trkpt>
   <trkpt lat="52.158503" lon="9.945884"><ele>84.25</ele></trkpt>
   <trkpt lat="52.158473" lon="9.945744"><ele>84.25</ele></trkpt>
   <trkpt lat="52.158257" lon="9.944786"><ele>84.25</ele></trkpt>
   <trkpt lat="52.15792" lon="9.943427"><ele>85</ele></trkpt>
   <trkpt lat="52.157781" lon="9.942882"><ele>85.5</ele></trkpt>
   <trkpt lat="52.157603" lon="9.94218"><ele>86.5</ele></trkpt>
   <trkpt lat="52.157108" lon="9.940223"><ele>86.5</ele></trkpt>
   <trkpt lat="52.156988" lon="9.939754"><ele>86</ele></trkpt>
   <trkpt lat="52.156828" lon="9.939099"><ele>85.25</ele></trkpt>
   <trkpt lat="52.156719" lon="9.93858"><ele>85</ele></trkpt>
   <trkpt lat="52.156659" lon="9.938187"><ele>84.75</ele></trkpt>
   <trkpt lat="52.156635" lon="9.938024"><ele>84.5</ele></trkpt>
   <trkpt lat="52.156565" lon="9.937373"><ele>83.75</ele></trkpt>
   <trkpt lat="52.156519" lon="9.936683"><ele>83.75</ele></trkpt>
   <trkpt lat="52.156475" lon="9.935775"><ele>81.25</ele></trkpt>
   <trkpt lat="52.156452" lon="9.935147"><ele>79.75</ele></trkpt>
   <trkpt lat="52.156451" lon="9.934922"><ele>79.25</ele></trkpt>
   <trkpt lat="52.156449" lon="9.934587"><ele>78.5</ele></trkpt>
   <trkpt lat="52.156446" lon="9.934358"><ele>78</ele></trkpt>
   <trkpt lat="52.156458" lon="9.932915"><ele>77.5</ele></trkpt>
   <trkpt lat="52.156477" lon="9.930852"><ele>77.5</ele></trkpt>
   <trkpt lat="52.156481" lon="9.930253"><ele>77.5</ele></trkpt>
   <trkpt lat="52.1565" lon="9.929449"><ele>76.75</ele></trkpt>
   <trkpt lat="52.156501" lon="9.929338"><ele>76.75</ele></trkpt>
   <trkpt lat="52.156502" lon="9.92931"><ele>76.75</ele></trkpt>
   <trkpt lat="52.156514" lon="9.928491"><ele>76.5</ele></trkpt>
   <trkpt lat="52.156529" lon="9.927962"><ele>76</ele></trkpt>
   <trkpt lat="52.156561" lon="9.926868"><ele>74.5</ele></trkpt>
   <trkpt lat="52.156585" lon="9.92615"><ele>76.25</ele></trkpt>
   <trkpt lat="52.156607" lon="9.925747"><ele>77.5</ele></trkpt>
   <trkpt lat="52.156631" lon="9.925423"><ele>78</ele></trkpt>
   <trkpt lat="52.156681" lon="9.924756"><ele>80</ele></trkpt>
   <trkpt lat="52.156711" lon="9.924426"><ele>81.5</ele></trkpt>
   <trkpt lat="52.15672" lon="9.924325"><ele>82</ele></trkpt>
   <trkpt lat="52.156803" lon="9.923585"><ele>84.25</ele></trkpt>
   <trkpt lat="52.156896" lon="9.922921"><ele>85</ele></trkpt>
   <trkpt lat="52.157093" lon="9.921755"><ele>85.75</ele></trkpt>
   <trkpt lat="52.157256" lon="9.920958"><ele>87</ele></trkpt>
   <trkpt lat="52.157548" lon="9.919732"><ele>88.5</ele></trkpt>
   <trkpt lat="52.157588" lon="9.919564"><ele>89</ele></trkpt>
   <trkpt lat="52.158757" lon="9.914759"><ele>90.75</ele></trkpt>
   <trkpt lat="52.158924" lon="9.914033"><ele>91</ele></trkpt>
   <trkpt lat="52.159025" lon="9.913581"><ele>91</ele></trkpt>
   <trkpt lat="52.159117" lon="9.913138"><ele>91.25</ele></trkpt>
   <trkpt lat="52.159176" lon="9.912802"><ele>91.5</ele></trkpt>
   <trkpt lat="52.159303" lon="9.912088"><ele>91.5</ele></trkpt>
   <trkpt lat="52.159425" lon="9.911244"><ele>90.75</ele></trkpt>
   <trkpt lat="52.159519" lon="9.910439"><ele>90</ele></trkpt>
   <trkpt lat="52.159572" lon="9.909849"><ele>90</ele></trkpt>
   <trkpt lat="52.1596" lon="9.909534"><ele>90.25</ele></trkpt>
   <trkpt lat="52.159619" lon="9.909235"><ele>90.25</ele></trkpt>
   <trkpt lat="52.159628" lon="9.909091"><ele>90.25</ele></trkpt>
   <trkpt lat="52.159676" lon="9.90788"><ele>90.25</ele></trkpt>
   <trkpt lat="52.159694" lon="9.906915"><ele>90</ele></trkpt>
   <trkpt lat="52.159701" lon="9.906014"><ele>89.75</ele></trkpt>
   <trkpt lat="52.159728" lon="9.902509"><ele>89.25</ele></trkpt>
   <trkpt lat="52.159745" lon="9.900186"><ele>89</ele></trkpt>
   <trkpt lat="52.159749" lon="9.899673"><ele>88.5</ele></trkpt>
   <trkpt lat="52.159751" lon="9.899398"><ele>88.25</ele></trkpt>
   <trkpt lat="52.159751" lon="9.899227"><ele>88.25</ele></trkpt>
   <trkpt lat="52.159754" lon="9.898847"><ele>88.25</ele></trkpt>
   <trkpt lat="52.159763" lon="9.897678"><ele>89</ele></trkpt>
   <trkpt lat="52.159772" lon="9.896657"><ele>90</ele></trkpt>
   <trkpt lat="52.159776" lon="9.895931"><ele>90.75</ele></trkpt>
   <trkpt lat="52.159788" lon="9.894317"><ele>90.25</ele></trkpt>
   <trkpt lat="52.159803" lon="9.892286"><ele>90.5</ele></trkpt>
   <trkpt lat="52.159809" lon="9.891234"><ele>90</ele></trkpt>
   <trkpt lat="52.159826" lon="9.888851"><ele>89.75</ele></trkpt>
   <trkpt lat="52.159825" lon="9.887796"><ele>89.75</ele></trkpt>
   <trkpt lat="52.15981" lon="9.885959"><ele>89</ele></trkpt>
   <trkpt lat="52.159814" lon="9.885609"><ele>89</ele></trkpt>
   <trkpt lat="52.159815" lon="9.88559"><ele>89</ele></trkpt>
   <trkpt lat="52.15981" lon="9.884426"><ele>88.25</ele></trkpt>
   <trkpt lat="52.159795" lon="9.883049"><ele>87.5</ele></trkpt>
   <trkpt lat="52.15976" lon="9.881192"><ele>86.25</ele></trkpt>
   <trkpt lat="52.159745" lon="9.880613"><ele>86</ele></trkpt>
   <trkpt lat="52.159732" lon="9.880106"><ele>86</ele></trkpt>
   <trkpt lat="52.15969" lon="9.879155"><ele>86</ele></trkpt>
   <trkpt lat="52.159642" lon="9.878143"><ele>86</ele></trkpt>
   <trkpt lat="52.159592" lon="9.877351"><ele>87</ele></trkpt>
   <trkpt lat="52.159506" lon="9.876412"><ele>86.5</ele></trkpt>
   <trkpt lat="52.159484" lon="9.876253"><ele>86.5</ele></trkpt>
   <trkpt lat="52.159381" lon="9.875456"><ele>85.75</ele></trkpt>
   <trkpt lat="52.159303" lon="9.875036"><ele>85.75</ele></trkpt>
   <trkpt lat="52.159212" lon="9.87454"><ele>86.25</ele></trkpt>
   <trkpt lat="52.159004" lon="9.873625"><ele>87</ele></trkpt>
   <trkpt lat="52.158798" lon="9.87286"><ele>87</ele></trkpt>
   <trkpt lat="52.158435" lon="9.87181"><ele>87</ele></trkpt>
   <trkpt lat="52.158213" lon="9.871241"><ele>87.25</ele></trkpt>
   <trkpt lat="52.15788" lon="9.870495"><ele>87.25</ele></trkpt>
   <trkpt lat="52.157467" lon="9.869697"><ele>87.25</ele></trkpt>
   <trkpt lat="52.157092" lon="9.869078"><ele>87.5</ele></trkpt>
   <trkpt lat="52.156769" lon="9.868621"><ele>87</ele></trkpt>
   <trkpt lat="52.156262" lon="9.86795"><ele>87</ele></trkpt>
   <trkpt lat="52.155654" lon="9.867285"><ele>87</ele></trkpt>
   <trkpt lat="52.155212" lon="9.866879"><ele>87.5</ele></trkpt>
   <trkpt lat="52.154553" lon="9.866382"><ele>88.5</ele></trkpt>
   <trkpt lat="52.154068" lon="9.866078"><ele>89</ele></trkpt>
   <trkpt lat="52.153495" lon="9.865796"><ele>89.75</ele></trkpt>
   <trkpt lat="52.152896" lon="9.865585"><ele>90.5</ele></trkpt>
   <trkpt lat="52.152385" lon="9.86545"><ele>91</ele></trkpt>
   <trkpt lat="52.15167" lon="9.865349"><ele>92.5</ele></trkpt>
   <trkpt lat="52.151047" lon="9.86535"><ele>93.25</ele></trkpt>
   <trkpt lat="52.147504" lon="9.865567"><ele>100.25</ele></trkpt>
   <trkpt lat="52.146521" lon="9.865621"><ele>100.5</ele></trkpt>
   <trkpt lat="52.145218" lon="9.865747"><ele>102</ele></trkpt>
   <trkpt lat="52.144553" lon="9.86589"><ele>102.5</ele></trkpt>
   <trkpt lat="52.143964" lon="9.866053"><ele>103</ele></trkpt>
   <trkpt lat="52.141663" lon="9.866837"><ele>107.75</ele></trkpt>
   <trkpt lat="52.139567" lon="9.867551"><ele>112.75</ele></trkpt>
   <trkpt lat="52.138884" lon="9.867802"><ele>115.75</ele></trkpt>
   <trkpt lat="52.138497" lon="9.867926"><ele>117.5</ele></trkpt>
   <trkpt lat="52.137026" lon="9.868375"><ele>120.75</ele></trkpt>
   <trkpt lat="52.136693" lon="9.868484"><ele>122.75</ele></trkpt>
   <trkpt lat="52.136472" lon="9.868556"><ele>126</ele></trkpt>
   <trkpt lat="52.136158" lon="9.868668"/>
   <trkpt lat="52.131236" lon="9.870435"/>
   <trkpt lat="52.12804" lon="9.871557"/>
  </trkseg>
 </trk>
</gpx>