<?xml version="1.0" encoding="UTF-8"?>
<!-- track-length = 42716 filtered ascend = 15 plain-ascend = -6 cost=42716 energy=.5kwh time=56m 57s -->
<gpx 
 xmlns="http://www.topografix.com/GPX/1/1" 
 xmlns:xsi="http://www.w3.org/2001/XMLSchema-instance" 
 xsi:schemaLocation="http://www.topografix.com/GPX/1/1 http://www.topografix.com/GPX/1/1/gpx.xsd" 
 creator="BRouter-1.7.0" version="1.1">
 <trk>
  <name>Hildesheim - Braunschweig</name>
  <trkseg>
   <trkpt lon="9.952498" lat="52.160317"><ele>86.75</ele></trkpt>
   <trkpt lon="9.953176" lat="52.160489"><ele>86.75</ele></trkpt>
   <trkpt lon="9.953347" lat="52.160532"><ele>86.75</ele></trkpt>
   <trkpt lon="9.953504" lat="52.160572"><ele>87.0</ele></trkpt>
   <trkpt lon="9.953543" lat="52.160582"><ele>87.0</ele></trkpt>
   <trkpt lon="9.954011" lat="52.160700"><ele>87.0</ele></trkpt>
   <trkpt lon="9.954226" lat="52.160755"><ele>86.75</ele></trkpt>
   <trkpt lon="9.954612" lat="52.160851"><ele>86.5</ele></trkpt>
   <trkpt lon="9.954658" lat="52.160864"><ele>86.5</ele></trkpt>
   <trkpt lon="9.955639" lat="52.161099"><ele>87.25</ele></trkpt>
   <trkpt lon="9.955973" lat="52.161158"><ele>87.5</ele></trkpt>
   <trkpt lon="9.956385" lat="52.161208"><ele>87.75</ele></trkpt>
   <trkpt lon="9.956850" lat="52.161239"><ele>88.0</ele></trkpt>
   <trkpt lon="9.957868" lat="52.161245"><ele>89.5</ele></trkpt>
   <trkpt lon="9.958153" lat="52.161245"><ele>90.0</ele></trkpt>
   <trkpt lon="9.958382" lat="52.161240"><ele>90.25</ele></trkpt>
   <trkpt lon="9.958711" lat="52.161224"><ele>90.0</ele></trkpt>
   <trkpt lon="9.959151" lat="52.161192"><ele>89.5</ele></trkpt>
   <trkpt lon="9.959452" lat="52.161164"><ele>89.25</ele></trkpt>
   <trkpt lon="9.959824" lat="52.161120"><ele>89.0</ele></trkpt>
   <trkpt lon="9.961035" lat="52.160980"><ele>88.25</ele></trkpt>
   <trkpt lon="9.961146" lat="52.160968"><ele>88.0</ele></trkpt>
   <trkpt lon="9.962485" lat="52.160813"><ele>87.0</ele></trkpt>
   <trkpt lon="9.963322" lat="52.160726"><ele>88.25</ele></trkpt>
   <trkpt lon="9.963924" lat="52.160680"><ele>88.5</ele></trkpt>
   <trkpt lon="9.964310" lat="52.160662"><ele>88.5</ele></trkpt>
   <trkpt lon="9.964729" lat="52.160654"><ele>89.0</ele></trkpt>
   <trkpt lon="9.965190" lat="52.160660"><ele>89.0</ele></trkpt>
   <trkpt lon="9.965547" lat="52.160675"><ele>89.0</ele></trkpt>
   <trkpt lon="9.965866" lat="52.160696"><ele>89.0</ele></trkpt>
   <trkpt lon="9.966416" lat="52.160750"><ele>89.0</ele></trkpt>
   <trkpt lon="9.967041" lat="52.160838"><ele>89.0</ele></trkpt>
   <trkpt lon="9.967381" lat="52.160891"><ele>89.0</ele></trkpt>
   <trkpt lon="9.968167" lat="52.161035"><ele>89.0</ele></trkpt>
   <trkpt lon="9.968692" lat="52.161140"><ele>89.0</ele></trkpt>
   <trkpt lon="9.969612" lat="52.161348"><ele>89.25</ele></trkpt>
   <trkpt lon="9.970960" lat="52.161685"><ele>90.0</ele></trkpt>
   <trkpt lon="9.972294" lat="52.162001"><ele>90.5</ele></trkpt>
   <trkpt lon="9.974960" lat="52.162660"><ele>89.5</ele></trkpt>
   <trkpt lon="9.977331" lat="52.163243"><ele>91.0</ele></trkpt>
   <trkpt lon="9.980706" lat="52.164068"><ele>90.0</ele></trkpt>
   <trkpt lon="9.982625" lat="52.164547"><ele>90.0</ele></trkpt>
   <trkpt lon="9.985909" lat="52.165339"><ele>91.0</ele></trkpt>
   <trkpt lon="9.986140" lat="52.165396"><ele>90.75</ele></trkpt>
   <trkpt lon="9.990731" lat="52.166516"><ele>91.0</ele></trkpt>
   <trkpt lon="9.995140" lat="52.167592"><ele>91.0</ele></trkpt>
   <trkpt lon="9.996152" lat="52.167850"><ele>90.5</ele></trkpt>
   <trkpt lon="9.996848" lat="52.168020"><ele>90.0</ele></trkpt>
   <trkpt lon="9.996998" lat="52.168058"><ele>90.0</ele></trkpt>
   <trkpt lon="9.999108" lat="52.168574"><ele>90.0</ele></trkpt>
   <trkpt lon="10.002128" lat="52.169304"><ele>88.75</ele></trkpt>
   <trkpt lon="10.006154" lat="52.170291"><ele>88.75</ele></trkpt>
   <trkpt lon="10.007100" lat="52.170523"><ele>89.0</ele></trkpt>
   <trkpt lon="10.007185" lat="52.170542"><ele>89.0</ele></trkpt>
   <trkpt lon="10.011237" lat="52.171537"><ele>89.0</ele></trkpt>
   <trkpt lon="10.011350" lat="52.171566"><ele>89.0</ele></trkpt>
   <trkpt lon="10.012913" lat="52.171948"><ele>89.25</ele></trkpt>
   <trkpt lon="10.016927" lat="52.172928"><ele>89.0</ele></trkpt>
   <trkpt lon="10.017287" lat="52.173016"><ele>89.0</ele></trkpt>
   <trkpt lon="10.017401" lat="52.173044"><ele>89.0</ele></trkpt>
   <trkpt lon="10.019929" lat="52.173655"><ele>90.75</ele></trkpt>
   <trkpt lon="10.021250" lat="52.173975"><ele>91.0</ele></trkpt>
   <trkpt lon="10.022723" lat="52.174331"><ele>91.25</ele></trkpt>
   <trkpt lon="10.023573" lat="52.174543"><ele>92.25</ele></trkpt>
   <trkpt lon="10.028104" lat="52.175667"><ele>93.0</ele></trkpt>
   <trkpt lon="10.031556" lat="52.176522"><ele>92.75</ele></trkpt>
   <trkpt lon="10.031679" lat="52.176553"><ele>93.0</ele></trkpt>
   <trkpt lon="10.032277" lat="52.176700"><ele>92.75</ele></trkpt>
   <trkpt lon="10.034754" lat="52.177307"><ele>91.25</ele></trkpt>
   <trkpt lon="10.036521" lat="52.177738"><ele>92.25</ele></trkpt>
   <trkpt lon="10.037726" lat="52.178033"><ele>91.5</ele></trkpt>
   <trkpt lon="10.041567" lat="52.178971"><ele>91.75</ele></trkpt>
   <trkpt lon="10.041728" lat="52.179010"><ele>92.0</ele></trkpt>
   <trkpt lon="10.042678" lat="52.179244"><ele>91.75</ele></trkpt>
   <trkpt lon="10.045226" lat="52.179858"><ele>91.25</ele></trkpt>
   <trkpt lon="10.045980" lat="52.180039"><ele>91.0</ele></trkpt>
   <trkpt lon="10.048674" lat="52.180691"><ele>91.5</ele></trkpt>
   <trkpt lon="10.048898" lat="52.180745"><ele>91.5</ele></trkpt>
   <trkpt lon="10.049543" lat="52.180902"><ele>92.25</ele></trkpt>
   <trkpt lon="10.050584" lat="52.181155"><ele>92.5</ele></trkpt>
   <trkpt lon="10.052375" lat="52.181590"><ele>93.0</ele></trkpt>
   <trkpt lon="10.053511" lat="52.181866"><ele>93.0</ele></trkpt>
   <trkpt lon="10.056294" lat="52.182542"><ele>93.25</ele></trkpt>
   <trkpt lon="10.056514" lat="52.182595"><ele>93.25</ele></trkpt>
   <trkpt lon="10.057520" lat="52.182839"><ele>93.25</ele></trkpt>
   <trkpt lon="10.059148" lat="52.183235"><ele>93.0</ele></trkpt>
   <trkpt lon="10.060750" lat="52.183624"><ele>93.75</ele></trkpt>
   <trkpt lon="10.061871" lat="52.183896"><ele>93.0</ele></trkpt>
   <trkpt lon="10.063114" lat="52.184215"><ele>93.75</ele></trkpt>
   <trkpt lon="10.064970" lat="52.184649"><ele>93.0</ele></trkpt>
   <trkpt lon="10.066580" lat="52.184978"><ele>93.75</ele></trkpt>
   <trkpt lon="10.067601" lat="52.185146"><ele>94.0</ele></trkpt>
   <trkpt lon="10.068747" lat="52.185309"><ele>94.0</ele></trkpt>
   <trkpt lon="10.073723" lat="52.185985"><ele>91.0</ele></trkpt>
   <trkpt lon="10.075722" lat="52.186241"><ele>90.0</ele></trkpt>
   <trkpt lon="10.077309" lat="52.186454"><ele>89.0</ele></trkpt>
   <trkpt lon="10.081933" lat="52.187070"><ele>86.25</ele></trkpt>
   <trkpt lon="10.084441" lat="52.187404"><ele>84.25</ele></trkpt>
   <trkpt lon="10.084812" lat="52.187454"><ele>83.25</ele></trkpt>
   <trkpt lon="10.087517" lat="52.187817"><ele>84.0</ele></trkpt>
   <trkpt lon="10.087639" lat="52.187833"><ele>84.0</ele></trkpt>
   <trkpt lon="10.089088" lat="52.188028"><ele>84.25</ele></trkpt>
   <trkpt lon="10.089240" lat="52.188048"><ele>84.0</ele></trkpt>
   <trkpt lon="10.091967" lat="52.188411"><ele>82.75</ele></trkpt>
   <trkpt lon="10.098816" lat="52.189323"><ele>84.5</ele></trkpt>
   <trkpt lon="10.104770" lat="52.190126"><ele>86.75</ele></trkpt>
   <trkpt lon="10.106020" lat="52.190286"><ele>86.75</ele></trkpt>
   <trkpt lon="10.107148" lat="52.190437"><ele>86.75</ele></trkpt>
   <trkpt lon="10.107658" lat="52.190505"><ele>87.0</ele></trkpt>
   <trkpt lon="10.107864" lat="52.190533"><ele>87.25</ele></trkpt>
   <trkpt lon="10.107965" lat="52.190546"><ele>87.5</ele></trkpt>
   <trkpt lon="10.117169" lat="52.191776"><ele>88.75</ele></trkpt>
   <trkpt lon="10.119662" lat="52.192109"><ele>89.5</ele></trkpt>
   <trkpt lon="10.121011" lat="52.192289"><ele>88.5</ele></trkpt>
   <trkpt lon="10.121091" lat="52.192301"><ele>88.5</ele></trkpt>
   <trkpt lon="10.124279" lat="52.192717"><ele>84.25</ele></trkpt>
   <trkpt lon="10.124892" lat="52.192797"><ele>83.25</ele></trkpt>
   <trkpt lon="10.129482" lat="52.193399"><ele>85.5</ele></trkpt>
   <trkpt lon="10.132098" lat="52.193741"><ele>88.0</ele></trkpt>
   <trkpt lon="10.133461" lat="52.193924"><ele>88.0</ele></trkpt>
   <trkpt lon="10.144626" lat="52.195425"><ele>89.75</ele></trkpt>
   <trkpt lon="10.147053" lat="52.195751"><ele>88.0</ele></trkpt>
   <trkpt lon="10.147904" lat="52.195868"><ele>88.0</ele></trkpt>
   <trkpt lon="10.154659" lat="52.196768"><ele>85.5</ele></trkpt>
   <trkpt lon="10.156333" lat="52.196961"><ele>84.75</ele></trkpt>
   <trkpt lon="10.158297" lat="52.197111"><ele>84.0</ele></trkpt>
   <trkpt lon="10.160895" lat="52.197318"><ele>84.25</ele></trkpt>
   <trkpt lon="10.162883" lat="52.197477"><ele>82.5</ele></trkpt>
   <trkpt lon="10.166886" lat="52.197797"><ele>81.25</ele></trkpt>
   <trkpt lon="10.171540" lat="52.198155"><ele>82.75</ele></trkpt>
   <trkpt lon="10.175589" lat="52.198466"><ele>80.0</ele></trkpt>
   <trkpt lon="10.175940" lat="52.198493"><ele>79.75</ele></trkpt>
   <trkpt lon="10.176107" lat="52.198504"><ele>79.5</ele></trkpt>
   <trkpt lon="10.180287" lat="52.198822"><ele>79.5</ele></trkpt>
   <trkpt lon="10.181774" lat="52.198935"><ele>80.25</ele></trkpt>
   <trkpt lon="10.185613" lat="52.199227"><ele>78.75</ele></trkpt>
   <trkpt lon="10.186409" lat="52.199290"><ele>79.25</ele></trkpt>
   <trkpt lon="10.190542" lat="52.199616"><ele>77.25</ele></trkpt>
   <trkpt lon="10.191249" lat="52.199675"><ele>77.75</ele></trkpt>
   <trkpt lon="10.192216" lat="52.199754"><ele>78.75</ele></trkpt>
   <trkpt lon="10.193122" lat="52.199826"><ele>80.5</ele></trkpt>
   <trkpt lon="10.193229" lat="52.199835"><ele>80.75</ele></trkpt>
   <trkpt lon="10.193291" lat="52.199841"><ele>81.0</ele></trkpt>
   <trkpt lon="10.194995" lat="52.199983"><ele>83.75</ele></trkpt>
   <trkpt lon="10.195089" lat="52.199991"><ele>83.75</ele></trkpt>
   <trkpt lon="10.195203" lat="52.200000"><ele>83.75</ele></trkpt>
   <trkpt lon="10.195315" lat="52.200010"><ele>83.5</ele></trkpt>
   <trkpt lon="10.195404" lat="52.200016"><ele>83.25</ele></trkpt>
   <trkpt lon="10.196780" lat="52.200118"><ele>80.75</ele></trkpt>
   <trkpt lon="10.201044" lat="52.200451"><ele>80.5</ele></trkpt>
   <trkpt lon="10.205577" lat="52.200807"><ele>82.75</ele></trkpt>
   <trkpt lon="10.206625" lat="52.200878"><ele>82.75</ele></trkpt>
   <trkpt lon="10.206938" lat="52.200902"><ele>82.25</ele></trkpt>
   <trkpt lon="10.207433" lat="52.200945"><ele>81.5</ele></trkpt>
   <trkpt lon="10.208753" lat="52.201045"><ele>80.0</ele></trkpt>
   <trkpt lon="10.209351" lat="52.201091"><ele>80.0</ele></trkpt>
   <trkpt lon="10.210564" lat="52.201173"><ele>80.5</ele></trkpt>
   <trkpt lon="10.211366" lat="52.201211"><ele>81.0</ele></trkpt>
   <trkpt lon="10.212736" lat="52.201237"><ele>81.5</ele></trkpt>
   <trkpt lon="10.213627" lat="52.201244"><ele>81.5</ele></trkpt>
   <trkpt lon="10.219656" lat="52.201206"><ele>83.25</ele></trkpt>
   <trkpt lon="10.219805" lat="52.201205"><ele>83.25</ele></trkpt>
   <trkpt lon="10.220967" lat="52.201204"><ele>83.5</ele></trkpt>
   <trkpt lon="10.221099" lat="52.201201"><ele>83.5</ele></trkpt>
   <trkpt lon="10.221306" lat="52.201197"><ele>83.75</ele></trkpt>
   <trkpt lon="10.225199" lat="52.201168"><ele>85.75</ele></trkpt>
   <trkpt lon="10.227779" lat="52.201149"><ele>90.5</ele></trkpt>
   <trkpt lon="10.240533" lat="52.201074"><ele>84.75</ele></trkpt>
   <trkpt lon="10.242401" lat="52.201064"><ele>85.0</ele></trkpt>
   <trkpt lon="10.258621" lat="52.200970"><ele>88.5</ele></trkpt>
   <trkpt lon="10.262840" lat="52.200946"><ele>84.5</ele></trkpt>
   <trkpt lon="10.263205" lat="52.200944"><ele>84.0</ele></trkpt>
   <trkpt lon="10.266644" lat="52.200924"><ele>82.75</ele></trkpt>
   <trkpt lon="10.269141" lat="52.200893"><ele>84.75</ele></trkpt>
   <trkpt lon="10.275851" lat="52.200862"><ele>87.75</ele></trkpt>
   <trkpt lon="10.277081" lat="52.200844"><ele>89.0</ele></trkpt>
   <trkpt lon="10.277203" lat="52.200842"><ele>89.0</ele></trkpt>
   <trkpt lon="10.277342" lat="52.200836"><ele>89.0</ele></trkpt>
   <trkpt lon="10.277393" lat="52.200834"><ele>89.0</ele></trkpt>
   <trkpt lon="10.277659" lat="52.200822"><ele>88.75</ele></trkpt>
   <trkpt lon="10.278499" lat="52.200784"><ele>88.0</ele></trkpt>
   <trkpt lon="10.279124" lat="52.200740"><ele>88.75</ele></trkpt>
   <trkpt lon="10.281055" lat="52.200577"><ele>88.5</ele></trkpt>
   <trkpt lon="10.281520" lat="52.200519"><ele>87.75</ele></trkpt>
   <trkpt lon="10.282512" lat="52.200375"><ele>87.0</ele></trkpt>
   <trkpt lon="10.284245" lat="52.200101"><ele>86.5</ele></trkpt>
   <trkpt lon="10.287159" lat="52.199476"><ele>86.75</ele></trkpt>
   <trkpt lon="10.290384" lat="52.198750"><ele>86.5</ele></trkpt>
   <trkpt lon="10.291416" lat="52.198525"><ele>84.25</ele></trkpt>
   <trkpt lon="10.292233" lat="52.198347"><ele>83.25</ele></trkpt>
   <trkpt lon="10.295631" lat="52.197586"><ele>79.0</ele></trkpt>
   <trkpt lon="10.295832" lat="52.197541"><ele>79.0</ele></trkpt>
   <trkpt lon="10.295925" lat="52.197521"><ele>78.75</ele></trkpt>
   <trkpt lon="10.297384" lat="52.197194"><ele>78.0</ele></trkpt>
   <trkpt lon="10.298654" lat="52.196910"><ele>77.0</ele></trkpt>
   <trkpt lon="10.299269" lat="52.196772"><ele>77.5</ele></trkpt>
   <trkpt lon="10.299578" lat="52.196702"><ele>77.5</ele></trkpt>
   <trkpt lon="10.302694" lat="52.196022"><ele>78.0</ele></trkpt>
   <trkpt lon="10.303212" lat="52.195902"><ele>78.0</ele></trkpt>
   <trkpt lon="10.304007" lat="52.195717"><ele>77.5</ele></trkpt>
   <trkpt lon="10.304316" lat="52.195646"><ele>77.5</ele></trkpt>
   <trkpt lon="10.304713" lat="52.195567"><ele>77.75</ele></trkpt>
   <trkpt lon="10.305988" lat="52.195313"><ele>77.75</ele></trkpt>
   <trkpt lon="10.306934" lat="52.195181"><ele>78.0</ele></trkpt>
   <trkpt lon="10.308460" lat="52.195049"><ele>76.75</ele></trkpt>
   <trkpt lon="10.309474" lat="52.195003"><ele>78.25</ele></trkpt>
   <trkpt lon="10.310426" lat="52.195004"><ele>78.75</ele></trkpt>
   <trkpt lon="10.311014" lat="52.195026"><ele>78.75</ele></trkpt>
   <trkpt lon="10.312095" lat="52.195101"><ele>78.25</ele></trkpt>
   <trkpt lon="10.312732" lat="52.195175"><ele>79.0</ele></trkpt>
   <trkpt lon="10.313127" lat="52.195224"><ele>79.5</ele></trkpt>
   <trkpt lon="10.313371" lat="52.195257"><ele>79.75</ele></trkpt>
   <trkpt lon="10.313863" lat="52.195325"><ele>79.5</ele></trkpt>
   <trkpt lon="10.314576" lat="52.195482"><ele>78.75</ele></trkpt>
   <trkpt lon="10.315648" lat="52.195749"><ele>78.75</ele></trkpt>
   <trkpt lon="10.317842" lat="52.196323"><ele>81.25</ele></trkpt>
   <trkpt lon="10.317879" lat="52.196332"><ele>81.5</ele></trkpt>
   <trkpt lon="10.318073" lat="52.196383"><ele>82.0</ele></trkpt>
   <trkpt lon="10.318210" lat="52.196419"><ele>82.25</ele></trkpt>
   <trkpt lon="10.318451" lat="52.196480"><ele>82.75</ele></trkpt>
   <trkpt lon="10.318616" lat="52.196524"><ele>82.75</ele></trkpt>
   <trkpt lon="10.320177" lat="52.196915"><ele>84.25</ele></trkpt>
   <trkpt lon="10.321020" lat="52.197135"><ele>84.5</ele></trkpt>
   <trkpt lon="10.326015" lat="52.198438"><ele>85.25</ele></trkpt>
   <trkpt lon="10.327047" lat="52.198719"><ele>86.0</ele></trkpt>
   <trkpt lon="10.328992" lat="52.199250"><ele>86.0</ele></trkpt>
   <trkpt lon="10.330455" lat="52.199584"><ele>85.25</ele></trkpt>
   <trkpt lon="10.331971" lat="52.199978"><ele>86.0</ele></trkpt>
   <trkpt lon="10.336524" lat="52.201149"><ele>85.5</ele></trkpt>
   <trkpt lon="10.345240" lat="52.203414"><ele>87.75</ele></trkpt>
   <trkpt lon="10.345798" lat="52.203559"><ele>89.5</ele></trkpt>
   <trkpt lon="10.349713" lat="52.204576"><ele>91.5</ele></trkpt>
   <trkpt lon="10.352418" lat="52.205278"><ele>91.25</ele></trkpt>
   <trkpt lon="10.362945" lat="52.208013"><ele>83.25</ele></trkpt>
   <trkpt lon="10.363715" lat="52.208213"><ele>83.0</ele></trkpt>
   <trkpt lon="10.365339" lat="52.208635"><ele>81.5</ele></trkpt>
   <trkpt lon="10.369142" lat="52.209623"><ele>78.0</ele></trkpt>
   <trkpt lon="10.371709" lat="52.210290"><ele>75.25</ele></trkpt>
   <trkpt lon="10.371870" lat="52.210332"><ele>75.25</ele></trkpt>
   <trkpt lon="10.373522" lat="52.210766"><ele>75.0</ele></trkpt>
   <trkpt lon="10.375097" lat="52.211181"><ele>76.5</ele></trkpt>
   <trkpt lon="10.375259" lat="52.211221"><ele>76.5</ele></trkpt>
   <trkpt lon="10.378678" lat="52.212107"><ele>74.25</ele></trkpt>
   <trkpt lon="10.378812" lat="52.212141"><ele>74.25</ele></trkpt>
   <trkpt lon="10.379463" lat="52.212308"><ele>74.75</ele></trkpt>
   <trkpt lon="10.381727" lat="52.212889"><ele>79.75</ele></trkpt>
   <trkpt lon="10.383831" lat="52.213428"><ele>81.0</ele></trkpt>
   <trkpt lon="10.384621" lat="52.213639"><ele>81.25</ele></trkpt>
   <trkpt lon="10.385398" lat="52.213857"><ele>81.25</ele></trkpt>
   <trkpt lon="10.386141" lat="52.214090"><ele>81.0</ele></trkpt>
   <trkpt lon="10.386959" lat="52.214368"><ele>80.5</ele></trkpt>
   <trkpt lon="10.387086" lat="52.214403"><ele>80.5</ele></trkpt>
   <trkpt lon="10.389982" lat="52.215393"><ele>79.5</ele></trkpt>
   <trkpt lon="10.399714" lat="52.218718"><ele>75.5</ele></trkpt>
   <trkpt lon="10.403883" lat="52.220140"><ele>76.0</ele></trkpt>
   <trkpt lon="10.404601" lat="52.220385"><ele>76.0</ele></trkpt>
   <trkpt lon="10.408586" lat="52.221744"><ele>73.75</ele></trkpt>
   <trkpt lon="10.408706" lat="52.221785"><ele>73.75</ele></trkpt>
   <trkpt lon="10.410312" lat="52.222335"><ele>74.0</ele></trkpt>
   <trkpt lon="10.411029" lat="52.222583"><ele>74.25</ele></trkpt>
   <trkpt lon="10.411122" lat="52.222615"><ele>74.25</ele></trkpt>
   <trkpt lon="10.417497" lat="52.224818"><ele>76.0</ele></trkpt>
   <trkpt lon="10.417595" lat="52.224852"><ele>76.0</ele></trkpt>
   <trkpt lon="10.417735" lat="52.224900"><ele>76.0</ele></trkpt>
   <trkpt lon="10.418575" lat="52.225185"><ele>76.0</ele></trkpt>
   <trkpt lon="10.420254" lat="52.225767"><ele>75.0</ele></trkpt>
   <trkpt lon="10.422190" lat="52.226427"><ele>75.75</ele></trkpt>
   <trkpt lon="10.423094" lat="52.226734"><ele>76.0</ele></trkpt>
   <trkpt lon="10.423587" lat="52.226903"><ele>76.25</ele></trkpt>
   <trkpt lon="10.424291" lat="52.227145"><ele>76.5</ele></trkpt>
   <trkpt lon="10.424833" lat="52.227331"><ele>76.5</ele></trkpt>
   <trkpt lon="10.425703" lat="52.227620"><ele>76.75</ele></trkpt>
   <trkpt lon="10.426055" lat="52.227725"><ele>77.0</ele></trkpt>
   <trkpt lon="10.426404" lat="52.227823"><ele>77.25</ele></trkpt>
   <trkpt lon="10.427054" lat="52.227992"><ele>77.25</ele></trkpt>
   <trkpt lon="10.427874" lat="52.228167"><ele>76.5</ele></trkpt>
   <trkpt lon="10.428446" lat="52.228271"><ele>76.0</ele></trkpt>
   <trkpt lon="10.428455" lat="52.228272"><ele>76.0</ele></trkpt>
   <trkpt lon="10.428484" lat="52.228277"><ele>76.0</ele></trkpt>
   <trkpt lon="10.428503" lat="52.228280"><ele>76.0</ele></trkpt>
   <trkpt lon="10.429365" lat="52.228418"><ele>76.25</ele></trkpt>
   <trkpt lon="10.431242" lat="52.228717"><ele>76.5</ele></trkpt>
   <trkpt lon="10.432176" lat="52.228875"><ele>76.5</ele></trkpt>
   <trkpt lon="10.432906" lat="52.229013"><ele>76.25</ele></trkpt>
   <trkpt lon="10.433752" lat="52.229193"><ele>76.0</ele></trkpt>
   <trkpt lon="10.434423" lat="52.229345"><ele>76.0</ele></trkpt>
   <trkpt lon="10.435631" lat="52.229657"><ele>76.75</ele></trkpt>
   <trkpt lon="10.437056" lat="52.230088"><ele>77.75</ele></trkpt>
   <trkpt lon="10.438543" lat="52.230538"><ele>77.5</ele></trkpt>
   <trkpt lon="10.443995" lat="52.232183"><ele>78.5</ele></trkpt>
   <trkpt lon="10.444898" lat="52.232458"><ele>78.0</ele></trkpt>
   <trkpt lon="10.450261" lat="52.234083"><ele>78.75</ele></trkpt>
   <trkpt lon="10.451147" lat="52.234350"><ele>78.75</ele></trkpt>
   <trkpt lon="10.455107" lat="52.235550"><ele>79.0</ele></trkpt>
   <trkpt lon="10.455284" lat="52.235603"><ele>79.0</ele></trkpt>
   <trkpt lon="10.457045" lat="52.236173"><ele>78.75</ele></trkpt>
   <trkpt lon="10.457787" lat="52.236390"><ele>78.75</ele></trkpt>
   <trkpt lon="10.458428" lat="52.236572"><ele>78.5</ele></trkpt>
   <trkpt lon="10.459751" lat="52.236910"><ele>77.75</ele></trkpt>
   <trkpt lon="10.460531" lat="52.237091"><ele>78.0</ele></trkpt>
   <trkpt lon="10.461330" lat="52.237263"><ele>78.25</ele></trkpt>
   <trkpt lon="10.462144" lat="52.237421"><ele>78.25</ele></trkpt>
   <trkpt lon="10.462813" lat="52.237542"><ele>77.5</ele></trkpt>
   <trkpt lon="10.464099" lat="52.237751"><ele>76.25</ele></trkpt>
   <trkpt lon="10.464737" lat="52.237840"><ele>75.5</ele></trkpt>
   <trkpt lon="10.466006" lat="52.238003"><ele>75.5</ele></trkpt>
   <trkpt lon="10.467288" lat="52.238124"><ele>75.5</ele></trkpt>
   <trkpt lon="10.468546" lat="52.238219"><ele>75.75</ele></trkpt>
   <trkpt lon="10.469177" lat="52.238258"><ele>75.75</ele></trkpt>
   <trkpt lon="10.469835" lat="52.238289"><ele>75.0</ele></trkpt>
   <trkpt lon="10.471126" lat="52.238318"><ele>75.25</ele></trkpt>
   <trkpt lon="10.472335" lat="52.238324"><ele>75.75</ele></trkpt>
   <trkpt lon="10.472587" lat="52.238323"><ele>76.0</ele></trkpt>
   <trkpt lon="10.473875" lat="52.238291"><ele>76.0</ele></trkpt>
   <trkpt lon="10.475160" lat="52.238234"><ele>76.0</ele></trkpt>
   <trkpt lon="10.476679" lat="52.238156"><ele>75.25</ele></trkpt>
   <trkpt lon="10.477878" lat="52.238076"><ele>77.0</ele></trkpt>
   <trkpt lon="10.478966" lat="52.237988"><ele>77.0</ele></trkpt>
   <trkpt lon="10.480205" lat="52.237873"><ele>76.0</ele></trkpt>
   <trkpt lon="10.483550" lat="52.237513"><ele>75.0</ele></trkpt>
   <trkpt lon="10.484978" lat="52.237371"><ele>75.75</ele></trkpt>
   <trkpt lon="10.486411" lat="52.237240"><ele>76.0</ele></trkpt>
   <trkpt lon="10.487309" lat="52.237174"><ele>77.0</ele></trkpt>
   <trkpt lon="10.487628" lat="52.237158"><ele>77.75</ele></trkpt>
   <trkpt lon="10.487710" lat="52.237154"><ele>78.0</ele></trkpt>
   <trkpt lon="10.488874" lat="52.237105"><ele>78.75</ele></trkpt>
   <trkpt lon="10.489345" lat="52.237092"><ele>78.0</ele></trkpt>
   <trkpt lon="10.489948" lat="52.237087"><ele>77.0</ele></trkpt>
   <trkpt lon="10.490377" lat="52.237092"><ele>77.0</ele></trkpt>
   <trkpt lon="10.491525" lat="52.237118"><ele>77.0</ele></trkpt>
   <trkpt lon="10.492347" lat="52.237160"><ele>77.0</ele></trkpt>
   <trkpt lon="10.493237" lat="52.237224"><ele>76.5</ele></trkpt>
   <trkpt lon="10.493923" lat="52.237287"><ele>77.5</ele></trkpt>
   <trkpt lon="10.494705" lat="52.237369"><ele>78.5</ele></trkpt>
   <trkpt lon="10.495448" lat="52.237470"><ele>79.0</ele></trkpt>
   <trkpt lon="10.496246" lat="52.237590"><ele>79.0</ele></trkpt>
   <trkpt lon="10.496632" lat="52.237659"><ele>79.5</ele></trkpt>
   <trkpt lon="10.497530" lat="52.237810"><ele>79.25</ele></trkpt>
   <trkpt lon="10.499086" lat="52.238076"><ele>78.0</ele></trkpt>
   <trkpt lon="10.500127" lat="52.238255"><ele>78.75</ele></trkpt>
   <trkpt lon="10.500600" lat="52.238339"><ele>78.75</ele></trkpt>
   <trkpt lon="10.500633" lat="52.238345"><ele>78.75</ele></trkpt>
   <trkpt lon="10.501641" lat="52.238529"><ele>77.5</ele></trkpt>
   <trkpt lon="10.502379" lat="52.238679"><ele>76.5</ele></trkpt>
   <trkpt lon="10.503197" lat="52.238866"><ele>75.5</ele></trkpt>
   <trkpt lon="10.504012" lat="52.239075"><ele>75.75</ele></trkpt>
   <trkpt lon="10.504841" lat="52.239303"><ele>76.5</ele></trkpt>
   <trkpt lon="10.507282" lat="52.240011"><ele>76.75</ele></trkpt>
   <trkpt lon="10.507730" lat="52.240141"><ele>76.75</ele></trkpt>
   <trkpt lon="10.508821" lat="52.240456"><ele>76.5</ele></trkpt>
   <trkpt lon="10.509387" lat="52.240621"><ele>76.75</ele></trkpt>
   <trkpt lon="10.509536" lat="52.240665"><ele>77.0</ele></trkpt>
   <trkpt lon="10.510001" lat="52.240800"><ele>77.75</ele></trkpt>
   <trkpt lon="10.510248" lat="52.240872"><ele>77.75</ele></trkpt>
   <trkpt lon="10.512420" lat="52.241507"><ele>78.75</ele></trkpt>
   <trkpt lon="10.513260" lat="52.241785"><ele>80.25</ele></trkpt>
   <trkpt lon="10.513766" lat="52.241977"><ele>79.5</ele></trkpt>
   <trkpt lon="10.514224" lat="52.242171"><ele>79.25</ele></trkpt>
   <trkpt lon="10.514317" lat="52.242210"><ele>79.25</ele></trkpt>
   <trkpt lon="10.514849" lat="52.242464"><ele>79.5</ele></trkpt>
   <trkpt lon="10.516821" lat="52.243490"><ele>79.25</ele></trkpt>
   <trkpt lon="10.517320" lat="52.243729"><ele>78.0</ele></trkpt>
   <trkpt lon="10.517760" lat="52.243922"><ele>77.25</ele></trkpt>
   <trkpt lon="10.518265" lat="52.244120"><ele>77.0</ele></trkpt>
   <trkpt lon="10.518724" lat="52.244285"><ele>76.5</ele></trkpt>
   <trkpt lon="10.519140" lat="52.244418"><ele>76.25</ele></trkpt>
   <trkpt lon="10.519826" lat="52.244613"><ele>76.0</ele></trkpt>
   <trkpt lon="10.520536" lat="52.244780"><ele>76.25</ele></trkpt>
   <trkpt lon="10.521272" lat="52.244917"><ele>76.25</ele></trkpt>
   <trkpt lon="10.521698" lat="52.244978"><ele>76.5</ele></trkpt>
   <trkpt lon="10.522263" lat="52.245049"><ele>76.75</ele></trkpt>
   <trkpt lon="10.522828" lat="52.245110"><ele>77.0</ele></trkpt>
   <trkpt lon="10.522921" lat="52.245117"><ele>77.0</ele></trkpt>
   <trkpt lon="10.524484" lat="52.245236"><ele>78.25</ele></trkpt>
   <trkpt lon="10.525957" lat="52.245344"><ele>78.25</ele></trkpt>
   <trkpt lon="10.526481" lat="52.245388"><ele>78.5</ele></trkpt>
   <trkpt lon="10.526905" lat="52.245432"><ele>78.5</ele></trkpt>
   <trkpt lon="10.527498" lat="52.245509"><ele>78.5</ele></trkpt>
   <trkpt lon="10.527826" lat="52.245557"><ele>78.75</ele></trkpt>
   <trkpt lon="10.528243" lat="52.245629"><ele>79.25</ele></trkpt>
   <trkpt lon="10.528728" lat="52.245721"><ele>80.0</ele></trkpt>
   <trkpt lon="10.528977" lat="52.245774"><ele>80.5</ele></trkpt>
   <trkpt lon="10.529437" lat="52.245883"><ele>80.5</ele></trkpt>
   <trkpt lon="10.529871" lat="52.245991"><ele>81.75</ele></trkpt>
   <trkpt lon="10.530709" lat="52.246246"><ele>81.0</ele></trkpt>
   <trkpt lon="10.531167" lat="52.246402"><ele>80.5</ele></trkpt>
   <trkpt lon="10.531288" lat="52.246448"><ele>80.5</ele></trkpt>
   <trkpt lon="10.531667" lat="52.246591"><ele>80.25</ele></trkpt>
   <trkpt lon="10.532458" lat="52.246920"><ele>80.0</ele></trkpt>
   <trkpt lon="10.532866" lat="52.247124"><ele>79.5</ele></trkpt>
   <trkpt lon="10.533259" lat="52.247332"><ele>79.0</ele></trkpt>
   <trkpt lon="10.533906" lat="52.247716"><ele>78.5</ele></trkpt>
   <trkpt lon="10.534702" lat="52.248240"><ele>78.5</ele></trkpt>
   <trkpt lon="10.534715" lat="52.248249"><ele>78.5</ele></trkpt>
   <trkpt lon="10.535132" lat="52.248521"><ele>78.5</ele></trkpt>
   <trkpt lon="10.535597" lat="52.248830"><ele>78.0</ele></trkpt>
   <trkpt lon="10.536101" lat="52.249158"><ele>78.25</ele></trkpt>
   <trkpt lon="10.536256" lat="52.249258"><ele>78.5</ele></trkpt>
   <trkpt lon="10.537143" lat="52.249837"><ele>79.25</ele></trkpt>
   <trkpt lon="10.537184" lat="52.249863"><ele>79.25</ele></trkpt>
   <trkpt lon="10.537830" lat="52.250281"><ele>78.5</ele></trkpt>
   <trkpt lon="10.538003" lat="52.250400"><ele>78.5</ele></trkpt>
   <trkpt lon="10.538420" lat="52.250674"><ele>78.75</ele></trkpt>
   <trkpt lon="10.538468" lat="52.250705"><ele>78.75</ele></trkpt>
   <trkpt lon="10.539438" lat="52.251332"><ele>78.25</ele></trkpt>
   <trkpt lon="10.539796" lat="52.251567"><ele>78.5</ele></trkpt>
   <trkpt lon="10.540525" lat="52.252049"><ele>79.75</ele></trkpt>
   <trkpt lon="10.540856" lat="52.252267"><ele>80.25</ele></trkpt>
   <trkpt lon="10.540901" lat="52.252295"><ele>80.25</ele></trkpt>
   <trkpt lon="10.541221" lat="52.252505"><ele>80.5</ele></trkpt>
   <trkpt lon="10.541321" lat="52.252571"><ele>80.25</ele></trkpt>
   <trkpt lon="10.541848" lat="52.252915"><ele>80.0</ele></trkpt>
  </trkseg>
 </trk>
</gpx>
