<?xml version="1.0" encoding="UTF-8"?>
<!-- track-length = 96710 filtered ascend = 179 plain-ascend = -36 cost=96710 energy=1.2kwh time=2h 8m 57s -->
<gpx 
 xmlns="http://www.topografix.com/GPX/1/1" 
 xmlns:xsi="http://www.w3.org/2001/XMLSchema-instance" 
 xsi:schemaLocation="http://www.topografix.com/GPX/1/1 http://www.topografix.com/GPX/1/1/gpx.xsd" 
 version="1.1" 
 creator="BRouter-Web 0.18.1">
 <trk>
  <name>Hässleholm - Kävlinge</name>
  <trkseg>
   <trkpt lat="56.155809" lon="13.761897"><ele>53.5</ele></trkpt>
   <trkpt lat="56.155466" lon="13.761767"><ele>53</ele></trkpt>
   <trkpt lat="56.15516" lon="13.761635"><ele>52.25</ele></trkpt>
   <trkpt lat="56.154723" lon="13.761437"><ele>52.75</ele></trkpt>
   <trkpt lat="56.154467" lon="13.761334"><ele>53</ele></trkpt>
   <trkpt lat="56.154297" lon="13.761253"><ele>53.25</ele></trkpt>
   <trkpt lat="56.154126" lon="13.761152"><ele>53.25</ele></trkpt>
   <trkpt lat="56.153979" lon="13.761046"><ele>53.25</ele></trkpt>
   <trkpt lat="56.153841" lon="13.760926"><ele>53.5</ele></trkpt>
   <trkpt lat="56.153704" lon="13.76079"><ele>53.5</ele></trkpt>
   <trkpt lat="56.153549" lon="13.760606"><ele>53.5</ele></trkpt>
   <trkpt lat="56.153391" lon="13.760387"><ele>53.75</ele></trkpt>
   <trkpt lat="56.153217" lon="13.760097"><ele>53.5</ele></trkpt>
   <trkpt lat="56.153067" lon="13.759783"><ele>52.75</ele></trkpt>
   <trkpt lat="56.152845" lon="13.759233"><ele>52.25</ele></trkpt>
   <trkpt lat="56.152668" lon="13.758665"><ele>52</ele></trkpt>
   <trkpt lat="56.152585" lon="13.758345"><ele>52</ele></trkpt>
   <trkpt lat="56.152523" lon="13.758065"><ele>52</ele></trkpt>
   <trkpt lat="56.152443" lon="13.757641"><ele>51.75</ele></trkpt>
   <trkpt lat="56.152384" lon="13.757242"><ele>51.5</ele></trkpt>
   <trkpt lat="56.152347" lon="13.75693"><ele>51.5</ele></trkpt>
   <trkpt lat="56.15231" lon="13.756543"><ele>51.25</ele></trkpt>
   <trkpt lat="56.152285" lon="13.756169"><ele>50.75</ele></trkpt>
   <trkpt lat="56.15227" lon="13.755876"><ele>50.25</ele></trkpt>
   <trkpt lat="56.152257" lon="13.755314"><ele>49.75</ele></trkpt>
   <trkpt lat="56.152261" lon="13.754877"><ele>49.5</ele></trkpt>
   <trkpt lat="56.152262" lon="13.754869"><ele>49.5</ele></trkpt>
   <trkpt lat="56.152263" lon="13.754786"><ele>49.5</ele></trkpt>
   <trkpt lat="56.152277" lon="13.754416"><ele>50.5</ele></trkpt>
   <trkpt lat="56.152298" lon="13.754065"><ele>51.5</ele></trkpt>
   <trkpt lat="56.152363" lon="13.753389"><ele>51.5</ele></trkpt>
   <trkpt lat="56.152441" lon="13.752803"><ele>53</ele></trkpt>
   <trkpt lat="56.152687" lon="13.751223"><ele>53.75</ele></trkpt>
   <trkpt lat="56.152772" lon="13.750664"><ele>52.5</ele></trkpt>
   <trkpt lat="56.153112" lon="13.748096"><ele>53</ele></trkpt>
   <trkpt lat="56.153227" lon="13.747355"><ele>54</ele></trkpt>
   <trkpt lat="56.153357" lon="13.746628"><ele>55</ele></trkpt>
   <trkpt lat="56.153461" lon="13.746156"><ele>56.75</ele></trkpt>
   <trkpt lat="56.153667" lon="13.745332"><ele>58.25</ele></trkpt>
   <trkpt lat="56.153797" lon="13.744877"><ele>58.25</ele></trkpt>
   <trkpt lat="56.153926" lon="13.744456"><ele>58.5</ele></trkpt>
   <trkpt lat="56.154068" lon="13.744011"><ele>58.5</ele></trkpt>
   <trkpt lat="56.154156" lon="13.743741"><ele>58.5</ele></trkpt>
   <trkpt lat="56.154681" lon="13.742165"><ele>61</ele></trkpt>
   <trkpt lat="56.154868" lon="13.741623"><ele>61</ele></trkpt>
   <trkpt lat="56.155162" lon="13.740832"><ele>61.5</ele></trkpt>
   <trkpt lat="56.155468" lon="13.740085"><ele>62</ele></trkpt>
   <trkpt lat="56.155687" lon="13.739583"><ele>62.5</ele></trkpt>
   <trkpt lat="56.156008" lon="13.738884"><ele>63.25</ele></trkpt>
   <trkpt lat="56.156312" lon="13.738244"><ele>63.5</ele></trkpt>
   <trkpt lat="56.156576" lon="13.737718"><ele>64.5</ele></trkpt>
   <trkpt lat="56.156802" lon="13.737318"><ele>65.25</ele></trkpt>
   <trkpt lat="56.157845" lon="13.735453"><ele>66.75</ele></trkpt>
   <trkpt lat="56.162364" lon="13.727507"><ele>61</ele></trkpt>
   <trkpt lat="56.16498" lon="13.722907"><ele>53.5</ele></trkpt>
   <trkpt lat="56.165317" lon="13.722302"><ele>53.25</ele></trkpt>
   <trkpt lat="56.165664" lon="13.721614"><ele>53.75</ele></trkpt>
   <trkpt lat="56.165767" lon="13.721397"><ele>54.25</ele></trkpt>
   <trkpt lat="56.165969" lon="13.720929"><ele>54.75</ele></trkpt>
   <trkpt lat="56.166169" lon="13.720425"><ele>55.25</ele></trkpt>
   <trkpt lat="56.166361" lon="13.719867"><ele>55.25</ele></trkpt>
   <trkpt lat="56.16652" lon="13.71937"><ele>54.25</ele></trkpt>
   <trkpt lat="56.166819" lon="13.71832"><ele>50</ele></trkpt>
   <trkpt lat="56.167202" lon="13.716886"><ele>45.25</ele></trkpt>
   <trkpt lat="56.167302" lon="13.716515"><ele>45</ele></trkpt>
   <trkpt lat="56.167683" lon="13.715023"><ele>47.25</ele></trkpt>
   <trkpt lat="56.167726" lon="13.714832"><ele>47.5</ele></trkpt>
   <trkpt lat="56.167846" lon="13.714293"><ele>47.5</ele></trkpt>
   <trkpt lat="56.167939" lon="13.713828"><ele>47.25</ele></trkpt>
   <trkpt lat="56.168048" lon="13.713223"><ele>46.75</ele></trkpt>
   <trkpt lat="56.168167" lon="13.712459"><ele>47</ele></trkpt>
   <trkpt lat="56.168242" lon="13.711909"><ele>47</ele></trkpt>
   <trkpt lat="56.168329" lon="13.711102"><ele>47.5</ele></trkpt>
   <trkpt lat="56.168685" lon="13.706921"><ele>48.5</ele></trkpt>
   <trkpt lat="56.168853" lon="13.705025"><ele>50.75</ele></trkpt>
   <trkpt lat="56.169105" lon="13.70198"><ele>50.75</ele></trkpt>
   <trkpt lat="56.169248" lon="13.700719"><ele>50</ele></trkpt>
   <trkpt lat="56.169383" lon="13.699133"><ele>50.25</ele></trkpt>
   <trkpt lat="56.16939" lon="13.699038"><ele>50.25</ele></trkpt>
   <trkpt lat="56.169643" lon="13.696097"><ele>50.25</ele></trkpt>
   <trkpt lat="56.169722" lon="13.695352"><ele>49.5</ele></trkpt>
   <trkpt lat="56.169768" lon="13.69499"><ele>49.25</ele></trkpt>
   <trkpt lat="56.169831" lon="13.69452"><ele>50</ele></trkpt>
   <trkpt lat="56.169966" lon="13.693682"><ele>51.5</ele></trkpt>
   <trkpt lat="56.170105" lon="13.692937"><ele>51.5</ele></trkpt>
   <trkpt lat="56.170262" lon="13.69215"><ele>50.75</ele></trkpt>
   <trkpt lat="56.170564" lon="13.690645"><ele>50.5</ele></trkpt>
   <trkpt lat="56.170633" lon="13.690286"><ele>50.25</ele></trkpt>
   <trkpt lat="56.170707" lon="13.689827"><ele>50.25</ele></trkpt>
   <trkpt lat="56.170823" lon="13.689176"><ele>50.75</ele></trkpt>
   <trkpt lat="56.171277" lon="13.686945"><ele>50.75</ele></trkpt>
   <trkpt lat="56.171367" lon="13.686501"><ele>50.75</ele></trkpt>
   <trkpt lat="56.171751" lon="13.684606"><ele>52.25</ele></trkpt>
   <trkpt lat="56.171944" lon="13.683653"><ele>52.5</ele></trkpt>
   <trkpt lat="56.172623" lon="13.680301"><ele>52.5</ele></trkpt>
   <trkpt lat="56.172742" lon="13.679692"><ele>52.5</ele></trkpt>
   <trkpt lat="56.17291" lon="13.678732"><ele>53</ele></trkpt>
   <trkpt lat="56.173009" lon="13.678029"><ele>54</ele></trkpt>
   <trkpt lat="56.173071" lon="13.677495"><ele>55.5</ele></trkpt>
   <trkpt lat="56.17311" lon="13.677094"><ele>56.5</ele></trkpt>
   <trkpt lat="56.173141" lon="13.6767"><ele>57.5</ele></trkpt>
   <trkpt lat="56.173173" lon="13.67617"><ele>57.5</ele></trkpt>
   <trkpt lat="56.173189" lon="13.675828"><ele>57.5</ele></trkpt>
   <trkpt lat="56.1732" lon="13.675298"><ele>57.5</ele></trkpt>
   <trkpt lat="56.173205" lon="13.674772"><ele>57</ele></trkpt>
   <trkpt lat="56.173197" lon="13.674282"><ele>55.5</ele></trkpt>
   <trkpt lat="56.173174" lon="13.673668"><ele>54</ele></trkpt>
   <trkpt lat="56.173154" lon="13.673297"><ele>53</ele></trkpt>
   <trkpt lat="56.17311" lon="13.672723"><ele>51.75</ele></trkpt>
   <trkpt lat="56.173072" lon="13.672325"><ele>51.25</ele></trkpt>
   <trkpt lat="56.172958" lon="13.67141"><ele>51.25</ele></trkpt>
   <trkpt lat="56.17286" lon="13.6708"><ele>53</ele></trkpt>
   <trkpt lat="56.172767" lon="13.670292"><ele>54</ele></trkpt>
   <trkpt lat="56.172651" lon="13.669726"><ele>55.25</ele></trkpt>
   <trkpt lat="56.172484" lon="13.669032"><ele>57.25</ele></trkpt>
   <trkpt lat="56.172252" lon="13.66819"><ele>59</ele></trkpt>
   <trkpt lat="56.172153" lon="13.667861"><ele>59</ele></trkpt>
   <trkpt lat="56.171428" lon="13.665579"><ele>59.75</ele></trkpt>
   <trkpt lat="56.168183" lon="13.655447"><ele>63.75</ele></trkpt>
   <trkpt lat="56.167788" lon="13.654211"><ele>61</ele></trkpt>
   <trkpt lat="56.167089" lon="13.652035"><ele>64.5</ele></trkpt>
   <trkpt lat="56.166696" lon="13.650838"><ele>72.75</ele></trkpt>
   <trkpt lat="56.166338" lon="13.649815"><ele>75.5</ele></trkpt>
   <trkpt lat="56.166062" lon="13.649057"><ele>72.25</ele></trkpt>
   <trkpt lat="56.162868" lon="13.64075"><ele>66.5</ele></trkpt>
   <trkpt lat="56.160942" lon="13.635743"><ele>71</ele></trkpt>
   <trkpt lat="56.16057" lon="13.634752"><ele>71.75</ele></trkpt>
   <trkpt lat="56.160256" lon="13.633823"><ele>72.5</ele></trkpt>
   <trkpt lat="56.160022" lon="13.633038"><ele>73.25</ele></trkpt>
   <trkpt lat="56.1599" lon="13.632592"><ele>73</ele></trkpt>
   <trkpt lat="56.159747" lon="13.631979"><ele>72.25</ele></trkpt>
   <trkpt lat="56.159656" lon="13.631582"><ele>71.5</ele></trkpt>
   <trkpt lat="56.159491" lon="13.63078"><ele>70.25</ele></trkpt>
   <trkpt lat="56.15935" lon="13.62998"><ele>69</ele></trkpt>
   <trkpt lat="56.159236" lon="13.629222"><ele>70</ele></trkpt>
   <trkpt lat="56.15917" lon="13.628712"><ele>70.5</ele></trkpt>
   <trkpt lat="56.159048" lon="13.627646"><ele>72.5</ele></trkpt>
   <trkpt lat="56.158935" lon="13.62649"><ele>73.75</ele></trkpt>
   <trkpt lat="56.158879" lon="13.625876"><ele>74.75</ele></trkpt>
   <trkpt lat="56.158806" lon="13.624861"><ele>75.5</ele></trkpt>
   <trkpt lat="56.158758" lon="13.623938"><ele>73.75</ele></trkpt>
   <trkpt lat="56.158745" lon="13.623528"><ele>73.5</ele></trkpt>
   <trkpt lat="56.158735" lon="13.622998"><ele>72.75</ele></trkpt>
   <trkpt lat="56.158735" lon="13.622437"><ele>71.75</ele></trkpt>
   <trkpt lat="56.158743" lon="13.621892"><ele>71</ele></trkpt>
   <trkpt lat="56.158758" lon="13.621438"><ele>70.75</ele></trkpt>
   <trkpt lat="56.158781" lon="13.620919"><ele>70.25</ele></trkpt>
   <trkpt lat="56.158831" lon="13.620117"><ele>70</ele></trkpt>
   <trkpt lat="56.158925" lon="13.619092"><ele>69.5</ele></trkpt>
   <trkpt lat="56.158982" lon="13.618621"><ele>69.75</ele></trkpt>
   <trkpt lat="56.159066" lon="13.617981"><ele>70</ele></trkpt>
   <trkpt lat="56.159401" lon="13.615719"><ele>72.75</ele></trkpt>
   <trkpt lat="56.1595" lon="13.615014"><ele>72.5</ele></trkpt>
   <trkpt lat="56.159559" lon="13.614529"><ele>72.75</ele></trkpt>
   <trkpt lat="56.159623" lon="13.613905"><ele>73</ele></trkpt>
   <trkpt lat="56.159701" lon="13.612932"><ele>74</ele></trkpt>
   <trkpt lat="56.159726" lon="13.61246"><ele>75</ele></trkpt>
   <trkpt lat="56.159753" lon="13.61173"><ele>75.75</ele></trkpt>
   <trkpt lat="56.159761" lon="13.611311"><ele>75.75</ele></trkpt>
   <trkpt lat="56.159764" lon="13.610596"><ele>76</ele></trkpt>
   <trkpt lat="56.15976" lon="13.609562"><ele>76.75</ele></trkpt>
   <trkpt lat="56.159719" lon="13.605067"><ele>80.25</ele></trkpt>
   <trkpt lat="56.159719" lon="13.605027"><ele>80.25</ele></trkpt>
   <trkpt lat="56.159705" lon="13.60349"><ele>79</ele></trkpt>
   <trkpt lat="56.159702" lon="13.60305"><ele>79.25</ele></trkpt>
   <trkpt lat="56.159696" lon="13.602138"><ele>79.75</ele></trkpt>
   <trkpt lat="56.159686" lon="13.601109"><ele>80.25</ele></trkpt>
   <trkpt lat="56.159683" lon="13.60082"><ele>80.25</ele></trkpt>
   <trkpt lat="56.159673" lon="13.599456"><ele>80.25</ele></trkpt>
   <trkpt lat="56.159672" lon="13.599211"><ele>80</ele></trkpt>
   <trkpt lat="56.159663" lon="13.598485"><ele>79.5</ele></trkpt>
   <trkpt lat="56.15963" lon="13.594521"><ele>81</ele></trkpt>
   <trkpt lat="56.159628" lon="13.594232"><ele>81.5</ele></trkpt>
   <trkpt lat="56.159611" lon="13.592124"><ele>83.25</ele></trkpt>
   <trkpt lat="56.15961" lon="13.592025"><ele>83.25</ele></trkpt>
   <trkpt lat="56.159609" lon="13.591427"><ele>83.25</ele></trkpt>
   <trkpt lat="56.159604" lon="13.590514"><ele>82.75</ele></trkpt>
   <trkpt lat="56.15958" lon="13.589751"><ele>83</ele></trkpt>
   <trkpt lat="56.159546" lon="13.589204"><ele>84</ele></trkpt>
   <trkpt lat="56.159496" lon="13.588724"><ele>84.25</ele></trkpt>
   <trkpt lat="56.159447" lon="13.588323"><ele>84.25</ele></trkpt>
   <trkpt lat="56.159379" lon="13.587865"><ele>85</ele></trkpt>
   <trkpt lat="56.159328" lon="13.587594"><ele>85.25</ele></trkpt>
   <trkpt lat="56.159178" lon="13.586894"><ele>85.5</ele></trkpt>
   <trkpt lat="56.159035" lon="13.586344"><ele>87.5</ele></trkpt>
   <trkpt lat="56.1589" lon="13.585889"><ele>89</ele></trkpt>
   <trkpt lat="56.158894" lon="13.585869"><ele>89</ele></trkpt>
   <trkpt lat="56.158617" lon="13.585099"><ele>88</ele></trkpt>
   <trkpt lat="56.158491" lon="13.584788"><ele>87.25</ele></trkpt>
   <trkpt lat="56.158325" lon="13.58443"><ele>86.25</ele></trkpt>
   <trkpt lat="56.158108" lon="13.583981"><ele>86.75</ele></trkpt>
   <trkpt lat="56.157236" lon="13.582352"><ele>88.25</ele></trkpt>
   <trkpt lat="56.156878" lon="13.581642"><ele>88.5</ele></trkpt>
   <trkpt lat="56.156803" lon="13.581478"><ele>88.25</ele></trkpt>
   <trkpt lat="56.156798" lon="13.581467"><ele>88.25</ele></trkpt>
   <trkpt lat="56.156607" lon="13.581043"><ele>87.75</ele></trkpt>
   <trkpt lat="56.156321" lon="13.580328"><ele>87.5</ele></trkpt>
   <trkpt lat="56.156244" lon="13.580125"><ele>87.25</ele></trkpt>
   <trkpt lat="56.155114" lon="13.577019"><ele>89.75</ele></trkpt>
   <trkpt lat="56.154933" lon="13.576507"><ele>89.5</ele></trkpt>
   <trkpt lat="56.154652" lon="13.575662"><ele>90</ele></trkpt>
   <trkpt lat="56.154527" lon="13.575259"><ele>89.25</ele></trkpt>
   <trkpt lat="56.154431" lon="13.574923"><ele>88.75</ele></trkpt>
   <trkpt lat="56.154224" lon="13.574111"><ele>90.5</ele></trkpt>
   <trkpt lat="56.154141" lon="13.573736"><ele>90.75</ele></trkpt>
   <trkpt lat="56.154032" lon="13.573176"><ele>91</ele></trkpt>
   <trkpt lat="56.153965" lon="13.5728"><ele>91.25</ele></trkpt>
   <trkpt lat="56.153882" lon="13.572264"><ele>91.5</ele></trkpt>
   <trkpt lat="56.153835" lon="13.571908"><ele>91.75</ele></trkpt>
   <trkpt lat="56.153735" lon="13.57104"><ele>91</ele></trkpt>
   <trkpt lat="56.153653" lon="13.570173"><ele>90.5</ele></trkpt>
   <trkpt lat="56.153238" lon="13.565499"><ele>95.5</ele></trkpt>
   <trkpt lat="56.15303" lon="13.563129"><ele>100.25</ele></trkpt>
   <trkpt lat="56.152958" lon="13.562417"><ele>100.5</ele></trkpt>
   <trkpt lat="56.152893" lon="13.561869"><ele>100</ele></trkpt>
   <trkpt lat="56.152816" lon="13.561314"><ele>98.75</ele></trkpt>
   <trkpt lat="56.152747" lon="13.560878"><ele>97.5</ele></trkpt>
   <trkpt lat="56.152672" lon="13.560454"><ele>95.75</ele></trkpt>
   <trkpt lat="56.152543" lon="13.559831"><ele>93.75</ele></trkpt>
   <trkpt lat="56.152433" lon="13.559351"><ele>95</ele></trkpt>
   <trkpt lat="56.152207" lon="13.558471"><ele>95.5</ele></trkpt>
   <trkpt lat="56.150558" lon="13.552548"><ele>99.5</ele></trkpt>
   <trkpt lat="56.149983" lon="13.55042"><ele>97</ele></trkpt>
   <trkpt lat="56.147703" lon="13.541837"><ele>108.5</ele></trkpt>
   <trkpt lat="56.147303" lon="13.540317"><ele>110</ele></trkpt>
   <trkpt lat="56.147166" lon="13.539766"><ele>111.5</ele></trkpt>
   <trkpt lat="56.146999" lon="13.539041"><ele>112</ele></trkpt>
   <trkpt lat="56.146843" lon="13.538295"><ele>111.75</ele></trkpt>
   <trkpt lat="56.146739" lon="13.537758"><ele>111.25</ele></trkpt>
   <trkpt lat="56.146417" lon="13.535896"><ele>110</ele></trkpt>
   <trkpt lat="56.146062" lon="13.533738"><ele>108</ele></trkpt>
   <trkpt lat="56.145802" lon="13.532218"><ele>109</ele></trkpt>
   <trkpt lat="56.14558" lon="13.530864"><ele>109.25</ele></trkpt>
   <trkpt lat="56.145456" lon="13.53003"><ele>109.25</ele></trkpt>
   <trkpt lat="56.145352" lon="13.529244"><ele>109.25</ele></trkpt>
   <trkpt lat="56.145212" lon="13.527977"><ele>109.25</ele></trkpt>
   <trkpt lat="56.145113" lon="13.526851"><ele>109.5</ele></trkpt>
   <trkpt lat="56.145044" lon="13.525743"><ele>110</ele></trkpt>
   <trkpt lat="56.145012" lon="13.525031"><ele>110</ele></trkpt>
   <trkpt lat="56.144965" lon="13.523686"><ele>109</ele></trkpt>
   <trkpt lat="56.144856" lon="13.520143"><ele>110</ele></trkpt>
   <trkpt lat="56.144777" lon="13.517517"><ele>110.25</ele></trkpt>
   <trkpt lat="56.144775" lon="13.517458"><ele>110.25</ele></trkpt>
   <trkpt lat="56.144671" lon="13.514147"><ele>107.75</ele></trkpt>
   <trkpt lat="56.144647" lon="13.513385"><ele>107.5</ele></trkpt>
   <trkpt lat="56.144589" lon="13.511774"><ele>107</ele></trkpt>
   <trkpt lat="56.144528" lon="13.510744"><ele>106</ele></trkpt>
   <trkpt lat="56.144499" lon="13.510399"><ele>105.75</ele></trkpt>
   <trkpt lat="56.144426" lon="13.509589"><ele>104.75</ele></trkpt>
   <trkpt lat="56.144298" lon="13.508409"><ele>103.75</ele></trkpt>
   <trkpt lat="56.144221" lon="13.507727"><ele>103</ele></trkpt>
   <trkpt lat="56.143826" lon="13.504187"><ele>102.5</ele></trkpt>
   <trkpt lat="56.143817" lon="13.504107"><ele>102.5</ele></trkpt>
   <trkpt lat="56.143658" lon="13.502519"><ele>104.75</ele></trkpt>
   <trkpt lat="56.143622" lon="13.502069"><ele>105</ele></trkpt>
   <trkpt lat="56.143584" lon="13.501438"><ele>105.5</ele></trkpt>
   <trkpt lat="56.143563" lon="13.501048"><ele>106</ele></trkpt>
   <trkpt lat="56.143543" lon="13.50027"><ele>106.25</ele></trkpt>
   <trkpt lat="56.14354" lon="13.49968"><ele>104.75</ele></trkpt>
   <trkpt lat="56.143545" lon="13.499149"><ele>102.25</ele></trkpt>
   <trkpt lat="56.143561" lon="13.498537"><ele>100.25</ele></trkpt>
   <trkpt lat="56.143588" lon="13.49794"><ele>99.25</ele></trkpt>
   <trkpt lat="56.143589" lon="13.497925"><ele>99.25</ele></trkpt>
   <trkpt lat="56.143673" lon="13.496445"><ele>98.75</ele></trkpt>
   <trkpt lat="56.144085" lon="13.489733"><ele>96</ele></trkpt>
   <trkpt lat="56.14418" lon="13.488095"><ele>96.25</ele></trkpt>
   <trkpt lat="56.144466" lon="13.483062"><ele>95</ele></trkpt>
   <trkpt lat="56.144748" lon="13.478017"><ele>88</ele></trkpt>
   <trkpt lat="56.145072" lon="13.472111"><ele>88.25</ele></trkpt>
   <trkpt lat="56.145293" lon="13.468042"><ele>91.75</ele></trkpt>
   <trkpt lat="56.14537" lon="13.466574"><ele>94.75</ele></trkpt>
   <trkpt lat="56.145389" lon="13.466108"><ele>96.25</ele></trkpt>
   <trkpt lat="56.145404" lon="13.465606"><ele>97.75</ele></trkpt>
   <trkpt lat="56.145413" lon="13.464514"><ele>99.25</ele></trkpt>
   <trkpt lat="56.1454" lon="13.463806"><ele>99.25</ele></trkpt>
   <trkpt lat="56.145385" lon="13.463386"><ele>99.25</ele></trkpt>
   <trkpt lat="56.145328" lon="13.46237"><ele>100.5</ele></trkpt>
   <trkpt lat="56.145272" lon="13.461686"><ele>100.75</ele></trkpt>
   <trkpt lat="56.14521" lon="13.461068"><ele>102</ele></trkpt>
   <trkpt lat="56.145118" lon="13.460326"><ele>102.5</ele></trkpt>
   <trkpt lat="56.145041" lon="13.459789"><ele>102.5</ele></trkpt>
   <trkpt lat="56.144945" lon="13.459193"><ele>102.75</ele></trkpt>
   <trkpt lat="56.144846" lon="13.45864"><ele>102.75</ele></trkpt>
   <trkpt lat="56.144709" lon="13.457967"><ele>101.75</ele></trkpt>
   <trkpt lat="56.144603" lon="13.45749"><ele>100.5</ele></trkpt>
   <trkpt lat="56.144451" lon="13.456871"><ele>99.25</ele></trkpt>
   <trkpt lat="56.144318" lon="13.456362"><ele>98.5</ele></trkpt>
   <trkpt lat="56.144187" lon="13.455901"><ele>98</ele></trkpt>
   <trkpt lat="56.144033" lon="13.455395"><ele>98</ele></trkpt>
   <trkpt lat="56.143861" lon="13.454866"><ele>98</ele></trkpt>
   <trkpt lat="56.143667" lon="13.454322"><ele>98.25</ele></trkpt>
   <trkpt lat="56.143456" lon="13.453766"><ele>97.25</ele></trkpt>
   <trkpt lat="56.143233" lon="13.453206"><ele>96.5</ele></trkpt>
   <trkpt lat="56.141602" lon="13.449193"><ele>99.25</ele></trkpt>
   <trkpt lat="56.14117" lon="13.448081"><ele>97.25</ele></trkpt>
   <trkpt lat="56.140915" lon="13.447377"><ele>98</ele></trkpt>
   <trkpt lat="56.140623" lon="13.446495"><ele>99.75</ele></trkpt>
   <trkpt lat="56.139479" lon="13.442823"><ele>103.5</ele></trkpt>
   <trkpt lat="56.139123" lon="13.441673"><ele>102.5</ele></trkpt>
   <trkpt lat="56.138859" lon="13.440793"><ele>102.25</ele></trkpt>
   <trkpt lat="56.138698" lon="13.44021"><ele>101.75</ele></trkpt>
   <trkpt lat="56.138548" lon="13.439629"><ele>101</ele></trkpt>
   <trkpt lat="56.138394" lon="13.438951"><ele>100</ele></trkpt>
   <trkpt lat="56.138253" lon="13.438277"><ele>99.5</ele></trkpt>
   <trkpt lat="56.138145" lon="13.437687"><ele>100.75</ele></trkpt>
   <trkpt lat="56.138048" lon="13.437095"><ele>101.25</ele></trkpt>
   <trkpt lat="56.137955" lon="13.436444"><ele>101.25</ele></trkpt>
   <trkpt lat="56.137874" lon="13.43578"><ele>100.5</ele></trkpt>
   <trkpt lat="56.137814" lon="13.435209"><ele>100</ele></trkpt>
   <trkpt lat="56.137737" lon="13.434215"><ele>98</ele></trkpt>
   <trkpt lat="56.137711" lon="13.433789"><ele>97.25</ele></trkpt>
   <trkpt lat="56.137671" lon="13.432942"><ele>96.5</ele></trkpt>
   <trkpt lat="56.137522" lon="13.428983"><ele>96.25</ele></trkpt>
   <trkpt lat="56.137459" lon="13.427381"><ele>98</ele></trkpt>
   <trkpt lat="56.137069" lon="13.417136"><ele>92.25</ele></trkpt>
   <trkpt lat="56.136915" lon="13.412961"><ele>91.75</ele></trkpt>
   <trkpt lat="56.136914" lon="13.412925"><ele>91.5</ele></trkpt>
   <trkpt lat="56.136857" lon="13.411352"><ele>91.25</ele></trkpt>
   <trkpt lat="56.136758" lon="13.408776"><ele>93.25</ele></trkpt>
   <trkpt lat="56.136686" lon="13.407746"><ele>94</ele></trkpt>
   <trkpt lat="56.136679" lon="13.407548"><ele>94</ele></trkpt>
   <trkpt lat="56.136582" lon="13.405139"><ele>94.75</ele></trkpt>
   <trkpt lat="56.136564" lon="13.403928"><ele>94.5</ele></trkpt>
   <trkpt lat="56.136505" lon="13.403181"><ele>94.5</ele></trkpt>
   <trkpt lat="56.136491" lon="13.40266"><ele>95</ele></trkpt>
   <trkpt lat="56.136476" lon="13.402158"><ele>95.25</ele></trkpt>
   <trkpt lat="56.136374" lon="13.399315"><ele>97</ele></trkpt>
   <trkpt lat="56.136387" lon="13.398612"><ele>97.5</ele></trkpt>
   <trkpt lat="56.13631" lon="13.396619"><ele>97.5</ele></trkpt>
   <trkpt lat="56.136302" lon="13.396432"><ele>97.5</ele></trkpt>
   <trkpt lat="56.136272" lon="13.395591"><ele>97.25</ele></trkpt>
   <trkpt lat="56.13627" lon="13.395502"><ele>97</ele></trkpt>
   <trkpt lat="56.136267" lon="13.395371"><ele>97</ele></trkpt>
   <trkpt lat="56.136266" lon="13.395352"><ele>97</ele></trkpt>
   <trkpt lat="56.136241" lon="13.394649"><ele>96.25</ele></trkpt>
   <trkpt lat="56.136193" lon="13.393938"><ele>95.25</ele></trkpt>
   <trkpt lat="56.13606" lon="13.392911"><ele>93.75</ele></trkpt>
   <trkpt lat="56.135815" lon="13.391327"><ele>91</ele></trkpt>
   <trkpt lat="56.135812" lon="13.391308"><ele>91</ele></trkpt>
   <trkpt lat="56.135743" lon="13.390854"><ele>90.25</ele></trkpt>
   <trkpt lat="56.13567" lon="13.390398"><ele>89.75</ele></trkpt>
   <trkpt lat="56.135144" lon="13.386763"><ele>86.75</ele></trkpt>
   <trkpt lat="56.135004" lon="13.385547"><ele>86</ele></trkpt>
   <trkpt lat="56.134439" lon="13.379568"><ele>86.25</ele></trkpt>
   <trkpt lat="56.134091" lon="13.375823"><ele>86</ele></trkpt>
   <trkpt lat="56.134048" lon="13.375355"><ele>86</ele></trkpt>
   <trkpt lat="56.134041" lon="13.375269"><ele>86</ele></trkpt>
   <trkpt lat="56.133818" lon="13.372581"><ele>89.75</ele></trkpt>
   <trkpt lat="56.133776" lon="13.37171"><ele>90</ele></trkpt>
   <trkpt lat="56.13375" lon="13.370835"><ele>89.75</ele></trkpt>
   <trkpt lat="56.133759" lon="13.369225"><ele>90.25</ele></trkpt>
   <trkpt lat="56.133789" lon="13.368141"><ele>90</ele></trkpt>
   <trkpt lat="56.133973" lon="13.363532"><ele>86</ele></trkpt>
   <trkpt lat="56.13399" lon="13.363139"><ele>86.25</ele></trkpt>
   <trkpt lat="56.133995" lon="13.363035"><ele>86.5</ele></trkpt>
   <trkpt lat="56.134605" lon="13.347572"><ele>77.25</ele></trkpt>
   <trkpt lat="56.134738" lon="13.344194"><ele>79.5</ele></trkpt>
   <trkpt lat="56.134754" lon="13.343545"><ele>80.5</ele></trkpt>
   <trkpt lat="56.134761" lon="13.343102"><ele>80.75</ele></trkpt>
   <trkpt lat="56.134752" lon="13.342229"><ele>81.25</ele></trkpt>
   <trkpt lat="56.134743" lon="13.341903"><ele>81.5</ele></trkpt>
   <trkpt lat="56.13471" lon="13.341311"><ele>81.75</ele></trkpt>
   <trkpt lat="56.13467" lon="13.340813"><ele>81.75</ele></trkpt>
   <trkpt lat="56.134594" lon="13.340092"><ele>81.5</ele></trkpt>
   <trkpt lat="56.134475" lon="13.339238"><ele>81.25</ele></trkpt>
   <trkpt lat="56.134288" lon="13.33818"><ele>79.75</ele></trkpt>
   <trkpt lat="56.133045" lon="13.331954"><ele>80.5</ele></trkpt>
   <trkpt lat="56.131704" lon="13.325246"><ele>84.5</ele></trkpt>
   <trkpt lat="56.131538" lon="13.324398"><ele>85.25</ele></trkpt>
   <trkpt lat="56.13133" lon="13.323241"><ele>85.25</ele></trkpt>
   <trkpt lat="56.13121" lon="13.322453"><ele>84.25</ele></trkpt>
   <trkpt lat="56.131049" lon="13.321242"><ele>84.25</ele></trkpt>
   <trkpt lat="56.130508" lon="13.31653"><ele>81.75</ele></trkpt>
   <trkpt lat="56.13024" lon="13.314224"><ele>82.5</ele></trkpt>
   <trkpt lat="56.130105" lon="13.312972"><ele>81.5</ele></trkpt>
   <trkpt lat="56.130062" lon="13.312488"><ele>81</ele></trkpt>
   <trkpt lat="56.130027" lon="13.312021"><ele>81</ele></trkpt>
   <trkpt lat="56.129992" lon="13.311345"><ele>80.75</ele></trkpt>
   <trkpt lat="56.129978" lon="13.310814"><ele>80.75</ele></trkpt>
   <trkpt lat="56.129973" lon="13.310355"><ele>80.75</ele></trkpt>
   <trkpt lat="56.129976" lon="13.310013"><ele>80.75</ele></trkpt>
   <trkpt lat="56.130009" lon="13.309112"><ele>79.75</ele></trkpt>
   <trkpt lat="56.130025" lon="13.308833"><ele>79.5</ele></trkpt>
   <trkpt lat="56.13007" lon="13.308256"><ele>78.75</ele></trkpt>
   <trkpt lat="56.130118" lon="13.307775"><ele>78.25</ele></trkpt>
   <trkpt lat="56.130185" lon="13.307221"><ele>78</ele></trkpt>
   <trkpt lat="56.130314" lon="13.306382"><ele>77.5</ele></trkpt>
   <trkpt lat="56.130418" lon="13.305818"><ele>76.25</ele></trkpt>
   <trkpt lat="56.130561" lon="13.305107"><ele>75</ele></trkpt>
   <trkpt lat="56.130942" lon="13.303377"><ele>73</ele></trkpt>
   <trkpt lat="56.131067" lon="13.302793"><ele>72.25</ele></trkpt>
   <trkpt lat="56.131183" lon="13.302212"><ele>71.5</ele></trkpt>
   <trkpt lat="56.131315" lon="13.301461"><ele>71</ele></trkpt>
   <trkpt lat="56.131395" lon="13.300905"><ele>71.25</ele></trkpt>
   <trkpt lat="56.13148" lon="13.300212"><ele>72</ele></trkpt>
   <trkpt lat="56.131535" lon="13.299665"><ele>72</ele></trkpt>
   <trkpt lat="56.131628" lon="13.298581"><ele>71</ele></trkpt>
   <trkpt lat="56.13188" lon="13.295346"><ele>65.5</ele></trkpt>
   <trkpt lat="56.131882" lon="13.295321"><ele>65.5</ele></trkpt>
   <trkpt lat="56.132052" lon="13.293133"><ele>63</ele></trkpt>
   <trkpt lat="56.132129" lon="13.291929"><ele>64.25</ele></trkpt>
   <trkpt lat="56.132167" lon="13.291304"><ele>65.5</ele></trkpt>
   <trkpt lat="56.132265" lon="13.289702"><ele>67.25</ele></trkpt>
   <trkpt lat="56.132392" lon="13.287599"><ele>65.75</ele></trkpt>
   <trkpt lat="56.132458" lon="13.286418"><ele>66</ele></trkpt>
   <trkpt lat="56.132503" lon="13.285078"><ele>65.75</ele></trkpt>
   <trkpt lat="56.132506" lon="13.284098"><ele>64.75</ele></trkpt>
   <trkpt lat="56.132497" lon="13.283643"><ele>65</ele></trkpt>
   <trkpt lat="56.132476" lon="13.282976"><ele>66</ele></trkpt>
   <trkpt lat="56.132437" lon="13.28223"><ele>67.5</ele></trkpt>
   <trkpt lat="56.132323" lon="13.280629"><ele>71.25</ele></trkpt>
   <trkpt lat="56.132259" lon="13.279814"><ele>72.75</ele></trkpt>
   <trkpt lat="56.132006" lon="13.276533"><ele>69.25</ele></trkpt>
   <trkpt lat="56.131998" lon="13.276441"><ele>69.25</ele></trkpt>
   <trkpt lat="56.131575" lon="13.271152"><ele>68.75</ele></trkpt>
   <trkpt lat="56.131417" lon="13.269015"><ele>66.25</ele></trkpt>
   <trkpt lat="56.131137" lon="13.265409"><ele>70.25</ele></trkpt>
   <trkpt lat="56.130646" lon="13.260036"><ele>78</ele></trkpt>
   <trkpt lat="56.130181" lon="13.254974"><ele>68</ele></trkpt>
   <trkpt lat="56.130121" lon="13.25418"><ele>66.25</ele></trkpt>
   <trkpt lat="56.130066" lon="13.253245"><ele>65</ele></trkpt>
   <trkpt lat="56.130034" lon="13.252395"><ele>63.75</ele></trkpt>
   <trkpt lat="56.13002" lon="13.251602"><ele>63</ele></trkpt>
   <trkpt lat="56.129998" lon="13.24857"><ele>62.75</ele></trkpt>
   <trkpt lat="56.129916" lon="13.235923"><ele>58.75</ele></trkpt>
   <trkpt lat="56.129819" lon="13.220969"><ele>53</ele></trkpt>
   <trkpt lat="56.129815" lon="13.219855"><ele>51.5</ele></trkpt>
   <trkpt lat="56.129815" lon="13.219832"><ele>51.5</ele></trkpt>
   <trkpt lat="56.129731" lon="13.204883"><ele>47.75</ele></trkpt>
   <trkpt lat="56.12973" lon="13.204399"><ele>47.25</ele></trkpt>
   <trkpt lat="56.129663" lon="13.191873"><ele>44.25</ele></trkpt>
   <trkpt lat="56.129655" lon="13.188813"><ele>42</ele></trkpt>
   <trkpt lat="56.1296" lon="13.177299"><ele>40</ele></trkpt>
   <trkpt lat="56.129576" lon="13.172735"><ele>41</ele></trkpt>
   <trkpt lat="56.129558" lon="13.16759"><ele>37.75</ele></trkpt>
   <trkpt lat="56.129553" lon="13.166915"><ele>38</ele></trkpt>
   <trkpt lat="56.129637" lon="13.156658"><ele>34.75</ele></trkpt>
   <trkpt lat="56.129662" lon="13.153449"><ele>35.25</ele></trkpt>
   <trkpt lat="56.129696" lon="13.149914"><ele>38</ele></trkpt>
   <trkpt lat="56.129696" lon="13.149898"><ele>38</ele></trkpt>
   <trkpt lat="56.129721" lon="13.148584"><ele>37.75</ele></trkpt>
   <trkpt lat="56.129763" lon="13.147391"><ele>37.25</ele></trkpt>
   <trkpt lat="56.129899" lon="13.144665"><ele>35.25</ele></trkpt>
   <trkpt lat="56.129901" lon="13.144016"><ele>34.75</ele></trkpt>
   <trkpt lat="56.130026" lon="13.141817"><ele>34</ele></trkpt>
   <trkpt lat="56.130093" lon="13.140635"><ele>34</ele></trkpt>
   <trkpt lat="56.130717" lon="13.129524"><ele>35</ele></trkpt>
   <trkpt lat="56.130758" lon="13.128829"><ele>34.75</ele></trkpt>
   <trkpt lat="56.130765" lon="13.128731"><ele>34.75</ele></trkpt>
   <trkpt lat="56.13085" lon="13.12715"><ele>34</ele></trkpt>
   <trkpt lat="56.130886" lon="13.126702"><ele>34</ele></trkpt>
   <trkpt lat="56.130942" lon="13.12622"><ele>33.5</ele></trkpt>
   <trkpt lat="56.13103" lon="13.124651"><ele>33.25</ele></trkpt>
   <trkpt lat="56.131071" lon="13.123927"><ele>33.5</ele></trkpt>
   <trkpt lat="56.131156" lon="13.122781"><ele>33</ele></trkpt>
   <trkpt lat="56.131265" lon="13.121643"><ele>32.25</ele></trkpt>
   <trkpt lat="56.13139" lon="13.120624"><ele>31.25</ele></trkpt>
   <trkpt lat="56.131392" lon="13.120614"><ele>31.25</ele></trkpt>
   <trkpt lat="56.131518" lon="13.1197"><ele>30.5</ele></trkpt>
   <trkpt lat="56.131629" lon="13.119008"><ele>29.75</ele></trkpt>
   <trkpt lat="56.131761" lon="13.118249"><ele>30.25</ele></trkpt>
   <trkpt lat="56.131871" lon="13.117664"><ele>29.75</ele></trkpt>
   <trkpt lat="56.131977" lon="13.117132"><ele>29.75</ele></trkpt>
   <trkpt lat="56.133199" lon="13.111383"><ele>23.5</ele></trkpt>
   <trkpt lat="56.133321" lon="13.11081"><ele>23.75</ele></trkpt>
   <trkpt lat="56.133628" lon="13.109354"><ele>24.25</ele></trkpt>
   <trkpt lat="56.134008" lon="13.107573"><ele>23.25</ele></trkpt>
   <trkpt lat="56.134189" lon="13.106637"><ele>23</ele></trkpt>
   <trkpt lat="56.134255" lon="13.106258"><ele>23</ele></trkpt>
   <trkpt lat="56.134404" lon="13.105262"><ele>23</ele></trkpt>
   <trkpt lat="56.134492" lon="13.104529"><ele>22.25</ele></trkpt>
   <trkpt lat="56.134531" lon="13.104153"><ele>21.75</ele></trkpt>
   <trkpt lat="56.134627" lon="13.102994"><ele>20.75</ele></trkpt>
   <trkpt lat="56.135058" lon="13.096828"><ele>14.5</ele></trkpt>
   <trkpt lat="56.13509" lon="13.096388"><ele>14.75</ele></trkpt>
   <trkpt lat="56.135197" lon="13.095076"><ele>16.25</ele></trkpt>
   <trkpt lat="56.135302" lon="13.094139"><ele>15.5</ele></trkpt>
   <trkpt lat="56.13537" lon="13.093604"><ele>15.5</ele></trkpt>
   <trkpt lat="56.135531" lon="13.092522"><ele>14</ele></trkpt>
   <trkpt lat="56.1359" lon="13.090389"><ele>12.25</ele></trkpt>
   <trkpt lat="56.136159" lon="13.08882"><ele>11</ele></trkpt>
   <trkpt lat="56.136511" lon="13.086379"><ele>10</ele></trkpt>
   <trkpt lat="56.136928" lon="13.083624"><ele>4</ele></trkpt>
   <trkpt lat="56.137079" lon="13.082661"><ele>3.25</ele></trkpt>
   <trkpt lat="56.137694" lon="13.078735"><ele>11.25</ele></trkpt>
   <trkpt lat="56.137788" lon="13.078093"><ele>13.25</ele></trkpt>
   <trkpt lat="56.137891" lon="13.077345"><ele>14.75</ele></trkpt>
   <trkpt lat="56.138005" lon="13.076386"><ele>15.75</ele></trkpt>
   <trkpt lat="56.138071" lon="13.075735"><ele>15</ele></trkpt>
   <trkpt lat="56.138144" lon="13.074902"><ele>14.75</ele></trkpt>
   <trkpt lat="56.13818" lon="13.074422"><ele>15.5</ele></trkpt>
   <trkpt lat="56.138242" lon="13.07337"><ele>16.75</ele></trkpt>
   <trkpt lat="56.138288" lon="13.072111"><ele>18.5</ele></trkpt>
   <trkpt lat="56.138302" lon="13.070625"><ele>20</ele></trkpt>
   <trkpt lat="56.138279" lon="13.069317"><ele>21</ele></trkpt>
   <trkpt lat="56.138252" lon="13.068609"><ele>21.25</ele></trkpt>
   <trkpt lat="56.138187" lon="13.067402"><ele>23.75</ele></trkpt>
   <trkpt lat="56.137838" lon="13.062118"><ele>29.75</ele></trkpt>
   <trkpt lat="56.137588" lon="13.058338"><ele>27.75</ele></trkpt>
   <trkpt lat="56.137358" lon="13.054842"><ele>27.75</ele></trkpt>
   <trkpt lat="56.137254" lon="13.053252"><ele>30.25</ele></trkpt>
   <trkpt lat="56.137229" lon="13.052898"><ele>31</ele></trkpt>
   <trkpt lat="56.137174" lon="13.052091"><ele>32.25</ele></trkpt>
   <trkpt lat="56.137128" lon="13.051285"><ele>32.5</ele></trkpt>
   <trkpt lat="56.137113" lon="13.050907"><ele>32.25</ele></trkpt>
   <trkpt lat="56.137105" lon="13.050514"><ele>32.25</ele></trkpt>
   <trkpt lat="56.137105" lon="13.050049"><ele>31.75</ele></trkpt>
   <trkpt lat="56.137152" lon="13.048352"><ele>31</ele></trkpt>
   <trkpt lat="56.137179" lon="13.047427"><ele>30.75</ele></trkpt>
   <trkpt lat="56.137188" lon="13.047184"><ele>30.75</ele></trkpt>
   <trkpt lat="56.137218" lon="13.046137"><ele>30.25</ele></trkpt>
   <trkpt lat="56.137235" lon="13.045577"><ele>29.75</ele></trkpt>
   <trkpt lat="56.137276" lon="13.044288"><ele>29.5</ele></trkpt>
   <trkpt lat="56.137325" lon="13.042697"><ele>29.25</ele></trkpt>
   <trkpt lat="56.137372" lon="13.041096"><ele>29.5</ele></trkpt>
   <trkpt lat="56.137405" lon="13.040077"><ele>30</ele></trkpt>
   <trkpt lat="56.13754" lon="13.035813"><ele>29.75</ele></trkpt>
   <trkpt lat="56.137593" lon="13.034146"><ele>28.5</ele></trkpt>
   <trkpt lat="56.137709" lon="13.030045"><ele>27</ele></trkpt>
   <trkpt lat="56.137743" lon="13.028903"><ele>26</ele></trkpt>
   <trkpt lat="56.138196" lon="13.013983"><ele>21</ele></trkpt>
   <trkpt lat="56.138596" lon="13.000751"><ele>21</ele></trkpt>
   <trkpt lat="56.138601" lon="13.000605"><ele>21</ele></trkpt>
   <trkpt lat="56.138681" lon="12.99794"><ele>20.75</ele></trkpt>
   <trkpt lat="56.138781" lon="12.994372"><ele>20</ele></trkpt>
   <trkpt lat="56.138786" lon="12.993797"><ele>20</ele></trkpt>
   <trkpt lat="56.138788" lon="12.993376"><ele>20</ele></trkpt>
   <trkpt lat="56.138788" lon="12.993348"><ele>20</ele></trkpt>
   <trkpt lat="56.138789" lon="12.992744"><ele>20.25</ele></trkpt>
   <trkpt lat="56.13877" lon="12.99128"><ele>20.75</ele></trkpt>
   <trkpt lat="56.138752" lon="12.990655"><ele>21.5</ele></trkpt>
   <trkpt lat="56.138721" lon="12.989691"><ele>22</ele></trkpt>
   <trkpt lat="56.138688" lon="12.988997"><ele>22</ele></trkpt>
   <trkpt lat="56.138676" lon="12.988719"><ele>22</ele></trkpt>
   <trkpt lat="56.138592" lon="12.987346"><ele>22</ele></trkpt>
   <trkpt lat="56.138565" lon="12.986812"><ele>22</ele></trkpt>
   <trkpt lat="56.138449" lon="12.984905"><ele>21.75</ele></trkpt>
   <trkpt lat="56.138281" lon="12.982139"><ele>23</ele></trkpt>
   <trkpt lat="56.138134" lon="12.97983"><ele>24</ele></trkpt>
   <trkpt lat="56.138016" lon="12.978188"><ele>24</ele></trkpt>
   <trkpt lat="56.13792" lon="12.976897"><ele>25</ele></trkpt>
   <trkpt lat="56.137712" lon="12.973162"><ele>26.5</ele></trkpt>
   <trkpt lat="56.137708" lon="12.973107"><ele>26.75</ele></trkpt>
   <trkpt lat="56.137525" lon="12.96986"><ele>26.75</ele></trkpt>
   <trkpt lat="56.137391" lon="12.967803"><ele>27</ele></trkpt>
   <trkpt lat="56.137244" lon="12.965953"><ele>26.25</ele></trkpt>
   <trkpt lat="56.136958" lon="12.962613"><ele>25.5</ele></trkpt>
   <trkpt lat="56.136865" lon="12.96152"><ele>26.25</ele></trkpt>
   <trkpt lat="56.136637" lon="12.958909"><ele>31.25</ele></trkpt>
   <trkpt lat="56.136619" lon="12.958707"><ele>31.75</ele></trkpt>
   <trkpt lat="56.136497" lon="12.95715"><ele>33.5</ele></trkpt>
   <trkpt lat="56.13639" lon="12.955807"><ele>33.75</ele></trkpt>
   <trkpt lat="56.136365" lon="12.955521"><ele>34</ele></trkpt>
   <trkpt lat="56.13624" lon="12.954504"><ele>34</ele></trkpt>
   <trkpt lat="56.13614" lon="12.953953"><ele>34</ele></trkpt>
   <trkpt lat="56.13608" lon="12.953669"><ele>33.75</ele></trkpt>
   <trkpt lat="56.135993" lon="12.953325"><ele>33.75</ele></trkpt>
   <trkpt lat="56.135862" lon="12.952894"><ele>33.25</ele></trkpt>
   <trkpt lat="56.135788" lon="12.952678"><ele>33.25</ele></trkpt>
   <trkpt lat="56.135709" lon="12.952473"><ele>33</ele></trkpt>
   <trkpt lat="56.135594" lon="12.952215"><ele>32.75</ele></trkpt>
   <trkpt lat="56.135465" lon="12.951952"><ele>32.75</ele></trkpt>
   <trkpt lat="56.135196" lon="12.95149"><ele>32.75</ele></trkpt>
   <trkpt lat="56.13502" lon="12.951186"><ele>33.5</ele></trkpt>
   <trkpt lat="56.134604" lon="12.950413"><ele>34.75</ele></trkpt>
   <trkpt lat="56.133958" lon="12.949307"><ele>36.25</ele></trkpt>
   <trkpt lat="56.133827" lon="12.949086"><ele>36.75</ele></trkpt>
   <trkpt lat="56.132924" lon="12.947538"><ele>39</ele></trkpt>
   <trkpt lat="56.132869" lon="12.947451"><ele>39</ele></trkpt>
   <trkpt lat="56.132823" lon="12.94738"><ele>39</ele></trkpt>
   <trkpt lat="56.132484" lon="12.946893"><ele>38.75</ele></trkpt>
   <trkpt lat="56.132183" lon="12.946501"><ele>39.25</ele></trkpt>
   <trkpt lat="56.131883" lon="12.946188"><ele>40.75</ele></trkpt>
   <trkpt lat="56.131776" lon="12.946097"><ele>41.25</ele></trkpt>
   <trkpt lat="56.131597" lon="12.945964"><ele>42</ele></trkpt>
   <trkpt lat="56.131417" lon="12.945856"><ele>42.5</ele></trkpt>
   <trkpt lat="56.131282" lon="12.945789"><ele>42.75</ele></trkpt>
   <trkpt lat="56.131196" lon="12.945759"><ele>43</ele></trkpt>
   <trkpt lat="56.130975" lon="12.945707"><ele>43.25</ele></trkpt>
   <trkpt lat="56.130557" lon="12.945623"><ele>41.5</ele></trkpt>
   <trkpt lat="56.130352" lon="12.945592"><ele>40.25</ele></trkpt>
   <trkpt lat="56.130248" lon="12.945593"><ele>39.5</ele></trkpt>
   <trkpt lat="56.129929" lon="12.945621"><ele>37.75</ele></trkpt>
   <trkpt lat="56.129783" lon="12.945658"><ele>37.5</ele></trkpt>
   <trkpt lat="56.128836" lon="12.945919"><ele>36</ele></trkpt>
   <trkpt lat="56.127594" lon="12.946256"><ele>36.5</ele></trkpt>
   <trkpt lat="56.127133" lon="12.946379"><ele>36</ele></trkpt>
   <trkpt lat="56.126837" lon="12.946476"><ele>35.75</ele></trkpt>
   <trkpt lat="56.126417" lon="12.946631"><ele>35.25</ele></trkpt>
   <trkpt lat="56.126094" lon="12.946782"><ele>35</ele></trkpt>
   <trkpt lat="56.125878" lon="12.946897"><ele>34.75</ele></trkpt>
   <trkpt lat="56.124661" lon="12.94765"><ele>34.25</ele></trkpt>
   <trkpt lat="56.120098" lon="12.950559"><ele>34.75</ele></trkpt>
   <trkpt lat="56.118619" lon="12.951504"><ele>34.5</ele></trkpt>
   <trkpt lat="56.117629" lon="12.952136"><ele>33.25</ele></trkpt>
   <trkpt lat="56.10987" lon="12.957075"><ele>22</ele></trkpt>
   <trkpt lat="56.109171" lon="12.957521"><ele>22</ele></trkpt>
   <trkpt lat="56.10536" lon="12.95995"><ele>22.75</ele></trkpt>
   <trkpt lat="56.104196" lon="12.9607"><ele>21</ele></trkpt>
   <trkpt lat="56.10072" lon="12.962961"><ele>24</ele></trkpt>
   <trkpt lat="56.096915" lon="12.965429"><ele>22.5</ele></trkpt>
   <trkpt lat="56.096292" lon="12.965835"><ele>23.25</ele></trkpt>
   <trkpt lat="56.096072" lon="12.965977"><ele>23.5</ele></trkpt>
   <trkpt lat="56.093559" lon="12.967608"><ele>25</ele></trkpt>
   <trkpt lat="56.092282" lon="12.968441"><ele>27.25</ele></trkpt>
   <trkpt lat="56.091651" lon="12.968845"><ele>28</ele></trkpt>
   <trkpt lat="56.091184" lon="12.969147"><ele>28</ele></trkpt>
   <trkpt lat="56.090252" lon="12.969702"><ele>27.75</ele></trkpt>
   <trkpt lat="56.089382" lon="12.970162"><ele>27.25</ele></trkpt>
   <trkpt lat="56.08852" lon="12.970561"><ele>27.5</ele></trkpt>
   <trkpt lat="56.087637" lon="12.970915"><ele>28</ele></trkpt>
   <trkpt lat="56.087347" lon="12.971016"><ele>28.5</ele></trkpt>
   <trkpt lat="56.086624" lon="12.971248"><ele>30</ele></trkpt>
   <trkpt lat="56.08452" lon="12.97189"><ele>29.5</ele></trkpt>
   <trkpt lat="56.083584" lon="12.972177"><ele>29</ele></trkpt>
   <trkpt lat="56.075919" lon="12.974505"><ele>30.5</ele></trkpt>
   <trkpt lat="56.075136" lon="12.974717"><ele>28.5</ele></trkpt>
   <trkpt lat="56.074717" lon="12.974799"><ele>28</ele></trkpt>
   <trkpt lat="56.074395" lon="12.974845"><ele>28</ele></trkpt>
   <trkpt lat="56.074063" lon="12.974886"><ele>28</ele></trkpt>
   <trkpt lat="56.072897" lon="12.97501"><ele>30</ele></trkpt>
   <trkpt lat="56.066251" lon="12.975754"><ele>37</ele></trkpt>
   <trkpt lat="56.065761" lon="12.975812"><ele>37</ele></trkpt>
   <trkpt lat="56.063952" lon="12.976012"><ele>38</ele></trkpt>
   <trkpt lat="56.06294" lon="12.976127"><ele>38.75</ele></trkpt>
   <trkpt lat="56.061613" lon="12.976268"><ele>41.25</ele></trkpt>
   <trkpt lat="56.060256" lon="12.97644"><ele>38.25</ele></trkpt>
   <trkpt lat="56.060044" lon="12.976459"><ele>37.75</ele></trkpt>
   <trkpt lat="56.059974" lon="12.976465"><ele>37.75</ele></trkpt>
   <trkpt lat="56.059864" lon="12.976475"><ele>38</ele></trkpt>
   <trkpt lat="56.059803" lon="12.97648"><ele>38.25</ele></trkpt>
   <trkpt lat="56.059766" lon="12.976485"><ele>38.25</ele></trkpt>
   <trkpt lat="56.05891" lon="12.97658"><ele>40</ele></trkpt>
   <trkpt lat="56.05881" lon="12.976591"><ele>40</ele></trkpt>
   <trkpt lat="56.058011" lon="12.976677"><ele>40.25</ele></trkpt>
   <trkpt lat="56.057509" lon="12.976717"><ele>40.75</ele></trkpt>
   <trkpt lat="56.05679" lon="12.976744"><ele>41</ele></trkpt>
   <trkpt lat="56.056114" lon="12.976762"><ele>41</ele></trkpt>
   <trkpt lat="56.055674" lon="12.976744"><ele>41</ele></trkpt>
   <trkpt lat="56.055255" lon="12.976715"><ele>41</ele></trkpt>
   <trkpt lat="56.055041" lon="12.976688"><ele>41</ele></trkpt>
   <trkpt lat="56.054598" lon="12.976601"><ele>40.75</ele></trkpt>
   <trkpt lat="56.054146" lon="12.976487"><ele>40.75</ele></trkpt>
   <trkpt lat="56.053694" lon="12.976345"><ele>40.75</ele></trkpt>
   <trkpt lat="56.053478" lon="12.976264"><ele>40.75</ele></trkpt>
   <trkpt lat="56.053011" lon="12.976065"><ele>40.5</ele></trkpt>
   <trkpt lat="56.052136" lon="12.975671"><ele>40.75</ele></trkpt>
   <trkpt lat="56.051295" lon="12.975291"><ele>43</ele></trkpt>
   <trkpt lat="56.051082" lon="12.975194"><ele>43.5</ele></trkpt>
   <trkpt lat="56.050169" lon="12.974783"><ele>47.25</ele></trkpt>
   <trkpt lat="56.049519" lon="12.974544"><ele>48.5</ele></trkpt>
   <trkpt lat="56.049211" lon="12.974455"><ele>48.75</ele></trkpt>
   <trkpt lat="56.048796" lon="12.974366"><ele>49</ele></trkpt>
   <trkpt lat="56.048322" lon="12.974303"><ele>49.25</ele></trkpt>
   <trkpt lat="56.047961" lon="12.974276"><ele>48.25</ele></trkpt>
   <trkpt lat="56.045381" lon="12.97412"><ele>46.75</ele></trkpt>
   <trkpt lat="56.044812" lon="12.97411"><ele>47.75</ele></trkpt>
   <trkpt lat="56.044611" lon="12.974122"><ele>47.75</ele></trkpt>
   <trkpt lat="56.044431" lon="12.974145"><ele>47.75</ele></trkpt>
   <trkpt lat="56.043988" lon="12.974231"><ele>49</ele></trkpt>
   <trkpt lat="56.043742" lon="12.974301"><ele>50.5</ele></trkpt>
   <trkpt lat="56.043346" lon="12.974458"><ele>52</ele></trkpt>
   <trkpt lat="56.042966" lon="12.974657"><ele>52</ele></trkpt>
   <trkpt lat="56.042718" lon="12.974811"><ele>52</ele></trkpt>
   <trkpt lat="56.042538" lon="12.974936"><ele>52</ele></trkpt>
   <trkpt lat="56.042227" lon="12.975179"><ele>52.5</ele></trkpt>
   <trkpt lat="56.041827" lon="12.975554"><ele>53.5</ele></trkpt>
   <trkpt lat="56.041669" lon="12.975718"><ele>53.75</ele></trkpt>
   <trkpt lat="56.04137" lon="12.976067"><ele>55.5</ele></trkpt>
   <trkpt lat="56.041219" lon="12.976259"><ele>56</ele></trkpt>
   <trkpt lat="56.041018" lon="12.976536"><ele>56.5</ele></trkpt>
   <trkpt lat="56.040818" lon="12.976832"><ele>57</ele></trkpt>
   <trkpt lat="56.040609" lon="12.97717"><ele>58</ele></trkpt>
   <trkpt lat="56.040406" lon="12.977524"><ele>58.5</ele></trkpt>
   <trkpt lat="56.040043" lon="12.978186"><ele>58.25</ele></trkpt>
   <trkpt lat="56.039781" lon="12.978679"><ele>60.25</ele></trkpt>
   <trkpt lat="56.033623" lon="12.990215"><ele>69</ele></trkpt>
   <trkpt lat="56.032943" lon="12.991494"><ele>69.5</ele></trkpt>
   <trkpt lat="56.032606" lon="12.992184"><ele>69</ele></trkpt>
   <trkpt lat="56.032475" lon="12.992464"><ele>69</ele></trkpt>
   <trkpt lat="56.032206" lon="12.993105"><ele>68.75</ele></trkpt>
   <trkpt lat="56.031993" lon="12.993654"><ele>68</ele></trkpt>
   <trkpt lat="56.031812" lon="12.994172"><ele>67.5</ele></trkpt>
   <trkpt lat="56.031537" lon="12.995051"><ele>66.75</ele></trkpt>
   <trkpt lat="56.031294" lon="12.995954"><ele>65.25</ele></trkpt>
   <trkpt lat="56.031144" lon="12.996557"><ele>64.5</ele></trkpt>
   <trkpt lat="56.029289" lon="13.004213"><ele>66.75</ele></trkpt>
   <trkpt lat="56.029072" lon="13.005105"><ele>68</ele></trkpt>
   <trkpt lat="56.028727" lon="13.006527"><ele>70</ele></trkpt>
   <trkpt lat="56.02845" lon="13.007668"><ele>70</ele></trkpt>
   <trkpt lat="56.027265" lon="13.012534"><ele>68.75</ele></trkpt>
   <trkpt lat="56.026982" lon="13.013662"><ele>68.25</ele></trkpt>
   <trkpt lat="56.026763" lon="13.014499"><ele>68</ele></trkpt>
   <trkpt lat="56.026481" lon="13.015542"><ele>67.75</ele></trkpt>
   <trkpt lat="56.026093" lon="13.016931"><ele>66.5</ele></trkpt>
   <trkpt lat="56.025539" lon="13.018786"><ele>63.75</ele></trkpt>
   <trkpt lat="56.024914" lon="13.020841"><ele>62.75</ele></trkpt>
   <trkpt lat="56.024882" lon="13.020947"><ele>62.75</ele></trkpt>
   <trkpt lat="56.024597" lon="13.021885"><ele>62.5</ele></trkpt>
   <trkpt lat="56.021245" lon="13.032882"><ele>68</ele></trkpt>
   <trkpt lat="56.017737" lon="13.0444"><ele>70.5</ele></trkpt>
   <trkpt lat="56.016954" lon="13.046969"><ele>69.75</ele></trkpt>
   <trkpt lat="56.014291" lon="13.055705"><ele>65.5</ele></trkpt>
   <trkpt lat="56.014123" lon="13.056251"><ele>65.5</ele></trkpt>
   <trkpt lat="56.013829" lon="13.057165"><ele>64.25</ele></trkpt>
   <trkpt lat="56.013592" lon="13.05785"><ele>63</ele></trkpt>
   <trkpt lat="56.01323" lon="13.058835"><ele>62.75</ele></trkpt>
   <trkpt lat="56.012808" lon="13.059891"><ele>62.25</ele></trkpt>
   <trkpt lat="56.012617" lon="13.060351"><ele>62.25</ele></trkpt>
   <trkpt lat="56.012419" lon="13.060793"><ele>62.5</ele></trkpt>
   <trkpt lat="56.011568" lon="13.062663"><ele>63</ele></trkpt>
   <trkpt lat="56.008303" lon="13.0698"><ele>62.5</ele></trkpt>
   <trkpt lat="56.007738" lon="13.071035"><ele>61.75</ele></trkpt>
   <trkpt lat="56.006197" lon="13.0744"><ele>59.75</ele></trkpt>
   <trkpt lat="56.005188" lon="13.076604"><ele>62.25</ele></trkpt>
   <trkpt lat="56.004568" lon="13.077926"><ele>64.75</ele></trkpt>
   <trkpt lat="56.004466" lon="13.078153"><ele>65</ele></trkpt>
   <trkpt lat="56.004171" lon="13.078789"><ele>65</ele></trkpt>
   <trkpt lat="56.003868" lon="13.079411"><ele>64.25</ele></trkpt>
   <trkpt lat="56.003391" lon="13.08035"><ele>63</ele></trkpt>
   <trkpt lat="56.002981" lon="13.081097"><ele>63.5</ele></trkpt>
   <trkpt lat="56.002759" lon="13.081443"><ele>63.75</ele></trkpt>
   <trkpt lat="56.002546" lon="13.081744"><ele>64</ele></trkpt>
   <trkpt lat="56.00238" lon="13.081958"><ele>64.25</ele></trkpt>
   <trkpt lat="56.002207" lon="13.08215"><ele>65</ele></trkpt>
   <trkpt lat="56.001918" lon="13.082446"><ele>66</ele></trkpt>
   <trkpt lat="56.0017" lon="13.082635"><ele>66.5</ele></trkpt>
   <trkpt lat="56.001502" lon="13.082789"><ele>66.75</ele></trkpt>
   <trkpt lat="56.001289" lon="13.08293"><ele>66.75</ele></trkpt>
   <trkpt lat="56.001106" lon="13.083035"><ele>67</ele></trkpt>
   <trkpt lat="56.000846" lon="13.083163"><ele>67</ele></trkpt>
   <trkpt lat="56.000554" lon="13.083271"><ele>66.5</ele></trkpt>
   <trkpt lat="56.000299" lon="13.083341"><ele>66.25</ele></trkpt>
   <trkpt lat="56.00004" lon="13.083388"><ele>65.75</ele></trkpt>
   <trkpt lat="55.999842" lon="13.083403"><ele>66</ele></trkpt>
   <trkpt lat="55.999643" lon="13.083407"><ele>66.25</ele></trkpt>
   <trkpt lat="55.99931" lon="13.083386"><ele>66.5</ele></trkpt>
   <trkpt lat="55.998845" lon="13.083336"><ele>66</ele></trkpt>
   <trkpt lat="55.997482" lon="13.083187"><ele>63.25</ele></trkpt>
   <trkpt lat="55.996718" lon="13.083103"><ele>62</ele></trkpt>
   <trkpt lat="55.996587" lon="13.083086"><ele>62</ele></trkpt>
   <trkpt lat="55.995785" lon="13.082998"><ele>62.25</ele></trkpt>
   <trkpt lat="55.99506" lon="13.082931"><ele>65</ele></trkpt>
   <trkpt lat="55.994763" lon="13.082921"><ele>66.5</ele></trkpt>
   <trkpt lat="55.994428" lon="13.08293"><ele>68</ele></trkpt>
   <trkpt lat="55.994091" lon="13.082963"><ele>69.25</ele></trkpt>
   <trkpt lat="55.99381" lon="13.083003"><ele>68.5</ele></trkpt>
   <trkpt lat="55.993376" lon="13.083103"><ele>67.75</ele></trkpt>
   <trkpt lat="55.993061" lon="13.083197"><ele>67.75</ele></trkpt>
   <trkpt lat="55.992747" lon="13.083311"><ele>67.75</ele></trkpt>
   <trkpt lat="55.992496" lon="13.083422"><ele>67.75</ele></trkpt>
   <trkpt lat="55.992291" lon="13.083512"><ele>67.5</ele></trkpt>
   <trkpt lat="55.990828" lon="13.084261"><ele>66.75</ele></trkpt>
   <trkpt lat="55.990435" lon="13.084476"><ele>66.5</ele></trkpt>
   <trkpt lat="55.983298" lon="13.088213"><ele>79.75</ele></trkpt>
   <trkpt lat="55.981791" lon="13.088998"><ele>81.5</ele></trkpt>
   <trkpt lat="55.981312" lon="13.089236"><ele>82</ele></trkpt>
   <trkpt lat="55.980869" lon="13.089441"><ele>82</ele></trkpt>
   <trkpt lat="55.980423" lon="13.089631"><ele>84</ele></trkpt>
   <trkpt lat="55.979617" lon="13.089941"><ele>86.75</ele></trkpt>
   <trkpt lat="55.976538" lon="13.091067"><ele>84.25</ele></trkpt>
   <trkpt lat="55.976474" lon="13.091091"><ele>84</ele></trkpt>
   <trkpt lat="55.973039" lon="13.092344"><ele>79.5</ele></trkpt>
   <trkpt lat="55.971479" lon="13.092913"><ele>79.5</ele></trkpt>
   <trkpt lat="55.971412" lon="13.092937"><ele>79.5</ele></trkpt>
   <trkpt lat="55.970647" lon="13.093217"><ele>78.75</ele></trkpt>
   <trkpt lat="55.970135" lon="13.093402"><ele>78.75</ele></trkpt>
   <trkpt lat="55.96962" lon="13.093574"><ele>79</ele></trkpt>
   <trkpt lat="55.968585" lon="13.093894"><ele>80.5</ele></trkpt>
   <trkpt lat="55.966901" lon="13.094414"><ele>79.5</ele></trkpt>
   <trkpt lat="55.966466" lon="13.094545"><ele>79.5</ele></trkpt>
   <trkpt lat="55.96613" lon="13.094648"><ele>79.5</ele></trkpt>
   <trkpt lat="55.96544" lon="13.094826"><ele>79.5</ele></trkpt>
   <trkpt lat="55.964988" lon="13.094908"><ele>79</ele></trkpt>
   <trkpt lat="55.964718" lon="13.094944"><ele>79</ele></trkpt>
   <trkpt lat="55.964188" lon="13.094987"><ele>79</ele></trkpt>
   <trkpt lat="55.963556" lon="13.094996"><ele>77.5</ele></trkpt>
   <trkpt lat="55.961799" lon="13.094959"><ele>77</ele></trkpt>
   <trkpt lat="55.961456" lon="13.094961"><ele>77.25</ele></trkpt>
   <trkpt lat="55.961371" lon="13.094961"><ele>77.25</ele></trkpt>
   <trkpt lat="55.961038" lon="13.094975"><ele>77.5</ele></trkpt>
   <trkpt lat="55.960435" lon="13.095028"><ele>78</ele></trkpt>
   <trkpt lat="55.959647" lon="13.095152"><ele>78</ele></trkpt>
   <trkpt lat="55.959132" lon="13.095267"><ele>78</ele></trkpt>
   <trkpt lat="55.95862" lon="13.095408"><ele>78</ele></trkpt>
   <trkpt lat="55.95811" lon="13.095576"><ele>78</ele></trkpt>
   <trkpt lat="55.957742" lon="13.09571"><ele>78.5</ele></trkpt>
   <trkpt lat="55.957371" lon="13.095862"><ele>79</ele></trkpt>
   <trkpt lat="55.95687" lon="13.096092"><ele>79.25</ele></trkpt>
   <trkpt lat="55.956343" lon="13.096361"><ele>79.5</ele></trkpt>
   <trkpt lat="55.956005" lon="13.09655"><ele>79.25</ele></trkpt>
   <trkpt lat="55.955338" lon="13.09696"><ele>78.5</ele></trkpt>
   <trkpt lat="55.951202" lon="13.099612"><ele>77.75</ele></trkpt>
   <trkpt lat="55.950685" lon="13.099954"><ele>77.25</ele></trkpt>
   <trkpt lat="55.950176" lon="13.100307"><ele>78.75</ele></trkpt>
   <trkpt lat="55.949793" lon="13.100592"><ele>79</ele></trkpt>
   <trkpt lat="55.948982" lon="13.101226"><ele>79.5</ele></trkpt>
   <trkpt lat="55.948595" lon="13.101553"><ele>79</ele></trkpt>
   <trkpt lat="55.948126" lon="13.101965"><ele>79.5</ele></trkpt>
   <trkpt lat="55.947663" lon="13.102393"><ele>80</ele></trkpt>
   <trkpt lat="55.947037" lon="13.103003"><ele>80.5</ele></trkpt>
   <trkpt lat="55.941461" lon="13.108864"><ele>76.75</ele></trkpt>
   <trkpt lat="55.939297" lon="13.111146"><ele>75.5</ele></trkpt>
   <trkpt lat="55.938318" lon="13.112154"><ele>76</ele></trkpt>
   <trkpt lat="55.937901" lon="13.112555"><ele>75</ele></trkpt>
   <trkpt lat="55.937479" lon="13.112945"><ele>73.25</ele></trkpt>
   <trkpt lat="55.937055" lon="13.113326"><ele>72.75</ele></trkpt>
   <trkpt lat="55.936629" lon="13.113693"><ele>72.25</ele></trkpt>
   <trkpt lat="55.936309" lon="13.113954"><ele>72</ele></trkpt>
   <trkpt lat="55.935333" lon="13.114693"><ele>72.25</ele></trkpt>
   <trkpt lat="55.934863" lon="13.115021"><ele>71.75</ele></trkpt>
   <trkpt lat="55.934386" lon="13.115339"><ele>71.25</ele></trkpt>
   <trkpt lat="55.933635" lon="13.115802"><ele>70.25</ele></trkpt>
   <trkpt lat="55.932855" lon="13.116237"><ele>70</ele></trkpt>
   <trkpt lat="55.932069" lon="13.116627"><ele>68.75</ele></trkpt>
   <trkpt lat="55.93126" lon="13.116997"><ele>67.5</ele></trkpt>
   <trkpt lat="55.930987" lon="13.117111"><ele>67</ele></trkpt>
   <trkpt lat="55.930726" lon="13.117224"><ele>66.75</ele></trkpt>
   <trkpt lat="55.929933" lon="13.117558"><ele>66</ele></trkpt>
   <trkpt lat="55.928806" lon="13.118034"><ele>66.25</ele></trkpt>
   <trkpt lat="55.928509" lon="13.118146"><ele>66</ele></trkpt>
   <trkpt lat="55.928231" lon="13.11823"><ele>65.75</ele></trkpt>
   <trkpt lat="55.927953" lon="13.118298"><ele>65.5</ele></trkpt>
   <trkpt lat="55.927624" lon="13.118348"><ele>65</ele></trkpt>
   <trkpt lat="55.927341" lon="13.118367"><ele>64.5</ele></trkpt>
   <trkpt lat="55.92709" lon="13.118364"><ele>63.75</ele></trkpt>
   <trkpt lat="55.926858" lon="13.118342"><ele>63.25</ele></trkpt>
   <trkpt lat="55.926477" lon="13.118278"><ele>62.75</ele></trkpt>
   <trkpt lat="55.926159" lon="13.118191"><ele>62.5</ele></trkpt>
   <trkpt lat="55.925907" lon="13.118098"><ele>62.25</ele></trkpt>
   <trkpt lat="55.925547" lon="13.117925"><ele>61.75</ele></trkpt>
   <trkpt lat="55.925079" lon="13.117655"><ele>61</ele></trkpt>
   <trkpt lat="55.924533" lon="13.117311"><ele>60.5</ele></trkpt>
   <trkpt lat="55.92438" lon="13.117204"><ele>60.25</ele></trkpt>
   <trkpt lat="55.922333" lon="13.115864"><ele>57</ele></trkpt>
   <trkpt lat="55.921289" lon="13.115179"><ele>56</ele></trkpt>
   <trkpt lat="55.920998" lon="13.114987"><ele>56</ele></trkpt>
   <trkpt lat="55.920451" lon="13.114632"><ele>56.75</ele></trkpt>
   <trkpt lat="55.918165" lon="13.113147"><ele>56</ele></trkpt>
   <trkpt lat="55.918002" lon="13.113047"><ele>56</ele></trkpt>
   <trkpt lat="55.917461" lon="13.112776"><ele>56</ele></trkpt>
   <trkpt lat="55.916618" lon="13.112231"><ele>57.25</ele></trkpt>
   <trkpt lat="55.915818" lon="13.111702"><ele>60</ele></trkpt>
   <trkpt lat="55.915123" lon="13.111258"><ele>60.5</ele></trkpt>
   <trkpt lat="55.914776" lon="13.111057"><ele>60.75</ele></trkpt>
   <trkpt lat="55.914319" lon="13.110846"><ele>61.5</ele></trkpt>
   <trkpt lat="55.913853" lon="13.110674"><ele>62.5</ele></trkpt>
   <trkpt lat="55.913323" lon="13.11052"><ele>63.5</ele></trkpt>
   <trkpt lat="55.912679" lon="13.110418"><ele>64.25</ele></trkpt>
   <trkpt lat="55.912282" lon="13.110412"><ele>64.75</ele></trkpt>
   <trkpt lat="55.910497" lon="13.110491"><ele>67.5</ele></trkpt>
   <trkpt lat="55.91029" lon="13.110501"><ele>67.25</ele></trkpt>
   <trkpt lat="55.909734" lon="13.1105"><ele>67.75</ele></trkpt>
   <trkpt lat="55.909687" lon="13.110498"><ele>67.75</ele></trkpt>
   <trkpt lat="55.908702" lon="13.110455"><ele>67</ele></trkpt>
   <trkpt lat="55.908169" lon="13.110405"><ele>65.25</ele></trkpt>
   <trkpt lat="55.907728" lon="13.110383"><ele>64.5</ele></trkpt>
   <trkpt lat="55.905853" lon="13.110376"><ele>62.25</ele></trkpt>
   <trkpt lat="55.905364" lon="13.110351"><ele>61.75</ele></trkpt>
   <trkpt lat="55.905064" lon="13.110311"><ele>61.25</ele></trkpt>
   <trkpt lat="55.904888" lon="13.110275"><ele>61.25</ele></trkpt>
   <trkpt lat="55.904613" lon="13.1102"><ele>61</ele></trkpt>
   <trkpt lat="55.90442" lon="13.110133"><ele>61</ele></trkpt>
   <trkpt lat="55.904041" lon="13.109967"><ele>60.75</ele></trkpt>
   <trkpt lat="55.903622" lon="13.109729"><ele>60.5</ele></trkpt>
   <trkpt lat="55.903251" lon="13.10947"><ele>60.25</ele></trkpt>
   <trkpt lat="55.902882" lon="13.109157"><ele>60</ele></trkpt>
   <trkpt lat="55.902515" lon="13.108789"><ele>60</ele></trkpt>
   <trkpt lat="55.902312" lon="13.108566"><ele>59.25</ele></trkpt>
   <trkpt lat="55.901972" lon="13.108149"><ele>58</ele></trkpt>
   <trkpt lat="55.901814" lon="13.107939"><ele>57.75</ele></trkpt>
   <trkpt lat="55.901653" lon="13.107708"><ele>57.5</ele></trkpt>
   <trkpt lat="55.901502" lon="13.107484"><ele>57</ele></trkpt>
   <trkpt lat="55.901141" lon="13.106879"><ele>55.25</ele></trkpt>
   <trkpt lat="55.900968" lon="13.106561"><ele>54.75</ele></trkpt>
   <trkpt lat="55.90072" lon="13.106072"><ele>55</ele></trkpt>
   <trkpt lat="55.899534" lon="13.103633"><ele>53</ele></trkpt>
   <trkpt lat="55.898047" lon="13.100573"><ele>49.25</ele></trkpt>
   <trkpt lat="55.897646" lon="13.099783"><ele>48.25</ele></trkpt>
   <trkpt lat="55.897294" lon="13.099127"><ele>47.5</ele></trkpt>
   <trkpt lat="55.897073" lon="13.098735"><ele>46.75</ele></trkpt>
   <trkpt lat="55.896628" lon="13.097987"><ele>46.25</ele></trkpt>
   <trkpt lat="55.89633" lon="13.097511"><ele>46.5</ele></trkpt>
   <trkpt lat="55.895735" lon="13.096623"><ele>46.75</ele></trkpt>
   <trkpt lat="55.895422" lon="13.096186"><ele>47</ele></trkpt>
   <trkpt lat="55.895083" lon="13.095736"><ele>47.25</ele></trkpt>
   <trkpt lat="55.895021" lon="13.095654"><ele>47.25</ele></trkpt>
   <trkpt lat="55.894738" lon="13.095298"><ele>47.25</ele></trkpt>
   <trkpt lat="55.894068" lon="13.094505"><ele>45.5</ele></trkpt>
   <trkpt lat="55.893627" lon="13.094027"><ele>44.5</ele></trkpt>
   <trkpt lat="55.893228" lon="13.093609"><ele>43.5</ele></trkpt>
   <trkpt lat="55.890847" lon="13.091135"><ele>39.5</ele></trkpt>
   <trkpt lat="55.889034" lon="13.089259"><ele>39.75</ele></trkpt>
   <trkpt lat="55.888608" lon="13.08883"><ele>39.25</ele></trkpt>
   <trkpt lat="55.887785" lon="13.08805"><ele>40</ele></trkpt>
   <trkpt lat="55.886928" lon="13.087304"><ele>39.75</ele></trkpt>
   <trkpt lat="55.88629" lon="13.086789"><ele>39</ele></trkpt>
   <trkpt lat="55.885653" lon="13.086311"><ele>37.75</ele></trkpt>
   <trkpt lat="55.882762" lon="13.084257"><ele>33</ele></trkpt>
   <trkpt lat="55.882434" lon="13.084025"><ele>32.75</ele></trkpt>
   <trkpt lat="55.880348" lon="13.082544"><ele>30.5</ele></trkpt>
   <trkpt lat="55.880226" lon="13.082454"><ele>30.5</ele></trkpt>
   <trkpt lat="55.879492" lon="13.081945"><ele>30.25</ele></trkpt>
   <trkpt lat="55.874778" lon="13.078601"><ele>30</ele></trkpt>
   <trkpt lat="55.874388" lon="13.078327"><ele>29.5</ele></trkpt>
   <trkpt lat="55.874127" lon="13.07815"><ele>29</ele></trkpt>
   <trkpt lat="55.8738" lon="13.077974"><ele>29.25</ele></trkpt>
   <trkpt lat="55.873578" lon="13.077894"><ele>29.5</ele></trkpt>
   <trkpt lat="55.873295" lon="13.077842"><ele>29.25</ele></trkpt>
   <trkpt lat="55.873103" lon="13.077837"><ele>28.75</ele></trkpt>
   <trkpt lat="55.872893" lon="13.077867"><ele>28</ele></trkpt>
   <trkpt lat="55.872709" lon="13.07791"><ele>27.5</ele></trkpt>
   <trkpt lat="55.872528" lon="13.077976"><ele>27</ele></trkpt>
   <trkpt lat="55.872298" lon="13.078097"><ele>27</ele></trkpt>
   <trkpt lat="55.872185" lon="13.078172"><ele>27</ele></trkpt>
   <trkpt lat="55.871951" lon="13.078367"><ele>27</ele></trkpt>
   <trkpt lat="55.871828" lon="13.078485"><ele>27</ele></trkpt>
   <trkpt lat="55.871713" lon="13.078611"><ele>27</ele></trkpt>
   <trkpt lat="55.871597" lon="13.078754"><ele>27</ele></trkpt>
   <trkpt lat="55.871468" lon="13.078934"><ele>27</ele></trkpt>
   <trkpt lat="55.871419" lon="13.079006"><ele>27.25</ele></trkpt>
   <trkpt lat="55.871266" lon="13.079291"><ele>27.25</ele></trkpt>
   <trkpt lat="55.871082" lon="13.07968"><ele>27.25</ele></trkpt>
   <trkpt lat="55.870999" lon="13.079896"><ele>27.25</ele></trkpt>
   <trkpt lat="55.870922" lon="13.080129"><ele>27</ele></trkpt>
   <trkpt lat="55.870847" lon="13.080381"><ele>27</ele></trkpt>
   <trkpt lat="55.870796" lon="13.080579"><ele>27</ele></trkpt>
   <trkpt lat="55.870717" lon="13.080956"><ele>27</ele></trkpt>
   <trkpt lat="55.870685" lon="13.081146"><ele>27</ele></trkpt>
   <trkpt lat="55.870632" lon="13.081527"><ele>27</ele></trkpt>
   <trkpt lat="55.870613" lon="13.081707"><ele>27</ele></trkpt>
   <trkpt lat="55.870592" lon="13.082004"><ele>27</ele></trkpt>
   <trkpt lat="55.870579" lon="13.082359"><ele>27</ele></trkpt>
   <trkpt lat="55.870582" lon="13.082793"><ele>27</ele></trkpt>
   <trkpt lat="55.870667" lon="13.085559"><ele>28.5</ele></trkpt>
   <trkpt lat="55.870671" lon="13.085692"><ele>28.5</ele></trkpt>
   <trkpt lat="55.870673" lon="13.085731"><ele>28.5</ele></trkpt>
   <trkpt lat="55.870673" lon="13.086274"><ele>29</ele></trkpt>
   <trkpt lat="55.870656" lon="13.086575"><ele>29.25</ele></trkpt>
   <trkpt lat="55.87061" lon="13.087349"><ele>29.25</ele></trkpt>
   <trkpt lat="55.870596" lon="13.087817"><ele>29.5</ele></trkpt>
   <trkpt lat="55.87059" lon="13.088249"><ele>29.5</ele></trkpt>
   <trkpt lat="55.870589" lon="13.088718"><ele>29.5</ele></trkpt>
   <trkpt lat="55.8706" lon="13.089267"><ele>29.5</ele></trkpt>
   <trkpt lat="55.870608" lon="13.089497"><ele>29.25</ele></trkpt>
   <trkpt lat="55.870618" lon="13.090187"><ele>28.5</ele></trkpt>
   <trkpt lat="55.870613" lon="13.090615"><ele>28</ele></trkpt>
   <trkpt lat="55.870586" lon="13.0912"><ele>27.5</ele></trkpt>
   <trkpt lat="55.870559" lon="13.091533"><ele>27.25</ele></trkpt>
   <trkpt lat="55.870527" lon="13.091824"><ele>27.25</ele></trkpt>
   <trkpt lat="55.870465" lon="13.092235"><ele>27.25</ele></trkpt>
   <trkpt lat="55.870422" lon="13.09245"><ele>27.25</ele></trkpt>
   <trkpt lat="55.870273" lon="13.093082"><ele>27.75</ele></trkpt>
   <trkpt lat="55.87016" lon="13.093468"><ele>28</ele></trkpt>
   <trkpt lat="55.870075" lon="13.093722"><ele>28</ele></trkpt>
   <trkpt lat="55.869984" lon="13.093966"><ele>28</ele></trkpt>
   <trkpt lat="55.869907" lon="13.094161"><ele>28</ele></trkpt>
   <trkpt lat="55.869825" lon="13.094344"><ele>28.5</ele></trkpt>
   <trkpt lat="55.869652" lon="13.094703"><ele>29.25</ele></trkpt>
   <trkpt lat="55.86954" lon="13.094908"><ele>29.75</ele></trkpt>
   <trkpt lat="55.869423" lon="13.095102"><ele>30.25</ele></trkpt>
   <trkpt lat="55.869281" lon="13.095318"><ele>30.5</ele></trkpt>
   <trkpt lat="55.869135" lon="13.095517"><ele>31</ele></trkpt>
   <trkpt lat="55.869009" lon="13.095682"><ele>31</ele></trkpt>
   <trkpt lat="55.869" lon="13.095691"><ele>31</ele></trkpt>
   <trkpt lat="55.868759" lon="13.095949"><ele>31.25</ele></trkpt>
   <trkpt lat="55.867175" lon="13.097482"><ele>30.5</ele></trkpt>
   <trkpt lat="55.865117" lon="13.099448"><ele>30</ele></trkpt>
   <trkpt lat="55.861844" lon="13.102599"><ele>27.25</ele></trkpt>
   <trkpt lat="55.861455" lon="13.10299"><ele>27.25</ele></trkpt>
   <trkpt lat="55.86107" lon="13.103396"><ele>28.25</ele></trkpt>
   <trkpt lat="55.858289" lon="13.106313"><ele>25.5</ele></trkpt>
   <trkpt lat="55.858111" lon="13.106498"><ele>25.25</ele></trkpt>
   <trkpt lat="55.857306" lon="13.107345"><ele>25</ele></trkpt>
   <trkpt lat="55.854021" lon="13.110791"><ele>26.5</ele></trkpt>
   <trkpt lat="55.853518" lon="13.111312"><ele>26.25</ele></trkpt>
   <trkpt lat="55.853223" lon="13.111597"><ele>26.5</ele></trkpt>
   <trkpt lat="55.853013" lon="13.11178"><ele>26.5</ele></trkpt>
   <trkpt lat="55.852799" lon="13.111948"><ele>26.25</ele></trkpt>
   <trkpt lat="55.852491" lon="13.112155"><ele>25.75</ele></trkpt>
   <trkpt lat="55.852256" lon="13.112292"><ele>25.5</ele></trkpt>
   <trkpt lat="55.851995" lon="13.112414"><ele>25.25</ele></trkpt>
   <trkpt lat="55.851685" lon="13.112527"><ele>25</ele></trkpt>
   <trkpt lat="55.851372" lon="13.112608"><ele>24.75</ele></trkpt>
   <trkpt lat="55.851103" lon="13.11265"><ele>24.5</ele></trkpt>
   <trkpt lat="55.850797" lon="13.112667"><ele>24.25</ele></trkpt>
   <trkpt lat="55.850622" lon="13.112663"><ele>24.25</ele></trkpt>
   <trkpt lat="55.850292" lon="13.112617"><ele>24.5</ele></trkpt>
   <trkpt lat="55.849955" lon="13.112552"><ele>25</ele></trkpt>
   <trkpt lat="55.849177" lon="13.112352"><ele>26.75</ele></trkpt>
   <trkpt lat="55.849079" lon="13.112325"><ele>27</ele></trkpt>
   <trkpt lat="55.845913" lon="13.111468"><ele>30.5</ele></trkpt>
   <trkpt lat="55.840889" lon="13.11011"><ele>28.75</ele></trkpt>
   <trkpt lat="55.840614" lon="13.110037"><ele>29.25</ele></trkpt>
   <trkpt lat="55.84019" lon="13.109932"><ele>29.5</ele></trkpt>
   <trkpt lat="55.840157" lon="13.109923"><ele>29.5</ele></trkpt>
   <trkpt lat="55.839548" lon="13.109782"><ele>30</ele></trkpt>
   <trkpt lat="55.838924" lon="13.109651"><ele>29.25</ele></trkpt>
   <trkpt lat="55.838299" lon="13.109534"><ele>27.25</ele></trkpt>
   <trkpt lat="55.837303" lon="13.109372"><ele>27.25</ele></trkpt>
   <trkpt lat="55.836242" lon="13.109236"><ele>26</ele></trkpt>
   <trkpt lat="55.835711" lon="13.109182"><ele>24.75</ele></trkpt>
   <trkpt lat="55.834646" lon="13.109102"><ele>23.5</ele></trkpt>
   <trkpt lat="55.83227" lon="13.109017"><ele>23.5</ele></trkpt>
   <trkpt lat="55.832128" lon="13.109013"><ele>23.5</ele></trkpt>
   <trkpt lat="55.831246" lon="13.108983"><ele>23.5</ele></trkpt>
   <trkpt lat="55.831171" lon="13.108981"><ele>23.5</ele></trkpt>
   <trkpt lat="55.83116" lon="13.108981"><ele>23.5</ele></trkpt>
   <trkpt lat="55.823975" lon="13.108742"><ele>29</ele></trkpt>
   <trkpt lat="55.822894" lon="13.108717"><ele>29</ele></trkpt>
   <trkpt lat="55.822267" lon="13.108725"><ele>29.25</ele></trkpt>
   <trkpt lat="55.822035" lon="13.108728"><ele>29.5</ele></trkpt>
   <trkpt lat="55.821578" lon="13.108742"><ele>29.5</ele></trkpt>
   <trkpt lat="55.820779" lon="13.108774"><ele>27</ele></trkpt>
   <trkpt lat="55.819906" lon="13.108836"><ele>27</ele></trkpt>
   <trkpt lat="55.816278" lon="13.109166"><ele>25.75</ele></trkpt>
   <trkpt lat="55.813301" lon="13.109438"><ele>23.75</ele></trkpt>
   <trkpt lat="55.811867" lon="13.109567"><ele>21.75</ele></trkpt>
   <trkpt lat="55.809193" lon="13.109811"><ele>18.25</ele></trkpt>
   <trkpt lat="55.808742" lon="13.109865"><ele>18.5</ele></trkpt>
   <trkpt lat="55.808025" lon="13.109982"><ele>18.5</ele></trkpt>
   <trkpt lat="55.807233" lon="13.11014"><ele>17.5</ele></trkpt>
   <trkpt lat="55.806697" lon="13.110232"><ele>17</ele></trkpt>
   <trkpt lat="55.806681" lon="13.110234"><ele>17</ele></trkpt>
   <trkpt lat="55.806153" lon="13.110301"><ele>17.5</ele></trkpt>
   <trkpt lat="55.805615" lon="13.110348"><ele>17.75</ele></trkpt>
   <trkpt lat="55.805075" lon="13.11037"><ele>17.5</ele></trkpt>
   <trkpt lat="55.80451" lon="13.110372"><ele>16.75</ele></trkpt>
   <trkpt lat="55.803901" lon="13.110371"><ele>16</ele></trkpt>
   <trkpt lat="55.803519" lon="13.110395"><ele>15.5</ele></trkpt>
   <trkpt lat="55.803273" lon="13.110415"><ele>15.5</ele></trkpt>
   <trkpt lat="55.802773" lon="13.110462"><ele>15.25</ele></trkpt>
   <trkpt lat="55.802635" lon="13.110474"><ele>15.25</ele></trkpt>
   <trkpt lat="55.800175" lon="13.110696"><ele>15</ele></trkpt>
   <trkpt lat="55.799364" lon="13.11078"><ele>15</ele></trkpt>
   <trkpt lat="55.798731" lon="13.110858"><ele>16</ele></trkpt>
   <trkpt lat="55.797346" lon="13.111039"><ele>16</ele></trkpt>
   <trkpt lat="55.797219" lon="13.111056"><ele>15.5</ele></trkpt>
  </trkseg>
 </trk>
</gpx>