<?xml version="1.0" encoding="UTF-8"?>
<!-- track-length = 41396 filtered ascend = 92 plain-ascend = -27 cost=41396 energy=0.5kwh time=55m 12s -->
<gpx 
 xmlns="http://www.topografix.com/GPX/1/1" 
 xmlns:xsi="http://www.w3.org/2001/XMLSchema-instance" 
 xsi:schemaLocation="http://www.topografix.com/GPX/1/1 http://www.topografix.com/GPX/1/1/gpx.xsd" 
 version="1.1" 
 creator="BRouter-Web 0.18.1">
 <trk>
  <name>Katrineholm - Norrköping</name>
  <trkseg>
   <trkpt lat="58.99696" lon="16.220652"><ele>49.25</ele></trkpt>
   <trkpt lat="58.996856" lon="16.219754"><ele>49.25</ele></trkpt>
   <trkpt lat="58.996816" lon="16.219378"><ele>49</ele></trkpt>
   <trkpt lat="58.996576" lon="16.217312"><ele>48.25</ele></trkpt>
   <trkpt lat="58.996559" lon="16.217168"><ele>48.25</ele></trkpt>
   <trkpt lat="58.996499" lon="16.216588"><ele>48.5</ele></trkpt>
   <trkpt lat="58.996444" lon="16.215977"><ele>49.5</ele></trkpt>
   <trkpt lat="58.996408" lon="16.215554"><ele>50</ele></trkpt>
   <trkpt lat="58.99638" lon="16.21514"><ele>50.5</ele></trkpt>
   <trkpt lat="58.996358" lon="16.214771"><ele>51</ele></trkpt>
   <trkpt lat="58.996342" lon="16.214362"><ele>51.5</ele></trkpt>
   <trkpt lat="58.99632" lon="16.213726"><ele>52.25</ele></trkpt>
   <trkpt lat="58.996318" lon="16.213395"><ele>52.5</ele></trkpt>
   <trkpt lat="58.996322" lon="16.212488"><ele>51.5</ele></trkpt>
   <trkpt lat="58.996339" lon="16.211944"><ele>50.75</ele></trkpt>
   <trkpt lat="58.996371" lon="16.211256"><ele>50.75</ele></trkpt>
   <trkpt lat="58.9964" lon="16.210769"><ele>51.25</ele></trkpt>
   <trkpt lat="58.996443" lon="16.210176"><ele>51.25</ele></trkpt>
   <trkpt lat="58.996495" lon="16.209565"><ele>51.25</ele></trkpt>
   <trkpt lat="58.996617" lon="16.208221"><ele>50.75</ele></trkpt>
   <trkpt lat="58.996751" lon="16.206629"><ele>50</ele></trkpt>
   <trkpt lat="58.996788" lon="16.206186"><ele>50.25</ele></trkpt>
   <trkpt lat="58.996808" lon="16.205944"><ele>50.25</ele></trkpt>
   <trkpt lat="58.996822" lon="16.205575"><ele>50.25</ele></trkpt>
   <trkpt lat="58.996845" lon="16.204587"><ele>50.25</ele></trkpt>
   <trkpt lat="58.996867" lon="16.203611"><ele>50</ele></trkpt>
   <trkpt lat="58.996883" lon="16.203198"><ele>49.75</ele></trkpt>
   <trkpt lat="58.996914" lon="16.202737"><ele>49.25</ele></trkpt>
   <trkpt lat="58.996942" lon="16.202038"><ele>49.25</ele></trkpt>
   <trkpt lat="58.996945" lon="16.201439"><ele>49</ele></trkpt>
   <trkpt lat="58.996936" lon="16.20104"><ele>49</ele></trkpt>
   <trkpt lat="58.996904" lon="16.200355"><ele>48.75</ele></trkpt>
   <trkpt lat="58.996857" lon="16.199817"><ele>48.5</ele></trkpt>
   <trkpt lat="58.996775" lon="16.199168"><ele>47.5</ele></trkpt>
   <trkpt lat="58.99662" lon="16.198312"><ele>47.25</ele></trkpt>
   <trkpt lat="58.996473" lon="16.197673"><ele>47.5</ele></trkpt>
   <trkpt lat="58.996271" lon="16.196969"><ele>47.25</ele></trkpt>
   <trkpt lat="58.996102" lon="16.196467"><ele>47.5</ele></trkpt>
   <trkpt lat="58.995904" lon="16.19596"><ele>47.75</ele></trkpt>
   <trkpt lat="58.995693" lon="16.195498"><ele>48.25</ele></trkpt>
   <trkpt lat="58.995394" lon="16.194939"><ele>48.25</ele></trkpt>
   <trkpt lat="58.995084" lon="16.194424"><ele>48.25</ele></trkpt>
   <trkpt lat="58.99492" lon="16.194169"><ele>48.25</ele></trkpt>
   <trkpt lat="58.9947" lon="16.193863"><ele>49.25</ele></trkpt>
   <trkpt lat="58.994336" lon="16.193436"><ele>51</ele></trkpt>
   <trkpt lat="58.99412" lon="16.19321"><ele>51.75</ele></trkpt>
   <trkpt lat="58.99387" lon="16.192988"><ele>51.75</ele></trkpt>
   <trkpt lat="58.993676" lon="16.192844"><ele>52</ele></trkpt>
   <trkpt lat="58.993385" lon="16.192653"><ele>52</ele></trkpt>
   <trkpt lat="58.993213" lon="16.192572"><ele>52.5</ele></trkpt>
   <trkpt lat="58.992808" lon="16.192406"><ele>53.75</ele></trkpt>
   <trkpt lat="58.992536" lon="16.192305"><ele>54.5</ele></trkpt>
   <trkpt lat="58.991842" lon="16.192078"><ele>54.75</ele></trkpt>
   <trkpt lat="58.991255" lon="16.191883"><ele>54.25</ele></trkpt>
   <trkpt lat="58.990781" lon="16.191728"><ele>53.75</ele></trkpt>
   <trkpt lat="58.989961" lon="16.191544"><ele>52</ele></trkpt>
   <trkpt lat="58.987505" lon="16.190741"><ele>48.75</ele></trkpt>
   <trkpt lat="58.985904" lon="16.190213"><ele>46.25</ele></trkpt>
   <trkpt lat="58.984949" lon="16.189877"><ele>45.75</ele></trkpt>
   <trkpt lat="58.984338" lon="16.189685"><ele>47.75</ele></trkpt>
   <trkpt lat="58.984055" lon="16.189596"><ele>48.25</ele></trkpt>
   <trkpt lat="58.982526" lon="16.189178"><ele>47</ele></trkpt>
   <trkpt lat="58.982189" lon="16.189127"><ele>45.75</ele></trkpt>
   <trkpt lat="58.981497" lon="16.189068"><ele>43</ele></trkpt>
   <trkpt lat="58.981102" lon="16.189046"><ele>40.5</ele></trkpt>
   <trkpt lat="58.976646" lon="16.188866"><ele>34.75</ele></trkpt>
   <trkpt lat="58.975617" lon="16.188797"><ele>33.25</ele></trkpt>
   <trkpt lat="58.975431" lon="16.188769"><ele>33</ele></trkpt>
   <trkpt lat="58.974999" lon="16.188703"><ele>32</ele></trkpt>
   <trkpt lat="58.973676" lon="16.188407"><ele>34.25</ele></trkpt>
   <trkpt lat="58.973485" lon="16.188361"><ele>35.25</ele></trkpt>
   <trkpt lat="58.970967" lon="16.187748"><ele>35</ele></trkpt>
   <trkpt lat="58.970959" lon="16.187746"><ele>35</ele></trkpt>
   <trkpt lat="58.968921" lon="16.187249"><ele>34.75</ele></trkpt>
   <trkpt lat="58.966525" lon="16.186664"><ele>41</ele></trkpt>
   <trkpt lat="58.962752" lon="16.185763"><ele>46.5</ele></trkpt>
   <trkpt lat="58.962097" lon="16.185637"><ele>46</ele></trkpt>
   <trkpt lat="58.961442" lon="16.185577"><ele>46.75</ele></trkpt>
   <trkpt lat="58.96084" lon="16.185552"><ele>48.75</ele></trkpt>
   <trkpt lat="58.96024" lon="16.185588"><ele>49.5</ele></trkpt>
   <trkpt lat="58.959609" lon="16.185683"><ele>50.25</ele></trkpt>
   <trkpt lat="58.957604" lon="16.1861"><ele>52</ele></trkpt>
   <trkpt lat="58.951949" lon="16.18741"><ele>56.75</ele></trkpt>
   <trkpt lat="58.951934" lon="16.187413"><ele>56.75</ele></trkpt>
   <trkpt lat="58.948705" lon="16.18816"><ele>56.5</ele></trkpt>
   <trkpt lat="58.94774" lon="16.188385"><ele>56</ele></trkpt>
   <trkpt lat="58.947061" lon="16.18858"><ele>56.25</ele></trkpt>
   <trkpt lat="58.946387" lon="16.188797"><ele>56.5</ele></trkpt>
   <trkpt lat="58.939857" lon="16.19124"><ele>55</ele></trkpt>
   <trkpt lat="58.938218" lon="16.191839"><ele>50.75</ele></trkpt>
   <trkpt lat="58.937148" lon="16.192263"><ele>48</ele></trkpt>
   <trkpt lat="58.934872" lon="16.193208"><ele>39.75</ele></trkpt>
   <trkpt lat="58.93341" lon="16.193828"><ele>41.75</ele></trkpt>
   <trkpt lat="58.933394" lon="16.193834"><ele>41.75</ele></trkpt>
   <trkpt lat="58.932053" lon="16.194408"><ele>41.75</ele></trkpt>
   <trkpt lat="58.931144" lon="16.194771"><ele>43</ele></trkpt>
   <trkpt lat="58.930286" lon="16.195124"><ele>47.5</ele></trkpt>
   <trkpt lat="58.929659" lon="16.19534"><ele>50.75</ele></trkpt>
   <trkpt lat="58.929008" lon="16.195503"><ele>51.75</ele></trkpt>
   <trkpt lat="58.928317" lon="16.195615"><ele>50.25</ele></trkpt>
   <trkpt lat="58.927791" lon="16.195664"><ele>50.5</ele></trkpt>
   <trkpt lat="58.927263" lon="16.195682"><ele>50.25</ele></trkpt>
   <trkpt lat="58.926178" lon="16.195607"><ele>49.25</ele></trkpt>
   <trkpt lat="58.925601" lon="16.195575"><ele>50</ele></trkpt>
   <trkpt lat="58.925025" lon="16.195547"><ele>51.75</ele></trkpt>
   <trkpt lat="58.924391" lon="16.195537"><ele>50.25</ele></trkpt>
   <trkpt lat="58.923771" lon="16.195601"><ele>48.25</ele></trkpt>
   <trkpt lat="58.923339" lon="16.195661"><ele>47</ele></trkpt>
   <trkpt lat="58.922901" lon="16.195754"><ele>49</ele></trkpt>
   <trkpt lat="58.922191" lon="16.195925"><ele>52.75</ele></trkpt>
   <trkpt lat="58.921435" lon="16.196142"><ele>55.5</ele></trkpt>
   <trkpt lat="58.916701" lon="16.197285"><ele>56</ele></trkpt>
   <trkpt lat="58.916452" lon="16.197337"><ele>56.5</ele></trkpt>
   <trkpt lat="58.915816" lon="16.197444"><ele>57.75</ele></trkpt>
   <trkpt lat="58.915352" lon="16.197499"><ele>57.25</ele></trkpt>
   <trkpt lat="58.913245" lon="16.19761"><ele>57.25</ele></trkpt>
   <trkpt lat="58.911823" lon="16.197691"><ele>58.5</ele></trkpt>
   <trkpt lat="58.911021" lon="16.197647"><ele>59</ele></trkpt>
   <trkpt lat="58.909006" lon="16.197773"><ele>54.5</ele></trkpt>
   <trkpt lat="58.90865" lon="16.197796"><ele>53.75</ele></trkpt>
   <trkpt lat="58.907482" lon="16.197865"><ele>55.25</ele></trkpt>
   <trkpt lat="58.904261" lon="16.198051"><ele>56</ele></trkpt>
   <trkpt lat="58.902132" lon="16.198188"><ele>53.25</ele></trkpt>
   <trkpt lat="58.902082" lon="16.19819"><ele>53</ele></trkpt>
   <trkpt lat="58.901674" lon="16.198218"><ele>52.25</ele></trkpt>
   <trkpt lat="58.901248" lon="16.198239"><ele>52.5</ele></trkpt>
   <trkpt lat="58.900617" lon="16.198341"><ele>54</ele></trkpt>
   <trkpt lat="58.899613" lon="16.198394"><ele>58.5</ele></trkpt>
   <trkpt lat="58.898686" lon="16.198348"><ele>62.25</ele></trkpt>
   <trkpt lat="58.897621" lon="16.198295"><ele>63.75</ele></trkpt>
   <trkpt lat="58.895331" lon="16.198103"><ele>62.25</ele></trkpt>
   <trkpt lat="58.891798" lon="16.197821"><ele>57.25</ele></trkpt>
   <trkpt lat="58.890639" lon="16.197742"><ele>59.75</ele></trkpt>
   <trkpt lat="58.889475" lon="16.197713"><ele>63</ele></trkpt>
   <trkpt lat="58.888222" lon="16.197707"><ele>64.25</ele></trkpt>
   <trkpt lat="58.886965" lon="16.197779"><ele>60.25</ele></trkpt>
   <trkpt lat="58.886354" lon="16.197797"><ele>57.75</ele></trkpt>
   <trkpt lat="58.881503" lon="16.198394"><ele>51</ele></trkpt>
   <trkpt lat="58.881484" lon="16.198397"><ele>51</ele></trkpt>
   <trkpt lat="58.880018" lon="16.198588"><ele>50.5</ele></trkpt>
   <trkpt lat="58.879074" lon="16.198676"><ele>49.5</ele></trkpt>
   <trkpt lat="58.878612" lon="16.198689"><ele>49.75</ele></trkpt>
   <trkpt lat="58.878002" lon="16.19867"><ele>51</ele></trkpt>
   <trkpt lat="58.877399" lon="16.198605"><ele>53.25</ele></trkpt>
   <trkpt lat="58.876741" lon="16.19847"><ele>55.5</ele></trkpt>
   <trkpt lat="58.876197" lon="16.198303"><ele>56.5</ele></trkpt>
   <trkpt lat="58.875113" lon="16.197901"><ele>58</ele></trkpt>
   <trkpt lat="58.874572" lon="16.197659"><ele>58</ele></trkpt>
   <trkpt lat="58.872333" lon="16.196641"><ele>55.25</ele></trkpt>
   <trkpt lat="58.871195" lon="16.196168"><ele>50.75</ele></trkpt>
   <trkpt lat="58.870235" lon="16.195867"><ele>49.75</ele></trkpt>
   <trkpt lat="58.86946" lon="16.195719"><ele>53.75</ele></trkpt>
   <trkpt lat="58.869026" lon="16.195664"><ele>56.25</ele></trkpt>
   <trkpt lat="58.868592" lon="16.195649"><ele>57</ele></trkpt>
   <trkpt lat="58.868243" lon="16.195627"><ele>58</ele></trkpt>
   <trkpt lat="58.865589" lon="16.195591"><ele>62.25</ele></trkpt>
   <trkpt lat="58.865568" lon="16.195592"><ele>62.25</ele></trkpt>
   <trkpt lat="58.865188" lon="16.195584"><ele>61.25</ele></trkpt>
   <trkpt lat="58.864494" lon="16.195543"><ele>58.75</ele></trkpt>
   <trkpt lat="58.864019" lon="16.195472"><ele>57.25</ele></trkpt>
   <trkpt lat="58.86364" lon="16.195401"><ele>57</ele></trkpt>
   <trkpt lat="58.86326" lon="16.195307"><ele>56.5</ele></trkpt>
   <trkpt lat="58.86288" lon="16.195194"><ele>55</ele></trkpt>
   <trkpt lat="58.862504" lon="16.195059"><ele>53.25</ele></trkpt>
   <trkpt lat="58.861926" lon="16.194838"><ele>51.75</ele></trkpt>
   <trkpt lat="58.861383" lon="16.194573"><ele>52.5</ele></trkpt>
   <trkpt lat="58.86055" lon="16.19415"><ele>53.75</ele></trkpt>
   <trkpt lat="58.859708" lon="16.193696"><ele>50.5</ele></trkpt>
   <trkpt lat="58.857632" lon="16.192581"><ele>47.5</ele></trkpt>
   <trkpt lat="58.856293" lon="16.191884"><ele>50.5</ele></trkpt>
   <trkpt lat="58.855657" lon="16.191569"><ele>51.25</ele></trkpt>
   <trkpt lat="58.855046" lon="16.191319"><ele>51.75</ele></trkpt>
   <trkpt lat="58.854311" lon="16.191088"><ele>53.25</ele></trkpt>
   <trkpt lat="58.853534" lon="16.190923"><ele>51.25</ele></trkpt>
   <trkpt lat="58.853063" lon="16.190838"><ele>50.5</ele></trkpt>
   <trkpt lat="58.852102" lon="16.190789"><ele>50.25</ele></trkpt>
   <trkpt lat="58.851329" lon="16.190822"><ele>51.25</ele></trkpt>
   <trkpt lat="58.850904" lon="16.190857"><ele>51.75</ele></trkpt>
   <trkpt lat="58.850442" lon="16.190945"><ele>53</ele></trkpt>
   <trkpt lat="58.850207" lon="16.190986"><ele>53.5</ele></trkpt>
   <trkpt lat="58.849495" lon="16.191174"><ele>54.25</ele></trkpt>
   <trkpt lat="58.84838" lon="16.191488"><ele>52.5</ele></trkpt>
   <trkpt lat="58.848363" lon="16.191492"><ele>52.5</ele></trkpt>
   <trkpt lat="58.843636" lon="16.192872"><ele>70</ele></trkpt>
   <trkpt lat="58.842039" lon="16.193339"><ele>67</ele></trkpt>
   <trkpt lat="58.840998" lon="16.193634"><ele>68</ele></trkpt>
   <trkpt lat="58.837072" lon="16.194794"><ele>74.25</ele></trkpt>
   <trkpt lat="58.835845" lon="16.195025"><ele>76</ele></trkpt>
   <trkpt lat="58.835242" lon="16.195155"><ele>75.5</ele></trkpt>
   <trkpt lat="58.834934" lon="16.195196"><ele>75.75</ele></trkpt>
   <trkpt lat="58.834502" lon="16.195147"><ele>76</ele></trkpt>
   <trkpt lat="58.834046" lon="16.195095"><ele>76.75</ele></trkpt>
   <trkpt lat="58.833718" lon="16.194998"><ele>77.5</ele></trkpt>
   <trkpt lat="58.833156" lon="16.194811"><ele>78.5</ele></trkpt>
   <trkpt lat="58.83292" lon="16.19468"><ele>78</ele></trkpt>
   <trkpt lat="58.8329" lon="16.194668"><ele>78</ele></trkpt>
   <trkpt lat="58.832291" lon="16.194329"><ele>75.75</ele></trkpt>
   <trkpt lat="58.831696" lon="16.193828"><ele>73.25</ele></trkpt>
   <trkpt lat="58.831394" lon="16.193555"><ele>72.75</ele></trkpt>
   <trkpt lat="58.831046" lon="16.193202"><ele>72.75</ele></trkpt>
   <trkpt lat="58.830559" lon="16.192598"><ele>75.25</ele></trkpt>
   <trkpt lat="58.830161" lon="16.192034"><ele>77</ele></trkpt>
   <trkpt lat="58.829795" lon="16.191434"><ele>79.5</ele></trkpt>
   <trkpt lat="58.829454" lon="16.19081"><ele>81.25</ele></trkpt>
   <trkpt lat="58.829209" lon="16.190302"><ele>81</ele></trkpt>
   <trkpt lat="58.828964" lon="16.189739"><ele>81</ele></trkpt>
   <trkpt lat="58.828698" lon="16.189057"><ele>81</ele></trkpt>
   <trkpt lat="58.827944" lon="16.186782"><ele>82.5</ele></trkpt>
   <trkpt lat="58.827413" lon="16.185031"><ele>85</ele></trkpt>
   <trkpt lat="58.826903" lon="16.183276"><ele>86.5</ele></trkpt>
   <trkpt lat="58.825395" lon="16.17839"><ele>83.5</ele></trkpt>
   <trkpt lat="58.824914" lon="16.176931"><ele>81.5</ele></trkpt>
   <trkpt lat="58.824575" lon="16.175957"><ele>80.75</ele></trkpt>
   <trkpt lat="58.824217" lon="16.174992"><ele>78.25</ele></trkpt>
   <trkpt lat="58.823455" lon="16.173086"><ele>78.75</ele></trkpt>
   <trkpt lat="58.823011" lon="16.172045"><ele>81.25</ele></trkpt>
   <trkpt lat="58.822323" lon="16.170429"><ele>80</ele></trkpt>
   <trkpt lat="58.821762" lon="16.169141"><ele>78</ele></trkpt>
   <trkpt lat="58.820548" lon="16.166326"><ele>82.75</ele></trkpt>
   <trkpt lat="58.819475" lon="16.164064"><ele>83</ele></trkpt>
   <trkpt lat="58.818716" lon="16.162659"><ele>83.75</ele></trkpt>
   <trkpt lat="58.817946" lon="16.161269"><ele>86</ele></trkpt>
   <trkpt lat="58.815902" lon="16.157707"><ele>81.75</ele></trkpt>
   <trkpt lat="58.815415" lon="16.156898"><ele>82.75</ele></trkpt>
   <trkpt lat="58.814961" lon="16.156127"><ele>84.25</ele></trkpt>
   <trkpt lat="58.814571" lon="16.155522"><ele>84.75</ele></trkpt>
   <trkpt lat="58.814167" lon="16.154979"><ele>82.75</ele></trkpt>
   <trkpt lat="58.813558" lon="16.154237"><ele>81.75</ele></trkpt>
   <trkpt lat="58.812915" lon="16.153587"><ele>79.5</ele></trkpt>
   <trkpt lat="58.812318" lon="16.153073"><ele>78</ele></trkpt>
   <trkpt lat="58.811696" lon="16.152627"><ele>76.25</ele></trkpt>
   <trkpt lat="58.810193" lon="16.151815"><ele>75.75</ele></trkpt>
   <trkpt lat="58.809474" lon="16.151466"><ele>76.5</ele></trkpt>
   <trkpt lat="58.809462" lon="16.15146"><ele>76.5</ele></trkpt>
   <trkpt lat="58.808925" lon="16.151198"><ele>76.25</ele></trkpt>
   <trkpt lat="58.808108" lon="16.150779"><ele>75.5</ele></trkpt>
   <trkpt lat="58.807285" lon="16.150398"><ele>74.5</ele></trkpt>
   <trkpt lat="58.806847" lon="16.150216"><ele>72.75</ele></trkpt>
   <trkpt lat="58.806332" lon="16.150022"><ele>71.5</ele></trkpt>
   <trkpt lat="58.804681" lon="16.149448"><ele>73</ele></trkpt>
   <trkpt lat="58.802584" lon="16.148947"><ele>75</ele></trkpt>
   <trkpt lat="58.802102" lon="16.148929"><ele>74.5</ele></trkpt>
   <trkpt lat="58.801616" lon="16.148967"><ele>74.25</ele></trkpt>
   <trkpt lat="58.799486" lon="16.149538"><ele>74.25</ele></trkpt>
   <trkpt lat="58.798688" lon="16.14981"><ele>75.25</ele></trkpt>
   <trkpt lat="58.798372" lon="16.149895"><ele>76</ele></trkpt>
   <trkpt lat="58.797816" lon="16.150046"><ele>76</ele></trkpt>
   <trkpt lat="58.796754" lon="16.150305"><ele>76</ele></trkpt>
   <trkpt lat="58.796016" lon="16.15052"><ele>72</ele></trkpt>
   <trkpt lat="58.794381" lon="16.151054"><ele>69</ele></trkpt>
   <trkpt lat="58.794114" lon="16.151179"><ele>69.5</ele></trkpt>
   <trkpt lat="58.793847" lon="16.151335"><ele>70.5</ele></trkpt>
   <trkpt lat="58.793076" lon="16.151861"><ele>72</ele></trkpt>
   <trkpt lat="58.792482" lon="16.152315"><ele>72</ele></trkpt>
   <trkpt lat="58.792067" lon="16.152652"><ele>72.25</ele></trkpt>
   <trkpt lat="58.791143" lon="16.153387"><ele>71.5</ele></trkpt>
   <trkpt lat="58.790817" lon="16.153623"><ele>72</ele></trkpt>
   <trkpt lat="58.790483" lon="16.153846"><ele>73.25</ele></trkpt>
   <trkpt lat="58.789804" lon="16.154255"><ele>74.75</ele></trkpt>
   <trkpt lat="58.789525" lon="16.154419"><ele>74.25</ele></trkpt>
   <trkpt lat="58.789351" lon="16.154488"><ele>74</ele></trkpt>
   <trkpt lat="58.788691" lon="16.154797"><ele>72</ele></trkpt>
   <trkpt lat="58.787891" lon="16.155104"><ele>69.75</ele></trkpt>
   <trkpt lat="58.787313" lon="16.155337"><ele>69</ele></trkpt>
   <trkpt lat="58.786794" lon="16.155543"><ele>69.75</ele></trkpt>
   <trkpt lat="58.78602" lon="16.155863"><ele>72.25</ele></trkpt>
   <trkpt lat="58.785465" lon="16.15612"><ele>72.5</ele></trkpt>
   <trkpt lat="58.785142" lon="16.15629"><ele>72</ele></trkpt>
   <trkpt lat="58.784581" lon="16.156597"><ele>71</ele></trkpt>
   <trkpt lat="58.784018" lon="16.156944"><ele>72</ele></trkpt>
   <trkpt lat="58.783041" lon="16.157614"><ele>72.25</ele></trkpt>
   <trkpt lat="58.782427" lon="16.158051"><ele>71.5</ele></trkpt>
   <trkpt lat="58.781249" lon="16.159096"><ele>71.75</ele></trkpt>
   <trkpt lat="58.781138" lon="16.159196"><ele>71.5</ele></trkpt>
   <trkpt lat="58.780228" lon="16.160011"><ele>70.25</ele></trkpt>
   <trkpt lat="58.778986" lon="16.161101"><ele>72.75</ele></trkpt>
   <trkpt lat="58.778623" lon="16.161382"><ele>72.75</ele></trkpt>
   <trkpt lat="58.777923" lon="16.161878"><ele>71.75</ele></trkpt>
   <trkpt lat="58.777504" lon="16.162118"><ele>70.5</ele></trkpt>
   <trkpt lat="58.777083" lon="16.162313"><ele>70.5</ele></trkpt>
   <trkpt lat="58.776657" lon="16.162474"><ele>70.75</ele></trkpt>
   <trkpt lat="58.77622" lon="16.162589"><ele>70.25</ele></trkpt>
   <trkpt lat="58.775781" lon="16.162674"><ele>69.75</ele></trkpt>
   <trkpt lat="58.775401" lon="16.162707"><ele>69.25</ele></trkpt>
   <trkpt lat="58.77501" lon="16.162726"><ele>68.75</ele></trkpt>
   <trkpt lat="58.774468" lon="16.162717"><ele>70.25</ele></trkpt>
   <trkpt lat="58.773923" lon="16.162682"><ele>70.25</ele></trkpt>
   <trkpt lat="58.772536" lon="16.162567"><ele>67</ele></trkpt>
   <trkpt lat="58.770721" lon="16.162417"><ele>71.5</ele></trkpt>
   <trkpt lat="58.769483" lon="16.162398"><ele>76</ele></trkpt>
   <trkpt lat="58.76914" lon="16.162436"><ele>76</ele></trkpt>
   <trkpt lat="58.768797" lon="16.162498"><ele>76.75</ele></trkpt>
   <trkpt lat="58.76767" lon="16.162808"><ele>76.25</ele></trkpt>
   <trkpt lat="58.763655" lon="16.164046"><ele>76.25</ele></trkpt>
   <trkpt lat="58.759499" lon="16.165342"><ele>75.25</ele></trkpt>
   <trkpt lat="58.758021" lon="16.16573"><ele>75.25</ele></trkpt>
   <trkpt lat="58.757272" lon="16.1658"><ele>72.75</ele></trkpt>
   <trkpt lat="58.756942" lon="16.165753"><ele>72.25</ele></trkpt>
   <trkpt lat="58.756911" lon="16.165751"><ele>72.25</ele></trkpt>
   <trkpt lat="58.754805" lon="16.165529"><ele>75.75</ele></trkpt>
   <trkpt lat="58.754068" lon="16.165465"><ele>79.5</ele></trkpt>
   <trkpt lat="58.753864" lon="16.165473"><ele>79.5</ele></trkpt>
   <trkpt lat="58.753388" lon="16.165517"><ele>79.5</ele></trkpt>
   <trkpt lat="58.753012" lon="16.165589"><ele>78.5</ele></trkpt>
   <trkpt lat="58.752361" lon="16.165796"><ele>77.25</ele></trkpt>
   <trkpt lat="58.751911" lon="16.166014"><ele>78</ele></trkpt>
   <trkpt lat="58.751438" lon="16.166264"><ele>77.75</ele></trkpt>
   <trkpt lat="58.749756" lon="16.167116"><ele>73.5</ele></trkpt>
   <trkpt lat="58.749302" lon="16.167341"><ele>71.75</ele></trkpt>
   <trkpt lat="58.748705" lon="16.167532"><ele>70.5</ele></trkpt>
   <trkpt lat="58.748007" lon="16.167652"><ele>69.5</ele></trkpt>
   <trkpt lat="58.747433" lon="16.167677"><ele>69.5</ele></trkpt>
   <trkpt lat="58.746906" lon="16.167621"><ele>70.25</ele></trkpt>
   <trkpt lat="58.746357" lon="16.167516"><ele>70.25</ele></trkpt>
   <trkpt lat="58.745968" lon="16.167384"><ele>70</ele></trkpt>
   <trkpt lat="58.745546" lon="16.167221"><ele>70.5</ele></trkpt>
   <trkpt lat="58.745124" lon="16.16702"><ele>71</ele></trkpt>
   <trkpt lat="58.744549" lon="16.166654"><ele>72</ele></trkpt>
   <trkpt lat="58.743578" lon="16.165877"><ele>74.25</ele></trkpt>
   <trkpt lat="58.742489" lon="16.164961"><ele>72.75</ele></trkpt>
   <trkpt lat="58.741579" lon="16.164167"><ele>75.5</ele></trkpt>
   <trkpt lat="58.740986" lon="16.163605"><ele>75.5</ele></trkpt>
   <trkpt lat="58.740164" lon="16.162838"><ele>75</ele></trkpt>
   <trkpt lat="58.739758" lon="16.162385"><ele>72.25</ele></trkpt>
   <trkpt lat="58.739451" lon="16.161989"><ele>70</ele></trkpt>
   <trkpt lat="58.738733" lon="16.16097"><ele>67.25</ele></trkpt>
   <trkpt lat="58.738385" lon="16.160479"><ele>66.5</ele></trkpt>
   <trkpt lat="58.738049" lon="16.159983"><ele>68</ele></trkpt>
   <trkpt lat="58.735669" lon="16.15642"><ele>71</ele></trkpt>
   <trkpt lat="58.734975" lon="16.155436"><ele>74.5</ele></trkpt>
   <trkpt lat="58.734731" lon="16.155098"><ele>75.5</ele></trkpt>
   <trkpt lat="58.734523" lon="16.15484"><ele>76.25</ele></trkpt>
   <trkpt lat="58.734061" lon="16.15431"><ele>77.5</ele></trkpt>
   <trkpt lat="58.733612" lon="16.15382"><ele>77.75</ele></trkpt>
   <trkpt lat="58.733075" lon="16.153338"><ele>77.75</ele></trkpt>
   <trkpt lat="58.732681" lon="16.153024"><ele>80.75</ele></trkpt>
   <trkpt lat="58.732286" lon="16.152729"><ele>83</ele></trkpt>
   <trkpt lat="58.731868" lon="16.152468"><ele>84.25</ele></trkpt>
   <trkpt lat="58.731308" lon="16.15217"><ele>82.75</ele></trkpt>
   <trkpt lat="58.730815" lon="16.151959"><ele>80.25</ele></trkpt>
   <trkpt lat="58.730286" lon="16.151788"><ele>78.25</ele></trkpt>
   <trkpt lat="58.729939" lon="16.151697"><ele>77</ele></trkpt>
   <trkpt lat="58.729574" lon="16.151634"><ele>77</ele></trkpt>
   <trkpt lat="58.72833" lon="16.151469"><ele>80</ele></trkpt>
   <trkpt lat="58.727223" lon="16.151275"><ele>77.75</ele></trkpt>
   <trkpt lat="58.725099" lon="16.150523"><ele>68.75</ele></trkpt>
   <trkpt lat="58.725048" lon="16.150505"><ele>68.5</ele></trkpt>
   <trkpt lat="58.72185" lon="16.14935"><ele>74.5</ele></trkpt>
   <trkpt lat="58.721484" lon="16.14924"><ele>73</ele></trkpt>
   <trkpt lat="58.721153" lon="16.149132"><ele>71.5</ele></trkpt>
   <trkpt lat="58.720731" lon="16.149012"><ele>69</ele></trkpt>
   <trkpt lat="58.720046" lon="16.14885"><ele>66</ele></trkpt>
   <trkpt lat="58.719566" lon="16.148826"><ele>64.75</ele></trkpt>
   <trkpt lat="58.719156" lon="16.148848"><ele>63.75</ele></trkpt>
   <trkpt lat="58.718419" lon="16.148973"><ele>62</ele></trkpt>
   <trkpt lat="58.71646" lon="16.149339"><ele>74.75</ele></trkpt>
   <trkpt lat="58.716069" lon="16.149369"><ele>74.75</ele></trkpt>
   <trkpt lat="58.715741" lon="16.149376"><ele>74.5</ele></trkpt>
   <trkpt lat="58.715356" lon="16.149342"><ele>73.75</ele></trkpt>
   <trkpt lat="58.715029" lon="16.149292"><ele>73.25</ele></trkpt>
   <trkpt lat="58.712553" lon="16.14873"><ele>71.5</ele></trkpt>
   <trkpt lat="58.712427" lon="16.148709"><ele>71.5</ele></trkpt>
   <trkpt lat="58.711852" lon="16.148684"><ele>69.75</ele></trkpt>
   <trkpt lat="58.711393" lon="16.148722"><ele>69.75</ele></trkpt>
   <trkpt lat="58.711011" lon="16.148806"><ele>70.75</ele></trkpt>
   <trkpt lat="58.709793" lon="16.149158"><ele>73.25</ele></trkpt>
   <trkpt lat="58.708304" lon="16.149637"><ele>73</ele></trkpt>
   <trkpt lat="58.707935" lon="16.149731"><ele>74.25</ele></trkpt>
   <trkpt lat="58.707296" lon="16.149851"><ele>75</ele></trkpt>
   <trkpt lat="58.706637" lon="16.149949"><ele>74.75</ele></trkpt>
   <trkpt lat="58.705508" lon="16.150157"><ele>72.75</ele></trkpt>
   <trkpt lat="58.704428" lon="16.150409"><ele>73</ele></trkpt>
   <trkpt lat="58.703693" lon="16.150555"><ele>73.5</ele></trkpt>
   <trkpt lat="58.703045" lon="16.150688"><ele>74.75</ele></trkpt>
   <trkpt lat="58.702527" lon="16.150725"><ele>76.75</ele></trkpt>
   <trkpt lat="58.700269" lon="16.15057"><ele>66.75</ele></trkpt>
   <trkpt lat="58.699897" lon="16.150554"><ele>65.75</ele></trkpt>
   <trkpt lat="58.699501" lon="16.150579"><ele>66.25</ele></trkpt>
   <trkpt lat="58.69943" lon="16.150589"><ele>66.25</ele></trkpt>
   <trkpt lat="58.699218" lon="16.150616"><ele>66.5</ele></trkpt>
   <trkpt lat="58.697927" lon="16.150934"><ele>71.75</ele></trkpt>
   <trkpt lat="58.697202" lon="16.151119"><ele>73.25</ele></trkpt>
   <trkpt lat="58.696529" lon="16.151266"><ele>72.5</ele></trkpt>
   <trkpt lat="58.696205" lon="16.151295"><ele>72</ele></trkpt>
   <trkpt lat="58.694726" lon="16.151377"><ele>66.5</ele></trkpt>
   <trkpt lat="58.693909" lon="16.151423"><ele>63.25</ele></trkpt>
   <trkpt lat="58.690607" lon="16.151918"><ele>62</ele></trkpt>
   <trkpt lat="58.690591" lon="16.151921"><ele>62</ele></trkpt>
   <trkpt lat="58.689684" lon="16.152058"><ele>60.75</ele></trkpt>
   <trkpt lat="58.688514" lon="16.152236"><ele>61.25</ele></trkpt>
   <trkpt lat="58.687857" lon="16.15228"><ele>64</ele></trkpt>
   <trkpt lat="58.68749" lon="16.152286"><ele>66</ele></trkpt>
   <trkpt lat="58.687052" lon="16.152293"><ele>66.25</ele></trkpt>
   <trkpt lat="58.686046" lon="16.152285"><ele>67.25</ele></trkpt>
   <trkpt lat="58.684335" lon="16.152254"><ele>69</ele></trkpt>
   <trkpt lat="58.683761" lon="16.152264"><ele>69</ele></trkpt>
   <trkpt lat="58.681956" lon="16.152385"><ele>68</ele></trkpt>
   <trkpt lat="58.681888" lon="16.15239"><ele>67.25</ele></trkpt>
   <trkpt lat="58.681628" lon="16.152484"><ele>65.25</ele></trkpt>
   <trkpt lat="58.68112" lon="16.152642"><ele>61.25</ele></trkpt>
   <trkpt lat="58.68078" lon="16.152795"><ele>59</ele></trkpt>
   <trkpt lat="58.680546" lon="16.15292"><ele>57.25</ele></trkpt>
   <trkpt lat="58.680203" lon="16.153123"><ele>54.75</ele></trkpt>
   <trkpt lat="58.67979" lon="16.153401"><ele>51.5</ele></trkpt>
   <trkpt lat="58.679596" lon="16.153546"><ele>50</ele></trkpt>
   <trkpt lat="58.679213" lon="16.153863"><ele>46.25</ele></trkpt>
   <trkpt lat="58.678925" lon="16.154132"><ele>45</ele></trkpt>
   <trkpt lat="58.677626" lon="16.155584"><ele>40.5</ele></trkpt>
   <trkpt lat="58.677155" lon="16.156109"><ele>40.25</ele></trkpt>
   <trkpt lat="58.676797" lon="16.15655"><ele>41.25</ele></trkpt>
   <trkpt lat="58.674813" lon="16.15896"><ele>60.25</ele></trkpt>
   <trkpt lat="58.674806" lon="16.158969"><ele>60.5</ele></trkpt>
   <trkpt lat="58.674768" lon="16.159015"><ele>61.25</ele></trkpt>
   <trkpt lat="58.67083" lon="16.163806"><ele>47.5</ele></trkpt>
   <trkpt lat="58.670039" lon="16.164768"><ele>35.5</ele></trkpt>
   <trkpt lat="58.6692" lon="16.165824"><ele>31.25</ele></trkpt>
   <trkpt lat="58.668734" lon="16.166334"><ele>32.25</ele></trkpt>
   <trkpt lat="58.66816" lon="16.166916"><ele>33.25</ele></trkpt>
   <trkpt lat="58.665936" lon="16.168855"><ele>28.5</ele></trkpt>
   <trkpt lat="58.66575" lon="16.169029"><ele>28.25</ele></trkpt>
   <trkpt lat="58.665531" lon="16.169252"><ele>28</ele></trkpt>
   <trkpt lat="58.665324" lon="16.169483"><ele>27.75</ele></trkpt>
   <trkpt lat="58.665065" lon="16.169799"><ele>27.25</ele></trkpt>
   <trkpt lat="58.664874" lon="16.170057"><ele>27.5</ele></trkpt>
   <trkpt lat="58.664679" lon="16.170381"><ele>28.25</ele></trkpt>
   <trkpt lat="58.664435" lon="16.170816"><ele>29.25</ele></trkpt>
   <trkpt lat="58.66424" lon="16.171191"><ele>30.5</ele></trkpt>
   <trkpt lat="58.664057" lon="16.171607"><ele>31.75</ele></trkpt>
   <trkpt lat="58.663888" lon="16.172025"><ele>31.5</ele></trkpt>
   <trkpt lat="58.663762" lon="16.172369"><ele>31.25</ele></trkpt>
   <trkpt lat="58.663605" lon="16.17287"><ele>31.25</ele></trkpt>
   <trkpt lat="58.663517" lon="16.173187"><ele>31.25</ele></trkpt>
   <trkpt lat="58.663421" lon="16.173603"><ele>31</ele></trkpt>
   <trkpt lat="58.663143" lon="16.174853"><ele>31.5</ele></trkpt>
   <trkpt lat="58.663082" lon="16.175142"><ele>31.75</ele></trkpt>
   <trkpt lat="58.662988" lon="16.175511"><ele>32.25</ele></trkpt>
   <trkpt lat="58.662849" lon="16.176089"><ele>32.5</ele></trkpt>
   <trkpt lat="58.66272" lon="16.176558"><ele>32</ele></trkpt>
   <trkpt lat="58.662514" lon="16.177159"><ele>31</ele></trkpt>
   <trkpt lat="58.662303" lon="16.17766"><ele>30.25</ele></trkpt>
   <trkpt lat="58.662044" lon="16.178192"><ele>28.5</ele></trkpt>
   <trkpt lat="58.661771" lon="16.178613"><ele>27</ele></trkpt>
   <trkpt lat="58.661618" lon="16.178827"><ele>26.25</ele></trkpt>
   <trkpt lat="58.661451" lon="16.179034"><ele>25.75</ele></trkpt>
   <trkpt lat="58.661127" lon="16.179374"><ele>24.75</ele></trkpt>
   <trkpt lat="58.660788" lon="16.179624"><ele>23.75</ele></trkpt>
   <trkpt lat="58.660551" lon="16.179769"><ele>23.75</ele></trkpt>
   <trkpt lat="58.660228" lon="16.179932"><ele>23.75</ele></trkpt>
   <trkpt lat="58.65954" lon="16.180219"><ele>23.25</ele></trkpt>
   <trkpt lat="58.659273" lon="16.180326"><ele>23</ele></trkpt>
   <trkpt lat="58.659114" lon="16.180391"><ele>22.75</ele></trkpt>
   <trkpt lat="58.658801" lon="16.180482"><ele>22.5</ele></trkpt>
   <trkpt lat="58.658425" lon="16.1806"><ele>22</ele></trkpt>
   <trkpt lat="58.658189" lon="16.180694"><ele>21.5</ele></trkpt>
  </trkseg>
 </trk>
</gpx>