<?xml version="1.0" encoding="UTF-8"?>
<!-- track-length = 41754 filtered ascend = 47 plain-ascend = 22 cost=41754 energy=.5kwh time=55m 40s -->
<gpx 
 xmlns="http://www.topografix.com/GPX/1/1" 
 xmlns:xsi="http://www.w3.org/2001/XMLSchema-instance" 
 xsi:schemaLocation="http://www.topografix.com/GPX/1/1 http://www.topografix.com/GPX/1/1/gpx.xsd" 
 creator="BRouter-1.7.0" version="1.1">
 <trk>
  <name>kolinpardubice</name>
  <trkseg>
   <trkpt lon="15.214836" lat="50.025315"><ele>198.5</ele></trkpt>
   <trkpt lon="15.216658" lat="50.024512"><ele>198.5</ele></trkpt>
   <trkpt lon="15.217114" lat="50.024313"><ele>198.25</ele></trkpt>
   <trkpt lon="15.217873" lat="50.024042"><ele>197.75</ele></trkpt>
   <trkpt lon="15.218149" lat="50.023922"><ele>197.75</ele></trkpt>
   <trkpt lon="15.218385" lat="50.023817"><ele>197.75</ele></trkpt>
   <trkpt lon="15.218730" lat="50.023666"><ele>198.0</ele></trkpt>
   <trkpt lon="15.218953" lat="50.023572"><ele>198.25</ele></trkpt>
   <trkpt lon="15.219700" lat="50.023235"><ele>198.5</ele></trkpt>
   <trkpt lon="15.220532" lat="50.022842"><ele>199.0</ele></trkpt>
   <trkpt lon="15.220850" lat="50.022674"><ele>199.75</ele></trkpt>
   <trkpt lon="15.221165" lat="50.022491"><ele>200.25</ele></trkpt>
   <trkpt lon="15.221466" lat="50.022299"><ele>200.25</ele></trkpt>
   <trkpt lon="15.221747" lat="50.022103"><ele>200.0</ele></trkpt>
   <trkpt lon="15.222002" lat="50.021910"><ele>199.25</ele></trkpt>
   <trkpt lon="15.227320" lat="50.017812"><ele>198.25</ele></trkpt>
   <trkpt lon="15.227644" lat="50.017564"><ele>198.0</ele></trkpt>
   <trkpt lon="15.228134" lat="50.017253"><ele>198.5</ele></trkpt>
   <trkpt lon="15.228428" lat="50.017027"><ele>198.25</ele></trkpt>
   <trkpt lon="15.228962" lat="50.016614"><ele>198.0</ele></trkpt>
   <trkpt lon="15.229231" lat="50.016405"><ele>197.75</ele></trkpt>
   <trkpt lon="15.230169" lat="50.015692"><ele>197.25</ele></trkpt>
   <trkpt lon="15.230438" lat="50.015505"><ele>197.75</ele></trkpt>
   <trkpt lon="15.230721" lat="50.015334"><ele>198.25</ele></trkpt>
   <trkpt lon="15.231007" lat="50.015173"><ele>198.25</ele></trkpt>
   <trkpt lon="15.231311" lat="50.015019"><ele>198.25</ele></trkpt>
   <trkpt lon="15.231737" lat="50.014823"><ele>198.25</ele></trkpt>
   <trkpt lon="15.240215" lat="50.011052"><ele>199.5</ele></trkpt>
   <trkpt lon="15.240505" lat="50.010915"><ele>200.0</ele></trkpt>
   <trkpt lon="15.240851" lat="50.010740"><ele>200.0</ele></trkpt>
   <trkpt lon="15.243138" lat="50.009524"><ele>198.75</ele></trkpt>
   <trkpt lon="15.243455" lat="50.009389"><ele>198.5</ele></trkpt>
   <trkpt lon="15.243794" lat="50.009270"><ele>198.75</ele></trkpt>
   <trkpt lon="15.244137" lat="50.009172"><ele>198.75</ele></trkpt>
   <trkpt lon="15.244506" lat="50.009093"><ele>198.75</ele></trkpt>
   <trkpt lon="15.244897" lat="50.009037"><ele>198.25</ele></trkpt>
   <trkpt lon="15.245227" lat="50.009009"><ele>198.25</ele></trkpt>
   <trkpt lon="15.246046" lat="50.008978"><ele>197.75</ele></trkpt>
   <trkpt lon="15.246928" lat="50.008965"><ele>197.25</ele></trkpt>
   <trkpt lon="15.247716" lat="50.008994"><ele>197.5</ele></trkpt>
   <trkpt lon="15.249774" lat="50.009088"><ele>200.0</ele></trkpt>
   <trkpt lon="15.249972" lat="50.009097"><ele>200.0</ele></trkpt>
   <trkpt lon="15.260336" lat="50.009549"><ele>198.0</ele></trkpt>
   <trkpt lon="15.265765" lat="50.009780"><ele>196.5</ele></trkpt>
   <trkpt lon="15.276915" lat="50.010261"><ele>196.25</ele></trkpt>
   <trkpt lon="15.278829" lat="50.010348"><ele>196.5</ele></trkpt>
   <trkpt lon="15.279989" lat="50.010396"><ele>196.25</ele></trkpt>
   <trkpt lon="15.280595" lat="50.010420"><ele>197.0</ele></trkpt>
   <trkpt lon="15.287379" lat="50.010715"><ele>195.75</ele></trkpt>
   <trkpt lon="15.295931" lat="50.011077"><ele>199.0</ele></trkpt>
   <trkpt lon="15.300734" lat="50.011281"><ele>198.0</ele></trkpt>
   <trkpt lon="15.303265" lat="50.011392"><ele>197.5</ele></trkpt>
   <trkpt lon="15.304108" lat="50.011437"><ele>197.5</ele></trkpt>
   <trkpt lon="15.304938" lat="50.011495"><ele>197.75</ele></trkpt>
   <trkpt lon="15.305607" lat="50.011558"><ele>198.0</ele></trkpt>
   <trkpt lon="15.306060" lat="50.011607"><ele>198.25</ele></trkpt>
   <trkpt lon="15.307239" lat="50.011771"><ele>198.75</ele></trkpt>
   <trkpt lon="15.308046" lat="50.011909"><ele>198.5</ele></trkpt>
   <trkpt lon="15.308849" lat="50.012072"><ele>198.5</ele></trkpt>
   <trkpt lon="15.309636" lat="50.012255"><ele>198.75</ele></trkpt>
   <trkpt lon="15.310417" lat="50.012456"><ele>199.0</ele></trkpt>
   <trkpt lon="15.311176" lat="50.012676"><ele>198.5</ele></trkpt>
   <trkpt lon="15.311772" lat="50.012866"><ele>198.25</ele></trkpt>
   <trkpt lon="15.312487" lat="50.013118"><ele>198.5</ele></trkpt>
   <trkpt lon="15.313198" lat="50.013391"><ele>198.0</ele></trkpt>
   <trkpt lon="15.313904" lat="50.013681"><ele>198.25</ele></trkpt>
   <trkpt lon="15.318996" lat="50.015836"><ele>201.75</ele></trkpt>
   <trkpt lon="15.319228" lat="50.015935"><ele>201.75</ele></trkpt>
   <trkpt lon="15.325717" lat="50.018685"><ele>204.75</ele></trkpt>
   <trkpt lon="15.330949" lat="50.020912"><ele>205.75</ele></trkpt>
   <trkpt lon="15.334367" lat="50.022350"><ele>205.0</ele></trkpt>
   <trkpt lon="15.336492" lat="50.023228"><ele>204.75</ele></trkpt>
   <trkpt lon="15.337046" lat="50.023463"><ele>204.75</ele></trkpt>
   <trkpt lon="15.337739" lat="50.023778"><ele>204.5</ele></trkpt>
   <trkpt lon="15.338357" lat="50.024090"><ele>203.5</ele></trkpt>
   <trkpt lon="15.338971" lat="50.024427"><ele>202.75</ele></trkpt>
   <trkpt lon="15.339593" lat="50.024789"><ele>201.5</ele></trkpt>
   <trkpt lon="15.340172" lat="50.025153"><ele>201.5</ele></trkpt>
   <trkpt lon="15.341314" lat="50.025888"><ele>201.75</ele></trkpt>
   <trkpt lon="15.341768" lat="50.026187"><ele>200.5</ele></trkpt>
   <trkpt lon="15.342505" lat="50.026681"><ele>201.5</ele></trkpt>
   <trkpt lon="15.342584" lat="50.026734"><ele>201.5</ele></trkpt>
   <trkpt lon="15.343027" lat="50.027030"><ele>202.25</ele></trkpt>
   <trkpt lon="15.345312" lat="50.028570"><ele>202.25</ele></trkpt>
   <trkpt lon="15.346947" lat="50.029653"><ele>203.5</ele></trkpt>
   <trkpt lon="15.349122" lat="50.031119"><ele>204.75</ele></trkpt>
   <trkpt lon="15.350988" lat="50.032376"><ele>207.25</ele></trkpt>
   <trkpt lon="15.351617" lat="50.032797"><ele>209.0</ele></trkpt>
   <trkpt lon="15.352213" lat="50.033138"><ele>210.0</ele></trkpt>
   <trkpt lon="15.352704" lat="50.033468"><ele>209.75</ele></trkpt>
   <trkpt lon="15.353819" lat="50.034197"><ele>211.0</ele></trkpt>
   <trkpt lon="15.355545" lat="50.035282"><ele>211.0</ele></trkpt>
   <trkpt lon="15.356989" lat="50.036141"><ele>209.75</ele></trkpt>
   <trkpt lon="15.358708" lat="50.037134"><ele>210.5</ele></trkpt>
   <trkpt lon="15.359683" lat="50.037706"><ele>211.25</ele></trkpt>
   <trkpt lon="15.362386" lat="50.039269"><ele>208.25</ele></trkpt>
   <trkpt lon="15.362963" lat="50.039598"><ele>209.25</ele></trkpt>
   <trkpt lon="15.363574" lat="50.039934"><ele>209.25</ele></trkpt>
   <trkpt lon="15.364183" lat="50.040241"><ele>210.25</ele></trkpt>
   <trkpt lon="15.364865" lat="50.040559"><ele>211.75</ele></trkpt>
   <trkpt lon="15.365501" lat="50.040836"><ele>213.25</ele></trkpt>
   <trkpt lon="15.366155" lat="50.041084"><ele>214.75</ele></trkpt>
   <trkpt lon="15.366766" lat="50.041302"><ele>215.75</ele></trkpt>
   <trkpt lon="15.367432" lat="50.041516"><ele>216.25</ele></trkpt>
   <trkpt lon="15.368100" lat="50.041713"><ele>216.5</ele></trkpt>
   <trkpt lon="15.370288" lat="50.042294"><ele>212.0</ele></trkpt>
   <trkpt lon="15.374705" lat="50.043450"><ele>210.75</ele></trkpt>
   <trkpt lon="15.376164" lat="50.043835"><ele>218.75</ele></trkpt>
   <trkpt lon="15.376873" lat="50.044016"><ele>223.0</ele></trkpt>
   <trkpt lon="15.377621" lat="50.044196"><ele>224.25</ele></trkpt>
   <trkpt lon="15.378380" lat="50.044355"><ele>226.5</ele></trkpt>
   <trkpt lon="15.379173" lat="50.044499"><ele>225.75</ele></trkpt>
   <trkpt lon="15.379965" lat="50.044613"><ele>223.5</ele></trkpt>
   <trkpt lon="15.380767" lat="50.044705"><ele>219.5</ele></trkpt>
   <trkpt lon="15.381562" lat="50.044771"><ele>215.75</ele></trkpt>
   <trkpt lon="15.381905" lat="50.044791"><ele>214.25</ele></trkpt>
   <trkpt lon="15.382669" lat="50.044820"><ele>211.5</ele></trkpt>
   <trkpt lon="15.383061" lat="50.044827"><ele>210.0</ele></trkpt>
   <trkpt lon="15.383853" lat="50.044819"><ele>208.25</ele></trkpt>
   <trkpt lon="15.384652" lat="50.044789"><ele>206.25</ele></trkpt>
   <trkpt lon="15.385356" lat="50.044744"><ele>205.25</ele></trkpt>
   <trkpt lon="15.385890" lat="50.044694"><ele>205.25</ele></trkpt>
   <trkpt lon="15.386026" lat="50.044680"><ele>205.25</ele></trkpt>
   <trkpt lon="15.386714" lat="50.044596"><ele>204.75</ele></trkpt>
   <trkpt lon="15.387342" lat="50.044503"><ele>204.5</ele></trkpt>
   <trkpt lon="15.388036" lat="50.044381"><ele>203.75</ele></trkpt>
   <trkpt lon="15.388875" lat="50.044205"><ele>203.25</ele></trkpt>
   <trkpt lon="15.389322" lat="50.044098"><ele>202.75</ele></trkpt>
   <trkpt lon="15.389923" lat="50.043941"><ele>202.5</ele></trkpt>
   <trkpt lon="15.390677" lat="50.043714"><ele>202.5</ele></trkpt>
   <trkpt lon="15.391394" lat="50.043475"><ele>202.0</ele></trkpt>
   <trkpt lon="15.391854" lat="50.043305"><ele>202.0</ele></trkpt>
   <trkpt lon="15.392140" lat="50.043192"><ele>202.0</ele></trkpt>
   <trkpt lon="15.392774" lat="50.042922"><ele>202.75</ele></trkpt>
   <trkpt lon="15.393127" lat="50.042762"><ele>203.25</ele></trkpt>
   <trkpt lon="15.393755" lat="50.042462"><ele>203.5</ele></trkpt>
   <trkpt lon="15.395417" lat="50.041618"><ele>203.5</ele></trkpt>
   <trkpt lon="15.395897" lat="50.041382"><ele>203.25</ele></trkpt>
   <trkpt lon="15.396228" lat="50.041226"><ele>203.5</ele></trkpt>
   <trkpt lon="15.396895" lat="50.040928"><ele>204.5</ele></trkpt>
   <trkpt lon="15.397521" lat="50.040667"><ele>205.0</ele></trkpt>
   <trkpt lon="15.397946" lat="50.040499"><ele>205.25</ele></trkpt>
   <trkpt lon="15.398870" lat="50.040160"><ele>206.25</ele></trkpt>
   <trkpt lon="15.399800" lat="50.039851"><ele>207.0</ele></trkpt>
   <trkpt lon="15.400799" lat="50.039553"><ele>206.75</ele></trkpt>
   <trkpt lon="15.401794" lat="50.039287"><ele>206.0</ele></trkpt>
   <trkpt lon="15.402544" lat="50.039107"><ele>206.0</ele></trkpt>
   <trkpt lon="15.403120" lat="50.038977"><ele>205.25</ele></trkpt>
   <trkpt lon="15.404119" lat="50.038779"><ele>204.75</ele></trkpt>
   <trkpt lon="15.404975" lat="50.038628"><ele>203.75</ele></trkpt>
   <trkpt lon="15.405749" lat="50.038508"><ele>206.5</ele></trkpt>
   <trkpt lon="15.406155" lat="50.038453"><ele>208.0</ele></trkpt>
   <trkpt lon="15.406551" lat="50.038402"><ele>209.75</ele></trkpt>
   <trkpt lon="15.407319" lat="50.038315"><ele>210.5</ele></trkpt>
   <trkpt lon="15.408146" lat="50.038238"><ele>211.0</ele></trkpt>
   <trkpt lon="15.408978" lat="50.038176"><ele>210.5</ele></trkpt>
   <trkpt lon="15.411990" lat="50.037973"><ele>206.75</ele></trkpt>
   <trkpt lon="15.412492" lat="50.037935"><ele>207.25</ele></trkpt>
   <trkpt lon="15.416142" lat="50.037702"><ele>207.5</ele></trkpt>
   <trkpt lon="15.416840" lat="50.037648"><ele>206.75</ele></trkpt>
   <trkpt lon="15.417651" lat="50.037572"><ele>206.0</ele></trkpt>
   <trkpt lon="15.418411" lat="50.037490"><ele>205.0</ele></trkpt>
   <trkpt lon="15.419412" lat="50.037351"><ele>206.0</ele></trkpt>
   <trkpt lon="15.419634" lat="50.037321"><ele>206.25</ele></trkpt>
   <trkpt lon="15.420720" lat="50.037136"><ele>206.25</ele></trkpt>
   <trkpt lon="15.421444" lat="50.036996"><ele>206.0</ele></trkpt>
   <trkpt lon="15.427952" lat="50.035667"><ele>206.75</ele></trkpt>
   <trkpt lon="15.428180" lat="50.035619"><ele>206.25</ele></trkpt>
   <trkpt lon="15.435289" lat="50.034166"><ele>209.0</ele></trkpt>
   <trkpt lon="15.437024" lat="50.033813"><ele>211.0</ele></trkpt>
   <trkpt lon="15.447522" lat="50.031665"><ele>207.0</ele></trkpt>
   <trkpt lon="15.449544" lat="50.031252"><ele>208.0</ele></trkpt>
   <trkpt lon="15.450339" lat="50.031088"><ele>207.75</ele></trkpt>
   <trkpt lon="15.451149" lat="50.030933"><ele>206.75</ele></trkpt>
   <trkpt lon="15.451966" lat="50.030789"><ele>206.0</ele></trkpt>
   <trkpt lon="15.452750" lat="50.030666"><ele>206.5</ele></trkpt>
   <trkpt lon="15.453580" lat="50.030556"><ele>207.25</ele></trkpt>
   <trkpt lon="15.454393" lat="50.030465"><ele>206.5</ele></trkpt>
   <trkpt lon="15.455159" lat="50.030393"><ele>206.0</ele></trkpt>
   <trkpt lon="15.455920" lat="50.030339"><ele>206.5</ele></trkpt>
   <trkpt lon="15.456760" lat="50.030296"><ele>207.5</ele></trkpt>
   <trkpt lon="15.457547" lat="50.030269"><ele>207.5</ele></trkpt>
   <trkpt lon="15.458339" lat="50.030256"><ele>207.0</ele></trkpt>
   <trkpt lon="15.459098" lat="50.030259"><ele>207.0</ele></trkpt>
   <trkpt lon="15.459877" lat="50.030278"><ele>207.75</ele></trkpt>
   <trkpt lon="15.460640" lat="50.030310"><ele>208.0</ele></trkpt>
   <trkpt lon="15.461417" lat="50.030356"><ele>208.25</ele></trkpt>
   <trkpt lon="15.463746" lat="50.030543"><ele>208.25</ele></trkpt>
   <trkpt lon="15.467922" lat="50.030867"><ele>206.25</ele></trkpt>
   <trkpt lon="15.468816" lat="50.030935"><ele>205.75</ele></trkpt>
   <trkpt lon="15.471007" lat="50.031101"><ele>205.75</ele></trkpt>
   <trkpt lon="15.473311" lat="50.031291"><ele>206.75</ele></trkpt>
   <trkpt lon="15.476548" lat="50.031556"><ele>206.25</ele></trkpt>
   <trkpt lon="15.485006" lat="50.032243"><ele>208.0</ele></trkpt>
   <trkpt lon="15.485739" lat="50.032305"><ele>208.5</ele></trkpt>
   <trkpt lon="15.486615" lat="50.032416"><ele>209.0</ele></trkpt>
   <trkpt lon="15.487158" lat="50.032461"><ele>209.0</ele></trkpt>
   <trkpt lon="15.488841" lat="50.032605"><ele>208.25</ele></trkpt>
   <trkpt lon="15.492068" lat="50.032897"><ele>206.5</ele></trkpt>
   <trkpt lon="15.498825" lat="50.033451"><ele>208.0</ele></trkpt>
   <trkpt lon="15.505620" lat="50.034005"><ele>208.75</ele></trkpt>
   <trkpt lon="15.518162" lat="50.035029"><ele>206.75</ele></trkpt>
   <trkpt lon="15.518955" lat="50.035103"><ele>206.75</ele></trkpt>
   <trkpt lon="15.519699" lat="50.035189"><ele>206.75</ele></trkpt>
   <trkpt lon="15.520498" lat="50.035302"><ele>207.0</ele></trkpt>
   <trkpt lon="15.520691" lat="50.035334"><ele>207.0</ele></trkpt>
   <trkpt lon="15.520924" lat="50.035373"><ele>206.75</ele></trkpt>
   <trkpt lon="15.521054" lat="50.035396"><ele>206.75</ele></trkpt>
   <trkpt lon="15.521956" lat="50.035566"><ele>207.0</ele></trkpt>
   <trkpt lon="15.522694" lat="50.035718"><ele>206.5</ele></trkpt>
   <trkpt lon="15.525116" lat="50.036237"><ele>205.5</ele></trkpt>
   <trkpt lon="15.525357" lat="50.036288"><ele>205.5</ele></trkpt>
   <trkpt lon="15.528071" lat="50.036870"><ele>206.75</ele></trkpt>
   <trkpt lon="15.530147" lat="50.037313"><ele>205.0</ele></trkpt>
   <trkpt lon="15.541924" lat="50.039835"><ele>208.25</ele></trkpt>
   <trkpt lon="15.543278" lat="50.040120"><ele>207.75</ele></trkpt>
   <trkpt lon="15.548718" lat="50.041287"><ele>209.25</ele></trkpt>
   <trkpt lon="15.551360" lat="50.041848"><ele>209.0</ele></trkpt>
   <trkpt lon="15.553281" lat="50.042258"><ele>208.75</ele></trkpt>
   <trkpt lon="15.554071" lat="50.042415"><ele>209.0</ele></trkpt>
   <trkpt lon="15.554451" lat="50.042486"><ele>208.5</ele></trkpt>
   <trkpt lon="15.554863" lat="50.042553"><ele>208.0</ele></trkpt>
   <trkpt lon="15.555511" lat="50.042647"><ele>208.0</ele></trkpt>
   <trkpt lon="15.555668" lat="50.042668"><ele>208.0</ele></trkpt>
   <trkpt lon="15.556467" lat="50.042761"><ele>208.0</ele></trkpt>
   <trkpt lon="15.556861" lat="50.042796"><ele>208.0</ele></trkpt>
   <trkpt lon="15.557275" lat="50.042829"><ele>208.25</ele></trkpt>
   <trkpt lon="15.558095" lat="50.042876"><ele>209.25</ele></trkpt>
   <trkpt lon="15.558859" lat="50.042899"><ele>209.5</ele></trkpt>
   <trkpt lon="15.559244" lat="50.042905"><ele>209.5</ele></trkpt>
   <trkpt lon="15.560098" lat="50.042893"><ele>210.0</ele></trkpt>
   <trkpt lon="15.560385" lat="50.042887"><ele>210.0</ele></trkpt>
   <trkpt lon="15.561261" lat="50.042840"><ele>209.25</ele></trkpt>
   <trkpt lon="15.561655" lat="50.042812"><ele>209.0</ele></trkpt>
   <trkpt lon="15.562421" lat="50.042740"><ele>209.0</ele></trkpt>
   <trkpt lon="15.563224" lat="50.042644"><ele>209.0</ele></trkpt>
   <trkpt lon="15.564018" lat="50.042523"><ele>209.0</ele></trkpt>
   <trkpt lon="15.564803" lat="50.042380"><ele>209.0</ele></trkpt>
   <trkpt lon="15.565555" lat="50.042223"><ele>209.25</ele></trkpt>
   <trkpt lon="15.566305" lat="50.042043"><ele>209.5</ele></trkpt>
   <trkpt lon="15.566717" lat="50.041936"><ele>209.5</ele></trkpt>
   <trkpt lon="15.567282" lat="50.041780"><ele>209.75</ele></trkpt>
   <trkpt lon="15.569902" lat="50.041022"><ele>209.75</ele></trkpt>
   <trkpt lon="15.570467" lat="50.040856"><ele>209.75</ele></trkpt>
   <trkpt lon="15.571526" lat="50.040548"><ele>211.5</ele></trkpt>
   <trkpt lon="15.571761" lat="50.040483"><ele>211.75</ele></trkpt>
   <trkpt lon="15.571945" lat="50.040431"><ele>211.75</ele></trkpt>
   <trkpt lon="15.572889" lat="50.040155"><ele>212.5</ele></trkpt>
   <trkpt lon="15.574576" lat="50.039661"><ele>213.5</ele></trkpt>
   <trkpt lon="15.580306" lat="50.037985"><ele>213.75</ele></trkpt>
   <trkpt lon="15.581377" lat="50.037673"><ele>214.5</ele></trkpt>
   <trkpt lon="15.582310" lat="50.037400"><ele>215.75</ele></trkpt>
   <trkpt lon="15.584570" lat="50.036736"><ele>217.25</ele></trkpt>
   <trkpt lon="15.585565" lat="50.036449"><ele>217.25</ele></trkpt>
   <trkpt lon="15.586092" lat="50.036306"><ele>217.25</ele></trkpt>
   <trkpt lon="15.587029" lat="50.036112"><ele>216.25</ele></trkpt>
   <trkpt lon="15.588213" lat="50.035856"><ele>214.25</ele></trkpt>
   <trkpt lon="15.589033" lat="50.035700"><ele>214.0</ele></trkpt>
   <trkpt lon="15.589759" lat="50.035575"><ele>213.75</ele></trkpt>
   <trkpt lon="15.590431" lat="50.035474"><ele>213.75</ele></trkpt>
   <trkpt lon="15.591302" lat="50.035360"><ele>214.0</ele></trkpt>
   <trkpt lon="15.592059" lat="50.035280"><ele>214.25</ele></trkpt>
   <trkpt lon="15.592897" lat="50.035206"><ele>214.25</ele></trkpt>
   <trkpt lon="15.593754" lat="50.035150"><ele>214.5</ele></trkpt>
   <trkpt lon="15.597697" lat="50.034947"><ele>215.75</ele></trkpt>
   <trkpt lon="15.598000" lat="50.034922"><ele>215.75</ele></trkpt>
   <trkpt lon="15.598616" lat="50.034860"><ele>216.0</ele></trkpt>
   <trkpt lon="15.599523" lat="50.034811"><ele>216.75</ele></trkpt>
   <trkpt lon="15.600232" lat="50.034777"><ele>217.0</ele></trkpt>
   <trkpt lon="15.603258" lat="50.034625"><ele>216.5</ele></trkpt>
   <trkpt lon="15.605276" lat="50.034518"><ele>215.25</ele></trkpt>
   <trkpt lon="15.605629" lat="50.034494"><ele>215.5</ele></trkpt>
   <trkpt lon="15.606273" lat="50.034440"><ele>216.5</ele></trkpt>
   <trkpt lon="15.606956" lat="50.034361"><ele>217.5</ele></trkpt>
   <trkpt lon="15.607572" lat="50.034267"><ele>218.25</ele></trkpt>
   <trkpt lon="15.608247" lat="50.034137"><ele>219.75</ele></trkpt>
   <trkpt lon="15.608901" lat="50.033986"><ele>219.75</ele></trkpt>
   <trkpt lon="15.609524" lat="50.033816"><ele>219.0</ele></trkpt>
   <trkpt lon="15.610125" lat="50.033623"><ele>218.5</ele></trkpt>
   <trkpt lon="15.610764" lat="50.033393"><ele>218.5</ele></trkpt>
   <trkpt lon="15.611335" lat="50.033168"><ele>218.5</ele></trkpt>
   <trkpt lon="15.613581" lat="50.032198"><ele>218.5</ele></trkpt>
   <trkpt lon="15.614142" lat="50.031975"><ele>218.25</ele></trkpt>
   <trkpt lon="15.614818" lat="50.031734"><ele>217.25</ele></trkpt>
   <trkpt lon="15.615532" lat="50.031515"><ele>216.5</ele></trkpt>
   <trkpt lon="15.616381" lat="50.031291"><ele>215.75</ele></trkpt>
   <trkpt lon="15.616749" lat="50.031206"><ele>215.5</ele></trkpt>
   <trkpt lon="15.616901" lat="50.031173"><ele>215.5</ele></trkpt>
   <trkpt lon="15.617652" lat="50.031034"><ele>215.75</ele></trkpt>
   <trkpt lon="15.618404" lat="50.030923"><ele>215.5</ele></trkpt>
   <trkpt lon="15.619226" lat="50.030837"><ele>215.75</ele></trkpt>
   <trkpt lon="15.619878" lat="50.030789"><ele>215.25</ele></trkpt>
   <trkpt lon="15.620557" lat="50.030765"><ele>215.0</ele></trkpt>
   <trkpt lon="15.621292" lat="50.030759"><ele>214.5</ele></trkpt>
   <trkpt lon="15.621880" lat="50.030773"><ele>214.25</ele></trkpt>
   <trkpt lon="15.622459" lat="50.030803"><ele>214.75</ele></trkpt>
   <trkpt lon="15.623148" lat="50.030860"><ele>215.5</ele></trkpt>
   <trkpt lon="15.623839" lat="50.030939"><ele>215.75</ele></trkpt>
   <trkpt lon="15.624658" lat="50.031054"><ele>216.5</ele></trkpt>
   <trkpt lon="15.625903" lat="50.031237"><ele>218.0</ele></trkpt>
   <trkpt lon="15.626115" lat="50.031269"><ele>218.25</ele></trkpt>
   <trkpt lon="15.630677" lat="50.031941"><ele>229.25</ele></trkpt>
   <trkpt lon="15.632202" lat="50.032175"><ele>231.75</ele></trkpt>
   <trkpt lon="15.633012" lat="50.032314"><ele>231.5</ele></trkpt>
   <trkpt lon="15.633805" lat="50.032462"><ele>231.0</ele></trkpt>
   <trkpt lon="15.638501" lat="50.033359"><ele>230.0</ele></trkpt>
   <trkpt lon="15.639241" lat="50.033489"><ele>230.5</ele></trkpt>
   <trkpt lon="15.639923" lat="50.033592"><ele>231.75</ele></trkpt>
   <trkpt lon="15.640605" lat="50.033670"><ele>231.0</ele></trkpt>
   <trkpt lon="15.640965" lat="50.033701"><ele>231.0</ele></trkpt>
   <trkpt lon="15.641308" lat="50.033723"><ele>231.0</ele></trkpt>
   <trkpt lon="15.641667" lat="50.033743"><ele>231.5</ele></trkpt>
   <trkpt lon="15.642008" lat="50.033753"><ele>230.75</ele></trkpt>
   <trkpt lon="15.642355" lat="50.033760"><ele>230.0</ele></trkpt>
   <trkpt lon="15.642690" lat="50.033757"><ele>229.25</ele></trkpt>
   <trkpt lon="15.643391" lat="50.033737"><ele>228.0</ele></trkpt>
   <trkpt lon="15.644088" lat="50.033690"><ele>227.25</ele></trkpt>
   <trkpt lon="15.644786" lat="50.033622"><ele>226.25</ele></trkpt>
   <trkpt lon="15.646192" lat="50.033452"><ele>226.5</ele></trkpt>
   <trkpt lon="15.655050" lat="50.032326"><ele>226.0</ele></trkpt>
   <trkpt lon="15.657125" lat="50.032063"><ele>225.0</ele></trkpt>
   <trkpt lon="15.657272" lat="50.032044"><ele>225.0</ele></trkpt>
   <trkpt lon="15.661646" lat="50.031489"><ele>225.25</ele></trkpt>
   <trkpt lon="15.661786" lat="50.031471"><ele>225.25</ele></trkpt>
   <trkpt lon="15.663021" lat="50.031314"><ele>225.0</ele></trkpt>
   <trkpt lon="15.668321" lat="50.030639"><ele>224.75</ele></trkpt>
   <trkpt lon="15.672373" lat="50.030131"><ele>223.5</ele></trkpt>
   <trkpt lon="15.672508" lat="50.030115"><ele>223.5</ele></trkpt>
   <trkpt lon="15.673314" lat="50.030031"><ele>223.75</ele></trkpt>
   <trkpt lon="15.674137" lat="50.029968"><ele>224.0</ele></trkpt>
   <trkpt lon="15.674896" lat="50.029930"><ele>224.75</ele></trkpt>
   <trkpt lon="15.675674" lat="50.029909"><ele>225.0</ele></trkpt>
   <trkpt lon="15.676514" lat="50.029911"><ele>225.75</ele></trkpt>
   <trkpt lon="15.677367" lat="50.029933"><ele>226.0</ele></trkpt>
   <trkpt lon="15.679188" lat="50.030008"><ele>225.75</ele></trkpt>
   <trkpt lon="15.685376" lat="50.030279"><ele>221.0</ele></trkpt>
   <trkpt lon="15.685693" lat="50.030292"><ele>221.0</ele></trkpt>
   <trkpt lon="15.686461" lat="50.030326"><ele>220.5</ele></trkpt>
   <trkpt lon="15.695841" lat="50.030736"><ele>218.75</ele></trkpt>
   <trkpt lon="15.699883" lat="50.030912"><ele>219.5</ele></trkpt>
   <trkpt lon="15.700127" lat="50.030923"><ele>219.75</ele></trkpt>
   <trkpt lon="15.705878" lat="50.031172"><ele>218.0</ele></trkpt>
   <trkpt lon="15.706025" lat="50.031179"><ele>218.0</ele></trkpt>
   <trkpt lon="15.707332" lat="50.031237"><ele>219.0</ele></trkpt>
   <trkpt lon="15.712920" lat="50.031480"><ele>217.25</ele></trkpt>
   <trkpt lon="15.713080" lat="50.031486"><ele>217.25</ele></trkpt>
   <trkpt lon="15.717594" lat="50.031682"><ele>217.0</ele></trkpt>
   <trkpt lon="15.720767" lat="50.031819"><ele>217.0</ele></trkpt>
   <trkpt lon="15.720929" lat="50.031826"><ele>217.0</ele></trkpt>
   <trkpt lon="15.726873" lat="50.032079"><ele>216.5</ele></trkpt>
   <trkpt lon="15.727229" lat="50.032087"><ele>216.25</ele></trkpt>
   <trkpt lon="15.728067" lat="50.032098"><ele>216.75</ele></trkpt>
   <trkpt lon="15.728916" lat="50.032094"><ele>216.25</ele></trkpt>
   <trkpt lon="15.743036" lat="50.031903"><ele>217.0</ele></trkpt>
   <trkpt lon="15.747514" lat="50.031849"><ele>221.0</ele></trkpt>
   <trkpt lon="15.748354" lat="50.031838"><ele>221.75</ele></trkpt>
   <trkpt lon="15.749258" lat="50.031783"><ele>220.5</ele></trkpt>
   <trkpt lon="15.750854" lat="50.031759"><ele>218.75</ele></trkpt>
   <trkpt lon="15.751827" lat="50.031745"><ele>219.0</ele></trkpt>
   <trkpt lon="15.756160" lat="50.031683"><ele>220.0</ele></trkpt>
   <trkpt lon="15.759394" lat="50.031637"><ele>220.0</ele></trkpt>
  </trkseg>
 </trk>
</gpx>
