<?xml version="1.0" encoding="UTF-8"?>
<!-- track-length = 14331 filtered ascend = 7 plain-ascend = -1 cost=14331 energy=0.2kwh time=19m 7s -->
<gpx 
 xmlns="http://www.topografix.com/GPX/1/1" 
 xmlns:xsi="http://www.w3.org/2001/XMLSchema-instance" 
 xsi:schemaLocation="http://www.topografix.com/GPX/1/1 http://www.topografix.com/GPX/1/1/gpx.xsd" 
 version="1.1" 
 creator="BRouter-Web 0.18.1">
 <trk>
  <name>Kopenhagen - Kastrup</name>
  <trkseg>
   <trkpt lat="55.672824" lon="12.564547"/>
   <trkpt lat="55.672668" lon="12.564717"/>
   <trkpt lat="55.672614" lon="12.564775"><ele>4</ele></trkpt>
   <trkpt lat="55.672347" lon="12.565064"><ele>4</ele></trkpt>
   <trkpt lat="55.671686" lon="12.565773"><ele>4</ele></trkpt>
   <trkpt lat="55.671564" lon="12.56588"><ele>4</ele></trkpt>
   <trkpt lat="55.671376" lon="12.566019"><ele>4.25</ele></trkpt>
   <trkpt lat="55.671228" lon="12.566116"><ele>4.5</ele></trkpt>
   <trkpt lat="55.671123" lon="12.566175"><ele>4.75</ele></trkpt>
   <trkpt lat="55.670898" lon="12.566274"><ele>5.25</ele></trkpt>
   <trkpt lat="55.670512" lon="12.56638"><ele>4.5</ele></trkpt>
   <trkpt lat="55.670176" lon="12.566442"><ele>3.5</ele></trkpt>
   <trkpt lat="55.670072" lon="12.56645"><ele>3.25</ele></trkpt>
   <trkpt lat="55.66979" lon="12.566468"><ele>2.75</ele></trkpt>
   <trkpt lat="55.669682" lon="12.566464"><ele>2.75</ele></trkpt>
   <trkpt lat="55.669481" lon="12.566434"><ele>2.5</ele></trkpt>
   <trkpt lat="55.669153" lon="12.566308"><ele>2.25</ele></trkpt>
   <trkpt lat="55.668972" lon="12.566207"><ele>2</ele></trkpt>
   <trkpt lat="55.668772" lon="12.566059"><ele>1.75</ele></trkpt>
   <trkpt lat="55.668515" lon="12.565825"><ele>1.25</ele></trkpt>
   <trkpt lat="55.668226" lon="12.565579"><ele>0.75</ele></trkpt>
   <trkpt lat="55.667959" lon="12.56533"><ele>0.5</ele></trkpt>
   <trkpt lat="55.667748" lon="12.565109"><ele>0.25</ele></trkpt>
   <trkpt lat="55.66746" lon="12.564833"><ele>0</ele></trkpt>
   <trkpt lat="55.667318" lon="12.564637"><ele>0.25</ele></trkpt>
   <trkpt lat="55.666981" lon="12.564175"><ele>0.25</ele></trkpt>
   <trkpt lat="55.666751" lon="12.563864"><ele>0</ele></trkpt>
   <trkpt lat="55.666537" lon="12.563542"><ele>0</ele></trkpt>
   <trkpt lat="55.666373" lon="12.563228"><ele>0.5</ele></trkpt>
   <trkpt lat="55.666079" lon="12.562575"><ele>1</ele></trkpt>
   <trkpt lat="55.665974" lon="12.562344"><ele>1</ele></trkpt>
   <trkpt lat="55.665869" lon="12.562132"><ele>1</ele></trkpt>
   <trkpt lat="55.665689" lon="12.561795"><ele>0.75</ele></trkpt>
   <trkpt lat="55.665549" lon="12.561511"><ele>0.75</ele></trkpt>
   <trkpt lat="55.665436" lon="12.561261"><ele>0.75</ele></trkpt>
   <trkpt lat="55.66508" lon="12.560549"><ele>0</ele></trkpt>
   <trkpt lat="55.664869" lon="12.560116"><ele>0</ele></trkpt>
   <trkpt lat="55.664626" lon="12.559576"><ele>1</ele></trkpt>
   <trkpt lat="55.66435" lon="12.558943"><ele>1.25</ele></trkpt>
   <trkpt lat="55.664212" lon="12.558562"><ele>1</ele></trkpt>
   <trkpt lat="55.664148" lon="12.55836"><ele>1</ele></trkpt>
   <trkpt lat="55.664048" lon="12.558001"><ele>1.25</ele></trkpt>
   <trkpt lat="55.66392" lon="12.557446"><ele>2</ele></trkpt>
   <trkpt lat="55.663841" lon="12.557011"><ele>2</ele></trkpt>
   <trkpt lat="55.663775" lon="12.556533"><ele>2</ele></trkpt>
   <trkpt lat="55.663737" lon="12.556154"><ele>2.5</ele></trkpt>
   <trkpt lat="55.663704" lon="12.555682"><ele>3</ele></trkpt>
   <trkpt lat="55.663653" lon="12.554786"><ele>3.5</ele></trkpt>
   <trkpt lat="55.663617" lon="12.554322"><ele>3.75</ele></trkpt>
   <trkpt lat="55.663565" lon="12.553881"><ele>3.75</ele></trkpt>
   <trkpt lat="55.663494" lon="12.553448"><ele>4</ele></trkpt>
   <trkpt lat="55.663423" lon="12.553082"><ele>3.75</ele></trkpt>
   <trkpt lat="55.663082" lon="12.551596"><ele>3</ele></trkpt>
   <trkpt lat="55.662933" lon="12.550867"><ele>2.75</ele></trkpt>
   <trkpt lat="55.662827" lon="12.550289"><ele>3</ele></trkpt>
   <trkpt lat="55.662713" lon="12.549577"><ele>3.25</ele></trkpt>
   <trkpt lat="55.662614" lon="12.548856"><ele>3.5</ele></trkpt>
   <trkpt lat="55.662537" lon="12.54822"><ele>3.75</ele></trkpt>
   <trkpt lat="55.662472" lon="12.547586"><ele>3</ele></trkpt>
   <trkpt lat="55.66241" lon="12.546861"><ele>2.75</ele></trkpt>
   <trkpt lat="55.662305" lon="12.545411"><ele>4.25</ele></trkpt>
   <trkpt lat="55.662262" lon="12.545009"><ele>4.5</ele></trkpt>
   <trkpt lat="55.662236" lon="12.544817"><ele>4.5</ele></trkpt>
   <trkpt lat="55.662175" lon="12.544456"><ele>4.5</ele></trkpt>
   <trkpt lat="55.662112" lon="12.544151"><ele>4.5</ele></trkpt>
   <trkpt lat="55.66204" lon="12.543862"><ele>4.25</ele></trkpt>
   <trkpt lat="55.661914" lon="12.543437"><ele>4.25</ele></trkpt>
   <trkpt lat="55.661811" lon="12.54315"><ele>4.25</ele></trkpt>
   <trkpt lat="55.661703" lon="12.542887"><ele>4.5</ele></trkpt>
   <trkpt lat="55.66158" lon="12.542621"><ele>4.75</ele></trkpt>
   <trkpt lat="55.661441" lon="12.54236"><ele>5</ele></trkpt>
   <trkpt lat="55.661301" lon="12.542128"><ele>5.25</ele></trkpt>
   <trkpt lat="55.661148" lon="12.541906"><ele>5.25</ele></trkpt>
   <trkpt lat="55.6609" lon="12.541603"><ele>5</ele></trkpt>
   <trkpt lat="55.66065" lon="12.541355"><ele>5.25</ele></trkpt>
   <trkpt lat="55.660352" lon="12.541125"><ele>5.25</ele></trkpt>
   <trkpt lat="55.660003" lon="12.540909"><ele>5</ele></trkpt>
   <trkpt lat="55.659226" lon="12.54047"><ele>5.75</ele></trkpt>
   <trkpt lat="55.658305" lon="12.539953"><ele>5.75</ele></trkpt>
   <trkpt lat="55.657553" lon="12.53957"><ele>5</ele></trkpt>
   <trkpt lat="55.657271" lon="12.539455"><ele>4.5</ele></trkpt>
   <trkpt lat="55.656763" lon="12.539269"><ele>4</ele></trkpt>
   <trkpt lat="55.656211" lon="12.539105"><ele>3.25</ele></trkpt>
   <trkpt lat="55.655677" lon="12.539004"><ele>2.5</ele></trkpt>
   <trkpt lat="55.655238" lon="12.538992"><ele>2</ele></trkpt>
   <trkpt lat="55.654757" lon="12.539014"><ele>1.25</ele></trkpt>
   <trkpt lat="55.654397" lon="12.539042"><ele>1.25</ele></trkpt>
   <trkpt lat="55.653825" lon="12.539127"><ele>1.5</ele></trkpt>
   <trkpt lat="55.653345" lon="12.539263"><ele>1.75</ele></trkpt>
   <trkpt lat="55.652752" lon="12.539502"><ele>2.25</ele></trkpt>
   <trkpt lat="55.652369" lon="12.539703"><ele>2.5</ele></trkpt>
   <trkpt lat="55.652124" lon="12.539831"><ele>2.5</ele></trkpt>
   <trkpt lat="55.649039" lon="12.541476"><ele>2.25</ele></trkpt>
   <trkpt lat="55.648785" lon="12.541608"><ele>2</ele></trkpt>
   <trkpt lat="55.647379" lon="12.542337"><ele>1.5</ele></trkpt>
   <trkpt lat="55.646977" lon="12.542558"><ele>1.25</ele></trkpt>
   <trkpt lat="55.64645" lon="12.542868"><ele>1</ele></trkpt>
   <trkpt lat="55.646022" lon="12.543176"><ele>1</ele></trkpt>
   <trkpt lat="55.645776" lon="12.543362"><ele>1</ele></trkpt>
   <trkpt lat="55.645422" lon="12.543666"><ele>1.25</ele></trkpt>
   <trkpt lat="55.645194" lon="12.54389"><ele>1.25</ele></trkpt>
   <trkpt lat="55.64409" lon="12.545072"><ele>2</ele></trkpt>
   <trkpt lat="55.642916" lon="12.546383"><ele>2.75</ele></trkpt>
   <trkpt lat="55.642659" lon="12.546683"><ele>2.75</ele></trkpt>
   <trkpt lat="55.64184" lon="12.547675"><ele>2</ele></trkpt>
   <trkpt lat="55.641638" lon="12.547906"><ele>2</ele></trkpt>
   <trkpt lat="55.640507" lon="12.54925"><ele>1.25</ele></trkpt>
   <trkpt lat="55.639423" lon="12.550544"><ele>0.75</ele></trkpt>
   <trkpt lat="55.639377" lon="12.550598"><ele>0.75</ele></trkpt>
   <trkpt lat="55.638552" lon="12.551574"><ele>0</ele></trkpt>
   <trkpt lat="55.638456" lon="12.551686"><ele>0.25</ele></trkpt>
   <trkpt lat="55.63827" lon="12.551893"><ele>0</ele></trkpt>
   <trkpt lat="55.637847" lon="12.552326"><ele>0</ele></trkpt>
   <trkpt lat="55.637727" lon="12.552462"><ele>0</ele></trkpt>
   <trkpt lat="55.637652" lon="12.552553"><ele>0</ele></trkpt>
   <trkpt lat="55.637074" lon="12.553238"><ele>0.75</ele></trkpt>
   <trkpt lat="55.635812" lon="12.554741"><ele>0.5</ele></trkpt>
   <trkpt lat="55.635188" lon="12.55553"><ele>-0.5</ele></trkpt>
   <trkpt lat="55.634654" lon="12.556265"><ele>-1</ele></trkpt>
   <trkpt lat="55.634463" lon="12.556541"><ele>-1</ele></trkpt>
   <trkpt lat="55.63409" lon="12.557108"><ele>-1</ele></trkpt>
   <trkpt lat="55.633909" lon="12.557396"><ele>-1</ele></trkpt>
   <trkpt lat="55.633548" lon="12.557998"><ele>-0.75</ele></trkpt>
   <trkpt lat="55.633196" lon="12.558618"><ele>-0.5</ele></trkpt>
   <trkpt lat="55.632856" lon="12.559256"><ele>-0.25</ele></trkpt>
   <trkpt lat="55.632526" lon="12.559909"><ele>-0.75</ele></trkpt>
   <trkpt lat="55.632213" lon="12.560573"><ele>-0.75</ele></trkpt>
   <trkpt lat="55.631935" lon="12.561196"><ele>-1.25</ele></trkpt>
   <trkpt lat="55.631638" lon="12.561898"><ele>-2.5</ele></trkpt>
   <trkpt lat="55.631354" lon="12.562619"><ele>-1.25</ele></trkpt>
   <trkpt lat="55.630968" lon="12.56367"><ele>-1.5</ele></trkpt>
   <trkpt lat="55.630638" lon="12.564658"><ele>-1.75</ele></trkpt>
   <trkpt lat="55.630361" lon="12.565558"><ele>-1.25</ele></trkpt>
   <trkpt lat="55.629992" lon="12.566875"><ele>-1.75</ele></trkpt>
   <trkpt lat="55.629754" lon="12.567856"><ele>-1</ele></trkpt>
   <trkpt lat="55.629521" lon="12.568905"><ele>-0.75</ele></trkpt>
   <trkpt lat="55.629338" lon="12.56982"><ele>-1</ele></trkpt>
   <trkpt lat="55.629184" lon="12.570681"><ele>-1</ele></trkpt>
   <trkpt lat="55.62901" lon="12.571783"><ele>-0.25</ele></trkpt>
   <trkpt lat="55.62885" lon="12.572976"><ele>-1.75</ele></trkpt>
   <trkpt lat="55.628746" lon="12.573905"><ele>-2</ele></trkpt>
   <trkpt lat="55.628746" lon="12.57391"><ele>-2</ele></trkpt>
   <trkpt lat="55.628623" lon="12.575204"><ele>-0.25</ele></trkpt>
   <trkpt lat="55.628512" lon="12.576862"><ele>-0.75</ele></trkpt>
   <trkpt lat="55.628434" lon="12.578273"><ele>0</ele></trkpt>
   <trkpt lat="55.628383" lon="12.579397"><ele>0</ele></trkpt>
   <trkpt lat="55.628366" lon="12.580217"><ele>-0.75</ele></trkpt>
   <trkpt lat="55.628347" lon="12.581038"><ele>-1</ele></trkpt>
   <trkpt lat="55.628334" lon="12.582295"><ele>-1.75</ele></trkpt>
   <trkpt lat="55.628333" lon="12.58293"><ele>-2.5</ele></trkpt>
   <trkpt lat="55.628344" lon="12.584181"><ele>-2.75</ele></trkpt>
   <trkpt lat="55.628359" lon="12.584934"><ele>-1.75</ele></trkpt>
   <trkpt lat="55.62838" lon="12.585567"><ele>-1.75</ele></trkpt>
   <trkpt lat="55.628416" lon="12.586339"><ele>-1</ele></trkpt>
   <trkpt lat="55.628457" lon="12.587047"><ele>-0.75</ele></trkpt>
   <trkpt lat="55.628525" lon="12.587949"><ele>-1</ele></trkpt>
   <trkpt lat="55.628581" lon="12.588572"><ele>-1.25</ele></trkpt>
   <trkpt lat="55.628645" lon="12.589202"><ele>-2</ele></trkpt>
   <trkpt lat="55.628828" lon="12.590768"><ele>-1.25</ele></trkpt>
   <trkpt lat="55.629123" lon="12.593133"><ele>-1.75</ele></trkpt>
   <trkpt lat="55.629234" lon="12.594068"><ele>-1.5</ele></trkpt>
   <trkpt lat="55.629367" lon="12.595317"><ele>-1</ele></trkpt>
   <trkpt lat="55.629475" lon="12.596575"><ele>-0.25</ele></trkpt>
   <trkpt lat="55.629563" lon="12.5979"><ele>-1</ele></trkpt>
   <trkpt lat="55.62962" lon="12.599047"><ele>-0.5</ele></trkpt>
   <trkpt lat="55.629654" lon="12.599601"><ele>-0.25</ele></trkpt>
   <trkpt lat="55.629706" lon="12.600743"><ele>0</ele></trkpt>
   <trkpt lat="55.629731" lon="12.601587"><ele>0.25</ele></trkpt>
   <trkpt lat="55.629767" lon="12.603298"><ele>0.75</ele></trkpt>
   <trkpt lat="55.629781" lon="12.604359"><ele>1</ele></trkpt>
   <trkpt lat="55.629797" lon="12.604964"><ele>1.25</ele></trkpt>
   <trkpt lat="55.629925" lon="12.610121"><ele>3.25</ele></trkpt>
   <trkpt lat="55.630225" lon="12.621768"><ele>3.25</ele></trkpt>
   <trkpt lat="55.630301" lon="12.624025"><ele>2.5</ele></trkpt>
   <trkpt lat="55.63044" lon="12.627522"><ele>1.75</ele></trkpt>
   <trkpt lat="55.630487" lon="12.628683"><ele>1.75</ele></trkpt>
   <trkpt lat="55.630648" lon="12.632764"><ele>1.5</ele></trkpt>
   <trkpt lat="55.630673" lon="12.633793"><ele>1.25</ele></trkpt>
   <trkpt lat="55.63068" lon="12.634473"><ele>1.25</ele></trkpt>
   <trkpt lat="55.630675" lon="12.635348"><ele>1.25</ele></trkpt>
   <trkpt lat="55.63065" lon="12.636317"><ele>0.5</ele></trkpt>
   <trkpt lat="55.630628" lon="12.636919"><ele>0</ele></trkpt>
   <trkpt lat="55.630584" lon="12.637781"><ele>0.25</ele></trkpt>
   <trkpt lat="55.630533" lon="12.638426"><ele>0.5</ele></trkpt>
   <trkpt lat="55.630457" lon="12.639477"><ele>1.25</ele></trkpt>
   <trkpt lat="55.630375" lon="12.640326"><ele>2</ele></trkpt>
   <trkpt lat="55.630178" lon="12.641909"><ele>3</ele></trkpt>
   <trkpt lat="55.630158" lon="12.642303"><ele>3.25</ele></trkpt>
   <trkpt lat="55.630134" lon="12.642654"><ele>3.5</ele></trkpt>
   <trkpt lat="55.630123" lon="12.642752"><ele>3.25</ele></trkpt>
   <trkpt lat="55.630103" lon="12.642931"><ele>3.25</ele></trkpt>
   <trkpt lat="55.62997" lon="12.643647"><ele>3</ele></trkpt>
   <trkpt lat="55.629751" lon="12.64547"><ele>2.5</ele></trkpt>
   <trkpt lat="55.629651" lon="12.646585"><ele>2</ele></trkpt>
   <trkpt lat="55.629614" lon="12.647147"><ele>2</ele></trkpt>
   <trkpt lat="55.62958" lon="12.647781"><ele>2</ele></trkpt>
   <trkpt lat="55.62956" lon="12.648393"><ele>1.5</ele></trkpt>
   <trkpt lat="55.62954" lon="12.649417"><ele>1.5</ele></trkpt>
   <trkpt lat="55.62954" lon="12.64942"><ele>2.5</ele></trkpt>
   <trkpt lat="55.629557" lon="12.650532"><ele>2.5</ele></trkpt>
   <trkpt lat="55.629579" lon="12.651124"><ele>3.25</ele></trkpt>
   <trkpt lat="55.629604" lon="12.651603"><ele>3</ele></trkpt>
   <trkpt lat="55.629687" lon="12.652685"><ele>3</ele></trkpt>
   <trkpt lat="55.629748" lon="12.653246"><ele>2.75</ele></trkpt>
   <trkpt lat="55.629828" lon="12.65377"><ele>2.75</ele></trkpt>
   <trkpt lat="55.629905" lon="12.654245"><ele>2.75</ele></trkpt>
   <trkpt lat="55.629961" lon="12.654538"><ele>2.75</ele></trkpt>
   <trkpt lat="55.630069" lon="12.655027"><ele>2.5</ele></trkpt>
   <trkpt lat="55.63024" lon="12.655697"><ele>2.5</ele></trkpt>
   <trkpt lat="55.630429" lon="12.656322"><ele>2.5</ele></trkpt>
   <trkpt lat="55.630521" lon="12.656601"><ele>2.25</ele></trkpt>
   <trkpt lat="55.630675" lon="12.657027"><ele>2</ele></trkpt>
   <trkpt lat="55.63138" lon="12.658771"><ele>1.25</ele></trkpt>
   <trkpt lat="55.631544" lon="12.659203"><ele>1</ele></trkpt>
   <trkpt lat="55.631778" lon="12.659896"><ele>0.75</ele></trkpt>
   <trkpt lat="55.631947" lon="12.660478"><ele>0.5</ele></trkpt>
   <trkpt lat="55.632023" lon="12.660781"><ele>0.25</ele></trkpt>
   <trkpt lat="55.632124" lon="12.661203"><ele>0.25</ele></trkpt>
   <trkpt lat="55.63219" lon="12.661519"><ele>0.5</ele></trkpt>
   <trkpt lat="55.632324" lon="12.662273"><ele>0.75</ele></trkpt>
   <trkpt lat="55.632436" lon="12.663073"><ele>1</ele></trkpt>
   <trkpt lat="55.632506" lon="12.663637"><ele>1.25</ele></trkpt>
   <trkpt lat="55.632561" lon="12.664197"><ele>1.5</ele></trkpt>
   <trkpt lat="55.632618" lon="12.665065"><ele>2</ele></trkpt>
   <trkpt lat="55.632652" lon="12.665609"><ele>2</ele></trkpt>
   <trkpt lat="55.63268" lon="12.666329"><ele>1.25</ele></trkpt>
   <trkpt lat="55.632689" lon="12.667237"><ele>1</ele></trkpt>
   <trkpt lat="55.632683" lon="12.667791"><ele>0.5</ele></trkpt>
   <trkpt lat="55.632673" lon="12.668196"><ele>0.25</ele></trkpt>
   <trkpt lat="55.632645" lon="12.668827"><ele>0</ele></trkpt>
   <trkpt lat="55.632579" lon="12.669791"><ele>0</ele></trkpt>
   <trkpt lat="55.632502" lon="12.670596"><ele>0</ele></trkpt>
   <trkpt lat="55.632378" lon="12.671583"><ele>-0.5</ele></trkpt>
   <trkpt lat="55.632255" lon="12.672368"><ele>-0.5</ele></trkpt>
   <trkpt lat="55.632154" lon="12.672936"><ele>-1</ele></trkpt>
   <trkpt lat="55.632095" lon="12.673235"><ele>-1.25</ele></trkpt>
   <trkpt lat="55.63199" lon="12.67374"><ele>-1</ele></trkpt>
   <trkpt lat="55.631855" lon="12.674327"><ele>-1</ele></trkpt>
   <trkpt lat="55.631631" lon="12.675194"><ele>-1.75</ele></trkpt>
   <trkpt lat="55.631383" lon="12.676033"><ele>-0.5</ele></trkpt>
   <trkpt lat="55.63107" lon="12.676959"><ele>0</ele></trkpt>
   <trkpt lat="55.63102" lon="12.6771"><ele>0.25</ele></trkpt>
   <trkpt lat="55.63075" lon="12.67781"/>
   <trkpt lat="55.629609" lon="12.680585"/>
   <trkpt lat="55.629389" lon="12.681156"/>
   <trkpt lat="55.629197" lon="12.681621"/>
   <trkpt lat="55.627368" lon="12.686101"/>
   <trkpt lat="55.626802" lon="12.687482"/>
  </trkseg>
 </trk>
</gpx>