<?xml version="1.0" encoding="UTF-8"?>
<!-- track-length = 13161 filtered ascend = 14 plain-ascend = 7 cost=13161 energy=0.2kwh time=17m 33s -->
<gpx 
 xmlns="http://www.topografix.com/GPX/1/1" 
 xmlns:xsi="http://www.w3.org/2001/XMLSchema-instance" 
 xsi:schemaLocation="http://www.topografix.com/GPX/1/1 http://www.topografix.com/GPX/1/1/gpx.xsd" 
 version="1.1" 
 creator="BRouter-Web 0.18.1">
 <trk>
  <name>Kurve Bremen von Süden</name>
  <trkseg>
   <trkpt lat="53.002956" lon="8.860104"><ele>3.75</ele></trkpt>
   <trkpt lat="53.004393" lon="8.861069"><ele>4</ele></trkpt>
   <trkpt lat="53.006242" lon="8.862311"><ele>4</ele></trkpt>
   <trkpt lat="53.008693" lon="8.863956"><ele>3.5</ele></trkpt>
   <trkpt lat="53.010198" lon="8.864948"><ele>4.75</ele></trkpt>
   <trkpt lat="53.011333" lon="8.865697"><ele>5</ele></trkpt>
   <trkpt lat="53.012793" lon="8.866676"><ele>4</ele></trkpt>
   <trkpt lat="53.012802" lon="8.866682"><ele>4</ele></trkpt>
   <trkpt lat="53.012861" lon="8.866722"><ele>4</ele></trkpt>
   <trkpt lat="53.014138" lon="8.867578"><ele>3</ele></trkpt>
   <trkpt lat="53.014628" lon="8.867894"><ele>3</ele></trkpt>
   <trkpt lat="53.015347" lon="8.868369"><ele>3.75</ele></trkpt>
   <trkpt lat="53.016415" lon="8.869108"><ele>5</ele></trkpt>
   <trkpt lat="53.016544" lon="8.869209"><ele>4.75</ele></trkpt>
   <trkpt lat="53.01662" lon="8.869276"><ele>4.75</ele></trkpt>
   <trkpt lat="53.016658" lon="8.869311"><ele>4.75</ele></trkpt>
   <trkpt lat="53.017372" lon="8.869946"><ele>5.5</ele></trkpt>
   <trkpt lat="53.0176" lon="8.870177"><ele>6</ele></trkpt>
   <trkpt lat="53.018018" lon="8.870598"><ele>6.5</ele></trkpt>
   <trkpt lat="53.018381" lon="8.871011"><ele>6.75</ele></trkpt>
   <trkpt lat="53.018615" lon="8.871298"><ele>6.25</ele></trkpt>
   <trkpt lat="53.018909" lon="8.871674"><ele>6.5</ele></trkpt>
   <trkpt lat="53.01912" lon="8.871955"><ele>6.75</ele></trkpt>
   <trkpt lat="53.019172" lon="8.872031"><ele>7</ele></trkpt>
   <trkpt lat="53.019189" lon="8.872055"><ele>7</ele></trkpt>
   <trkpt lat="53.019882" lon="8.873054"><ele>7.75</ele></trkpt>
   <trkpt lat="53.021773" lon="8.876221"><ele>6.75</ele></trkpt>
   <trkpt lat="53.024191" lon="8.880311"><ele>5.5</ele></trkpt>
   <trkpt lat="53.02443" lon="8.880713"><ele>5.5</ele></trkpt>
   <trkpt lat="53.025592" lon="8.88267"><ele>5</ele></trkpt>
   <trkpt lat="53.025646" lon="8.882761"><ele>5</ele></trkpt>
   <trkpt lat="53.025761" lon="8.882957"><ele>5.75</ele></trkpt>
   <trkpt lat="53.026133" lon="8.883591"><ele>5.5</ele></trkpt>
   <trkpt lat="53.026136" lon="8.883596"><ele>5.5</ele></trkpt>
   <trkpt lat="53.02619" lon="8.883688"><ele>5.25</ele></trkpt>
   <trkpt lat="53.0269" lon="8.884889"><ele>5.75</ele></trkpt>
   <trkpt lat="53.027375" lon="8.885691"><ele>5</ele></trkpt>
   <trkpt lat="53.02744" lon="8.8858"><ele>5</ele></trkpt>
   <trkpt lat="53.027479" lon="8.885872"><ele>5</ele></trkpt>
   <trkpt lat="53.028608" lon="8.887768"><ele>6.5</ele></trkpt>
   <trkpt lat="53.028668" lon="8.887877"><ele>6.5</ele></trkpt>
   <trkpt lat="53.02942" lon="8.889132"><ele>8.5</ele></trkpt>
   <trkpt lat="53.029938" lon="8.889914"><ele>9.75</ele></trkpt>
   <trkpt lat="53.030454" lon="8.89061"><ele>6.25</ele></trkpt>
   <trkpt lat="53.030743" lon="8.890969"><ele>4.75</ele></trkpt>
   <trkpt lat="53.03077" lon="8.891002"><ele>4.5</ele></trkpt>
   <trkpt lat="53.03089" lon="8.891152"><ele>4.5</ele></trkpt>
   <trkpt lat="53.031505" lon="8.891848"><ele>5</ele></trkpt>
   <trkpt lat="53.032054" lon="8.892383"><ele>5</ele></trkpt>
   <trkpt lat="53.032777" lon="8.893056"><ele>4.25</ele></trkpt>
   <trkpt lat="53.033081" lon="8.893294"><ele>3.5</ele></trkpt>
   <trkpt lat="53.033483" lon="8.89359"><ele>3.25</ele></trkpt>
   <trkpt lat="53.033556" lon="8.89364"><ele>3.5</ele></trkpt>
   <trkpt lat="53.033858" lon="8.893848"><ele>4.25</ele></trkpt>
   <trkpt lat="53.034078" lon="8.893985"><ele>4.75</ele></trkpt>
   <trkpt lat="53.034654" lon="8.894308"><ele>4.75</ele></trkpt>
   <trkpt lat="53.03485" lon="8.894416"><ele>4.75</ele></trkpt>
   <trkpt lat="53.035381" lon="8.894663"><ele>4.25</ele></trkpt>
   <trkpt lat="53.035587" lon="8.89475"><ele>4.5</ele></trkpt>
   <trkpt lat="53.035809" lon="8.89483"><ele>4.75</ele></trkpt>
   <trkpt lat="53.036795" lon="8.895136"><ele>5.5</ele></trkpt>
   <trkpt lat="53.037135" lon="8.895211"><ele>4.75</ele></trkpt>
   <trkpt lat="53.037327" lon="8.895253"><ele>4.25</ele></trkpt>
   <trkpt lat="53.038263" lon="8.895373"><ele>4</ele></trkpt>
   <trkpt lat="53.038766" lon="8.89539"><ele>4.75</ele></trkpt>
   <trkpt lat="53.039071" lon="8.895383"><ele>5.25</ele></trkpt>
   <trkpt lat="53.039218" lon="8.895371"><ele>5.25</ele></trkpt>
   <trkpt lat="53.039305" lon="8.895365"><ele>5.25</ele></trkpt>
   <trkpt lat="53.039348" lon="8.895361"><ele>5.25</ele></trkpt>
   <trkpt lat="53.039728" lon="8.895332"><ele>4.75</ele></trkpt>
   <trkpt lat="53.040201" lon="8.895258"><ele>4.75</ele></trkpt>
   <trkpt lat="53.040777" lon="8.895144"><ele>4.75</ele></trkpt>
   <trkpt lat="53.041192" lon="8.895033"><ele>5</ele></trkpt>
   <trkpt lat="53.041507" lon="8.894928"><ele>5</ele></trkpt>
   <trkpt lat="53.042147" lon="8.894685"><ele>6</ele></trkpt>
   <trkpt lat="53.04286" lon="8.894336"><ele>7.25</ele></trkpt>
   <trkpt lat="53.042893" lon="8.894319"><ele>7</ele></trkpt>
   <trkpt lat="53.043037" lon="8.894245"><ele>7</ele></trkpt>
   <trkpt lat="53.0436" lon="8.893912"><ele>7.25</ele></trkpt>
   <trkpt lat="53.045794" lon="8.892479"><ele>9</ele></trkpt>
   <trkpt lat="53.046339" lon="8.892125"><ele>7.25</ele></trkpt>
   <trkpt lat="53.046534" lon="8.892008"><ele>6.5</ele></trkpt>
   <trkpt lat="53.046707" lon="8.891901"><ele>5.75</ele></trkpt>
   <trkpt lat="53.04674" lon="8.891879"><ele>5.75</ele></trkpt>
   <trkpt lat="53.047508" lon="8.891432"><ele>5.25</ele></trkpt>
   <trkpt lat="53.047598" lon="8.891372"><ele>5.25</ele></trkpt>
   <trkpt lat="53.047668" lon="8.891326"><ele>5.25</ele></trkpt>
   <trkpt lat="53.047841" lon="8.89121"><ele>5.5</ele></trkpt>
   <trkpt lat="53.047906" lon="8.891166"><ele>5.5</ele></trkpt>
   <trkpt lat="53.048266" lon="8.890941"><ele>5</ele></trkpt>
   <trkpt lat="53.04885" lon="8.890559"><ele>4.75</ele></trkpt>
   <trkpt lat="53.048897" lon="8.890528"><ele>4.75</ele></trkpt>
   <trkpt lat="53.050075" lon="8.889752"><ele>7.25</ele></trkpt>
   <trkpt lat="53.050419" lon="8.889528"><ele>7.25</ele></trkpt>
   <trkpt lat="53.051696" lon="8.888719"><ele>5.25</ele></trkpt>
   <trkpt lat="53.053345" lon="8.88764"><ele>7</ele></trkpt>
   <trkpt lat="53.054699" lon="8.886742"><ele>7.25</ele></trkpt>
   <trkpt lat="53.054775" lon="8.886692"><ele>7.25</ele></trkpt>
   <trkpt lat="53.054897" lon="8.886612"><ele>7</ele></trkpt>
   <trkpt lat="53.055032" lon="8.886523"><ele>7.25</ele></trkpt>
   <trkpt lat="53.055875" lon="8.885957"><ele>9</ele></trkpt>
   <trkpt lat="53.056025" lon="8.885853"><ele>9</ele></trkpt>
   <trkpt lat="53.056034" lon="8.885847"><ele>9</ele></trkpt>
   <trkpt lat="53.05629" lon="8.885668"><ele>9</ele></trkpt>
   <trkpt lat="53.057107" lon="8.885135"><ele>10</ele></trkpt>
   <trkpt lat="53.058421" lon="8.884241"><ele>4.25</ele></trkpt>
   <trkpt lat="53.059156" lon="8.883715"><ele>5.25</ele></trkpt>
   <trkpt lat="53.059797" lon="8.883237"><ele>7</ele></trkpt>
   <trkpt lat="53.060086" lon="8.883024"><ele>7.25</ele></trkpt>
   <trkpt lat="53.061166" lon="8.882188"><ele>5.75</ele></trkpt>
   <trkpt lat="53.061259" lon="8.882117"><ele>6</ele></trkpt>
   <trkpt lat="53.062199" lon="8.881391"><ele>7.25</ele></trkpt>
   <trkpt lat="53.062702" lon="8.881002"><ele>6.75</ele></trkpt>
   <trkpt lat="53.064104" lon="8.87995"><ele>6</ele></trkpt>
   <trkpt lat="53.064884" lon="8.879364"><ele>5.75</ele></trkpt>
   <trkpt lat="53.065215" lon="8.879112"><ele>5.75</ele></trkpt>
   <trkpt lat="53.066013" lon="8.878491"><ele>5.5</ele></trkpt>
   <trkpt lat="53.066305" lon="8.87826"><ele>5.25</ele></trkpt>
   <trkpt lat="53.066368" lon="8.878209"><ele>5.25</ele></trkpt>
   <trkpt lat="53.067453" lon="8.877347"><ele>5</ele></trkpt>
   <trkpt lat="53.067671" lon="8.877161"><ele>7</ele></trkpt>
   <trkpt lat="53.068074" lon="8.876818"><ele>7</ele></trkpt>
   <trkpt lat="53.068748" lon="8.876202"><ele>5.75</ele></trkpt>
   <trkpt lat="53.068969" lon="8.875995"><ele>5.25</ele></trkpt>
   <trkpt lat="53.069436" lon="8.875532"><ele>4.5</ele></trkpt>
   <trkpt lat="53.0697" lon="8.875252"><ele>4.25</ele></trkpt>
   <trkpt lat="53.069793" lon="8.875153"><ele>4</ele></trkpt>
   <trkpt lat="53.070282" lon="8.874607"><ele>4.25</ele></trkpt>
   <trkpt lat="53.070651" lon="8.874146"><ele>5</ele></trkpt>
   <trkpt lat="53.070884" lon="8.873835"><ele>5</ele></trkpt>
   <trkpt lat="53.071111" lon="8.873514"><ele>5.25</ele></trkpt>
   <trkpt lat="53.071648" lon="8.872652"><ele>5.75</ele></trkpt>
   <trkpt lat="53.071861" lon="8.872265"><ele>5.75</ele></trkpt>
   <trkpt lat="53.071985" lon="8.872041"><ele>5.5</ele></trkpt>
   <trkpt lat="53.072386" lon="8.871237"><ele>5</ele></trkpt>
   <trkpt lat="53.072622" lon="8.870721"><ele>5</ele></trkpt>
   <trkpt lat="53.072906" lon="8.870015"><ele>5</ele></trkpt>
   <trkpt lat="53.073159" lon="8.869313"><ele>5.5</ele></trkpt>
   <trkpt lat="53.073394" lon="8.868491"><ele>5.75</ele></trkpt>
   <trkpt lat="53.07346" lon="8.868253"><ele>5.5</ele></trkpt>
   <trkpt lat="53.073592" lon="8.867739"><ele>5.5</ele></trkpt>
   <trkpt lat="53.073716" lon="8.867201"><ele>5.5</ele></trkpt>
   <trkpt lat="53.0739" lon="8.866276"><ele>5</ele></trkpt>
   <trkpt lat="53.074293" lon="8.86408"><ele>3.75</ele></trkpt>
   <trkpt lat="53.074776" lon="8.861359"><ele>4.25</ele></trkpt>
   <trkpt lat="53.0749" lon="8.860599"><ele>4</ele></trkpt>
   <trkpt lat="53.075056" lon="8.859576"><ele>3.75</ele></trkpt>
   <trkpt lat="53.075208" lon="8.858493"><ele>3.75</ele></trkpt>
   <trkpt lat="53.075241" lon="8.858253"><ele>5.25</ele></trkpt>
   <trkpt lat="53.075738" lon="8.854742"><ele>5.25</ele></trkpt>
   <trkpt lat="53.075787" lon="8.854425"><ele>5.5</ele></trkpt>
   <trkpt lat="53.076369" lon="8.85054"><ele>5.25</ele></trkpt>
   <trkpt lat="53.077143" lon="8.845083"><ele>6</ele></trkpt>
   <trkpt lat="53.077178" lon="8.844835"><ele>6.25</ele></trkpt>
   <trkpt lat="53.077507" lon="8.84252"><ele>7</ele></trkpt>
   <trkpt lat="53.078812" lon="8.83338"><ele>6.25</ele></trkpt>
   <trkpt lat="53.078848" lon="8.833126"><ele>6.5</ele></trkpt>
   <trkpt lat="53.079348" lon="8.829731"><ele>7.5</ele></trkpt>
   <trkpt lat="53.079457" lon="8.828992"><ele>7</ele></trkpt>
   <trkpt lat="53.079609" lon="8.828172"><ele>6.75</ele></trkpt>
   <trkpt lat="53.079672" lon="8.827827"><ele>6.25</ele></trkpt>
   <trkpt lat="53.079836" lon="8.826981"><ele>5.25</ele></trkpt>
   <trkpt lat="53.079958" lon="8.826364"><ele>5.25</ele></trkpt>
   <trkpt lat="53.080258" lon="8.824722"><ele>6.25</ele></trkpt>
   <trkpt lat="53.080405" lon="8.823955"><ele>5.75</ele></trkpt>
   <trkpt lat="53.080655" lon="8.822744"><ele>6.25</ele></trkpt>
   <trkpt lat="53.080934" lon="8.821538"><ele>7</ele></trkpt>
   <trkpt lat="53.081208" lon="8.820512"><ele>7.5</ele></trkpt>
   <trkpt lat="53.081371" lon="8.819885"><ele>8</ele></trkpt>
   <trkpt lat="53.081409" lon="8.819739"><ele>8</ele></trkpt>
   <trkpt lat="53.081472" lon="8.819504"><ele>7.75</ele></trkpt>
   <trkpt lat="53.081561" lon="8.818996"><ele>7.5</ele></trkpt>
   <trkpt lat="53.081659" lon="8.818617"><ele>7.75</ele></trkpt>
   <trkpt lat="53.081767" lon="8.8182"><ele>8.5</ele></trkpt>
   <trkpt lat="53.081869" lon="8.817613"><ele>10.5</ele></trkpt>
   <trkpt lat="53.081979" lon="8.817062"><ele>11.25</ele></trkpt>
   <trkpt lat="53.08219" lon="8.816251"><ele>9.5</ele></trkpt>
   <trkpt lat="53.082339" lon="8.815731"><ele>7.5</ele></trkpt>
   <trkpt lat="53.082509" lon="8.815246"><ele>7</ele></trkpt>
   <trkpt lat="53.082591" lon="8.815048"><ele>7</ele></trkpt>
   <trkpt lat="53.082869" lon="8.814426"><ele>8.5</ele></trkpt>
   <trkpt lat="53.083231" lon="8.813652"><ele>10.25</ele></trkpt>
   <trkpt lat="53.083269" lon="8.813572"><ele>10.5</ele></trkpt>
   <trkpt lat="53.083271" lon="8.81357"><ele>10.5</ele></trkpt>
   <trkpt lat="53.083509" lon="8.813074"><ele>9.75</ele></trkpt>
   <trkpt lat="53.083527" lon="8.813036"><ele>9.75</ele></trkpt>
   <trkpt lat="53.083598" lon="8.812887"><ele>9.25</ele></trkpt>
   <trkpt lat="53.083834" lon="8.812398"><ele>8.25</ele></trkpt>
   <trkpt lat="53.083892" lon="8.812277"><ele>8</ele></trkpt>
   <trkpt lat="53.083898" lon="8.812263"><ele>8</ele></trkpt>
   <trkpt lat="53.084465" lon="8.811069"><ele>7.25</ele></trkpt>
  </trkseg>
 </trk>
</gpx>