<?xml version="1.0" encoding="UTF-8"?>
<!-- track-length = 24623 filtered ascend = 24 plain-ascend = 23 cost=24623 energy=0.3kwh time=32m 50s -->
<gpx 
 xmlns="http://www.topografix.com/GPX/1/1" 
 xmlns:xsi="http://www.w3.org/2001/XMLSchema-instance" 
 xsi:schemaLocation="http://www.topografix.com/GPX/1/1 http://www.topografix.com/GPX/1/1/gpx.xsd" 
 version="1.1" 
 creator="BRouter-Web 0.18.1">
 <trk>
  <name>Laatzen -&gt; Himmelsthür</name>
  <trkseg>
   <trkpt lat="52.317707" lon="9.792294"><ele>67.5</ele></trkpt>
   <trkpt lat="52.317565" lon="9.792391"><ele>68.5</ele></trkpt>
   <trkpt lat="52.317502" lon="9.792435"><ele>68.75</ele></trkpt>
   <trkpt lat="52.317281" lon="9.792588"><ele>68.75</ele></trkpt>
   <trkpt lat="52.31654" lon="9.793129"><ele>67.75</ele></trkpt>
   <trkpt lat="52.315984" lon="9.793554"><ele>67.25</ele></trkpt>
   <trkpt lat="52.315537" lon="9.793908"><ele>67.75</ele></trkpt>
   <trkpt lat="52.315312" lon="9.794081"><ele>67.75</ele></trkpt>
   <trkpt lat="52.314789" lon="9.794517"><ele>68</ele></trkpt>
   <trkpt lat="52.314345" lon="9.794888"><ele>68</ele></trkpt>
   <trkpt lat="52.312902" lon="9.796139"><ele>64.75</ele></trkpt>
   <trkpt lat="52.31267" lon="9.796338"><ele>63.75</ele></trkpt>
   <trkpt lat="52.312106" lon="9.796824"><ele>62</ele></trkpt>
   <trkpt lat="52.310506" lon="9.798226"><ele>60.5</ele></trkpt>
   <trkpt lat="52.309352" lon="9.799228"><ele>60</ele></trkpt>
   <trkpt lat="52.309261" lon="9.799307"><ele>60</ele></trkpt>
   <trkpt lat="52.30862" lon="9.799864"><ele>61.25</ele></trkpt>
   <trkpt lat="52.306025" lon="9.802182"><ele>60</ele></trkpt>
   <trkpt lat="52.3058" lon="9.802378"><ele>59.75</ele></trkpt>
   <trkpt lat="52.305748" lon="9.802424"><ele>59.75</ele></trkpt>
   <trkpt lat="52.304676" lon="9.803451"><ele>60</ele></trkpt>
   <trkpt lat="52.30241" lon="9.805436"><ele>61.5</ele></trkpt>
   <trkpt lat="52.301753" lon="9.805989"><ele>61.75</ele></trkpt>
   <trkpt lat="52.301733" lon="9.806006"><ele>61.75</ele></trkpt>
   <trkpt lat="52.300923" lon="9.806678"><ele>62</ele></trkpt>
   <trkpt lat="52.299716" lon="9.807681"><ele>62.75</ele></trkpt>
   <trkpt lat="52.295351" lon="9.811423"><ele>66.5</ele></trkpt>
   <trkpt lat="52.29416" lon="9.812445"><ele>67</ele></trkpt>
   <trkpt lat="52.293965" lon="9.812611"><ele>67</ele></trkpt>
   <trkpt lat="52.292147" lon="9.814175"><ele>65.5</ele></trkpt>
   <trkpt lat="52.29214" lon="9.814181"><ele>65.5</ele></trkpt>
   <trkpt lat="52.290626" lon="9.81551"><ele>64.5</ele></trkpt>
   <trkpt lat="52.290128" lon="9.815948"><ele>65</ele></trkpt>
   <trkpt lat="52.289213" lon="9.816722"><ele>66</ele></trkpt>
   <trkpt lat="52.287872" lon="9.817856"><ele>62</ele></trkpt>
   <trkpt lat="52.286542" lon="9.81903"><ele>61.5</ele></trkpt>
   <trkpt lat="52.286134" lon="9.819388"><ele>61</ele></trkpt>
   <trkpt lat="52.286055" lon="9.819458"><ele>61</ele></trkpt>
   <trkpt lat="52.284555" lon="9.820758"><ele>63</ele></trkpt>
   <trkpt lat="52.284224" lon="9.821047"><ele>63.5</ele></trkpt>
   <trkpt lat="52.283638" lon="9.82156"><ele>62.25</ele></trkpt>
   <trkpt lat="52.283116" lon="9.822018"><ele>62.25</ele></trkpt>
   <trkpt lat="52.278865" lon="9.825711"><ele>59.5</ele></trkpt>
   <trkpt lat="52.278071" lon="9.8264"><ele>58.5</ele></trkpt>
   <trkpt lat="52.277473" lon="9.826934"><ele>58.5</ele></trkpt>
   <trkpt lat="52.276845" lon="9.827377"><ele>58.75</ele></trkpt>
   <trkpt lat="52.276153" lon="9.827974"><ele>59.25</ele></trkpt>
   <trkpt lat="52.274963" lon="9.829007"><ele>58.25</ele></trkpt>
   <trkpt lat="52.271555" lon="9.831935"><ele>57.25</ele></trkpt>
   <trkpt lat="52.270397" lon="9.832961"><ele>58.25</ele></trkpt>
   <trkpt lat="52.270023" lon="9.833293"><ele>58</ele></trkpt>
   <trkpt lat="52.269911" lon="9.833379"><ele>58</ele></trkpt>
   <trkpt lat="52.269199" lon="9.833929"><ele>58.5</ele></trkpt>
   <trkpt lat="52.269168" lon="9.833955"><ele>58.5</ele></trkpt>
   <trkpt lat="52.269086" lon="9.834026"><ele>58.75</ele></trkpt>
   <trkpt lat="52.268834" lon="9.834246"><ele>59</ele></trkpt>
   <trkpt lat="52.268363" lon="9.834657"><ele>59.5</ele></trkpt>
   <trkpt lat="52.268093" lon="9.834892"><ele>60</ele></trkpt>
   <trkpt lat="52.266894" lon="9.835936"><ele>59.5</ele></trkpt>
   <trkpt lat="52.266027" lon="9.83671"><ele>59.5</ele></trkpt>
   <trkpt lat="52.2628" lon="9.839573"><ele>58.5</ele></trkpt>
   <trkpt lat="52.260566" lon="9.841488"><ele>59.25</ele></trkpt>
   <trkpt lat="52.260399" lon="9.841631"><ele>59.25</ele></trkpt>
   <trkpt lat="52.258047" lon="9.843646"><ele>58.5</ele></trkpt>
   <trkpt lat="52.257611" lon="9.844028"><ele>58</ele></trkpt>
   <trkpt lat="52.255735" lon="9.845673"><ele>59</ele></trkpt>
   <trkpt lat="52.255662" lon="9.845739"><ele>59</ele></trkpt>
   <trkpt lat="52.255326" lon="9.846029"><ele>59</ele></trkpt>
   <trkpt lat="52.254258" lon="9.846945"><ele>59</ele></trkpt>
   <trkpt lat="52.252835" lon="9.848083"><ele>59</ele></trkpt>
   <trkpt lat="52.252072" lon="9.848572"><ele>59</ele></trkpt>
   <trkpt lat="52.251197" lon="9.849079"><ele>59.75</ele></trkpt>
   <trkpt lat="52.250768" lon="9.849282"><ele>60</ele></trkpt>
   <trkpt lat="52.250611" lon="9.849346"><ele>59.75</ele></trkpt>
   <trkpt lat="52.249983" lon="9.849603"><ele>59.5</ele></trkpt>
   <trkpt lat="52.249368" lon="9.849802"><ele>60.25</ele></trkpt>
   <trkpt lat="52.248555" lon="9.850001"><ele>60.25</ele></trkpt>
   <trkpt lat="52.247858" lon="9.850131"><ele>60</ele></trkpt>
   <trkpt lat="52.247243" lon="9.850196"><ele>60.25</ele></trkpt>
   <trkpt lat="52.246138" lon="9.850226"><ele>61</ele></trkpt>
   <trkpt lat="52.245631" lon="9.850204"><ele>61.25</ele></trkpt>
   <trkpt lat="52.24517" lon="9.850165"><ele>61.75</ele></trkpt>
   <trkpt lat="52.244735" lon="9.850087"><ele>61.5</ele></trkpt>
   <trkpt lat="52.244097" lon="9.849957"><ele>60.75</ele></trkpt>
   <trkpt lat="52.243289" lon="9.849749"><ele>59</ele></trkpt>
   <trkpt lat="52.242809" lon="9.849581"><ele>59.25</ele></trkpt>
   <trkpt lat="52.24205" lon="9.849265"><ele>60.25</ele></trkpt>
   <trkpt lat="52.241764" lon="9.849117"><ele>60.5</ele></trkpt>
   <trkpt lat="52.241466" lon="9.848963"><ele>60.5</ele></trkpt>
   <trkpt lat="52.241104" lon="9.848776"><ele>60.5</ele></trkpt>
   <trkpt lat="52.240391" lon="9.848347"><ele>60.75</ele></trkpt>
   <trkpt lat="52.239689" lon="9.847859"><ele>61.5</ele></trkpt>
   <trkpt lat="52.239579" lon="9.847783"><ele>61.5</ele></trkpt>
   <trkpt lat="52.238938" lon="9.847321"><ele>62.5</ele></trkpt>
   <trkpt lat="52.237415" lon="9.846166"><ele>62.25</ele></trkpt>
   <trkpt lat="52.23686" lon="9.845758"><ele>62</ele></trkpt>
   <trkpt lat="52.236528" lon="9.845523"><ele>62</ele></trkpt>
   <trkpt lat="52.236373" lon="9.845407"><ele>62</ele></trkpt>
   <trkpt lat="52.235933" lon="9.845075"><ele>62</ele></trkpt>
   <trkpt lat="52.235355" lon="9.844645"><ele>62</ele></trkpt>
   <trkpt lat="52.235329" lon="9.844624"><ele>62</ele></trkpt>
   <trkpt lat="52.234964" lon="9.844365"><ele>62</ele></trkpt>
   <trkpt lat="52.234392" lon="9.843939"><ele>62</ele></trkpt>
   <trkpt lat="52.234138" lon="9.843743"><ele>62</ele></trkpt>
   <trkpt lat="52.233995" lon="9.843634"><ele>62</ele></trkpt>
   <trkpt lat="52.232289" lon="9.842368"><ele>64</ele></trkpt>
   <trkpt lat="52.231974" lon="9.842139"><ele>64</ele></trkpt>
   <trkpt lat="52.231931" lon="9.842107"><ele>64</ele></trkpt>
   <trkpt lat="52.231844" lon="9.842043"><ele>64</ele></trkpt>
   <trkpt lat="52.230371" lon="9.840941"><ele>63</ele></trkpt>
   <trkpt lat="52.229691" lon="9.840507"><ele>62.75</ele></trkpt>
   <trkpt lat="52.229063" lon="9.84004"><ele>62.25</ele></trkpt>
   <trkpt lat="52.225426" lon="9.837334"><ele>63.5</ele></trkpt>
   <trkpt lat="52.225312" lon="9.837247"><ele>63.5</ele></trkpt>
   <trkpt lat="52.225252" lon="9.837202"><ele>63.5</ele></trkpt>
   <trkpt lat="52.224403" lon="9.836573"><ele>63.5</ele></trkpt>
   <trkpt lat="52.221657" lon="9.83453"><ele>61.25</ele></trkpt>
   <trkpt lat="52.22055" lon="9.833728"><ele>61.5</ele></trkpt>
   <trkpt lat="52.220523" lon="9.833708"><ele>61.5</ele></trkpt>
   <trkpt lat="52.216683" lon="9.830844"><ele>60.75</ele></trkpt>
   <trkpt lat="52.216463" lon="9.83067"><ele>61.75</ele></trkpt>
   <trkpt lat="52.212804" lon="9.82796"><ele>60.5</ele></trkpt>
   <trkpt lat="52.208948" lon="9.825093"><ele>64.75</ele></trkpt>
   <trkpt lat="52.208879" lon="9.825042"><ele>64.5</ele></trkpt>
   <trkpt lat="52.203649" lon="9.821154"><ele>65</ele></trkpt>
   <trkpt lat="52.201626" lon="9.819632"><ele>66.25</ele></trkpt>
   <trkpt lat="52.200851" lon="9.819061"><ele>66</ele></trkpt>
   <trkpt lat="52.200733" lon="9.818973"><ele>66</ele></trkpt>
   <trkpt lat="52.199979" lon="9.818408"><ele>68</ele></trkpt>
   <trkpt lat="52.199833" lon="9.818299"><ele>67.75</ele></trkpt>
   <trkpt lat="52.199754" lon="9.818243"><ele>67.75</ele></trkpt>
   <trkpt lat="52.199632" lon="9.818155"><ele>67.75</ele></trkpt>
   <trkpt lat="52.199622" lon="9.818148"><ele>67.75</ele></trkpt>
   <trkpt lat="52.198994" lon="9.817718"><ele>67.75</ele></trkpt>
   <trkpt lat="52.19849" lon="9.817385"><ele>67</ele></trkpt>
   <trkpt lat="52.198051" lon="9.817079"><ele>66.5</ele></trkpt>
   <trkpt lat="52.197507" lon="9.8167"><ele>66</ele></trkpt>
   <trkpt lat="52.196875" lon="9.816228"><ele>66.5</ele></trkpt>
   <trkpt lat="52.195227" lon="9.814989"><ele>67</ele></trkpt>
   <trkpt lat="52.194668" lon="9.814568"><ele>66.75</ele></trkpt>
   <trkpt lat="52.19265" lon="9.813048"><ele>67.25</ele></trkpt>
   <trkpt lat="52.192628" lon="9.813031"><ele>67.25</ele></trkpt>
   <trkpt lat="52.191926" lon="9.812508"><ele>67.5</ele></trkpt>
   <trkpt lat="52.191776" lon="9.812396"><ele>67.75</ele></trkpt>
   <trkpt lat="52.191163" lon="9.811937"><ele>68</ele></trkpt>
   <trkpt lat="52.188126" lon="9.809689"><ele>67.25</ele></trkpt>
   <trkpt lat="52.187812" lon="9.809465"><ele>67.75</ele></trkpt>
   <trkpt lat="52.187588" lon="9.809296"><ele>68</ele></trkpt>
   <trkpt lat="52.185572" lon="9.807821"><ele>66</ele></trkpt>
   <trkpt lat="52.185003" lon="9.807475"><ele>66.75</ele></trkpt>
   <trkpt lat="52.184468" lon="9.807149"><ele>67</ele></trkpt>
   <trkpt lat="52.184383" lon="9.807109"><ele>67.25</ele></trkpt>
   <trkpt lat="52.183887" lon="9.806901"><ele>67.25</ele></trkpt>
   <trkpt lat="52.183386" lon="9.806731"><ele>67</ele></trkpt>
   <trkpt lat="52.182964" lon="9.80662"><ele>66.5</ele></trkpt>
   <trkpt lat="52.182539" lon="9.806535"><ele>66</ele></trkpt>
   <trkpt lat="52.182118" lon="9.806479"><ele>66.5</ele></trkpt>
   <trkpt lat="52.181695" lon="9.806449"><ele>66.75</ele></trkpt>
   <trkpt lat="52.181272" lon="9.806447"><ele>67</ele></trkpt>
   <trkpt lat="52.181207" lon="9.806449"><ele>67</ele></trkpt>
   <trkpt lat="52.180667" lon="9.80649"><ele>67.5</ele></trkpt>
   <trkpt lat="52.180261" lon="9.80655"><ele>68.25</ele></trkpt>
   <trkpt lat="52.179844" lon="9.806637"><ele>68.75</ele></trkpt>
   <trkpt lat="52.179782" lon="9.806654"><ele>68.5</ele></trkpt>
   <trkpt lat="52.17945" lon="9.806747"><ele>68.25</ele></trkpt>
   <trkpt lat="52.17912" lon="9.806856"><ele>67.75</ele></trkpt>
   <trkpt lat="52.178792" lon="9.806983"><ele>67.5</ele></trkpt>
   <trkpt lat="52.178489" lon="9.807115"><ele>67</ele></trkpt>
   <trkpt lat="52.178189" lon="9.807262"><ele>67</ele></trkpt>
   <trkpt lat="52.177891" lon="9.807423"><ele>67.5</ele></trkpt>
   <trkpt lat="52.177597" lon="9.807598"><ele>68</ele></trkpt>
   <trkpt lat="52.177158" lon="9.807889"><ele>68.25</ele></trkpt>
   <trkpt lat="52.176728" lon="9.80821"><ele>68.75</ele></trkpt>
   <trkpt lat="52.176307" lon="9.808561"><ele>69.75</ele></trkpt>
   <trkpt lat="52.176197" lon="9.808663"><ele>70</ele></trkpt>
   <trkpt lat="52.175896" lon="9.808943"><ele>70.75</ele></trkpt>
   <trkpt lat="52.175497" lon="9.809351"><ele>71</ele></trkpt>
   <trkpt lat="52.175109" lon="9.809787"><ele>71.5</ele></trkpt>
   <trkpt lat="52.174734" lon="9.810251"><ele>72.25</ele></trkpt>
   <trkpt lat="52.174371" lon="9.810741"><ele>72.75</ele></trkpt>
   <trkpt lat="52.174082" lon="9.811163"><ele>73.25</ele></trkpt>
   <trkpt lat="52.173803" lon="9.811601"><ele>74.25</ele></trkpt>
   <trkpt lat="52.173534" lon="9.812055"><ele>74.75</ele></trkpt>
   <trkpt lat="52.173291" lon="9.812496"><ele>75</ele></trkpt>
   <trkpt lat="52.173057" lon="9.812949"><ele>74.5</ele></trkpt>
   <trkpt lat="52.172766" lon="9.81356"><ele>74.5</ele></trkpt>
   <trkpt lat="52.172491" lon="9.81419"><ele>74.75</ele></trkpt>
   <trkpt lat="52.172234" lon="9.814839"><ele>74.75</ele></trkpt>
   <trkpt lat="52.171995" lon="9.815506"><ele>74.75</ele></trkpt>
   <trkpt lat="52.171775" lon="9.816185"><ele>74</ele></trkpt>
   <trkpt lat="52.171574" lon="9.816879"><ele>73</ele></trkpt>
   <trkpt lat="52.171391" lon="9.817587"><ele>73.25</ele></trkpt>
   <trkpt lat="52.171247" lon="9.81822"><ele>73.75</ele></trkpt>
   <trkpt lat="52.171227" lon="9.818306"><ele>73.75</ele></trkpt>
   <trkpt lat="52.171039" lon="9.819283"><ele>74</ele></trkpt>
   <trkpt lat="52.170886" lon="9.820275"><ele>74</ele></trkpt>
   <trkpt lat="52.170798" lon="9.821033"><ele>74</ele></trkpt>
   <trkpt lat="52.170769" lon="9.82128"><ele>74.5</ele></trkpt>
   <trkpt lat="52.170696" lon="9.822168"><ele>75</ele></trkpt>
   <trkpt lat="52.17065" lon="9.823061"><ele>74.25</ele></trkpt>
   <trkpt lat="52.17065" lon="9.82308"><ele>74.25</ele></trkpt>
   <trkpt lat="52.170633" lon="9.823898"><ele>74</ele></trkpt>
   <trkpt lat="52.17064" lon="9.824735"><ele>74.75</ele></trkpt>
   <trkpt lat="52.170659" lon="9.825572"><ele>75</ele></trkpt>
   <trkpt lat="52.17066" lon="9.825601"><ele>75</ele></trkpt>
   <trkpt lat="52.170674" lon="9.826061"><ele>75</ele></trkpt>
   <trkpt lat="52.170716" lon="9.828216"><ele>77.75</ele></trkpt>
   <trkpt lat="52.170737" lon="9.828841"><ele>78</ele></trkpt>
   <trkpt lat="52.17077" lon="9.829931"><ele>78.75</ele></trkpt>
   <trkpt lat="52.170818" lon="9.831338"><ele>79</ele></trkpt>
   <trkpt lat="52.170827" lon="9.831997"><ele>79</ele></trkpt>
   <trkpt lat="52.170837" lon="9.833169"><ele>79.75</ele></trkpt>
   <trkpt lat="52.17079" lon="9.834613"><ele>80.5</ele></trkpt>
   <trkpt lat="52.17066" lon="9.836151"><ele>81.5</ele></trkpt>
   <trkpt lat="52.17054" lon="9.837169"><ele>82.25</ele></trkpt>
   <trkpt lat="52.170346" lon="9.83839"><ele>81.5</ele></trkpt>
   <trkpt lat="52.17016" lon="9.839299"><ele>81.75</ele></trkpt>
   <trkpt lat="52.169734" lon="9.84104"><ele>83</ele></trkpt>
   <trkpt lat="52.169463" lon="9.841967"><ele>82.75</ele></trkpt>
   <trkpt lat="52.168895" lon="9.843881"><ele>82.5</ele></trkpt>
   <trkpt lat="52.168199" lon="9.846249"><ele>81.75</ele></trkpt>
   <trkpt lat="52.168006" lon="9.846874"><ele>81.5</ele></trkpt>
   <trkpt lat="52.167737" lon="9.847783"><ele>81.25</ele></trkpt>
   <trkpt lat="52.1673" lon="9.849291"><ele>81.5</ele></trkpt>
   <trkpt lat="52.167178" lon="9.849705"><ele>81.25</ele></trkpt>
   <trkpt lat="52.166888" lon="9.850705"><ele>81.25</ele></trkpt>
   <trkpt lat="52.166396" lon="9.852358"><ele>82</ele></trkpt>
   <trkpt lat="52.165672" lon="9.85487"><ele>81.75</ele></trkpt>
   <trkpt lat="52.165101" lon="9.856872"><ele>81.75</ele></trkpt>
   <trkpt lat="52.163573" lon="9.86204"><ele>85</ele></trkpt>
   <trkpt lat="52.16256" lon="9.865395"><ele>87.25</ele></trkpt>
   <trkpt lat="52.162301" lon="9.86628"><ele>86.75</ele></trkpt>
   <trkpt lat="52.162186" lon="9.866664"><ele>86.75</ele></trkpt>
   <trkpt lat="52.161954" lon="9.867483"><ele>86.25</ele></trkpt>
   <trkpt lat="52.161919" lon="9.867607"><ele>86</ele></trkpt>
   <trkpt lat="52.161407" lon="9.869544"><ele>85</ele></trkpt>
   <trkpt lat="52.16122" lon="9.870398"><ele>85.25</ele></trkpt>
   <trkpt lat="52.160681" lon="9.873284"><ele>84</ele></trkpt>
   <trkpt lat="52.160611" lon="9.873665"><ele>84.25</ele></trkpt>
   <trkpt lat="52.160347" lon="9.875577"><ele>85.25</ele></trkpt>
   <trkpt lat="52.160245" lon="9.876533"><ele>86.5</ele></trkpt>
   <trkpt lat="52.160181" lon="9.877142"><ele>86.75</ele></trkpt>
   <trkpt lat="52.16002" lon="9.878902"><ele>85.75</ele></trkpt>
   <trkpt lat="52.159957" lon="9.879777"><ele>86</ele></trkpt>
   <trkpt lat="52.15991" lon="9.880568"><ele>86</ele></trkpt>
   <trkpt lat="52.159841" lon="9.882678"><ele>87</ele></trkpt>
   <trkpt lat="52.159819" lon="9.885009"><ele>89</ele></trkpt>
   <trkpt lat="52.159815" lon="9.88559"><ele>89</ele></trkpt>
   <trkpt lat="52.159814" lon="9.885609"><ele>89</ele></trkpt>
   <trkpt lat="52.15981" lon="9.885959"><ele>89</ele></trkpt>
   <trkpt lat="52.159825" lon="9.887796"><ele>89.75</ele></trkpt>
   <trkpt lat="52.159826" lon="9.888851"><ele>89.75</ele></trkpt>
   <trkpt lat="52.159809" lon="9.891234"><ele>90</ele></trkpt>
   <trkpt lat="52.159803" lon="9.892286"><ele>90.5</ele></trkpt>
   <trkpt lat="52.159788" lon="9.894317"><ele>90.25</ele></trkpt>
   <trkpt lat="52.159776" lon="9.895931"><ele>90.75</ele></trkpt>
   <trkpt lat="52.159772" lon="9.896657"><ele>90</ele></trkpt>
   <trkpt lat="52.159763" lon="9.897678"><ele>89</ele></trkpt>
   <trkpt lat="52.159754" lon="9.898847"><ele>88.25</ele></trkpt>
   <trkpt lat="52.159751" lon="9.899227"><ele>88.25</ele></trkpt>
   <trkpt lat="52.159751" lon="9.899398"><ele>88.25</ele></trkpt>
   <trkpt lat="52.159749" lon="9.899673"><ele>88.5</ele></trkpt>
   <trkpt lat="52.159745" lon="9.900186"><ele>89</ele></trkpt>
   <trkpt lat="52.159728" lon="9.902509"><ele>89.25</ele></trkpt>
   <trkpt lat="52.159701" lon="9.906014"><ele>89.75</ele></trkpt>
   <trkpt lat="52.159694" lon="9.906915"><ele>90</ele></trkpt>
   <trkpt lat="52.159677" lon="9.907826"><ele>90.25</ele></trkpt>
  </trkseg>
 </trk>
</gpx>