<?xml version="1.0" encoding="UTF-8"?>
<!-- track-length = 53665 filtered ascend = 32 plain-ascend = 5 cost=53665 energy=.7kwh time=1h 11m 33s -->
<gpx 
 xmlns="http://www.topografix.com/GPX/1/1" 
 xmlns:xsi="http://www.w3.org/2001/XMLSchema-instance" 
 xsi:schemaLocation="http://www.topografix.com/GPX/1/1 http://www.topografix.com/GPX/1/1/gpx.xsd" 
 creator="BRouter-1.7.0" version="1.1">
 <trk>
  <name>Lacshkoder</name>
  <trkseg>
   <trkpt lon="19.700589" lat="41.637855"><ele>7.5</ele></trkpt>
   <trkpt lon="19.700590" lat="41.637864"><ele>7.5</ele></trkpt>
   <trkpt lon="19.700710" lat="41.638857"><ele>7.0</ele></trkpt>
   <trkpt lon="19.700699" lat="41.639322"><ele>7.25</ele></trkpt>
   <trkpt lon="19.700741" lat="41.639781"><ele>7.5</ele></trkpt>
   <trkpt lon="19.701047" lat="41.642356"><ele>7.25</ele></trkpt>
   <trkpt lon="19.701104" lat="41.643179"><ele>7.75</ele></trkpt>
   <trkpt lon="19.701114" lat="41.643914"><ele>7.0</ele></trkpt>
   <trkpt lon="19.701078" lat="41.644684"><ele>7.75</ele></trkpt>
   <trkpt lon="19.700696" lat="41.646080"><ele>10.25</ele></trkpt>
   <trkpt lon="19.700129" lat="41.647464"><ele>9.0</ele></trkpt>
   <trkpt lon="19.699082" lat="41.650235"><ele>7.5</ele></trkpt>
   <trkpt lon="19.698984" lat="41.650564"><ele>9.5</ele></trkpt>
   <trkpt lon="19.698956" lat="41.650679"><ele>10.25</ele></trkpt>
   <trkpt lon="19.698899" lat="41.651094"><ele>10.75</ele></trkpt>
   <trkpt lon="19.698887" lat="41.651483"><ele>10.25</ele></trkpt>
   <trkpt lon="19.698882" lat="41.651632"><ele>10.0</ele></trkpt>
   <trkpt lon="19.698922" lat="41.652239"><ele>8.5</ele></trkpt>
   <trkpt lon="19.699252" lat="41.653210"><ele>8.0</ele></trkpt>
   <trkpt lon="19.699453" lat="41.653596"><ele>7.25</ele></trkpt>
   <trkpt lon="19.699923" lat="41.654293"><ele>6.5</ele></trkpt>
   <trkpt lon="19.700861" lat="41.655315"><ele>6.5</ele></trkpt>
   <trkpt lon="19.703548" lat="41.657976"><ele>6.75</ele></trkpt>
   <trkpt lon="19.704508" lat="41.658909"><ele>7.5</ele></trkpt>
   <trkpt lon="19.704983" lat="41.659459"><ele>8.0</ele></trkpt>
   <trkpt lon="19.705272" lat="41.659888"><ele>8.25</ele></trkpt>
   <trkpt lon="19.705645" lat="41.660604"><ele>7.5</ele></trkpt>
   <trkpt lon="19.705744" lat="41.660948"><ele>7.0</ele></trkpt>
   <trkpt lon="19.705844" lat="41.661333"><ele>8.0</ele></trkpt>
   <trkpt lon="19.705910" lat="41.661770"><ele>8.75</ele></trkpt>
   <trkpt lon="19.705926" lat="41.662337"><ele>8.25</ele></trkpt>
   <trkpt lon="19.705919" lat="41.667849"><ele>7.0</ele></trkpt>
   <trkpt lon="19.705931" lat="41.670828"><ele>7.25</ele></trkpt>
   <trkpt lon="19.705934" lat="41.671461"><ele>7.25</ele></trkpt>
   <trkpt lon="19.705948" lat="41.673517"><ele>11.0</ele></trkpt>
   <trkpt lon="19.705979" lat="41.673840"><ele>12.25</ele></trkpt>
   <trkpt lon="19.706046" lat="41.674239"><ele>14.0</ele></trkpt>
   <trkpt lon="19.706084" lat="41.674476"><ele>14.75</ele></trkpt>
   <trkpt lon="19.706123" lat="41.674720"><ele>15.5</ele></trkpt>
   <trkpt lon="19.706167" lat="41.674921"><ele>16.0</ele></trkpt>
   <trkpt lon="19.706234" lat="41.675155"><ele>15.0</ele></trkpt>
   <trkpt lon="19.706375" lat="41.675506"><ele>12.75</ele></trkpt>
   <trkpt lon="19.706479" lat="41.675708"><ele>11.75</ele></trkpt>
   <trkpt lon="19.706690" lat="41.676034"><ele>11.0</ele></trkpt>
   <trkpt lon="19.706820" lat="41.676219"><ele>11.5</ele></trkpt>
   <trkpt lon="19.707287" lat="41.676800"><ele>13.0</ele></trkpt>
   <trkpt lon="19.707705" lat="41.677296"><ele>15.5</ele></trkpt>
   <trkpt lon="19.708092" lat="41.677768"><ele>15.0</ele></trkpt>
   <trkpt lon="19.708446" lat="41.678221"><ele>14.0</ele></trkpt>
   <trkpt lon="19.708668" lat="41.678544"><ele>13.25</ele></trkpt>
   <trkpt lon="19.708891" lat="41.678827"><ele>12.75</ele></trkpt>
   <trkpt lon="19.709076" lat="41.679102"><ele>12.0</ele></trkpt>
   <trkpt lon="19.709352" lat="41.679456"><ele>11.5</ele></trkpt>
   <trkpt lon="19.709691" lat="41.679879"><ele>11.75</ele></trkpt>
   <trkpt lon="19.709860" lat="41.680145"><ele>11.25</ele></trkpt>
   <trkpt lon="19.710025" lat="41.680476"><ele>9.0</ele></trkpt>
   <trkpt lon="19.710106" lat="41.680700"><ele>7.5</ele></trkpt>
   <trkpt lon="19.710158" lat="41.680982"><ele>7.5</ele></trkpt>
   <trkpt lon="19.710177" lat="41.681171"><ele>9.0</ele></trkpt>
   <trkpt lon="19.710181" lat="41.681353"><ele>10.0</ele></trkpt>
   <trkpt lon="19.710162" lat="41.681525"><ele>11.25</ele></trkpt>
   <trkpt lon="19.710127" lat="41.681697"><ele>12.0</ele></trkpt>
   <trkpt lon="19.710058" lat="41.681908"><ele>12.5</ele></trkpt>
   <trkpt lon="19.709965" lat="41.682123"><ele>13.0</ele></trkpt>
   <trkpt lon="19.709836" lat="41.682388"><ele>13.5</ele></trkpt>
   <trkpt lon="19.709741" lat="41.682533"><ele>13.5</ele></trkpt>
   <trkpt lon="19.709631" lat="41.682674"><ele>13.25</ele></trkpt>
   <trkpt lon="19.709510" lat="41.682804"><ele>13.5</ele></trkpt>
   <trkpt lon="19.709380" lat="41.682929"><ele>14.0</ele></trkpt>
   <trkpt lon="19.709117" lat="41.683150"><ele>15.25</ele></trkpt>
   <trkpt lon="19.708425" lat="41.683686"><ele>15.75</ele></trkpt>
   <trkpt lon="19.701832" lat="41.688794"><ele>16.0</ele></trkpt>
   <trkpt lon="19.700922" lat="41.689493"><ele>16.0</ele></trkpt>
   <trkpt lon="19.700738" lat="41.689634"><ele>16.25</ele></trkpt>
   <trkpt lon="19.696696" lat="41.692740"><ele>14.25</ele></trkpt>
   <trkpt lon="19.696160" lat="41.693233"><ele>13.25</ele></trkpt>
   <trkpt lon="19.695851" lat="41.693554"><ele>10.5</ele></trkpt>
   <trkpt lon="19.695809" lat="41.693606"><ele>10.25</ele></trkpt>
   <trkpt lon="19.695520" lat="41.693961"><ele>9.25</ele></trkpt>
   <trkpt lon="19.695189" lat="41.694417"><ele>9.0</ele></trkpt>
   <trkpt lon="19.693730" lat="41.696676"><ele>12.0</ele></trkpt>
   <trkpt lon="19.692550" lat="41.698529"><ele>11.75</ele></trkpt>
   <trkpt lon="19.692394" lat="41.698772"><ele>11.5</ele></trkpt>
   <trkpt lon="19.691541" lat="41.699964"><ele>8.5</ele></trkpt>
   <trkpt lon="19.689723" lat="41.702513"><ele>7.0</ele></trkpt>
   <trkpt lon="19.689078" lat="41.703451"><ele>4.25</ele></trkpt>
   <trkpt lon="19.688868" lat="41.703829"><ele>5.5</ele></trkpt>
   <trkpt lon="19.687159" lat="41.708174"><ele>3.5</ele></trkpt>
   <trkpt lon="19.686404" lat="41.710240"><ele>2.5</ele></trkpt>
   <trkpt lon="19.686074" lat="41.711369"><ele>0.75</ele></trkpt>
   <trkpt lon="19.686018" lat="41.711867"><ele>2.0</ele></trkpt>
   <trkpt lon="19.686034" lat="41.712282"><ele>2.5</ele></trkpt>
   <trkpt lon="19.686033" lat="41.712455"><ele>2.5</ele></trkpt>
   <trkpt lon="19.686034" lat="41.712560"><ele>2.75</ele></trkpt>
   <trkpt lon="19.686146" lat="41.718132"><ele>0.25</ele></trkpt>
   <trkpt lon="19.686213" lat="41.720895"><ele>2.75</ele></trkpt>
   <trkpt lon="19.686365" lat="41.725401"><ele>0.0</ele></trkpt>
   <trkpt lon="19.686373" lat="41.728378"><ele>0.0</ele></trkpt>
   <trkpt lon="19.686259" lat="41.729467"><ele>-1.25</ele></trkpt>
   <trkpt lon="19.685944" lat="41.731399"><ele>-1.25</ele></trkpt>
   <trkpt lon="19.685865" lat="41.732304"><ele>0.75</ele></trkpt>
   <trkpt lon="19.685718" lat="41.733231"><ele>0.0</ele></trkpt>
   <trkpt lon="19.685527" lat="41.733756"><ele>0.0</ele></trkpt>
   <trkpt lon="19.685295" lat="41.734270"><ele>-0.25</ele></trkpt>
   <trkpt lon="19.685161" lat="41.734528"><ele>0.0</ele></trkpt>
   <trkpt lon="19.684998" lat="41.734784"><ele>0.25</ele></trkpt>
   <trkpt lon="19.684823" lat="41.735016"><ele>0.75</ele></trkpt>
   <trkpt lon="19.684610" lat="41.735279"><ele>0.25</ele></trkpt>
   <trkpt lon="19.683077" lat="41.736883"><ele>-1.25</ele></trkpt>
   <trkpt lon="19.682345" lat="41.737632"><ele>0.25</ele></trkpt>
   <trkpt lon="19.681603" lat="41.738347"><ele>1.75</ele></trkpt>
   <trkpt lon="19.681501" lat="41.738453"><ele>1.5</ele></trkpt>
   <trkpt lon="19.677261" lat="41.742839"><ele>-0.75</ele></trkpt>
   <trkpt lon="19.671671" lat="41.748573"><ele>0.25</ele></trkpt>
   <trkpt lon="19.671031" lat="41.749183"><ele>0.25</ele></trkpt>
   <trkpt lon="19.670768" lat="41.749399"><ele>0.5</ele></trkpt>
   <trkpt lon="19.670453" lat="41.749641"><ele>0.0</ele></trkpt>
   <trkpt lon="19.670018" lat="41.749956"><ele>-1.0</ele></trkpt>
   <trkpt lon="19.669812" lat="41.750083"><ele>-1.0</ele></trkpt>
   <trkpt lon="19.667670" lat="41.751439"><ele>0.25</ele></trkpt>
   <trkpt lon="19.667506" lat="41.751551"><ele>0.0</ele></trkpt>
   <trkpt lon="19.665319" lat="41.752929"><ele>-1.0</ele></trkpt>
   <trkpt lon="19.660707" lat="41.755854"><ele>1.75</ele></trkpt>
   <trkpt lon="19.657628" lat="41.757742"><ele>-0.75</ele></trkpt>
   <trkpt lon="19.651583" lat="41.761630"><ele>-0.75</ele></trkpt>
   <trkpt lon="19.646723" lat="41.764685"><ele>2.25</ele></trkpt>
   <trkpt lon="19.643712" lat="41.766675"><ele>0.0</ele></trkpt>
   <trkpt lon="19.642571" lat="41.767547"><ele>0.75</ele></trkpt>
   <trkpt lon="19.642412" lat="41.767716"><ele>0.75</ele></trkpt>
   <trkpt lon="19.642273" lat="41.767883"><ele>0.25</ele></trkpt>
   <trkpt lon="19.642124" lat="41.768078"><ele>0.0</ele></trkpt>
   <trkpt lon="19.641976" lat="41.768294"><ele>-0.75</ele></trkpt>
   <trkpt lon="19.641065" lat="41.769778"><ele>1.0</ele></trkpt>
   <trkpt lon="19.640247" lat="41.771144"><ele>2.75</ele></trkpt>
   <trkpt lon="19.639581" lat="41.772297"><ele>1.0</ele></trkpt>
   <trkpt lon="19.639274" lat="41.772774"><ele>0.5</ele></trkpt>
   <trkpt lon="19.639019" lat="41.773216"><ele>0.25</ele></trkpt>
   <trkpt lon="19.638944" lat="41.773405"><ele>0.25</ele></trkpt>
   <trkpt lon="19.638886" lat="41.773582"><ele>0.0</ele></trkpt>
   <trkpt lon="19.638873" lat="41.773668"><ele>0.25</ele></trkpt>
   <trkpt lon="19.638812" lat="41.774064"><ele>-0.5</ele></trkpt>
   <trkpt lon="19.638753" lat="41.774816"><ele>0.75</ele></trkpt>
   <trkpt lon="19.638673" lat="41.776186"><ele>1.75</ele></trkpt>
   <trkpt lon="19.638592" lat="41.777493"><ele>3.0</ele></trkpt>
   <trkpt lon="19.638579" lat="41.777730"><ele>2.75</ele></trkpt>
   <trkpt lon="19.638427" lat="41.780633"><ele>0.75</ele></trkpt>
   <trkpt lon="19.638380" lat="41.781491"><ele>2.0</ele></trkpt>
   <trkpt lon="19.638330" lat="41.782100"><ele>4.0</ele></trkpt>
   <trkpt lon="19.638316" lat="41.782327"><ele>5.0</ele></trkpt>
   <trkpt lon="19.638295" lat="41.782873"><ele>5.5</ele></trkpt>
   <trkpt lon="19.638317" lat="41.783213"><ele>6.0</ele></trkpt>
   <trkpt lon="19.638414" lat="41.783524"><ele>6.5</ele></trkpt>
   <trkpt lon="19.638523" lat="41.783762"><ele>6.75</ele></trkpt>
   <trkpt lon="19.638640" lat="41.783953"><ele>7.0</ele></trkpt>
   <trkpt lon="19.638782" lat="41.784142"><ele>7.25</ele></trkpt>
   <trkpt lon="19.639171" lat="41.784529"><ele>7.75</ele></trkpt>
   <trkpt lon="19.639915" lat="41.785173"><ele>8.0</ele></trkpt>
   <trkpt lon="19.640146" lat="41.785390"><ele>6.0</ele></trkpt>
   <trkpt lon="19.641016" lat="41.786159"><ele>0.5</ele></trkpt>
   <trkpt lon="19.641225" lat="41.786387"><ele>0.5</ele></trkpt>
   <trkpt lon="19.641618" lat="41.786901"><ele>-1.0</ele></trkpt>
   <trkpt lon="19.642943" lat="41.788862"><ele>1.75</ele></trkpt>
   <trkpt lon="19.643478" lat="41.789652"><ele>1.5</ele></trkpt>
   <trkpt lon="19.645258" lat="41.792282"><ele>0.0</ele></trkpt>
   <trkpt lon="19.648639" lat="41.797339"><ele>3.25</ele></trkpt>
   <trkpt lon="19.649079" lat="41.798049"><ele>2.5</ele></trkpt>
   <trkpt lon="19.649309" lat="41.798421"><ele>1.25</ele></trkpt>
   <trkpt lon="19.649724" lat="41.799505"><ele>2.5</ele></trkpt>
   <trkpt lon="19.649892" lat="41.800289"><ele>1.0</ele></trkpt>
   <trkpt lon="19.650115" lat="41.802397"><ele>1.0</ele></trkpt>
   <trkpt lon="19.650679" lat="41.810345"><ele>4.5</ele></trkpt>
   <trkpt lon="19.650988" lat="41.814702"><ele>3.75</ele></trkpt>
   <trkpt lon="19.652072" lat="41.828069"><ele>6.25</ele></trkpt>
   <trkpt lon="19.652472" lat="41.834087"><ele>9.0</ele></trkpt>
   <trkpt lon="19.652694" lat="41.837201"><ele>6.5</ele></trkpt>
   <trkpt lon="19.653170" lat="41.844153"><ele>4.5</ele></trkpt>
   <trkpt lon="19.653500" lat="41.848280"><ele>5.75</ele></trkpt>
   <trkpt lon="19.653811" lat="41.852777"><ele>4.5</ele></trkpt>
   <trkpt lon="19.654146" lat="41.857637"><ele>7.25</ele></trkpt>
   <trkpt lon="19.654451" lat="41.861662"><ele>9.0</ele></trkpt>
   <trkpt lon="19.654638" lat="41.864317"><ele>8.5</ele></trkpt>
   <trkpt lon="19.655451" lat="41.875856"><ele>10.75</ele></trkpt>
   <trkpt lon="19.655603" lat="41.877382"><ele>10.0</ele></trkpt>
   <trkpt lon="19.655720" lat="41.878899"><ele>10.75</ele></trkpt>
   <trkpt lon="19.655818" lat="41.880002"><ele>9.75</ele></trkpt>
   <trkpt lon="19.655856" lat="41.880597"><ele>11.25</ele></trkpt>
   <trkpt lon="19.655895" lat="41.881592"><ele>12.0</ele></trkpt>
   <trkpt lon="19.655877" lat="41.882335"><ele>12.75</ele></trkpt>
   <trkpt lon="19.655834" lat="41.883157"><ele>13.0</ele></trkpt>
   <trkpt lon="19.655737" lat="41.883709"><ele>12.25</ele></trkpt>
   <trkpt lon="19.655475" lat="41.884895"><ele>10.75</ele></trkpt>
   <trkpt lon="19.655281" lat="41.885546"><ele>10.0</ele></trkpt>
   <trkpt lon="19.655120" lat="41.886173"><ele>9.75</ele></trkpt>
   <trkpt lon="19.655018" lat="41.886433"><ele>10.25</ele></trkpt>
   <trkpt lon="19.652397" lat="41.894059"><ele>17.25</ele></trkpt>
   <trkpt lon="19.651049" lat="41.897982"><ele>17.5</ele></trkpt>
   <trkpt lon="19.650485" lat="41.899753"><ele>19.25</ele></trkpt>
   <trkpt lon="19.648650" lat="41.904871"><ele>18.0</ele></trkpt>
   <trkpt lon="19.647879" lat="41.907198"><ele>17.25</ele></trkpt>
   <trkpt lon="19.643629" lat="41.919631"><ele>18.0</ele></trkpt>
   <trkpt lon="19.639688" lat="41.931159"><ele>18.75</ele></trkpt>
   <trkpt lon="19.636683" lat="41.940079"><ele>22.75</ele></trkpt>
   <trkpt lon="19.636613" lat="41.940271"><ele>22.0</ele></trkpt>
   <trkpt lon="19.635914" lat="41.942299"><ele>20.75</ele></trkpt>
   <trkpt lon="19.635706" lat="41.942910"><ele>21.75</ele></trkpt>
   <trkpt lon="19.635651" lat="41.943072"><ele>22.0</ele></trkpt>
   <trkpt lon="19.633874" lat="41.948152"><ele>26.0</ele></trkpt>
   <trkpt lon="19.633559" lat="41.949226"><ele>26.25</ele></trkpt>
   <trkpt lon="19.632998" lat="41.950709"><ele>27.5</ele></trkpt>
   <trkpt lon="19.632384" lat="41.952670"><ele>29.0</ele></trkpt>
   <trkpt lon="19.632326" lat="41.952855"><ele>29.25</ele></trkpt>
   <trkpt lon="19.630328" lat="41.958482"><ele>26.25</ele></trkpt>
   <trkpt lon="19.630086" lat="41.959166"><ele>25.0</ele></trkpt>
   <trkpt lon="19.628231" lat="41.964619"><ele>18.0</ele></trkpt>
   <trkpt lon="19.626337" lat="41.971508"><ele>17.25</ele></trkpt>
   <trkpt lon="19.625664" lat="41.973929"><ele>17.25</ele></trkpt>
   <trkpt lon="19.625289" lat="41.975130"><ele>17.75</ele></trkpt>
   <trkpt lon="19.624924" lat="41.976561"><ele>18.75</ele></trkpt>
   <trkpt lon="19.624776" lat="41.977192"><ele>18.0</ele></trkpt>
   <trkpt lon="19.624672" lat="41.977542"><ele>17.75</ele></trkpt>
   <trkpt lon="19.624477" lat="41.978033"><ele>18.25</ele></trkpt>
   <trkpt lon="19.624318" lat="41.978380"><ele>18.75</ele></trkpt>
   <trkpt lon="19.624150" lat="41.978655"><ele>18.5</ele></trkpt>
   <trkpt lon="19.623898" lat="41.979042"><ele>18.0</ele></trkpt>
   <trkpt lon="19.623640" lat="41.979401"><ele>18.0</ele></trkpt>
   <trkpt lon="19.623234" lat="41.979859"><ele>18.75</ele></trkpt>
   <trkpt lon="19.622610" lat="41.980677"><ele>19.0</ele></trkpt>
   <trkpt lon="19.622199" lat="41.981150"><ele>18.5</ele></trkpt>
   <trkpt lon="19.619846" lat="41.984026"><ele>17.0</ele></trkpt>
   <trkpt lon="19.619814" lat="41.984063"><ele>17.0</ele></trkpt>
   <trkpt lon="19.619716" lat="41.984184"><ele>16.5</ele></trkpt>
   <trkpt lon="19.619503" lat="41.984458"><ele>16.5</ele></trkpt>
   <trkpt lon="19.618210" lat="41.986021"><ele>15.5</ele></trkpt>
   <trkpt lon="19.617755" lat="41.986591"><ele>15.0</ele></trkpt>
   <trkpt lon="19.614800" lat="41.990184"><ele>16.0</ele></trkpt>
   <trkpt lon="19.614429" lat="41.990634"><ele>16.75</ele></trkpt>
   <trkpt lon="19.612462" lat="41.993019"><ele>18.0</ele></trkpt>
   <trkpt lon="19.611883" lat="41.993723"><ele>18.25</ele></trkpt>
   <trkpt lon="19.611724" lat="41.993931"><ele>18.0</ele></trkpt>
   <trkpt lon="19.611434" lat="41.994277"><ele>18.0</ele></trkpt>
   <trkpt lon="19.610920" lat="41.994969"><ele>18.75</ele></trkpt>
   <trkpt lon="19.610897" lat="41.995000"><ele>18.75</ele></trkpt>
   <trkpt lon="19.610791" lat="41.995123"><ele>19.0</ele></trkpt>
   <trkpt lon="19.609428" lat="41.996779"><ele>18.5</ele></trkpt>
   <trkpt lon="19.608917" lat="41.997432"><ele>19.5</ele></trkpt>
   <trkpt lon="19.608615" lat="41.997821"><ele>19.0</ele></trkpt>
   <trkpt lon="19.607633" lat="41.999026"><ele>17.5</ele></trkpt>
   <trkpt lon="19.607147" lat="41.999581"><ele>17.75</ele></trkpt>
   <trkpt lon="19.606650" lat="42.000066"><ele>18.0</ele></trkpt>
   <trkpt lon="19.605012" lat="42.001515"><ele>21.5</ele></trkpt>
   <trkpt lon="19.603530" lat="42.002855"><ele>20.75</ele></trkpt>
   <trkpt lon="19.603253" lat="42.003108"><ele>19.75</ele></trkpt>
   <trkpt lon="19.602380" lat="42.003897"><ele>18.0</ele></trkpt>
   <trkpt lon="19.600070" lat="42.005938"><ele>19.75</ele></trkpt>
   <trkpt lon="19.598121" lat="42.007697"><ele>20.0</ele></trkpt>
   <trkpt lon="19.597559" lat="42.008112"><ele>22.5</ele></trkpt>
   <trkpt lon="19.597271" lat="42.008305"><ele>23.0</ele></trkpt>
   <trkpt lon="19.596890" lat="42.008519"><ele>23.75</ele></trkpt>
   <trkpt lon="19.596253" lat="42.008802"><ele>27.0</ele></trkpt>
   <trkpt lon="19.595954" lat="42.008910"><ele>28.0</ele></trkpt>
   <trkpt lon="19.595586" lat="42.009028"><ele>27.75</ele></trkpt>
   <trkpt lon="19.594633" lat="42.009270"><ele>24.75</ele></trkpt>
   <trkpt lon="19.593768" lat="42.009453"><ele>27.25</ele></trkpt>
   <trkpt lon="19.593211" lat="42.009577"><ele>28.5</ele></trkpt>
   <trkpt lon="19.592096" lat="42.009852"><ele>24.0</ele></trkpt>
   <trkpt lon="19.591668" lat="42.009960"><ele>21.5</ele></trkpt>
   <trkpt lon="19.591449" lat="42.010010"><ele>21.0</ele></trkpt>
   <trkpt lon="19.584389" lat="42.011642"><ele>16.0</ele></trkpt>
   <trkpt lon="19.581850" lat="42.012218"><ele>17.25</ele></trkpt>
   <trkpt lon="19.578191" lat="42.013063"><ele>15.75</ele></trkpt>
   <trkpt lon="19.577803" lat="42.013148"><ele>16.25</ele></trkpt>
   <trkpt lon="19.577182" lat="42.013323"><ele>16.0</ele></trkpt>
   <trkpt lon="19.576870" lat="42.013418"><ele>15.25</ele></trkpt>
   <trkpt lon="19.575748" lat="42.013901"><ele>14.25</ele></trkpt>
   <trkpt lon="19.574796" lat="42.014474"><ele>15.25</ele></trkpt>
   <trkpt lon="19.573902" lat="42.015228"><ele>16.0</ele></trkpt>
   <trkpt lon="19.570469" lat="42.018251"><ele>12.5</ele></trkpt>
   <trkpt lon="19.568520" lat="42.019916"><ele>12.5</ele></trkpt>
   <trkpt lon="19.568325" lat="42.020077"><ele>13.0</ele></trkpt>
   <trkpt lon="19.564255" lat="42.023706"><ele>11.25</ele></trkpt>
   <trkpt lon="19.561429" lat="42.026179"><ele>11.25</ele></trkpt>
   <trkpt lon="19.561041" lat="42.026536"><ele>11.0</ele></trkpt>
   <trkpt lon="19.560858" lat="42.026671"><ele>10.75</ele></trkpt>
   <trkpt lon="19.557733" lat="42.029417"><ele>11.0</ele></trkpt>
   <trkpt lon="19.557253" lat="42.029833"><ele>10.25</ele></trkpt>
   <trkpt lon="19.556288" lat="42.030661"><ele>10.5</ele></trkpt>
   <trkpt lon="19.555076" lat="42.031725"><ele>9.0</ele></trkpt>
   <trkpt lon="19.554801" lat="42.031961"><ele>9.25</ele></trkpt>
   <trkpt lon="19.535811" lat="42.048612"><ele>8.0</ele></trkpt>
   <trkpt lon="19.535644" lat="42.048764"><ele>7.75</ele></trkpt>
   <trkpt lon="19.535444" lat="42.048952"><ele>7.75</ele></trkpt>
   <trkpt lon="19.532529" lat="42.051511"><ele>11.25</ele></trkpt>
   <trkpt lon="19.532469" lat="42.051564"><ele>11.25</ele></trkpt>
   <trkpt lon="19.530246" lat="42.053511"><ele>11.0</ele></trkpt>
   <trkpt lon="19.529805" lat="42.053894"><ele>11.0</ele></trkpt>
   <trkpt lon="19.528973" lat="42.054643"><ele>11.0</ele></trkpt>
   <trkpt lon="19.528687" lat="42.054925"><ele>11.0</ele></trkpt>
   <trkpt lon="19.528486" lat="42.055131"><ele>11.0</ele></trkpt>
   <trkpt lon="19.528195" lat="42.055543"><ele>11.25</ele></trkpt>
   <trkpt lon="19.528105" lat="42.055683"><ele>11.25</ele></trkpt>
   <trkpt lon="19.527952" lat="42.055966"><ele>11.5</ele></trkpt>
   <trkpt lon="19.527830" lat="42.056235"><ele>11.5</ele></trkpt>
   <trkpt lon="19.527707" lat="42.056611"><ele>11.75</ele></trkpt>
   <trkpt lon="19.527616" lat="42.057076"><ele>12.25</ele></trkpt>
   <trkpt lon="19.527594" lat="42.057338"><ele>12.5</ele></trkpt>
   <trkpt lon="19.527592" lat="42.057773"><ele>12.75</ele></trkpt>
   <trkpt lon="19.527650" lat="42.058766"><ele>12.25</ele></trkpt>
   <trkpt lon="19.527624" lat="42.059169"><ele>12.0</ele></trkpt>
   <trkpt lon="19.527594" lat="42.059597"><ele>12.75</ele></trkpt>
   <trkpt lon="19.527571" lat="42.059825"><ele>13.25</ele></trkpt>
   <trkpt lon="19.527546" lat="42.060214"><ele>13.5</ele></trkpt>
   <trkpt lon="19.527566" lat="42.060457"><ele>13.25</ele></trkpt>
   <trkpt lon="19.527603" lat="42.061200"><ele>13.25</ele></trkpt>
   <trkpt lon="19.527626" lat="42.061653"><ele>13.5</ele></trkpt>
   <trkpt lon="19.527690" lat="42.062677"><ele>12.5</ele></trkpt>
  </trkseg>
 </trk>
</gpx>
