<?xml version="1.0" encoding="UTF-8"?>
<!-- track-length = 43563 filtered ascend = 231 plain-ascend = -17 cost=43564 energy=0.5kwh time=58m 5s -->
<gpx 
 xmlns="http://www.topografix.com/GPX/1/1" 
 xmlns:xsi="http://www.w3.org/2001/XMLSchema-instance" 
 xsi:schemaLocation="http://www.topografix.com/GPX/1/1 http://www.topografix.com/GPX/1/1/gpx.xsd" 
 version="1.1" 
 creator="BRouter-Web 0.18.1">
 <trk>
  <name>Lamezia Terme - Catanzaro Lido</name>
  <trkseg>
   <trkpt lat="38.920928" lon="16.257396"><ele>25</ele></trkpt>
   <trkpt lat="38.921056" lon="16.257016"><ele>25.5</ele></trkpt>
   <trkpt lat="38.921499" lon="16.255635"><ele>28</ele></trkpt>
   <trkpt lat="38.921769" lon="16.254802"><ele>27.5</ele></trkpt>
   <trkpt lat="38.921917" lon="16.254341"><ele>26.75</ele></trkpt>
   <trkpt lat="38.922017" lon="16.253953"><ele>26.5</ele></trkpt>
   <trkpt lat="38.922146" lon="16.253348"><ele>26.5</ele></trkpt>
   <trkpt lat="38.922225" lon="16.253009"><ele>26.75</ele></trkpt>
   <trkpt lat="38.922349" lon="16.252571"><ele>26.75</ele></trkpt>
   <trkpt lat="38.922643" lon="16.251615"><ele>27.25</ele></trkpt>
   <trkpt lat="38.9227" lon="16.251458"><ele>27.25</ele></trkpt>
   <trkpt lat="38.92279" lon="16.25124"><ele>27.5</ele></trkpt>
   <trkpt lat="38.922904" lon="16.251008"><ele>27.5</ele></trkpt>
   <trkpt lat="38.923001" lon="16.250843"><ele>27.5</ele></trkpt>
   <trkpt lat="38.923252" lon="16.250469"><ele>27.25</ele></trkpt>
   <trkpt lat="38.923539" lon="16.250182"><ele>27.5</ele></trkpt>
   <trkpt lat="38.923801" lon="16.249985"><ele>27.25</ele></trkpt>
   <trkpt lat="38.923941" lon="16.249893"><ele>27</ele></trkpt>
   <trkpt lat="38.924105" lon="16.249796"><ele>26.5</ele></trkpt>
   <trkpt lat="38.924383" lon="16.249686"><ele>27</ele></trkpt>
   <trkpt lat="38.924516" lon="16.249644"><ele>27.25</ele></trkpt>
   <trkpt lat="38.924719" lon="16.249596"><ele>27.75</ele></trkpt>
   <trkpt lat="38.924903" lon="16.249573"><ele>28.5</ele></trkpt>
   <trkpt lat="38.92518" lon="16.249567"><ele>28.75</ele></trkpt>
   <trkpt lat="38.925465" lon="16.249596"><ele>28.75</ele></trkpt>
   <trkpt lat="38.925604" lon="16.249626"><ele>28.75</ele></trkpt>
   <trkpt lat="38.925786" lon="16.249693"><ele>29</ele></trkpt>
   <trkpt lat="38.925945" lon="16.24975"><ele>30.25</ele></trkpt>
   <trkpt lat="38.926203" lon="16.249883"><ele>32.5</ele></trkpt>
   <trkpt lat="38.926329" lon="16.249961"><ele>33.75</ele></trkpt>
   <trkpt lat="38.926501" lon="16.250083"><ele>35.25</ele></trkpt>
   <trkpt lat="38.926635" lon="16.250193"><ele>36.25</ele></trkpt>
   <trkpt lat="38.926761" lon="16.250309"><ele>37</ele></trkpt>
   <trkpt lat="38.926865" lon="16.250417"><ele>37.5</ele></trkpt>
   <trkpt lat="38.927099" lon="16.250714"><ele>39.25</ele></trkpt>
   <trkpt lat="38.927187" lon="16.25085"><ele>39.75</ele></trkpt>
   <trkpt lat="38.92732" lon="16.251078"><ele>40.75</ele></trkpt>
   <trkpt lat="38.927426" lon="16.251297"><ele>41.75</ele></trkpt>
   <trkpt lat="38.927609" lon="16.251755"><ele>43.25</ele></trkpt>
   <trkpt lat="38.927783" lon="16.252152"><ele>43.5</ele></trkpt>
   <trkpt lat="38.928556" lon="16.254054"><ele>43.5</ele></trkpt>
   <trkpt lat="38.9292" lon="16.255606"><ele>46</ele></trkpt>
   <trkpt lat="38.929346" lon="16.255935"><ele>46.25</ele></trkpt>
   <trkpt lat="38.929494" lon="16.256242"><ele>46.25</ele></trkpt>
   <trkpt lat="38.929612" lon="16.256461"><ele>46.25</ele></trkpt>
   <trkpt lat="38.929808" lon="16.25678"><ele>46.5</ele></trkpt>
   <trkpt lat="38.930011" lon="16.257073"><ele>47</ele></trkpt>
   <trkpt lat="38.930233" lon="16.25737"><ele>48</ele></trkpt>
   <trkpt lat="38.930475" lon="16.257647"><ele>49</ele></trkpt>
   <trkpt lat="38.930662" lon="16.257846"><ele>49.75</ele></trkpt>
   <trkpt lat="38.930903" lon="16.258071"><ele>50.5</ele></trkpt>
   <trkpt lat="38.931082" lon="16.258213"><ele>50.75</ele></trkpt>
   <trkpt lat="38.931405" lon="16.258455"><ele>51.75</ele></trkpt>
   <trkpt lat="38.931627" lon="16.258603"><ele>52.5</ele></trkpt>
   <trkpt lat="38.931906" lon="16.258769"><ele>53.25</ele></trkpt>
   <trkpt lat="38.939178" lon="16.262954"><ele>71.25</ele></trkpt>
   <trkpt lat="38.940697" lon="16.263778"><ele>76</ele></trkpt>
   <trkpt lat="38.940761" lon="16.263813"><ele>76.25</ele></trkpt>
   <trkpt lat="38.943255" lon="16.265235"><ele>86</ele></trkpt>
   <trkpt lat="38.946575" lon="16.267062"><ele>95.5</ele></trkpt>
   <trkpt lat="38.950185" lon="16.269156"><ele>103.5</ele></trkpt>
   <trkpt lat="38.954306" lon="16.271564"><ele>116.75</ele></trkpt>
   <trkpt lat="38.954836" lon="16.272022"><ele>118</ele></trkpt>
   <trkpt lat="38.955304" lon="16.272603"><ele>118.25</ele></trkpt>
   <trkpt lat="38.955673" lon="16.273296"><ele>120</ele></trkpt>
   <trkpt lat="38.956083" lon="16.274372"><ele>124.5</ele></trkpt>
   <trkpt lat="38.956456" lon="16.275384"><ele>127.25</ele></trkpt>
   <trkpt lat="38.957326" lon="16.277836"><ele>132.5</ele></trkpt>
   <trkpt lat="38.957373" lon="16.27797"><ele>132.75</ele></trkpt>
   <trkpt lat="38.957542" lon="16.278446"><ele>133</ele></trkpt>
   <trkpt lat="38.958049" lon="16.279798"><ele>135.25</ele></trkpt>
   <trkpt lat="38.958191" lon="16.280192"><ele>135.5</ele></trkpt>
   <trkpt lat="38.959428" lon="16.283673"><ele>143.5</ele></trkpt>
   <trkpt lat="38.959904" lon="16.284978"><ele>146.5</ele></trkpt>
   <trkpt lat="38.960435" lon="16.286434"><ele>146.25</ele></trkpt>
   <trkpt lat="38.960481" lon="16.286562"><ele>146.25</ele></trkpt>
   <trkpt lat="38.962058" lon="16.290876"><ele>151.75</ele></trkpt>
   <trkpt lat="38.962304" lon="16.291783"><ele>154.25</ele></trkpt>
   <trkpt lat="38.962462" lon="16.292558"><ele>152.75</ele></trkpt>
   <trkpt lat="38.962558" lon="16.293444"><ele>152.25</ele></trkpt>
   <trkpt lat="38.962761" lon="16.295495"><ele>154.25</ele></trkpt>
   <trkpt lat="38.962796" lon="16.295827"><ele>154.25</ele></trkpt>
   <trkpt lat="38.962977" lon="16.298141"><ele>153.25</ele></trkpt>
   <trkpt lat="38.963621" lon="16.304813"><ele>166</ele></trkpt>
   <trkpt lat="38.964038" lon="16.309422"><ele>172.5</ele></trkpt>
   <trkpt lat="38.96407" lon="16.309715"><ele>173</ele></trkpt>
   <trkpt lat="38.964107" lon="16.310162"><ele>174</ele></trkpt>
   <trkpt lat="38.964235" lon="16.311091"><ele>176.5</ele></trkpt>
   <trkpt lat="38.9645" lon="16.312273"><ele>181.5</ele></trkpt>
   <trkpt lat="38.964839" lon="16.313423"><ele>181.25</ele></trkpt>
   <trkpt lat="38.965029" lon="16.314076"><ele>181.25</ele></trkpt>
   <trkpt lat="38.965374" lon="16.315267"><ele>182.75</ele></trkpt>
   <trkpt lat="38.965727" lon="16.316521"><ele>183</ele></trkpt>
   <trkpt lat="38.965782" lon="16.316717"><ele>182.75</ele></trkpt>
   <trkpt lat="38.965881" lon="16.317048"><ele>183</ele></trkpt>
   <trkpt lat="38.965942" lon="16.317194"><ele>183.25</ele></trkpt>
   <trkpt lat="38.966159" lon="16.317778"><ele>183.5</ele></trkpt>
   <trkpt lat="38.966342" lon="16.318289"><ele>184</ele></trkpt>
   <trkpt lat="38.966464" lon="16.318692"><ele>184.25</ele></trkpt>
   <trkpt lat="38.967061" lon="16.320738"><ele>186.75</ele></trkpt>
   <trkpt lat="38.967117" lon="16.320974"><ele>186.75</ele></trkpt>
   <trkpt lat="38.967263" lon="16.321531"><ele>186.25</ele></trkpt>
   <trkpt lat="38.967442" lon="16.322392"><ele>181.5</ele></trkpt>
   <trkpt lat="38.967494" lon="16.322564"><ele>180.75</ele></trkpt>
   <trkpt lat="38.967557" lon="16.322787"><ele>180.75</ele></trkpt>
   <trkpt lat="38.967854" lon="16.323845"><ele>180.75</ele></trkpt>
   <trkpt lat="38.967931" lon="16.324071"><ele>180.75</ele></trkpt>
   <trkpt lat="38.968021" lon="16.324371"><ele>180.5</ele></trkpt>
   <trkpt lat="38.968176" lon="16.325012"><ele>179.75</ele></trkpt>
   <trkpt lat="38.968234" lon="16.325411"><ele>181.5</ele></trkpt>
   <trkpt lat="38.968246" lon="16.325868"><ele>183</ele></trkpt>
   <trkpt lat="38.968217" lon="16.326351"><ele>182.75</ele></trkpt>
   <trkpt lat="38.968123" lon="16.326819"><ele>181</ele></trkpt>
   <trkpt lat="38.967943" lon="16.327381"><ele>176.25</ele></trkpt>
   <trkpt lat="38.96769" lon="16.327901"><ele>172.5</ele></trkpt>
   <trkpt lat="38.967381" lon="16.328298"><ele>169</ele></trkpt>
   <trkpt lat="38.967206" lon="16.328485"><ele>169.5</ele></trkpt>
   <trkpt lat="38.967089" lon="16.328609"><ele>170.25</ele></trkpt>
   <trkpt lat="38.966763" lon="16.328883"><ele>172.25</ele></trkpt>
   <trkpt lat="38.965133" lon="16.329992"><ele>166.75</ele></trkpt>
   <trkpt lat="38.9647" lon="16.330365"><ele>167.5</ele></trkpt>
   <trkpt lat="38.964317" lon="16.330837"><ele>167.5</ele></trkpt>
   <trkpt lat="38.963978" lon="16.33142"><ele>166.5</ele></trkpt>
   <trkpt lat="38.963687" lon="16.332088"><ele>162.5</ele></trkpt>
   <trkpt lat="38.963496" lon="16.33276"><ele>160.5</ele></trkpt>
   <trkpt lat="38.963214" lon="16.333931"><ele>158.75</ele></trkpt>
   <trkpt lat="38.962499" lon="16.337062"><ele>157.75</ele></trkpt>
   <trkpt lat="38.962315" lon="16.337667"><ele>157.25</ele></trkpt>
   <trkpt lat="38.962066" lon="16.338286"><ele>156.25</ele></trkpt>
   <trkpt lat="38.961678" lon="16.338959"><ele>152.75</ele></trkpt>
   <trkpt lat="38.961237" lon="16.339468"><ele>151.75</ele></trkpt>
   <trkpt lat="38.960608" lon="16.339983"><ele>149</ele></trkpt>
   <trkpt lat="38.960154" lon="16.340209"><ele>148.5</ele></trkpt>
   <trkpt lat="38.959452" lon="16.340409"><ele>148.5</ele></trkpt>
   <trkpt lat="38.958925" lon="16.340456"><ele>148.25</ele></trkpt>
   <trkpt lat="38.958398" lon="16.340445"><ele>147.25</ele></trkpt>
   <trkpt lat="38.957552" lon="16.34044"><ele>142.75</ele></trkpt>
   <trkpt lat="38.95709" lon="16.340493"><ele>141.75</ele></trkpt>
   <trkpt lat="38.956878" lon="16.340577"><ele>141.5</ele></trkpt>
   <trkpt lat="38.956429" lon="16.340766"><ele>141.25</ele></trkpt>
   <trkpt lat="38.954746" lon="16.341864"><ele>134.25</ele></trkpt>
   <trkpt lat="38.954162" lon="16.342232"><ele>128.5</ele></trkpt>
   <trkpt lat="38.953978" lon="16.342347"><ele>128.75</ele></trkpt>
   <trkpt lat="38.952961" lon="16.343056"><ele>134</ele></trkpt>
   <trkpt lat="38.952078" lon="16.34366"><ele>133.75</ele></trkpt>
   <trkpt lat="38.951465" lon="16.344201"><ele>132.25</ele></trkpt>
   <trkpt lat="38.950685" lon="16.345116"><ele>127.5</ele></trkpt>
   <trkpt lat="38.950052" lon="16.346045"><ele>122.75</ele></trkpt>
   <trkpt lat="38.949635" lon="16.346875"><ele>122.75</ele></trkpt>
   <trkpt lat="38.949239" lon="16.347973"><ele>125</ele></trkpt>
   <trkpt lat="38.948982" lon="16.348875"><ele>127.75</ele></trkpt>
   <trkpt lat="38.948704" lon="16.350164"><ele>125</ele></trkpt>
   <trkpt lat="38.948577" lon="16.350679"><ele>124</ele></trkpt>
   <trkpt lat="38.94817" lon="16.35278"><ele>120</ele></trkpt>
   <trkpt lat="38.947904" lon="16.353634"><ele>118.25</ele></trkpt>
   <trkpt lat="38.947619" lon="16.354336"><ele>118.25</ele></trkpt>
   <trkpt lat="38.947181" lon="16.355133"><ele>114</ele></trkpt>
   <trkpt lat="38.946615" lon="16.356095"><ele>121</ele></trkpt>
   <trkpt lat="38.946069" lon="16.357069"><ele>117.25</ele></trkpt>
   <trkpt lat="38.9457" lon="16.357778"><ele>110.75</ele></trkpt>
   <trkpt lat="38.945572" lon="16.358018"><ele>111.25</ele></trkpt>
   <trkpt lat="38.945262" lon="16.358594"><ele>116.5</ele></trkpt>
   <trkpt lat="38.945021" lon="16.35898"><ele>122.5</ele></trkpt>
   <trkpt lat="38.944415" lon="16.359878"><ele>121.75</ele></trkpt>
   <trkpt lat="38.943914" lon="16.360359"><ele>117.5</ele></trkpt>
   <trkpt lat="38.940681" lon="16.362586"><ele>104.5</ele></trkpt>
   <trkpt lat="38.940061" lon="16.363003"><ele>108</ele></trkpt>
   <trkpt lat="38.939692" lon="16.363357"><ele>110.25</ele></trkpt>
   <trkpt lat="38.939067" lon="16.364129"><ele>114.75</ele></trkpt>
   <trkpt lat="38.938926" lon="16.364414"><ele>114.75</ele></trkpt>
   <trkpt lat="38.938753" lon="16.364855"><ele>111.25</ele></trkpt>
   <trkpt lat="38.938405" lon="16.365909"><ele>109.75</ele></trkpt>
   <trkpt lat="38.937537" lon="16.368484"><ele>101.25</ele></trkpt>
   <trkpt lat="38.937384" lon="16.368836"><ele>102</ele></trkpt>
   <trkpt lat="38.937259" lon="16.369189"><ele>104</ele></trkpt>
   <trkpt lat="38.93717" lon="16.369422"><ele>106.75</ele></trkpt>
   <trkpt lat="38.936897" lon="16.370063"><ele>116.75</ele></trkpt>
   <trkpt lat="38.935248" lon="16.373378"><ele>116</ele></trkpt>
   <trkpt lat="38.93517" lon="16.37372"><ele>113.75</ele></trkpt>
   <trkpt lat="38.935124" lon="16.373978"><ele>112</ele></trkpt>
   <trkpt lat="38.935091" lon="16.374251"><ele>110.5</ele></trkpt>
   <trkpt lat="38.935086" lon="16.374726"><ele>109.5</ele></trkpt>
   <trkpt lat="38.935091" lon="16.374992"><ele>109</ele></trkpt>
   <trkpt lat="38.93515" lon="16.375491"><ele>107</ele></trkpt>
   <trkpt lat="38.935278" lon="16.375959"><ele>107</ele></trkpt>
   <trkpt lat="38.935701" lon="16.377361"><ele>104.5</ele></trkpt>
   <trkpt lat="38.935757" lon="16.377549"><ele>104</ele></trkpt>
   <trkpt lat="38.936479" lon="16.379977"><ele>109.75</ele></trkpt>
   <trkpt lat="38.936631" lon="16.380673"><ele>108.5</ele></trkpt>
   <trkpt lat="38.9367" lon="16.381343"><ele>106.5</ele></trkpt>
   <trkpt lat="38.93672" lon="16.381932"><ele>104.25</ele></trkpt>
   <trkpt lat="38.936685" lon="16.382678"><ele>102.25</ele></trkpt>
   <trkpt lat="38.936651" lon="16.382969"><ele>102.5</ele></trkpt>
   <trkpt lat="38.936572" lon="16.38338"><ele>102.75</ele></trkpt>
   <trkpt lat="38.936488" lon="16.38376"><ele>104</ele></trkpt>
   <trkpt lat="38.936326" lon="16.384272"><ele>105.5</ele></trkpt>
   <trkpt lat="38.936154" lon="16.384696"><ele>106.75</ele></trkpt>
   <trkpt lat="38.935888" lon="16.385221"><ele>107.75</ele></trkpt>
   <trkpt lat="38.935229" lon="16.386202"><ele>108</ele></trkpt>
   <trkpt lat="38.934564" lon="16.387094"><ele>107.5</ele></trkpt>
   <trkpt lat="38.933841" lon="16.388112"><ele>103.75</ele></trkpt>
   <trkpt lat="38.933637" lon="16.38839"><ele>104</ele></trkpt>
   <trkpt lat="38.933587" lon="16.388453"><ele>104.25</ele></trkpt>
   <trkpt lat="38.932906" lon="16.389403"><ele>105.75</ele></trkpt>
   <trkpt lat="38.932532" lon="16.389922"><ele>105.75</ele></trkpt>
   <trkpt lat="38.930805" lon="16.392275"><ele>121</ele></trkpt>
   <trkpt lat="38.930509" lon="16.392667"><ele>120.5</ele></trkpt>
   <trkpt lat="38.924593" lon="16.400443"><ele>115.5</ele></trkpt>
   <trkpt lat="38.922936" lon="16.403167"><ele>114</ele></trkpt>
   <trkpt lat="38.922465" lon="16.404041"><ele>114</ele></trkpt>
   <trkpt lat="38.921803" lon="16.405229"><ele>112.25</ele></trkpt>
   <trkpt lat="38.920992" lon="16.406472"><ele>110.5</ele></trkpt>
   <trkpt lat="38.916659" lon="16.411735"><ele>101.75</ele></trkpt>
   <trkpt lat="38.915527" lon="16.413185"><ele>99.5</ele></trkpt>
   <trkpt lat="38.915112" lon="16.413707"><ele>99.5</ele></trkpt>
   <trkpt lat="38.91491" lon="16.414131"><ele>96.5</ele></trkpt>
   <trkpt lat="38.914652" lon="16.414781"><ele>94</ele></trkpt>
   <trkpt lat="38.914557" lon="16.415216"><ele>93</ele></trkpt>
   <trkpt lat="38.914509" lon="16.415639"><ele>92.25</ele></trkpt>
   <trkpt lat="38.914495" lon="16.41624"><ele>95</ele></trkpt>
   <trkpt lat="38.914518" lon="16.417089"><ele>101.75</ele></trkpt>
   <trkpt lat="38.914546" lon="16.419642"><ele>110.75</ele></trkpt>
   <trkpt lat="38.91465" lon="16.430243"><ele>103.25</ele></trkpt>
   <trkpt lat="38.91465" lon="16.430365"><ele>103.25</ele></trkpt>
   <trkpt lat="38.91468" lon="16.433106"><ele>107.25</ele></trkpt>
   <trkpt lat="38.91469" lon="16.434898"><ele>110.25</ele></trkpt>
   <trkpt lat="38.91471" lon="16.437038"><ele>112.75</ele></trkpt>
   <trkpt lat="38.914748" lon="16.437468"><ele>114</ele></trkpt>
   <trkpt lat="38.914838" lon="16.438093"><ele>114.5</ele></trkpt>
   <trkpt lat="38.915041" lon="16.439106"><ele>113.5</ele></trkpt>
   <trkpt lat="38.916395" lon="16.444305"><ele>118</ele></trkpt>
   <trkpt lat="38.917164" lon="16.447158"><ele>127</ele></trkpt>
   <trkpt lat="38.917413" lon="16.447979"><ele>125.75</ele></trkpt>
   <trkpt lat="38.91764" lon="16.448466"><ele>126.5</ele></trkpt>
   <trkpt lat="38.918019" lon="16.449065"><ele>129.25</ele></trkpt>
   <trkpt lat="38.918447" lon="16.4496"><ele>129.25</ele></trkpt>
   <trkpt lat="38.919032" lon="16.450303"><ele>127.5</ele></trkpt>
   <trkpt lat="38.919292" lon="16.450721"><ele>126.5</ele></trkpt>
   <trkpt lat="38.919606" lon="16.451521"><ele>128</ele></trkpt>
   <trkpt lat="38.919747" lon="16.452287"><ele>129.5</ele></trkpt>
   <trkpt lat="38.919866" lon="16.453665"><ele>134.75</ele></trkpt>
   <trkpt lat="38.920001" lon="16.454256"><ele>135.25</ele></trkpt>
   <trkpt lat="38.92019" lon="16.454813"><ele>133</ele></trkpt>
   <trkpt lat="38.920629" lon="16.455481"><ele>133.75</ele></trkpt>
   <trkpt lat="38.92201" lon="16.457179"><ele>137</ele></trkpt>
   <trkpt lat="38.922375" lon="16.457595"><ele>138.75</ele></trkpt>
   <trkpt lat="38.922611" lon="16.457917"><ele>138.75</ele></trkpt>
   <trkpt lat="38.922838" lon="16.458306"><ele>139</ele></trkpt>
   <trkpt lat="38.923034" lon="16.45874"><ele>140</ele></trkpt>
   <trkpt lat="38.923195" lon="16.459239"><ele>141.5</ele></trkpt>
   <trkpt lat="38.923341" lon="16.459858"><ele>142.25</ele></trkpt>
   <trkpt lat="38.923412" lon="16.460589"><ele>141.5</ele></trkpt>
   <trkpt lat="38.923291" lon="16.463517"><ele>149.75</ele></trkpt>
   <trkpt lat="38.923276" lon="16.463823"><ele>150.5</ele></trkpt>
   <trkpt lat="38.923236" lon="16.464464"><ele>152.5</ele></trkpt>
   <trkpt lat="38.923046" lon="16.467999"><ele>152.5</ele></trkpt>
   <trkpt lat="38.922984" lon="16.468534"><ele>155.75</ele></trkpt>
   <trkpt lat="38.922973" lon="16.468626"><ele>155.5</ele></trkpt>
   <trkpt lat="38.922803" lon="16.469512"><ele>155.5</ele></trkpt>
   <trkpt lat="38.922575" lon="16.470223"><ele>155.25</ele></trkpt>
   <trkpt lat="38.92231" lon="16.470862"><ele>155</ele></trkpt>
   <trkpt lat="38.914331" lon="16.485745"><ele>151.5</ele></trkpt>
   <trkpt lat="38.912615" lon="16.489027"><ele>151.5</ele></trkpt>
   <trkpt lat="38.912168" lon="16.489858"><ele>149.25</ele></trkpt>
   <trkpt lat="38.91171" lon="16.491044"><ele>146.25</ele></trkpt>
   <trkpt lat="38.910863" lon="16.493296"><ele>143.25</ele></trkpt>
   <trkpt lat="38.909734" lon="16.496228"><ele>135.5</ele></trkpt>
   <trkpt lat="38.908658" lon="16.498986"><ele>133.25</ele></trkpt>
   <trkpt lat="38.907358" lon="16.50244"><ele>123</ele></trkpt>
   <trkpt lat="38.906564" lon="16.504518"><ele>117.25</ele></trkpt>
   <trkpt lat="38.90637" lon="16.50504"><ele>115.5</ele></trkpt>
   <trkpt lat="38.906201" lon="16.505483"><ele>115.5</ele></trkpt>
   <trkpt lat="38.905871" lon="16.50618"><ele>114.5</ele></trkpt>
   <trkpt lat="38.905459" lon="16.506709"><ele>114</ele></trkpt>
   <trkpt lat="38.904706" lon="16.507556"><ele>113.5</ele></trkpt>
   <trkpt lat="38.90413" lon="16.508178"><ele>112.25</ele></trkpt>
   <trkpt lat="38.90386" lon="16.508513"><ele>112.25</ele></trkpt>
   <trkpt lat="38.903525" lon="16.508991"><ele>111.25</ele></trkpt>
   <trkpt lat="38.903368" lon="16.509245"><ele>110</ele></trkpt>
   <trkpt lat="38.902677" lon="16.510417"><ele>106.25</ele></trkpt>
   <trkpt lat="38.902552" lon="16.510631"><ele>106</ele></trkpt>
   <trkpt lat="38.902297" lon="16.511072"><ele>108</ele></trkpt>
   <trkpt lat="38.901767" lon="16.511951"><ele>114.25</ele></trkpt>
   <trkpt lat="38.900152" lon="16.51473"><ele>111.75</ele></trkpt>
   <trkpt lat="38.899803" lon="16.515342"><ele>112.5</ele></trkpt>
   <trkpt lat="38.899421" lon="16.516011"><ele>113.5</ele></trkpt>
   <trkpt lat="38.899087" lon="16.516549"><ele>114.5</ele></trkpt>
   <trkpt lat="38.898569" lon="16.517414"><ele>114.5</ele></trkpt>
   <trkpt lat="38.892626" lon="16.527613"><ele>97.25</ele></trkpt>
   <trkpt lat="38.892569" lon="16.52771"><ele>95</ele></trkpt>
   <trkpt lat="38.892483" lon="16.527855"><ele>92.5</ele></trkpt>
   <trkpt lat="38.8921" lon="16.528516"><ele>97.75</ele></trkpt>
   <trkpt lat="38.885288" lon="16.542016"><ele>76</ele></trkpt>
   <trkpt lat="38.884915" lon="16.542758"><ele>74.25</ele></trkpt>
   <trkpt lat="38.883865" lon="16.544838"><ele>69.5</ele></trkpt>
   <trkpt lat="38.882667" lon="16.547243"><ele>64</ele></trkpt>
   <trkpt lat="38.881394" lon="16.549778"><ele>58</ele></trkpt>
   <trkpt lat="38.880733" lon="16.550934"><ele>55.25</ele></trkpt>
   <trkpt lat="38.880322" lon="16.55159"><ele>53.75</ele></trkpt>
   <trkpt lat="38.879917" lon="16.552211"><ele>52.25</ele></trkpt>
   <trkpt lat="38.879482" lon="16.552821"><ele>50.5</ele></trkpt>
   <trkpt lat="38.87909" lon="16.55339"><ele>49.25</ele></trkpt>
   <trkpt lat="38.878585" lon="16.554026"><ele>49.25</ele></trkpt>
   <trkpt lat="38.87816" lon="16.554528"><ele>48.5</ele></trkpt>
   <trkpt lat="38.877476" lon="16.555288"><ele>46.75</ele></trkpt>
   <trkpt lat="38.877007" lon="16.555773"><ele>46.25</ele></trkpt>
   <trkpt lat="38.876772" lon="16.556008"><ele>46.25</ele></trkpt>
   <trkpt lat="38.876267" lon="16.556471"><ele>45.75</ele></trkpt>
   <trkpt lat="38.875874" lon="16.55682"><ele>45.25</ele></trkpt>
   <trkpt lat="38.874939" lon="16.55759"><ele>44.75</ele></trkpt>
   <trkpt lat="38.874008" lon="16.558269"><ele>44.5</ele></trkpt>
   <trkpt lat="38.873599" lon="16.558531"><ele>44</ele></trkpt>
   <trkpt lat="38.872917" lon="16.558951"><ele>43.25</ele></trkpt>
   <trkpt lat="38.872151" lon="16.559375"><ele>42.5</ele></trkpt>
   <trkpt lat="38.871383" lon="16.559761"><ele>41.75</ele></trkpt>
   <trkpt lat="38.869655" lon="16.560606"><ele>39.5</ele></trkpt>
   <trkpt lat="38.869195" lon="16.560883"><ele>38</ele></trkpt>
   <trkpt lat="38.868755" lon="16.561097"><ele>38.25</ele></trkpt>
   <trkpt lat="38.867988" lon="16.561491"><ele>37.75</ele></trkpt>
   <trkpt lat="38.867564" lon="16.561732"><ele>37</ele></trkpt>
   <trkpt lat="38.867054" lon="16.562005"><ele>37</ele></trkpt>
   <trkpt lat="38.865664" lon="16.56267"><ele>36.25</ele></trkpt>
   <trkpt lat="38.863543" lon="16.563718"><ele>34.5</ele></trkpt>
   <trkpt lat="38.862814" lon="16.564016"><ele>34</ele></trkpt>
   <trkpt lat="38.862471" lon="16.56417"><ele>33.75</ele></trkpt>
   <trkpt lat="38.862072" lon="16.564366"><ele>33.75</ele></trkpt>
   <trkpt lat="38.861773" lon="16.564513"><ele>33.5</ele></trkpt>
   <trkpt lat="38.861226" lon="16.564725"><ele>33.25</ele></trkpt>
   <trkpt lat="38.860929" lon="16.564872"><ele>33</ele></trkpt>
   <trkpt lat="38.860633" lon="16.565007"><ele>33</ele></trkpt>
   <trkpt lat="38.859396" lon="16.565625"><ele>33.25</ele></trkpt>
   <trkpt lat="38.858827" lon="16.565945"><ele>32.25</ele></trkpt>
   <trkpt lat="38.858372" lon="16.56622"><ele>31.75</ele></trkpt>
   <trkpt lat="38.857952" lon="16.566492"><ele>31.75</ele></trkpt>
   <trkpt lat="38.857871" lon="16.566549"><ele>31.5</ele></trkpt>
   <trkpt lat="38.857628" lon="16.566696"><ele>31.25</ele></trkpt>
   <trkpt lat="38.857151" lon="16.567047"><ele>30.75</ele></trkpt>
   <trkpt lat="38.856767" lon="16.567347"><ele>30.75</ele></trkpt>
   <trkpt lat="38.856451" lon="16.567604"><ele>30.25</ele></trkpt>
   <trkpt lat="38.856151" lon="16.567862"><ele>29.25</ele></trkpt>
   <trkpt lat="38.856077" lon="16.567924"><ele>29</ele></trkpt>
   <trkpt lat="38.855396" lon="16.568556"><ele>27.5</ele></trkpt>
   <trkpt lat="38.855041" lon="16.568907"><ele>27.5</ele></trkpt>
   <trkpt lat="38.854626" lon="16.569347"><ele>27.5</ele></trkpt>
   <trkpt lat="38.854194" lon="16.56983"><ele>27</ele></trkpt>
   <trkpt lat="38.853573" lon="16.570588"><ele>26.5</ele></trkpt>
   <trkpt lat="38.852511" lon="16.571937"><ele>25.5</ele></trkpt>
   <trkpt lat="38.850502" lon="16.574476"><ele>24.25</ele></trkpt>
   <trkpt lat="38.849406" lon="16.575852"><ele>24</ele></trkpt>
   <trkpt lat="38.848857" lon="16.576511"><ele>24</ele></trkpt>
   <trkpt lat="38.848268" lon="16.577151"><ele>24</ele></trkpt>
   <trkpt lat="38.84761" lon="16.57784"><ele>23.5</ele></trkpt>
   <trkpt lat="38.845296" lon="16.580219"><ele>21.5</ele></trkpt>
   <trkpt lat="38.843471" lon="16.582084"><ele>22.25</ele></trkpt>
   <trkpt lat="38.842843" lon="16.582723"><ele>21.5</ele></trkpt>
   <trkpt lat="38.842297" lon="16.583263"><ele>21.25</ele></trkpt>
   <trkpt lat="38.842123" lon="16.583416"><ele>21.25</ele></trkpt>
   <trkpt lat="38.841954" lon="16.583561"><ele>21.25</ele></trkpt>
   <trkpt lat="38.841633" lon="16.583809"><ele>21</ele></trkpt>
   <trkpt lat="38.841302" lon="16.58404"><ele>20.25</ele></trkpt>
   <trkpt lat="38.840965" lon="16.584259"><ele>19.5</ele></trkpt>
   <trkpt lat="38.840665" lon="16.584429"><ele>19</ele></trkpt>
   <trkpt lat="38.840323" lon="16.5846"><ele>19</ele></trkpt>
   <trkpt lat="38.840028" lon="16.58473"><ele>19.25</ele></trkpt>
   <trkpt lat="38.839709" lon="16.584858"><ele>19</ele></trkpt>
   <trkpt lat="38.839353" lon="16.584975"><ele>18.25</ele></trkpt>
   <trkpt lat="38.838859" lon="16.585111"><ele>17.75</ele></trkpt>
   <trkpt lat="38.838039" lon="16.585299"><ele>17</ele></trkpt>
   <trkpt lat="38.836528" lon="16.585607"><ele>15.75</ele></trkpt>
   <trkpt lat="38.833568" lon="16.586192"><ele>13</ele></trkpt>
   <trkpt lat="38.83306" lon="16.58633"><ele>12.75</ele></trkpt>
   <trkpt lat="38.832727" lon="16.586446"><ele>12.75</ele></trkpt>
   <trkpt lat="38.832541" lon="16.58652"><ele>12.5</ele></trkpt>
   <trkpt lat="38.832086" lon="16.586723"><ele>11.5</ele></trkpt>
   <trkpt lat="38.831767" lon="16.586884"><ele>11.25</ele></trkpt>
   <trkpt lat="38.831427" lon="16.587082"><ele>11.75</ele></trkpt>
   <trkpt lat="38.83099" lon="16.58737"><ele>12.75</ele></trkpt>
   <trkpt lat="38.830649" lon="16.587626"><ele>12.5</ele></trkpt>
   <trkpt lat="38.830273" lon="16.587937"><ele>12</ele></trkpt>
   <trkpt lat="38.829968" lon="16.588219"><ele>12</ele></trkpt>
   <trkpt lat="38.829573" lon="16.588627"><ele>11.75</ele></trkpt>
   <trkpt lat="38.829031" lon="16.589252"><ele>11.75</ele></trkpt>
   <trkpt lat="38.82854" lon="16.589876"><ele>10.75</ele></trkpt>
   <trkpt lat="38.828438" lon="16.590007"><ele>10.75</ele></trkpt>
   <trkpt lat="38.82512" lon="16.59424"><ele>8.75</ele></trkpt>
   <trkpt lat="38.824076" lon="16.595584"><ele>8.25</ele></trkpt>
   <trkpt lat="38.822543" lon="16.597521"><ele>7.75</ele></trkpt>
   <trkpt lat="38.820621" lon="16.599969"><ele>4.75</ele></trkpt>
   <trkpt lat="38.820343" lon="16.600333"><ele>5</ele></trkpt>
   <trkpt lat="38.8195" lon="16.60139"><ele>4.75</ele></trkpt>
   <trkpt lat="38.819245" lon="16.601672"><ele>5</ele></trkpt>
   <trkpt lat="38.818714" lon="16.602175"><ele>5</ele></trkpt>
   <trkpt lat="38.818336" lon="16.602491"><ele>4.75</ele></trkpt>
   <trkpt lat="38.818116" lon="16.602666"><ele>4.75</ele></trkpt>
   <trkpt lat="38.817897" lon="16.602865"><ele>4.5</ele></trkpt>
   <trkpt lat="38.81768" lon="16.603124"><ele>4.75</ele></trkpt>
   <trkpt lat="38.81752" lon="16.60337"><ele>4.75</ele></trkpt>
   <trkpt lat="38.817397" lon="16.603611"><ele>4.5</ele></trkpt>
   <trkpt lat="38.817288" lon="16.603907"><ele>4.25</ele></trkpt>
   <trkpt lat="38.817208" lon="16.604235"><ele>4.25</ele></trkpt>
   <trkpt lat="38.817164" lon="16.604565"><ele>4.25</ele></trkpt>
   <trkpt lat="38.817151" lon="16.604849"><ele>4.25</ele></trkpt>
   <trkpt lat="38.817172" lon="16.605171"><ele>4.5</ele></trkpt>
   <trkpt lat="38.817225" lon="16.605474"><ele>4.75</ele></trkpt>
   <trkpt lat="38.817297" lon="16.605716"><ele>5</ele></trkpt>
   <trkpt lat="38.817405" lon="16.606004"><ele>5.25</ele></trkpt>
   <trkpt lat="38.817496" lon="16.606192"><ele>5.75</ele></trkpt>
   <trkpt lat="38.817596" lon="16.606371"><ele>5.75</ele></trkpt>
   <trkpt lat="38.817733" lon="16.606574"><ele>5.75</ele></trkpt>
   <trkpt lat="38.818037" lon="16.606974"><ele>5.75</ele></trkpt>
   <trkpt lat="38.818677" lon="16.607758"><ele>5.75</ele></trkpt>
   <trkpt lat="38.818801" lon="16.607931"><ele>6</ele></trkpt>
   <trkpt lat="38.819582" lon="16.608912"><ele>8.25</ele></trkpt>
   <trkpt lat="38.819765" lon="16.609143"><ele>8.25</ele></trkpt>
   <trkpt lat="38.820038" lon="16.609531"><ele>8.5</ele></trkpt>
   <trkpt lat="38.820257" lon="16.609884"><ele>9</ele></trkpt>
   <trkpt lat="38.820359" lon="16.610073"><ele>9</ele></trkpt>
   <trkpt lat="38.820425" lon="16.610216"><ele>9.25</ele></trkpt>
   <trkpt lat="38.820532" lon="16.610473"><ele>9</ele></trkpt>
   <trkpt lat="38.820656" lon="16.610742"><ele>8.25</ele></trkpt>
   <trkpt lat="38.820715" lon="16.610856"><ele>8</ele></trkpt>
   <trkpt lat="38.821038" lon="16.611477"><ele>8</ele></trkpt>
   <trkpt lat="38.823027" lon="16.615284"><ele>6.75</ele></trkpt>
  </trkseg>
 </trk>
</gpx>