<?xml version="1.0" encoding="UTF-8"?>
<!-- track-length = 28742 filtered ascend = 40 plain-ascend = 26 cost=28742 energy=.4kwh time=38m 19s -->
<gpx 
 xmlns="http://www.topografix.com/GPX/1/1" 
 xmlns:xsi="http://www.w3.org/2001/XMLSchema-instance" 
 xsi:schemaLocation="http://www.topografix.com/GPX/1/1 http://www.topografix.com/GPX/1/1/gpx.xsd" 
 creator="BRouter-1.7.0" version="1.1">
 <trk>
  <name>Lehrte - Hildesheim</name>
  <trkseg>
   <trkpt lon="9.974609" lat="52.376821"><ele>61.25</ele></trkpt>
   <trkpt lon="9.975198" lat="52.376229"><ele>61.5</ele></trkpt>
   <trkpt lon="9.975663" lat="52.375756"><ele>61.75</ele></trkpt>
   <trkpt lon="9.975885" lat="52.375566"><ele>62.0</ele></trkpt>
   <trkpt lon="9.976030" lat="52.375453"><ele>62.0</ele></trkpt>
   <trkpt lon="9.976198" lat="52.375311"><ele>61.75</ele></trkpt>
   <trkpt lon="9.976370" lat="52.375151"><ele>61.5</ele></trkpt>
   <trkpt lon="9.976578" lat="52.375001"><ele>61.0</ele></trkpt>
   <trkpt lon="9.976860" lat="52.374843"><ele>61.25</ele></trkpt>
   <trkpt lon="9.976955" lat="52.374797"><ele>61.25</ele></trkpt>
   <trkpt lon="9.977245" lat="52.374665"><ele>61.5</ele></trkpt>
   <trkpt lon="9.977398" lat="52.374593"><ele>61.75</ele></trkpt>
   <trkpt lon="9.977652" lat="52.374477"><ele>61.75</ele></trkpt>
   <trkpt lon="9.978098" lat="52.374301"><ele>60.75</ele></trkpt>
   <trkpt lon="9.978334" lat="52.374218"><ele>60.25</ele></trkpt>
   <trkpt lon="9.978359" lat="52.374212"><ele>60.25</ele></trkpt>
   <trkpt lon="9.978586" lat="52.374152"><ele>60.0</ele></trkpt>
   <trkpt lon="9.978800" lat="52.374081"><ele>60.0</ele></trkpt>
   <trkpt lon="9.979225" lat="52.373958"><ele>60.0</ele></trkpt>
   <trkpt lon="9.979524" lat="52.373881"><ele>60.0</ele></trkpt>
   <trkpt lon="9.979803" lat="52.373823"><ele>60.0</ele></trkpt>
   <trkpt lon="9.979840" lat="52.373815"><ele>60.0</ele></trkpt>
   <trkpt lon="9.980172" lat="52.373746"><ele>59.75</ele></trkpt>
   <trkpt lon="9.980585" lat="52.373642"><ele>59.5</ele></trkpt>
   <trkpt lon="9.981110" lat="52.373492"><ele>59.5</ele></trkpt>
   <trkpt lon="9.981386" lat="52.373432"><ele>59.75</ele></trkpt>
   <trkpt lon="9.981517" lat="52.373404"><ele>59.75</ele></trkpt>
   <trkpt lon="9.981865" lat="52.373322"><ele>59.75</ele></trkpt>
   <trkpt lon="9.982210" lat="52.373228"><ele>59.75</ele></trkpt>
   <trkpt lon="9.982509" lat="52.373161"><ele>59.75</ele></trkpt>
   <trkpt lon="9.982524" lat="52.373157"><ele>59.75</ele></trkpt>
   <trkpt lon="9.982539" lat="52.373154"><ele>59.5</ele></trkpt>
   <trkpt lon="9.982812" lat="52.373100"><ele>59.0</ele></trkpt>
   <trkpt lon="9.983827" lat="52.372876"><ele>57.75</ele></trkpt>
   <trkpt lon="9.985309" lat="52.372533"><ele>58.25</ele></trkpt>
   <trkpt lon="9.987677" lat="52.372007"><ele>58.75</ele></trkpt>
   <trkpt lon="9.988937" lat="52.371731"><ele>58.75</ele></trkpt>
   <trkpt lon="9.989633" lat="52.371561"><ele>59.25</ele></trkpt>
   <trkpt lon="9.990053" lat="52.371449"><ele>59.5</ele></trkpt>
   <trkpt lon="9.990848" lat="52.371267"><ele>59.75</ele></trkpt>
   <trkpt lon="9.999311" lat="52.369418"><ele>59.0</ele></trkpt>
   <trkpt lon="10.000366" lat="52.369184"><ele>58.5</ele></trkpt>
   <trkpt lon="10.001668" lat="52.368899"><ele>56.5</ele></trkpt>
   <trkpt lon="10.002764" lat="52.368654"><ele>56.5</ele></trkpt>
   <trkpt lon="10.003599" lat="52.368475"><ele>57.0</ele></trkpt>
   <trkpt lon="10.004032" lat="52.368376"><ele>56.75</ele></trkpt>
   <trkpt lon="10.004509" lat="52.368256"><ele>56.75</ele></trkpt>
   <trkpt lon="10.004976" lat="52.368125"><ele>56.5</ele></trkpt>
   <trkpt lon="10.005563" lat="52.367982"><ele>56.0</ele></trkpt>
   <trkpt lon="10.011002" lat="52.366791"><ele>56.0</ele></trkpt>
   <trkpt lon="10.012317" lat="52.366498"><ele>56.0</ele></trkpt>
   <trkpt lon="10.012716" lat="52.366392"><ele>56.5</ele></trkpt>
   <trkpt lon="10.012988" lat="52.366312"><ele>56.75</ele></trkpt>
   <trkpt lon="10.013484" lat="52.366137"><ele>57.75</ele></trkpt>
   <trkpt lon="10.014049" lat="52.365886"><ele>58.75</ele></trkpt>
   <trkpt lon="10.014515" lat="52.365614"><ele>59.0</ele></trkpt>
   <trkpt lon="10.014602" lat="52.365563"><ele>59.0</ele></trkpt>
   <trkpt lon="10.015125" lat="52.365181"><ele>59.75</ele></trkpt>
   <trkpt lon="10.015524" lat="52.364776"><ele>60.75</ele></trkpt>
   <trkpt lon="10.015813" lat="52.364390"><ele>61.5</ele></trkpt>
   <trkpt lon="10.015953" lat="52.364153"><ele>62.0</ele></trkpt>
   <trkpt lon="10.016062" lat="52.363915"><ele>61.75</ele></trkpt>
   <trkpt lon="10.016108" lat="52.363778"><ele>61.75</ele></trkpt>
   <trkpt lon="10.016226" lat="52.363261"><ele>61.5</ele></trkpt>
   <trkpt lon="10.016225" lat="52.362982"><ele>62.25</ele></trkpt>
   <trkpt lon="10.016203" lat="52.362670"><ele>63.0</ele></trkpt>
   <trkpt lon="10.016136" lat="52.362391"><ele>63.25</ele></trkpt>
   <trkpt lon="10.015974" lat="52.361967"><ele>62.0</ele></trkpt>
   <trkpt lon="10.015617" lat="52.361388"><ele>60.5</ele></trkpt>
   <trkpt lon="10.015295" lat="52.360969"><ele>60.0</ele></trkpt>
   <trkpt lon="10.015177" lat="52.360826"><ele>60.0</ele></trkpt>
   <trkpt lon="10.015040" lat="52.360664"><ele>60.0</ele></trkpt>
   <trkpt lon="10.013960" lat="52.359414"><ele>59.5</ele></trkpt>
   <trkpt lon="10.013724" lat="52.359168"><ele>59.75</ele></trkpt>
   <trkpt lon="10.013321" lat="52.358805"><ele>60.25</ele></trkpt>
   <trkpt lon="10.013212" lat="52.358715"><ele>60.25</ele></trkpt>
   <trkpt lon="10.013066" lat="52.358606"><ele>60.25</ele></trkpt>
   <trkpt lon="10.012817" lat="52.358414"><ele>60.25</ele></trkpt>
   <trkpt lon="10.012291" lat="52.358049"><ele>59.5</ele></trkpt>
   <trkpt lon="10.011731" lat="52.357731"><ele>59.75</ele></trkpt>
   <trkpt lon="10.011548" lat="52.357638"><ele>59.75</ele></trkpt>
   <trkpt lon="10.011087" lat="52.357407"><ele>60.0</ele></trkpt>
   <trkpt lon="10.010251" lat="52.357082"><ele>60.0</ele></trkpt>
   <trkpt lon="10.009429" lat="52.356814"><ele>60.25</ele></trkpt>
   <trkpt lon="10.008755" lat="52.356643"><ele>61.0</ele></trkpt>
   <trkpt lon="10.008303" lat="52.356529"><ele>60.75</ele></trkpt>
   <trkpt lon="10.007198" lat="52.356350"><ele>60.25</ele></trkpt>
   <trkpt lon="10.006510" lat="52.356268"><ele>60.25</ele></trkpt>
   <trkpt lon="10.006366" lat="52.356257"><ele>60.25</ele></trkpt>
   <trkpt lon="10.005798" lat="52.356215"><ele>60.0</ele></trkpt>
   <trkpt lon="10.004944" lat="52.356196"><ele>60.0</ele></trkpt>
   <trkpt lon="10.002853" lat="52.356239"><ele>60.75</ele></trkpt>
   <trkpt lon="10.000279" lat="52.356282"><ele>60.25</ele></trkpt>
   <trkpt lon="9.999533" lat="52.356290"><ele>60.0</ele></trkpt>
   <trkpt lon="9.998057" lat="52.356313"><ele>60.0</ele></trkpt>
   <trkpt lon="9.994881" lat="52.356366"><ele>59.75</ele></trkpt>
   <trkpt lon="9.991797" lat="52.356415"><ele>58.25</ele></trkpt>
   <trkpt lon="9.988680" lat="52.356475"><ele>58.0</ele></trkpt>
   <trkpt lon="9.987731" lat="52.356493"><ele>58.0</ele></trkpt>
   <trkpt lon="9.985663" lat="52.356515"><ele>58.0</ele></trkpt>
   <trkpt lon="9.985062" lat="52.356521"><ele>58.0</ele></trkpt>
   <trkpt lon="9.984312" lat="52.356517"><ele>58.0</ele></trkpt>
   <trkpt lon="9.983359" lat="52.356463"><ele>58.0</ele></trkpt>
   <trkpt lon="9.982393" lat="52.356359"><ele>58.0</ele></trkpt>
   <trkpt lon="9.981544" lat="52.356237"><ele>58.0</ele></trkpt>
   <trkpt lon="9.980234" lat="52.356017"><ele>58.0</ele></trkpt>
   <trkpt lon="9.979183" lat="52.355778"><ele>58.75</ele></trkpt>
   <trkpt lon="9.979032" lat="52.355744"><ele>59.0</ele></trkpt>
   <trkpt lon="9.978042" lat="52.355448"><ele>59.0</ele></trkpt>
   <trkpt lon="9.977185" lat="52.355163"><ele>59.0</ele></trkpt>
   <trkpt lon="9.976464" lat="52.354887"><ele>58.75</ele></trkpt>
   <trkpt lon="9.975925" lat="52.354649"><ele>58.75</ele></trkpt>
   <trkpt lon="9.975239" lat="52.354324"><ele>59.5</ele></trkpt>
   <trkpt lon="9.974572" lat="52.353972"><ele>59.25</ele></trkpt>
   <trkpt lon="9.973718" lat="52.353450"><ele>59.0</ele></trkpt>
   <trkpt lon="9.972936" lat="52.352920"><ele>59.25</ele></trkpt>
   <trkpt lon="9.972245" lat="52.352360"><ele>59.0</ele></trkpt>
   <trkpt lon="9.971604" lat="52.351779"><ele>59.75</ele></trkpt>
   <trkpt lon="9.971278" lat="52.351434"><ele>59.75</ele></trkpt>
   <trkpt lon="9.970916" lat="52.351002"><ele>59.75</ele></trkpt>
   <trkpt lon="9.970570" lat="52.350523"><ele>61.0</ele></trkpt>
   <trkpt lon="9.970456" lat="52.350342"><ele>61.5</ele></trkpt>
   <trkpt lon="9.970252" lat="52.350014"><ele>62.5</ele></trkpt>
   <trkpt lon="9.969833" lat="52.349208"><ele>63.0</ele></trkpt>
   <trkpt lon="9.969628" lat="52.348648"><ele>62.75</ele></trkpt>
   <trkpt lon="9.969586" lat="52.348533"><ele>62.5</ele></trkpt>
   <trkpt lon="9.969412" lat="52.347912"><ele>62.25</ele></trkpt>
   <trkpt lon="9.969169" lat="52.346860"><ele>62.0</ele></trkpt>
   <trkpt lon="9.968918" lat="52.345773"><ele>61.0</ele></trkpt>
   <trkpt lon="9.968839" lat="52.345430"><ele>61.0</ele></trkpt>
   <trkpt lon="9.968512" lat="52.344012"><ele>62.25</ele></trkpt>
   <trkpt lon="9.968182" lat="52.342581"><ele>62.25</ele></trkpt>
   <trkpt lon="9.967371" lat="52.339067"><ele>64.75</ele></trkpt>
   <trkpt lon="9.967336" lat="52.338916"><ele>65.0</ele></trkpt>
   <trkpt lon="9.966231" lat="52.334128"><ele>65.5</ele></trkpt>
   <trkpt lon="9.965724" lat="52.332007"><ele>64.0</ele></trkpt>
   <trkpt lon="9.965264" lat="52.330033"><ele>63.0</ele></trkpt>
   <trkpt lon="9.965237" lat="52.329910"><ele>63.0</ele></trkpt>
   <trkpt lon="9.964972" lat="52.328688"><ele>64.0</ele></trkpt>
   <trkpt lon="9.964691" lat="52.327493"><ele>65.5</ele></trkpt>
   <trkpt lon="9.964511" lat="52.326681"><ele>68.75</ele></trkpt>
   <trkpt lon="9.964456" lat="52.326418"><ele>67.75</ele></trkpt>
   <trkpt lon="9.964406" lat="52.326197"><ele>67.25</ele></trkpt>
   <trkpt lon="9.964349" lat="52.325763"><ele>66.25</ele></trkpt>
   <trkpt lon="9.964288" lat="52.325457"><ele>66.25</ele></trkpt>
   <trkpt lon="9.964135" lat="52.325013"><ele>66.75</ele></trkpt>
   <trkpt lon="9.963963" lat="52.324252"><ele>66.25</ele></trkpt>
   <trkpt lon="9.962591" lat="52.318386"><ele>67.5</ele></trkpt>
   <trkpt lon="9.962348" lat="52.317353"><ele>67.75</ele></trkpt>
   <trkpt lon="9.962203" lat="52.316623"><ele>65.75</ele></trkpt>
   <trkpt lon="9.962155" lat="52.316422"><ele>65.5</ele></trkpt>
   <trkpt lon="9.962135" lat="52.316336"><ele>65.5</ele></trkpt>
   <trkpt lon="9.961988" lat="52.315683"><ele>65.0</ele></trkpt>
   <trkpt lon="9.961914" lat="52.315386"><ele>65.5</ele></trkpt>
   <trkpt lon="9.961659" lat="52.314198"><ele>65.75</ele></trkpt>
   <trkpt lon="9.961352" lat="52.312887"><ele>65.0</ele></trkpt>
   <trkpt lon="9.961199" lat="52.312237"><ele>64.75</ele></trkpt>
   <trkpt lon="9.960711" lat="52.310150"><ele>65.75</ele></trkpt>
   <trkpt lon="9.960683" lat="52.310038"><ele>65.75</ele></trkpt>
   <trkpt lon="9.960663" lat="52.309947"><ele>65.5</ele></trkpt>
   <trkpt lon="9.960422" lat="52.308856"><ele>65.0</ele></trkpt>
   <trkpt lon="9.960229" lat="52.307844"><ele>66.0</ele></trkpt>
   <trkpt lon="9.960179" lat="52.306493"><ele>65.5</ele></trkpt>
   <trkpt lon="9.960190" lat="52.305824"><ele>67.0</ele></trkpt>
   <trkpt lon="9.960239" lat="52.305179"><ele>67.75</ele></trkpt>
   <trkpt lon="9.960358" lat="52.304073"><ele>69.0</ele></trkpt>
   <trkpt lon="9.960432" lat="52.303479"><ele>69.0</ele></trkpt>
   <trkpt lon="9.960584" lat="52.302176"><ele>71.0</ele></trkpt>
   <trkpt lon="9.960598" lat="52.302103"><ele>71.25</ele></trkpt>
   <trkpt lon="9.960606" lat="52.302036"><ele>71.25</ele></trkpt>
   <trkpt lon="9.960663" lat="52.301539"><ele>71.25</ele></trkpt>
   <trkpt lon="9.960921" lat="52.299369"><ele>72.5</ele></trkpt>
   <trkpt lon="9.961092" lat="52.297936"><ele>75.25</ele></trkpt>
   <trkpt lon="9.961354" lat="52.295753"><ele>76.75</ele></trkpt>
   <trkpt lon="9.961528" lat="52.294285"><ele>79.25</ele></trkpt>
   <trkpt lon="9.961612" lat="52.293559"><ele>78.25</ele></trkpt>
   <trkpt lon="9.961732" lat="52.292557"><ele>79.5</ele></trkpt>
   <trkpt lon="9.962501" lat="52.286282"><ele>79.75</ele></trkpt>
   <trkpt lon="9.962751" lat="52.284170"><ele>82.75</ele></trkpt>
   <trkpt lon="9.962971" lat="52.282332"><ele>85.75</ele></trkpt>
   <trkpt lon="9.963137" lat="52.280944"><ele>86.75</ele></trkpt>
   <trkpt lon="9.963194" lat="52.280449"><ele>86.75</ele></trkpt>
   <trkpt lon="9.963399" lat="52.278665"><ele>86.25</ele></trkpt>
   <trkpt lon="9.963553" lat="52.277317"><ele>84.75</ele></trkpt>
   <trkpt lon="9.963881" lat="52.274460"><ele>83.0</ele></trkpt>
   <trkpt lon="9.964049" lat="52.273003"><ele>80.75</ele></trkpt>
   <trkpt lon="9.964110" lat="52.272486"><ele>78.75</ele></trkpt>
   <trkpt lon="9.964283" lat="52.271052"><ele>75.25</ele></trkpt>
   <trkpt lon="9.964542" lat="52.268911"><ele>72.75</ele></trkpt>
   <trkpt lon="9.964714" lat="52.267481"><ele>71.5</ele></trkpt>
   <trkpt lon="9.964797" lat="52.266800"><ele>71.75</ele></trkpt>
   <trkpt lon="9.965196" lat="52.263492"><ele>71.25</ele></trkpt>
   <trkpt lon="9.965207" lat="52.263373"><ele>71.25</ele></trkpt>
   <trkpt lon="9.965612" lat="52.259762"><ele>71.5</ele></trkpt>
   <trkpt lon="9.965624" lat="52.259662"><ele>71.25</ele></trkpt>
   <trkpt lon="9.965872" lat="52.257566"><ele>71.75</ele></trkpt>
   <trkpt lon="9.965982" lat="52.256689"><ele>72.0</ele></trkpt>
   <trkpt lon="9.966066" lat="52.255817"><ele>72.0</ele></trkpt>
   <trkpt lon="9.966265" lat="52.254316"><ele>74.0</ele></trkpt>
   <trkpt lon="9.966293" lat="52.254162"><ele>74.5</ele></trkpt>
   <trkpt lon="9.966322" lat="52.253860"><ele>75.0</ele></trkpt>
   <trkpt lon="9.966325" lat="52.253821"><ele>75.0</ele></trkpt>
   <trkpt lon="9.966471" lat="52.252606"><ele>77.5</ele></trkpt>
   <trkpt lon="9.966519" lat="52.252159"><ele>78.5</ele></trkpt>
   <trkpt lon="9.966534" lat="52.252024"><ele>78.75</ele></trkpt>
   <trkpt lon="9.966561" lat="52.251787"><ele>79.0</ele></trkpt>
   <trkpt lon="9.966613" lat="52.251331"><ele>79.5</ele></trkpt>
   <trkpt lon="9.966633" lat="52.251154"><ele>79.5</ele></trkpt>
   <trkpt lon="9.966671" lat="52.250805"><ele>79.75</ele></trkpt>
   <trkpt lon="9.966675" lat="52.250779"><ele>79.75</ele></trkpt>
   <trkpt lon="9.966832" lat="52.249623"><ele>79.5</ele></trkpt>
   <trkpt lon="9.967061" lat="52.248026"><ele>79.5</ele></trkpt>
   <trkpt lon="9.967227" lat="52.246374"><ele>77.25</ele></trkpt>
   <trkpt lon="9.967330" lat="52.245566"><ele>76.0</ele></trkpt>
   <trkpt lon="9.967480" lat="52.244383"><ele>76.0</ele></trkpt>
   <trkpt lon="9.967508" lat="52.244017"><ele>75.75</ele></trkpt>
   <trkpt lon="9.967514" lat="52.243976"><ele>75.75</ele></trkpt>
   <trkpt lon="9.967653" lat="52.242929"><ele>74.25</ele></trkpt>
   <trkpt lon="9.967744" lat="52.242073"><ele>73.0</ele></trkpt>
   <trkpt lon="9.967826" lat="52.241288"><ele>71.5</ele></trkpt>
   <trkpt lon="9.967865" lat="52.240765"><ele>70.25</ele></trkpt>
   <trkpt lon="9.967881" lat="52.240531"><ele>70.0</ele></trkpt>
   <trkpt lon="9.967912" lat="52.239885"><ele>69.25</ele></trkpt>
   <trkpt lon="9.967880" lat="52.238884"><ele>68.5</ele></trkpt>
   <trkpt lon="9.967753" lat="52.237263"><ele>66.0</ele></trkpt>
   <trkpt lon="9.967730" lat="52.236721"><ele>65.25</ele></trkpt>
   <trkpt lon="9.967673" lat="52.235880"><ele>65.0</ele></trkpt>
   <trkpt lon="9.967664" lat="52.235762"><ele>65.0</ele></trkpt>
   <trkpt lon="9.967637" lat="52.235298"><ele>65.0</ele></trkpt>
   <trkpt lon="9.967532" lat="52.233806"><ele>65.75</ele></trkpt>
   <trkpt lon="9.967522" lat="52.233682"><ele>65.75</ele></trkpt>
   <trkpt lon="9.967488" lat="52.233186"><ele>66.0</ele></trkpt>
   <trkpt lon="9.967413" lat="52.232413"><ele>66.0</ele></trkpt>
   <trkpt lon="9.967096" lat="52.227586"><ele>68.75</ele></trkpt>
   <trkpt lon="9.967000" lat="52.226133"><ele>70.0</ele></trkpt>
   <trkpt lon="9.966975" lat="52.225747"><ele>70.0</ele></trkpt>
   <trkpt lon="9.966733" lat="52.222238"><ele>71.25</ele></trkpt>
   <trkpt lon="9.966729" lat="52.222143"><ele>71.25</ele></trkpt>
   <trkpt lon="9.966653" lat="52.221152"><ele>71.75</ele></trkpt>
   <trkpt lon="9.966448" lat="52.218906"><ele>73.5</ele></trkpt>
   <trkpt lon="9.966327" lat="52.216901"><ele>76.25</ele></trkpt>
   <trkpt lon="9.966322" lat="52.216817"><ele>76.25</ele></trkpt>
   <trkpt lon="9.966220" lat="52.215139"><ele>76.75</ele></trkpt>
   <trkpt lon="9.966124" lat="52.213545"><ele>77.75</ele></trkpt>
   <trkpt lon="9.966111" lat="52.213331"><ele>78.0</ele></trkpt>
   <trkpt lon="9.966076" lat="52.212772"><ele>79.5</ele></trkpt>
   <trkpt lon="9.966087" lat="52.212126"><ele>80.0</ele></trkpt>
   <trkpt lon="9.966076" lat="52.211935"><ele>79.75</ele></trkpt>
   <trkpt lon="9.966033" lat="52.211210"><ele>80.25</ele></trkpt>
   <trkpt lon="9.965994" lat="52.210675"><ele>80.5</ele></trkpt>
   <trkpt lon="9.965819" lat="52.208278"><ele>81.75</ele></trkpt>
   <trkpt lon="9.965793" lat="52.207725"><ele>81.25</ele></trkpt>
   <trkpt lon="9.965785" lat="52.207546"><ele>81.0</ele></trkpt>
   <trkpt lon="9.965759" lat="52.207121"><ele>81.0</ele></trkpt>
   <trkpt lon="9.965758" lat="52.207109"><ele>81.0</ele></trkpt>
   <trkpt lon="9.965697" lat="52.206228"><ele>80.5</ele></trkpt>
   <trkpt lon="9.965619" lat="52.205291"><ele>80.75</ele></trkpt>
   <trkpt lon="9.965613" lat="52.205033"><ele>81.0</ele></trkpt>
   <trkpt lon="9.965609" lat="52.204977"><ele>81.25</ele></trkpt>
   <trkpt lon="9.965508" lat="52.204354"><ele>81.25</ele></trkpt>
   <trkpt lon="9.965339" lat="52.202163"><ele>81.75</ele></trkpt>
   <trkpt lon="9.965271" lat="52.201119"><ele>82.25</ele></trkpt>
   <trkpt lon="9.965252" lat="52.200817"><ele>82.75</ele></trkpt>
   <trkpt lon="9.965195" lat="52.200305"><ele>82.5</ele></trkpt>
   <trkpt lon="9.965175" lat="52.200132"><ele>82.25</ele></trkpt>
   <trkpt lon="9.965151" lat="52.199960"><ele>82.0</ele></trkpt>
   <trkpt lon="9.965042" lat="52.199199"><ele>80.0</ele></trkpt>
   <trkpt lon="9.964865" lat="52.198005"><ele>79.75</ele></trkpt>
   <trkpt lon="9.964850" lat="52.197893"><ele>79.75</ele></trkpt>
   <trkpt lon="9.964634" lat="52.196425"><ele>79.25</ele></trkpt>
   <trkpt lon="9.964453" lat="52.195215"><ele>78.75</ele></trkpt>
   <trkpt lon="9.964440" lat="52.195106"><ele>78.75</ele></trkpt>
   <trkpt lon="9.964423" lat="52.194978"><ele>78.75</ele></trkpt>
   <trkpt lon="9.964148" lat="52.193248"><ele>80.0</ele></trkpt>
   <trkpt lon="9.964104" lat="52.192857"><ele>80.5</ele></trkpt>
   <trkpt lon="9.964097" lat="52.192789"><ele>80.5</ele></trkpt>
   <trkpt lon="9.964086" lat="52.192682"><ele>80.75</ele></trkpt>
   <trkpt lon="9.963986" lat="52.192129"><ele>81.0</ele></trkpt>
   <trkpt lon="9.963702" lat="52.190162"><ele>82.25</ele></trkpt>
   <trkpt lon="9.963422" lat="52.188281"><ele>84.0</ele></trkpt>
   <trkpt lon="9.963066" lat="52.185866"><ele>83.25</ele></trkpt>
   <trkpt lon="9.962799" lat="52.184040"><ele>84.25</ele></trkpt>
   <trkpt lon="9.962613" lat="52.182785"><ele>85.0</ele></trkpt>
   <trkpt lon="9.962544" lat="52.182320"><ele>85.75</ele></trkpt>
   <trkpt lon="9.962327" lat="52.180862"><ele>86.0</ele></trkpt>
   <trkpt lon="9.962107" lat="52.179393"><ele>85.5</ele></trkpt>
   <trkpt lon="9.961998" lat="52.178723"><ele>86.25</ele></trkpt>
   <trkpt lon="9.961788" lat="52.177438"><ele>86.75</ele></trkpt>
   <trkpt lon="9.961714" lat="52.176834"><ele>86.0</ele></trkpt>
   <trkpt lon="9.961605" lat="52.175798"><ele>87.0</ele></trkpt>
   <trkpt lon="9.961603" lat="52.175512"><ele>86.5</ele></trkpt>
   <trkpt lon="9.961595" lat="52.175045"><ele>86.0</ele></trkpt>
   <trkpt lon="9.961591" lat="52.174813"><ele>86.0</ele></trkpt>
   <trkpt lon="9.961592" lat="52.174743"><ele>86.0</ele></trkpt>
   <trkpt lon="9.961612" lat="52.174318"><ele>86.0</ele></trkpt>
   <trkpt lon="9.961616" lat="52.174239"><ele>86.0</ele></trkpt>
   <trkpt lon="9.961635" lat="52.173818"><ele>85.5</ele></trkpt>
   <trkpt lon="9.961736" lat="52.173016"><ele>84.5</ele></trkpt>
   <trkpt lon="9.961827" lat="52.172431"><ele>84.0</ele></trkpt>
   <trkpt lon="9.961992" lat="52.171456"><ele>84.75</ele></trkpt>
   <trkpt lon="9.962191" lat="52.170383"><ele>86.25</ele></trkpt>
   <trkpt lon="9.962537" lat="52.168516"><ele>86.0</ele></trkpt>
   <trkpt lon="9.962558" lat="52.168299"><ele>86.0</ele></trkpt>
   <trkpt lon="9.962585" lat="52.168009"><ele>86.75</ele></trkpt>
   <trkpt lon="9.962582" lat="52.167511"><ele>87.75</ele></trkpt>
   <trkpt lon="9.962548" lat="52.167242"><ele>87.5</ele></trkpt>
   <trkpt lon="9.962499" lat="52.167001"><ele>87.25</ele></trkpt>
   <trkpt lon="9.962461" lat="52.166805"><ele>87.0</ele></trkpt>
   <trkpt lon="9.962268" lat="52.166171"><ele>86.0</ele></trkpt>
   <trkpt lon="9.962149" lat="52.165893"><ele>85.5</ele></trkpt>
   <trkpt lon="9.961866" lat="52.165366"><ele>87.0</ele></trkpt>
   <trkpt lon="9.961822" lat="52.165281"><ele>87.5</ele></trkpt>
   <trkpt lon="9.961667" lat="52.165033"><ele>88.75</ele></trkpt>
   <trkpt lon="9.961240" lat="52.164515"><ele>88.5</ele></trkpt>
   <trkpt lon="9.960959" lat="52.164201"><ele>88.0</ele></trkpt>
   <trkpt lon="9.960468" lat="52.163740"><ele>87.25</ele></trkpt>
   <trkpt lon="9.960254" lat="52.163556"><ele>87.25</ele></trkpt>
   <trkpt lon="9.960214" lat="52.163522"><ele>87.0</ele></trkpt>
   <trkpt lon="9.959882" lat="52.163262"><ele>87.25</ele></trkpt>
   <trkpt lon="9.959706" lat="52.163142"><ele>87.75</ele></trkpt>
   <trkpt lon="9.959415" lat="52.162935"><ele>88.5</ele></trkpt>
   <trkpt lon="9.959321" lat="52.162880"><ele>88.5</ele></trkpt>
   <trkpt lon="9.958996" lat="52.162685"><ele>89.0</ele></trkpt>
   <trkpt lon="9.958490" lat="52.162399"><ele>88.75</ele></trkpt>
   <trkpt lon="9.958460" lat="52.162384"><ele>88.75</ele></trkpt>
   <trkpt lon="9.957471" lat="52.161871"><ele>89.5</ele></trkpt>
   <trkpt lon="9.956718" lat="52.161584"><ele>88.75</ele></trkpt>
   <trkpt lon="9.956025" lat="52.161317"><ele>88.25</ele></trkpt>
   <trkpt lon="9.955934" lat="52.161282"><ele>88.0</ele></trkpt>
   <trkpt lon="9.955604" lat="52.161163"><ele>87.5</ele></trkpt>
   <trkpt lon="9.954999" lat="52.160963"><ele>86.5</ele></trkpt>
   <trkpt lon="9.954658" lat="52.160864"><ele>86.5</ele></trkpt>
   <trkpt lon="9.954612" lat="52.160851"><ele>86.5</ele></trkpt>
   <trkpt lon="9.954226" lat="52.160755"><ele>86.75</ele></trkpt>
   <trkpt lon="9.954011" lat="52.160700"><ele>87.0</ele></trkpt>
   <trkpt lon="9.953543" lat="52.160582"><ele>87.0</ele></trkpt>
   <trkpt lon="9.953504" lat="52.160572"><ele>87.0</ele></trkpt>
   <trkpt lon="9.953347" lat="52.160532"><ele>86.75</ele></trkpt>
   <trkpt lon="9.953176" lat="52.160489"><ele>86.75</ele></trkpt>
   <trkpt lon="9.952489" lat="52.160315"><ele>86.75</ele></trkpt>
  </trkseg>
 </trk>
</gpx>
