<?xml version="1.0" encoding="UTF-8"?>
<!-- track-length = 33529 filtered ascend = 38 plain-ascend = 7 cost=33529 energy=0.4kwh time=44m 43s -->
<gpx 
 xmlns="http://www.topografix.com/GPX/1/1" 
 xmlns:xsi="http://www.w3.org/2001/XMLSchema-instance" 
 xsi:schemaLocation="http://www.topografix.com/GPX/1/1 http://www.topografix.com/GPX/1/1/gpx.xsd" 
 version="1.1" 
 creator="BRouter-Web 0.18.1">
 <trk>
  <name>Leipzig - Halle (Saale)</name>
  <trkseg>
   <trkpt lat="51.345035" lon="12.379637"><ele>110</ele></trkpt>
   <trkpt lat="51.345259" lon="12.379883"><ele>110</ele></trkpt>
   <trkpt lat="51.345445" lon="12.380088"><ele>110</ele></trkpt>
   <trkpt lat="51.345854" lon="12.38053"><ele>110</ele></trkpt>
   <trkpt lat="51.345897" lon="12.380577"><ele>110</ele></trkpt>
   <trkpt lat="51.346853" lon="12.381612"><ele>110</ele></trkpt>
   <trkpt lat="51.347066" lon="12.381859"><ele>110</ele></trkpt>
   <trkpt lat="51.349762" lon="12.384777"><ele>110</ele></trkpt>
   <trkpt lat="51.350058" lon="12.385017"><ele>110</ele></trkpt>
   <trkpt lat="51.35037" lon="12.385229"><ele>110.75</ele></trkpt>
   <trkpt lat="51.350683" lon="12.385406"><ele>111.5</ele></trkpt>
   <trkpt lat="51.351005" lon="12.385538"><ele>111.75</ele></trkpt>
   <trkpt lat="51.351327" lon="12.385631"><ele>111.75</ele></trkpt>
   <trkpt lat="51.351655" lon="12.385688"><ele>111.75</ele></trkpt>
   <trkpt lat="51.35171" lon="12.385688"><ele>111.75</ele></trkpt>
   <trkpt lat="51.35179" lon="12.3857"><ele>111.5</ele></trkpt>
   <trkpt lat="51.352019" lon="12.38571"><ele>111.25</ele></trkpt>
   <trkpt lat="51.352463" lon="12.385668"><ele>111</ele></trkpt>
   <trkpt lat="51.352545" lon="12.385658"><ele>111</ele></trkpt>
   <trkpt lat="51.352775" lon="12.385618"><ele>111</ele></trkpt>
   <trkpt lat="51.353074" lon="12.385555"><ele>111</ele></trkpt>
   <trkpt lat="51.353382" lon="12.385448"><ele>111</ele></trkpt>
   <trkpt lat="51.353667" lon="12.38533"><ele>111.25</ele></trkpt>
   <trkpt lat="51.353715" lon="12.38531"><ele>111.25</ele></trkpt>
   <trkpt lat="51.354018" lon="12.385163"><ele>111.75</ele></trkpt>
   <trkpt lat="51.355072" lon="12.384614"><ele>111.5</ele></trkpt>
   <trkpt lat="51.355076" lon="12.384612"><ele>111.5</ele></trkpt>
   <trkpt lat="51.355517" lon="12.384389"><ele>111.25</ele></trkpt>
   <trkpt lat="51.3562" lon="12.384069"><ele>111</ele></trkpt>
   <trkpt lat="51.356602" lon="12.383831"><ele>111</ele></trkpt>
   <trkpt lat="51.357239" lon="12.383496"><ele>111.5</ele></trkpt>
   <trkpt lat="51.357697" lon="12.383248"><ele>111.5</ele></trkpt>
   <trkpt lat="51.358165" lon="12.382919"><ele>111</ele></trkpt>
   <trkpt lat="51.35846" lon="12.382661"><ele>111</ele></trkpt>
   <trkpt lat="51.358531" lon="12.382593"><ele>111</ele></trkpt>
   <trkpt lat="51.358874" lon="12.382265"><ele>111</ele></trkpt>
   <trkpt lat="51.359072" lon="12.38206"><ele>111</ele></trkpt>
   <trkpt lat="51.359188" lon="12.381916"><ele>110.75</ele></trkpt>
   <trkpt lat="51.359507" lon="12.381578"><ele>111</ele></trkpt>
   <trkpt lat="51.359529" lon="12.381549"><ele>111</ele></trkpt>
   <trkpt lat="51.359612" lon="12.38145"><ele>111.25</ele></trkpt>
   <trkpt lat="51.359793" lon="12.381227"><ele>111.75</ele></trkpt>
   <trkpt lat="51.359941" lon="12.381018"><ele>112.5</ele></trkpt>
   <trkpt lat="51.360058" lon="12.38085"><ele>112.75</ele></trkpt>
   <trkpt lat="51.360385" lon="12.380331"><ele>112.75</ele></trkpt>
   <trkpt lat="51.360522" lon="12.380074"><ele>112.5</ele></trkpt>
   <trkpt lat="51.360553" lon="12.380016"><ele>112.5</ele></trkpt>
   <trkpt lat="51.360556" lon="12.380011"><ele>112.5</ele></trkpt>
   <trkpt lat="51.360934" lon="12.37928"><ele>112</ele></trkpt>
   <trkpt lat="51.361268" lon="12.378623"><ele>112.5</ele></trkpt>
   <trkpt lat="51.361373" lon="12.378407"><ele>112.5</ele></trkpt>
   <trkpt lat="51.3615" lon="12.378125"><ele>112.5</ele></trkpt>
   <trkpt lat="51.361615" lon="12.377864"><ele>112.25</ele></trkpt>
   <trkpt lat="51.361618" lon="12.377855"><ele>112.25</ele></trkpt>
   <trkpt lat="51.361803" lon="12.377388"><ele>111.75</ele></trkpt>
   <trkpt lat="51.362016" lon="12.376784"><ele>111.75</ele></trkpt>
   <trkpt lat="51.36209" lon="12.376557"><ele>112</ele></trkpt>
   <trkpt lat="51.36301" lon="12.373767"><ele>112.75</ele></trkpt>
   <trkpt lat="51.363056" lon="12.373625"><ele>112.75</ele></trkpt>
   <trkpt lat="51.363174" lon="12.373269"><ele>112.75</ele></trkpt>
   <trkpt lat="51.363213" lon="12.373146"><ele>113</ele></trkpt>
   <trkpt lat="51.363374" lon="12.372649"><ele>113.75</ele></trkpt>
   <trkpt lat="51.364016" lon="12.370705"><ele>116.75</ele></trkpt>
   <trkpt lat="51.364036" lon="12.370642"><ele>117</ele></trkpt>
   <trkpt lat="51.364312" lon="12.369796"><ele>119</ele></trkpt>
   <trkpt lat="51.364463" lon="12.369357"><ele>119</ele></trkpt>
   <trkpt lat="51.364582" lon="12.36901"><ele>118.5</ele></trkpt>
   <trkpt lat="51.365416" lon="12.366585"><ele>118.5</ele></trkpt>
   <trkpt lat="51.365628" lon="12.365965"><ele>119</ele></trkpt>
   <trkpt lat="51.366306" lon="12.363983"><ele>120</ele></trkpt>
   <trkpt lat="51.366759" lon="12.362688"><ele>119</ele></trkpt>
   <trkpt lat="51.36685" lon="12.362422"><ele>119</ele></trkpt>
   <trkpt lat="51.366892" lon="12.3623"><ele>119.25</ele></trkpt>
   <trkpt lat="51.36721" lon="12.36137"><ele>120.75</ele></trkpt>
   <trkpt lat="51.367223" lon="12.361334"><ele>121</ele></trkpt>
   <trkpt lat="51.367244" lon="12.361272"><ele>121</ele></trkpt>
   <trkpt lat="51.367837" lon="12.359536"><ele>120.75</ele></trkpt>
   <trkpt lat="51.367873" lon="12.359429"><ele>120.75</ele></trkpt>
   <trkpt lat="51.368079" lon="12.358812"><ele>120.5</ele></trkpt>
   <trkpt lat="51.368086" lon="12.358789"><ele>120.5</ele></trkpt>
   <trkpt lat="51.368253" lon="12.358326"><ele>120.5</ele></trkpt>
   <trkpt lat="51.36838" lon="12.358014"><ele>121.5</ele></trkpt>
   <trkpt lat="51.368456" lon="12.357805"><ele>122</ele></trkpt>
   <trkpt lat="51.369873" lon="12.353596"><ele>124.5</ele></trkpt>
   <trkpt lat="51.372045" lon="12.347141"><ele>122.75</ele></trkpt>
   <trkpt lat="51.372458" lon="12.345929"><ele>121</ele></trkpt>
   <trkpt lat="51.372852" lon="12.344753"><ele>121.5</ele></trkpt>
   <trkpt lat="51.373153" lon="12.343857"><ele>120.5</ele></trkpt>
   <trkpt lat="51.373259" lon="12.34354"><ele>120.25</ele></trkpt>
   <trkpt lat="51.37339" lon="12.343136"><ele>120</ele></trkpt>
   <trkpt lat="51.373618" lon="12.342471"><ele>121</ele></trkpt>
   <trkpt lat="51.373786" lon="12.341972"><ele>121.5</ele></trkpt>
   <trkpt lat="51.374447" lon="12.339977"><ele>122.25</ele></trkpt>
   <trkpt lat="51.377615" lon="12.330646"><ele>118.25</ele></trkpt>
   <trkpt lat="51.377652" lon="12.330537"><ele>118.25</ele></trkpt>
   <trkpt lat="51.377777" lon="12.330166"><ele>118.5</ele></trkpt>
   <trkpt lat="51.377919" lon="12.329744"><ele>119</ele></trkpt>
   <trkpt lat="51.378142" lon="12.329091"><ele>120.25</ele></trkpt>
   <trkpt lat="51.378705" lon="12.327458"><ele>121.5</ele></trkpt>
   <trkpt lat="51.378982" lon="12.326659"><ele>121.5</ele></trkpt>
   <trkpt lat="51.379078" lon="12.326355"><ele>121.25</ele></trkpt>
   <trkpt lat="51.379478" lon="12.32523"><ele>122</ele></trkpt>
   <trkpt lat="51.379897" lon="12.324026"><ele>124.25</ele></trkpt>
   <trkpt lat="51.37992" lon="12.323961"><ele>124.5</ele></trkpt>
   <trkpt lat="51.379984" lon="12.323768"><ele>125</ele></trkpt>
   <trkpt lat="51.380045" lon="12.323603"><ele>125</ele></trkpt>
   <trkpt lat="51.380245" lon="12.322989"><ele>125.25</ele></trkpt>
   <trkpt lat="51.380507" lon="12.322249"><ele>125.5</ele></trkpt>
   <trkpt lat="51.380723" lon="12.321571"><ele>125.75</ele></trkpt>
   <trkpt lat="51.380999" lon="12.320652"><ele>124.75</ele></trkpt>
   <trkpt lat="51.381257" lon="12.319715"><ele>124.25</ele></trkpt>
   <trkpt lat="51.38148" lon="12.318943"><ele>124.75</ele></trkpt>
   <trkpt lat="51.381548" lon="12.318709"><ele>124.75</ele></trkpt>
   <trkpt lat="51.382107" lon="12.316849"><ele>125.5</ele></trkpt>
   <trkpt lat="51.382608" lon="12.315192"><ele>126</ele></trkpt>
   <trkpt lat="51.383268" lon="12.313118"><ele>126.25</ele></trkpt>
   <trkpt lat="51.38442" lon="12.309675"><ele>127</ele></trkpt>
   <trkpt lat="51.384704" lon="12.308833"><ele>127</ele></trkpt>
   <trkpt lat="51.384969" lon="12.308077"><ele>126.5</ele></trkpt>
   <trkpt lat="51.385216" lon="12.307399"><ele>126.25</ele></trkpt>
   <trkpt lat="51.385665" lon="12.306204"><ele>126</ele></trkpt>
   <trkpt lat="51.386039" lon="12.305166"><ele>126.25</ele></trkpt>
   <trkpt lat="51.386449" lon="12.303954"><ele>127</ele></trkpt>
   <trkpt lat="51.388055" lon="12.299175"><ele>126.25</ele></trkpt>
   <trkpt lat="51.388863" lon="12.296655"><ele>126.75</ele></trkpt>
   <trkpt lat="51.389232" lon="12.295572"><ele>126</ele></trkpt>
   <trkpt lat="51.389354" lon="12.29521"><ele>126.25</ele></trkpt>
   <trkpt lat="51.389918" lon="12.293596"><ele>127.75</ele></trkpt>
   <trkpt lat="51.389949" lon="12.29351"><ele>127.75</ele></trkpt>
   <trkpt lat="51.39027" lon="12.292598"><ele>127</ele></trkpt>
   <trkpt lat="51.390323" lon="12.292448"><ele>126.75</ele></trkpt>
   <trkpt lat="51.390667" lon="12.291455"><ele>127</ele></trkpt>
   <trkpt lat="51.39105" lon="12.290369"><ele>128.75</ele></trkpt>
   <trkpt lat="51.391942" lon="12.287887"><ele>125.75</ele></trkpt>
   <trkpt lat="51.392468" lon="12.28638"><ele>124.75</ele></trkpt>
   <trkpt lat="51.392906" lon="12.285074"><ele>125.25</ele></trkpt>
   <trkpt lat="51.393009" lon="12.284764"><ele>125</ele></trkpt>
   <trkpt lat="51.393511" lon="12.28327"><ele>123.5</ele></trkpt>
   <trkpt lat="51.393606" lon="12.282988"><ele>123.25</ele></trkpt>
   <trkpt lat="51.393838" lon="12.282259"><ele>123.25</ele></trkpt>
   <trkpt lat="51.393957" lon="12.281843"><ele>123.75</ele></trkpt>
   <trkpt lat="51.394073" lon="12.281466"><ele>124.75</ele></trkpt>
   <trkpt lat="51.394189" lon="12.281113"><ele>125.5</ele></trkpt>
   <trkpt lat="51.394285" lon="12.280828"><ele>125.5</ele></trkpt>
   <trkpt lat="51.394681" lon="12.279649"><ele>124.5</ele></trkpt>
   <trkpt lat="51.395764" lon="12.276422"><ele>127.5</ele></trkpt>
   <trkpt lat="51.399384" lon="12.265613"><ele>128</ele></trkpt>
   <trkpt lat="51.400354" lon="12.262718"><ele>128</ele></trkpt>
   <trkpt lat="51.401176" lon="12.260258"><ele>130.25</ele></trkpt>
   <trkpt lat="51.401463" lon="12.259365"><ele>130.75</ele></trkpt>
   <trkpt lat="51.401745" lon="12.258418"><ele>131</ele></trkpt>
   <trkpt lat="51.402052" lon="12.257284"><ele>131.25</ele></trkpt>
   <trkpt lat="51.40234" lon="12.256096"><ele>131.25</ele></trkpt>
   <trkpt lat="51.402583" lon="12.254965"><ele>131</ele></trkpt>
   <trkpt lat="51.402735" lon="12.254181"><ele>130.25</ele></trkpt>
   <trkpt lat="51.402946" lon="12.25296"><ele>129.25</ele></trkpt>
   <trkpt lat="51.403049" lon="12.252283"><ele>128.25</ele></trkpt>
   <trkpt lat="51.403133" lon="12.251671"><ele>127.75</ele></trkpt>
   <trkpt lat="51.403206" lon="12.251084"><ele>127</ele></trkpt>
   <trkpt lat="51.403298" lon="12.250271"><ele>126.25</ele></trkpt>
   <trkpt lat="51.403359" lon="12.249657"><ele>125.5</ele></trkpt>
   <trkpt lat="51.403402" lon="12.249157"><ele>125</ele></trkpt>
   <trkpt lat="51.403437" lon="12.248708"><ele>125</ele></trkpt>
   <trkpt lat="51.403489" lon="12.247907"><ele>124.5</ele></trkpt>
   <trkpt lat="51.403518" lon="12.247351"><ele>124.25</ele></trkpt>
   <trkpt lat="51.403539" lon="12.246833"><ele>124.25</ele></trkpt>
   <trkpt lat="51.403567" lon="12.24579"><ele>124.5</ele></trkpt>
   <trkpt lat="51.403574" lon="12.24479"><ele>124.5</ele></trkpt>
   <trkpt lat="51.403559" lon="12.243758"><ele>124.75</ele></trkpt>
   <trkpt lat="51.403548" lon="12.24335"><ele>125</ele></trkpt>
   <trkpt lat="51.403499" lon="12.242304"><ele>125.5</ele></trkpt>
   <trkpt lat="51.403324" lon="12.238893"><ele>127.75</ele></trkpt>
   <trkpt lat="51.403315" lon="12.238729"><ele>127.75</ele></trkpt>
   <trkpt lat="51.403269" lon="12.23783"><ele>127.75</ele></trkpt>
   <trkpt lat="51.40296" lon="12.231867"><ele>127</ele></trkpt>
   <trkpt lat="51.402959" lon="12.231853"><ele>127</ele></trkpt>
   <trkpt lat="51.402808" lon="12.228932"><ele>124.25</ele></trkpt>
   <trkpt lat="51.402795" lon="12.228681"><ele>124.25</ele></trkpt>
   <trkpt lat="51.40279" lon="12.228558"><ele>124.25</ele></trkpt>
   <trkpt lat="51.402728" lon="12.227363"><ele>125</ele></trkpt>
   <trkpt lat="51.402752" lon="12.227684"><ele>124.75</ele></trkpt>
   <trkpt lat="51.402805" lon="12.228129"><ele>124.5</ele></trkpt>
   <trkpt lat="51.402822" lon="12.228383"><ele>124.25</ele></trkpt>
   <trkpt lat="51.402768" lon="12.227339"><ele>125</ele></trkpt>
   <trkpt lat="51.402604" lon="12.224215"><ele>126.25</ele></trkpt>
   <trkpt lat="51.402552" lon="12.223289"><ele>126.25</ele></trkpt>
   <trkpt lat="51.402481" lon="12.222291"><ele>128</ele></trkpt>
   <trkpt lat="51.402406" lon="12.221465"><ele>128.5</ele></trkpt>
   <trkpt lat="51.402389" lon="12.221269"><ele>128.5</ele></trkpt>
   <trkpt lat="51.402353" lon="12.220884"><ele>128.75</ele></trkpt>
   <trkpt lat="51.40228" lon="12.220159"><ele>129.25</ele></trkpt>
   <trkpt lat="51.402199" lon="12.219503"><ele>129.25</ele></trkpt>
   <trkpt lat="51.402091" lon="12.218763"><ele>128.5</ele></trkpt>
   <trkpt lat="51.401888" lon="12.217468"><ele>127.25</ele></trkpt>
   <trkpt lat="51.40185" lon="12.217216"><ele>127</ele></trkpt>
   <trkpt lat="51.401778" lon="12.216754"><ele>126.75</ele></trkpt>
   <trkpt lat="51.401752" lon="12.216586"><ele>126.5</ele></trkpt>
   <trkpt lat="51.401667" lon="12.215982"><ele>126.75</ele></trkpt>
   <trkpt lat="51.401546" lon="12.215115"><ele>126.5</ele></trkpt>
   <trkpt lat="51.401442" lon="12.214174"><ele>127.25</ele></trkpt>
   <trkpt lat="51.401401" lon="12.213753"><ele>127.5</ele></trkpt>
   <trkpt lat="51.40133" lon="12.212906"><ele>128</ele></trkpt>
   <trkpt lat="51.401255" lon="12.211781"><ele>128.75</ele></trkpt>
   <trkpt lat="51.401199" lon="12.210547"><ele>129.75</ele></trkpt>
   <trkpt lat="51.40119" lon="12.209916"><ele>129.75</ele></trkpt>
   <trkpt lat="51.401174" lon="12.208886"><ele>130</ele></trkpt>
   <trkpt lat="51.401181" lon="12.208254"><ele>130</ele></trkpt>
   <trkpt lat="51.401188" lon="12.207498"><ele>129.75</ele></trkpt>
   <trkpt lat="51.401232" lon="12.206397"><ele>129</ele></trkpt>
   <trkpt lat="51.401306" lon="12.205158"><ele>128.5</ele></trkpt>
   <trkpt lat="51.401399" lon="12.204052"><ele>129</ele></trkpt>
   <trkpt lat="51.401565" lon="12.202521"><ele>128.75</ele></trkpt>
   <trkpt lat="51.401699" lon="12.201523"><ele>128.75</ele></trkpt>
   <trkpt lat="51.401858" lon="12.200528"><ele>128.75</ele></trkpt>
   <trkpt lat="51.402096" lon="12.199196"><ele>127.5</ele></trkpt>
   <trkpt lat="51.402347" lon="12.198013"><ele>125.75</ele></trkpt>
   <trkpt lat="51.402574" lon="12.197034"><ele>125</ele></trkpt>
   <trkpt lat="51.402846" lon="12.195984"><ele>125</ele></trkpt>
   <trkpt lat="51.402949" lon="12.195609"><ele>125</ele></trkpt>
   <trkpt lat="51.40315" lon="12.194893"><ele>125</ele></trkpt>
   <trkpt lat="51.403549" lon="12.193625"><ele>125.5</ele></trkpt>
   <trkpt lat="51.40393" lon="12.192529"><ele>124.25</ele></trkpt>
   <trkpt lat="51.404167" lon="12.191909"><ele>124</ele></trkpt>
   <trkpt lat="51.404258" lon="12.191671"><ele>123.75</ele></trkpt>
   <trkpt lat="51.404338" lon="12.191461"><ele>123.75</ele></trkpt>
   <trkpt lat="51.404822" lon="12.190288"><ele>123</ele></trkpt>
   <trkpt lat="51.405292" lon="12.189256"><ele>123.75</ele></trkpt>
   <trkpt lat="51.405817" lon="12.18819"><ele>124</ele></trkpt>
   <trkpt lat="51.406286" lon="12.187315"><ele>124.25</ele></trkpt>
   <trkpt lat="51.407095" lon="12.185932"><ele>124</ele></trkpt>
   <trkpt lat="51.407804" lon="12.184764"><ele>122.5</ele></trkpt>
   <trkpt lat="51.410439" lon="12.180382"><ele>120.5</ele></trkpt>
   <trkpt lat="51.413881" lon="12.174665"><ele>119.75</ele></trkpt>
   <trkpt lat="51.415465" lon="12.172025"><ele>119.5</ele></trkpt>
   <trkpt lat="51.41593" lon="12.171206"><ele>120.25</ele></trkpt>
   <trkpt lat="51.41641" lon="12.170301"><ele>120.25</ele></trkpt>
   <trkpt lat="51.41709" lon="12.168891"><ele>120.25</ele></trkpt>
   <trkpt lat="51.417478" lon="12.167995"><ele>120.25</ele></trkpt>
   <trkpt lat="51.41777" lon="12.167284"><ele>120.25</ele></trkpt>
   <trkpt lat="51.417954" lon="12.166807"><ele>119.75</ele></trkpt>
   <trkpt lat="51.418035" lon="12.166598"><ele>119.5</ele></trkpt>
   <trkpt lat="51.418388" lon="12.165624"><ele>118.75</ele></trkpt>
   <trkpt lat="51.418472" lon="12.165377"><ele>118.5</ele></trkpt>
   <trkpt lat="51.418612" lon="12.164966"><ele>118.25</ele></trkpt>
   <trkpt lat="51.418967" lon="12.163862"><ele>118.25</ele></trkpt>
   <trkpt lat="51.419812" lon="12.161216"><ele>118.25</ele></trkpt>
   <trkpt lat="51.419845" lon="12.161111"><ele>118.25</ele></trkpt>
   <trkpt lat="51.420406" lon="12.159348"><ele>117.75</ele></trkpt>
   <trkpt lat="51.423804" lon="12.148641"><ele>114.25</ele></trkpt>
   <trkpt lat="51.423843" lon="12.148514"><ele>114.25</ele></trkpt>
   <trkpt lat="51.42562" lon="12.142942"><ele>113</ele></trkpt>
   <trkpt lat="51.425657" lon="12.142825"><ele>113</ele></trkpt>
   <trkpt lat="51.425857" lon="12.142159"><ele>112.75</ele></trkpt>
   <trkpt lat="51.426033" lon="12.141523"><ele>112.75</ele></trkpt>
   <trkpt lat="51.426233" lon="12.140862"><ele>112.5</ele></trkpt>
   <trkpt lat="51.42632" lon="12.140581"><ele>112.25</ele></trkpt>
   <trkpt lat="51.426783" lon="12.139041"><ele>112.75</ele></trkpt>
   <trkpt lat="51.426852" lon="12.138824"><ele>112.75</ele></trkpt>
   <trkpt lat="51.427061" lon="12.138241"><ele>112.5</ele></trkpt>
   <trkpt lat="51.427149" lon="12.138014"><ele>112.25</ele></trkpt>
   <trkpt lat="51.427357" lon="12.137519"><ele>112</ele></trkpt>
   <trkpt lat="51.428407" lon="12.135131"><ele>112</ele></trkpt>
   <trkpt lat="51.429848" lon="12.131855"><ele>114.75</ele></trkpt>
   <trkpt lat="51.430088" lon="12.131295"><ele>114.5</ele></trkpt>
   <trkpt lat="51.43028" lon="12.13081"><ele>114</ele></trkpt>
   <trkpt lat="51.430581" lon="12.129983"><ele>113.75</ele></trkpt>
   <trkpt lat="51.430852" lon="12.129131"><ele>112.75</ele></trkpt>
   <trkpt lat="51.430941" lon="12.128818"><ele>112.5</ele></trkpt>
   <trkpt lat="51.431096" lon="12.128239"><ele>112</ele></trkpt>
   <trkpt lat="51.431256" lon="12.12757"><ele>111.25</ele></trkpt>
   <trkpt lat="51.431468" lon="12.126521"><ele>112</ele></trkpt>
   <trkpt lat="51.431555" lon="12.126004"><ele>112.75</ele></trkpt>
   <trkpt lat="51.431646" lon="12.125356"><ele>113</ele></trkpt>
   <trkpt lat="51.431729" lon="12.124701"><ele>112.25</ele></trkpt>
   <trkpt lat="51.431809" lon="12.123892"><ele>111.5</ele></trkpt>
   <trkpt lat="51.431965" lon="12.122026"><ele>112.25</ele></trkpt>
   <trkpt lat="51.432005" lon="12.121559"><ele>112</ele></trkpt>
   <trkpt lat="51.432073" lon="12.120751"><ele>111.5</ele></trkpt>
   <trkpt lat="51.432298" lon="12.118047"><ele>110</ele></trkpt>
   <trkpt lat="51.432316" lon="12.117832"><ele>109.75</ele></trkpt>
   <trkpt lat="51.43233" lon="12.117667"><ele>109.75</ele></trkpt>
   <trkpt lat="51.432336" lon="12.117591"><ele>109.5</ele></trkpt>
   <trkpt lat="51.432424" lon="12.116528"><ele>109.25</ele></trkpt>
   <trkpt lat="51.432438" lon="12.116355"><ele>109.75</ele></trkpt>
   <trkpt lat="51.432598" lon="12.114395"><ele>109.75</ele></trkpt>
   <trkpt lat="51.432673" lon="12.113349"><ele>109.75</ele></trkpt>
   <trkpt lat="51.432801" lon="12.111345"><ele>109</ele></trkpt>
   <trkpt lat="51.43297" lon="12.108688"><ele>108</ele></trkpt>
   <trkpt lat="51.432977" lon="12.108602"><ele>108</ele></trkpt>
   <trkpt lat="51.432983" lon="12.108497"><ele>108</ele></trkpt>
   <trkpt lat="51.433055" lon="12.107416"><ele>107</ele></trkpt>
   <trkpt lat="51.433119" lon="12.10669"><ele>107</ele></trkpt>
   <trkpt lat="51.433185" lon="12.106089"><ele>106.25</ele></trkpt>
   <trkpt lat="51.433267" lon="12.105449"><ele>105.5</ele></trkpt>
   <trkpt lat="51.433365" lon="12.104802"><ele>104.5</ele></trkpt>
   <trkpt lat="51.43353" lon="12.103917"><ele>103.75</ele></trkpt>
   <trkpt lat="51.433728" lon="12.103011"><ele>104.25</ele></trkpt>
   <trkpt lat="51.433843" lon="12.102538"><ele>104.75</ele></trkpt>
   <trkpt lat="51.433974" lon="12.102062"><ele>105</ele></trkpt>
   <trkpt lat="51.434115" lon="12.101604"><ele>105.5</ele></trkpt>
   <trkpt lat="51.434369" lon="12.100805"><ele>105.5</ele></trkpt>
   <trkpt lat="51.434647" lon="12.100011"><ele>104.75</ele></trkpt>
   <trkpt lat="51.434983" lon="12.099114"><ele>105</ele></trkpt>
   <trkpt lat="51.435479" lon="12.097933"><ele>104.25</ele></trkpt>
   <trkpt lat="51.435836" lon="12.097152"><ele>103.75</ele></trkpt>
   <trkpt lat="51.435937" lon="12.096943"><ele>103.75</ele></trkpt>
   <trkpt lat="51.436245" lon="12.096314"><ele>103.5</ele></trkpt>
   <trkpt lat="51.436437" lon="12.095949"><ele>103.25</ele></trkpt>
   <trkpt lat="51.436751" lon="12.095366"><ele>102.75</ele></trkpt>
   <trkpt lat="51.437062" lon="12.094824"><ele>102.75</ele></trkpt>
   <trkpt lat="51.437279" lon="12.094457"><ele>103.25</ele></trkpt>
   <trkpt lat="51.437548" lon="12.094039"><ele>104</ele></trkpt>
   <trkpt lat="51.437793" lon="12.093644"><ele>104</ele></trkpt>
   <trkpt lat="51.438354" lon="12.092824"><ele>103.75</ele></trkpt>
   <trkpt lat="51.438683" lon="12.092379"><ele>104</ele></trkpt>
   <trkpt lat="51.440241" lon="12.090315"><ele>104</ele></trkpt>
   <trkpt lat="51.440687" lon="12.089714"><ele>104.25</ele></trkpt>
   <trkpt lat="51.441133" lon="12.089081"><ele>105</ele></trkpt>
   <trkpt lat="51.441672" lon="12.088262"><ele>104.75</ele></trkpt>
   <trkpt lat="51.442196" lon="12.087402"><ele>104.25</ele></trkpt>
   <trkpt lat="51.442526" lon="12.086836"><ele>104</ele></trkpt>
   <trkpt lat="51.442874" lon="12.086194"><ele>104.25</ele></trkpt>
   <trkpt lat="51.443184" lon="12.08559"><ele>104</ele></trkpt>
   <trkpt lat="51.443486" lon="12.08498"><ele>103.75</ele></trkpt>
   <trkpt lat="51.443801" lon="12.084306"><ele>103.75</ele></trkpt>
   <trkpt lat="51.44409" lon="12.083657"><ele>103</ele></trkpt>
   <trkpt lat="51.44447" lon="12.082749"><ele>103.5</ele></trkpt>
   <trkpt lat="51.444717" lon="12.082112"><ele>104</ele></trkpt>
   <trkpt lat="51.444952" lon="12.081479"><ele>103.75</ele></trkpt>
   <trkpt lat="51.445229" lon="12.080697"><ele>103</ele></trkpt>
   <trkpt lat="51.445487" lon="12.079912"><ele>103</ele></trkpt>
   <trkpt lat="51.445724" lon="12.079142"><ele>103</ele></trkpt>
   <trkpt lat="51.445948" lon="12.078369"><ele>102.5</ele></trkpt>
   <trkpt lat="51.446173" lon="12.077523"><ele>100.5</ele></trkpt>
   <trkpt lat="51.446438" lon="12.076437"><ele>100</ele></trkpt>
   <trkpt lat="51.446598" lon="12.075711"><ele>100</ele></trkpt>
   <trkpt lat="51.446748" lon="12.07499"><ele>100</ele></trkpt>
   <trkpt lat="51.446951" lon="12.073889"><ele>100</ele></trkpt>
   <trkpt lat="51.446952" lon="12.073888"><ele>100</ele></trkpt>
   <trkpt lat="51.447449" lon="12.070815"><ele>99</ele></trkpt>
   <trkpt lat="51.447785" lon="12.068719"><ele>98.25</ele></trkpt>
   <trkpt lat="51.448284" lon="12.065595"><ele>97</ele></trkpt>
   <trkpt lat="51.448423" lon="12.064707"><ele>96.75</ele></trkpt>
   <trkpt lat="51.448751" lon="12.062695"><ele>96.75</ele></trkpt>
   <trkpt lat="51.448984" lon="12.06127"><ele>96.75</ele></trkpt>
   <trkpt lat="51.449628" lon="12.057447"><ele>95.75</ele></trkpt>
   <trkpt lat="51.45046" lon="12.052237"><ele>95.5</ele></trkpt>
   <trkpt lat="51.450503" lon="12.051968"><ele>95.75</ele></trkpt>
   <trkpt lat="51.450672" lon="12.0509"><ele>94.75</ele></trkpt>
   <trkpt lat="51.450887" lon="12.049556"><ele>94</ele></trkpt>
   <trkpt lat="51.451383" lon="12.046448"><ele>92</ele></trkpt>
   <trkpt lat="51.4515" lon="12.045707"><ele>92</ele></trkpt>
   <trkpt lat="51.451618" lon="12.044935"><ele>91.75</ele></trkpt>
   <trkpt lat="51.451895" lon="12.043251"><ele>90.75</ele></trkpt>
   <trkpt lat="51.452285" lon="12.040803"><ele>89.5</ele></trkpt>
   <trkpt lat="51.452413" lon="12.040003"><ele>89.75</ele></trkpt>
   <trkpt lat="51.452427" lon="12.039912"><ele>90</ele></trkpt>
   <trkpt lat="51.452775" lon="12.037775"><ele>92.25</ele></trkpt>
   <trkpt lat="51.452958" lon="12.036744"><ele>92.5</ele></trkpt>
   <trkpt lat="51.453141" lon="12.03581"><ele>93</ele></trkpt>
   <trkpt lat="51.453279" lon="12.035141"><ele>93</ele></trkpt>
   <trkpt lat="51.453306" lon="12.035011"><ele>93</ele></trkpt>
   <trkpt lat="51.453336" lon="12.034868"><ele>93.25</ele></trkpt>
   <trkpt lat="51.453886" lon="12.03224"><ele>97.5</ele></trkpt>
   <trkpt lat="51.454427" lon="12.029663"><ele>97</ele></trkpt>
   <trkpt lat="51.454453" lon="12.029542"><ele>96.75</ele></trkpt>
   <trkpt lat="51.454494" lon="12.029351"><ele>96.25</ele></trkpt>
   <trkpt lat="51.454537" lon="12.029146"><ele>96</ele></trkpt>
   <trkpt lat="51.454791" lon="12.027934"><ele>95</ele></trkpt>
   <trkpt lat="51.455008" lon="12.026914"><ele>94.75</ele></trkpt>
   <trkpt lat="51.455029" lon="12.026812"><ele>94.75</ele></trkpt>
   <trkpt lat="51.455271" lon="12.025664"><ele>94.25</ele></trkpt>
   <trkpt lat="51.455579" lon="12.02425"><ele>94</ele></trkpt>
   <trkpt lat="51.456751" lon="12.018799"><ele>98</ele></trkpt>
   <trkpt lat="51.456966" lon="12.017875"><ele>97.25</ele></trkpt>
   <trkpt lat="51.457166" lon="12.017081"><ele>96.75</ele></trkpt>
   <trkpt lat="51.457222" lon="12.016896"><ele>96.75</ele></trkpt>
   <trkpt lat="51.457469" lon="12.016121"><ele>97.5</ele></trkpt>
   <trkpt lat="51.457722" lon="12.015401"><ele>97.5</ele></trkpt>
   <trkpt lat="51.457856" lon="12.015011"><ele>97.5</ele></trkpt>
   <trkpt lat="51.458391" lon="12.013539"><ele>97.75</ele></trkpt>
   <trkpt lat="51.458697" lon="12.012759"><ele>97.25</ele></trkpt>
   <trkpt lat="51.458846" lon="12.012392"><ele>97.75</ele></trkpt>
   <trkpt lat="51.459066" lon="12.011858"><ele>97.75</ele></trkpt>
   <trkpt lat="51.459134" lon="12.011701"><ele>97.75</ele></trkpt>
   <trkpt lat="51.459231" lon="12.011475"><ele>98</ele></trkpt>
   <trkpt lat="51.459801" lon="12.010035"><ele>99</ele></trkpt>
   <trkpt lat="51.459932" lon="12.009721"><ele>98.5</ele></trkpt>
   <trkpt lat="51.4603" lon="12.008893"><ele>98</ele></trkpt>
   <trkpt lat="51.460693" lon="12.008074"><ele>98.25</ele></trkpt>
   <trkpt lat="51.460932" lon="12.007614"><ele>98.5</ele></trkpt>
   <trkpt lat="51.46119" lon="12.007141"><ele>98.75</ele></trkpt>
   <trkpt lat="51.461562" lon="12.006509"><ele>99</ele></trkpt>
   <trkpt lat="51.461907" lon="12.005961"><ele>99.75</ele></trkpt>
   <trkpt lat="51.462356" lon="12.005306"><ele>100.5</ele></trkpt>
   <trkpt lat="51.462866" lon="12.004641"><ele>100.5</ele></trkpt>
   <trkpt lat="51.462956" lon="12.004534"><ele>100.25</ele></trkpt>
   <trkpt lat="51.463077" lon="12.00439"><ele>100.25</ele></trkpt>
   <trkpt lat="51.463627" lon="12.003735"><ele>99.25</ele></trkpt>
   <trkpt lat="51.46404" lon="12.003285"><ele>99</ele></trkpt>
   <trkpt lat="51.464466" lon="12.002801"><ele>99.5</ele></trkpt>
   <trkpt lat="51.465177" lon="12.00194"><ele>100.5</ele></trkpt>
   <trkpt lat="51.46581" lon="12.00111"><ele>101</ele></trkpt>
   <trkpt lat="51.465929" lon="12.000947"><ele>100.75</ele></trkpt>
   <trkpt lat="51.466112" lon="12.000703"><ele>100.5</ele></trkpt>
   <trkpt lat="51.466439" lon="12.000268"><ele>100.25</ele></trkpt>
   <trkpt lat="51.466526" lon="12.000154"><ele>100</ele></trkpt>
   <trkpt lat="51.466614" lon="12.00004"><ele>100</ele></trkpt>
   <trkpt lat="51.466665" lon="11.999973"><ele>100</ele></trkpt>
   <trkpt lat="51.467412" lon="11.999055"><ele>103</ele></trkpt>
   <trkpt lat="51.467774" lon="11.998568"><ele>103.5</ele></trkpt>
   <trkpt lat="51.468119" lon="11.998026"><ele>103.5</ele></trkpt>
   <trkpt lat="51.468317" lon="11.997674"><ele>103</ele></trkpt>
   <trkpt lat="51.468577" lon="11.997168"><ele>103</ele></trkpt>
   <trkpt lat="51.469119" lon="11.996078"><ele>103.75</ele></trkpt>
   <trkpt lat="51.469383" lon="11.995613"><ele>104</ele></trkpt>
   <trkpt lat="51.469456" lon="11.995486"><ele>104</ele></trkpt>
   <trkpt lat="51.469621" lon="11.995226"><ele>104.25</ele></trkpt>
   <trkpt lat="51.469772" lon="11.994998"><ele>104.5</ele></trkpt>
   <trkpt lat="51.470047" lon="11.994629"><ele>104.75</ele></trkpt>
   <trkpt lat="51.470702" lon="11.993864"><ele>105.75</ele></trkpt>
   <trkpt lat="51.471133" lon="11.993415"><ele>106.5</ele></trkpt>
   <trkpt lat="51.471268" lon="11.993266"><ele>106.5</ele></trkpt>
   <trkpt lat="51.471627" lon="11.992832"><ele>107</ele></trkpt>
   <trkpt lat="51.471874" lon="11.992514"><ele>107.5</ele></trkpt>
   <trkpt lat="51.472451" lon="11.991743"><ele>107</ele></trkpt>
   <trkpt lat="51.472496" lon="11.991683"><ele>107</ele></trkpt>
   <trkpt lat="51.472584" lon="11.99156"><ele>107</ele></trkpt>
   <trkpt lat="51.472992" lon="11.991068"><ele>107.5</ele></trkpt>
   <trkpt lat="51.473607" lon="11.990259"><ele>108</ele></trkpt>
   <trkpt lat="51.473774" lon="11.990044"><ele>107.75</ele></trkpt>
   <trkpt lat="51.474507" lon="11.989083"><ele>108</ele></trkpt>
   <trkpt lat="51.474629" lon="11.988903"><ele>108</ele></trkpt>
   <trkpt lat="51.474889" lon="11.988572"><ele>108</ele></trkpt>
   <trkpt lat="51.475277" lon="11.988093"><ele>109.25</ele></trkpt>
   <trkpt lat="51.475577" lon="11.98776"><ele>110.25</ele></trkpt>
   <trkpt lat="51.475818" lon="11.987504"><ele>111</ele></trkpt>
   <trkpt lat="51.476162" lon="11.987174"><ele>111</ele></trkpt>
   <trkpt lat="51.476335" lon="11.987019"><ele>111</ele></trkpt>
   <trkpt lat="51.476905" lon="11.986512"><ele>111.25</ele></trkpt>
   <trkpt lat="51.477381" lon="11.986107"><ele>111.25</ele></trkpt>
   <trkpt lat="51.47753" lon="11.985987"><ele>111</ele></trkpt>
   <trkpt lat="51.477649" lon="11.985903"><ele>110.5</ele></trkpt>
   <trkpt lat="51.47774" lon="11.985843"><ele>110.25</ele></trkpt>
   <trkpt lat="51.477975" lon="11.985718"><ele>109.75</ele></trkpt>
   <trkpt lat="51.478035" lon="11.985692"><ele>109.25</ele></trkpt>
  </trkseg>
 </trk>
</gpx>