<?xml version="1.0" encoding="UTF-8"?>
<!-- track-length = 46947 filtered ascend = 156 plain-ascend = 130 cost=46973 energy=0.6kwh time=1h 2m 36s -->
<gpx 
 xmlns="http://www.topografix.com/GPX/1/1" 
 xmlns:xsi="http://www.w3.org/2001/XMLSchema-instance" 
 xsi:schemaLocation="http://www.topografix.com/GPX/1/1 http://www.topografix.com/GPX/1/1/gpx.xsd" 
 version="1.1" 
 creator="BRouter-Web 0.18.1">
 <trk>
  <name>Leipzig - Geithain2</name>
  <trkseg>
   <trkpt lat="51.324125" lon="12.411161"><ele>129.25</ele></trkpt>
   <trkpt lat="51.323507" lon="12.41069"><ele>128.75</ele></trkpt>
   <trkpt lat="51.32325" lon="12.410487"><ele>129</ele></trkpt>
   <trkpt lat="51.320346" lon="12.408132"><ele>132.5</ele></trkpt>
   <trkpt lat="51.319936" lon="12.40778"><ele>133.5</ele></trkpt>
   <trkpt lat="51.319566" lon="12.407421"><ele>135</ele></trkpt>
   <trkpt lat="51.319081" lon="12.406897"><ele>136</ele></trkpt>
   <trkpt lat="51.318812" lon="12.406579"><ele>135.25</ele></trkpt>
   <trkpt lat="51.318294" lon="12.405888"><ele>134.25</ele></trkpt>
   <trkpt lat="51.31767" lon="12.405045"><ele>135.5</ele></trkpt>
   <trkpt lat="51.317566" lon="12.404896"><ele>135.5</ele></trkpt>
   <trkpt lat="51.317148" lon="12.404381"><ele>135.25</ele></trkpt>
   <trkpt lat="51.316932" lon="12.404109"><ele>135</ele></trkpt>
   <trkpt lat="51.314392" lon="12.400646"><ele>131</ele></trkpt>
   <trkpt lat="51.314088" lon="12.400271"><ele>130</ele></trkpt>
   <trkpt lat="51.314007" lon="12.400171"><ele>129.75</ele></trkpt>
   <trkpt lat="51.313655" lon="12.399702"><ele>129.5</ele></trkpt>
   <trkpt lat="51.31334" lon="12.399241"><ele>129</ele></trkpt>
   <trkpt lat="51.313172" lon="12.398959"><ele>129</ele></trkpt>
   <trkpt lat="51.312996" lon="12.398634"><ele>129</ele></trkpt>
   <trkpt lat="51.312929" lon="12.398497"><ele>129</ele></trkpt>
   <trkpt lat="51.312797" lon="12.398227"><ele>128.75</ele></trkpt>
   <trkpt lat="51.312592" lon="12.397771"><ele>127.5</ele></trkpt>
   <trkpt lat="51.311869" lon="12.395709"><ele>127.25</ele></trkpt>
   <trkpt lat="51.311774" lon="12.395435"><ele>126.75</ele></trkpt>
   <trkpt lat="51.311655" lon="12.395104"><ele>126.25</ele></trkpt>
   <trkpt lat="51.311554" lon="12.394826"><ele>126</ele></trkpt>
   <trkpt lat="51.311365" lon="12.394354"><ele>126</ele></trkpt>
   <trkpt lat="51.311217" lon="12.394021"><ele>125.75</ele></trkpt>
   <trkpt lat="51.311073" lon="12.393721"><ele>125.75</ele></trkpt>
   <trkpt lat="51.310924" lon="12.393442"><ele>125.75</ele></trkpt>
   <trkpt lat="51.310751" lon="12.393147"><ele>126.25</ele></trkpt>
   <trkpt lat="51.310503" lon="12.392771"><ele>127</ele></trkpt>
   <trkpt lat="51.310024" lon="12.392176"><ele>126</ele></trkpt>
   <trkpt lat="51.309832" lon="12.391972"><ele>126.25</ele></trkpt>
   <trkpt lat="51.309623" lon="12.391768"><ele>126.5</ele></trkpt>
   <trkpt lat="51.309456" lon="12.391644"><ele>126.75</ele></trkpt>
   <trkpt lat="51.309248" lon="12.391476"><ele>127.25</ele></trkpt>
   <trkpt lat="51.309173" lon="12.391414"><ele>127.25</ele></trkpt>
   <trkpt lat="51.308934" lon="12.391245"><ele>127.25</ele></trkpt>
   <trkpt lat="51.308668" lon="12.391079"><ele>127.25</ele></trkpt>
   <trkpt lat="51.308121" lon="12.390831"><ele>126.25</ele></trkpt>
   <trkpt lat="51.307814" lon="12.390715"><ele>125.25</ele></trkpt>
   <trkpt lat="51.307122" lon="12.390475"><ele>123.75</ele></trkpt>
   <trkpt lat="51.306358" lon="12.390143"><ele>122</ele></trkpt>
   <trkpt lat="51.305655" lon="12.389887"><ele>120</ele></trkpt>
   <trkpt lat="51.30517" lon="12.389683"><ele>120.25</ele></trkpt>
   <trkpt lat="51.304922" lon="12.389539"><ele>120.5</ele></trkpt>
   <trkpt lat="51.304537" lon="12.389297"><ele>121</ele></trkpt>
   <trkpt lat="51.304121" lon="12.389021"><ele>121</ele></trkpt>
   <trkpt lat="51.303414" lon="12.388618"><ele>122</ele></trkpt>
   <trkpt lat="51.303127" lon="12.388436"><ele>122.25</ele></trkpt>
   <trkpt lat="51.302983" lon="12.388325"><ele>122.25</ele></trkpt>
   <trkpt lat="51.302514" lon="12.387927"><ele>123.25</ele></trkpt>
   <trkpt lat="51.301964" lon="12.38742"><ele>123.25</ele></trkpt>
   <trkpt lat="51.301785" lon="12.387254"><ele>122.75</ele></trkpt>
   <trkpt lat="51.301535" lon="12.387021"><ele>122.25</ele></trkpt>
   <trkpt lat="51.300973" lon="12.386478"><ele>121.25</ele></trkpt>
   <trkpt lat="51.300707" lon="12.386205"><ele>121.5</ele></trkpt>
   <trkpt lat="51.300474" lon="12.385947"><ele>121.5</ele></trkpt>
   <trkpt lat="51.300055" lon="12.385466"><ele>121</ele></trkpt>
   <trkpt lat="51.299847" lon="12.385196"><ele>121</ele></trkpt>
   <trkpt lat="51.299587" lon="12.384815"><ele>121</ele></trkpt>
   <trkpt lat="51.29944" lon="12.384589"><ele>120.75</ele></trkpt>
   <trkpt lat="51.299353" lon="12.384469"><ele>120.5</ele></trkpt>
   <trkpt lat="51.298928" lon="12.38382"><ele>118.5</ele></trkpt>
   <trkpt lat="51.298592" lon="12.383364"><ele>116.75</ele></trkpt>
   <trkpt lat="51.298384" lon="12.383038"><ele>116</ele></trkpt>
   <trkpt lat="51.298028" lon="12.382452"><ele>115.5</ele></trkpt>
   <trkpt lat="51.297456" lon="12.38165"><ele>115.25</ele></trkpt>
   <trkpt lat="51.297411" lon="12.381572"><ele>115.75</ele></trkpt>
   <trkpt lat="51.29716" lon="12.381202"><ele>117</ele></trkpt>
   <trkpt lat="51.296823" lon="12.380672"><ele>117.25</ele></trkpt>
   <trkpt lat="51.296441" lon="12.380043"><ele>114.75</ele></trkpt>
   <trkpt lat="51.295972" lon="12.379275"><ele>115</ele></trkpt>
   <trkpt lat="51.295649" lon="12.378758"><ele>114.75</ele></trkpt>
   <trkpt lat="51.295408" lon="12.37839"><ele>114.25</ele></trkpt>
   <trkpt lat="51.295215" lon="12.378107"><ele>113.75</ele></trkpt>
   <trkpt lat="51.294773" lon="12.377491"><ele>113.75</ele></trkpt>
   <trkpt lat="51.294707" lon="12.377401"><ele>113.5</ele></trkpt>
   <trkpt lat="51.29448" lon="12.3771"><ele>113.5</ele></trkpt>
   <trkpt lat="51.294238" lon="12.376808"><ele>113.5</ele></trkpt>
   <trkpt lat="51.293778" lon="12.37629"><ele>113.5</ele></trkpt>
   <trkpt lat="51.293552" lon="12.376033"><ele>115</ele></trkpt>
   <trkpt lat="51.293257" lon="12.375718"><ele>117</ele></trkpt>
   <trkpt lat="51.293032" lon="12.37549"><ele>118.5</ele></trkpt>
   <trkpt lat="51.292588" lon="12.375076"><ele>118.5</ele></trkpt>
   <trkpt lat="51.292167" lon="12.374689"><ele>118.25</ele></trkpt>
   <trkpt lat="51.291808" lon="12.374391"><ele>117.5</ele></trkpt>
   <trkpt lat="51.291222" lon="12.373939"><ele>116</ele></trkpt>
   <trkpt lat="51.290725" lon="12.373591"><ele>115.75</ele></trkpt>
   <trkpt lat="51.29016" lon="12.373236"><ele>115.75</ele></trkpt>
   <trkpt lat="51.289388" lon="12.372819"><ele>116</ele></trkpt>
   <trkpt lat="51.289085" lon="12.372674"><ele>116</ele></trkpt>
   <trkpt lat="51.288775" lon="12.37254"><ele>116</ele></trkpt>
   <trkpt lat="51.28805" lon="12.372273"><ele>115.75</ele></trkpt>
   <trkpt lat="51.28789" lon="12.372221"><ele>115.75</ele></trkpt>
   <trkpt lat="51.287178" lon="12.372023"><ele>116</ele></trkpt>
   <trkpt lat="51.286753" lon="12.371932"><ele>116.75</ele></trkpt>
   <trkpt lat="51.28595" lon="12.371804"><ele>115.25</ele></trkpt>
   <trkpt lat="51.285621" lon="12.371771"><ele>115</ele></trkpt>
   <trkpt lat="51.284684" lon="12.371734"><ele>115</ele></trkpt>
   <trkpt lat="51.284301" lon="12.371756"><ele>115</ele></trkpt>
   <trkpt lat="51.283596" lon="12.371815"><ele>115</ele></trkpt>
   <trkpt lat="51.283024" lon="12.371904"><ele>115</ele></trkpt>
   <trkpt lat="51.282874" lon="12.371941"><ele>115</ele></trkpt>
   <trkpt lat="51.282038" lon="12.372127"><ele>115.25</ele></trkpt>
   <trkpt lat="51.281497" lon="12.372233"><ele>115.5</ele></trkpt>
   <trkpt lat="51.279635" lon="12.372648"><ele>117.5</ele></trkpt>
   <trkpt lat="51.27933" lon="12.372716"><ele>117.25</ele></trkpt>
   <trkpt lat="51.278784" lon="12.372845"><ele>116.75</ele></trkpt>
   <trkpt lat="51.278249" lon="12.372951"><ele>116.5</ele></trkpt>
   <trkpt lat="51.277639" lon="12.373086"><ele>117.5</ele></trkpt>
   <trkpt lat="51.275112" lon="12.373658"><ele>117.5</ele></trkpt>
   <trkpt lat="51.27341" lon="12.37404"><ele>117.25</ele></trkpt>
   <trkpt lat="51.27291" lon="12.374161"><ele>117.5</ele></trkpt>
   <trkpt lat="51.27273" lon="12.374202"><ele>117.5</ele></trkpt>
   <trkpt lat="51.270789" lon="12.374635"><ele>119</ele></trkpt>
   <trkpt lat="51.2661" lon="12.375681"><ele>120.5</ele></trkpt>
   <trkpt lat="51.262131" lon="12.376564"><ele>120.75</ele></trkpt>
   <trkpt lat="51.261907" lon="12.376613"><ele>120.75</ele></trkpt>
   <trkpt lat="51.25603" lon="12.377917"><ele>119</ele></trkpt>
   <trkpt lat="51.255756" lon="12.377985"><ele>119</ele></trkpt>
   <trkpt lat="51.255495" lon="12.378023"><ele>118.75</ele></trkpt>
   <trkpt lat="51.255355" lon="12.378028"><ele>118.75</ele></trkpt>
   <trkpt lat="51.255105" lon="12.378066"><ele>118.75</ele></trkpt>
   <trkpt lat="51.255" lon="12.37809"><ele>118.5</ele></trkpt>
   <trkpt lat="51.254676" lon="12.378145"><ele>119</ele></trkpt>
   <trkpt lat="51.254316" lon="12.378179"><ele>119.25</ele></trkpt>
   <trkpt lat="51.254071" lon="12.378224"><ele>119.5</ele></trkpt>
   <trkpt lat="51.253943" lon="12.378255"><ele>119.5</ele></trkpt>
   <trkpt lat="51.253557" lon="12.378293"><ele>119</ele></trkpt>
   <trkpt lat="51.253302" lon="12.378329"><ele>119</ele></trkpt>
   <trkpt lat="51.253199" lon="12.378349"><ele>119</ele></trkpt>
   <trkpt lat="51.252488" lon="12.37851"><ele>120</ele></trkpt>
   <trkpt lat="51.251841" lon="12.378642"><ele>119.75</ele></trkpt>
   <trkpt lat="51.25117" lon="12.378763"><ele>120.5</ele></trkpt>
   <trkpt lat="51.251011" lon="12.378792"><ele>120.75</ele></trkpt>
   <trkpt lat="51.250623" lon="12.378861"><ele>121</ele></trkpt>
   <trkpt lat="51.250005" lon="12.378971"><ele>121</ele></trkpt>
   <trkpt lat="51.249938" lon="12.378983"><ele>121</ele></trkpt>
   <trkpt lat="51.249015" lon="12.379168"><ele>120.75</ele></trkpt>
   <trkpt lat="51.247241" lon="12.379562"><ele>120</ele></trkpt>
   <trkpt lat="51.244842" lon="12.380097"><ele>120.25</ele></trkpt>
   <trkpt lat="51.244826" lon="12.3801"><ele>120.25</ele></trkpt>
   <trkpt lat="51.242788" lon="12.380568"><ele>121.5</ele></trkpt>
   <trkpt lat="51.241337" lon="12.380933"><ele>123</ele></trkpt>
   <trkpt lat="51.239596" lon="12.381369"><ele>123.5</ele></trkpt>
   <trkpt lat="51.238913" lon="12.38154"><ele>123.25</ele></trkpt>
   <trkpt lat="51.238892" lon="12.381545"><ele>123.25</ele></trkpt>
   <trkpt lat="51.238694" lon="12.381595"><ele>123.5</ele></trkpt>
   <trkpt lat="51.237848" lon="12.381816"><ele>124</ele></trkpt>
   <trkpt lat="51.237368" lon="12.38194"><ele>124</ele></trkpt>
   <trkpt lat="51.237283" lon="12.381959"><ele>124</ele></trkpt>
   <trkpt lat="51.236405" lon="12.382173"><ele>124.25</ele></trkpt>
   <trkpt lat="51.236237" lon="12.382214"><ele>124</ele></trkpt>
   <trkpt lat="51.236185" lon="12.382226"><ele>124</ele></trkpt>
   <trkpt lat="51.23605" lon="12.382263"><ele>124</ele></trkpt>
   <trkpt lat="51.236039" lon="12.382265"><ele>124</ele></trkpt>
   <trkpt lat="51.235603" lon="12.382393"><ele>124</ele></trkpt>
   <trkpt lat="51.235435" lon="12.382459"><ele>124</ele></trkpt>
   <trkpt lat="51.235026" lon="12.382582"><ele>123.75</ele></trkpt>
   <trkpt lat="51.234403" lon="12.382744"><ele>124.25</ele></trkpt>
   <trkpt lat="51.23431" lon="12.382768"><ele>124.5</ele></trkpt>
   <trkpt lat="51.233619" lon="12.382908"><ele>125</ele></trkpt>
   <trkpt lat="51.232405" lon="12.383196"><ele>125.75</ele></trkpt>
   <trkpt lat="51.232074" lon="12.383264"><ele>125.25</ele></trkpt>
   <trkpt lat="51.231555" lon="12.383377"><ele>125</ele></trkpt>
   <trkpt lat="51.231428" lon="12.383407"><ele>125</ele></trkpt>
   <trkpt lat="51.230843" lon="12.38354"><ele>125</ele></trkpt>
   <trkpt lat="51.229633" lon="12.383817"><ele>125.25</ele></trkpt>
   <trkpt lat="51.229134" lon="12.383927"><ele>125.75</ele></trkpt>
   <trkpt lat="51.227369" lon="12.384315"><ele>125.5</ele></trkpt>
   <trkpt lat="51.226171" lon="12.384574"><ele>125.25</ele></trkpt>
   <trkpt lat="51.225551" lon="12.384676"><ele>125.5</ele></trkpt>
   <trkpt lat="51.225158" lon="12.38473"><ele>126</ele></trkpt>
   <trkpt lat="51.224363" lon="12.384816"><ele>123.75</ele></trkpt>
   <trkpt lat="51.224168" lon="12.384828"><ele>123</ele></trkpt>
   <trkpt lat="51.223578" lon="12.384856"><ele>123.75</ele></trkpt>
   <trkpt lat="51.223038" lon="12.384861"><ele>124</ele></trkpt>
   <trkpt lat="51.222587" lon="12.384847"><ele>124</ele></trkpt>
   <trkpt lat="51.22204" lon="12.384813"><ele>124.5</ele></trkpt>
   <trkpt lat="51.221626" lon="12.384783"><ele>124.75</ele></trkpt>
   <trkpt lat="51.221178" lon="12.384735"><ele>125</ele></trkpt>
   <trkpt lat="51.220658" lon="12.384666"><ele>125</ele></trkpt>
   <trkpt lat="51.220201" lon="12.384599"><ele>124.5</ele></trkpt>
   <trkpt lat="51.21917" lon="12.384445"><ele>122.5</ele></trkpt>
   <trkpt lat="51.218313" lon="12.384324"><ele>126.75</ele></trkpt>
   <trkpt lat="51.216386" lon="12.38405"><ele>126</ele></trkpt>
   <trkpt lat="51.216004" lon="12.383995"><ele>127.25</ele></trkpt>
   <trkpt lat="51.214568" lon="12.383787"><ele>127.25</ele></trkpt>
   <trkpt lat="51.214444" lon="12.383769"><ele>127.25</ele></trkpt>
   <trkpt lat="51.2143" lon="12.383749"><ele>127.5</ele></trkpt>
   <trkpt lat="51.212999" lon="12.383558"><ele>127.25</ele></trkpt>
   <trkpt lat="51.212992" lon="12.383557"><ele>127.25</ele></trkpt>
   <trkpt lat="51.212696" lon="12.383495"><ele>127.5</ele></trkpt>
   <trkpt lat="51.21253" lon="12.383444"><ele>127.75</ele></trkpt>
   <trkpt lat="51.212215" lon="12.383385"><ele>127.75</ele></trkpt>
   <trkpt lat="51.212063" lon="12.383361"><ele>127.75</ele></trkpt>
   <trkpt lat="51.211851" lon="12.383319"><ele>127.75</ele></trkpt>
   <trkpt lat="51.211452" lon="12.383206"><ele>127.75</ele></trkpt>
   <trkpt lat="51.21117" lon="12.38315"><ele>127.75</ele></trkpt>
   <trkpt lat="51.211021" lon="12.38313"><ele>127.75</ele></trkpt>
   <trkpt lat="51.210482" lon="12.382983"><ele>128.25</ele></trkpt>
   <trkpt lat="51.209541" lon="12.382809"><ele>130.25</ele></trkpt>
   <trkpt lat="51.207514" lon="12.382513"><ele>130</ele></trkpt>
   <trkpt lat="51.207224" lon="12.382467"><ele>130.25</ele></trkpt>
   <trkpt lat="51.206277" lon="12.382256"><ele>131</ele></trkpt>
   <trkpt lat="51.205938" lon="12.382198"><ele>131</ele></trkpt>
   <trkpt lat="51.20323" lon="12.381809"><ele>131.75</ele></trkpt>
   <trkpt lat="51.203032" lon="12.381794"><ele>131.25</ele></trkpt>
   <trkpt lat="51.202758" lon="12.381788"><ele>130.5</ele></trkpt>
   <trkpt lat="51.202646" lon="12.381791"><ele>130.25</ele></trkpt>
   <trkpt lat="51.202094" lon="12.381801"><ele>130.5</ele></trkpt>
   <trkpt lat="51.201931" lon="12.381787"><ele>130.75</ele></trkpt>
   <trkpt lat="51.20173" lon="12.38176"><ele>131</ele></trkpt>
   <trkpt lat="51.201531" lon="12.38173"><ele>131</ele></trkpt>
   <trkpt lat="51.201013" lon="12.381655"><ele>131.75</ele></trkpt>
   <trkpt lat="51.200756" lon="12.38163"><ele>132</ele></trkpt>
   <trkpt lat="51.200337" lon="12.381634"><ele>131.75</ele></trkpt>
   <trkpt lat="51.200058" lon="12.38161"><ele>131.75</ele></trkpt>
   <trkpt lat="51.199888" lon="12.381584"><ele>132</ele></trkpt>
   <trkpt lat="51.198648" lon="12.381413"><ele>133.5</ele></trkpt>
   <trkpt lat="51.198639" lon="12.381412"><ele>133.5</ele></trkpt>
   <trkpt lat="51.198057" lon="12.381328"><ele>133.75</ele></trkpt>
   <trkpt lat="51.196793" lon="12.381142"><ele>133</ele></trkpt>
   <trkpt lat="51.195751" lon="12.380987"><ele>133</ele></trkpt>
   <trkpt lat="51.195745" lon="12.380986"><ele>133</ele></trkpt>
   <trkpt lat="51.195289" lon="12.38092"><ele>133</ele></trkpt>
   <trkpt lat="51.194428" lon="12.380831"><ele>133.5</ele></trkpt>
   <trkpt lat="51.194037" lon="12.380806"><ele>133.75</ele></trkpt>
   <trkpt lat="51.193336" lon="12.380798"><ele>133.75</ele></trkpt>
   <trkpt lat="51.193047" lon="12.380801"><ele>133.5</ele></trkpt>
   <trkpt lat="51.19255" lon="12.380826"><ele>133</ele></trkpt>
   <trkpt lat="51.19213" lon="12.380862"><ele>133.25</ele></trkpt>
   <trkpt lat="51.191704" lon="12.380914"><ele>134</ele></trkpt>
   <trkpt lat="51.191354" lon="12.380972"><ele>135</ele></trkpt>
   <trkpt lat="51.190875" lon="12.381055"><ele>136</ele></trkpt>
   <trkpt lat="51.190009" lon="12.381264"><ele>137.5</ele></trkpt>
   <trkpt lat="51.189632" lon="12.381376"><ele>137.25</ele></trkpt>
   <trkpt lat="51.189136" lon="12.381537"><ele>136.75</ele></trkpt>
   <trkpt lat="51.188686" lon="12.381709"><ele>135.75</ele></trkpt>
   <trkpt lat="51.188161" lon="12.381923"><ele>135.5</ele></trkpt>
   <trkpt lat="51.18788" lon="12.382048"><ele>135.75</ele></trkpt>
   <trkpt lat="51.187348" lon="12.3823"><ele>136</ele></trkpt>
   <trkpt lat="51.186812" lon="12.382584"><ele>135.5</ele></trkpt>
   <trkpt lat="51.186282" lon="12.382885"><ele>135.75</ele></trkpt>
   <trkpt lat="51.18559" lon="12.383325"><ele>136.25</ele></trkpt>
   <trkpt lat="51.185049" lon="12.383699"><ele>135.75</ele></trkpt>
   <trkpt lat="51.184456" lon="12.384147"><ele>136.25</ele></trkpt>
   <trkpt lat="51.184163" lon="12.384381"><ele>136.25</ele></trkpt>
   <trkpt lat="51.183806" lon="12.384684"><ele>136</ele></trkpt>
   <trkpt lat="51.18325" lon="12.385166"><ele>136</ele></trkpt>
   <trkpt lat="51.181527" lon="12.386669"><ele>135</ele></trkpt>
   <trkpt lat="51.180951" lon="12.387148"><ele>135</ele></trkpt>
   <trkpt lat="51.18007" lon="12.387928"><ele>135</ele></trkpt>
   <trkpt lat="51.179978" lon="12.388007"><ele>134.75</ele></trkpt>
   <trkpt lat="51.178068" lon="12.389656"><ele>138</ele></trkpt>
   <trkpt lat="51.176731" lon="12.390811"><ele>139.75</ele></trkpt>
   <trkpt lat="51.17499" lon="12.39231"><ele>142</ele></trkpt>
   <trkpt lat="51.173805" lon="12.393324"><ele>138.5</ele></trkpt>
   <trkpt lat="51.173124" lon="12.39392"><ele>141</ele></trkpt>
   <trkpt lat="51.172025" lon="12.394873"><ele>139.25</ele></trkpt>
   <trkpt lat="51.171263" lon="12.395514"><ele>137.75</ele></trkpt>
   <trkpt lat="51.170497" lon="12.396193"><ele>137.25</ele></trkpt>
   <trkpt lat="51.168929" lon="12.39755"><ele>136.75</ele></trkpt>
   <trkpt lat="51.168846" lon="12.39762"><ele>136.75</ele></trkpt>
   <trkpt lat="51.167076" lon="12.399146"><ele>136</ele></trkpt>
   <trkpt lat="51.165892" lon="12.400175"><ele>136.5</ele></trkpt>
   <trkpt lat="51.164109" lon="12.4017"><ele>136.75</ele></trkpt>
   <trkpt lat="51.162964" lon="12.402697"><ele>136.5</ele></trkpt>
   <trkpt lat="51.162576" lon="12.403031"><ele>137.5</ele></trkpt>
   <trkpt lat="51.160895" lon="12.404492"><ele>137.75</ele></trkpt>
   <trkpt lat="51.159146" lon="12.405999"><ele>139.25</ele></trkpt>
   <trkpt lat="51.159056" lon="12.406081"><ele>139</ele></trkpt>
   <trkpt lat="51.157533" lon="12.40739"><ele>139.25</ele></trkpt>
   <trkpt lat="51.156287" lon="12.408467"><ele>140</ele></trkpt>
   <trkpt lat="51.155485" lon="12.409143"><ele>141.75</ele></trkpt>
   <trkpt lat="51.154556" lon="12.409907"><ele>142</ele></trkpt>
   <trkpt lat="51.154401" lon="12.41003"><ele>142</ele></trkpt>
   <trkpt lat="51.154359" lon="12.410063"><ele>142</ele></trkpt>
   <trkpt lat="51.15428" lon="12.410126"><ele>142</ele></trkpt>
   <trkpt lat="51.153195" lon="12.410972"><ele>141</ele></trkpt>
   <trkpt lat="51.152957" lon="12.411148"><ele>141.25</ele></trkpt>
   <trkpt lat="51.152477" lon="12.411498"><ele>142.75</ele></trkpt>
   <trkpt lat="51.152269" lon="12.411647"><ele>142.75</ele></trkpt>
   <trkpt lat="51.151353" lon="12.412274"><ele>143.25</ele></trkpt>
   <trkpt lat="51.150784" lon="12.412639"><ele>143.75</ele></trkpt>
   <trkpt lat="51.15046" lon="12.412841"><ele>143</ele></trkpt>
   <trkpt lat="51.150359" lon="12.412904"><ele>142.75</ele></trkpt>
   <trkpt lat="51.150149" lon="12.413038"><ele>142.5</ele></trkpt>
   <trkpt lat="51.149872" lon="12.413247"><ele>142</ele></trkpt>
   <trkpt lat="51.149589" lon="12.413427"><ele>142</ele></trkpt>
   <trkpt lat="51.149502" lon="12.413477"><ele>142</ele></trkpt>
   <trkpt lat="51.149152" lon="12.413701"><ele>142</ele></trkpt>
   <trkpt lat="51.148817" lon="12.413934"><ele>142.25</ele></trkpt>
   <trkpt lat="51.148532" lon="12.414106"><ele>142.5</ele></trkpt>
   <trkpt lat="51.14845" lon="12.414149"><ele>142.75</ele></trkpt>
   <trkpt lat="51.147907" lon="12.414427"><ele>142.75</ele></trkpt>
   <trkpt lat="51.147379" lon="12.414731"><ele>142.5</ele></trkpt>
   <trkpt lat="51.147164" lon="12.414874"><ele>142.5</ele></trkpt>
   <trkpt lat="51.146859" lon="12.415094"><ele>142.5</ele></trkpt>
   <trkpt lat="51.146578" lon="12.41532"><ele>143.25</ele></trkpt>
   <trkpt lat="51.146361" lon="12.415512"><ele>144</ele></trkpt>
   <trkpt lat="51.146106" lon="12.415718"><ele>144.75</ele></trkpt>
   <trkpt lat="51.142593" lon="12.418295"><ele>145.25</ele></trkpt>
   <trkpt lat="51.142304" lon="12.418511"><ele>145</ele></trkpt>
   <trkpt lat="51.141948" lon="12.418796"><ele>144.25</ele></trkpt>
   <trkpt lat="51.141607" lon="12.419107"><ele>143.5</ele></trkpt>
   <trkpt lat="51.14145" lon="12.419266"><ele>143.5</ele></trkpt>
   <trkpt lat="51.141187" lon="12.419557"><ele>143</ele></trkpt>
   <trkpt lat="51.141087" lon="12.41968"><ele>142.75</ele></trkpt>
   <trkpt lat="51.140838" lon="12.420015"><ele>142</ele></trkpt>
   <trkpt lat="51.140647" lon="12.420299"><ele>141.75</ele></trkpt>
   <trkpt lat="51.140492" lon="12.420549"><ele>141.75</ele></trkpt>
   <trkpt lat="51.140346" lon="12.420804"><ele>141.75</ele></trkpt>
   <trkpt lat="51.140084" lon="12.421325"><ele>141.75</ele></trkpt>
   <trkpt lat="51.139974" lon="12.421571"><ele>141.75</ele></trkpt>
   <trkpt lat="51.139854" lon="12.421865"><ele>142.25</ele></trkpt>
   <trkpt lat="51.139735" lon="12.422181"><ele>142.75</ele></trkpt>
   <trkpt lat="51.139625" lon="12.422503"><ele>142.75</ele></trkpt>
   <trkpt lat="51.139506" lon="12.422881"><ele>143</ele></trkpt>
   <trkpt lat="51.13942" lon="12.423185"><ele>143</ele></trkpt>
   <trkpt lat="51.139308" lon="12.423655"><ele>143</ele></trkpt>
   <trkpt lat="51.139212" lon="12.424137"><ele>143</ele></trkpt>
   <trkpt lat="51.13912" lon="12.424756"><ele>144.25</ele></trkpt>
   <trkpt lat="51.139053" lon="12.425438"><ele>145.25</ele></trkpt>
   <trkpt lat="51.138996" lon="12.426239"><ele>145.5</ele></trkpt>
   <trkpt lat="51.138517" lon="12.434675"><ele>139.75</ele></trkpt>
   <trkpt lat="51.138464" lon="12.435305"><ele>139.25</ele></trkpt>
   <trkpt lat="51.138383" lon="12.436011"><ele>138.5</ele></trkpt>
   <trkpt lat="51.138307" lon="12.436547"><ele>137.5</ele></trkpt>
   <trkpt lat="51.138159" lon="12.437461"><ele>137.5</ele></trkpt>
   <trkpt lat="51.137311" lon="12.441999"><ele>136.5</ele></trkpt>
   <trkpt lat="51.136651" lon="12.445585"><ele>136.5</ele></trkpt>
   <trkpt lat="51.136598" lon="12.445877"><ele>137</ele></trkpt>
   <trkpt lat="51.13649" lon="12.446458"><ele>138.25</ele></trkpt>
   <trkpt lat="51.136463" lon="12.446598"><ele>138.5</ele></trkpt>
   <trkpt lat="51.136443" lon="12.446695"><ele>138.5</ele></trkpt>
   <trkpt lat="51.136217" lon="12.447893"><ele>138.5</ele></trkpt>
   <trkpt lat="51.135898" lon="12.449624"><ele>138</ele></trkpt>
   <trkpt lat="51.135498" lon="12.451773"><ele>140</ele></trkpt>
   <trkpt lat="51.135311" lon="12.45282"><ele>140.5</ele></trkpt>
   <trkpt lat="51.135097" lon="12.453908"><ele>140</ele></trkpt>
   <trkpt lat="51.134409" lon="12.457617"><ele>141.25</ele></trkpt>
   <trkpt lat="51.134039" lon="12.459612"><ele>142.5</ele></trkpt>
   <trkpt lat="51.133905" lon="12.460288"><ele>143</ele></trkpt>
   <trkpt lat="51.133713" lon="12.461125"><ele>143.25</ele></trkpt>
   <trkpt lat="51.133451" lon="12.462199"><ele>143.75</ele></trkpt>
   <trkpt lat="51.133151" lon="12.463262"><ele>142.75</ele></trkpt>
   <trkpt lat="51.132077" lon="12.466907"><ele>142.25</ele></trkpt>
   <trkpt lat="51.131603" lon="12.468495"><ele>142.75</ele></trkpt>
   <trkpt lat="51.130839" lon="12.471095"><ele>143.5</ele></trkpt>
   <trkpt lat="51.130485" lon="12.472184"><ele>142.75</ele></trkpt>
   <trkpt lat="51.130238" lon="12.472868"><ele>141.75</ele></trkpt>
   <trkpt lat="51.129957" lon="12.473599"><ele>141</ele></trkpt>
   <trkpt lat="51.129892" lon="12.473751"><ele>141</ele></trkpt>
   <trkpt lat="51.129589" lon="12.474463"><ele>141.25</ele></trkpt>
   <trkpt lat="51.129137" lon="12.475431"><ele>141.5</ele></trkpt>
   <trkpt lat="51.128767" lon="12.47616"><ele>141</ele></trkpt>
   <trkpt lat="51.127692" lon="12.478198"><ele>141.5</ele></trkpt>
   <trkpt lat="51.127212" lon="12.479099"><ele>143</ele></trkpt>
   <trkpt lat="51.126998" lon="12.479457"><ele>143.25</ele></trkpt>
   <trkpt lat="51.126838" lon="12.479707"><ele>143.5</ele></trkpt>
   <trkpt lat="51.126531" lon="12.480122"><ele>143.5</ele></trkpt>
   <trkpt lat="51.12632" lon="12.480376"><ele>142.75</ele></trkpt>
   <trkpt lat="51.126099" lon="12.480612"><ele>142.25</ele></trkpt>
   <trkpt lat="51.125903" lon="12.480802"><ele>142</ele></trkpt>
   <trkpt lat="51.12558" lon="12.481078"><ele>142</ele></trkpt>
   <trkpt lat="51.125418" lon="12.481202"><ele>142</ele></trkpt>
   <trkpt lat="51.125044" lon="12.48145"><ele>142</ele></trkpt>
   <trkpt lat="51.123938" lon="12.482105"><ele>146</ele></trkpt>
   <trkpt lat="51.12365" lon="12.482273"><ele>147.75</ele></trkpt>
   <trkpt lat="51.123368" lon="12.482445"><ele>149</ele></trkpt>
   <trkpt lat="51.123061" lon="12.482624"><ele>149.5</ele></trkpt>
   <trkpt lat="51.121456" lon="12.483593"><ele>146.5</ele></trkpt>
   <trkpt lat="51.121443" lon="12.483601"><ele>146.5</ele></trkpt>
   <trkpt lat="51.120891" lon="12.483965"><ele>146</ele></trkpt>
   <trkpt lat="51.120239" lon="12.484445"><ele>145.75</ele></trkpt>
   <trkpt lat="51.12001" lon="12.484624"><ele>145.75</ele></trkpt>
   <trkpt lat="51.11983" lon="12.484766"><ele>146.25</ele></trkpt>
   <trkpt lat="51.119222" lon="12.485259"><ele>147.75</ele></trkpt>
   <trkpt lat="51.118046" lon="12.486211"><ele>147.5</ele></trkpt>
   <trkpt lat="51.116819" lon="12.487193"><ele>147</ele></trkpt>
   <trkpt lat="51.115936" lon="12.487917"><ele>146.25</ele></trkpt>
   <trkpt lat="51.114501" lon="12.489132"><ele>147.5</ele></trkpt>
   <trkpt lat="51.113892" lon="12.489628"><ele>147.25</ele></trkpt>
   <trkpt lat="51.112193" lon="12.490983"><ele>148.25</ele></trkpt>
   <trkpt lat="51.112185" lon="12.49099"><ele>148.25</ele></trkpt>
   <trkpt lat="51.111935" lon="12.491189"><ele>148.5</ele></trkpt>
   <trkpt lat="51.111314" lon="12.491691"><ele>148.75</ele></trkpt>
   <trkpt lat="51.109132" lon="12.493444"><ele>146</ele></trkpt>
   <trkpt lat="51.109127" lon="12.493448"><ele>146</ele></trkpt>
   <trkpt lat="51.107744" lon="12.494561"><ele>148</ele></trkpt>
   <trkpt lat="51.107024" lon="12.495135"><ele>147.75</ele></trkpt>
   <trkpt lat="51.106375" lon="12.495668"><ele>148</ele></trkpt>
   <trkpt lat="51.105851" lon="12.496106"><ele>148.25</ele></trkpt>
   <trkpt lat="51.104521" lon="12.497246"><ele>149.25</ele></trkpt>
   <trkpt lat="51.103877" lon="12.497806"><ele>149.5</ele></trkpt>
   <trkpt lat="51.103223" lon="12.498393"><ele>151.5</ele></trkpt>
   <trkpt lat="51.101892" lon="12.499593"><ele>151</ele></trkpt>
   <trkpt lat="51.101318" lon="12.500125"><ele>151.5</ele></trkpt>
   <trkpt lat="51.100768" lon="12.500638"><ele>152.5</ele></trkpt>
   <trkpt lat="51.099966" lon="12.501397"><ele>152</ele></trkpt>
   <trkpt lat="51.099893" lon="12.501469"><ele>152</ele></trkpt>
   <trkpt lat="51.09965" lon="12.501705"><ele>152</ele></trkpt>
   <trkpt lat="51.099281" lon="12.5021"><ele>152.5</ele></trkpt>
   <trkpt lat="51.099032" lon="12.502397"><ele>152.25</ele></trkpt>
   <trkpt lat="51.098832" lon="12.502668"><ele>152</ele></trkpt>
   <trkpt lat="51.098648" lon="12.502947"><ele>151.75</ele></trkpt>
   <trkpt lat="51.098468" lon="12.503254"><ele>151.75</ele></trkpt>
   <trkpt lat="51.098296" lon="12.503565"><ele>152</ele></trkpt>
   <trkpt lat="51.09823" lon="12.503698"><ele>152</ele></trkpt>
   <trkpt lat="51.098076" lon="12.504011"><ele>152.25</ele></trkpt>
   <trkpt lat="51.097906" lon="12.5044"><ele>152</ele></trkpt>
   <trkpt lat="51.097594" lon="12.505225"><ele>151</ele></trkpt>
   <trkpt lat="51.097448" lon="12.5057"><ele>151</ele></trkpt>
   <trkpt lat="51.097358" lon="12.506061"><ele>150.75</ele></trkpt>
   <trkpt lat="51.097219" lon="12.506673"><ele>150.25</ele></trkpt>
   <trkpt lat="51.097125" lon="12.507133"><ele>149.75</ele></trkpt>
   <trkpt lat="51.096982" lon="12.507783"><ele>149.25</ele></trkpt>
   <trkpt lat="51.096794" lon="12.508667"><ele>148</ele></trkpt>
   <trkpt lat="51.096452" lon="12.510359"><ele>145.25</ele></trkpt>
   <trkpt lat="51.096321" lon="12.511003"><ele>145</ele></trkpt>
   <trkpt lat="51.09616" lon="12.511736"><ele>144.25</ele></trkpt>
   <trkpt lat="51.095595" lon="12.514392"><ele>145.5</ele></trkpt>
   <trkpt lat="51.09502" lon="12.517077"><ele>146.75</ele></trkpt>
   <trkpt lat="51.09497" lon="12.517313"><ele>146.75</ele></trkpt>
   <trkpt lat="51.094519" lon="12.519421"><ele>147.75</ele></trkpt>
   <trkpt lat="51.094449" lon="12.519752"><ele>148.75</ele></trkpt>
   <trkpt lat="51.093103" lon="12.52609"><ele>162.75</ele></trkpt>
   <trkpt lat="51.092892" lon="12.527016"><ele>164.25</ele></trkpt>
   <trkpt lat="51.092796" lon="12.527392"><ele>164.5</ele></trkpt>
   <trkpt lat="51.092693" lon="12.527742"><ele>165</ele></trkpt>
   <trkpt lat="51.092572" lon="12.528123"><ele>165.5</ele></trkpt>
   <trkpt lat="51.092429" lon="12.528525"><ele>166</ele></trkpt>
   <trkpt lat="51.092231" lon="12.529012"><ele>166.5</ele></trkpt>
   <trkpt lat="51.092085" lon="12.529335"><ele>166.75</ele></trkpt>
   <trkpt lat="51.091929" lon="12.529654"><ele>166.75</ele></trkpt>
   <trkpt lat="51.091642" lon="12.530193"><ele>167</ele></trkpt>
   <trkpt lat="51.091459" lon="12.530499"><ele>167</ele></trkpt>
   <trkpt lat="51.091281" lon="12.530776"><ele>167</ele></trkpt>
   <trkpt lat="51.090908" lon="12.531299"><ele>165.75</ele></trkpt>
   <trkpt lat="51.090716" lon="12.531537"><ele>165</ele></trkpt>
   <trkpt lat="51.090506" lon="12.531779"><ele>165</ele></trkpt>
   <trkpt lat="51.090294" lon="12.531999"><ele>165</ele></trkpt>
   <trkpt lat="51.090086" lon="12.532199"><ele>165</ele></trkpt>
   <trkpt lat="51.089642" lon="12.532567"><ele>164.75</ele></trkpt>
   <trkpt lat="51.089324" lon="12.532789"><ele>164.5</ele></trkpt>
   <trkpt lat="51.088977" lon="12.53299"><ele>165</ele></trkpt>
   <trkpt lat="51.088372" lon="12.533302"><ele>166.75</ele></trkpt>
   <trkpt lat="51.087672" lon="12.533644"><ele>168.5</ele></trkpt>
   <trkpt lat="51.086862" lon="12.534108"><ele>169</ele></trkpt>
   <trkpt lat="51.086492" lon="12.53434"><ele>169</ele></trkpt>
   <trkpt lat="51.086121" lon="12.5346"><ele>169</ele></trkpt>
   <trkpt lat="51.085803" lon="12.534837"><ele>169</ele></trkpt>
   <trkpt lat="51.085477" lon="12.535107"><ele>169.25</ele></trkpt>
   <trkpt lat="51.085112" lon="12.535444"><ele>169.25</ele></trkpt>
   <trkpt lat="51.084117" lon="12.536406"><ele>168</ele></trkpt>
   <trkpt lat="51.083571" lon="12.536982"><ele>165.75</ele></trkpt>
   <trkpt lat="51.083408" lon="12.537171"><ele>165.25</ele></trkpt>
   <trkpt lat="51.083084" lon="12.537568"><ele>165.25</ele></trkpt>
   <trkpt lat="51.082461" lon="12.538404"><ele>167</ele></trkpt>
   <trkpt lat="51.081847" lon="12.539338"><ele>168.75</ele></trkpt>
   <trkpt lat="51.078815" lon="12.544316"><ele>169.25</ele></trkpt>
   <trkpt lat="51.078728" lon="12.544464"><ele>169.25</ele></trkpt>
   <trkpt lat="51.076185" lon="12.548651"><ele>172.25</ele></trkpt>
   <trkpt lat="51.07484" lon="12.55085"><ele>169.75</ele></trkpt>
   <trkpt lat="51.074159" lon="12.551864"><ele>175</ele></trkpt>
   <trkpt lat="51.073606" lon="12.552651"><ele>177</ele></trkpt>
   <trkpt lat="51.072067" lon="12.554688"><ele>179</ele></trkpt>
   <trkpt lat="51.071561" lon="12.55533"><ele>179.75</ele></trkpt>
   <trkpt lat="51.071189" lon="12.555882"><ele>180</ele></trkpt>
   <trkpt lat="51.070904" lon="12.556254"><ele>180.25</ele></trkpt>
   <trkpt lat="51.070573" lon="12.556718"><ele>179.75</ele></trkpt>
   <trkpt lat="51.070178" lon="12.55733"><ele>181</ele></trkpt>
   <trkpt lat="51.070012" lon="12.557593"><ele>181.25</ele></trkpt>
   <trkpt lat="51.069783" lon="12.55798"><ele>181.25</ele></trkpt>
   <trkpt lat="51.069571" lon="12.558387"><ele>181</ele></trkpt>
   <trkpt lat="51.069397" lon="12.558757"><ele>180.25</ele></trkpt>
   <trkpt lat="51.06923" lon="12.559135"><ele>179.5</ele></trkpt>
   <trkpt lat="51.068934" lon="12.559875"><ele>181.5</ele></trkpt>
   <trkpt lat="51.068737" lon="12.560434"><ele>182.5</ele></trkpt>
   <trkpt lat="51.068551" lon="12.561018"><ele>182.5</ele></trkpt>
   <trkpt lat="51.068354" lon="12.561734"><ele>181</ele></trkpt>
   <trkpt lat="51.068188" lon="12.562473"><ele>182.25</ele></trkpt>
   <trkpt lat="51.068071" lon="12.563104"><ele>183</ele></trkpt>
   <trkpt lat="51.067984" lon="12.563744"><ele>183.25</ele></trkpt>
   <trkpt lat="51.067811" lon="12.564773"><ele>183</ele></trkpt>
   <trkpt lat="51.0678" lon="12.564864"><ele>183</ele></trkpt>
   <trkpt lat="51.067774" lon="12.565071"><ele>182.75</ele></trkpt>
   <trkpt lat="51.067691" lon="12.565761"><ele>182</ele></trkpt>
   <trkpt lat="51.067601" lon="12.566387"><ele>181.25</ele></trkpt>
   <trkpt lat="51.067431" lon="12.567492"><ele>180.75</ele></trkpt>
   <trkpt lat="51.067189" lon="12.56913"><ele>179.25</ele></trkpt>
   <trkpt lat="51.067015" lon="12.570326"><ele>177.75</ele></trkpt>
   <trkpt lat="51.066986" lon="12.570526"><ele>177.75</ele></trkpt>
   <trkpt lat="51.066857" lon="12.571413"><ele>176.75</ele></trkpt>
   <trkpt lat="51.066539" lon="12.573513"><ele>179.5</ele></trkpt>
   <trkpt lat="51.066181" lon="12.575993"><ele>180.75</ele></trkpt>
   <trkpt lat="51.06616" lon="12.576138"><ele>181.25</ele></trkpt>
   <trkpt lat="51.065734" lon="12.579142"><ele>184.75</ele></trkpt>
   <trkpt lat="51.065608" lon="12.580007"><ele>185.25</ele></trkpt>
   <trkpt lat="51.065501" lon="12.58087"><ele>185.75</ele></trkpt>
   <trkpt lat="51.065437" lon="12.581562"><ele>186.25</ele></trkpt>
   <trkpt lat="51.065377" lon="12.582667"><ele>187</ele></trkpt>
   <trkpt lat="51.064818" lon="12.596187"><ele>201.25</ele></trkpt>
   <trkpt lat="51.064648" lon="12.600239"><ele>204</ele></trkpt>
   <trkpt lat="51.064526" lon="12.603612"><ele>205.25</ele></trkpt>
   <trkpt lat="51.064379" lon="12.60702"><ele>206</ele></trkpt>
   <trkpt lat="51.064348" lon="12.607632"><ele>206</ele></trkpt>
   <trkpt lat="51.064323" lon="12.60797"><ele>206.25</ele></trkpt>
   <trkpt lat="51.064283" lon="12.608466"><ele>206.75</ele></trkpt>
   <trkpt lat="51.06422" lon="12.60903"><ele>207.5</ele></trkpt>
   <trkpt lat="51.064162" lon="12.609451"><ele>208.25</ele></trkpt>
   <trkpt lat="51.064102" lon="12.609798"><ele>209</ele></trkpt>
   <trkpt lat="51.064028" lon="12.610197"><ele>209.5</ele></trkpt>
   <trkpt lat="51.063947" lon="12.610585"><ele>210</ele></trkpt>
   <trkpt lat="51.063755" lon="12.611325"><ele>210.75</ele></trkpt>
   <trkpt lat="51.063635" lon="12.611728"><ele>211</ele></trkpt>
   <trkpt lat="51.063433" lon="12.612338"><ele>210</ele></trkpt>
   <trkpt lat="51.063296" lon="12.612695"><ele>209.5</ele></trkpt>
   <trkpt lat="51.063184" lon="12.612976"><ele>209.25</ele></trkpt>
   <trkpt lat="51.063067" lon="12.613243"><ele>209</ele></trkpt>
   <trkpt lat="51.062753" lon="12.613934"><ele>208.75</ele></trkpt>
   <trkpt lat="51.062409" lon="12.614654"><ele>207</ele></trkpt>
   <trkpt lat="51.061622" lon="12.61631"><ele>206.5</ele></trkpt>
   <trkpt lat="51.060812" lon="12.618004"><ele>207.5</ele></trkpt>
   <trkpt lat="51.0601" lon="12.619402"><ele>209.75</ele></trkpt>
   <trkpt lat="51.059903" lon="12.619818"><ele>210</ele></trkpt>
   <trkpt lat="51.059688" lon="12.620307"><ele>210.25</ele></trkpt>
   <trkpt lat="51.059569" lon="12.620606"><ele>210.5</ele></trkpt>
   <trkpt lat="51.059458" lon="12.620911"><ele>210.5</ele></trkpt>
   <trkpt lat="51.059355" lon="12.621212"><ele>210.75</ele></trkpt>
   <trkpt lat="51.059025" lon="12.622363"><ele>211.25</ele></trkpt>
   <trkpt lat="51.058967" lon="12.622575"><ele>211.25</ele></trkpt>
   <trkpt lat="51.058912" lon="12.62281"><ele>211.5</ele></trkpt>
   <trkpt lat="51.058833" lon="12.623183"><ele>211.75</ele></trkpt>
   <trkpt lat="51.05872" lon="12.623807"><ele>211.75</ele></trkpt>
   <trkpt lat="51.058663" lon="12.624184"><ele>211.5</ele></trkpt>
   <trkpt lat="51.058609" lon="12.624605"><ele>211</ele></trkpt>
   <trkpt lat="51.058566" lon="12.625022"><ele>210.75</ele></trkpt>
   <trkpt lat="51.058532" lon="12.62543"><ele>211.5</ele></trkpt>
   <trkpt lat="51.058507" lon="12.625882"><ele>212.25</ele></trkpt>
   <trkpt lat="51.058494" lon="12.626253"><ele>212.75</ele></trkpt>
   <trkpt lat="51.058488" lon="12.626692"><ele>213.5</ele></trkpt>
   <trkpt lat="51.058492" lon="12.627127"><ele>213.75</ele></trkpt>
   <trkpt lat="51.058508" lon="12.62757"><ele>213.75</ele></trkpt>
   <trkpt lat="51.058558" lon="12.628417"><ele>213.25</ele></trkpt>
   <trkpt lat="51.058627" lon="12.629181"><ele>211.25</ele></trkpt>
   <trkpt lat="51.059074" lon="12.634287"><ele>202.5</ele></trkpt>
   <trkpt lat="51.059206" lon="12.635681"><ele>201</ele></trkpt>
   <trkpt lat="51.05955" lon="12.639475"><ele>196.5</ele></trkpt>
   <trkpt lat="51.059841" lon="12.642684"><ele>198.5</ele></trkpt>
   <trkpt lat="51.060027" lon="12.644838"><ele>206.25</ele></trkpt>
   <trkpt lat="51.060081" lon="12.645404"><ele>206.5</ele></trkpt>
   <trkpt lat="51.060149" lon="12.646012"><ele>206.5</ele></trkpt>
   <trkpt lat="51.060232" lon="12.64661"><ele>207.25</ele></trkpt>
   <trkpt lat="51.060334" lon="12.647216"><ele>207.25</ele></trkpt>
   <trkpt lat="51.0605" lon="12.648017"><ele>208</ele></trkpt>
   <trkpt lat="51.061904" lon="12.654121"><ele>214.25</ele></trkpt>
   <trkpt lat="51.062497" lon="12.65667"><ele>215.75</ele></trkpt>
   <trkpt lat="51.062641" lon="12.657329"><ele>216</ele></trkpt>
   <trkpt lat="51.062807" lon="12.658172"><ele>216</ele></trkpt>
   <trkpt lat="51.062986" lon="12.659285"><ele>216.5</ele></trkpt>
   <trkpt lat="51.063127" lon="12.660345"><ele>217.25</ele></trkpt>
   <trkpt lat="51.063233" lon="12.661327"><ele>218</ele></trkpt>
   <trkpt lat="51.063305" lon="12.662159"><ele>218.75</ele></trkpt>
   <trkpt lat="51.063349" lon="12.662987"><ele>219.5</ele></trkpt>
   <trkpt lat="51.06339" lon="12.664125"><ele>220</ele></trkpt>
   <trkpt lat="51.063396" lon="12.665533"><ele>219</ele></trkpt>
   <trkpt lat="51.063377" lon="12.666334"><ele>218.25</ele></trkpt>
   <trkpt lat="51.063326" lon="12.667407"><ele>218.75</ele></trkpt>
   <trkpt lat="51.063255" lon="12.668266"><ele>219.75</ele></trkpt>
   <trkpt lat="51.063155" lon="12.669252"><ele>219.75</ele></trkpt>
   <trkpt lat="51.063104" lon="12.669729"><ele>219.25</ele></trkpt>
   <trkpt lat="51.06297" lon="12.670715"><ele>218.5</ele></trkpt>
   <trkpt lat="51.062805" lon="12.671734"><ele>217.5</ele></trkpt>
   <trkpt lat="51.062631" lon="12.672697"><ele>216.5</ele></trkpt>
   <trkpt lat="51.062582" lon="12.672966"><ele>216.25</ele></trkpt>
   <trkpt lat="51.062326" lon="12.674375"><ele>214.25</ele></trkpt>
   <trkpt lat="51.061962" lon="12.676296"><ele>216.5</ele></trkpt>
   <trkpt lat="51.061553" lon="12.678441"><ele>220</ele></trkpt>
   <trkpt lat="51.06153" lon="12.678564"><ele>220.25</ele></trkpt>
   <trkpt lat="51.06117" lon="12.680495"><ele>223.75</ele></trkpt>
   <trkpt lat="51.06099" lon="12.681621"><ele>226.5</ele></trkpt>
   <trkpt lat="51.060912" lon="12.682206"><ele>226.75</ele></trkpt>
   <trkpt lat="51.06086" lon="12.682781"><ele>227.25</ele></trkpt>
   <trkpt lat="51.060789" lon="12.683776"><ele>228.5</ele></trkpt>
   <trkpt lat="51.060624" lon="12.686996"><ele>231.5</ele></trkpt>
   <trkpt lat="51.060572" lon="12.688186"><ele>233.25</ele></trkpt>
   <trkpt lat="51.060514" lon="12.689964"><ele>236.25</ele></trkpt>
   <trkpt lat="51.060491" lon="12.690587"><ele>237</ele></trkpt>
   <trkpt lat="51.060464" lon="12.691341"><ele>238</ele></trkpt>
   <trkpt lat="51.060451" lon="12.691572"><ele>238.25</ele></trkpt>
   <trkpt lat="51.060424" lon="12.691833"><ele>238.25</ele></trkpt>
   <trkpt lat="51.060377" lon="12.692144"><ele>238.5</ele></trkpt>
   <trkpt lat="51.060345" lon="12.692314"><ele>238.5</ele></trkpt>
   <trkpt lat="51.060309" lon="12.692482"><ele>238.5</ele></trkpt>
   <trkpt lat="51.06024" lon="12.692739"><ele>238.5</ele></trkpt>
   <trkpt lat="51.06014" lon="12.693043"><ele>238.25</ele></trkpt>
   <trkpt lat="51.060033" lon="12.693317"><ele>238</ele></trkpt>
   <trkpt lat="51.059838" lon="12.693762"><ele>238.25</ele></trkpt>
   <trkpt lat="51.059794" lon="12.693864"><ele>238.25</ele></trkpt>
   <trkpt lat="51.05975" lon="12.693961"><ele>238.25</ele></trkpt>
   <trkpt lat="51.058784" lon="12.696103"><ele>239</ele></trkpt>
   <trkpt lat="51.058591" lon="12.69653"><ele>238.5</ele></trkpt>
   <trkpt lat="51.058126" lon="12.697551"><ele>238</ele></trkpt>
   <trkpt lat="51.056897" lon="12.700265"><ele>240.25</ele></trkpt>
   <trkpt lat="51.056893" lon="12.700273"><ele>240.25</ele></trkpt>
   <trkpt lat="51.056695" lon="12.700711"><ele>240.75</ele></trkpt>
   <trkpt lat="51.056479" lon="12.701192"><ele>239.75</ele></trkpt>
   <trkpt lat="51.056136" lon="12.701952"><ele>239</ele></trkpt>
   <trkpt lat="51.05498" lon="12.704502"><ele>240.25</ele></trkpt>
   <trkpt lat="51.054211" lon="12.706228"><ele>239.75</ele></trkpt>
   <trkpt lat="51.053498" lon="12.707809"><ele>242.75</ele></trkpt>
   <trkpt lat="51.053221" lon="12.708413"><ele>244</ele></trkpt>
   <trkpt lat="51.052993" lon="12.708888"><ele>245.25</ele></trkpt>
   <trkpt lat="51.05278" lon="12.7093"><ele>246.25</ele></trkpt>
   <trkpt lat="51.052527" lon="12.70972"><ele>247.25</ele></trkpt>
   <trkpt lat="51.052358" lon="12.709975"><ele>247.5</ele></trkpt>
   <trkpt lat="51.052068" lon="12.710386"><ele>247.5</ele></trkpt>
   <trkpt lat="51.051616" lon="12.710958"><ele>247.25</ele></trkpt>
   <trkpt lat="51.051156" lon="12.711446"><ele>248.25</ele></trkpt>
   <trkpt lat="51.050683" lon="12.71187"><ele>249.25</ele></trkpt>
   <trkpt lat="51.050471" lon="12.712025"><ele>250</ele></trkpt>
  </trkseg>
 </trk>
</gpx>