<?xml version="1.0" encoding="UTF-8"?>
<!-- track-length = 8352 filtered ascend = 6 plain-ascend = 1 cost=8352 energy=0.1kwh time=11m 8s -->
<gpx 
 xmlns="http://www.topografix.com/GPX/1/1" 
 xmlns:xsi="http://www.w3.org/2001/XMLSchema-instance" 
 xsi:schemaLocation="http://www.topografix.com/GPX/1/1 http://www.topografix.com/GPX/1/1/gpx.xsd" 
 version="1.1" 
 creator="BRouter-Web 0.18.1">
 <trk>
  <name>Leipzig Tabakmühle NordSüd</name>
  <trkseg>
   <trkpt lat="51.320105" lon="12.386219"><ele>120</ele></trkpt>
   <trkpt lat="51.319993" lon="12.386278"><ele>120.5</ele></trkpt>
   <trkpt lat="51.319928" lon="12.386312"><ele>120.5</ele></trkpt>
   <trkpt lat="51.319206" lon="12.386684"><ele>120</ele></trkpt>
   <trkpt lat="51.319059" lon="12.386759"><ele>120.25</ele></trkpt>
   <trkpt lat="51.318596" lon="12.386996"><ele>121.25</ele></trkpt>
   <trkpt lat="51.31857" lon="12.387009"><ele>121.5</ele></trkpt>
   <trkpt lat="51.318122" lon="12.387244"><ele>121.5</ele></trkpt>
   <trkpt lat="51.31732" lon="12.387659"><ele>121.25</ele></trkpt>
   <trkpt lat="51.317269" lon="12.387685"><ele>121.25</ele></trkpt>
   <trkpt lat="51.317206" lon="12.387717"><ele>121</ele></trkpt>
   <trkpt lat="51.316494" lon="12.388091"><ele>120.5</ele></trkpt>
   <trkpt lat="51.314911" lon="12.388899"><ele>124.75</ele></trkpt>
   <trkpt lat="51.314752" lon="12.38898"><ele>124.75</ele></trkpt>
   <trkpt lat="51.314697" lon="12.389009"><ele>124.75</ele></trkpt>
   <trkpt lat="51.313899" lon="12.38942"><ele>123.25</ele></trkpt>
   <trkpt lat="51.313629" lon="12.389554"><ele>123.25</ele></trkpt>
   <trkpt lat="51.313424" lon="12.389647"><ele>123.25</ele></trkpt>
   <trkpt lat="51.312884" lon="12.389866"><ele>123.5</ele></trkpt>
   <trkpt lat="51.312331" lon="12.390036"><ele>123.75</ele></trkpt>
   <trkpt lat="51.311949" lon="12.390152"><ele>123.75</ele></trkpt>
   <trkpt lat="51.311445" lon="12.390263"><ele>123.75</ele></trkpt>
   <trkpt lat="51.310885" lon="12.390356"><ele>123.75</ele></trkpt>
   <trkpt lat="51.310483" lon="12.390405"><ele>124.25</ele></trkpt>
   <trkpt lat="51.30959" lon="12.39049"><ele>125.25</ele></trkpt>
   <trkpt lat="51.309498" lon="12.390494"><ele>125.25</ele></trkpt>
   <trkpt lat="51.309403" lon="12.390498"><ele>125.25</ele></trkpt>
   <trkpt lat="51.309195" lon="12.390509"><ele>125.5</ele></trkpt>
   <trkpt lat="51.308887" lon="12.390521"><ele>125.75</ele></trkpt>
   <trkpt lat="51.308535" lon="12.390528"><ele>126</ele></trkpt>
   <trkpt lat="51.308028" lon="12.390472"><ele>125.25</ele></trkpt>
   <trkpt lat="51.307862" lon="12.390442"><ele>124.75</ele></trkpt>
   <trkpt lat="51.307407" lon="12.390336"><ele>123.75</ele></trkpt>
   <trkpt lat="51.307144" lon="12.390251"><ele>123.25</ele></trkpt>
   <trkpt lat="51.306874" lon="12.390149"><ele>123</ele></trkpt>
   <trkpt lat="51.305689" lon="12.389663"><ele>120.25</ele></trkpt>
   <trkpt lat="51.305203" lon="12.389444"><ele>120.5</ele></trkpt>
   <trkpt lat="51.304453" lon="12.389074"><ele>121</ele></trkpt>
   <trkpt lat="51.304013" lon="12.388821"><ele>121.25</ele></trkpt>
   <trkpt lat="51.303476" lon="12.388482"><ele>121.75</ele></trkpt>
   <trkpt lat="51.303068" lon="12.388202"><ele>122.25</ele></trkpt>
   <trkpt lat="51.302544" lon="12.387803"><ele>123.5</ele></trkpt>
   <trkpt lat="51.30199" lon="12.387352"><ele>123.25</ele></trkpt>
   <trkpt lat="51.301806" lon="12.387186"><ele>122.75</ele></trkpt>
   <trkpt lat="51.301556" lon="12.38696"><ele>122.25</ele></trkpt>
   <trkpt lat="51.300998" lon="12.386419"><ele>121.5</ele></trkpt>
   <trkpt lat="51.30074" lon="12.386151"><ele>121.5</ele></trkpt>
   <trkpt lat="51.300494" lon="12.385882"><ele>121.5</ele></trkpt>
   <trkpt lat="51.300348" lon="12.385723"><ele>121.25</ele></trkpt>
   <trkpt lat="51.300247" lon="12.385606"><ele>121.25</ele></trkpt>
   <trkpt lat="51.299874" lon="12.38517"><ele>121</ele></trkpt>
   <trkpt lat="51.299602" lon="12.38481"><ele>121</ele></trkpt>
   <trkpt lat="51.29944" lon="12.384589"><ele>120.75</ele></trkpt>
   <trkpt lat="51.299353" lon="12.384469"><ele>120.5</ele></trkpt>
   <trkpt lat="51.298928" lon="12.38382"><ele>118.5</ele></trkpt>
   <trkpt lat="51.298592" lon="12.383364"><ele>116.75</ele></trkpt>
   <trkpt lat="51.298384" lon="12.383038"><ele>116</ele></trkpt>
   <trkpt lat="51.298028" lon="12.382452"><ele>115.5</ele></trkpt>
   <trkpt lat="51.297456" lon="12.38165"><ele>115.25</ele></trkpt>
   <trkpt lat="51.297411" lon="12.381572"><ele>115.75</ele></trkpt>
   <trkpt lat="51.29716" lon="12.381202"><ele>117</ele></trkpt>
   <trkpt lat="51.296823" lon="12.380672"><ele>117.25</ele></trkpt>
   <trkpt lat="51.296441" lon="12.380043"><ele>114.75</ele></trkpt>
   <trkpt lat="51.295972" lon="12.379275"><ele>115</ele></trkpt>
   <trkpt lat="51.295649" lon="12.378758"><ele>114.75</ele></trkpt>
   <trkpt lat="51.295408" lon="12.37839"><ele>114.25</ele></trkpt>
   <trkpt lat="51.295215" lon="12.378107"><ele>113.75</ele></trkpt>
   <trkpt lat="51.294773" lon="12.377491"><ele>113.75</ele></trkpt>
   <trkpt lat="51.294707" lon="12.377401"><ele>113.5</ele></trkpt>
   <trkpt lat="51.29448" lon="12.3771"><ele>113.5</ele></trkpt>
   <trkpt lat="51.294238" lon="12.376808"><ele>113.5</ele></trkpt>
   <trkpt lat="51.293778" lon="12.37629"><ele>113.5</ele></trkpt>
   <trkpt lat="51.293552" lon="12.376033"><ele>115</ele></trkpt>
   <trkpt lat="51.293257" lon="12.375718"><ele>117</ele></trkpt>
   <trkpt lat="51.293032" lon="12.37549"><ele>118.5</ele></trkpt>
   <trkpt lat="51.292588" lon="12.375076"><ele>118.5</ele></trkpt>
   <trkpt lat="51.292167" lon="12.374689"><ele>118.25</ele></trkpt>
   <trkpt lat="51.291808" lon="12.374391"><ele>117.5</ele></trkpt>
   <trkpt lat="51.291222" lon="12.373939"><ele>116</ele></trkpt>
   <trkpt lat="51.290725" lon="12.373591"><ele>115.75</ele></trkpt>
   <trkpt lat="51.29016" lon="12.373236"><ele>115.75</ele></trkpt>
   <trkpt lat="51.289388" lon="12.372819"><ele>116</ele></trkpt>
   <trkpt lat="51.289085" lon="12.372674"><ele>116</ele></trkpt>
   <trkpt lat="51.288775" lon="12.37254"><ele>116</ele></trkpt>
   <trkpt lat="51.28805" lon="12.372273"><ele>115.75</ele></trkpt>
   <trkpt lat="51.28789" lon="12.372221"><ele>115.75</ele></trkpt>
   <trkpt lat="51.287178" lon="12.372023"><ele>116</ele></trkpt>
   <trkpt lat="51.286753" lon="12.371932"><ele>116.75</ele></trkpt>
   <trkpt lat="51.28595" lon="12.371804"><ele>115.25</ele></trkpt>
   <trkpt lat="51.285621" lon="12.371771"><ele>115</ele></trkpt>
   <trkpt lat="51.284684" lon="12.371734"><ele>115</ele></trkpt>
   <trkpt lat="51.284301" lon="12.371756"><ele>115</ele></trkpt>
   <trkpt lat="51.283596" lon="12.371815"><ele>115</ele></trkpt>
   <trkpt lat="51.283024" lon="12.371904"><ele>115</ele></trkpt>
   <trkpt lat="51.282874" lon="12.371941"><ele>115</ele></trkpt>
   <trkpt lat="51.282038" lon="12.372127"><ele>115.25</ele></trkpt>
   <trkpt lat="51.281497" lon="12.372233"><ele>115.5</ele></trkpt>
   <trkpt lat="51.279635" lon="12.372648"><ele>117.5</ele></trkpt>
   <trkpt lat="51.27933" lon="12.372716"><ele>117.25</ele></trkpt>
   <trkpt lat="51.278784" lon="12.372845"><ele>116.75</ele></trkpt>
   <trkpt lat="51.278249" lon="12.372951"><ele>116.5</ele></trkpt>
   <trkpt lat="51.277639" lon="12.373086"><ele>117.5</ele></trkpt>
   <trkpt lat="51.275112" lon="12.373658"><ele>117.5</ele></trkpt>
   <trkpt lat="51.27341" lon="12.37404"><ele>117.25</ele></trkpt>
   <trkpt lat="51.27291" lon="12.374161"><ele>117.5</ele></trkpt>
   <trkpt lat="51.27273" lon="12.374202"><ele>117.5</ele></trkpt>
   <trkpt lat="51.270789" lon="12.374635"><ele>119</ele></trkpt>
   <trkpt lat="51.2661" lon="12.375681"><ele>120.5</ele></trkpt>
   <trkpt lat="51.262131" lon="12.376564"><ele>120.75</ele></trkpt>
   <trkpt lat="51.261907" lon="12.376613"><ele>120.75</ele></trkpt>
   <trkpt lat="51.25603" lon="12.377917"><ele>119</ele></trkpt>
   <trkpt lat="51.255756" lon="12.377985"><ele>119</ele></trkpt>
   <trkpt lat="51.255495" lon="12.378023"><ele>118.75</ele></trkpt>
   <trkpt lat="51.255355" lon="12.378028"><ele>118.75</ele></trkpt>
   <trkpt lat="51.255105" lon="12.378066"><ele>118.75</ele></trkpt>
   <trkpt lat="51.255" lon="12.37809"><ele>118.5</ele></trkpt>
   <trkpt lat="51.254676" lon="12.378145"><ele>119</ele></trkpt>
   <trkpt lat="51.254316" lon="12.378179"><ele>119.25</ele></trkpt>
   <trkpt lat="51.254071" lon="12.378224"><ele>119.5</ele></trkpt>
   <trkpt lat="51.253943" lon="12.378255"><ele>119.5</ele></trkpt>
   <trkpt lat="51.253557" lon="12.378293"><ele>119</ele></trkpt>
   <trkpt lat="51.253302" lon="12.378329"><ele>119</ele></trkpt>
   <trkpt lat="51.253199" lon="12.378349"><ele>119</ele></trkpt>
   <trkpt lat="51.252488" lon="12.37851"><ele>120</ele></trkpt>
   <trkpt lat="51.251841" lon="12.378642"><ele>119.75</ele></trkpt>
   <trkpt lat="51.25117" lon="12.378763"><ele>120.5</ele></trkpt>
   <trkpt lat="51.251011" lon="12.378792"><ele>120.75</ele></trkpt>
   <trkpt lat="51.250623" lon="12.378861"><ele>121</ele></trkpt>
   <trkpt lat="51.250005" lon="12.378971"><ele>121</ele></trkpt>
   <trkpt lat="51.249938" lon="12.378983"><ele>121</ele></trkpt>
   <trkpt lat="51.249247" lon="12.379121"><ele>120.75</ele></trkpt>
  </trkseg>
 </trk>
</gpx>