<?xml version="1.0" encoding="UTF-8"?>
<!-- track-length = 11375 filtered ascend = 28 plain-ascend = 19 cost=11375 energy=0.1kwh time=15m 10s -->
<gpx 
 xmlns="http://www.topografix.com/GPX/1/1" 
 xmlns:xsi="http://www.w3.org/2001/XMLSchema-instance" 
 xsi:schemaLocation="http://www.topografix.com/GPX/1/1 http://www.topografix.com/GPX/1/1/gpx.xsd" 
 version="1.1" 
 creator="BRouter-Web 0.18.1">
 <trk>
  <name>Leipzig Hbf - Leipzig Engelsdorf via Stötteritz</name>
  <trkseg>
   <trkpt lat="51.345918" lon="12.380599"><ele>115</ele></trkpt>
   <trkpt lat="51.345897" lon="12.380577"><ele>115</ele></trkpt>
   <trkpt lat="51.345854" lon="12.38053"><ele>115</ele></trkpt>
   <trkpt lat="51.345445" lon="12.380088"><ele>115</ele></trkpt>
   <trkpt lat="51.345259" lon="12.379883"><ele>115</ele></trkpt>
   <trkpt lat="51.344807" lon="12.379385"><ele>115</ele></trkpt>
   <trkpt lat="51.344699" lon="12.379239"><ele>115</ele></trkpt>
   <trkpt lat="51.344522" lon="12.379002"><ele>115</ele></trkpt>
   <trkpt lat="51.344288" lon="12.378632"><ele>115</ele></trkpt>
   <trkpt lat="51.344244" lon="12.378562"><ele>115</ele></trkpt>
   <trkpt lat="51.343935" lon="12.378073"><ele>115</ele></trkpt>
   <trkpt lat="51.343444" lon="12.377241"><ele>115</ele></trkpt>
   <trkpt lat="51.342948" lon="12.376441"><ele>115</ele></trkpt>
   <trkpt lat="51.342679" lon="12.376055"><ele>115</ele></trkpt>
   <trkpt lat="51.342415" lon="12.375703"><ele>115</ele></trkpt>
   <trkpt lat="51.342122" lon="12.375367"><ele>115</ele></trkpt>
   <trkpt lat="51.341749" lon="12.375031"><ele>115</ele></trkpt>
   <trkpt lat="51.341376" lon="12.374787"><ele>115</ele></trkpt>
   <trkpt lat="51.3409" lon="12.374557"><ele>115</ele></trkpt>
   <trkpt lat="51.340715" lon="12.374497"><ele>115</ele></trkpt>
   <trkpt lat="51.340332" lon="12.374392"><ele>115</ele></trkpt>
   <trkpt lat="51.340079" lon="12.374383"><ele>115</ele></trkpt>
   <trkpt lat="51.339575" lon="12.374443"><ele>115</ele></trkpt>
   <trkpt lat="51.338698" lon="12.374576"><ele>115</ele></trkpt>
   <trkpt lat="51.337803" lon="12.374742"><ele>115</ele></trkpt>
   <trkpt lat="51.337236" lon="12.374893"><ele>115</ele></trkpt>
   <trkpt lat="51.336662" lon="12.375024"><ele>115</ele></trkpt>
   <trkpt lat="51.335423" lon="12.37523"><ele>115</ele></trkpt>
   <trkpt lat="51.335102" lon="12.37531"><ele>115</ele></trkpt>
   <trkpt lat="51.334852" lon="12.375409"><ele>115</ele></trkpt>
   <trkpt lat="51.334659" lon="12.375497"><ele>115</ele></trkpt>
   <trkpt lat="51.33451" lon="12.375586"><ele>115</ele></trkpt>
   <trkpt lat="51.334323" lon="12.375714"><ele>115</ele></trkpt>
   <trkpt lat="51.334192" lon="12.375816"><ele>115</ele></trkpt>
   <trkpt lat="51.334016" lon="12.375989"><ele>115</ele></trkpt>
   <trkpt lat="51.333746" lon="12.376255"><ele>115.25</ele></trkpt>
   <trkpt lat="51.33339" lon="12.376631"><ele>115.5</ele></trkpt>
   <trkpt lat="51.333036" lon="12.377107"><ele>115.75</ele></trkpt>
   <trkpt lat="51.331795" lon="12.379116"><ele>116.75</ele></trkpt>
   <trkpt lat="51.330963" lon="12.38029"><ele>117.25</ele></trkpt>
   <trkpt lat="51.330469" lon="12.380771"><ele>117.75</ele></trkpt>
   <trkpt lat="51.330135" lon="12.381045"><ele>117.75</ele></trkpt>
   <trkpt lat="51.329694" lon="12.38135"><ele>117.75</ele></trkpt>
   <trkpt lat="51.329656" lon="12.381368"><ele>117.75</ele></trkpt>
   <trkpt lat="51.329502" lon="12.381445"><ele>117.75</ele></trkpt>
   <trkpt lat="51.328841" lon="12.381788"><ele>118</ele></trkpt>
   <trkpt lat="51.328645" lon="12.381904"><ele>118</ele></trkpt>
   <trkpt lat="51.328462" lon="12.382013"><ele>118</ele></trkpt>
   <trkpt lat="51.325871" lon="12.383293"><ele>119</ele></trkpt>
   <trkpt lat="51.325693" lon="12.383375"><ele>119</ele></trkpt>
   <trkpt lat="51.325311" lon="12.383558"><ele>119.25</ele></trkpt>
   <trkpt lat="51.325113" lon="12.383651"><ele>119.5</ele></trkpt>
   <trkpt lat="51.323167" lon="12.384636"><ele>119</ele></trkpt>
   <trkpt lat="51.323058" lon="12.38469"><ele>119</ele></trkpt>
   <trkpt lat="51.321438" lon="12.38553"><ele>118.5</ele></trkpt>
   <trkpt lat="51.320405" lon="12.386065"><ele>119.5</ele></trkpt>
   <trkpt lat="51.319993" lon="12.386278"><ele>120.5</ele></trkpt>
   <trkpt lat="51.319928" lon="12.386312"><ele>120.5</ele></trkpt>
   <trkpt lat="51.319206" lon="12.386684"><ele>120</ele></trkpt>
   <trkpt lat="51.319059" lon="12.386759"><ele>120.25</ele></trkpt>
   <trkpt lat="51.318596" lon="12.386996"><ele>121.25</ele></trkpt>
   <trkpt lat="51.31857" lon="12.387009"><ele>121.5</ele></trkpt>
   <trkpt lat="51.318122" lon="12.387244"><ele>121.5</ele></trkpt>
   <trkpt lat="51.31732" lon="12.387659"><ele>121.25</ele></trkpt>
   <trkpt lat="51.317269" lon="12.387685"><ele>121.25</ele></trkpt>
   <trkpt lat="51.317206" lon="12.387717"><ele>121</ele></trkpt>
   <trkpt lat="51.316824" lon="12.387893"><ele>120.75</ele></trkpt>
   <trkpt lat="51.316393" lon="12.388076"><ele>120.5</ele></trkpt>
   <trkpt lat="51.315956" lon="12.388264"><ele>121</ele></trkpt>
   <trkpt lat="51.315676" lon="12.388384"><ele>121.75</ele></trkpt>
   <trkpt lat="51.315525" lon="12.388449"><ele>122.25</ele></trkpt>
   <trkpt lat="51.315074" lon="12.388644"><ele>125</ele></trkpt>
   <trkpt lat="51.31491" lon="12.388716"><ele>125</ele></trkpt>
   <trkpt lat="51.314752" lon="12.3888"><ele>124.75</ele></trkpt>
   <trkpt lat="51.314271" lon="12.389069"><ele>124.25</ele></trkpt>
   <trkpt lat="51.314079" lon="12.389213"><ele>123.75</ele></trkpt>
   <trkpt lat="51.313822" lon="12.38943"><ele>123.25</ele></trkpt>
   <trkpt lat="51.313697" lon="12.389548"><ele>123.25</ele></trkpt>
   <trkpt lat="51.313461" lon="12.389791"><ele>123</ele></trkpt>
   <trkpt lat="51.31319" lon="12.39014"><ele>123</ele></trkpt>
   <trkpt lat="51.313005" lon="12.390423"><ele>123</ele></trkpt>
   <trkpt lat="51.312902" lon="12.390596"><ele>123</ele></trkpt>
   <trkpt lat="51.312693" lon="12.390999"><ele>122.75</ele></trkpt>
   <trkpt lat="51.312531" lon="12.391374"><ele>122.25</ele></trkpt>
   <trkpt lat="51.312459" lon="12.391563"><ele>122.25</ele></trkpt>
   <trkpt lat="51.312341" lon="12.391908"><ele>122.75</ele></trkpt>
   <trkpt lat="51.312242" lon="12.392253"><ele>123.25</ele></trkpt>
   <trkpt lat="51.312144" lon="12.392666"><ele>123.75</ele></trkpt>
   <trkpt lat="51.312101" lon="12.392888"><ele>123.75</ele></trkpt>
   <trkpt lat="51.312065" lon="12.3931"><ele>124</ele></trkpt>
   <trkpt lat="51.312013" lon="12.393512"><ele>124</ele></trkpt>
   <trkpt lat="51.311985" lon="12.393902"><ele>124.5</ele></trkpt>
   <trkpt lat="51.311977" lon="12.394127"><ele>124.75</ele></trkpt>
   <trkpt lat="51.311975" lon="12.394348"><ele>125</ele></trkpt>
   <trkpt lat="51.311979" lon="12.39446"><ele>125.75</ele></trkpt>
   <trkpt lat="51.311993" lon="12.394829"><ele>125.75</ele></trkpt>
   <trkpt lat="51.31201" lon="12.395041"><ele>126</ele></trkpt>
   <trkpt lat="51.312041" lon="12.395312"><ele>126.25</ele></trkpt>
   <trkpt lat="51.312085" lon="12.39561"><ele>126.5</ele></trkpt>
   <trkpt lat="51.312164" lon="12.396023"><ele>126.75</ele></trkpt>
   <trkpt lat="51.312249" lon="12.396381"><ele>127</ele></trkpt>
   <trkpt lat="51.312378" lon="12.396837"><ele>126.75</ele></trkpt>
   <trkpt lat="51.312563" lon="12.397403"><ele>126.75</ele></trkpt>
   <trkpt lat="51.312735" lon="12.397849"><ele>128</ele></trkpt>
   <trkpt lat="51.312936" lon="12.398302"><ele>128.75</ele></trkpt>
   <trkpt lat="51.313054" lon="12.398543"><ele>129</ele></trkpt>
   <trkpt lat="51.313232" lon="12.398874"><ele>129</ele></trkpt>
   <trkpt lat="51.313716" lon="12.399623"><ele>129.5</ele></trkpt>
   <trkpt lat="51.314611" lon="12.400781"><ele>131.25</ele></trkpt>
   <trkpt lat="51.314824" lon="12.401055"><ele>131.75</ele></trkpt>
   <trkpt lat="51.316321" lon="12.403091"><ele>134.25</ele></trkpt>
   <trkpt lat="51.31864" lon="12.40625"><ele>134.75</ele></trkpt>
   <trkpt lat="51.318853" lon="12.406531"><ele>135.25</ele></trkpt>
   <trkpt lat="51.31912" lon="12.406851"><ele>136</ele></trkpt>
   <trkpt lat="51.319382" lon="12.407141"><ele>135.5</ele></trkpt>
   <trkpt lat="51.319596" lon="12.407365"><ele>134.75</ele></trkpt>
   <trkpt lat="51.319962" lon="12.407714"><ele>133.25</ele></trkpt>
   <trkpt lat="51.320373" lon="12.408062"><ele>132.25</ele></trkpt>
   <trkpt lat="51.321049" lon="12.408611"><ele>131.5</ele></trkpt>
   <trkpt lat="51.321061" lon="12.40862"><ele>131.5</ele></trkpt>
   <trkpt lat="51.321398" lon="12.408871"><ele>131.25</ele></trkpt>
   <trkpt lat="51.321716" lon="12.40906"><ele>130.75</ele></trkpt>
   <trkpt lat="51.321891" lon="12.409204"><ele>130.25</ele></trkpt>
   <trkpt lat="51.322175" lon="12.409457"><ele>129.75</ele></trkpt>
   <trkpt lat="51.322694" lon="12.409977"><ele>128.75</ele></trkpt>
   <trkpt lat="51.322897" lon="12.410173"><ele>129</ele></trkpt>
   <trkpt lat="51.32325" lon="12.410487"><ele>129</ele></trkpt>
   <trkpt lat="51.323507" lon="12.41069"><ele>128.75</ele></trkpt>
   <trkpt lat="51.324467" lon="12.411421"><ele>129.75</ele></trkpt>
   <trkpt lat="51.324763" lon="12.411632"><ele>129.5</ele></trkpt>
   <trkpt lat="51.324805" lon="12.411662"><ele>129.25</ele></trkpt>
   <trkpt lat="51.325032" lon="12.411822"><ele>129.25</ele></trkpt>
   <trkpt lat="51.325163" lon="12.411913"><ele>129.5</ele></trkpt>
   <trkpt lat="51.325266" lon="12.411985"><ele>130.5</ele></trkpt>
   <trkpt lat="51.325615" lon="12.412231"><ele>130.5</ele></trkpt>
   <trkpt lat="51.326704" lon="12.413001"><ele>128.25</ele></trkpt>
   <trkpt lat="51.327074" lon="12.413287"><ele>128</ele></trkpt>
   <trkpt lat="51.327311" lon="12.413488"><ele>127.5</ele></trkpt>
   <trkpt lat="51.327687" lon="12.413773"><ele>126.75</ele></trkpt>
   <trkpt lat="51.328015" lon="12.414006"><ele>126.75</ele></trkpt>
   <trkpt lat="51.328524" lon="12.414403"><ele>125.75</ele></trkpt>
   <trkpt lat="51.328888" lon="12.414735"><ele>124</ele></trkpt>
   <trkpt lat="51.329591" lon="12.415429"><ele>123</ele></trkpt>
   <trkpt lat="51.329951" lon="12.415783"><ele>123</ele></trkpt>
   <trkpt lat="51.330241" lon="12.416069"><ele>123.25</ele></trkpt>
   <trkpt lat="51.330715" lon="12.416546"><ele>123.75</ele></trkpt>
   <trkpt lat="51.33089" lon="12.416737"><ele>123.75</ele></trkpt>
   <trkpt lat="51.331057" lon="12.41694"><ele>123.25</ele></trkpt>
   <trkpt lat="51.331166" lon="12.417085"><ele>123.25</ele></trkpt>
   <trkpt lat="51.331333" lon="12.417335"><ele>123</ele></trkpt>
   <trkpt lat="51.331413" lon="12.417468"><ele>123</ele></trkpt>
   <trkpt lat="51.331567" lon="12.417737"><ele>122.5</ele></trkpt>
   <trkpt lat="51.331761" lon="12.418165"><ele>121.75</ele></trkpt>
   <trkpt lat="51.331946" lon="12.418663"><ele>121.25</ele></trkpt>
   <trkpt lat="51.332085" lon="12.419145"><ele>121.25</ele></trkpt>
   <trkpt lat="51.332149" lon="12.419389"><ele>121.5</ele></trkpt>
   <trkpt lat="51.332367" lon="12.420315"><ele>122</ele></trkpt>
   <trkpt lat="51.332534" lon="12.421045"><ele>122</ele></trkpt>
   <trkpt lat="51.332566" lon="12.421184"><ele>122</ele></trkpt>
   <trkpt lat="51.332703" lon="12.42176"><ele>122.25</ele></trkpt>
   <trkpt lat="51.332859" lon="12.42237"><ele>122.25</ele></trkpt>
   <trkpt lat="51.33299" lon="12.422783"><ele>122.25</ele></trkpt>
   <trkpt lat="51.333123" lon="12.423125"><ele>122</ele></trkpt>
   <trkpt lat="51.333209" lon="12.423329"><ele>122</ele></trkpt>
   <trkpt lat="51.333445" lon="12.423781"><ele>122</ele></trkpt>
   <trkpt lat="51.333603" lon="12.42403"><ele>122</ele></trkpt>
   <trkpt lat="51.333749" lon="12.424253"><ele>121.75</ele></trkpt>
   <trkpt lat="51.334159" lon="12.424821"><ele>120.25</ele></trkpt>
   <trkpt lat="51.335078" lon="12.426235"><ele>118.5</ele></trkpt>
   <trkpt lat="51.335437" lon="12.426757"><ele>118.5</ele></trkpt>
   <trkpt lat="51.335703" lon="12.427074"><ele>118.75</ele></trkpt>
   <trkpt lat="51.335898" lon="12.427297"><ele>118.75</ele></trkpt>
   <trkpt lat="51.336025" lon="12.42743"><ele>118.75</ele></trkpt>
   <trkpt lat="51.3365" lon="12.427909"><ele>118.75</ele></trkpt>
   <trkpt lat="51.336928" lon="12.428269"><ele>119.5</ele></trkpt>
   <trkpt lat="51.33757" lon="12.42873"><ele>119.25</ele></trkpt>
   <trkpt lat="51.33785" lon="12.428912"><ele>119.25</ele></trkpt>
   <trkpt lat="51.337975" lon="12.428989"><ele>119</ele></trkpt>
   <trkpt lat="51.340262" lon="12.430423"><ele>123.75</ele></trkpt>
   <trkpt lat="51.340436" lon="12.430529"><ele>124.25</ele></trkpt>
   <trkpt lat="51.340936" lon="12.430844"><ele>124.75</ele></trkpt>
   <trkpt lat="51.341252" lon="12.431061"><ele>124.5</ele></trkpt>
   <trkpt lat="51.341573" lon="12.431251"><ele>124.25</ele></trkpt>
   <trkpt lat="51.341755" lon="12.43138"><ele>124.25</ele></trkpt>
   <trkpt lat="51.341972" lon="12.431557"><ele>124.25</ele></trkpt>
   <trkpt lat="51.342179" lon="12.43176"><ele>124.5</ele></trkpt>
   <trkpt lat="51.342376" lon="12.431988"><ele>124.5</ele></trkpt>
   <trkpt lat="51.342562" lon="12.432239"><ele>124.25</ele></trkpt>
   <trkpt lat="51.342735" lon="12.432512"><ele>124.25</ele></trkpt>
   <trkpt lat="51.342895" lon="12.432805"><ele>124</ele></trkpt>
   <trkpt lat="51.34304" lon="12.433117"><ele>123.75</ele></trkpt>
   <trkpt lat="51.34317" lon="12.433446"><ele>123.75</ele></trkpt>
   <trkpt lat="51.343292" lon="12.433816"><ele>124.25</ele></trkpt>
   <trkpt lat="51.343381" lon="12.43413"><ele>124.75</ele></trkpt>
   <trkpt lat="51.343424" lon="12.434346"><ele>125.5</ele></trkpt>
   <trkpt lat="51.343464" lon="12.434547"><ele>125.5</ele></trkpt>
   <trkpt lat="51.343551" lon="12.435178"><ele>126.5</ele></trkpt>
   <trkpt lat="51.343575" lon="12.435512"><ele>127</ele></trkpt>
   <trkpt lat="51.343589" lon="12.435815"><ele>127.25</ele></trkpt>
   <trkpt lat="51.34357" lon="12.437822"><ele>128</ele></trkpt>
   <trkpt lat="51.343574" lon="12.438319"><ele>127.75</ele></trkpt>
   <trkpt lat="51.343582" lon="12.438522"><ele>127.75</ele></trkpt>
   <trkpt lat="51.34363" lon="12.439307"><ele>127.5</ele></trkpt>
   <trkpt lat="51.343677" lon="12.440242"><ele>127.75</ele></trkpt>
   <trkpt lat="51.343681" lon="12.440629"><ele>127.75</ele></trkpt>
   <trkpt lat="51.343675" lon="12.440771"><ele>127.75</ele></trkpt>
   <trkpt lat="51.343659" lon="12.442077"><ele>127.5</ele></trkpt>
   <trkpt lat="51.343658" lon="12.442092"><ele>127.5</ele></trkpt>
   <trkpt lat="51.343648" lon="12.443049"><ele>128.75</ele></trkpt>
   <trkpt lat="51.343631" lon="12.444585"><ele>128.5</ele></trkpt>
   <trkpt lat="51.34363" lon="12.444726"><ele>128.5</ele></trkpt>
   <trkpt lat="51.343628" lon="12.44493"><ele>128.25</ele></trkpt>
   <trkpt lat="51.343624" lon="12.445275"><ele>128.25</ele></trkpt>
   <trkpt lat="51.3436" lon="12.447592"><ele>129.75</ele></trkpt>
   <trkpt lat="51.343591" lon="12.448426"><ele>130.5</ele></trkpt>
   <trkpt lat="51.343595" lon="12.448825"><ele>130.5</ele></trkpt>
   <trkpt lat="51.343609" lon="12.449141"><ele>130.5</ele></trkpt>
   <trkpt lat="51.343626" lon="12.449366"><ele>130.5</ele></trkpt>
   <trkpt lat="51.343679" lon="12.449861"><ele>130</ele></trkpt>
   <trkpt lat="51.343758" lon="12.450406"><ele>129.75</ele></trkpt>
   <trkpt lat="51.343822" lon="12.450876"><ele>129.75</ele></trkpt>
   <trkpt lat="51.343854" lon="12.451131"><ele>129.75</ele></trkpt>
   <trkpt lat="51.343876" lon="12.451384"><ele>129.5</ele></trkpt>
   <trkpt lat="51.343899" lon="12.451721"><ele>129.5</ele></trkpt>
   <trkpt lat="51.343909" lon="12.452105"><ele>129.5</ele></trkpt>
   <trkpt lat="51.343911" lon="12.452548"><ele>129.5</ele></trkpt>
   <trkpt lat="51.343886" lon="12.454466"><ele>129.5</ele></trkpt>
   <trkpt lat="51.343885" lon="12.454504"><ele>129.5</ele></trkpt>
   <trkpt lat="51.343876" lon="12.455389"><ele>130</ele></trkpt>
   <trkpt lat="51.343905" lon="12.45635"><ele>129.75</ele></trkpt>
   <trkpt lat="51.343919" lon="12.455278"><ele>130</ele></trkpt>
   <trkpt lat="51.343936" lon="12.455953"><ele>129.75</ele></trkpt>
   <trkpt lat="51.344091" lon="12.458678"><ele>129.75</ele></trkpt>
   <trkpt lat="51.344112" lon="12.459251"><ele>129.75</ele></trkpt>
   <trkpt lat="51.344102" lon="12.460396"><ele>129.25</ele></trkpt>
   <trkpt lat="51.344125" lon="12.461439"><ele>128.25</ele></trkpt>
   <trkpt lat="51.344107" lon="12.463087"><ele>128</ele></trkpt>
   <trkpt lat="51.344073" lon="12.466035"><ele>127.75</ele></trkpt>
   <trkpt lat="51.344071" lon="12.466126"><ele>128.5</ele></trkpt>
  </trkseg>
 </trk>
</gpx>