<?xml version="1.0" encoding="UTF-8"?>
<!-- track-length = 80537 filtered ascend = 340 plain-ascend = 199 cost=80537 energy=1.0kwh time=1h 47m 24s -->
<gpx 
 xmlns="http://www.topografix.com/GPX/1/1" 
 xmlns:xsi="http://www.w3.org/2001/XMLSchema-instance" 
 xsi:schemaLocation="http://www.topografix.com/GPX/1/1 http://www.topografix.com/GPX/1/1/gpx.xsd" 
 version="1.1" 
 creator="BRouter-Web 0.18.1">
 <trk>
  <name>Leipzig - Chemnitz</name>
  <trkseg>
   <trkpt lat="51.344717" lon="12.382252"><ele>120</ele></trkpt>
   <trkpt lat="51.344723" lon="12.382258"><ele>120</ele></trkpt>
   <trkpt lat="51.34539" lon="12.382952"><ele>117</ele></trkpt>
   <trkpt lat="51.346828" lon="12.384461"><ele>110.5</ele></trkpt>
   <trkpt lat="51.347021" lon="12.38467"><ele>110</ele></trkpt>
   <trkpt lat="51.347226" lon="12.384889"><ele>110</ele></trkpt>
   <trkpt lat="51.347354" lon="12.385024"><ele>110</ele></trkpt>
   <trkpt lat="51.348264" lon="12.386005"><ele>110</ele></trkpt>
   <trkpt lat="51.348509" lon="12.386318"><ele>110</ele></trkpt>
   <trkpt lat="51.348828" lon="12.386755"><ele>110</ele></trkpt>
   <trkpt lat="51.34907" lon="12.387079"><ele>110</ele></trkpt>
   <trkpt lat="51.349271" lon="12.387382"><ele>110</ele></trkpt>
   <trkpt lat="51.349608" lon="12.387984"><ele>110.25</ele></trkpt>
   <trkpt lat="51.349722" lon="12.388213"><ele>110.25</ele></trkpt>
   <trkpt lat="51.349907" lon="12.388634"><ele>110</ele></trkpt>
   <trkpt lat="51.349986" lon="12.388855"><ele>110</ele></trkpt>
   <trkpt lat="51.350065" lon="12.389103"><ele>110</ele></trkpt>
   <trkpt lat="51.350137" lon="12.389368"><ele>110</ele></trkpt>
   <trkpt lat="51.350205" lon="12.389664"><ele>110</ele></trkpt>
   <trkpt lat="51.35024" lon="12.389845"><ele>110</ele></trkpt>
   <trkpt lat="51.350261" lon="12.389954"><ele>110</ele></trkpt>
   <trkpt lat="51.350331" lon="12.390369"><ele>110</ele></trkpt>
   <trkpt lat="51.350393" lon="12.390884"><ele>110</ele></trkpt>
   <trkpt lat="51.350421" lon="12.391249"><ele>110</ele></trkpt>
   <trkpt lat="51.350453" lon="12.391838"><ele>110</ele></trkpt>
   <trkpt lat="51.350465" lon="12.392466"><ele>110.25</ele></trkpt>
   <trkpt lat="51.350463" lon="12.393042"><ele>111</ele></trkpt>
   <trkpt lat="51.350452" lon="12.393476"><ele>111.25</ele></trkpt>
   <trkpt lat="51.350451" lon="12.393517"><ele>111.25</ele></trkpt>
   <trkpt lat="51.350442" lon="12.393735"><ele>111.25</ele></trkpt>
   <trkpt lat="51.350436" lon="12.393892"><ele>111.25</ele></trkpt>
   <trkpt lat="51.35043" lon="12.394034"><ele>111.25</ele></trkpt>
   <trkpt lat="51.35042" lon="12.394277"><ele>111.5</ele></trkpt>
   <trkpt lat="51.350224" lon="12.398174"><ele>109.75</ele></trkpt>
   <trkpt lat="51.350136" lon="12.39895"><ele>110</ele></trkpt>
   <trkpt lat="51.350088" lon="12.399323"><ele>109.75</ele></trkpt>
   <trkpt lat="51.350018" lon="12.399904"><ele>109</ele></trkpt>
   <trkpt lat="51.349993" lon="12.40035"><ele>109</ele></trkpt>
   <trkpt lat="51.349827" lon="12.403721"><ele>111</ele></trkpt>
   <trkpt lat="51.349659" lon="12.40747"><ele>112</ele></trkpt>
   <trkpt lat="51.349649" lon="12.407712"><ele>111.5</ele></trkpt>
   <trkpt lat="51.349593" lon="12.408438"><ele>111</ele></trkpt>
   <trkpt lat="51.349557" lon="12.408798"><ele>111.5</ele></trkpt>
   <trkpt lat="51.349496" lon="12.40929"><ele>111.75</ele></trkpt>
   <trkpt lat="51.349393" lon="12.409948"><ele>112</ele></trkpt>
   <trkpt lat="51.349313" lon="12.410381"><ele>111.75</ele></trkpt>
   <trkpt lat="51.34922" lon="12.410818"><ele>111.25</ele></trkpt>
   <trkpt lat="51.349079" lon="12.411403"><ele>111.75</ele></trkpt>
   <trkpt lat="51.34893" lon="12.411965"><ele>114</ele></trkpt>
   <trkpt lat="51.348322" lon="12.414261"><ele>114</ele></trkpt>
   <trkpt lat="51.348176" lon="12.414798"><ele>114.5</ele></trkpt>
   <trkpt lat="51.348065" lon="12.415174"><ele>114.75</ele></trkpt>
   <trkpt lat="51.347978" lon="12.415451"><ele>115</ele></trkpt>
   <trkpt lat="51.347359" lon="12.417349"><ele>117.25</ele></trkpt>
   <trkpt lat="51.347187" lon="12.417836"><ele>119.25</ele></trkpt>
   <trkpt lat="51.347116" lon="12.418042"><ele>120</ele></trkpt>
   <trkpt lat="51.347077" lon="12.418149"><ele>120.5</ele></trkpt>
   <trkpt lat="51.346733" lon="12.41913"><ele>122.75</ele></trkpt>
   <trkpt lat="51.346076" lon="12.421128"><ele>122.25</ele></trkpt>
   <trkpt lat="51.345686" lon="12.422313"><ele>121.25</ele></trkpt>
   <trkpt lat="51.345344" lon="12.423448"><ele>120</ele></trkpt>
   <trkpt lat="51.345245" lon="12.423824"><ele>120</ele></trkpt>
   <trkpt lat="51.345031" lon="12.424738"><ele>120</ele></trkpt>
   <trkpt lat="51.344928" lon="12.425231"><ele>120</ele></trkpt>
   <trkpt lat="51.34477" lon="12.426137"><ele>119.5</ele></trkpt>
   <trkpt lat="51.344651" lon="12.426959"><ele>119.25</ele></trkpt>
   <trkpt lat="51.344619" lon="12.427235"><ele>119.25</ele></trkpt>
   <trkpt lat="51.344555" lon="12.42785"><ele>119.5</ele></trkpt>
   <trkpt lat="51.344498" lon="12.42857"><ele>119.75</ele></trkpt>
   <trkpt lat="51.344471" lon="12.428995"><ele>120</ele></trkpt>
   <trkpt lat="51.34442" lon="12.430462"><ele>121</ele></trkpt>
   <trkpt lat="51.344384" lon="12.432729"><ele>121.5</ele></trkpt>
   <trkpt lat="51.344382" lon="12.432866"><ele>121.5</ele></trkpt>
   <trkpt lat="51.344373" lon="12.433587"><ele>122</ele></trkpt>
   <trkpt lat="51.344367" lon="12.433923"><ele>122.5</ele></trkpt>
   <trkpt lat="51.344332" lon="12.435476"><ele>125</ele></trkpt>
   <trkpt lat="51.344303" lon="12.436459"><ele>126.75</ele></trkpt>
   <trkpt lat="51.344295" lon="12.436713"><ele>127</ele></trkpt>
   <trkpt lat="51.34424" lon="12.438395"><ele>124.5</ele></trkpt>
   <trkpt lat="51.344177" lon="12.440468"><ele>124.75</ele></trkpt>
   <trkpt lat="51.344146" lon="12.441694"><ele>125</ele></trkpt>
   <trkpt lat="51.344119" lon="12.443748"><ele>128</ele></trkpt>
   <trkpt lat="51.344107" lon="12.44492"><ele>127</ele></trkpt>
   <trkpt lat="51.344101" lon="12.445265"><ele>127</ele></trkpt>
   <trkpt lat="51.344076" lon="12.446017"><ele>127.25</ele></trkpt>
   <trkpt lat="51.344075" lon="12.446044"><ele>127.25</ele></trkpt>
   <trkpt lat="51.344003" lon="12.446729"><ele>128.25</ele></trkpt>
   <trkpt lat="51.343896" lon="12.447373"><ele>129</ele></trkpt>
   <trkpt lat="51.343835" lon="12.447701"><ele>129.5</ele></trkpt>
   <trkpt lat="51.34377" lon="12.447987"><ele>130</ele></trkpt>
   <trkpt lat="51.343674" lon="12.448328"><ele>130.5</ele></trkpt>
   <trkpt lat="51.343281" lon="12.449448"><ele>130.75</ele></trkpt>
   <trkpt lat="51.342103" lon="12.452612"><ele>127.5</ele></trkpt>
   <trkpt lat="51.341917" lon="12.453105"><ele>128</ele></trkpt>
   <trkpt lat="51.341269" lon="12.454843"><ele>129.75</ele></trkpt>
   <trkpt lat="51.341145" lon="12.455168"><ele>129.5</ele></trkpt>
   <trkpt lat="51.341048" lon="12.455403"><ele>129.25</ele></trkpt>
   <trkpt lat="51.34089" lon="12.455746"><ele>129</ele></trkpt>
   <trkpt lat="51.340799" lon="12.455918"><ele>128.75</ele></trkpt>
   <trkpt lat="51.340707" lon="12.456082"><ele>128.75</ele></trkpt>
   <trkpt lat="51.34052" lon="12.456381"><ele>128.75</ele></trkpt>
   <trkpt lat="51.340308" lon="12.456665"><ele>128.75</ele></trkpt>
   <trkpt lat="51.340094" lon="12.456911"><ele>129</ele></trkpt>
   <trkpt lat="51.339907" lon="12.457108"><ele>128.75</ele></trkpt>
   <trkpt lat="51.339836" lon="12.457172"><ele>128.5</ele></trkpt>
   <trkpt lat="51.339707" lon="12.457277"><ele>128.25</ele></trkpt>
   <trkpt lat="51.339289" lon="12.457567"><ele>127.25</ele></trkpt>
   <trkpt lat="51.339027" lon="12.457744"><ele>126.75</ele></trkpt>
   <trkpt lat="51.338742" lon="12.457973"><ele>126.75</ele></trkpt>
   <trkpt lat="51.338449" lon="12.45819"><ele>126.75</ele></trkpt>
   <trkpt lat="51.338097" lon="12.458402"><ele>127.25</ele></trkpt>
   <trkpt lat="51.337633" lon="12.458638"><ele>128</ele></trkpt>
   <trkpt lat="51.337303" lon="12.458754"><ele>128</ele></trkpt>
   <trkpt lat="51.337097" lon="12.458809"><ele>127.5</ele></trkpt>
   <trkpt lat="51.336794" lon="12.458891"><ele>127.5</ele></trkpt>
   <trkpt lat="51.336307" lon="12.458953"><ele>127</ele></trkpt>
   <trkpt lat="51.336069" lon="12.458969"><ele>126.75</ele></trkpt>
   <trkpt lat="51.333421" lon="12.45914"><ele>127.75</ele></trkpt>
   <trkpt lat="51.333018" lon="12.459186"><ele>126.75</ele></trkpt>
   <trkpt lat="51.3325" lon="12.459231"><ele>125</ele></trkpt>
   <trkpt lat="51.332196" lon="12.459255"><ele>125</ele></trkpt>
   <trkpt lat="51.325376" lon="12.459806"><ele>132.75</ele></trkpt>
   <trkpt lat="51.324551" lon="12.45988"><ele>133</ele></trkpt>
   <trkpt lat="51.313209" lon="12.460827"><ele>137.25</ele></trkpt>
   <trkpt lat="51.313168" lon="12.46083"><ele>137.25</ele></trkpt>
   <trkpt lat="51.312749" lon="12.460859"><ele>138.25</ele></trkpt>
   <trkpt lat="51.306815" lon="12.461355"><ele>139.75</ele></trkpt>
   <trkpt lat="51.306769" lon="12.461359"><ele>139.75</ele></trkpt>
   <trkpt lat="51.306526" lon="12.461379"><ele>139.75</ele></trkpt>
   <trkpt lat="51.306011" lon="12.46142"><ele>139</ele></trkpt>
   <trkpt lat="51.30382" lon="12.461608"><ele>138.5</ele></trkpt>
   <trkpt lat="51.302611" lon="12.461747"><ele>138.75</ele></trkpt>
   <trkpt lat="51.30144" lon="12.461912"><ele>139</ele></trkpt>
   <trkpt lat="51.300411" lon="12.462098"><ele>139</ele></trkpt>
   <trkpt lat="51.29859" lon="12.462428"><ele>139.75</ele></trkpt>
   <trkpt lat="51.295401" lon="12.463075"><ele>140.25</ele></trkpt>
   <trkpt lat="51.294898" lon="12.463184"><ele>140</ele></trkpt>
   <trkpt lat="51.291726" lon="12.463816"><ele>138</ele></trkpt>
   <trkpt lat="51.291394" lon="12.463892"><ele>138</ele></trkpt>
   <trkpt lat="51.290738" lon="12.4641"><ele>138</ele></trkpt>
   <trkpt lat="51.2904" lon="12.464253"><ele>138.5</ele></trkpt>
   <trkpt lat="51.289998" lon="12.464469"><ele>138.5</ele></trkpt>
   <trkpt lat="51.289693" lon="12.464654"><ele>139.25</ele></trkpt>
   <trkpt lat="51.288993" lon="12.465139"><ele>141</ele></trkpt>
   <trkpt lat="51.288136" lon="12.465815"><ele>142</ele></trkpt>
   <trkpt lat="51.287319" lon="12.466492"><ele>142</ele></trkpt>
   <trkpt lat="51.287092" lon="12.466672"><ele>142</ele></trkpt>
   <trkpt lat="51.28689" lon="12.466831"><ele>142</ele></trkpt>
   <trkpt lat="51.286302" lon="12.467237"><ele>142.25</ele></trkpt>
   <trkpt lat="51.285333" lon="12.46803"><ele>144.5</ele></trkpt>
   <trkpt lat="51.28425" lon="12.468905"><ele>145.5</ele></trkpt>
   <trkpt lat="51.283792" lon="12.469278"><ele>146</ele></trkpt>
   <trkpt lat="51.283069" lon="12.469865"><ele>145.25</ele></trkpt>
   <trkpt lat="51.282889" lon="12.470011"><ele>145.5</ele></trkpt>
   <trkpt lat="51.28221" lon="12.470603"><ele>145.5</ele></trkpt>
   <trkpt lat="51.281793" lon="12.470966"><ele>145.75</ele></trkpt>
   <trkpt lat="51.281626" lon="12.471097"><ele>146</ele></trkpt>
   <trkpt lat="51.281513" lon="12.471181"><ele>146</ele></trkpt>
   <trkpt lat="51.281216" lon="12.471392"><ele>146</ele></trkpt>
   <trkpt lat="51.28037" lon="12.472036"><ele>145.75</ele></trkpt>
   <trkpt lat="51.279528" lon="12.472695"><ele>145.75</ele></trkpt>
   <trkpt lat="51.279313" lon="12.472879"><ele>145.75</ele></trkpt>
   <trkpt lat="51.274374" lon="12.476817"><ele>147.5</ele></trkpt>
   <trkpt lat="51.273559" lon="12.477482"><ele>146.25</ele></trkpt>
   <trkpt lat="51.272514" lon="12.478465"><ele>145</ele></trkpt>
   <trkpt lat="51.27235" lon="12.478627"><ele>145</ele></trkpt>
   <trkpt lat="51.271817" lon="12.479171"><ele>145</ele></trkpt>
   <trkpt lat="51.271495" lon="12.479582"><ele>145.5</ele></trkpt>
   <trkpt lat="51.271184" lon="12.480034"><ele>145.75</ele></trkpt>
   <trkpt lat="51.270894" lon="12.480539"><ele>145.75</ele></trkpt>
   <trkpt lat="51.270715" lon="12.480884"><ele>145.75</ele></trkpt>
   <trkpt lat="51.268964" lon="12.484342"><ele>147.25</ele></trkpt>
   <trkpt lat="51.268423" lon="12.485425"><ele>148.75</ele></trkpt>
   <trkpt lat="51.268122" lon="12.48602"><ele>149</ele></trkpt>
   <trkpt lat="51.267805" lon="12.486651"><ele>149.5</ele></trkpt>
   <trkpt lat="51.267706" lon="12.486846"><ele>149.75</ele></trkpt>
   <trkpt lat="51.266685" lon="12.488868"><ele>151.75</ele></trkpt>
   <trkpt lat="51.26398" lon="12.494235"><ele>154</ele></trkpt>
   <trkpt lat="51.263677" lon="12.494837"><ele>154</ele></trkpt>
   <trkpt lat="51.260744" lon="12.500659"><ele>155.5</ele></trkpt>
   <trkpt lat="51.259098" lon="12.504034"><ele>157.25</ele></trkpt>
   <trkpt lat="51.258977" lon="12.504277"><ele>158.5</ele></trkpt>
   <trkpt lat="51.258677" lon="12.504854"><ele>161.25</ele></trkpt>
   <trkpt lat="51.258439" lon="12.505294"><ele>162.75</ele></trkpt>
   <trkpt lat="51.257787" lon="12.506437"><ele>167.5</ele></trkpt>
   <trkpt lat="51.255062" lon="12.511233"><ele>167</ele></trkpt>
   <trkpt lat="51.252622" lon="12.515523"><ele>168.75</ele></trkpt>
   <trkpt lat="51.252039" lon="12.516481"><ele>168.25</ele></trkpt>
   <trkpt lat="51.251402" lon="12.517442"><ele>168.5</ele></trkpt>
   <trkpt lat="51.250275" lon="12.519077"><ele>168.75</ele></trkpt>
   <trkpt lat="51.250058" lon="12.519391"><ele>168.5</ele></trkpt>
   <trkpt lat="51.248842" lon="12.521113"><ele>165.5</ele></trkpt>
   <trkpt lat="51.247917" lon="12.52244"><ele>166</ele></trkpt>
   <trkpt lat="51.246613" lon="12.524335"><ele>168.5</ele></trkpt>
   <trkpt lat="51.239884" lon="12.534116"><ele>156.25</ele></trkpt>
   <trkpt lat="51.237932" lon="12.536954"><ele>156.75</ele></trkpt>
   <trkpt lat="51.236653" lon="12.538796"><ele>155</ele></trkpt>
   <trkpt lat="51.236458" lon="12.5391"><ele>156.25</ele></trkpt>
   <trkpt lat="51.236135" lon="12.539642"><ele>156</ele></trkpt>
   <trkpt lat="51.234941" lon="12.541384"><ele>156</ele></trkpt>
   <trkpt lat="51.234878" lon="12.541475"><ele>155.25</ele></trkpt>
   <trkpt lat="51.233877" lon="12.542932"><ele>152</ele></trkpt>
   <trkpt lat="51.233496" lon="12.543482"><ele>151</ele></trkpt>
   <trkpt lat="51.232604" lon="12.544775"><ele>149</ele></trkpt>
   <trkpt lat="51.232258" lon="12.545239"><ele>148.25</ele></trkpt>
   <trkpt lat="51.231979" lon="12.545635"><ele>147.5</ele></trkpt>
   <trkpt lat="51.231624" lon="12.546184"><ele>147.25</ele></trkpt>
   <trkpt lat="51.231472" lon="12.546411"><ele>147.5</ele></trkpt>
   <trkpt lat="51.22899" lon="12.550029"><ele>145.75</ele></trkpt>
   <trkpt lat="51.227178" lon="12.552643"><ele>146</ele></trkpt>
   <trkpt lat="51.227065" lon="12.552807"><ele>145.5</ele></trkpt>
   <trkpt lat="51.226382" lon="12.553839"><ele>144.5</ele></trkpt>
   <trkpt lat="51.225336" lon="12.55539"><ele>143.25</ele></trkpt>
   <trkpt lat="51.224664" lon="12.556266"><ele>143</ele></trkpt>
   <trkpt lat="51.223573" lon="12.557826"><ele>143</ele></trkpt>
   <trkpt lat="51.222377" lon="12.559748"><ele>144.5</ele></trkpt>
   <trkpt lat="51.221763" lon="12.560795"><ele>145</ele></trkpt>
   <trkpt lat="51.221167" lon="12.561894"><ele>144.25</ele></trkpt>
   <trkpt lat="51.220898" lon="12.562406"><ele>144</ele></trkpt>
   <trkpt lat="51.220432" lon="12.563362"><ele>143</ele></trkpt>
   <trkpt lat="51.219957" lon="12.564368"><ele>142.75</ele></trkpt>
   <trkpt lat="51.219476" lon="12.565473"><ele>142.25</ele></trkpt>
   <trkpt lat="51.218998" lon="12.566633"><ele>142.75</ele></trkpt>
   <trkpt lat="51.218588" lon="12.567668"><ele>143</ele></trkpt>
   <trkpt lat="51.218355" lon="12.568287"><ele>143.75</ele></trkpt>
   <trkpt lat="51.214111" lon="12.579269"><ele>144.75</ele></trkpt>
   <trkpt lat="51.212944" lon="12.582264"><ele>144.25</ele></trkpt>
   <trkpt lat="51.21215" lon="12.584347"><ele>143.75</ele></trkpt>
   <trkpt lat="51.212013" lon="12.584688"><ele>143.25</ele></trkpt>
   <trkpt lat="51.211485" lon="12.586055"><ele>143.25</ele></trkpt>
   <trkpt lat="51.211248" lon="12.586639"><ele>144.25</ele></trkpt>
   <trkpt lat="51.211" lon="12.587217"><ele>144.5</ele></trkpt>
   <trkpt lat="51.210749" lon="12.587757"><ele>145</ele></trkpt>
   <trkpt lat="51.210496" lon="12.588271"><ele>145.25</ele></trkpt>
   <trkpt lat="51.210272" lon="12.588704"><ele>145</ele></trkpt>
   <trkpt lat="51.210038" lon="12.589124"><ele>145</ele></trkpt>
   <trkpt lat="51.209736" lon="12.589644"><ele>144.75</ele></trkpt>
   <trkpt lat="51.20938" lon="12.590205"><ele>145.25</ele></trkpt>
   <trkpt lat="51.207382" lon="12.593135"><ele>146.5</ele></trkpt>
   <trkpt lat="51.207297" lon="12.593257"><ele>146.5</ele></trkpt>
   <trkpt lat="51.207133" lon="12.593498"><ele>146</ele></trkpt>
   <trkpt lat="51.20428" lon="12.597665"><ele>149</ele></trkpt>
   <trkpt lat="51.203687" lon="12.598517"><ele>149.75</ele></trkpt>
   <trkpt lat="51.203339" lon="12.598976"><ele>150.75</ele></trkpt>
   <trkpt lat="51.203036" lon="12.599347"><ele>151.75</ele></trkpt>
   <trkpt lat="51.202716" lon="12.599713"><ele>153</ele></trkpt>
   <trkpt lat="51.202578" lon="12.599868"><ele>153.5</ele></trkpt>
   <trkpt lat="51.202144" lon="12.600313"><ele>154.25</ele></trkpt>
   <trkpt lat="51.201663" lon="12.600757"><ele>154.75</ele></trkpt>
   <trkpt lat="51.201314" lon="12.601054"><ele>155.75</ele></trkpt>
   <trkpt lat="51.200837" lon="12.601423"><ele>157.25</ele></trkpt>
   <trkpt lat="51.200329" lon="12.601778"><ele>158.25</ele></trkpt>
   <trkpt lat="51.197108" lon="12.604003"><ele>160.25</ele></trkpt>
   <trkpt lat="51.19637" lon="12.604517"><ele>160.25</ele></trkpt>
   <trkpt lat="51.195533" lon="12.60515"><ele>159</ele></trkpt>
   <trkpt lat="51.19497" lon="12.605554"><ele>159</ele></trkpt>
   <trkpt lat="51.18765" lon="12.610609"><ele>161.75</ele></trkpt>
   <trkpt lat="51.179909" lon="12.615988"><ele>169.75</ele></trkpt>
   <trkpt lat="51.179787" lon="12.616073"><ele>169.5</ele></trkpt>
   <trkpt lat="51.175055" lon="12.619367"><ele>171.5</ele></trkpt>
   <trkpt lat="51.174693" lon="12.619621"><ele>172.25</ele></trkpt>
   <trkpt lat="51.173676" lon="12.62033"><ele>173</ele></trkpt>
   <trkpt lat="51.173256" lon="12.620624"><ele>172.5</ele></trkpt>
   <trkpt lat="51.173023" lon="12.620804"><ele>172</ele></trkpt>
   <trkpt lat="51.172799" lon="12.620999"><ele>171.75</ele></trkpt>
   <trkpt lat="51.172642" lon="12.621152"><ele>171.75</ele></trkpt>
   <trkpt lat="51.172488" lon="12.621316"><ele>171.5</ele></trkpt>
   <trkpt lat="51.172113" lon="12.621833"><ele>171.25</ele></trkpt>
   <trkpt lat="51.171985" lon="12.622044"><ele>171.5</ele></trkpt>
   <trkpt lat="51.171818" lon="12.622367"><ele>172</ele></trkpt>
   <trkpt lat="51.171644" lon="12.622755"><ele>172.75</ele></trkpt>
   <trkpt lat="51.171559" lon="12.622974"><ele>173.25</ele></trkpt>
   <trkpt lat="51.171479" lon="12.623196"><ele>173.75</ele></trkpt>
   <trkpt lat="51.171116" lon="12.624305"><ele>173.75</ele></trkpt>
   <trkpt lat="51.170906" lon="12.624906"><ele>174</ele></trkpt>
   <trkpt lat="51.170799" lon="12.625172"><ele>174</ele></trkpt>
   <trkpt lat="51.170656" lon="12.625488"><ele>174</ele></trkpt>
   <trkpt lat="51.170486" lon="12.625804"><ele>174.25</ele></trkpt>
   <trkpt lat="51.170371" lon="12.625998"><ele>174.5</ele></trkpt>
   <trkpt lat="51.170121" lon="12.626354"><ele>174.75</ele></trkpt>
   <trkpt lat="51.169984" lon="12.62652"><ele>175</ele></trkpt>
   <trkpt lat="51.169694" lon="12.626827"><ele>175</ele></trkpt>
   <trkpt lat="51.169046" lon="12.627397"><ele>175</ele></trkpt>
   <trkpt lat="51.160268" lon="12.634786"><ele>167.75</ele></trkpt>
   <trkpt lat="51.16008" lon="12.634945"><ele>168.5</ele></trkpt>
   <trkpt lat="51.157941" lon="12.636746"><ele>166.5</ele></trkpt>
   <trkpt lat="51.152947" lon="12.64095"><ele>169.75</ele></trkpt>
   <trkpt lat="51.152705" lon="12.641155"><ele>170.5</ele></trkpt>
   <trkpt lat="51.152106" lon="12.641659"><ele>171.5</ele></trkpt>
   <trkpt lat="51.151745" lon="12.641963"><ele>170.75</ele></trkpt>
   <trkpt lat="51.149989" lon="12.643438"><ele>171.75</ele></trkpt>
   <trkpt lat="51.149128" lon="12.644168"><ele>170.75</ele></trkpt>
   <trkpt lat="51.148673" lon="12.644545"><ele>170.75</ele></trkpt>
   <trkpt lat="51.147815" lon="12.645275"><ele>172</ele></trkpt>
   <trkpt lat="51.146522" lon="12.646367"><ele>174.75</ele></trkpt>
   <trkpt lat="51.144537" lon="12.648028"><ele>171.25</ele></trkpt>
   <trkpt lat="51.143453" lon="12.648939"><ele>169</ele></trkpt>
   <trkpt lat="51.142548" lon="12.649699"><ele>169.5</ele></trkpt>
   <trkpt lat="51.142354" lon="12.649863"><ele>169.5</ele></trkpt>
   <trkpt lat="51.142321" lon="12.64989"><ele>169.25</ele></trkpt>
   <trkpt lat="51.140996" lon="12.651008"><ele>170</ele></trkpt>
   <trkpt lat="51.14089" lon="12.651098"><ele>170.25</ele></trkpt>
   <trkpt lat="51.140754" lon="12.651211"><ele>170.25</ele></trkpt>
   <trkpt lat="51.140634" lon="12.65131"><ele>170.25</ele></trkpt>
   <trkpt lat="51.140341" lon="12.651559"><ele>169.75</ele></trkpt>
   <trkpt lat="51.138954" lon="12.652709"><ele>170.5</ele></trkpt>
   <trkpt lat="51.138447" lon="12.653109"><ele>170</ele></trkpt>
   <trkpt lat="51.13815" lon="12.653283"><ele>169.75</ele></trkpt>
   <trkpt lat="51.13795" lon="12.65337"><ele>170</ele></trkpt>
   <trkpt lat="51.13775" lon="12.65344"><ele>170</ele></trkpt>
   <trkpt lat="51.137531" lon="12.653492"><ele>170</ele></trkpt>
   <trkpt lat="51.137363" lon="12.65352"><ele>170</ele></trkpt>
   <trkpt lat="51.137141" lon="12.653538"><ele>170.25</ele></trkpt>
   <trkpt lat="51.137004" lon="12.653534"><ele>170.5</ele></trkpt>
   <trkpt lat="51.136759" lon="12.653512"><ele>170.75</ele></trkpt>
   <trkpt lat="51.13655" lon="12.653471"><ele>171</ele></trkpt>
   <trkpt lat="51.136202" lon="12.653367"><ele>171</ele></trkpt>
   <trkpt lat="51.135323" lon="12.653033"><ele>171.25</ele></trkpt>
   <trkpt lat="51.135101" lon="12.652964"><ele>171.25</ele></trkpt>
   <trkpt lat="51.134871" lon="12.652919"><ele>171.5</ele></trkpt>
   <trkpt lat="51.134609" lon="12.65289"><ele>172</ele></trkpt>
   <trkpt lat="51.134301" lon="12.652894"><ele>172.5</ele></trkpt>
   <trkpt lat="51.134" lon="12.652949"><ele>173</ele></trkpt>
   <trkpt lat="51.133821" lon="12.652999"><ele>173.25</ele></trkpt>
   <trkpt lat="51.133799" lon="12.653005"><ele>173.25</ele></trkpt>
   <trkpt lat="51.133687" lon="12.653037"><ele>173.5</ele></trkpt>
   <trkpt lat="51.132451" lon="12.653433"><ele>176.5</ele></trkpt>
   <trkpt lat="51.13185" lon="12.653635"><ele>175.75</ele></trkpt>
   <trkpt lat="51.131496" lon="12.653754"><ele>175.25</ele></trkpt>
   <trkpt lat="51.131225" lon="12.653847"><ele>175</ele></trkpt>
   <trkpt lat="51.130967" lon="12.653957"><ele>175</ele></trkpt>
   <trkpt lat="51.130681" lon="12.654095"><ele>175.5</ele></trkpt>
   <trkpt lat="51.130357" lon="12.654282"><ele>176.75</ele></trkpt>
   <trkpt lat="51.130051" lon="12.654481"><ele>178</ele></trkpt>
   <trkpt lat="51.12807" lon="12.655816"><ele>182.5</ele></trkpt>
   <trkpt lat="51.12614" lon="12.657112"><ele>185.25</ele></trkpt>
   <trkpt lat="51.125742" lon="12.657337"><ele>186</ele></trkpt>
   <trkpt lat="51.125332" lon="12.657526"><ele>187</ele></trkpt>
   <trkpt lat="51.125023" lon="12.65764"><ele>187.75</ele></trkpt>
   <trkpt lat="51.124718" lon="12.657709"><ele>188.5</ele></trkpt>
   <trkpt lat="51.124105" lon="12.657768"><ele>189.5</ele></trkpt>
   <trkpt lat="51.123688" lon="12.657749"><ele>190</ele></trkpt>
   <trkpt lat="51.123076" lon="12.657645"><ele>190.5</ele></trkpt>
   <trkpt lat="51.121068" lon="12.657185"><ele>193.25</ele></trkpt>
   <trkpt lat="51.119788" lon="12.656892"><ele>195.25</ele></trkpt>
   <trkpt lat="51.112033" lon="12.655099"><ele>192.75</ele></trkpt>
   <trkpt lat="51.111337" lon="12.65494"><ele>191.5</ele></trkpt>
   <trkpt lat="51.110912" lon="12.654877"><ele>190.75</ele></trkpt>
   <trkpt lat="51.110588" lon="12.65489"><ele>190.75</ele></trkpt>
   <trkpt lat="51.110192" lon="12.654963"><ele>191.5</ele></trkpt>
   <trkpt lat="51.109896" lon="12.65507"><ele>192</ele></trkpt>
   <trkpt lat="51.109553" lon="12.65523"><ele>192.75</ele></trkpt>
   <trkpt lat="51.109228" lon="12.655457"><ele>193.25</ele></trkpt>
   <trkpt lat="51.108825" lon="12.655812"><ele>193.5</ele></trkpt>
   <trkpt lat="51.108495" lon="12.656207"><ele>194</ele></trkpt>
   <trkpt lat="51.108239" lon="12.656593"><ele>194.25</ele></trkpt>
   <trkpt lat="51.107994" lon="12.657033"><ele>194</ele></trkpt>
   <trkpt lat="51.107569" lon="12.658012"><ele>192.75</ele></trkpt>
   <trkpt lat="51.105677" lon="12.662582"><ele>193</ele></trkpt>
   <trkpt lat="51.1054" lon="12.663246"><ele>194.25</ele></trkpt>
   <trkpt lat="51.105292" lon="12.663493"><ele>194</ele></trkpt>
   <trkpt lat="51.105122" lon="12.663849"><ele>193.5</ele></trkpt>
   <trkpt lat="51.10502" lon="12.664042"><ele>193</ele></trkpt>
   <trkpt lat="51.104909" lon="12.664227"><ele>192.5</ele></trkpt>
   <trkpt lat="51.104703" lon="12.664526"><ele>192</ele></trkpt>
   <trkpt lat="51.104607" lon="12.664657"><ele>192</ele></trkpt>
   <trkpt lat="51.104509" lon="12.664775"><ele>191.75</ele></trkpt>
   <trkpt lat="51.104307" lon="12.665002"><ele>192</ele></trkpt>
   <trkpt lat="51.104142" lon="12.665162"><ele>191.75</ele></trkpt>
   <trkpt lat="51.103832" lon="12.665417"><ele>190.75</ele></trkpt>
   <trkpt lat="51.103535" lon="12.665604"><ele>190.25</ele></trkpt>
   <trkpt lat="51.103035" lon="12.665851"><ele>190.5</ele></trkpt>
   <trkpt lat="51.102671" lon="12.666019"><ele>191.5</ele></trkpt>
   <trkpt lat="51.09928" lon="12.667594"><ele>188.25</ele></trkpt>
   <trkpt lat="51.099172" lon="12.667643"><ele>188.25</ele></trkpt>
   <trkpt lat="51.095549" lon="12.669326"><ele>195.5</ele></trkpt>
   <trkpt lat="51.095182" lon="12.669508"><ele>194.25</ele></trkpt>
   <trkpt lat="51.094853" lon="12.669707"><ele>193.5</ele></trkpt>
   <trkpt lat="51.094504" lon="12.669953"><ele>193.5</ele></trkpt>
   <trkpt lat="51.094254" lon="12.670164"><ele>193.5</ele></trkpt>
   <trkpt lat="51.094011" lon="12.670387"><ele>193.75</ele></trkpt>
   <trkpt lat="51.093771" lon="12.670638"><ele>194</ele></trkpt>
   <trkpt lat="51.09352" lon="12.670924"><ele>194.25</ele></trkpt>
   <trkpt lat="51.093266" lon="12.67126"><ele>194.25</ele></trkpt>
   <trkpt lat="51.093031" lon="12.6716"><ele>194.75</ele></trkpt>
   <trkpt lat="51.092696" lon="12.67216"><ele>196.75</ele></trkpt>
   <trkpt lat="51.09251" lon="12.672522"><ele>197.75</ele></trkpt>
   <trkpt lat="51.092334" lon="12.672899"><ele>198</ele></trkpt>
   <trkpt lat="51.092148" lon="12.67334"><ele>198.25</ele></trkpt>
   <trkpt lat="51.091977" lon="12.673788"><ele>198.5</ele></trkpt>
   <trkpt lat="51.091259" lon="12.675747"><ele>198.5</ele></trkpt>
   <trkpt lat="51.091213" lon="12.675874"><ele>198.5</ele></trkpt>
   <trkpt lat="51.089897" lon="12.679481"><ele>203</ele></trkpt>
   <trkpt lat="51.089692" lon="12.68001"><ele>203.25</ele></trkpt>
   <trkpt lat="51.089449" lon="12.680584"><ele>203.75</ele></trkpt>
   <trkpt lat="51.089302" lon="12.680905"><ele>204.25</ele></trkpt>
   <trkpt lat="51.088946" lon="12.681595"><ele>204.75</ele></trkpt>
   <trkpt lat="51.088747" lon="12.68195"><ele>205</ele></trkpt>
   <trkpt lat="51.088474" lon="12.682401"><ele>205.5</ele></trkpt>
   <trkpt lat="51.088124" lon="12.682909"><ele>205.75</ele></trkpt>
   <trkpt lat="51.087342" lon="12.683986"><ele>206.25</ele></trkpt>
   <trkpt lat="51.08707" lon="12.684389"><ele>206</ele></trkpt>
   <trkpt lat="51.087003" lon="12.684507"><ele>206</ele></trkpt>
   <trkpt lat="51.086744" lon="12.684968"><ele>205.75</ele></trkpt>
   <trkpt lat="51.086509" lon="12.685434"><ele>207</ele></trkpt>
   <trkpt lat="51.086262" lon="12.686036"><ele>208</ele></trkpt>
   <trkpt lat="51.086073" lon="12.686573"><ele>208.25</ele></trkpt>
   <trkpt lat="51.085944" lon="12.687007"><ele>208</ele></trkpt>
   <trkpt lat="51.085774" lon="12.687734"><ele>207.5</ele></trkpt>
   <trkpt lat="51.085739" lon="12.687896"><ele>207.25</ele></trkpt>
   <trkpt lat="51.085505" lon="12.689036"><ele>207.75</ele></trkpt>
   <trkpt lat="51.085473" lon="12.689195"><ele>208</ele></trkpt>
   <trkpt lat="51.085149" lon="12.690762"><ele>212.25</ele></trkpt>
   <trkpt lat="51.085073" lon="12.691097"><ele>213.5</ele></trkpt>
   <trkpt lat="51.08494" lon="12.691598"><ele>215</ele></trkpt>
   <trkpt lat="51.084802" lon="12.692052"><ele>214.25</ele></trkpt>
   <trkpt lat="51.084497" lon="12.692868"><ele>212.5</ele></trkpt>
   <trkpt lat="51.084203" lon="12.693493"><ele>211.75</ele></trkpt>
   <trkpt lat="51.083846" lon="12.694108"><ele>213</ele></trkpt>
   <trkpt lat="51.083439" lon="12.694696"><ele>213.75</ele></trkpt>
   <trkpt lat="51.083033" lon="12.695166"><ele>215.25</ele></trkpt>
   <trkpt lat="51.082566" lon="12.695605"><ele>217</ele></trkpt>
   <trkpt lat="51.082068" lon="12.69598"><ele>217.5</ele></trkpt>
   <trkpt lat="51.081672" lon="12.696217"><ele>218</ele></trkpt>
   <trkpt lat="51.08074" lon="12.696715"><ele>217.25</ele></trkpt>
   <trkpt lat="51.078374" lon="12.69801"><ele>222.25</ele></trkpt>
   <trkpt lat="51.077458" lon="12.698505"><ele>224.5</ele></trkpt>
   <trkpt lat="51.076922" lon="12.698745"><ele>224.25</ele></trkpt>
   <trkpt lat="51.076529" lon="12.698845"><ele>224.75</ele></trkpt>
   <trkpt lat="51.076107" lon="12.698903"><ele>225.75</ele></trkpt>
   <trkpt lat="51.075597" lon="12.698872"><ele>227.25</ele></trkpt>
   <trkpt lat="51.075153" lon="12.698785"><ele>228.75</ele></trkpt>
   <trkpt lat="51.074799" lon="12.698654"><ele>230</ele></trkpt>
   <trkpt lat="51.07433" lon="12.698407"><ele>231.5</ele></trkpt>
   <trkpt lat="51.073432" lon="12.697805"><ele>232</ele></trkpt>
   <trkpt lat="51.070885" lon="12.696045"><ele>230</ele></trkpt>
   <trkpt lat="51.068782" lon="12.694596"><ele>225</ele></trkpt>
   <trkpt lat="51.068539" lon="12.694424"><ele>224.5</ele></trkpt>
   <trkpt lat="51.06514" lon="12.692075"><ele>229.75</ele></trkpt>
   <trkpt lat="51.064335" lon="12.691535"><ele>231</ele></trkpt>
   <trkpt lat="51.064161" lon="12.691433"><ele>231</ele></trkpt>
   <trkpt lat="51.063995" lon="12.691344"><ele>230.5</ele></trkpt>
   <trkpt lat="51.06377" lon="12.691247"><ele>230.25</ele></trkpt>
   <trkpt lat="51.063633" lon="12.691197"><ele>230</ele></trkpt>
   <trkpt lat="51.063357" lon="12.691128"><ele>229.5</ele></trkpt>
   <trkpt lat="51.063227" lon="12.691108"><ele>229.75</ele></trkpt>
   <trkpt lat="51.062958" lon="12.691087"><ele>230.25</ele></trkpt>
   <trkpt lat="51.062678" lon="12.691108"><ele>230.75</ele></trkpt>
   <trkpt lat="51.06242" lon="12.691151"><ele>231.75</ele></trkpt>
   <trkpt lat="51.062154" lon="12.691235"><ele>233</ele></trkpt>
   <trkpt lat="51.061892" lon="12.691342"><ele>234.5</ele></trkpt>
   <trkpt lat="51.06173" lon="12.691427"><ele>235.25</ele></trkpt>
   <trkpt lat="51.061545" lon="12.691542"><ele>236</ele></trkpt>
   <trkpt lat="51.061309" lon="12.691716"><ele>236.75</ele></trkpt>
   <trkpt lat="51.061066" lon="12.691932"><ele>237.5</ele></trkpt>
   <trkpt lat="51.060832" lon="12.692182"><ele>238</ele></trkpt>
   <trkpt lat="51.060602" lon="12.692465"><ele>238.25</ele></trkpt>
   <trkpt lat="51.060437" lon="12.692693"><ele>238.25</ele></trkpt>
   <trkpt lat="51.060246" lon="12.692994"><ele>238.25</ele></trkpt>
   <trkpt lat="51.060052" lon="12.693338"><ele>238</ele></trkpt>
   <trkpt lat="51.059952" lon="12.693518"><ele>238</ele></trkpt>
   <trkpt lat="51.059838" lon="12.693762"><ele>238.25</ele></trkpt>
   <trkpt lat="51.059794" lon="12.693864"><ele>238.25</ele></trkpt>
   <trkpt lat="51.05975" lon="12.693961"><ele>238.25</ele></trkpt>
   <trkpt lat="51.058784" lon="12.696103"><ele>239</ele></trkpt>
   <trkpt lat="51.058591" lon="12.69653"><ele>238.5</ele></trkpt>
   <trkpt lat="51.058126" lon="12.697551"><ele>238</ele></trkpt>
   <trkpt lat="51.058101" lon="12.697604"><ele>240.25</ele></trkpt>
   <trkpt lat="51.057034" lon="12.69996"><ele>240.25</ele></trkpt>
   <trkpt lat="51.056897" lon="12.700265"><ele>240.25</ele></trkpt>
   <trkpt lat="51.056893" lon="12.700273"><ele>240.25</ele></trkpt>
   <trkpt lat="51.056695" lon="12.700711"><ele>240.75</ele></trkpt>
   <trkpt lat="51.056479" lon="12.701192"><ele>239.75</ele></trkpt>
   <trkpt lat="51.056136" lon="12.701952"><ele>239</ele></trkpt>
   <trkpt lat="51.05498" lon="12.704502"><ele>240.25</ele></trkpt>
   <trkpt lat="51.054211" lon="12.706228"><ele>239.75</ele></trkpt>
   <trkpt lat="51.053498" lon="12.707809"><ele>242.75</ele></trkpt>
   <trkpt lat="51.053221" lon="12.708413"><ele>244</ele></trkpt>
   <trkpt lat="51.052993" lon="12.708888"><ele>245.25</ele></trkpt>
   <trkpt lat="51.05278" lon="12.7093"><ele>246.25</ele></trkpt>
   <trkpt lat="51.052527" lon="12.70972"><ele>247.25</ele></trkpt>
   <trkpt lat="51.052358" lon="12.709975"><ele>247.5</ele></trkpt>
   <trkpt lat="51.052068" lon="12.710386"><ele>247.5</ele></trkpt>
   <trkpt lat="51.051616" lon="12.710958"><ele>247.25</ele></trkpt>
   <trkpt lat="51.051156" lon="12.711446"><ele>248.25</ele></trkpt>
   <trkpt lat="51.050683" lon="12.71187"><ele>249.25</ele></trkpt>
   <trkpt lat="51.050186" lon="12.712236"><ele>250</ele></trkpt>
   <trkpt lat="51.049904" lon="12.712414"><ele>251</ele></trkpt>
   <trkpt lat="51.049481" lon="12.712638"><ele>252.5</ele></trkpt>
   <trkpt lat="51.049049" lon="12.712825"><ele>254.25</ele></trkpt>
   <trkpt lat="51.04842" lon="12.713032"><ele>255.75</ele></trkpt>
   <trkpt lat="51.04603" lon="12.713731"><ele>252.25</ele></trkpt>
   <trkpt lat="51.043576" lon="12.71445"><ele>250.5</ele></trkpt>
   <trkpt lat="51.04343" lon="12.714491"><ele>250.25</ele></trkpt>
   <trkpt lat="51.042854" lon="12.714662"><ele>249</ele></trkpt>
   <trkpt lat="51.042237" lon="12.714845"><ele>249.25</ele></trkpt>
   <trkpt lat="51.042019" lon="12.714905"><ele>250.25</ele></trkpt>
   <trkpt lat="51.039982" lon="12.715505"><ele>254</ele></trkpt>
   <trkpt lat="51.039858" lon="12.71554"><ele>254.25</ele></trkpt>
   <trkpt lat="51.037466" lon="12.716239"><ele>260.5</ele></trkpt>
   <trkpt lat="51.033727" lon="12.717332"><ele>261.5</ele></trkpt>
   <trkpt lat="51.030242" lon="12.718352"><ele>265</ele></trkpt>
   <trkpt lat="51.029489" lon="12.718572"><ele>264</ele></trkpt>
   <trkpt lat="51.026925" lon="12.719329"><ele>266</ele></trkpt>
   <trkpt lat="51.026818" lon="12.719359"><ele>266.25</ele></trkpt>
   <trkpt lat="51.026678" lon="12.7194"><ele>266.75</ele></trkpt>
   <trkpt lat="51.023141" lon="12.720435"><ele>267</ele></trkpt>
   <trkpt lat="51.019804" lon="12.721419"><ele>271</ele></trkpt>
   <trkpt lat="51.01702" lon="12.722241"><ele>263.75</ele></trkpt>
   <trkpt lat="51.016415" lon="12.722401"><ele>263.75</ele></trkpt>
   <trkpt lat="51.016228" lon="12.72243"><ele>263.75</ele></trkpt>
   <trkpt lat="51.015958" lon="12.722462"><ele>263.75</ele></trkpt>
   <trkpt lat="51.015666" lon="12.722463"><ele>264</ele></trkpt>
   <trkpt lat="51.015287" lon="12.722422"><ele>264.5</ele></trkpt>
   <trkpt lat="51.014966" lon="12.722353"><ele>264.75</ele></trkpt>
   <trkpt lat="51.014588" lon="12.722207"><ele>266</ele></trkpt>
   <trkpt lat="51.014262" lon="12.722046"><ele>267</ele></trkpt>
   <trkpt lat="51.013987" lon="12.721864"><ele>267.5</ele></trkpt>
   <trkpt lat="51.013707" lon="12.721648"><ele>268</ele></trkpt>
   <trkpt lat="51.013471" lon="12.721433"><ele>268.25</ele></trkpt>
   <trkpt lat="51.013244" lon="12.721198"><ele>268.5</ele></trkpt>
   <trkpt lat="51.013047" lon="12.720966"><ele>269</ele></trkpt>
   <trkpt lat="51.012818" lon="12.720664"><ele>269.75</ele></trkpt>
   <trkpt lat="51.012612" lon="12.720358"><ele>270.5</ele></trkpt>
   <trkpt lat="51.012434" lon="12.720055"><ele>271</ele></trkpt>
   <trkpt lat="51.012186" lon="12.719562"><ele>270</ele></trkpt>
   <trkpt lat="51.012054" lon="12.719278"><ele>269.75</ele></trkpt>
   <trkpt lat="51.011507" lon="12.718023"><ele>270.75</ele></trkpt>
   <trkpt lat="51.011199" lon="12.717325"><ele>272</ele></trkpt>
   <trkpt lat="51.011004" lon="12.716915"><ele>272.5</ele></trkpt>
   <trkpt lat="51.010164" lon="12.715284"><ele>271.25</ele></trkpt>
   <trkpt lat="51.009841" lon="12.714601"><ele>271</ele></trkpt>
   <trkpt lat="51.009293" lon="12.713398"><ele>271</ele></trkpt>
   <trkpt lat="51.00915" lon="12.713095"><ele>271.5</ele></trkpt>
   <trkpt lat="51.008813" lon="12.712363"><ele>271.75</ele></trkpt>
   <trkpt lat="51.008669" lon="12.712061"><ele>271.5</ele></trkpt>
   <trkpt lat="51.008503" lon="12.711735"><ele>271.5</ele></trkpt>
   <trkpt lat="51.008458" lon="12.711653"><ele>271.25</ele></trkpt>
   <trkpt lat="51.008387" lon="12.711528"><ele>271.5</ele></trkpt>
   <trkpt lat="51.008164" lon="12.711159"><ele>271.5</ele></trkpt>
   <trkpt lat="51.007929" lon="12.710839"><ele>272</ele></trkpt>
   <trkpt lat="51.007808" lon="12.710683"><ele>272</ele></trkpt>
   <trkpt lat="51.007619" lon="12.710474"><ele>272</ele></trkpt>
   <trkpt lat="51.007403" lon="12.710254"><ele>272.75</ele></trkpt>
   <trkpt lat="51.007102" lon="12.709997"><ele>274.75</ele></trkpt>
   <trkpt lat="51.006953" lon="12.709889"><ele>275.5</ele></trkpt>
   <trkpt lat="51.006718" lon="12.709737"><ele>276.25</ele></trkpt>
   <trkpt lat="51.006427" lon="12.709581"><ele>276.25</ele></trkpt>
   <trkpt lat="51.006083" lon="12.709446"><ele>276.5</ele></trkpt>
   <trkpt lat="51.005746" lon="12.709337"><ele>276.75</ele></trkpt>
   <trkpt lat="51.003534" lon="12.7088"><ele>273</ele></trkpt>
   <trkpt lat="51.00177" lon="12.708369"><ele>269.75</ele></trkpt>
   <trkpt lat="50.999997" lon="12.707934"><ele>266.75</ele></trkpt>
   <trkpt lat="50.999854" lon="12.7079"><ele>267</ele></trkpt>
   <trkpt lat="50.999693" lon="12.707864"><ele>267.25</ele></trkpt>
   <trkpt lat="50.999647" lon="12.707853"><ele>267.5</ele></trkpt>
   <trkpt lat="50.999078" lon="12.707716"><ele>268</ele></trkpt>
   <trkpt lat="50.998737" lon="12.707656"><ele>268.25</ele></trkpt>
   <trkpt lat="50.998327" lon="12.707626"><ele>268.75</ele></trkpt>
   <trkpt lat="50.998014" lon="12.70764"><ele>268.5</ele></trkpt>
   <trkpt lat="50.997769" lon="12.707681"><ele>268.25</ele></trkpt>
   <trkpt lat="50.997485" lon="12.707747"><ele>268</ele></trkpt>
   <trkpt lat="50.997214" lon="12.707843"><ele>268</ele></trkpt>
   <trkpt lat="50.996873" lon="12.707999"><ele>268.25</ele></trkpt>
   <trkpt lat="50.996513" lon="12.708219"><ele>269</ele></trkpt>
   <trkpt lat="50.99624" lon="12.708438"><ele>269.25</ele></trkpt>
   <trkpt lat="50.995963" lon="12.708689"><ele>269.25</ele></trkpt>
   <trkpt lat="50.995706" lon="12.70897"><ele>269.25</ele></trkpt>
   <trkpt lat="50.995515" lon="12.709193"><ele>269.25</ele></trkpt>
   <trkpt lat="50.99535" lon="12.709405"><ele>269.25</ele></trkpt>
   <trkpt lat="50.995109" lon="12.709726"><ele>269.75</ele></trkpt>
   <trkpt lat="50.99068" lon="12.715627"><ele>272</ele></trkpt>
   <trkpt lat="50.989333" lon="12.717415"><ele>273.75</ele></trkpt>
   <trkpt lat="50.98857" lon="12.718445"><ele>277.25</ele></trkpt>
   <trkpt lat="50.988274" lon="12.718872"><ele>278</ele></trkpt>
   <trkpt lat="50.98801" lon="12.719281"><ele>278.5</ele></trkpt>
   <trkpt lat="50.987716" lon="12.719808"><ele>279.5</ele></trkpt>
   <trkpt lat="50.987433" lon="12.720384"><ele>279.75</ele></trkpt>
   <trkpt lat="50.987194" lon="12.720939"><ele>279.5</ele></trkpt>
   <trkpt lat="50.986969" lon="12.721524"><ele>279</ele></trkpt>
   <trkpt lat="50.986737" lon="12.72223"><ele>278.25</ele></trkpt>
   <trkpt lat="50.986546" lon="12.722923"><ele>276.75</ele></trkpt>
   <trkpt lat="50.986368" lon="12.723713"><ele>274.5</ele></trkpt>
   <trkpt lat="50.986235" lon="12.724499"><ele>272.25</ele></trkpt>
   <trkpt lat="50.986142" lon="12.725239"><ele>270.5</ele></trkpt>
   <trkpt lat="50.986093" lon="12.725813"><ele>270.25</ele></trkpt>
   <trkpt lat="50.986053" lon="12.726522"><ele>269.75</ele></trkpt>
   <trkpt lat="50.986042" lon="12.727077"><ele>269.75</ele></trkpt>
   <trkpt lat="50.986048" lon="12.72751"><ele>270.25</ele></trkpt>
   <trkpt lat="50.986068" lon="12.728101"><ele>271</ele></trkpt>
   <trkpt lat="50.986104" lon="12.728628"><ele>270.75</ele></trkpt>
   <trkpt lat="50.98614" lon="12.729029"><ele>270.25</ele></trkpt>
   <trkpt lat="50.986226" lon="12.729701"><ele>268.75</ele></trkpt>
   <trkpt lat="50.986336" lon="12.730375"><ele>267.75</ele></trkpt>
   <trkpt lat="50.986973" lon="12.733403"><ele>262.75</ele></trkpt>
   <trkpt lat="50.987327" lon="12.735146"><ele>259</ele></trkpt>
   <trkpt lat="50.987392" lon="12.735564"><ele>258.25</ele></trkpt>
   <trkpt lat="50.987443" lon="12.736013"><ele>257.75</ele></trkpt>
   <trkpt lat="50.987478" lon="12.736433"><ele>258</ele></trkpt>
   <trkpt lat="50.987499" lon="12.736903"><ele>257.5</ele></trkpt>
   <trkpt lat="50.987501" lon="12.737513"><ele>256.75</ele></trkpt>
   <trkpt lat="50.987478" lon="12.738034"><ele>256.5</ele></trkpt>
   <trkpt lat="50.987412" lon="12.738908"><ele>254.25</ele></trkpt>
   <trkpt lat="50.987374" lon="12.739279"><ele>253</ele></trkpt>
   <trkpt lat="50.98705" lon="12.7425"><ele>256.25</ele></trkpt>
   <trkpt lat="50.986943" lon="12.743358"><ele>257.5</ele></trkpt>
   <trkpt lat="50.98687" lon="12.743802"><ele>256.75</ele></trkpt>
   <trkpt lat="50.986775" lon="12.74428"><ele>256</ele></trkpt>
   <trkpt lat="50.986657" lon="12.744801"><ele>255</ele></trkpt>
   <trkpt lat="50.986468" lon="12.745508"><ele>254.5</ele></trkpt>
   <trkpt lat="50.986312" lon="12.746008"><ele>254.5</ele></trkpt>
   <trkpt lat="50.984644" lon="12.750819"><ele>245.75</ele></trkpt>
   <trkpt lat="50.984506" lon="12.751324"><ele>244.75</ele></trkpt>
   <trkpt lat="50.984402" lon="12.751829"><ele>244.25</ele></trkpt>
   <trkpt lat="50.984331" lon="12.752315"><ele>244.5</ele></trkpt>
   <trkpt lat="50.984292" lon="12.752739"><ele>244.5</ele></trkpt>
   <trkpt lat="50.984274" lon="12.753134"><ele>244</ele></trkpt>
   <trkpt lat="50.984276" lon="12.753557"><ele>243.75</ele></trkpt>
   <trkpt lat="50.984293" lon="12.753926"><ele>243.5</ele></trkpt>
   <trkpt lat="50.984316" lon="12.754196"><ele>243.5</ele></trkpt>
   <trkpt lat="50.984362" lon="12.754571"><ele>243.5</ele></trkpt>
   <trkpt lat="50.984418" lon="12.754934"><ele>243.5</ele></trkpt>
   <trkpt lat="50.984496" lon="12.75531"><ele>242.75</ele></trkpt>
   <trkpt lat="50.98459" lon="12.755675"><ele>242.25</ele></trkpt>
   <trkpt lat="50.984705" lon="12.756038"><ele>242</ele></trkpt>
   <trkpt lat="50.984851" lon="12.75643"><ele>241.75</ele></trkpt>
   <trkpt lat="50.985021" lon="12.75681"><ele>241.75</ele></trkpt>
   <trkpt lat="50.985157" lon="12.757068"><ele>240.75</ele></trkpt>
   <trkpt lat="50.9854" lon="12.757484"><ele>240</ele></trkpt>
   <trkpt lat="50.985695" lon="12.75794"><ele>240</ele></trkpt>
   <trkpt lat="50.986117" lon="12.758626"><ele>238.75</ele></trkpt>
   <trkpt lat="50.9863" lon="12.758982"><ele>237.75</ele></trkpt>
   <trkpt lat="50.986443" lon="12.759312"><ele>237.5</ele></trkpt>
   <trkpt lat="50.986572" lon="12.759667"><ele>237.5</ele></trkpt>
   <trkpt lat="50.986669" lon="12.760008"><ele>237.75</ele></trkpt>
   <trkpt lat="50.986755" lon="12.760349"><ele>237.25</ele></trkpt>
   <trkpt lat="50.986824" lon="12.760686"><ele>236.5</ele></trkpt>
   <trkpt lat="50.986866" lon="12.760972"><ele>236.25</ele></trkpt>
   <trkpt lat="50.986905" lon="12.761317"><ele>235.75</ele></trkpt>
   <trkpt lat="50.986925" lon="12.761618"><ele>235.5</ele></trkpt>
   <trkpt lat="50.986929" lon="12.761939"><ele>235.75</ele></trkpt>
   <trkpt lat="50.986922" lon="12.762314"><ele>236.5</ele></trkpt>
   <trkpt lat="50.986908" lon="12.762593"><ele>237</ele></trkpt>
   <trkpt lat="50.986885" lon="12.762864"><ele>238</ele></trkpt>
   <trkpt lat="50.986833" lon="12.763189"><ele>239.25</ele></trkpt>
   <trkpt lat="50.986771" lon="12.763511"><ele>240</ele></trkpt>
   <trkpt lat="50.986716" lon="12.763756"><ele>240.5</ele></trkpt>
   <trkpt lat="50.986517" lon="12.764418"><ele>241.5</ele></trkpt>
   <trkpt lat="50.986399" lon="12.76473"><ele>242.25</ele></trkpt>
   <trkpt lat="50.986304" lon="12.764935"><ele>242.75</ele></trkpt>
   <trkpt lat="50.986087" lon="12.765354"><ele>242.5</ele></trkpt>
   <trkpt lat="50.985904" lon="12.765632"><ele>242.25</ele></trkpt>
   <trkpt lat="50.985716" lon="12.765878"><ele>241</ele></trkpt>
   <trkpt lat="50.985449" lon="12.766174"><ele>238.5</ele></trkpt>
   <trkpt lat="50.985291" lon="12.766315"><ele>237.25</ele></trkpt>
   <trkpt lat="50.985079" lon="12.766484"><ele>235.75</ele></trkpt>
   <trkpt lat="50.984916" lon="12.766593"><ele>234.25</ele></trkpt>
   <trkpt lat="50.984714" lon="12.766702"><ele>232</ele></trkpt>
   <trkpt lat="50.984526" lon="12.766784"><ele>230</ele></trkpt>
   <trkpt lat="50.983517" lon="12.767155"><ele>220.5</ele></trkpt>
   <trkpt lat="50.983197" lon="12.767314"><ele>217</ele></trkpt>
   <trkpt lat="50.982985" lon="12.767442"><ele>214.25</ele></trkpt>
   <trkpt lat="50.9828" lon="12.767584"><ele>214.75</ele></trkpt>
   <trkpt lat="50.982429" lon="12.767957"><ele>216.25</ele></trkpt>
   <trkpt lat="50.981568" lon="12.768907"><ele>219.75</ele></trkpt>
   <trkpt lat="50.980962" lon="12.769513"><ele>222.25</ele></trkpt>
   <trkpt lat="50.980255" lon="12.7702"><ele>224.75</ele></trkpt>
   <trkpt lat="50.979699" lon="12.770772"><ele>225</ele></trkpt>
   <trkpt lat="50.977763" lon="12.772798"><ele>229</ele></trkpt>
   <trkpt lat="50.977268" lon="12.773298"><ele>229.75</ele></trkpt>
   <trkpt lat="50.976785" lon="12.773747"><ele>229.25</ele></trkpt>
   <trkpt lat="50.976541" lon="12.773932"><ele>229</ele></trkpt>
   <trkpt lat="50.976293" lon="12.774097"><ele>229.25</ele></trkpt>
   <trkpt lat="50.975815" lon="12.774349"><ele>229.5</ele></trkpt>
   <trkpt lat="50.975526" lon="12.774447"><ele>229.25</ele></trkpt>
   <trkpt lat="50.975254" lon="12.774512"><ele>228.75</ele></trkpt>
   <trkpt lat="50.974819" lon="12.774573"><ele>229</ele></trkpt>
   <trkpt lat="50.974718" lon="12.774581"><ele>229.25</ele></trkpt>
   <trkpt lat="50.973854" lon="12.774638"><ele>232.25</ele></trkpt>
   <trkpt lat="50.973477" lon="12.774694"><ele>234</ele></trkpt>
   <trkpt lat="50.973133" lon="12.774775"><ele>234.75</ele></trkpt>
   <trkpt lat="50.972904" lon="12.774855"><ele>235.25</ele></trkpt>
   <trkpt lat="50.972617" lon="12.774989"><ele>235.75</ele></trkpt>
   <trkpt lat="50.972365" lon="12.775136"><ele>235.75</ele></trkpt>
   <trkpt lat="50.972109" lon="12.775326"><ele>236</ele></trkpt>
   <trkpt lat="50.972018" lon="12.775398"><ele>236</ele></trkpt>
   <trkpt lat="50.97176" lon="12.775645"><ele>236.5</ele></trkpt>
   <trkpt lat="50.97151" lon="12.775901"><ele>237.25</ele></trkpt>
   <trkpt lat="50.971186" lon="12.776305"><ele>238.5</ele></trkpt>
   <trkpt lat="50.970999" lon="12.776571"><ele>239.75</ele></trkpt>
   <trkpt lat="50.970507" lon="12.777337"><ele>242</ele></trkpt>
   <trkpt lat="50.969982" lon="12.77818"><ele>244.75</ele></trkpt>
   <trkpt lat="50.96884" lon="12.780022"><ele>246.25</ele></trkpt>
   <trkpt lat="50.96854" lon="12.78049"><ele>246.75</ele></trkpt>
   <trkpt lat="50.968174" lon="12.781103"><ele>247.5</ele></trkpt>
   <trkpt lat="50.96692" lon="12.783133"><ele>252.25</ele></trkpt>
   <trkpt lat="50.966331" lon="12.784081"><ele>255.5</ele></trkpt>
   <trkpt lat="50.965692" lon="12.78512"><ele>254.5</ele></trkpt>
   <trkpt lat="50.965627" lon="12.785225"><ele>255</ele></trkpt>
   <trkpt lat="50.965131" lon="12.786066"><ele>255.25</ele></trkpt>
   <trkpt lat="50.964808" lon="12.786581"><ele>252.5</ele></trkpt>
   <trkpt lat="50.964193" lon="12.787602"><ele>251.25</ele></trkpt>
   <trkpt lat="50.963462" lon="12.788899"><ele>252</ele></trkpt>
   <trkpt lat="50.962937" lon="12.7899"><ele>256.5</ele></trkpt>
   <trkpt lat="50.962058" lon="12.791628"><ele>262</ele></trkpt>
   <trkpt lat="50.961436" lon="12.792878"><ele>260</ele></trkpt>
   <trkpt lat="50.960662" lon="12.794394"><ele>258</ele></trkpt>
   <trkpt lat="50.960346" lon="12.794952"><ele>257.5</ele></trkpt>
   <trkpt lat="50.960193" lon="12.7952"><ele>257</ele></trkpt>
   <trkpt lat="50.959984" lon="12.795492"><ele>256.5</ele></trkpt>
   <trkpt lat="50.959798" lon="12.795715"><ele>255.5</ele></trkpt>
   <trkpt lat="50.959628" lon="12.795905"><ele>254.5</ele></trkpt>
   <trkpt lat="50.959221" lon="12.79626"><ele>253.25</ele></trkpt>
   <trkpt lat="50.959021" lon="12.796401"><ele>253.75</ele></trkpt>
   <trkpt lat="50.958791" lon="12.796531"><ele>254.75</ele></trkpt>
   <trkpt lat="50.958427" lon="12.796697"><ele>257.25</ele></trkpt>
   <trkpt lat="50.958204" lon="12.79676"><ele>258.5</ele></trkpt>
   <trkpt lat="50.957994" lon="12.796804"><ele>259.5</ele></trkpt>
   <trkpt lat="50.957803" lon="12.796827"><ele>260.5</ele></trkpt>
   <trkpt lat="50.957563" lon="12.796829"><ele>262</ele></trkpt>
   <trkpt lat="50.957207" lon="12.796798"><ele>264.25</ele></trkpt>
   <trkpt lat="50.956741" lon="12.796708"><ele>267.5</ele></trkpt>
   <trkpt lat="50.954246" lon="12.79605"><ele>284.75</ele></trkpt>
   <trkpt lat="50.953992" lon="12.795975"><ele>284</ele></trkpt>
   <trkpt lat="50.953422" lon="12.795741"><ele>281.25</ele></trkpt>
   <trkpt lat="50.953116" lon="12.795544"><ele>280.25</ele></trkpt>
   <trkpt lat="50.952287" lon="12.795033"><ele>279</ele></trkpt>
   <trkpt lat="50.951668" lon="12.794612"><ele>281.75</ele></trkpt>
   <trkpt lat="50.951321" lon="12.794353"><ele>281.75</ele></trkpt>
   <trkpt lat="50.950974" lon="12.794116"><ele>282.5</ele></trkpt>
   <trkpt lat="50.950681" lon="12.793945"><ele>283.25</ele></trkpt>
   <trkpt lat="50.950397" lon="12.793812"><ele>283.75</ele></trkpt>
   <trkpt lat="50.950101" lon="12.793715"><ele>283.75</ele></trkpt>
   <trkpt lat="50.949772" lon="12.793665"><ele>283.25</ele></trkpt>
   <trkpt lat="50.949481" lon="12.79366"><ele>282.75</ele></trkpt>
   <trkpt lat="50.94923" lon="12.79369"><ele>282.25</ele></trkpt>
   <trkpt lat="50.94903" lon="12.793733"><ele>282.25</ele></trkpt>
   <trkpt lat="50.948768" lon="12.793823"><ele>283</ele></trkpt>
   <trkpt lat="50.948567" lon="12.793919"><ele>283.5</ele></trkpt>
   <trkpt lat="50.948317" lon="12.79406"><ele>284</ele></trkpt>
   <trkpt lat="50.948126" lon="12.794197"><ele>284.5</ele></trkpt>
   <trkpt lat="50.947869" lon="12.794423"><ele>285</ele></trkpt>
   <trkpt lat="50.947475" lon="12.794841"><ele>286.25</ele></trkpt>
   <trkpt lat="50.945839" lon="12.796642"><ele>283</ele></trkpt>
   <trkpt lat="50.945384" lon="12.797117"><ele>282</ele></trkpt>
   <trkpt lat="50.94335" lon="12.799302"><ele>280</ele></trkpt>
   <trkpt lat="50.941954" lon="12.800854"><ele>282.75</ele></trkpt>
   <trkpt lat="50.941202" lon="12.801856"><ele>283</ele></trkpt>
   <trkpt lat="50.940503" lon="12.802855"><ele>284.75</ele></trkpt>
   <trkpt lat="50.939599" lon="12.80415"><ele>286.25</ele></trkpt>
   <trkpt lat="50.937179" lon="12.807578"><ele>284.5</ele></trkpt>
   <trkpt lat="50.937061" lon="12.807751"><ele>284.25</ele></trkpt>
   <trkpt lat="50.934577" lon="12.811295"><ele>293.5</ele></trkpt>
   <trkpt lat="50.93396" lon="12.812117"><ele>295</ele></trkpt>
   <trkpt lat="50.933609" lon="12.812533"><ele>295.5</ele></trkpt>
   <trkpt lat="50.933227" lon="12.812941"><ele>296.25</ele></trkpt>
   <trkpt lat="50.932832" lon="12.813333"><ele>296.75</ele></trkpt>
   <trkpt lat="50.932605" lon="12.813534"><ele>296.5</ele></trkpt>
   <trkpt lat="50.932056" lon="12.813996"><ele>296.5</ele></trkpt>
   <trkpt lat="50.931492" lon="12.814394"><ele>296.75</ele></trkpt>
   <trkpt lat="50.93104" lon="12.814672"><ele>297</ele></trkpt>
   <trkpt lat="50.93072" lon="12.814847"><ele>297.25</ele></trkpt>
   <trkpt lat="50.929788" lon="12.815261"><ele>296.75</ele></trkpt>
   <trkpt lat="50.928839" lon="12.815621"><ele>297.25</ele></trkpt>
   <trkpt lat="50.926959" lon="12.816309"><ele>298.5</ele></trkpt>
   <trkpt lat="50.925921" lon="12.8167"><ele>299.75</ele></trkpt>
   <trkpt lat="50.925767" lon="12.816757"><ele>299.75</ele></trkpt>
   <trkpt lat="50.92512" lon="12.816984"><ele>300.75</ele></trkpt>
   <trkpt lat="50.924754" lon="12.817076"><ele>301.25</ele></trkpt>
   <trkpt lat="50.924341" lon="12.817151"><ele>301.75</ele></trkpt>
   <trkpt lat="50.923874" lon="12.817171"><ele>302</ele></trkpt>
   <trkpt lat="50.92347" lon="12.817145"><ele>302</ele></trkpt>
   <trkpt lat="50.923187" lon="12.817102"><ele>302.25</ele></trkpt>
   <trkpt lat="50.922825" lon="12.817016"><ele>303</ele></trkpt>
   <trkpt lat="50.922406" lon="12.816873"><ele>304</ele></trkpt>
   <trkpt lat="50.921948" lon="12.816653"><ele>304.5</ele></trkpt>
   <trkpt lat="50.921538" lon="12.816425"><ele>305</ele></trkpt>
   <trkpt lat="50.921187" lon="12.816202"><ele>305.25</ele></trkpt>
   <trkpt lat="50.917504" lon="12.813842"><ele>310.75</ele></trkpt>
   <trkpt lat="50.915813" lon="12.8128"><ele>316.5</ele></trkpt>
   <trkpt lat="50.915118" lon="12.812352"><ele>318.5</ele></trkpt>
   <trkpt lat="50.914637" lon="12.812043"><ele>318.5</ele></trkpt>
   <trkpt lat="50.914253" lon="12.811786"><ele>318</ele></trkpt>
   <trkpt lat="50.913862" lon="12.811544"><ele>318.5</ele></trkpt>
   <trkpt lat="50.913585" lon="12.811377"><ele>319.25</ele></trkpt>
   <trkpt lat="50.913187" lon="12.811189"><ele>320</ele></trkpt>
   <trkpt lat="50.912769" lon="12.811055"><ele>320.25</ele></trkpt>
   <trkpt lat="50.91231" lon="12.811026"><ele>320.25</ele></trkpt>
   <trkpt lat="50.912151" lon="12.811021"><ele>320</ele></trkpt>
   <trkpt lat="50.911868" lon="12.81105"><ele>319.75</ele></trkpt>
   <trkpt lat="50.911597" lon="12.81111"><ele>319.5</ele></trkpt>
   <trkpt lat="50.91138" lon="12.811178"><ele>319</ele></trkpt>
   <trkpt lat="50.91123" lon="12.811236"><ele>318.5</ele></trkpt>
   <trkpt lat="50.911092" lon="12.811299"><ele>318.25</ele></trkpt>
   <trkpt lat="50.910819" lon="12.811446"><ele>318</ele></trkpt>
   <trkpt lat="50.910484" lon="12.811679"><ele>319.25</ele></trkpt>
   <trkpt lat="50.910343" lon="12.811801"><ele>319.75</ele></trkpt>
   <trkpt lat="50.910217" lon="12.811911"><ele>320.25</ele></trkpt>
   <trkpt lat="50.909951" lon="12.812174"><ele>320.75</ele></trkpt>
   <trkpt lat="50.909646" lon="12.812537"><ele>320</ele></trkpt>
   <trkpt lat="50.909422" lon="12.812896"><ele>320.25</ele></trkpt>
   <trkpt lat="50.909183" lon="12.81331"><ele>320.75</ele></trkpt>
   <trkpt lat="50.908969" lon="12.813761"><ele>320.5</ele></trkpt>
   <trkpt lat="50.9088" lon="12.814189"><ele>320.75</ele></trkpt>
   <trkpt lat="50.908694" lon="12.814507"><ele>321.25</ele></trkpt>
   <trkpt lat="50.908519" lon="12.815138"><ele>323</ele></trkpt>
   <trkpt lat="50.908408" lon="12.815689"><ele>324.5</ele></trkpt>
   <trkpt lat="50.907636" lon="12.819877"><ele>329.25</ele></trkpt>
   <trkpt lat="50.907267" lon="12.821895"><ele>331</ele></trkpt>
   <trkpt lat="50.907103" lon="12.822859"><ele>330.75</ele></trkpt>
   <trkpt lat="50.907035" lon="12.823201"><ele>330.5</ele></trkpt>
   <trkpt lat="50.90695" lon="12.823579"><ele>330.25</ele></trkpt>
   <trkpt lat="50.906857" lon="12.823918"><ele>330</ele></trkpt>
   <trkpt lat="50.906753" lon="12.824232"><ele>330</ele></trkpt>
   <trkpt lat="50.90666" lon="12.824488"><ele>329.75</ele></trkpt>
   <trkpt lat="50.906512" lon="12.824832"><ele>329.5</ele></trkpt>
   <trkpt lat="50.906251" lon="12.82533"><ele>329.5</ele></trkpt>
   <trkpt lat="50.90603" lon="12.825682"><ele>329.75</ele></trkpt>
   <trkpt lat="50.905822" lon="12.825971"><ele>330.25</ele></trkpt>
   <trkpt lat="50.905688" lon="12.826128"><ele>331</ele></trkpt>
   <trkpt lat="50.905479" lon="12.826347"><ele>331.75</ele></trkpt>
   <trkpt lat="50.905269" lon="12.826543"><ele>332.5</ele></trkpt>
   <trkpt lat="50.905029" lon="12.826729"><ele>333</ele></trkpt>
   <trkpt lat="50.904855" lon="12.826837"><ele>333.25</ele></trkpt>
   <trkpt lat="50.904503" lon="12.827015"><ele>334</ele></trkpt>
   <trkpt lat="50.904337" lon="12.827076"><ele>334.25</ele></trkpt>
   <trkpt lat="50.904023" lon="12.827161"><ele>334.5</ele></trkpt>
   <trkpt lat="50.903794" lon="12.827212"><ele>334.75</ele></trkpt>
   <trkpt lat="50.903591" lon="12.827229"><ele>334.75</ele></trkpt>
   <trkpt lat="50.901917" lon="12.827433"><ele>335.5</ele></trkpt>
   <trkpt lat="50.901493" lon="12.827516"><ele>336</ele></trkpt>
   <trkpt lat="50.90129" lon="12.827571"><ele>336.25</ele></trkpt>
   <trkpt lat="50.90103" lon="12.827671"><ele>336.75</ele></trkpt>
   <trkpt lat="50.900784" lon="12.82781"><ele>337.5</ele></trkpt>
   <trkpt lat="50.900623" lon="12.827911"><ele>337.75</ele></trkpt>
   <trkpt lat="50.900418" lon="12.828062"><ele>338.5</ele></trkpt>
   <trkpt lat="50.900189" lon="12.828263"><ele>339</ele></trkpt>
   <trkpt lat="50.90003" lon="12.828416"><ele>339</ele></trkpt>
   <trkpt lat="50.899894" lon="12.828573"><ele>339.5</ele></trkpt>
   <trkpt lat="50.899638" lon="12.828895"><ele>340</ele></trkpt>
   <trkpt lat="50.899485" lon="12.82912"><ele>340.25</ele></trkpt>
   <trkpt lat="50.899236" lon="12.829544"><ele>340.5</ele></trkpt>
   <trkpt lat="50.897533" lon="12.832998"><ele>345.5</ele></trkpt>
   <trkpt lat="50.897285" lon="12.833462"><ele>344.5</ele></trkpt>
   <trkpt lat="50.897096" lon="12.833763"><ele>343.75</ele></trkpt>
   <trkpt lat="50.896774" lon="12.834227"><ele>342.75</ele></trkpt>
   <trkpt lat="50.896463" lon="12.834597"><ele>341.75</ele></trkpt>
   <trkpt lat="50.896209" lon="12.834876"><ele>341.25</ele></trkpt>
   <trkpt lat="50.895903" lon="12.835155"><ele>340.75</ele></trkpt>
   <trkpt lat="50.89561" lon="12.835388"><ele>340.25</ele></trkpt>
   <trkpt lat="50.895339" lon="12.835583"><ele>340</ele></trkpt>
   <trkpt lat="50.894894" lon="12.835827"><ele>339.75</ele></trkpt>
   <trkpt lat="50.894806" lon="12.835867"><ele>339.5</ele></trkpt>
   <trkpt lat="50.890768" lon="12.837736"><ele>345.5</ele></trkpt>
   <trkpt lat="50.890188" lon="12.838005"><ele>345.5</ele></trkpt>
   <trkpt lat="50.888406" lon="12.838867"><ele>352.25</ele></trkpt>
   <trkpt lat="50.887521" lon="12.839244"><ele>351.75</ele></trkpt>
   <trkpt lat="50.885168" lon="12.840315"><ele>354.75</ele></trkpt>
   <trkpt lat="50.8841" lon="12.840814"><ele>357</ele></trkpt>
   <trkpt lat="50.880855" lon="12.842309"><ele>353.25</ele></trkpt>
   <trkpt lat="50.880202" lon="12.84261"><ele>351</ele></trkpt>
   <trkpt lat="50.88003" lon="12.842691"><ele>350.5</ele></trkpt>
   <trkpt lat="50.879384" lon="12.842994"><ele>351.25</ele></trkpt>
   <trkpt lat="50.879138" lon="12.843107"><ele>351.5</ele></trkpt>
   <trkpt lat="50.879042" lon="12.843151"><ele>351.75</ele></trkpt>
   <trkpt lat="50.878312" lon="12.843556"><ele>353.25</ele></trkpt>
   <trkpt lat="50.876212" lon="12.844542"><ele>351.25</ele></trkpt>
   <trkpt lat="50.875933" lon="12.844714"><ele>350.5</ele></trkpt>
   <trkpt lat="50.875472" lon="12.845049"><ele>350.25</ele></trkpt>
   <trkpt lat="50.875144" lon="12.845345"><ele>350.5</ele></trkpt>
   <trkpt lat="50.874735" lon="12.845783"><ele>350</ele></trkpt>
   <trkpt lat="50.874455" lon="12.846147"><ele>349.5</ele></trkpt>
   <trkpt lat="50.874126" lon="12.846625"><ele>349</ele></trkpt>
   <trkpt lat="50.873798" lon="12.847218"><ele>348.5</ele></trkpt>
   <trkpt lat="50.873516" lon="12.84781"><ele>348.5</ele></trkpt>
   <trkpt lat="50.873253" lon="12.848511"><ele>348.5</ele></trkpt>
   <trkpt lat="50.87308" lon="12.849048"><ele>347.25</ele></trkpt>
   <trkpt lat="50.872947" lon="12.849567"><ele>346</ele></trkpt>
   <trkpt lat="50.872824" lon="12.850159"><ele>344.75</ele></trkpt>
   <trkpt lat="50.87274" lon="12.850632"><ele>343.75</ele></trkpt>
   <trkpt lat="50.872677" lon="12.851161"><ele>342.75</ele></trkpt>
   <trkpt lat="50.872624" lon="12.851743"><ele>341.5</ele></trkpt>
   <trkpt lat="50.872604" lon="12.852243"><ele>340.75</ele></trkpt>
   <trkpt lat="50.872604" lon="12.852795"><ele>339.75</ele></trkpt>
   <trkpt lat="50.872624" lon="12.853345"><ele>338.5</ele></trkpt>
   <trkpt lat="50.872681" lon="12.854031"><ele>338.25</ele></trkpt>
   <trkpt lat="50.873117" lon="12.857934"><ele>335</ele></trkpt>
   <trkpt lat="50.873144" lon="12.858184"><ele>335</ele></trkpt>
   <trkpt lat="50.873706" lon="12.863259"><ele>337.75</ele></trkpt>
   <trkpt lat="50.874417" lon="12.86963"><ele>333.5</ele></trkpt>
   <trkpt lat="50.874529" lon="12.87059"><ele>333</ele></trkpt>
   <trkpt lat="50.874716" lon="12.872283"><ele>330.75</ele></trkpt>
   <trkpt lat="50.874848" lon="12.873556"><ele>330</ele></trkpt>
   <trkpt lat="50.874877" lon="12.874102"><ele>330.25</ele></trkpt>
   <trkpt lat="50.874871" lon="12.874512"><ele>329.75</ele></trkpt>
   <trkpt lat="50.874846" lon="12.874965"><ele>329.25</ele></trkpt>
   <trkpt lat="50.874795" lon="12.875388"><ele>328.25</ele></trkpt>
   <trkpt lat="50.874718" lon="12.875815"><ele>327.25</ele></trkpt>
   <trkpt lat="50.874609" lon="12.876292"><ele>326</ele></trkpt>
   <trkpt lat="50.874482" lon="12.876701"><ele>325.25</ele></trkpt>
   <trkpt lat="50.874341" lon="12.877059"><ele>324.75</ele></trkpt>
   <trkpt lat="50.874177" lon="12.877399"><ele>324</ele></trkpt>
   <trkpt lat="50.873966" lon="12.877776"><ele>323.75</ele></trkpt>
   <trkpt lat="50.873746" lon="12.878091"><ele>324.25</ele></trkpt>
   <trkpt lat="50.873508" lon="12.878362"><ele>325.25</ele></trkpt>
   <trkpt lat="50.873294" lon="12.878585"><ele>325.5</ele></trkpt>
   <trkpt lat="50.873063" lon="12.878768"><ele>324.5</ele></trkpt>
   <trkpt lat="50.872844" lon="12.878916"><ele>323.75</ele></trkpt>
   <trkpt lat="50.872604" lon="12.879039"><ele>323.25</ele></trkpt>
   <trkpt lat="50.872383" lon="12.879126"><ele>322.75</ele></trkpt>
   <trkpt lat="50.87217" lon="12.879191"><ele>323</ele></trkpt>
   <trkpt lat="50.870057" lon="12.879692"><ele>316.5</ele></trkpt>
   <trkpt lat="50.869822" lon="12.879767"><ele>316</ele></trkpt>
   <trkpt lat="50.86966" lon="12.879828"><ele>315.75</ele></trkpt>
   <trkpt lat="50.869528" lon="12.879888"><ele>315.5</ele></trkpt>
   <trkpt lat="50.86927" lon="12.880037"><ele>315</ele></trkpt>
   <trkpt lat="50.869022" lon="12.880224"><ele>313.25</ele></trkpt>
   <trkpt lat="50.868884" lon="12.880348"><ele>311.75</ele></trkpt>
   <trkpt lat="50.868751" lon="12.880484"><ele>310.25</ele></trkpt>
   <trkpt lat="50.868622" lon="12.880631"><ele>309</ele></trkpt>
   <trkpt lat="50.868499" lon="12.880789"><ele>309.5</ele></trkpt>
   <trkpt lat="50.868384" lon="12.880946"><ele>310.25</ele></trkpt>
   <trkpt lat="50.868169" lon="12.881287"><ele>311.75</ele></trkpt>
   <trkpt lat="50.86807" lon="12.88147"><ele>312.5</ele></trkpt>
   <trkpt lat="50.867977" lon="12.88166"><ele>313</ele></trkpt>
   <trkpt lat="50.86789" lon="12.881857"><ele>313.75</ele></trkpt>
   <trkpt lat="50.867809" lon="12.882061"><ele>314.5</ele></trkpt>
   <trkpt lat="50.867735" lon="12.88227"><ele>315.25</ele></trkpt>
   <trkpt lat="50.867667" lon="12.882486"><ele>316</ele></trkpt>
   <trkpt lat="50.867606" lon="12.882706"><ele>316.5</ele></trkpt>
   <trkpt lat="50.867552" lon="12.882931"><ele>317.25</ele></trkpt>
   <trkpt lat="50.867505" lon="12.88316"><ele>318</ele></trkpt>
   <trkpt lat="50.867465" lon="12.883392"><ele>318.75</ele></trkpt>
   <trkpt lat="50.867433" lon="12.883627"><ele>319.5</ele></trkpt>
   <trkpt lat="50.866883" lon="12.88803"><ele>319.5</ele></trkpt>
   <trkpt lat="50.866846" lon="12.888299"><ele>319.5</ele></trkpt>
   <trkpt lat="50.8668" lon="12.888566"><ele>320</ele></trkpt>
   <trkpt lat="50.866744" lon="12.888827"><ele>320.25</ele></trkpt>
   <trkpt lat="50.86668" lon="12.889084"><ele>320.75</ele></trkpt>
   <trkpt lat="50.866606" lon="12.889334"><ele>321.25</ele></trkpt>
   <trkpt lat="50.866524" lon="12.889577"><ele>321.75</ele></trkpt>
   <trkpt lat="50.866434" lon="12.889813"><ele>322.25</ele></trkpt>
   <trkpt lat="50.866335" lon="12.89004"><ele>322.25</ele></trkpt>
   <trkpt lat="50.866228" lon="12.890259"><ele>322</ele></trkpt>
   <trkpt lat="50.866114" lon="12.890467"><ele>321.75</ele></trkpt>
   <trkpt lat="50.865993" lon="12.890666"><ele>321.75</ele></trkpt>
   <trkpt lat="50.865865" lon="12.890853"><ele>321.75</ele></trkpt>
   <trkpt lat="50.865731" lon="12.891028"><ele>321</ele></trkpt>
   <trkpt lat="50.86559" lon="12.891192"><ele>320</ele></trkpt>
   <trkpt lat="50.865445" lon="12.891343"><ele>319.25</ele></trkpt>
   <trkpt lat="50.865294" lon="12.89148"><ele>318.25</ele></trkpt>
   <trkpt lat="50.865138" lon="12.891605"><ele>317.5</ele></trkpt>
   <trkpt lat="50.864979" lon="12.891715"><ele>316.75</ele></trkpt>
   <trkpt lat="50.864816" lon="12.891811"><ele>316.75</ele></trkpt>
   <trkpt lat="50.864649" lon="12.891892"><ele>316.5</ele></trkpt>
   <trkpt lat="50.86448" lon="12.891959"><ele>316.25</ele></trkpt>
   <trkpt lat="50.864309" lon="12.892011"><ele>316</ele></trkpt>
   <trkpt lat="50.863953" lon="12.892107"><ele>314.5</ele></trkpt>
   <trkpt lat="50.862433" lon="12.892474"><ele>309</ele></trkpt>
   <trkpt lat="50.862147" lon="12.892533"><ele>308.75</ele></trkpt>
   <trkpt lat="50.861803" lon="12.892636"><ele>308.25</ele></trkpt>
   <trkpt lat="50.861513" lon="12.892756"><ele>307.75</ele></trkpt>
   <trkpt lat="50.861346" lon="12.892854"><ele>307.5</ele></trkpt>
   <trkpt lat="50.861087" lon="12.89304"><ele>307.25</ele></trkpt>
   <trkpt lat="50.860977" lon="12.893117"><ele>307.5</ele></trkpt>
   <trkpt lat="50.860757" lon="12.893323"><ele>308</ele></trkpt>
   <trkpt lat="50.860532" lon="12.893565"><ele>308.75</ele></trkpt>
   <trkpt lat="50.86044" lon="12.893677"><ele>309.25</ele></trkpt>
   <trkpt lat="50.860193" lon="12.893988"><ele>310.5</ele></trkpt>
   <trkpt lat="50.859968" lon="12.894316"><ele>312.25</ele></trkpt>
   <trkpt lat="50.859807" lon="12.894593"><ele>313.5</ele></trkpt>
   <trkpt lat="50.859585" lon="12.895022"><ele>314.25</ele></trkpt>
   <trkpt lat="50.859466" lon="12.895297"><ele>314.5</ele></trkpt>
   <trkpt lat="50.859293" lon="12.895745"><ele>314.75</ele></trkpt>
   <trkpt lat="50.859153" lon="12.896175"><ele>315</ele></trkpt>
   <trkpt lat="50.859033" lon="12.896613"><ele>315</ele></trkpt>
   <trkpt lat="50.85894" lon="12.897088"><ele>314.75</ele></trkpt>
   <trkpt lat="50.858826" lon="12.897826"><ele>314</ele></trkpt>
   <trkpt lat="50.858674" lon="12.898975"><ele>312.75</ele></trkpt>
   <trkpt lat="50.858087" lon="12.903557"><ele>310</ele></trkpt>
   <trkpt lat="50.857999" lon="12.904245"><ele>310.5</ele></trkpt>
   <trkpt lat="50.857897" lon="12.905025"><ele>311</ele></trkpt>
   <trkpt lat="50.857714" lon="12.906373"><ele>308</ele></trkpt>
   <trkpt lat="50.857606" lon="12.906893"><ele>306.75</ele></trkpt>
   <trkpt lat="50.857504" lon="12.907264"><ele>306.5</ele></trkpt>
   <trkpt lat="50.857408" lon="12.907571"><ele>306</ele></trkpt>
   <trkpt lat="50.857276" lon="12.907915"><ele>305</ele></trkpt>
   <trkpt lat="50.856972" lon="12.908576"><ele>303</ele></trkpt>
   <trkpt lat="50.856905" lon="12.908721"><ele>302.75</ele></trkpt>
   <trkpt lat="50.856768" lon="12.909008"><ele>302.75</ele></trkpt>
   <trkpt lat="50.85661" lon="12.90934"><ele>302.75</ele></trkpt>
   <trkpt lat="50.856511" lon="12.909549"><ele>303</ele></trkpt>
   <trkpt lat="50.856098" lon="12.910377"><ele>303.75</ele></trkpt>
   <trkpt lat="50.854973" lon="12.912567"><ele>305.75</ele></trkpt>
   <trkpt lat="50.854196" lon="12.914099"><ele>303</ele></trkpt>
   <trkpt lat="50.853343" lon="12.915747"><ele>301.25</ele></trkpt>
   <trkpt lat="50.852998" lon="12.916431"><ele>301.5</ele></trkpt>
   <trkpt lat="50.852822" lon="12.916803"><ele>301.5</ele></trkpt>
   <trkpt lat="50.852682" lon="12.91718"><ele>301.5</ele></trkpt>
   <trkpt lat="50.852546" lon="12.917602"><ele>301.25</ele></trkpt>
   <trkpt lat="50.852437" lon="12.918056"><ele>301</ele></trkpt>
   <trkpt lat="50.852374" lon="12.918419"><ele>301</ele></trkpt>
   <trkpt lat="50.852342" lon="12.918652"><ele>301</ele></trkpt>
   <trkpt lat="50.852282" lon="12.919189"><ele>300.25</ele></trkpt>
   <trkpt lat="50.852246" lon="12.919612"><ele>298.75</ele></trkpt>
   <trkpt lat="50.852262" lon="12.920134"><ele>297</ele></trkpt>
   <trkpt lat="50.852281" lon="12.920385"><ele>296.5</ele></trkpt>
   <trkpt lat="50.852327" lon="12.920731"><ele>296.25</ele></trkpt>
   <trkpt lat="50.852463" lon="12.921432"><ele>295.75</ele></trkpt>
   <trkpt lat="50.853239" lon="12.925083"><ele>297</ele></trkpt>
   <trkpt lat="50.85369" lon="12.927197"><ele>298</ele></trkpt>
   <trkpt lat="50.853875" lon="12.928131"><ele>298.25</ele></trkpt>
   <trkpt lat="50.853929" lon="12.928463"><ele>298.5</ele></trkpt>
   <trkpt lat="50.853972" lon="12.92882"><ele>298.5</ele></trkpt>
   <trkpt lat="50.853997" lon="12.929159"><ele>298.75</ele></trkpt>
   <trkpt lat="50.854015" lon="12.929657"><ele>298.75</ele></trkpt>
   <trkpt lat="50.854016" lon="12.930164"><ele>299</ele></trkpt>
   <trkpt lat="50.853997" lon="12.930464"><ele>300</ele></trkpt>
   <trkpt lat="50.853972" lon="12.930745"><ele>301</ele></trkpt>
   <trkpt lat="50.853911" lon="12.931201"><ele>302.25</ele></trkpt>
   <trkpt lat="50.853749" lon="12.931883"><ele>303.5</ele></trkpt>
   <trkpt lat="50.853674" lon="12.932134"><ele>303.75</ele></trkpt>
   <trkpt lat="50.853568" lon="12.932429"><ele>304.25</ele></trkpt>
   <trkpt lat="50.853359" lon="12.93295"><ele>305.5</ele></trkpt>
   <trkpt lat="50.853265" lon="12.933161"><ele>305.75</ele></trkpt>
   <trkpt lat="50.85317" lon="12.933357"><ele>306</ele></trkpt>
   <trkpt lat="50.853046" lon="12.933591"><ele>305.25</ele></trkpt>
   <trkpt lat="50.85294" lon="12.933766"><ele>304.75</ele></trkpt>
   <trkpt lat="50.852795" lon="12.933981"><ele>304.25</ele></trkpt>
   <trkpt lat="50.852616" lon="12.934209"><ele>304.25</ele></trkpt>
   <trkpt lat="50.8524" lon="12.934443"><ele>304.25</ele></trkpt>
   <trkpt lat="50.85222" lon="12.934601"><ele>304.25</ele></trkpt>
   <trkpt lat="50.852043" lon="12.934738"><ele>304.25</ele></trkpt>
   <trkpt lat="50.851841" lon="12.934865"><ele>304</ele></trkpt>
   <trkpt lat="50.851637" lon="12.934966"><ele>303.75</ele></trkpt>
   <trkpt lat="50.851445" lon="12.935037"><ele>304.25</ele></trkpt>
   <trkpt lat="50.851313" lon="12.93507"><ele>304.5</ele></trkpt>
   <trkpt lat="50.851168" lon="12.935102"><ele>304.75</ele></trkpt>
   <trkpt lat="50.851015" lon="12.935131"><ele>304.75</ele></trkpt>
   <trkpt lat="50.85087" lon="12.935155"><ele>305</ele></trkpt>
   <trkpt lat="50.850517" lon="12.935198"><ele>304.75</ele></trkpt>
   <trkpt lat="50.850105" lon="12.935222"><ele>304.25</ele></trkpt>
   <trkpt lat="50.84976" lon="12.935208"><ele>303.75</ele></trkpt>
   <trkpt lat="50.849451" lon="12.935151"><ele>303.5</ele></trkpt>
   <trkpt lat="50.849233" lon="12.935089"><ele>303</ele></trkpt>
   <trkpt lat="50.848601" lon="12.934927"><ele>302.75</ele></trkpt>
   <trkpt lat="50.848323" lon="12.934834"><ele>302.25</ele></trkpt>
   <trkpt lat="50.848138" lon="12.934763"><ele>301.75</ele></trkpt>
   <trkpt lat="50.847378" lon="12.934436"><ele>300.75</ele></trkpt>
   <trkpt lat="50.845846" lon="12.933719"><ele>303.75</ele></trkpt>
   <trkpt lat="50.845668" lon="12.933631"><ele>304</ele></trkpt>
   <trkpt lat="50.845127" lon="12.933346"><ele>304</ele></trkpt>
   <trkpt lat="50.844981" lon="12.933261"><ele>303.75</ele></trkpt>
   <trkpt lat="50.844767" lon="12.933136"><ele>303.75</ele></trkpt>
   <trkpt lat="50.844667" lon="12.933074"><ele>303.75</ele></trkpt>
   <trkpt lat="50.844367" lon="12.932858"><ele>304.25</ele></trkpt>
   <trkpt lat="50.844053" lon="12.932654"><ele>304.5</ele></trkpt>
   <trkpt lat="50.843461" lon="12.932309"><ele>304</ele></trkpt>
   <trkpt lat="50.843209" lon="12.932182"><ele>304</ele></trkpt>
   <trkpt lat="50.842208" lon="12.931784"><ele>304.25</ele></trkpt>
   <trkpt lat="50.841557" lon="12.931528"><ele>305.25</ele></trkpt>
   <trkpt lat="50.841376" lon="12.931454"><ele>306</ele></trkpt>
   <trkpt lat="50.839852" lon="12.930864"><ele>310.75</ele></trkpt>
   <trkpt lat="50.839534" lon="12.930749"><ele>310.25</ele></trkpt>
   <trkpt lat="50.839451" lon="12.930715"><ele>310.25</ele></trkpt>
   <trkpt lat="50.839213" lon="12.930616"><ele>309.75</ele></trkpt>
  </trkseg>
 </trk>
</gpx>