<?xml version="1.0" encoding="UTF-8"?>
<!-- track-length = 70092 filtered ascend = 103 plain-ascend = 82 cost=70092 energy=0.9kwh time=1h 33m 27s -->
<gpx 
 xmlns="http://www.topografix.com/GPX/1/1" 
 xmlns:xsi="http://www.w3.org/2001/XMLSchema-instance" 
 xsi:schemaLocation="http://www.topografix.com/GPX/1/1 http://www.topografix.com/GPX/1/1/gpx.xsd" 
 version="1.1" 
 creator="BRouter-Web 0.18.1">
 <trk>
  <name>Leipzig - Gera</name>
  <trkseg>
   <trkpt lat="51.364595" lon="12.352765"><ele>115</ele></trkpt>
   <trkpt lat="51.364502" lon="12.352542"><ele>115</ele></trkpt>
   <trkpt lat="51.36427" lon="12.351969"><ele>114.25</ele></trkpt>
   <trkpt lat="51.363844" lon="12.35103"><ele>112</ele></trkpt>
   <trkpt lat="51.363763" lon="12.35085"><ele>111.5</ele></trkpt>
   <trkpt lat="51.363686" lon="12.35068"><ele>111</ele></trkpt>
   <trkpt lat="51.363248" lon="12.349713"><ele>106.75</ele></trkpt>
   <trkpt lat="51.362946" lon="12.348986"><ele>104.75</ele></trkpt>
   <trkpt lat="51.362674" lon="12.348277"><ele>104</ele></trkpt>
   <trkpt lat="51.362492" lon="12.347735"><ele>103.25</ele></trkpt>
   <trkpt lat="51.362401" lon="12.347449"><ele>103</ele></trkpt>
   <trkpt lat="51.36226" lon="12.346951"><ele>103</ele></trkpt>
   <trkpt lat="51.362232" lon="12.346842"><ele>103</ele></trkpt>
   <trkpt lat="51.362077" lon="12.346237"><ele>102.5</ele></trkpt>
   <trkpt lat="51.361982" lon="12.345816"><ele>102.25</ele></trkpt>
   <trkpt lat="51.361897" lon="12.345386"><ele>102.25</ele></trkpt>
   <trkpt lat="51.361821" lon="12.344958"><ele>102</ele></trkpt>
   <trkpt lat="51.361754" lon="12.344538"><ele>102</ele></trkpt>
   <trkpt lat="51.361695" lon="12.344117"><ele>102</ele></trkpt>
   <trkpt lat="51.361569" lon="12.342914"><ele>102.5</ele></trkpt>
   <trkpt lat="51.361535" lon="12.342588"><ele>102.75</ele></trkpt>
   <trkpt lat="51.361523" lon="12.342462"><ele>102.75</ele></trkpt>
   <trkpt lat="51.36152" lon="12.34243"><ele>102.75</ele></trkpt>
   <trkpt lat="51.361429" lon="12.341456"><ele>103</ele></trkpt>
   <trkpt lat="51.361343" lon="12.340615"><ele>103</ele></trkpt>
   <trkpt lat="51.361194" lon="12.338974"><ele>102.5</ele></trkpt>
   <trkpt lat="51.360862" lon="12.335471"><ele>104</ele></trkpt>
   <trkpt lat="51.360786" lon="12.33459"><ele>104.25</ele></trkpt>
   <trkpt lat="51.360706" lon="12.333866"><ele>104.75</ele></trkpt>
   <trkpt lat="51.360702" lon="12.33381"><ele>104.75</ele></trkpt>
   <trkpt lat="51.360619" lon="12.333118"><ele>106.5</ele></trkpt>
   <trkpt lat="51.360569" lon="12.332799"><ele>107.75</ele></trkpt>
   <trkpt lat="51.360495" lon="12.332408"><ele>108.75</ele></trkpt>
   <trkpt lat="51.360351" lon="12.331726"><ele>109.25</ele></trkpt>
   <trkpt lat="51.360339" lon="12.331669"><ele>109.25</ele></trkpt>
   <trkpt lat="51.359574" lon="12.328055"><ele>104.75</ele></trkpt>
   <trkpt lat="51.359431" lon="12.327375"><ele>108</ele></trkpt>
   <trkpt lat="51.358992" lon="12.325319"><ele>113.5</ele></trkpt>
   <trkpt lat="51.358965" lon="12.325192"><ele>113.75</ele></trkpt>
   <trkpt lat="51.358605" lon="12.323451"><ele>111.5</ele></trkpt>
   <trkpt lat="51.358553" lon="12.323201"><ele>111.5</ele></trkpt>
   <trkpt lat="51.358522" lon="12.323055"><ele>111.5</ele></trkpt>
   <trkpt lat="51.358353" lon="12.322272"><ele>111.75</ele></trkpt>
   <trkpt lat="51.358336" lon="12.322188"><ele>111.75</ele></trkpt>
   <trkpt lat="51.358069" lon="12.320922"><ele>112.25</ele></trkpt>
   <trkpt lat="51.357803" lon="12.319656"><ele>111.75</ele></trkpt>
   <trkpt lat="51.357601" lon="12.318856"><ele>110</ele></trkpt>
   <trkpt lat="51.357472" lon="12.31831"><ele>108.75</ele></trkpt>
   <trkpt lat="51.357424" lon="12.318108"><ele>108.25</ele></trkpt>
   <trkpt lat="51.357377" lon="12.317902"><ele>107.75</ele></trkpt>
   <trkpt lat="51.356435" lon="12.313574"><ele>103.25</ele></trkpt>
   <trkpt lat="51.356149" lon="12.312217"><ele>103</ele></trkpt>
   <trkpt lat="51.356075" lon="12.311886"><ele>103.25</ele></trkpt>
   <trkpt lat="51.355614" lon="12.309749"><ele>104.25</ele></trkpt>
   <trkpt lat="51.355455" lon="12.30908"><ele>105</ele></trkpt>
   <trkpt lat="51.355283" lon="12.308454"><ele>105.25</ele></trkpt>
   <trkpt lat="51.355093" lon="12.307864"><ele>105</ele></trkpt>
   <trkpt lat="51.354953" lon="12.307494"><ele>105</ele></trkpt>
   <trkpt lat="51.354792" lon="12.307102"><ele>105</ele></trkpt>
   <trkpt lat="51.35461" lon="12.306693"><ele>105</ele></trkpt>
   <trkpt lat="51.354389" lon="12.306257"><ele>104.75</ele></trkpt>
   <trkpt lat="51.354104" lon="12.305742"><ele>104</ele></trkpt>
   <trkpt lat="51.354021" lon="12.305615"><ele>104</ele></trkpt>
   <trkpt lat="51.353724" lon="12.305171"><ele>104.5</ele></trkpt>
   <trkpt lat="51.353578" lon="12.304975"><ele>104.5</ele></trkpt>
   <trkpt lat="51.353384" lon="12.304717"><ele>105.25</ele></trkpt>
   <trkpt lat="51.353064" lon="12.304344"><ele>106.5</ele></trkpt>
   <trkpt lat="51.352737" lon="12.30402"><ele>108.25</ele></trkpt>
   <trkpt lat="51.352602" lon="12.3039"><ele>108.75</ele></trkpt>
   <trkpt lat="51.352239" lon="12.303597"><ele>108.75</ele></trkpt>
   <trkpt lat="51.35216" lon="12.303543"><ele>108.5</ele></trkpt>
   <trkpt lat="51.351922" lon="12.30338"><ele>107.75</ele></trkpt>
   <trkpt lat="51.35151" lon="12.303145"><ele>107.5</ele></trkpt>
   <trkpt lat="51.351059" lon="12.30295"><ele>108</ele></trkpt>
   <trkpt lat="51.350956" lon="12.302914"><ele>108.25</ele></trkpt>
   <trkpt lat="51.350595" lon="12.302819"><ele>108.75</ele></trkpt>
   <trkpt lat="51.350434" lon="12.30279"><ele>109</ele></trkpt>
   <trkpt lat="51.350147" lon="12.302756"><ele>109.5</ele></trkpt>
   <trkpt lat="51.349656" lon="12.302761"><ele>109.5</ele></trkpt>
   <trkpt lat="51.349248" lon="12.302819"><ele>109.25</ele></trkpt>
   <trkpt lat="51.348781" lon="12.302945"><ele>109.5</ele></trkpt>
   <trkpt lat="51.348344" lon="12.303109"><ele>109.25</ele></trkpt>
   <trkpt lat="51.347904" lon="12.303316"><ele>109</ele></trkpt>
   <trkpt lat="51.347396" lon="12.30362"><ele>109.5</ele></trkpt>
   <trkpt lat="51.346915" lon="12.303961"><ele>110.5</ele></trkpt>
   <trkpt lat="51.346474" lon="12.304342"><ele>110.75</ele></trkpt>
   <trkpt lat="51.346028" lon="12.304832"><ele>110.25</ele></trkpt>
   <trkpt lat="51.345858" lon="12.305033"><ele>110</ele></trkpt>
   <trkpt lat="51.34558" lon="12.305393"><ele>110.25</ele></trkpt>
   <trkpt lat="51.345368" lon="12.305698"><ele>110.5</ele></trkpt>
   <trkpt lat="51.345272" lon="12.305837"><ele>110.5</ele></trkpt>
   <trkpt lat="51.345214" lon="12.305919"><ele>110.75</ele></trkpt>
   <trkpt lat="51.345206" lon="12.30593"><ele>110.75</ele></trkpt>
   <trkpt lat="51.343975" lon="12.307743"><ele>111.25</ele></trkpt>
   <trkpt lat="51.3425" lon="12.309913"><ele>112</ele></trkpt>
   <trkpt lat="51.341518" lon="12.31136"><ele>114.25</ele></trkpt>
   <trkpt lat="51.341356" lon="12.311617"><ele>114.25</ele></trkpt>
   <trkpt lat="51.341021" lon="12.312108"><ele>114.75</ele></trkpt>
   <trkpt lat="51.340838" lon="12.312376"><ele>114.75</ele></trkpt>
   <trkpt lat="51.340134" lon="12.313396"><ele>115</ele></trkpt>
   <trkpt lat="51.339242" lon="12.314709"><ele>114</ele></trkpt>
   <trkpt lat="51.33887" lon="12.315256"><ele>114</ele></trkpt>
   <trkpt lat="51.337274" lon="12.317604"><ele>114</ele></trkpt>
   <trkpt lat="51.33718" lon="12.317744"><ele>114</ele></trkpt>
   <trkpt lat="51.337023" lon="12.317972"><ele>114</ele></trkpt>
   <trkpt lat="51.336296" lon="12.319017"><ele>114.25</ele></trkpt>
   <trkpt lat="51.335863" lon="12.319577"><ele>114.75</ele></trkpt>
   <trkpt lat="51.335575" lon="12.319907"><ele>115.25</ele></trkpt>
   <trkpt lat="51.335377" lon="12.320118"><ele>115.75</ele></trkpt>
   <trkpt lat="51.334884" lon="12.320605"><ele>117.25</ele></trkpt>
   <trkpt lat="51.334399" lon="12.321028"><ele>117.5</ele></trkpt>
   <trkpt lat="51.334324" lon="12.321085"><ele>117.5</ele></trkpt>
   <trkpt lat="51.334276" lon="12.321123"><ele>117.5</ele></trkpt>
   <trkpt lat="51.33387" lon="12.321407"><ele>117.25</ele></trkpt>
   <trkpt lat="51.333395" lon="12.32169"><ele>117</ele></trkpt>
   <trkpt lat="51.333138" lon="12.321823"><ele>116.5</ele></trkpt>
   <trkpt lat="51.332892" lon="12.321936"><ele>116.25</ele></trkpt>
   <trkpt lat="51.332858" lon="12.32195"><ele>116</ele></trkpt>
   <trkpt lat="51.332835" lon="12.321961"><ele>116</ele></trkpt>
   <trkpt lat="51.332565" lon="12.322069"><ele>115.5</ele></trkpt>
   <trkpt lat="51.332237" lon="12.322182"><ele>115.25</ele></trkpt>
   <trkpt lat="51.331863" lon="12.322293"><ele>114.75</ele></trkpt>
   <trkpt lat="51.331591" lon="12.322355"><ele>114.75</ele></trkpt>
   <trkpt lat="51.33119" lon="12.322415"><ele>114.75</ele></trkpt>
   <trkpt lat="51.331179" lon="12.322417"><ele>114.75</ele></trkpt>
   <trkpt lat="51.330831" lon="12.322485"><ele>114.75</ele></trkpt>
   <trkpt lat="51.330346" lon="12.32252"><ele>115.5</ele></trkpt>
   <trkpt lat="51.33031" lon="12.322519"><ele>115.5</ele></trkpt>
   <trkpt lat="51.330043" lon="12.322504"><ele>115.75</ele></trkpt>
   <trkpt lat="51.330034" lon="12.322503"><ele>115.75</ele></trkpt>
   <trkpt lat="51.330001" lon="12.322501"><ele>116</ele></trkpt>
   <trkpt lat="51.329664" lon="12.322469"><ele>116.25</ele></trkpt>
   <trkpt lat="51.329347" lon="12.322416"><ele>116.5</ele></trkpt>
   <trkpt lat="51.329038" lon="12.322347"><ele>117</ele></trkpt>
   <trkpt lat="51.328897" lon="12.322314"><ele>117.25</ele></trkpt>
   <trkpt lat="51.328699" lon="12.322264"><ele>117.75</ele></trkpt>
   <trkpt lat="51.328436" lon="12.3222"><ele>118.5</ele></trkpt>
   <trkpt lat="51.328056" lon="12.322089"><ele>119</ele></trkpt>
   <trkpt lat="51.327571" lon="12.321961"><ele>119</ele></trkpt>
   <trkpt lat="51.32697" lon="12.321794"><ele>118.75</ele></trkpt>
   <trkpt lat="51.326607" lon="12.321695"><ele>118.75</ele></trkpt>
   <trkpt lat="51.326537" lon="12.321676"><ele>118.75</ele></trkpt>
   <trkpt lat="51.326255" lon="12.321615"><ele>119</ele></trkpt>
   <trkpt lat="51.325762" lon="12.321538"><ele>118.75</ele></trkpt>
   <trkpt lat="51.325682" lon="12.321524"><ele>118.75</ele></trkpt>
   <trkpt lat="51.32523" lon="12.321414"><ele>118.75</ele></trkpt>
   <trkpt lat="51.320521" lon="12.320125"><ele>116.5</ele></trkpt>
   <trkpt lat="51.320322" lon="12.32007"><ele>116.5</ele></trkpt>
   <trkpt lat="51.317324" lon="12.319253"><ele>115.75</ele></trkpt>
   <trkpt lat="51.316413" lon="12.319017"><ele>116</ele></trkpt>
   <trkpt lat="51.316339" lon="12.318995"><ele>116</ele></trkpt>
   <trkpt lat="51.315951" lon="12.318853"><ele>116</ele></trkpt>
   <trkpt lat="51.315612" lon="12.31875"><ele>116.75</ele></trkpt>
   <trkpt lat="51.314179" lon="12.318418"><ele>118</ele></trkpt>
   <trkpt lat="51.314153" lon="12.318412"><ele>118</ele></trkpt>
   <trkpt lat="51.313917" lon="12.318359"><ele>118</ele></trkpt>
   <trkpt lat="51.313894" lon="12.318353"><ele>118</ele></trkpt>
   <trkpt lat="51.313369" lon="12.318234"><ele>118</ele></trkpt>
   <trkpt lat="51.31317" lon="12.318187"><ele>118.75</ele></trkpt>
   <trkpt lat="51.311861" lon="12.317878"><ele>121.25</ele></trkpt>
   <trkpt lat="51.311793" lon="12.317861"><ele>121.25</ele></trkpt>
   <trkpt lat="51.311746" lon="12.317849"><ele>121.25</ele></trkpt>
   <trkpt lat="51.310684" lon="12.317566"><ele>120.5</ele></trkpt>
   <trkpt lat="51.307384" lon="12.316707"><ele>120</ele></trkpt>
   <trkpt lat="51.304682" lon="12.316003"><ele>120</ele></trkpt>
   <trkpt lat="51.300687" lon="12.314964"><ele>120.5</ele></trkpt>
   <trkpt lat="51.300278" lon="12.314857"><ele>121.75</ele></trkpt>
   <trkpt lat="51.299916" lon="12.314763"><ele>122.75</ele></trkpt>
   <trkpt lat="51.29612" lon="12.313776"><ele>119.25</ele></trkpt>
   <trkpt lat="51.287281" lon="12.311478"><ele>117.25</ele></trkpt>
   <trkpt lat="51.284729" lon="12.310814"><ele>119.5</ele></trkpt>
   <trkpt lat="51.283487" lon="12.310495"><ele>117.25</ele></trkpt>
   <trkpt lat="51.281603" lon="12.31001"><ele>119.75</ele></trkpt>
   <trkpt lat="51.281335" lon="12.309922"><ele>119</ele></trkpt>
   <trkpt lat="51.281107" lon="12.309829"><ele>118.5</ele></trkpt>
   <trkpt lat="51.280775" lon="12.309717"><ele>118.25</ele></trkpt>
   <trkpt lat="51.280588" lon="12.309666"><ele>118.25</ele></trkpt>
   <trkpt lat="51.279924" lon="12.309487"><ele>118.25</ele></trkpt>
   <trkpt lat="51.278121" lon="12.309004"><ele>118</ele></trkpt>
   <trkpt lat="51.278062" lon="12.308991"><ele>118</ele></trkpt>
   <trkpt lat="51.275182" lon="12.308258"><ele>119</ele></trkpt>
   <trkpt lat="51.274035" lon="12.307963"><ele>118.5</ele></trkpt>
   <trkpt lat="51.273144" lon="12.307731"><ele>120.25</ele></trkpt>
   <trkpt lat="51.272577" lon="12.307585"><ele>119.75</ele></trkpt>
   <trkpt lat="51.271586" lon="12.307307"><ele>117.75</ele></trkpt>
   <trkpt lat="51.271526" lon="12.30729"><ele>117.75</ele></trkpt>
   <trkpt lat="51.270954" lon="12.307091"><ele>117.5</ele></trkpt>
   <trkpt lat="51.269777" lon="12.306643"><ele>117.25</ele></trkpt>
   <trkpt lat="51.263088" lon="12.304099"><ele>119.75</ele></trkpt>
   <trkpt lat="51.262743" lon="12.303961"><ele>120</ele></trkpt>
   <trkpt lat="51.262365" lon="12.303797"><ele>119.75</ele></trkpt>
   <trkpt lat="51.262025" lon="12.303638"><ele>119.25</ele></trkpt>
   <trkpt lat="51.26175" lon="12.30349"><ele>119</ele></trkpt>
   <trkpt lat="51.261421" lon="12.303278"><ele>119</ele></trkpt>
   <trkpt lat="51.261155" lon="12.30309"><ele>119</ele></trkpt>
   <trkpt lat="51.260872" lon="12.302865"><ele>119</ele></trkpt>
   <trkpt lat="51.260581" lon="12.302599"><ele>118.5</ele></trkpt>
   <trkpt lat="51.260422" lon="12.302441"><ele>118.5</ele></trkpt>
   <trkpt lat="51.26027" lon="12.30229"><ele>118.25</ele></trkpt>
   <trkpt lat="51.259904" lon="12.30188"><ele>118</ele></trkpt>
   <trkpt lat="51.259546" lon="12.301424"><ele>118.25</ele></trkpt>
   <trkpt lat="51.25927" lon="12.301025"><ele>118.75</ele></trkpt>
   <trkpt lat="51.25894" lon="12.300484"><ele>119</ele></trkpt>
   <trkpt lat="51.258638" lon="12.299924"><ele>119</ele></trkpt>
   <trkpt lat="51.258337" lon="12.299278"><ele>119.75</ele></trkpt>
   <trkpt lat="51.258081" lon="12.298655"><ele>119.25</ele></trkpt>
   <trkpt lat="51.25788" lon="12.298081"><ele>119</ele></trkpt>
   <trkpt lat="51.257699" lon="12.297498"><ele>119</ele></trkpt>
   <trkpt lat="51.257571" lon="12.29701"><ele>119</ele></trkpt>
   <trkpt lat="51.257464" lon="12.296561"><ele>118.75</ele></trkpt>
   <trkpt lat="51.257367" lon="12.296097"><ele>118.25</ele></trkpt>
   <trkpt lat="51.257269" lon="12.295553"><ele>118</ele></trkpt>
   <trkpt lat="51.257208" lon="12.295156"><ele>117.75</ele></trkpt>
   <trkpt lat="51.257136" lon="12.294645"><ele>118</ele></trkpt>
   <trkpt lat="51.256878" lon="12.292617"><ele>119.25</ele></trkpt>
   <trkpt lat="51.25654" lon="12.289965"><ele>121.5</ele></trkpt>
   <trkpt lat="51.256437" lon="12.289317"><ele>122.25</ele></trkpt>
   <trkpt lat="51.25636" lon="12.288844"><ele>122.25</ele></trkpt>
   <trkpt lat="51.256253" lon="12.288288"><ele>122.5</ele></trkpt>
   <trkpt lat="51.256137" lon="12.28772"><ele>122.25</ele></trkpt>
   <trkpt lat="51.256017" lon="12.287223"><ele>122</ele></trkpt>
   <trkpt lat="51.255892" lon="12.2867"><ele>122</ele></trkpt>
   <trkpt lat="51.255717" lon="12.286083"><ele>121.75</ele></trkpt>
   <trkpt lat="51.255534" lon="12.285485"><ele>121.5</ele></trkpt>
   <trkpt lat="51.255331" lon="12.284883"><ele>121.5</ele></trkpt>
   <trkpt lat="51.255129" lon="12.284321"><ele>121.75</ele></trkpt>
   <trkpt lat="51.254855" lon="12.283631"><ele>122</ele></trkpt>
   <trkpt lat="51.254593" lon="12.283027"><ele>122.5</ele></trkpt>
   <trkpt lat="51.254234" lon="12.28227"><ele>123.75</ele></trkpt>
   <trkpt lat="51.253751" lon="12.281369"><ele>122.75</ele></trkpt>
   <trkpt lat="51.253422" lon="12.280815"><ele>121.75</ele></trkpt>
   <trkpt lat="51.253163" lon="12.280403"><ele>121.75</ele></trkpt>
   <trkpt lat="51.251524" lon="12.278036"><ele>123.5</ele></trkpt>
   <trkpt lat="51.251454" lon="12.277939"><ele>123.25</ele></trkpt>
   <trkpt lat="51.251001" lon="12.277291"><ele>123</ele></trkpt>
   <trkpt lat="51.250624" lon="12.276784"><ele>122.5</ele></trkpt>
   <trkpt lat="51.250054" lon="12.276055"><ele>124</ele></trkpt>
   <trkpt lat="51.2496" lon="12.275502"><ele>125.25</ele></trkpt>
   <trkpt lat="51.249134" lon="12.274965"><ele>124.75</ele></trkpt>
   <trkpt lat="51.248793" lon="12.274589"><ele>124.75</ele></trkpt>
   <trkpt lat="51.248306" lon="12.274079"><ele>124</ele></trkpt>
   <trkpt lat="51.247832" lon="12.27361"><ele>124</ele></trkpt>
   <trkpt lat="51.247264" lon="12.273076"><ele>123.75</ele></trkpt>
   <trkpt lat="51.246485" lon="12.272365"><ele>125</ele></trkpt>
   <trkpt lat="51.246192" lon="12.272089"><ele>125.25</ele></trkpt>
   <trkpt lat="51.245763" lon="12.271704"><ele>125.75</ele></trkpt>
   <trkpt lat="51.244538" lon="12.270579"><ele>127.25</ele></trkpt>
   <trkpt lat="51.243648" lon="12.269788"><ele>127.25</ele></trkpt>
   <trkpt lat="51.24298" lon="12.269238"><ele>126.5</ele></trkpt>
   <trkpt lat="51.242286" lon="12.268717"><ele>125.75</ele></trkpt>
   <trkpt lat="51.241609" lon="12.268261"><ele>125.75</ele></trkpt>
   <trkpt lat="51.240972" lon="12.267867"><ele>125</ele></trkpt>
   <trkpt lat="51.240236" lon="12.267452"><ele>125.5</ele></trkpt>
   <trkpt lat="51.239631" lon="12.267144"><ele>125.5</ele></trkpt>
   <trkpt lat="51.237357" lon="12.266015"><ele>124.75</ele></trkpt>
   <trkpt lat="51.236068" lon="12.265374"><ele>125.5</ele></trkpt>
   <trkpt lat="51.23571" lon="12.265207"><ele>125.75</ele></trkpt>
   <trkpt lat="51.235232" lon="12.26501"><ele>125.75</ele></trkpt>
   <trkpt lat="51.234763" lon="12.264848"><ele>125.75</ele></trkpt>
   <trkpt lat="51.234303" lon="12.264723"><ele>125.5</ele></trkpt>
   <trkpt lat="51.233872" lon="12.264626"><ele>125.5</ele></trkpt>
   <trkpt lat="51.233441" lon="12.264553"><ele>125.75</ele></trkpt>
   <trkpt lat="51.23298" lon="12.264516"><ele>125.75</ele></trkpt>
   <trkpt lat="51.232498" lon="12.2645"><ele>125.25</ele></trkpt>
   <trkpt lat="51.231984" lon="12.264521"><ele>124.75</ele></trkpt>
   <trkpt lat="51.231732" lon="12.264542"><ele>124.5</ele></trkpt>
   <trkpt lat="51.231473" lon="12.264563"><ele>124.5</ele></trkpt>
   <trkpt lat="51.231117" lon="12.26463"><ele>124.75</ele></trkpt>
   <trkpt lat="51.230755" lon="12.26471"><ele>124.75</ele></trkpt>
   <trkpt lat="51.230316" lon="12.264831"><ele>124.5</ele></trkpt>
   <trkpt lat="51.229931" lon="12.264957"><ele>124</ele></trkpt>
   <trkpt lat="51.229597" lon="12.265085"><ele>124.25</ele></trkpt>
   <trkpt lat="51.22913" lon="12.265289"><ele>125</ele></trkpt>
   <trkpt lat="51.228401" lon="12.26568"><ele>125</ele></trkpt>
   <trkpt lat="51.227975" lon="12.265951"><ele>124.75</ele></trkpt>
   <trkpt lat="51.227569" lon="12.266231"><ele>125.25</ele></trkpt>
   <trkpt lat="51.227191" lon="12.266526"><ele>125.75</ele></trkpt>
   <trkpt lat="51.226809" lon="12.26685"><ele>125.75</ele></trkpt>
   <trkpt lat="51.226447" lon="12.26718"><ele>125</ele></trkpt>
   <trkpt lat="51.226017" lon="12.267617"><ele>124.25</ele></trkpt>
   <trkpt lat="51.225495" lon="12.268206"><ele>124.75</ele></trkpt>
   <trkpt lat="51.225188" lon="12.26858"><ele>124.5</ele></trkpt>
   <trkpt lat="51.224134" lon="12.269963"><ele>124</ele></trkpt>
   <trkpt lat="51.223856" lon="12.270314"><ele>124</ele></trkpt>
   <trkpt lat="51.223577" lon="12.270647"><ele>124</ele></trkpt>
   <trkpt lat="51.223279" lon="12.270973"><ele>124</ele></trkpt>
   <trkpt lat="51.222958" lon="12.271308"><ele>124</ele></trkpt>
   <trkpt lat="51.222521" lon="12.271719"><ele>123.75</ele></trkpt>
   <trkpt lat="51.222176" lon="12.272023"><ele>123.75</ele></trkpt>
   <trkpt lat="51.221824" lon="12.272307"><ele>124</ele></trkpt>
   <trkpt lat="51.221522" lon="12.272536"><ele>124</ele></trkpt>
   <trkpt lat="51.221487" lon="12.272563"><ele>124</ele></trkpt>
   <trkpt lat="51.221183" lon="12.272764"><ele>124.25</ele></trkpt>
   <trkpt lat="51.220837" lon="12.272977"><ele>124.75</ele></trkpt>
   <trkpt lat="51.22028" lon="12.273292"><ele>124.75</ele></trkpt>
   <trkpt lat="51.219786" lon="12.273548"><ele>124.5</ele></trkpt>
   <trkpt lat="51.219277" lon="12.27379"><ele>124</ele></trkpt>
   <trkpt lat="51.218675" lon="12.274046"><ele>123.25</ele></trkpt>
   <trkpt lat="51.218291" lon="12.274199"><ele>122.75</ele></trkpt>
   <trkpt lat="51.217964" lon="12.274316"><ele>122.75</ele></trkpt>
   <trkpt lat="51.217576" lon="12.274445"><ele>123.25</ele></trkpt>
   <trkpt lat="51.217228" lon="12.274545"><ele>123.75</ele></trkpt>
   <trkpt lat="51.216792" lon="12.274651"><ele>124.25</ele></trkpt>
   <trkpt lat="51.216379" lon="12.274728"><ele>124.25</ele></trkpt>
   <trkpt lat="51.216017" lon="12.274773"><ele>123.75</ele></trkpt>
   <trkpt lat="51.215675" lon="12.274802"><ele>123.75</ele></trkpt>
   <trkpt lat="51.215311" lon="12.27481"><ele>123.75</ele></trkpt>
   <trkpt lat="51.214944" lon="12.274802"><ele>123.75</ele></trkpt>
   <trkpt lat="51.214526" lon="12.274773"><ele>123.25</ele></trkpt>
   <trkpt lat="51.213998" lon="12.274696"><ele>123.25</ele></trkpt>
   <trkpt lat="51.213696" lon="12.274639"><ele>123.75</ele></trkpt>
   <trkpt lat="51.21339" lon="12.274569"><ele>124.25</ele></trkpt>
   <trkpt lat="51.213076" lon="12.274477"><ele>124.25</ele></trkpt>
   <trkpt lat="51.212713" lon="12.274351"><ele>124.5</ele></trkpt>
   <trkpt lat="51.212312" lon="12.274209"><ele>124.75</ele></trkpt>
   <trkpt lat="51.211664" lon="12.273902"><ele>125</ele></trkpt>
   <trkpt lat="51.211033" lon="12.273542"><ele>125.75</ele></trkpt>
   <trkpt lat="51.210585" lon="12.273251"><ele>125.75</ele></trkpt>
   <trkpt lat="51.210299" lon="12.273041"><ele>125.75</ele></trkpt>
   <trkpt lat="51.209957" lon="12.272773"><ele>126.25</ele></trkpt>
   <trkpt lat="51.209617" lon="12.272487"><ele>127</ele></trkpt>
   <trkpt lat="51.209312" lon="12.272202"><ele>127</ele></trkpt>
   <trkpt lat="51.208951" lon="12.271844"><ele>126.5</ele></trkpt>
   <trkpt lat="51.208675" lon="12.271557"><ele>126.25</ele></trkpt>
   <trkpt lat="51.208255" lon="12.271098"><ele>125.25</ele></trkpt>
   <trkpt lat="51.20147" lon="12.263511"><ele>126.75</ele></trkpt>
   <trkpt lat="51.201287" lon="12.263307"><ele>126.5</ele></trkpt>
   <trkpt lat="51.200829" lon="12.262795"><ele>126</ele></trkpt>
   <trkpt lat="51.199072" lon="12.260831"><ele>127.75</ele></trkpt>
   <trkpt lat="51.198546" lon="12.260243"><ele>127.25</ele></trkpt>
   <trkpt lat="51.193141" lon="12.254218"><ele>129.25</ele></trkpt>
   <trkpt lat="51.19276" lon="12.253834"><ele>129.5</ele></trkpt>
   <trkpt lat="51.192252" lon="12.253383"><ele>130</ele></trkpt>
   <trkpt lat="51.191847" lon="12.253056"><ele>130.25</ele></trkpt>
   <trkpt lat="51.191082" lon="12.252501"><ele>130.75</ele></trkpt>
   <trkpt lat="51.190768" lon="12.252303"><ele>131.25</ele></trkpt>
   <trkpt lat="51.190536" lon="12.252184"><ele>131.5</ele></trkpt>
   <trkpt lat="51.189684" lon="12.251725"><ele>131.75</ele></trkpt>
   <trkpt lat="51.187547" lon="12.250773"><ele>132.75</ele></trkpt>
   <trkpt lat="51.185357" lon="12.249791"><ele>133</ele></trkpt>
   <trkpt lat="51.183315" lon="12.248872"><ele>135</ele></trkpt>
   <trkpt lat="51.180718" lon="12.247701"><ele>135.75</ele></trkpt>
   <trkpt lat="51.172671" lon="12.244089"><ele>132</ele></trkpt>
   <trkpt lat="51.172496" lon="12.24401"><ele>131.75</ele></trkpt>
   <trkpt lat="51.172118" lon="12.243841"><ele>131.5</ele></trkpt>
   <trkpt lat="51.170481" lon="12.243104"><ele>133</ele></trkpt>
   <trkpt lat="51.168497" lon="12.24219"><ele>134.5</ele></trkpt>
   <trkpt lat="51.167427" lon="12.241696"><ele>134</ele></trkpt>
   <trkpt lat="51.1672" lon="12.241595"><ele>134.25</ele></trkpt>
   <trkpt lat="51.166002" lon="12.241056"><ele>133.25</ele></trkpt>
   <trkpt lat="51.162633" lon="12.239558"><ele>132.5</ele></trkpt>
   <trkpt lat="51.161464" lon="12.239037"><ele>133</ele></trkpt>
   <trkpt lat="51.16115" lon="12.238887"><ele>133.5</ele></trkpt>
   <trkpt lat="51.160542" lon="12.238572"><ele>133.5</ele></trkpt>
   <trkpt lat="51.16009" lon="12.238314"><ele>133</ele></trkpt>
   <trkpt lat="51.15969" lon="12.238067"><ele>132.75</ele></trkpt>
   <trkpt lat="51.159267" lon="12.237785"><ele>132.75</ele></trkpt>
   <trkpt lat="51.15873" lon="12.237396"><ele>132.25</ele></trkpt>
   <trkpt lat="51.158469" lon="12.237195"><ele>132</ele></trkpt>
   <trkpt lat="51.157948" lon="12.236766"><ele>131.5</ele></trkpt>
   <trkpt lat="51.157385" lon="12.236263"><ele>132</ele></trkpt>
   <trkpt lat="51.156345" lon="12.235271"><ele>133.5</ele></trkpt>
   <trkpt lat="51.148427" lon="12.22765"><ele>135.75</ele></trkpt>
   <trkpt lat="51.147416" lon="12.226679"><ele>137.75</ele></trkpt>
   <trkpt lat="51.14562" lon="12.224952"><ele>140</ele></trkpt>
   <trkpt lat="51.139819" lon="12.219381"><ele>141.5</ele></trkpt>
   <trkpt lat="51.137721" lon="12.217366"><ele>142.25</ele></trkpt>
   <trkpt lat="51.136183" lon="12.215889"><ele>143.25</ele></trkpt>
   <trkpt lat="51.135887" lon="12.215612"><ele>143.5</ele></trkpt>
   <trkpt lat="51.13541" lon="12.215185"><ele>143.5</ele></trkpt>
   <trkpt lat="51.135311" lon="12.215099"><ele>143.5</ele></trkpt>
   <trkpt lat="51.135019" lon="12.214829"><ele>143.25</ele></trkpt>
   <trkpt lat="51.134535" lon="12.214339"><ele>143.75</ele></trkpt>
   <trkpt lat="51.134363" lon="12.214167"><ele>143.75</ele></trkpt>
   <trkpt lat="51.133978" lon="12.213779"><ele>144.25</ele></trkpt>
   <trkpt lat="51.133546" lon="12.21336"><ele>144.75</ele></trkpt>
   <trkpt lat="51.133436" lon="12.213257"><ele>145</ele></trkpt>
   <trkpt lat="51.133091" lon="12.212923"><ele>144.75</ele></trkpt>
   <trkpt lat="51.132881" lon="12.212724"><ele>144.75</ele></trkpt>
   <trkpt lat="51.132503" lon="12.212361"><ele>145</ele></trkpt>
   <trkpt lat="51.132273" lon="12.21214"><ele>145.25</ele></trkpt>
   <trkpt lat="51.126505" lon="12.206607"><ele>145.75</ele></trkpt>
   <trkpt lat="51.126317" lon="12.206409"><ele>145.5</ele></trkpt>
   <trkpt lat="51.126098" lon="12.206141"><ele>145.25</ele></trkpt>
   <trkpt lat="51.125992" lon="12.206026"><ele>145</ele></trkpt>
   <trkpt lat="51.125634" lon="12.205686"><ele>145</ele></trkpt>
   <trkpt lat="51.125562" lon="12.205616"><ele>145</ele></trkpt>
   <trkpt lat="51.125088" lon="12.205165"><ele>145</ele></trkpt>
   <trkpt lat="51.124976" lon="12.20505"><ele>145</ele></trkpt>
   <trkpt lat="51.124754" lon="12.204808"><ele>145</ele></trkpt>
   <trkpt lat="51.124661" lon="12.204699"><ele>145.25</ele></trkpt>
   <trkpt lat="51.122935" lon="12.202683"><ele>147.75</ele></trkpt>
   <trkpt lat="51.121922" lon="12.201541"><ele>150.75</ele></trkpt>
   <trkpt lat="51.121916" lon="12.201534"><ele>151</ele></trkpt>
   <trkpt lat="51.120087" lon="12.199495"><ele>157.25</ele></trkpt>
   <trkpt lat="51.115117" lon="12.193958"><ele>147.5</ele></trkpt>
   <trkpt lat="51.115052" lon="12.193886"><ele>147.25</ele></trkpt>
   <trkpt lat="51.113743" lon="12.192433"><ele>152.75</ele></trkpt>
   <trkpt lat="51.111046" lon="12.189406"><ele>153</ele></trkpt>
   <trkpt lat="51.110953" lon="12.189304"><ele>153</ele></trkpt>
   <trkpt lat="51.110821" lon="12.189154"><ele>152.75</ele></trkpt>
   <trkpt lat="51.110199" lon="12.188453"><ele>152.75</ele></trkpt>
   <trkpt lat="51.109108" lon="12.187232"><ele>153</ele></trkpt>
   <trkpt lat="51.108016" lon="12.186015"><ele>155.5</ele></trkpt>
   <trkpt lat="51.105824" lon="12.1836"><ele>154</ele></trkpt>
   <trkpt lat="51.105341" lon="12.183063"><ele>154.5</ele></trkpt>
   <trkpt lat="51.105024" lon="12.18271"><ele>154.25</ele></trkpt>
   <trkpt lat="51.104709" lon="12.182358"><ele>153.25</ele></trkpt>
   <trkpt lat="51.101435" lon="12.178723"><ele>158.5</ele></trkpt>
   <trkpt lat="51.100963" lon="12.178214"><ele>156.5</ele></trkpt>
   <trkpt lat="51.100365" lon="12.177603"><ele>154.5</ele></trkpt>
   <trkpt lat="51.099877" lon="12.177135"><ele>153.25</ele></trkpt>
   <trkpt lat="51.099505" lon="12.176805"><ele>153.5</ele></trkpt>
   <trkpt lat="51.099223" lon="12.176577"><ele>154</ele></trkpt>
   <trkpt lat="51.098937" lon="12.176362"><ele>154</ele></trkpt>
   <trkpt lat="51.098369" lon="12.175984"><ele>153.5</ele></trkpt>
   <trkpt lat="51.09821" lon="12.175886"><ele>154</ele></trkpt>
   <trkpt lat="51.098117" lon="12.17583"><ele>154.5</ele></trkpt>
   <trkpt lat="51.097849" lon="12.175675"><ele>155.25</ele></trkpt>
   <trkpt lat="51.097581" lon="12.175533"><ele>155.75</ele></trkpt>
   <trkpt lat="51.095965" lon="12.174729"><ele>157.25</ele></trkpt>
   <trkpt lat="51.095449" lon="12.174455"><ele>158.25</ele></trkpt>
   <trkpt lat="51.095195" lon="12.174308"><ele>158.5</ele></trkpt>
   <trkpt lat="51.094817" lon="12.17407"><ele>159</ele></trkpt>
   <trkpt lat="51.094443" lon="12.173815"><ele>159.75</ele></trkpt>
   <trkpt lat="51.094198" lon="12.173635"><ele>160.25</ele></trkpt>
   <trkpt lat="51.093954" lon="12.173448"><ele>160.25</ele></trkpt>
   <trkpt lat="51.093712" lon="12.173248"><ele>159.75</ele></trkpt>
   <trkpt lat="51.093358" lon="12.172941"><ele>159.5</ele></trkpt>
   <trkpt lat="51.092893" lon="12.1725"><ele>158.75</ele></trkpt>
   <trkpt lat="51.092552" lon="12.172149"><ele>158.5</ele></trkpt>
   <trkpt lat="51.092106" lon="12.171658"><ele>158.5</ele></trkpt>
   <trkpt lat="51.088016" lon="12.16697"><ele>155</ele></trkpt>
   <trkpt lat="51.08792" lon="12.16686"><ele>154.75</ele></trkpt>
   <trkpt lat="51.087854" lon="12.166784"><ele>154.5</ele></trkpt>
   <trkpt lat="51.086952" lon="12.165747"><ele>153.75</ele></trkpt>
   <trkpt lat="51.080523" lon="12.158371"><ele>157.5</ele></trkpt>
   <trkpt lat="51.080381" lon="12.158208"><ele>157.5</ele></trkpt>
   <trkpt lat="51.080139" lon="12.157932"><ele>157.5</ele></trkpt>
   <trkpt lat="51.080012" lon="12.157783"><ele>157.5</ele></trkpt>
   <trkpt lat="51.079786" lon="12.157515"><ele>157.25</ele></trkpt>
   <trkpt lat="51.078175" lon="12.155584"><ele>158</ele></trkpt>
   <trkpt lat="51.077433" lon="12.154697"><ele>158.5</ele></trkpt>
   <trkpt lat="51.076833" lon="12.154016"><ele>159.25</ele></trkpt>
   <trkpt lat="51.076631" lon="12.153802"><ele>159.25</ele></trkpt>
   <trkpt lat="51.07604" lon="12.15319"><ele>159.25</ele></trkpt>
   <trkpt lat="51.075568" lon="12.152736"><ele>158.75</ele></trkpt>
   <trkpt lat="51.07518" lon="12.152398"><ele>158.5</ele></trkpt>
   <trkpt lat="51.074639" lon="12.151962"><ele>158</ele></trkpt>
   <trkpt lat="51.07387" lon="12.15134"><ele>157</ele></trkpt>
   <trkpt lat="51.072773" lon="12.150495"><ele>155.5</ele></trkpt>
   <trkpt lat="51.070417" lon="12.148683"><ele>153</ele></trkpt>
   <trkpt lat="51.070406" lon="12.148675"><ele>152.75</ele></trkpt>
   <trkpt lat="51.070386" lon="12.14866"><ele>152.75</ele></trkpt>
   <trkpt lat="51.070173" lon="12.148495"><ele>152.5</ele></trkpt>
   <trkpt lat="51.069653" lon="12.148095"><ele>152.5</ele></trkpt>
   <trkpt lat="51.069618" lon="12.148068"><ele>152.5</ele></trkpt>
   <trkpt lat="51.069586" lon="12.148044"><ele>152.5</ele></trkpt>
   <trkpt lat="51.069141" lon="12.147709"><ele>152.25</ele></trkpt>
   <trkpt lat="51.06878" lon="12.147453"><ele>152.5</ele></trkpt>
   <trkpt lat="51.068444" lon="12.147228"><ele>153</ele></trkpt>
   <trkpt lat="51.068019" lon="12.146961"><ele>153.25</ele></trkpt>
   <trkpt lat="51.066224" lon="12.14592"><ele>151.75</ele></trkpt>
   <trkpt lat="51.064528" lon="12.14495"><ele>155</ele></trkpt>
   <trkpt lat="51.064074" lon="12.144716"><ele>155.5</ele></trkpt>
   <trkpt lat="51.064032" lon="12.144694"><ele>155.5</ele></trkpt>
   <trkpt lat="51.063552" lon="12.144468"><ele>156.25</ele></trkpt>
   <trkpt lat="51.062547" lon="12.14406"><ele>155.5</ele></trkpt>
   <trkpt lat="51.062201" lon="12.143921"><ele>155.5</ele></trkpt>
   <trkpt lat="51.059993" lon="12.143035"><ele>154.5</ele></trkpt>
   <trkpt lat="51.059722" lon="12.142916"><ele>154.25</ele></trkpt>
   <trkpt lat="51.059454" lon="12.142782"><ele>154.25</ele></trkpt>
   <trkpt lat="51.05932" lon="12.142707"><ele>154</ele></trkpt>
   <trkpt lat="51.059058" lon="12.142535"><ele>154</ele></trkpt>
   <trkpt lat="51.058927" lon="12.142438"><ele>153.75</ele></trkpt>
   <trkpt lat="51.058741" lon="12.142283"><ele>154</ele></trkpt>
   <trkpt lat="51.058472" lon="12.142025"><ele>154.25</ele></trkpt>
   <trkpt lat="51.058301" lon="12.141837"><ele>154.75</ele></trkpt>
   <trkpt lat="51.058135" lon="12.141632"><ele>154.5</ele></trkpt>
   <trkpt lat="51.057978" lon="12.141419"><ele>154.25</ele></trkpt>
   <trkpt lat="51.057808" lon="12.141161"><ele>154</ele></trkpt>
   <trkpt lat="51.057675" lon="12.14094"><ele>154</ele></trkpt>
   <trkpt lat="51.057662" lon="12.140918"><ele>154</ele></trkpt>
   <trkpt lat="51.057521" lon="12.140652"><ele>154</ele></trkpt>
   <trkpt lat="51.057388" lon="12.140376"><ele>153.75</ele></trkpt>
   <trkpt lat="51.057269" lon="12.140099"><ele>153.5</ele></trkpt>
   <trkpt lat="51.057112" lon="12.139682"><ele>153.75</ele></trkpt>
   <trkpt lat="51.057096" lon="12.139635"><ele>153.75</ele></trkpt>
   <trkpt lat="51.056999" lon="12.13933"><ele>154</ele></trkpt>
   <trkpt lat="51.056913" lon="12.139019"><ele>154.25</ele></trkpt>
   <trkpt lat="51.056837" lon="12.138702"><ele>154</ele></trkpt>
   <trkpt lat="51.056772" lon="12.138382"><ele>154</ele></trkpt>
   <trkpt lat="51.056717" lon="12.138056"><ele>154.25</ele></trkpt>
   <trkpt lat="51.056673" lon="12.137728"><ele>154.5</ele></trkpt>
   <trkpt lat="51.056612" lon="12.137066"><ele>154.75</ele></trkpt>
   <trkpt lat="51.05657" lon="12.13637"><ele>155</ele></trkpt>
   <trkpt lat="51.056569" lon="12.136361"><ele>155</ele></trkpt>
   <trkpt lat="51.056535" lon="12.135737"><ele>155.75</ele></trkpt>
   <trkpt lat="51.05654" lon="12.135447"><ele>155.75</ele></trkpt>
   <trkpt lat="51.056505" lon="12.135161"><ele>155.75</ele></trkpt>
   <trkpt lat="51.056484" lon="12.134763"><ele>155.5</ele></trkpt>
   <trkpt lat="51.056473" lon="12.134233"><ele>155.5</ele></trkpt>
   <trkpt lat="51.056488" lon="12.133731"><ele>155.25</ele></trkpt>
   <trkpt lat="51.056509" lon="12.133087"><ele>155</ele></trkpt>
   <trkpt lat="51.056552" lon="12.131788"><ele>153.75</ele></trkpt>
   <trkpt lat="51.056557" lon="12.13164"><ele>153.75</ele></trkpt>
   <trkpt lat="51.056578" lon="12.131011"><ele>153.75</ele></trkpt>
   <trkpt lat="51.05658" lon="12.130647"><ele>154</ele></trkpt>
   <trkpt lat="51.056574" lon="12.130285"><ele>154</ele></trkpt>
   <trkpt lat="51.05657" lon="12.129999"><ele>154</ele></trkpt>
   <trkpt lat="51.056553" lon="12.129482"><ele>154</ele></trkpt>
   <trkpt lat="51.056529" lon="12.128833"><ele>154</ele></trkpt>
   <trkpt lat="51.056446" lon="12.126435"><ele>153</ele></trkpt>
   <trkpt lat="51.056413" lon="12.125499"><ele>153.5</ele></trkpt>
   <trkpt lat="51.056415" lon="12.125026"><ele>153.5</ele></trkpt>
   <trkpt lat="51.056432" lon="12.124607"><ele>153.5</ele></trkpt>
   <trkpt lat="51.056478" lon="12.123932"><ele>153</ele></trkpt>
   <trkpt lat="51.056493" lon="12.123596"><ele>153</ele></trkpt>
   <trkpt lat="51.056505" lon="12.123025"><ele>153.25</ele></trkpt>
   <trkpt lat="51.056534" lon="12.121811"><ele>153.5</ele></trkpt>
   <trkpt lat="51.056539" lon="12.121407"><ele>154</ele></trkpt>
   <trkpt lat="51.056536" lon="12.121114"><ele>154.25</ele></trkpt>
   <trkpt lat="51.056526" lon="12.120779"><ele>154.5</ele></trkpt>
   <trkpt lat="51.056507" lon="12.120443"><ele>154.5</ele></trkpt>
   <trkpt lat="51.056503" lon="12.120397"><ele>154.5</ele></trkpt>
   <trkpt lat="51.056459" lon="12.11995"><ele>154.5</ele></trkpt>
   <trkpt lat="51.056428" lon="12.119714"><ele>154.75</ele></trkpt>
   <trkpt lat="51.056345" lon="12.11921"><ele>155</ele></trkpt>
   <trkpt lat="51.056287" lon="12.118921"><ele>155</ele></trkpt>
   <trkpt lat="51.056222" lon="12.118647"><ele>154.75</ele></trkpt>
   <trkpt lat="51.056096" lon="12.118197"><ele>154.5</ele></trkpt>
   <trkpt lat="51.056023" lon="12.117964"><ele>154.5</ele></trkpt>
   <trkpt lat="51.055854" lon="12.1175"><ele>155</ele></trkpt>
   <trkpt lat="51.055754" lon="12.117257"><ele>155</ele></trkpt>
   <trkpt lat="51.055529" lon="12.116785"><ele>154.75</ele></trkpt>
   <trkpt lat="51.055401" lon="12.11655"><ele>154.5</ele></trkpt>
   <trkpt lat="51.055316" lon="12.116407"><ele>154.25</ele></trkpt>
   <trkpt lat="51.055274" lon="12.116335"><ele>154.25</ele></trkpt>
   <trkpt lat="51.055027" lon="12.115963"><ele>153.75</ele></trkpt>
   <trkpt lat="51.054892" lon="12.115778"><ele>154</ele></trkpt>
   <trkpt lat="51.054338" lon="12.115076"><ele>155.5</ele></trkpt>
   <trkpt lat="51.054332" lon="12.115067"><ele>155.5</ele></trkpt>
   <trkpt lat="51.054208" lon="12.114916"><ele>156</ele></trkpt>
   <trkpt lat="51.053523" lon="12.114062"><ele>157</ele></trkpt>
   <trkpt lat="51.052627" lon="12.112977"><ele>156.5</ele></trkpt>
   <trkpt lat="51.051886" lon="12.112028"><ele>155.5</ele></trkpt>
   <trkpt lat="51.051006" lon="12.110932"><ele>156.75</ele></trkpt>
   <trkpt lat="51.049273" lon="12.10877"><ele>156.75</ele></trkpt>
   <trkpt lat="51.04383" lon="12.102007"><ele>153</ele></trkpt>
   <trkpt lat="51.043739" lon="12.101892"><ele>153.5</ele></trkpt>
   <trkpt lat="51.038667" lon="12.095592"><ele>155.25</ele></trkpt>
   <trkpt lat="51.037708" lon="12.094379"><ele>156.25</ele></trkpt>
   <trkpt lat="51.03753" lon="12.09413"><ele>157</ele></trkpt>
   <trkpt lat="51.037217" lon="12.093655"><ele>157.25</ele></trkpt>
   <trkpt lat="51.036847" lon="12.093028"><ele>157</ele></trkpt>
   <trkpt lat="51.0365" lon="12.092346"><ele>156.5</ele></trkpt>
   <trkpt lat="51.036308" lon="12.091929"><ele>156</ele></trkpt>
   <trkpt lat="51.036125" lon="12.091499"><ele>155.5</ele></trkpt>
   <trkpt lat="51.035986" lon="12.091149"><ele>155.25</ele></trkpt>
   <trkpt lat="51.035848" lon="12.090774"><ele>155</ele></trkpt>
   <trkpt lat="51.035731" lon="12.090429"><ele>155</ele></trkpt>
   <trkpt lat="51.035416" lon="12.089412"><ele>155.5</ele></trkpt>
   <trkpt lat="51.031529" lon="12.076567"><ele>159</ele></trkpt>
   <trkpt lat="51.030813" lon="12.074201"><ele>160.75</ele></trkpt>
   <trkpt lat="51.030532" lon="12.073319"><ele>161.25</ele></trkpt>
   <trkpt lat="51.030313" lon="12.072684"><ele>163.25</ele></trkpt>
   <trkpt lat="51.030143" lon="12.072219"><ele>164</ele></trkpt>
   <trkpt lat="51.029918" lon="12.071644"><ele>164.5</ele></trkpt>
   <trkpt lat="51.029715" lon="12.071154"><ele>166.25</ele></trkpt>
   <trkpt lat="51.028503" lon="12.068251"><ele>166.5</ele></trkpt>
   <trkpt lat="51.028234" lon="12.067551"><ele>166.5</ele></trkpt>
   <trkpt lat="51.02813" lon="12.067234"><ele>166.75</ele></trkpt>
   <trkpt lat="51.028037" lon="12.066925"><ele>166.75</ele></trkpt>
   <trkpt lat="51.02795" lon="12.066605"><ele>166.75</ele></trkpt>
   <trkpt lat="51.027794" lon="12.065951"><ele>167.5</ele></trkpt>
   <trkpt lat="51.027649" lon="12.065287"><ele>167.25</ele></trkpt>
   <trkpt lat="51.027617" lon="12.065132"><ele>167</ele></trkpt>
   <trkpt lat="51.027469" lon="12.064379"><ele>166.75</ele></trkpt>
   <trkpt lat="51.027353" lon="12.06368"><ele>167.25</ele></trkpt>
   <trkpt lat="51.027302" lon="12.063291"><ele>167.75</ele></trkpt>
   <trkpt lat="51.027265" lon="12.062931"><ele>168.5</ele></trkpt>
   <trkpt lat="51.02721" lon="12.062219"><ele>170.25</ele></trkpt>
   <trkpt lat="51.02713" lon="12.060963"><ele>172</ele></trkpt>
   <trkpt lat="51.0271" lon="12.060334"><ele>173</ele></trkpt>
   <trkpt lat="51.02709" lon="12.059912"><ele>173.5</ele></trkpt>
   <trkpt lat="51.027091" lon="12.059237"><ele>173.5</ele></trkpt>
   <trkpt lat="51.027112" lon="12.0581"><ele>173</ele></trkpt>
   <trkpt lat="51.027148" lon="12.056837"><ele>172.5</ele></trkpt>
   <trkpt lat="51.02716" lon="12.056132"><ele>173.25</ele></trkpt>
   <trkpt lat="51.027158" lon="12.055778"><ele>173.5</ele></trkpt>
   <trkpt lat="51.027148" lon="12.055404"><ele>173.5</ele></trkpt>
   <trkpt lat="51.027126" lon="12.055029"><ele>173.25</ele></trkpt>
   <trkpt lat="51.02709" lon="12.05463"><ele>173</ele></trkpt>
   <trkpt lat="51.027043" lon="12.05425"><ele>172.5</ele></trkpt>
   <trkpt lat="51.026978" lon="12.053838"><ele>171.25</ele></trkpt>
   <trkpt lat="51.026905" lon="12.053459"><ele>169.75</ele></trkpt>
   <trkpt lat="51.0268" lon="12.053018"><ele>169</ele></trkpt>
   <trkpt lat="51.026705" lon="12.052665"><ele>168.75</ele></trkpt>
   <trkpt lat="51.026605" lon="12.052343"><ele>168.75</ele></trkpt>
   <trkpt lat="51.026498" lon="12.052036"><ele>168.5</ele></trkpt>
   <trkpt lat="51.02639" lon="12.051752"><ele>168</ele></trkpt>
   <trkpt lat="51.026266" lon="12.051458"><ele>169.25</ele></trkpt>
   <trkpt lat="51.026126" lon="12.051151"><ele>171</ele></trkpt>
   <trkpt lat="51.025957" lon="12.050829"><ele>171.5</ele></trkpt>
   <trkpt lat="51.02573" lon="12.050431"><ele>171.5</ele></trkpt>
   <trkpt lat="51.025585" lon="12.050207"><ele>171.25</ele></trkpt>
   <trkpt lat="51.025433" lon="12.049989"><ele>170.25</ele></trkpt>
   <trkpt lat="51.025278" lon="12.049786"><ele>169.75</ele></trkpt>
   <trkpt lat="51.024953" lon="12.049406"><ele>167.5</ele></trkpt>
   <trkpt lat="51.024589" lon="12.049036"><ele>166.25</ele></trkpt>
   <trkpt lat="51.023591" lon="12.048103"><ele>161</ele></trkpt>
   <trkpt lat="51.023272" lon="12.047771"><ele>160.75</ele></trkpt>
   <trkpt lat="51.023089" lon="12.047566"><ele>161</ele></trkpt>
   <trkpt lat="51.022924" lon="12.047362"><ele>161.25</ele></trkpt>
   <trkpt lat="51.022744" lon="12.047126"><ele>161</ele></trkpt>
   <trkpt lat="51.022548" lon="12.046849"><ele>160.75</ele></trkpt>
   <trkpt lat="51.022357" lon="12.046562"><ele>161</ele></trkpt>
   <trkpt lat="51.022156" lon="12.046232"><ele>161.75</ele></trkpt>
   <trkpt lat="51.021963" lon="12.045885"><ele>162.5</ele></trkpt>
   <trkpt lat="51.021778" lon="12.045524"><ele>162.5</ele></trkpt>
   <trkpt lat="51.021496" lon="12.044915"><ele>162.25</ele></trkpt>
   <trkpt lat="51.020563" lon="12.042794"><ele>162.25</ele></trkpt>
   <trkpt lat="51.019547" lon="12.040477"><ele>164</ele></trkpt>
   <trkpt lat="51.019265" lon="12.039774"><ele>163.5</ele></trkpt>
   <trkpt lat="51.019134" lon="12.039416"><ele>163.75</ele></trkpt>
   <trkpt lat="51.019019" lon="12.039076"><ele>164.25</ele></trkpt>
   <trkpt lat="51.018902" lon="12.038702"><ele>164</ele></trkpt>
   <trkpt lat="51.0188" lon="12.03835"><ele>163.75</ele></trkpt>
   <trkpt lat="51.018698" lon="12.037968"><ele>164.25</ele></trkpt>
   <trkpt lat="51.018612" lon="12.037612"><ele>164.5</ele></trkpt>
   <trkpt lat="51.018457" lon="12.036882"><ele>164.75</ele></trkpt>
   <trkpt lat="51.018141" lon="12.03524"><ele>166</ele></trkpt>
   <trkpt lat="51.017302" lon="12.030855"><ele>171</ele></trkpt>
   <trkpt lat="51.017062" lon="12.029633"><ele>172</ele></trkpt>
   <trkpt lat="51.016908" lon="12.028962"><ele>172.25</ele></trkpt>
   <trkpt lat="51.01682" lon="12.028633"><ele>171.25</ele></trkpt>
   <trkpt lat="51.01664" lon="12.028039"><ele>169.75</ele></trkpt>
   <trkpt lat="51.016543" lon="12.027756"><ele>170.75</ele></trkpt>
   <trkpt lat="51.016335" lon="12.027215"><ele>171.25</ele></trkpt>
   <trkpt lat="51.016088" lon="12.026659"><ele>170</ele></trkpt>
   <trkpt lat="51.015974" lon="12.026426"><ele>169.5</ele></trkpt>
   <trkpt lat="51.015724" lon="12.025947"><ele>169.25</ele></trkpt>
   <trkpt lat="51.013985" lon="12.022811"><ele>169.5</ele></trkpt>
   <trkpt lat="51.012991" lon="12.021024"><ele>171.5</ele></trkpt>
   <trkpt lat="51.012501" lon="12.020134"><ele>170.75</ele></trkpt>
   <trkpt lat="51.012307" lon="12.019759"><ele>171.25</ele></trkpt>
   <trkpt lat="51.012088" lon="12.019302"><ele>172</ele></trkpt>
   <trkpt lat="51.011346" lon="12.017962"><ele>172.75</ele></trkpt>
   <trkpt lat="51.010331" lon="12.016133"><ele>174.25</ele></trkpt>
   <trkpt lat="51.010315" lon="12.016104"><ele>174.25</ele></trkpt>
   <trkpt lat="51.008434" lon="12.012718"><ele>177.25</ele></trkpt>
   <trkpt lat="51.00795" lon="12.01185"><ele>179.5</ele></trkpt>
   <trkpt lat="51.007279" lon="12.010517"><ele>183.5</ele></trkpt>
   <trkpt lat="51.007059" lon="12.010069"><ele>183.75</ele></trkpt>
   <trkpt lat="51.00693" lon="12.009775"><ele>183</ele></trkpt>
   <trkpt lat="51.006833" lon="12.009512"><ele>182.25</ele></trkpt>
   <trkpt lat="51.006737" lon="12.009222"><ele>180.75</ele></trkpt>
   <trkpt lat="51.006653" lon="12.008937"><ele>179.5</ele></trkpt>
   <trkpt lat="51.006489" lon="12.008312"><ele>177.25</ele></trkpt>
   <trkpt lat="51.006423" lon="12.00803"><ele>175.75</ele></trkpt>
   <trkpt lat="51.00624" lon="12.007179"><ele>171.25</ele></trkpt>
   <trkpt lat="51.006155" lon="12.006758"><ele>169</ele></trkpt>
   <trkpt lat="51.006134" lon="12.006659"><ele>168.5</ele></trkpt>
   <trkpt lat="51.006105" lon="12.006518"><ele>168</ele></trkpt>
   <trkpt lat="51.006097" lon="12.006477"><ele>168</ele></trkpt>
   <trkpt lat="51.00603" lon="12.006154"><ele>167.5</ele></trkpt>
   <trkpt lat="51.005909" lon="12.005576"><ele>167</ele></trkpt>
   <trkpt lat="51.005898" lon="12.005521"><ele>167</ele></trkpt>
   <trkpt lat="51.004993" lon="12.001201"><ele>164.75</ele></trkpt>
   <trkpt lat="51.004337" lon="11.997984"><ele>165</ele></trkpt>
   <trkpt lat="51.004106" lon="11.997004"><ele>165</ele></trkpt>
   <trkpt lat="51.003944" lon="11.996418"><ele>165.25</ele></trkpt>
   <trkpt lat="51.003811" lon="11.995984"><ele>165.75</ele></trkpt>
   <trkpt lat="51.003595" lon="11.995373"><ele>166.25</ele></trkpt>
   <trkpt lat="51.003369" lon="11.99483"><ele>167</ele></trkpt>
   <trkpt lat="51.003204" lon="11.99447"><ele>167.5</ele></trkpt>
   <trkpt lat="51.003036" lon="11.994139"><ele>167.5</ele></trkpt>
   <trkpt lat="51.002887" lon="11.993865"><ele>167.25</ele></trkpt>
   <trkpt lat="51.002805" lon="11.993716"><ele>167.25</ele></trkpt>
   <trkpt lat="51.002772" lon="11.993664"><ele>167.25</ele></trkpt>
   <trkpt lat="51.002709" lon="11.993567"><ele>167.25</ele></trkpt>
   <trkpt lat="51.002531" lon="11.993284"><ele>167</ele></trkpt>
   <trkpt lat="51.00223" lon="11.992862"><ele>166.25</ele></trkpt>
   <trkpt lat="51.001919" lon="11.992475"><ele>165.5</ele></trkpt>
   <trkpt lat="51.001695" lon="11.992221"><ele>165</ele></trkpt>
   <trkpt lat="51.000933" lon="11.99143"><ele>165.75</ele></trkpt>
   <trkpt lat="50.999268" lon="11.989782"><ele>165.5</ele></trkpt>
   <trkpt lat="50.998977" lon="11.989531"><ele>165.75</ele></trkpt>
   <trkpt lat="50.998705" lon="11.989318"><ele>165.5</ele></trkpt>
   <trkpt lat="50.998416" lon="11.98912"><ele>165</ele></trkpt>
   <trkpt lat="50.998061" lon="11.988912"><ele>165.25</ele></trkpt>
   <trkpt lat="50.997676" lon="11.988733"><ele>166</ele></trkpt>
   <trkpt lat="50.997458" lon="11.988642"><ele>166.5</ele></trkpt>
   <trkpt lat="50.997161" lon="11.988543"><ele>166.25</ele></trkpt>
   <trkpt lat="50.996554" lon="11.98839"><ele>166</ele></trkpt>
   <trkpt lat="50.995838" lon="11.988241"><ele>166.75</ele></trkpt>
   <trkpt lat="50.995427" lon="11.988186"><ele>167</ele></trkpt>
   <trkpt lat="50.995113" lon="11.988165"><ele>167</ele></trkpt>
   <trkpt lat="50.994786" lon="11.988174"><ele>167</ele></trkpt>
   <trkpt lat="50.994432" lon="11.988207"><ele>167</ele></trkpt>
   <trkpt lat="50.994264" lon="11.988233"><ele>166.75</ele></trkpt>
   <trkpt lat="50.994083" lon="11.98827"><ele>167</ele></trkpt>
   <trkpt lat="50.993742" lon="11.988361"><ele>166.75</ele></trkpt>
   <trkpt lat="50.993282" lon="11.988526"><ele>166.75</ele></trkpt>
   <trkpt lat="50.992671" lon="11.988775"><ele>168</ele></trkpt>
   <trkpt lat="50.991216" lon="11.989371"><ele>167</ele></trkpt>
   <trkpt lat="50.989425" lon="11.990106"><ele>166.25</ele></trkpt>
   <trkpt lat="50.989" lon="11.990265"><ele>166</ele></trkpt>
   <trkpt lat="50.988647" lon="11.990376"><ele>166.5</ele></trkpt>
   <trkpt lat="50.988462" lon="11.99042"><ele>166.75</ele></trkpt>
   <trkpt lat="50.988123" lon="11.990484"><ele>167</ele></trkpt>
   <trkpt lat="50.987659" lon="11.990522"><ele>167</ele></trkpt>
   <trkpt lat="50.987341" lon="11.990518"><ele>167</ele></trkpt>
   <trkpt lat="50.987013" lon="11.990489"><ele>167.5</ele></trkpt>
   <trkpt lat="50.986581" lon="11.990418"><ele>167.75</ele></trkpt>
   <trkpt lat="50.985506" lon="11.990184"><ele>167.75</ele></trkpt>
   <trkpt lat="50.985002" lon="11.990044"><ele>167.75</ele></trkpt>
   <trkpt lat="50.984595" lon="11.989889"><ele>168</ele></trkpt>
   <trkpt lat="50.984335" lon="11.989766"><ele>168.25</ele></trkpt>
   <trkpt lat="50.984079" lon="11.989625"><ele>168.25</ele></trkpt>
   <trkpt lat="50.983819" lon="11.989462"><ele>168.5</ele></trkpt>
   <trkpt lat="50.983554" lon="11.989275"><ele>168.75</ele></trkpt>
   <trkpt lat="50.983269" lon="11.98905"><ele>169</ele></trkpt>
   <trkpt lat="50.982932" lon="11.988748"><ele>169</ele></trkpt>
   <trkpt lat="50.982698" lon="11.988513"><ele>169</ele></trkpt>
   <trkpt lat="50.982438" lon="11.988224"><ele>168.75</ele></trkpt>
   <trkpt lat="50.982144" lon="11.987866"><ele>168.25</ele></trkpt>
   <trkpt lat="50.981831" lon="11.987468"><ele>168</ele></trkpt>
   <trkpt lat="50.981742" lon="11.987353"><ele>168</ele></trkpt>
   <trkpt lat="50.979816" lon="11.984894"><ele>169.75</ele></trkpt>
   <trkpt lat="50.979488" lon="11.984468"><ele>169.25</ele></trkpt>
   <trkpt lat="50.979002" lon="11.983879"><ele>168.5</ele></trkpt>
   <trkpt lat="50.978872" lon="11.983731"><ele>168.25</ele></trkpt>
   <trkpt lat="50.978713" lon="11.983562"><ele>168</ele></trkpt>
   <trkpt lat="50.978486" lon="11.983339"><ele>168</ele></trkpt>
   <trkpt lat="50.978236" lon="11.983116"><ele>168.25</ele></trkpt>
   <trkpt lat="50.977943" lon="11.982883"><ele>169</ele></trkpt>
   <trkpt lat="50.977687" lon="11.982703"><ele>169.5</ele></trkpt>
   <trkpt lat="50.977419" lon="11.982537"><ele>169.75</ele></trkpt>
   <trkpt lat="50.977107" lon="11.982368"><ele>169.5</ele></trkpt>
   <trkpt lat="50.976935" lon="11.982288"><ele>169.5</ele></trkpt>
   <trkpt lat="50.976571" lon="11.98214"><ele>169.5</ele></trkpt>
   <trkpt lat="50.976335" lon="11.982059"><ele>170</ele></trkpt>
   <trkpt lat="50.975951" lon="11.981969"><ele>170.75</ele></trkpt>
   <trkpt lat="50.975757" lon="11.981935"><ele>170.75</ele></trkpt>
   <trkpt lat="50.975503" lon="11.981908"><ele>170.5</ele></trkpt>
   <trkpt lat="50.975319" lon="11.981891"><ele>170.25</ele></trkpt>
   <trkpt lat="50.974631" lon="11.981891"><ele>170.25</ele></trkpt>
   <trkpt lat="50.973274" lon="11.981991"><ele>171.5</ele></trkpt>
   <trkpt lat="50.972368" lon="11.982062"><ele>171.25</ele></trkpt>
   <trkpt lat="50.97182" lon="11.982152"><ele>170.5</ele></trkpt>
   <trkpt lat="50.971429" lon="11.982237"><ele>170.5</ele></trkpt>
   <trkpt lat="50.970952" lon="11.982353"><ele>170.75</ele></trkpt>
   <trkpt lat="50.970055" lon="11.982609"><ele>170</ele></trkpt>
   <trkpt lat="50.969695" lon="11.982711"><ele>170.25</ele></trkpt>
   <trkpt lat="50.969236" lon="11.982854"><ele>170.25</ele></trkpt>
   <trkpt lat="50.968709" lon="11.983016"><ele>171.5</ele></trkpt>
   <trkpt lat="50.967925" lon="11.98328"><ele>172.75</ele></trkpt>
   <trkpt lat="50.966193" lon="11.983909"><ele>172.5</ele></trkpt>
   <trkpt lat="50.965725" lon="11.984083"><ele>173</ele></trkpt>
   <trkpt lat="50.964753" lon="11.984413"><ele>173.25</ele></trkpt>
   <trkpt lat="50.96391" lon="11.984687"><ele>175</ele></trkpt>
   <trkpt lat="50.963408" lon="11.984849"><ele>175</ele></trkpt>
   <trkpt lat="50.962062" lon="11.985286"><ele>177.25</ele></trkpt>
   <trkpt lat="50.961052" lon="11.985629"><ele>178</ele></trkpt>
   <trkpt lat="50.960368" lon="11.985897"><ele>177.75</ele></trkpt>
   <trkpt lat="50.95863" lon="11.986625"><ele>173.5</ele></trkpt>
   <trkpt lat="50.954863" lon="11.988061"><ele>173.75</ele></trkpt>
   <trkpt lat="50.954333" lon="11.988261"><ele>174.5</ele></trkpt>
   <trkpt lat="50.95425" lon="11.988294"><ele>174.75</ele></trkpt>
   <trkpt lat="50.954212" lon="11.988308"><ele>174.75</ele></trkpt>
   <trkpt lat="50.949182" lon="11.990223"><ele>174.75</ele></trkpt>
   <trkpt lat="50.948593" lon="11.990449"><ele>175</ele></trkpt>
   <trkpt lat="50.947611" lon="11.99086"><ele>174.75</ele></trkpt>
   <trkpt lat="50.946805" lon="11.991241"><ele>175.25</ele></trkpt>
   <trkpt lat="50.946097" lon="11.991628"><ele>174.25</ele></trkpt>
   <trkpt lat="50.945546" lon="11.991967"><ele>174.5</ele></trkpt>
   <trkpt lat="50.945116" lon="11.992263"><ele>175.5</ele></trkpt>
   <trkpt lat="50.945018" lon="11.992326"><ele>175.75</ele></trkpt>
   <trkpt lat="50.944721" lon="11.992589"><ele>176.5</ele></trkpt>
   <trkpt lat="50.944363" lon="11.992924"><ele>177</ele></trkpt>
   <trkpt lat="50.944136" lon="11.99316"><ele>177</ele></trkpt>
   <trkpt lat="50.943887" lon="11.993438"><ele>176.5</ele></trkpt>
   <trkpt lat="50.943622" lon="11.993761"><ele>176</ele></trkpt>
   <trkpt lat="50.943327" lon="11.994157"><ele>176</ele></trkpt>
   <trkpt lat="50.942986" lon="11.994673"><ele>176</ele></trkpt>
   <trkpt lat="50.942739" lon="11.995086"><ele>176.25</ele></trkpt>
   <trkpt lat="50.942518" lon="11.99549"><ele>176.25</ele></trkpt>
   <trkpt lat="50.942371" lon="11.995786"><ele>176.25</ele></trkpt>
   <trkpt lat="50.942236" lon="11.996071"><ele>176.25</ele></trkpt>
   <trkpt lat="50.942095" lon="11.99639"><ele>175.75</ele></trkpt>
   <trkpt lat="50.941822" lon="11.997075"><ele>175.75</ele></trkpt>
   <trkpt lat="50.94163" lon="11.997627"><ele>175.75</ele></trkpt>
   <trkpt lat="50.941519" lon="11.997968"><ele>175.75</ele></trkpt>
   <trkpt lat="50.941011" lon="11.999674"><ele>176</ele></trkpt>
   <trkpt lat="50.938981" lon="12.006567"><ele>175.75</ele></trkpt>
   <trkpt lat="50.937274" lon="12.012363"><ele>177.5</ele></trkpt>
   <trkpt lat="50.937069" lon="12.013057"><ele>177</ele></trkpt>
   <trkpt lat="50.936685" lon="12.014363"><ele>177.25</ele></trkpt>
   <trkpt lat="50.935128" lon="12.019644"><ele>176.75</ele></trkpt>
   <trkpt lat="50.934927" lon="12.020309"><ele>177</ele></trkpt>
   <trkpt lat="50.934705" lon="12.021103"><ele>177.25</ele></trkpt>
   <trkpt lat="50.934252" lon="12.022511"><ele>177.75</ele></trkpt>
   <trkpt lat="50.933751" lon="12.023792"><ele>177.25</ele></trkpt>
   <trkpt lat="50.93356" lon="12.024184"><ele>177.5</ele></trkpt>
   <trkpt lat="50.933381" lon="12.024533"><ele>177.5</ele></trkpt>
   <trkpt lat="50.932055" lon="12.027391"><ele>179.25</ele></trkpt>
   <trkpt lat="50.931571" lon="12.028416"><ele>180.5</ele></trkpt>
   <trkpt lat="50.930131" lon="12.031453"><ele>180.5</ele></trkpt>
   <trkpt lat="50.929659" lon="12.032424"><ele>182.5</ele></trkpt>
   <trkpt lat="50.929359" lon="12.032979"><ele>181.75</ele></trkpt>
   <trkpt lat="50.929003" lon="12.033548"><ele>181</ele></trkpt>
   <trkpt lat="50.928799" lon="12.033833"><ele>181.75</ele></trkpt>
   <trkpt lat="50.928549" lon="12.034157"><ele>182.5</ele></trkpt>
   <trkpt lat="50.928168" lon="12.034603"><ele>183.25</ele></trkpt>
   <trkpt lat="50.927254" lon="12.035623"><ele>184.25</ele></trkpt>
   <trkpt lat="50.927071" lon="12.035838"><ele>184.25</ele></trkpt>
   <trkpt lat="50.926794" lon="12.036216"><ele>184.5</ele></trkpt>
   <trkpt lat="50.926459" lon="12.036587"><ele>184</ele></trkpt>
   <trkpt lat="50.924633" lon="12.038621"><ele>181</ele></trkpt>
   <trkpt lat="50.919888" lon="12.043918"><ele>182.5</ele></trkpt>
   <trkpt lat="50.917568" lon="12.046527"><ele>182.75</ele></trkpt>
   <trkpt lat="50.917362" lon="12.046751"><ele>183</ele></trkpt>
   <trkpt lat="50.912871" lon="12.051785"><ele>184.25</ele></trkpt>
   <trkpt lat="50.912116" lon="12.052635"><ele>183.5</ele></trkpt>
   <trkpt lat="50.911976" lon="12.052791"><ele>183.5</ele></trkpt>
   <trkpt lat="50.903697" lon="12.062059"><ele>186.5</ele></trkpt>
   <trkpt lat="50.903555" lon="12.062218"><ele>186.25</ele></trkpt>
   <trkpt lat="50.903143" lon="12.062675"><ele>187.75</ele></trkpt>
   <trkpt lat="50.902698" lon="12.063171"><ele>187.75</ele></trkpt>
   <trkpt lat="50.900977" lon="12.06511"><ele>185.75</ele></trkpt>
   <trkpt lat="50.900929" lon="12.06516"><ele>185.75</ele></trkpt>
   <trkpt lat="50.90013" lon="12.066049"><ele>187.5</ele></trkpt>
   <trkpt lat="50.899798" lon="12.066395"><ele>187.25</ele></trkpt>
   <trkpt lat="50.899642" lon="12.066548"><ele>187.5</ele></trkpt>
   <trkpt lat="50.899103" lon="12.067038"><ele>187.75</ele></trkpt>
   <trkpt lat="50.898834" lon="12.067272"><ele>187.25</ele></trkpt>
   <trkpt lat="50.898542" lon="12.067534"><ele>187.25</ele></trkpt>
   <trkpt lat="50.898234" lon="12.067837"><ele>187.75</ele></trkpt>
   <trkpt lat="50.898009" lon="12.068078"><ele>188.5</ele></trkpt>
   <trkpt lat="50.897697" lon="12.068425"><ele>189</ele></trkpt>
   <trkpt lat="50.896695" lon="12.069559"><ele>188.75</ele></trkpt>
   <trkpt lat="50.896545" lon="12.069729"><ele>189.25</ele></trkpt>
   <trkpt lat="50.89427" lon="12.072298"><ele>189.5</ele></trkpt>
   <trkpt lat="50.89396" lon="12.072626"><ele>189.75</ele></trkpt>
   <trkpt lat="50.893453" lon="12.073123"><ele>189.75</ele></trkpt>
   <trkpt lat="50.892669" lon="12.073871"><ele>189.25</ele></trkpt>
   <trkpt lat="50.892453" lon="12.074087"><ele>188.75</ele></trkpt>
   <trkpt lat="50.892118" lon="12.074442"><ele>188.75</ele></trkpt>
   <trkpt lat="50.891334" lon="12.075306"><ele>189.75</ele></trkpt>
   <trkpt lat="50.890709" lon="12.07598"><ele>191</ele></trkpt>
   <trkpt lat="50.890606" lon="12.076095"><ele>191</ele></trkpt>
   <trkpt lat="50.890505" lon="12.076203"><ele>191.25</ele></trkpt>
   <trkpt lat="50.890193" lon="12.076547"><ele>191</ele></trkpt>
   <trkpt lat="50.890076" lon="12.076662"><ele>191</ele></trkpt>
   <trkpt lat="50.889786" lon="12.076934"><ele>190.75</ele></trkpt>
   <trkpt lat="50.889525" lon="12.077143"><ele>190.75</ele></trkpt>
   <trkpt lat="50.88929" lon="12.077303"><ele>190.75</ele></trkpt>
   <trkpt lat="50.889205" lon="12.077356"><ele>190.75</ele></trkpt>
   <trkpt lat="50.888766" lon="12.077624"><ele>190.25</ele></trkpt>
   <trkpt lat="50.88865" lon="12.077685"><ele>190.25</ele></trkpt>
   <trkpt lat="50.888339" lon="12.0778"><ele>190</ele></trkpt>
   <trkpt lat="50.888041" lon="12.077861"><ele>190</ele></trkpt>
   <trkpt lat="50.88778" lon="12.077904"><ele>190.25</ele></trkpt>
   <trkpt lat="50.887462" lon="12.077935"><ele>190.25</ele></trkpt>
   <trkpt lat="50.886988" lon="12.077955"><ele>190.5</ele></trkpt>
   <trkpt lat="50.886889" lon="12.077955"><ele>190.5</ele></trkpt>
   <trkpt lat="50.886629" lon="12.077949"><ele>190.5</ele></trkpt>
   <trkpt lat="50.886142" lon="12.077907"><ele>191</ele></trkpt>
   <trkpt lat="50.88583" lon="12.077858"><ele>191.25</ele></trkpt>
   <trkpt lat="50.885385" lon="12.077765"><ele>191</ele></trkpt>
   <trkpt lat="50.885288" lon="12.077743"><ele>191</ele></trkpt>
   <trkpt lat="50.885251" lon="12.077733"><ele>191</ele></trkpt>
   <trkpt lat="50.885224" lon="12.077726"><ele>191</ele></trkpt>
   <trkpt lat="50.88429" lon="12.077497"><ele>191</ele></trkpt>
   <trkpt lat="50.883965" lon="12.07739"><ele>191.25</ele></trkpt>
   <trkpt lat="50.883785" lon="12.077321"><ele>191.75</ele></trkpt>
   <trkpt lat="50.883633" lon="12.077262"><ele>192.25</ele></trkpt>
   <trkpt lat="50.883337" lon="12.077149"><ele>192.75</ele></trkpt>
   <trkpt lat="50.88332" lon="12.077143"><ele>192.75</ele></trkpt>
   <trkpt lat="50.883193" lon="12.077093"><ele>192.75</ele></trkpt>
   <trkpt lat="50.883184" lon="12.07709"><ele>192.75</ele></trkpt>
   <trkpt lat="50.882869" lon="12.076968"><ele>192.5</ele></trkpt>
   <trkpt lat="50.882548" lon="12.076828"><ele>192</ele></trkpt>
  </trkseg>
 </trk>
</gpx>