<?xml version="1.0" encoding="UTF-8"?>
<!-- track-length = 1646 filtered ascend = 2 plain-ascend = 1 cost=1646 energy=0.0kwh time=2m 12s -->
<gpx 
 xmlns="http://www.topografix.com/GPX/1/1" 
 xmlns:xsi="http://www.w3.org/2001/XMLSchema-instance" 
 xsi:schemaLocation="http://www.topografix.com/GPX/1/1 http://www.topografix.com/GPX/1/1/gpx.xsd" 
 version="1.1" 
 creator="BRouter-Web 0.18.1">
 <trk>
  <name>Lichtenberg nach Ostkreuz oben</name>
  <trkseg>
   <trkpt lat="52.505686" lon="13.482489"><ele>39</ele></trkpt>
   <trkpt lat="52.505727" lon="13.482279"><ele>39</ele></trkpt>
   <trkpt lat="52.505807" lon="13.481917"><ele>40.25</ele></trkpt>
   <trkpt lat="52.505893" lon="13.4816"><ele>40</ele></trkpt>
   <trkpt lat="52.506104" lon="13.480894"><ele>40.75</ele></trkpt>
   <trkpt lat="52.506157" lon="13.480715"><ele>40.5</ele></trkpt>
   <trkpt lat="52.506407" lon="13.479888"><ele>40.75</ele></trkpt>
   <trkpt lat="52.506468" lon="13.479679"><ele>40.5</ele></trkpt>
   <trkpt lat="52.506519" lon="13.479505"><ele>39.75</ele></trkpt>
   <trkpt lat="52.506595" lon="13.479251"><ele>39.75</ele></trkpt>
   <trkpt lat="52.506776" lon="13.478642"><ele>38</ele></trkpt>
   <trkpt lat="52.506811" lon="13.478516"><ele>37.5</ele></trkpt>
   <trkpt lat="52.506856" lon="13.478357"><ele>37.5</ele></trkpt>
   <trkpt lat="52.506932" lon="13.478085"><ele>40.5</ele></trkpt>
   <trkpt lat="52.50697" lon="13.477919"><ele>40.25</ele></trkpt>
   <trkpt lat="52.507035" lon="13.477599"><ele>37.75</ele></trkpt>
   <trkpt lat="52.507095" lon="13.477209"><ele>36.5</ele></trkpt>
   <trkpt lat="52.507131" lon="13.476888"><ele>37.25</ele></trkpt>
   <trkpt lat="52.50715" lon="13.476637"><ele>38.5</ele></trkpt>
   <trkpt lat="52.507161" lon="13.476495"><ele>38.75</ele></trkpt>
   <trkpt lat="52.507169" lon="13.47618"><ele>39</ele></trkpt>
   <trkpt lat="52.507169" lon="13.475829"><ele>39</ele></trkpt>
   <trkpt lat="52.507131" lon="13.475221"><ele>37.75</ele></trkpt>
   <trkpt lat="52.507095" lon="13.474896"><ele>37</ele></trkpt>
   <trkpt lat="52.50705" lon="13.474605"><ele>37</ele></trkpt>
   <trkpt lat="52.506986" lon="13.474262"><ele>38.75</ele></trkpt>
   <trkpt lat="52.506919" lon="13.473976"><ele>39.5</ele></trkpt>
   <trkpt lat="52.506792" lon="13.473517"><ele>36.75</ele></trkpt>
   <trkpt lat="52.50676" lon="13.473422"><ele>37</ele></trkpt>
   <trkpt lat="52.506755" lon="13.473408"><ele>37</ele></trkpt>
   <trkpt lat="52.50659" lon="13.472973"><ele>38.5</ele></trkpt>
   <trkpt lat="52.506485" lon="13.47273"><ele>37.75</ele></trkpt>
   <trkpt lat="52.506301" lon="13.472384"><ele>39.5</ele></trkpt>
   <trkpt lat="52.506174" lon="13.472179"><ele>39.25</ele></trkpt>
   <trkpt lat="52.505909" lon="13.471809"><ele>38.75</ele></trkpt>
   <trkpt lat="52.505808" lon="13.47168"><ele>39.5</ele></trkpt>
   <trkpt lat="52.505659" lon="13.4715"><ele>38.75</ele></trkpt>
   <trkpt lat="52.505443" lon="13.471273"><ele>39.25</ele></trkpt>
   <trkpt lat="52.505365" lon="13.471195"><ele>39.5</ele></trkpt>
   <trkpt lat="52.505263" lon="13.471098"><ele>40</ele></trkpt>
   <trkpt lat="52.505205" lon="13.471042"><ele>40</ele></trkpt>
   <trkpt lat="52.504998" lon="13.470861"><ele>40.25</ele></trkpt>
   <trkpt lat="52.504662" lon="13.470613"><ele>40</ele></trkpt>
   <trkpt lat="52.504438" lon="13.47048"><ele>40.25</ele></trkpt>
   <trkpt lat="52.504141" lon="13.470336"><ele>40.5</ele></trkpt>
   <trkpt lat="52.504063" lon="13.470303"><ele>41</ele></trkpt>
   <trkpt lat="52.5039" lon="13.470253"><ele>41.75</ele></trkpt>
   <trkpt lat="52.503722" lon="13.470196"><ele>41.75</ele></trkpt>
   <trkpt lat="52.503356" lon="13.470084"><ele>41.75</ele></trkpt>
   <trkpt lat="52.50328" lon="13.470053"><ele>41.75</ele></trkpt>
   <trkpt lat="52.503101" lon="13.46998"><ele>41.75</ele></trkpt>
   <trkpt lat="52.502686" lon="13.469753"><ele>41.75</ele></trkpt>
   <trkpt lat="52.502499" lon="13.469627"><ele>41.75</ele></trkpt>
   <trkpt lat="52.50224" lon="13.46942"><ele>41.75</ele></trkpt>
   <trkpt lat="52.501876" lon="13.469161"><ele>41.75</ele></trkpt>
   <trkpt lat="52.501568" lon="13.468981"><ele>40.75</ele></trkpt>
   <trkpt lat="52.501297" lon="13.468848"><ele>40.5</ele></trkpt>
   <trkpt lat="52.500652" lon="13.468585"><ele>40.25</ele></trkpt>
   <trkpt lat="52.500199" lon="13.468404"><ele>39.75</ele></trkpt>
   <trkpt lat="52.499096" lon="13.467965"><ele>39</ele></trkpt>
   <trkpt lat="52.498748" lon="13.467799"><ele>39.5</ele></trkpt>
  </trkseg>
 </trk>
</gpx>