<?xml version="1.0" encoding="UTF-8"?>
<!-- track-length = 33515 filtered ascend = 32 plain-ascend = 23 cost=33515 energy=0.4kwh time=44m 41s -->
<gpx 
 xmlns="http://www.topografix.com/GPX/1/1" 
 xmlns:xsi="http://www.w3.org/2001/XMLSchema-instance" 
 xsi:schemaLocation="http://www.topografix.com/GPX/1/1 http://www.topografix.com/GPX/1/1/gpx.xsd" 
 version="1.1" 
 creator="BRouter-Web 0.18.1">
 <trk>
  <name>Mainz-Kastel - Frankfurt</name>
  <trkseg>
   <trkpt lat="50.008501" lon="8.281102"><ele>89.25</ele></trkpt>
   <trkpt lat="50.008281" lon="8.281242"><ele>89.5</ele></trkpt>
   <trkpt lat="50.008253" lon="8.281259"><ele>89.5</ele></trkpt>
   <trkpt lat="50.008241" lon="8.281268"><ele>89.5</ele></trkpt>
   <trkpt lat="50.008013" lon="8.281439"><ele>88.75</ele></trkpt>
   <trkpt lat="50.007774" lon="8.281646"><ele>88.25</ele></trkpt>
   <trkpt lat="50.007418" lon="8.282017"><ele>87</ele></trkpt>
   <trkpt lat="50.007245" lon="8.282224"><ele>87</ele></trkpt>
   <trkpt lat="50.007181" lon="8.282304"><ele>87</ele></trkpt>
   <trkpt lat="50.007054" lon="8.282486"><ele>87</ele></trkpt>
   <trkpt lat="50.006807" lon="8.28286"><ele>86.5</ele></trkpt>
   <trkpt lat="50.006689" lon="8.283054"><ele>86.25</ele></trkpt>
   <trkpt lat="50.006483" lon="8.2834"><ele>86.25</ele></trkpt>
   <trkpt lat="50.006403" lon="8.283538"><ele>86.25</ele></trkpt>
   <trkpt lat="50.006323" lon="8.283679"><ele>86.5</ele></trkpt>
   <trkpt lat="50.006291" lon="8.283736"><ele>86.5</ele></trkpt>
   <trkpt lat="50.005387" lon="8.285282"><ele>88</ele></trkpt>
   <trkpt lat="50.0048" lon="8.286377"><ele>87.75</ele></trkpt>
   <trkpt lat="50.004424" lon="8.287203"><ele>87.25</ele></trkpt>
   <trkpt lat="50.004135" lon="8.288047"><ele>86.75</ele></trkpt>
   <trkpt lat="50.004038" lon="8.288357"><ele>86.75</ele></trkpt>
   <trkpt lat="50.003855" lon="8.289103"><ele>87.5</ele></trkpt>
   <trkpt lat="50.003691" lon="8.289924"><ele>88.25</ele></trkpt>
   <trkpt lat="50.003571" lon="8.290782"><ele>88.25</ele></trkpt>
   <trkpt lat="50.003535" lon="8.291236"><ele>88.5</ele></trkpt>
   <trkpt lat="50.003509" lon="8.291723"><ele>89</ele></trkpt>
   <trkpt lat="50.003497" lon="8.29242"><ele>89</ele></trkpt>
   <trkpt lat="50.003498" lon="8.29284"><ele>88.5</ele></trkpt>
   <trkpt lat="50.003508" lon="8.293283"><ele>88.25</ele></trkpt>
   <trkpt lat="50.003572" lon="8.29431"><ele>88.25</ele></trkpt>
   <trkpt lat="50.003719" lon="8.295647"><ele>89</ele></trkpt>
   <trkpt lat="50.003814" lon="8.296393"><ele>89</ele></trkpt>
   <trkpt lat="50.005579" lon="8.310781"><ele>88.5</ele></trkpt>
   <trkpt lat="50.005927" lon="8.313601"><ele>88.5</ele></trkpt>
   <trkpt lat="50.006029" lon="8.31452"><ele>89.5</ele></trkpt>
   <trkpt lat="50.006077" lon="8.315007"><ele>90</ele></trkpt>
   <trkpt lat="50.006124" lon="8.315624"><ele>90</ele></trkpt>
   <trkpt lat="50.006166" lon="8.316597"><ele>89.75</ele></trkpt>
   <trkpt lat="50.006189" lon="8.317334"><ele>90</ele></trkpt>
   <trkpt lat="50.006265" lon="8.320137"><ele>90.5</ele></trkpt>
   <trkpt lat="50.006285" lon="8.320918"><ele>90.5</ele></trkpt>
   <trkpt lat="50.006366" lon="8.32389"><ele>89.75</ele></trkpt>
   <trkpt lat="50.006371" lon="8.324575"><ele>89</ele></trkpt>
   <trkpt lat="50.006376" lon="8.325055"><ele>88.5</ele></trkpt>
   <trkpt lat="50.006373" lon="8.325531"><ele>88.5</ele></trkpt>
   <trkpt lat="50.006359" lon="8.326051"><ele>88.5</ele></trkpt>
   <trkpt lat="50.006315" lon="8.327019"><ele>87.75</ele></trkpt>
   <trkpt lat="50.006283" lon="8.327481"><ele>87.5</ele></trkpt>
   <trkpt lat="50.006224" lon="8.328194"><ele>86</ele></trkpt>
   <trkpt lat="50.006209" lon="8.328364"><ele>86</ele></trkpt>
   <trkpt lat="50.005591" lon="8.335514"><ele>87.25</ele></trkpt>
   <trkpt lat="50.005263" lon="8.339277"><ele>85.75</ele></trkpt>
   <trkpt lat="50.00521" lon="8.339899"><ele>85.25</ele></trkpt>
   <trkpt lat="50.005131" lon="8.340792"><ele>85.5</ele></trkpt>
   <trkpt lat="50.005003" lon="8.342234"><ele>86.25</ele></trkpt>
   <trkpt lat="50.005" lon="8.342268"><ele>86.25</ele></trkpt>
   <trkpt lat="50.004824" lon="8.344329"><ele>88.5</ele></trkpt>
   <trkpt lat="50.004785" lon="8.344865"><ele>88.25</ele></trkpt>
   <trkpt lat="50.004563" lon="8.347378"><ele>88.25</ele></trkpt>
   <trkpt lat="50.00455" lon="8.347535"><ele>88.5</ele></trkpt>
   <trkpt lat="50.004419" lon="8.349071"><ele>89</ele></trkpt>
   <trkpt lat="50.004407" lon="8.349209"><ele>89.25</ele></trkpt>
   <trkpt lat="50.004357" lon="8.349759"><ele>89.75</ele></trkpt>
   <trkpt lat="50.004317" lon="8.35025"><ele>90.25</ele></trkpt>
   <trkpt lat="50.004223" lon="8.351293"><ele>91.5</ele></trkpt>
   <trkpt lat="50.004091" lon="8.353051"><ele>90</ele></trkpt>
   <trkpt lat="50.004041" lon="8.35389"><ele>89.75</ele></trkpt>
   <trkpt lat="50.00399" lon="8.35473"><ele>90.25</ele></trkpt>
   <trkpt lat="50.003988" lon="8.354769"><ele>90.25</ele></trkpt>
   <trkpt lat="50.003987" lon="8.354782"><ele>90.25</ele></trkpt>
   <trkpt lat="50.003916" lon="8.356428"><ele>90.25</ele></trkpt>
   <trkpt lat="50.003842" lon="8.358452"><ele>93.25</ele></trkpt>
   <trkpt lat="50.003841" lon="8.358475"><ele>93.25</ele></trkpt>
   <trkpt lat="50.003689" lon="8.3658"><ele>92.75</ele></trkpt>
   <trkpt lat="50.003599" lon="8.370131"><ele>91.75</ele></trkpt>
   <trkpt lat="50.00355" lon="8.371264"><ele>92.75</ele></trkpt>
   <trkpt lat="50.003499" lon="8.372026"><ele>93</ele></trkpt>
   <trkpt lat="50.003441" lon="8.372727"><ele>92.5</ele></trkpt>
   <trkpt lat="50.003365" lon="8.37348"><ele>92.5</ele></trkpt>
   <trkpt lat="50.003241" lon="8.374498"><ele>92.5</ele></trkpt>
   <trkpt lat="50.003137" lon="8.375218"><ele>92.25</ele></trkpt>
   <trkpt lat="50.003034" lon="8.375857"><ele>92</ele></trkpt>
   <trkpt lat="50.002923" lon="8.376484"><ele>91.75</ele></trkpt>
   <trkpt lat="50.002656" lon="8.37781"><ele>92</ele></trkpt>
   <trkpt lat="50.001762" lon="8.381867"><ele>93.5</ele></trkpt>
   <trkpt lat="50.001645" lon="8.382401"><ele>93.5</ele></trkpt>
   <trkpt lat="50.001525" lon="8.38299"><ele>94</ele></trkpt>
   <trkpt lat="50.001407" lon="8.383612"><ele>94.25</ele></trkpt>
   <trkpt lat="50.001306" lon="8.384186"><ele>94.25</ele></trkpt>
   <trkpt lat="50.001216" lon="8.384749"><ele>94.25</ele></trkpt>
   <trkpt lat="50.001127" lon="8.385349"><ele>93.75</ele></trkpt>
   <trkpt lat="50.001048" lon="8.385939"><ele>93</ele></trkpt>
   <trkpt lat="50.000974" lon="8.386553"><ele>92.5</ele></trkpt>
   <trkpt lat="50.000912" lon="8.387134"><ele>92.5</ele></trkpt>
   <trkpt lat="50.000856" lon="8.387731"><ele>92.5</ele></trkpt>
   <trkpt lat="50.000803" lon="8.38839"><ele>92.75</ele></trkpt>
   <trkpt lat="50.000755" lon="8.389123"><ele>93.25</ele></trkpt>
   <trkpt lat="50.000719" lon="8.389868"><ele>93.75</ele></trkpt>
   <trkpt lat="50.000693" lon="8.390686"><ele>93.75</ele></trkpt>
   <trkpt lat="50.00068" lon="8.391778"><ele>93.75</ele></trkpt>
   <trkpt lat="50.000697" lon="8.392877"><ele>92.25</ele></trkpt>
   <trkpt lat="50.000722" lon="8.393641"><ele>91.5</ele></trkpt>
   <trkpt lat="50.000756" lon="8.394327"><ele>91.75</ele></trkpt>
   <trkpt lat="50.000812" lon="8.395158"><ele>92.75</ele></trkpt>
   <trkpt lat="50.000877" lon="8.395933"><ele>92</ele></trkpt>
   <trkpt lat="50.000955" lon="8.3967"><ele>91.25</ele></trkpt>
   <trkpt lat="50.001029" lon="8.397329"><ele>91.5</ele></trkpt>
   <trkpt lat="50.001144" lon="8.398183"><ele>91.25</ele></trkpt>
   <trkpt lat="50.001262" lon="8.398948"><ele>91</ele></trkpt>
   <trkpt lat="50.0014" lon="8.399744"><ele>90.5</ele></trkpt>
   <trkpt lat="50.001559" lon="8.400578"><ele>90</ele></trkpt>
   <trkpt lat="50.001686" lon="8.401207"><ele>89.5</ele></trkpt>
   <trkpt lat="50.001917" lon="8.402276"><ele>89</ele></trkpt>
   <trkpt lat="50.001989" lon="8.402597"><ele>88.75</ele></trkpt>
   <trkpt lat="50.002245" lon="8.403668"><ele>86.75</ele></trkpt>
   <trkpt lat="50.002476" lon="8.404578"><ele>87.5</ele></trkpt>
   <trkpt lat="50.002708" lon="8.405443"><ele>88.75</ele></trkpt>
   <trkpt lat="50.003014" lon="8.406526"><ele>89.25</ele></trkpt>
   <trkpt lat="50.003264" lon="8.40737"><ele>89.75</ele></trkpt>
   <trkpt lat="50.003466" lon="8.408017"><ele>90.25</ele></trkpt>
   <trkpt lat="50.003769" lon="8.408939"><ele>90</ele></trkpt>
   <trkpt lat="50.003956" lon="8.40948"><ele>89.75</ele></trkpt>
   <trkpt lat="50.004336" lon="8.410552"><ele>89.5</ele></trkpt>
   <trkpt lat="50.004719" lon="8.411574"><ele>89.5</ele></trkpt>
   <trkpt lat="50.005202" lon="8.4128"><ele>89.5</ele></trkpt>
   <trkpt lat="50.005272" lon="8.412975"><ele>89.75</ele></trkpt>
   <trkpt lat="50.005713" lon="8.414018"><ele>90.75</ele></trkpt>
   <trkpt lat="50.006163" lon="8.415034"><ele>90.75</ele></trkpt>
   <trkpt lat="50.006471" lon="8.415706"><ele>90.25</ele></trkpt>
   <trkpt lat="50.006786" lon="8.416359"><ele>91</ele></trkpt>
   <trkpt lat="50.007118" lon="8.417032"><ele>91.5</ele></trkpt>
   <trkpt lat="50.007579" lon="8.417927"><ele>92.75</ele></trkpt>
   <trkpt lat="50.007993" lon="8.418696"><ele>92</ele></trkpt>
   <trkpt lat="50.008869" lon="8.420232"><ele>92.5</ele></trkpt>
   <trkpt lat="50.009034" lon="8.420514"><ele>93.25</ele></trkpt>
   <trkpt lat="50.009503" lon="8.421279"><ele>94.5</ele></trkpt>
   <trkpt lat="50.009756" lon="8.421676"><ele>94.25</ele></trkpt>
   <trkpt lat="50.009948" lon="8.421977"><ele>94.25</ele></trkpt>
   <trkpt lat="50.010624" lon="8.422987"><ele>95.25</ele></trkpt>
   <trkpt lat="50.010972" lon="8.423481"><ele>94.75</ele></trkpt>
   <trkpt lat="50.011267" lon="8.423919"><ele>94.25</ele></trkpt>
   <trkpt lat="50.012295" lon="8.425232"><ele>92.75</ele></trkpt>
   <trkpt lat="50.012744" lon="8.425813"><ele>94.25</ele></trkpt>
   <trkpt lat="50.01356" lon="8.42681"><ele>94.25</ele></trkpt>
   <trkpt lat="50.016175" lon="8.429811"><ele>93.75</ele></trkpt>
   <trkpt lat="50.017135" lon="8.430927"><ele>94.5</ele></trkpt>
   <trkpt lat="50.017858" lon="8.431752"><ele>93.5</ele></trkpt>
   <trkpt lat="50.018199" lon="8.432158"><ele>93.25</ele></trkpt>
   <trkpt lat="50.020585" lon="8.434929"><ele>92.25</ele></trkpt>
   <trkpt lat="50.020659" lon="8.435015"><ele>92</ele></trkpt>
   <trkpt lat="50.020962" lon="8.43534"><ele>92.25</ele></trkpt>
   <trkpt lat="50.021283" lon="8.435709"><ele>92.75</ele></trkpt>
   <trkpt lat="50.021622" lon="8.436173"><ele>93.25</ele></trkpt>
   <trkpt lat="50.02752" lon="8.442965"><ele>89.25</ele></trkpt>
   <trkpt lat="50.032186" lon="8.448346"><ele>92</ele></trkpt>
   <trkpt lat="50.039196" lon="8.456442"><ele>91.5</ele></trkpt>
   <trkpt lat="50.039406" lon="8.456688"><ele>92</ele></trkpt>
   <trkpt lat="50.039484" lon="8.456775"><ele>92.25</ele></trkpt>
   <trkpt lat="50.049543" lon="8.46841"><ele>95.75</ele></trkpt>
   <trkpt lat="50.052088" lon="8.471335"><ele>95</ele></trkpt>
   <trkpt lat="50.055741" lon="8.475561"><ele>96.25</ele></trkpt>
   <trkpt lat="50.060458" lon="8.481018"><ele>100</ele></trkpt>
   <trkpt lat="50.061815" lon="8.482594"><ele>96.75</ele></trkpt>
   <trkpt lat="50.062255" lon="8.483106"><ele>96.75</ele></trkpt>
   <trkpt lat="50.062585" lon="8.483439"><ele>97</ele></trkpt>
   <trkpt lat="50.062913" lon="8.483786"><ele>97.25</ele></trkpt>
   <trkpt lat="50.063136" lon="8.484041"><ele>97.75</ele></trkpt>
   <trkpt lat="50.063756" lon="8.484678"><ele>98.5</ele></trkpt>
   <trkpt lat="50.063856" lon="8.484794"><ele>98.75</ele></trkpt>
   <trkpt lat="50.064464" lon="8.485499"><ele>99</ele></trkpt>
   <trkpt lat="50.065618" lon="8.48686"><ele>100</ele></trkpt>
   <trkpt lat="50.067465" lon="8.48901"><ele>102</ele></trkpt>
   <trkpt lat="50.0679" lon="8.489505"><ele>101.75</ele></trkpt>
   <trkpt lat="50.068261" lon="8.489921"><ele>101.75</ele></trkpt>
   <trkpt lat="50.068809" lon="8.490621"><ele>101</ele></trkpt>
   <trkpt lat="50.068815" lon="8.490627"><ele>101</ele></trkpt>
   <trkpt lat="50.068875" lon="8.490695"><ele>101</ele></trkpt>
   <trkpt lat="50.068923" lon="8.490748"><ele>100.75</ele></trkpt>
   <trkpt lat="50.068935" lon="8.490761"><ele>101</ele></trkpt>
   <trkpt lat="50.072001" lon="8.494285"><ele>102.25</ele></trkpt>
   <trkpt lat="50.075014" lon="8.497804"><ele>96.5</ele></trkpt>
   <trkpt lat="50.078371" lon="8.501649"><ele>94.75</ele></trkpt>
   <trkpt lat="50.078786" lon="8.502127"><ele>94.5</ele></trkpt>
   <trkpt lat="50.079946" lon="8.503472"><ele>95.75</ele></trkpt>
   <trkpt lat="50.0835" lon="8.507592"><ele>95.75</ele></trkpt>
   <trkpt lat="50.086257" lon="8.510784"><ele>98.5</ele></trkpt>
   <trkpt lat="50.087106" lon="8.511755"><ele>98.75</ele></trkpt>
   <trkpt lat="50.087442" lon="8.512158"><ele>99.25</ele></trkpt>
   <trkpt lat="50.087597" lon="8.512335"><ele>99.25</ele></trkpt>
   <trkpt lat="50.087621" lon="8.512363"><ele>99.25</ele></trkpt>
   <trkpt lat="50.088081" lon="8.512891"><ele>99</ele></trkpt>
   <trkpt lat="50.089223" lon="8.514213"><ele>98.75</ele></trkpt>
   <trkpt lat="50.09174" lon="8.51712"><ele>96</ele></trkpt>
   <trkpt lat="50.092183" lon="8.517607"><ele>97</ele></trkpt>
   <trkpt lat="50.092556" lon="8.517982"><ele>97.5</ele></trkpt>
   <trkpt lat="50.09314" lon="8.518513"><ele>99</ele></trkpt>
   <trkpt lat="50.093546" lon="8.518883"><ele>99.25</ele></trkpt>
   <trkpt lat="50.09405" lon="8.519369"><ele>100</ele></trkpt>
   <trkpt lat="50.094325" lon="8.519672"><ele>99.75</ele></trkpt>
   <trkpt lat="50.09466" lon="8.520108"><ele>98.5</ele></trkpt>
   <trkpt lat="50.09489" lon="8.520458"><ele>97.25</ele></trkpt>
   <trkpt lat="50.095062" lon="8.520753"><ele>97</ele></trkpt>
   <trkpt lat="50.095394" lon="8.521398"><ele>97.75</ele></trkpt>
   <trkpt lat="50.095627" lon="8.521868"><ele>98</ele></trkpt>
   <trkpt lat="50.095953" lon="8.522548"><ele>98.25</ele></trkpt>
   <trkpt lat="50.096023" lon="8.52269"><ele>98.75</ele></trkpt>
   <trkpt lat="50.096065" lon="8.522776"><ele>99</ele></trkpt>
   <trkpt lat="50.096338" lon="8.523339"><ele>100</ele></trkpt>
   <trkpt lat="50.096874" lon="8.524453"><ele>100.5</ele></trkpt>
   <trkpt lat="50.096935" lon="8.524579"><ele>100.5</ele></trkpt>
   <trkpt lat="50.09792" lon="8.526616"><ele>100.5</ele></trkpt>
   <trkpt lat="50.097932" lon="8.526642"><ele>100.5</ele></trkpt>
   <trkpt lat="50.097975" lon="8.526734"><ele>100.5</ele></trkpt>
   <trkpt lat="50.098023" lon="8.526836"><ele>100.5</ele></trkpt>
   <trkpt lat="50.098421" lon="8.527707"><ele>100.75</ele></trkpt>
   <trkpt lat="50.09871" lon="8.528386"><ele>100.25</ele></trkpt>
   <trkpt lat="50.098998" lon="8.529107"><ele>100.75</ele></trkpt>
   <trkpt lat="50.099044" lon="8.529235"><ele>100.75</ele></trkpt>
   <trkpt lat="50.10078" lon="8.53401"><ele>98.75</ele></trkpt>
   <trkpt lat="50.101428" lon="8.53582"><ele>102.25</ele></trkpt>
   <trkpt lat="50.101583" lon="8.536286"><ele>102.75</ele></trkpt>
   <trkpt lat="50.101774" lon="8.536918"><ele>103</ele></trkpt>
   <trkpt lat="50.101848" lon="8.537195"><ele>103</ele></trkpt>
   <trkpt lat="50.102117" lon="8.538258"><ele>103</ele></trkpt>
   <trkpt lat="50.102183" lon="8.538565"><ele>103.25</ele></trkpt>
   <trkpt lat="50.102321" lon="8.539253"><ele>103.75</ele></trkpt>
   <trkpt lat="50.102432" lon="8.539934"><ele>104.75</ele></trkpt>
   <trkpt lat="50.102564" lon="8.540859"><ele>104</ele></trkpt>
   <trkpt lat="50.102718" lon="8.542166"><ele>103.5</ele></trkpt>
   <trkpt lat="50.102969" lon="8.544298"><ele>104.5</ele></trkpt>
   <trkpt lat="50.103025" lon="8.54477"><ele>104.5</ele></trkpt>
   <trkpt lat="50.10306" lon="8.545103"><ele>104.5</ele></trkpt>
   <trkpt lat="50.103122" lon="8.545822"><ele>104.5</ele></trkpt>
   <trkpt lat="50.103129" lon="8.545946"><ele>104.75</ele></trkpt>
   <trkpt lat="50.103188" lon="8.546938"><ele>104.75</ele></trkpt>
   <trkpt lat="50.103192" lon="8.547005"><ele>104.75</ele></trkpt>
   <trkpt lat="50.103227" lon="8.547686"><ele>105</ele></trkpt>
   <trkpt lat="50.10326" lon="8.548294"><ele>105</ele></trkpt>
   <trkpt lat="50.103316" lon="8.549301"><ele>103.75</ele></trkpt>
   <trkpt lat="50.103317" lon="8.549319"><ele>103.75</ele></trkpt>
   <trkpt lat="50.103318" lon="8.549336"><ele>103.75</ele></trkpt>
   <trkpt lat="50.103322" lon="8.549412"><ele>103.5</ele></trkpt>
   <trkpt lat="50.103344" lon="8.549818"><ele>103</ele></trkpt>
   <trkpt lat="50.103351" lon="8.549953"><ele>103</ele></trkpt>
   <trkpt lat="50.103353" lon="8.549982"><ele>102.75</ele></trkpt>
   <trkpt lat="50.10336" lon="8.55078"><ele>102.75</ele></trkpt>
   <trkpt lat="50.103375" lon="8.550995"><ele>102.5</ele></trkpt>
   <trkpt lat="50.103445" lon="8.552286"><ele>101</ele></trkpt>
   <trkpt lat="50.103472" lon="8.552782"><ele>100.5</ele></trkpt>
   <trkpt lat="50.103549" lon="8.553975"><ele>99.75</ele></trkpt>
   <trkpt lat="50.103663" lon="8.555592"><ele>99</ele></trkpt>
   <trkpt lat="50.103681" lon="8.555842"><ele>99</ele></trkpt>
   <trkpt lat="50.103685" lon="8.555907"><ele>99</ele></trkpt>
   <trkpt lat="50.103814" lon="8.557992"><ele>96.5</ele></trkpt>
   <trkpt lat="50.103874" lon="8.559242"><ele>94.5</ele></trkpt>
   <trkpt lat="50.103955" lon="8.560982"><ele>93.25</ele></trkpt>
   <trkpt lat="50.103961" lon="8.561137"><ele>93.5</ele></trkpt>
   <trkpt lat="50.103969" lon="8.561301"><ele>93.75</ele></trkpt>
   <trkpt lat="50.104149" lon="8.565245"><ele>92.25</ele></trkpt>
   <trkpt lat="50.104179" lon="8.565898"><ele>93</ele></trkpt>
   <trkpt lat="50.104191" lon="8.566192"><ele>93.25</ele></trkpt>
   <trkpt lat="50.104254" lon="8.567584"><ele>93.75</ele></trkpt>
   <trkpt lat="50.10434" lon="8.569521"><ele>94.75</ele></trkpt>
   <trkpt lat="50.104356" lon="8.569837"><ele>95.25</ele></trkpt>
   <trkpt lat="50.104436" lon="8.571744"><ele>95</ele></trkpt>
   <trkpt lat="50.10457" lon="8.574641"><ele>96.5</ele></trkpt>
   <trkpt lat="50.104574" lon="8.574744"><ele>96.5</ele></trkpt>
   <trkpt lat="50.104579" lon="8.574873"><ele>96.5</ele></trkpt>
   <trkpt lat="50.104585" lon="8.575036"><ele>96.25</ele></trkpt>
   <trkpt lat="50.104588" lon="8.575119"><ele>96.25</ele></trkpt>
   <trkpt lat="50.104621" lon="8.575652"><ele>95.5</ele></trkpt>
   <trkpt lat="50.10463" lon="8.575855"><ele>95.5</ele></trkpt>
   <trkpt lat="50.104669" lon="8.576757"><ele>95.25</ele></trkpt>
   <trkpt lat="50.104695" lon="8.577474"><ele>95.75</ele></trkpt>
   <trkpt lat="50.104834" lon="8.580548"><ele>98.5</ele></trkpt>
   <trkpt lat="50.104879" lon="8.581505"><ele>97</ele></trkpt>
   <trkpt lat="50.104985" lon="8.583882"><ele>95.5</ele></trkpt>
   <trkpt lat="50.105052" lon="8.585356"><ele>93</ele></trkpt>
   <trkpt lat="50.105054" lon="8.585407"><ele>93</ele></trkpt>
   <trkpt lat="50.105095" lon="8.586311"><ele>93.25</ele></trkpt>
   <trkpt lat="50.105213" lon="8.588942"><ele>96.25</ele></trkpt>
   <trkpt lat="50.105303" lon="8.590931"><ele>98.25</ele></trkpt>
   <trkpt lat="50.105343" lon="8.591829"><ele>97.25</ele></trkpt>
   <trkpt lat="50.105445" lon="8.594085"><ele>97</ele></trkpt>
   <trkpt lat="50.105488" lon="8.595029"><ele>97.75</ele></trkpt>
   <trkpt lat="50.10559" lon="8.597421"><ele>98.5</ele></trkpt>
   <trkpt lat="50.105666" lon="8.599059"><ele>98</ele></trkpt>
   <trkpt lat="50.105666" lon="8.599067"><ele>98</ele></trkpt>
   <trkpt lat="50.105708" lon="8.600251"><ele>98.5</ele></trkpt>
   <trkpt lat="50.105763" lon="8.60158"><ele>99.5</ele></trkpt>
   <trkpt lat="50.105774" lon="8.601847"><ele>99.75</ele></trkpt>
   <trkpt lat="50.105823" lon="8.603279"><ele>99.75</ele></trkpt>
   <trkpt lat="50.105832" lon="8.603816"><ele>99.75</ele></trkpt>
   <trkpt lat="50.105828" lon="8.604193"><ele>99.75</ele></trkpt>
   <trkpt lat="50.105824" lon="8.604408"><ele>99.5</ele></trkpt>
   <trkpt lat="50.10581" lon="8.604897"><ele>99.25</ele></trkpt>
   <trkpt lat="50.105782" lon="8.605416"><ele>99.25</ele></trkpt>
   <trkpt lat="50.105734" lon="8.606108"><ele>99.25</ele></trkpt>
   <trkpt lat="50.105656" lon="8.607183"><ele>97.75</ele></trkpt>
   <trkpt lat="50.105618" lon="8.607723"><ele>97.75</ele></trkpt>
   <trkpt lat="50.105583" lon="8.608306"><ele>97</ele></trkpt>
   <trkpt lat="50.10556" lon="8.60897"><ele>97</ele></trkpt>
   <trkpt lat="50.105547" lon="8.610154"><ele>97.75</ele></trkpt>
   <trkpt lat="50.105572" lon="8.612802"><ele>98</ele></trkpt>
   <trkpt lat="50.105573" lon="8.612863"><ele>98.25</ele></trkpt>
   <trkpt lat="50.105583" lon="8.613844"><ele>99</ele></trkpt>
   <trkpt lat="50.105595" lon="8.614957"><ele>99.25</ele></trkpt>
   <trkpt lat="50.105592" lon="8.615908"><ele>98.5</ele></trkpt>
   <trkpt lat="50.105579" lon="8.616306"><ele>98</ele></trkpt>
   <trkpt lat="50.105537" lon="8.616932"><ele>97.5</ele></trkpt>
   <trkpt lat="50.105473" lon="8.617442"><ele>97.5</ele></trkpt>
   <trkpt lat="50.10545" lon="8.617601"><ele>97.25</ele></trkpt>
   <trkpt lat="50.105398" lon="8.617901"><ele>96.75</ele></trkpt>
   <trkpt lat="50.105336" lon="8.618228"><ele>96.5</ele></trkpt>
   <trkpt lat="50.105228" lon="8.618668"><ele>96.5</ele></trkpt>
   <trkpt lat="50.105119" lon="8.619066"><ele>97</ele></trkpt>
   <trkpt lat="50.104908" lon="8.61967"><ele>97.5</ele></trkpt>
   <trkpt lat="50.104701" lon="8.620176"><ele>98</ele></trkpt>
   <trkpt lat="50.104353" lon="8.620865"><ele>98</ele></trkpt>
   <trkpt lat="50.102945" lon="8.623477"><ele>99.25</ele></trkpt>
   <trkpt lat="50.102823" lon="8.6237"><ele>99.25</ele></trkpt>
   <trkpt lat="50.102763" lon="8.623811"><ele>99.25</ele></trkpt>
   <trkpt lat="50.102352" lon="8.624565"><ele>98.75</ele></trkpt>
   <trkpt lat="50.101564" lon="8.626009"><ele>99.75</ele></trkpt>
   <trkpt lat="50.101404" lon="8.626307"><ele>100</ele></trkpt>
   <trkpt lat="50.10124" lon="8.626636"><ele>100.5</ele></trkpt>
   <trkpt lat="50.101181" lon="8.626773"><ele>100.5</ele></trkpt>
   <trkpt lat="50.10104" lon="8.627061"><ele>101</ele></trkpt>
   <trkpt lat="50.10101" lon="8.627117"><ele>101</ele></trkpt>
   <trkpt lat="50.100889" lon="8.627335"><ele>101.5</ele></trkpt>
   <trkpt lat="50.100718" lon="8.627645"><ele>102</ele></trkpt>
   <trkpt lat="50.099621" lon="8.629626"><ele>100.25</ele></trkpt>
   <trkpt lat="50.099495" lon="8.629851"><ele>100.5</ele></trkpt>
   <trkpt lat="50.099254" lon="8.630289"><ele>100.75</ele></trkpt>
   <trkpt lat="50.098293" lon="8.632054"><ele>101.25</ele></trkpt>
   <trkpt lat="50.098283" lon="8.632072"><ele>101.25</ele></trkpt>
   <trkpt lat="50.098232" lon="8.632169"><ele>101.5</ele></trkpt>
   <trkpt lat="50.098165" lon="8.632311"><ele>102.25</ele></trkpt>
   <trkpt lat="50.097945" lon="8.632779"><ele>102.25</ele></trkpt>
   <trkpt lat="50.097835" lon="8.63303"><ele>102.5</ele></trkpt>
   <trkpt lat="50.097726" lon="8.633323"><ele>102.5</ele></trkpt>
   <trkpt lat="50.097721" lon="8.633339"><ele>102.5</ele></trkpt>
   <trkpt lat="50.097597" lon="8.633733"><ele>101.5</ele></trkpt>
   <trkpt lat="50.097513" lon="8.634073"><ele>101</ele></trkpt>
   <trkpt lat="50.097457" lon="8.634343"><ele>101</ele></trkpt>
   <trkpt lat="50.097413" lon="8.634614"><ele>100.75</ele></trkpt>
   <trkpt lat="50.097377" lon="8.634936"><ele>100.5</ele></trkpt>
   <trkpt lat="50.09735" lon="8.635358"><ele>100</ele></trkpt>
   <trkpt lat="50.097346" lon="8.635553"><ele>99.75</ele></trkpt>
   <trkpt lat="50.097351" lon="8.635848"><ele>99.5</ele></trkpt>
   <trkpt lat="50.097375" lon="8.636212"><ele>99.75</ele></trkpt>
   <trkpt lat="50.097404" lon="8.636458"><ele>99.25</ele></trkpt>
   <trkpt lat="50.097439" lon="8.63669"><ele>98.75</ele></trkpt>
   <trkpt lat="50.097487" lon="8.63694"><ele>98.75</ele></trkpt>
   <trkpt lat="50.097539" lon="8.637158"><ele>99</ele></trkpt>
   <trkpt lat="50.097608" lon="8.637408"><ele>99</ele></trkpt>
   <trkpt lat="50.097792" lon="8.637953"><ele>98.25</ele></trkpt>
   <trkpt lat="50.098771" lon="8.640601"><ele>98.5</ele></trkpt>
   <trkpt lat="50.099086" lon="8.641407"><ele>98.25</ele></trkpt>
   <trkpt lat="50.099946" lon="8.643525"><ele>99</ele></trkpt>
   <trkpt lat="50.100151" lon="8.644028"><ele>98.75</ele></trkpt>
   <trkpt lat="50.100556" lon="8.64503"><ele>97.25</ele></trkpt>
   <trkpt lat="50.100563" lon="8.645046"><ele>97.25</ele></trkpt>
   <trkpt lat="50.100583" lon="8.645097"><ele>97.25</ele></trkpt>
   <trkpt lat="50.100738" lon="8.645514"><ele>97</ele></trkpt>
   <trkpt lat="50.100907" lon="8.646032"><ele>97</ele></trkpt>
   <trkpt lat="50.101031" lon="8.64636"><ele>97.5</ele></trkpt>
   <trkpt lat="50.101065" lon="8.646448"><ele>97.75</ele></trkpt>
   <trkpt lat="50.101106" lon="8.646552"><ele>97.75</ele></trkpt>
   <trkpt lat="50.101238" lon="8.646907"><ele>98.25</ele></trkpt>
   <trkpt lat="50.10145" lon="8.647529"><ele>98.25</ele></trkpt>
   <trkpt lat="50.101564" lon="8.647827"><ele>98.25</ele></trkpt>
   <trkpt lat="50.101573" lon="8.64785"><ele>98.25</ele></trkpt>
   <trkpt lat="50.10165" lon="8.648045"><ele>98.25</ele></trkpt>
   <trkpt lat="50.101828" lon="8.648495"><ele>98</ele></trkpt>
   <trkpt lat="50.102026" lon="8.648989"><ele>98</ele></trkpt>
   <trkpt lat="50.10207" lon="8.649107"><ele>98</ele></trkpt>
   <trkpt lat="50.102073" lon="8.649115"><ele>98</ele></trkpt>
   <trkpt lat="50.102161" lon="8.649349"><ele>98</ele></trkpt>
   <trkpt lat="50.102315" lon="8.649752"><ele>98.5</ele></trkpt>
   <trkpt lat="50.102404" lon="8.650007"><ele>99</ele></trkpt>
   <trkpt lat="50.102449" lon="8.650149"><ele>98.75</ele></trkpt>
   <trkpt lat="50.102598" lon="8.650609"><ele>98.75</ele></trkpt>
   <trkpt lat="50.102762" lon="8.651072"><ele>98.5</ele></trkpt>
   <trkpt lat="50.10283" lon="8.651256"><ele>98</ele></trkpt>
   <trkpt lat="50.103002" lon="8.651723"><ele>97</ele></trkpt>
   <trkpt lat="50.10303" lon="8.651799"><ele>97</ele></trkpt>
   <trkpt lat="50.103265" lon="8.652439"><ele>97</ele></trkpt>
   <trkpt lat="50.103572" lon="8.653236"><ele>98.75</ele></trkpt>
   <trkpt lat="50.103577" lon="8.653249"><ele>98.75</ele></trkpt>
   <trkpt lat="50.104067" lon="8.654492"><ele>98.25</ele></trkpt>
   <trkpt lat="50.104285" lon="8.655049"><ele>98.5</ele></trkpt>
   <trkpt lat="50.104401" lon="8.655285"><ele>99</ele></trkpt>
   <trkpt lat="50.104506" lon="8.655489"><ele>99.25</ele></trkpt>
   <trkpt lat="50.104623" lon="8.655726"><ele>99.5</ele></trkpt>
   <trkpt lat="50.104739" lon="8.655953"><ele>99.75</ele></trkpt>
   <trkpt lat="50.104961" lon="8.656402"><ele>99.5</ele></trkpt>
   <trkpt lat="50.105182" lon="8.656841"><ele>100.25</ele></trkpt>
   <trkpt lat="50.105407" lon="8.657292"><ele>101.25</ele></trkpt>
   <trkpt lat="50.105526" lon="8.65753"><ele>101.25</ele></trkpt>
   <trkpt lat="50.105661" lon="8.657803"><ele>101.25</ele></trkpt>
   <trkpt lat="50.105816" lon="8.658222"><ele>100.25</ele></trkpt>
   <trkpt lat="50.105876" lon="8.658367"><ele>100</ele></trkpt>
   <trkpt lat="50.106022" lon="8.658735"><ele>100.5</ele></trkpt>
   <trkpt lat="50.106106" lon="8.65893"><ele>100.75</ele></trkpt>
   <trkpt lat="50.106366" lon="8.65951"><ele>102.25</ele></trkpt>
   <trkpt lat="50.106574" lon="8.659976"><ele>103.5</ele></trkpt>
   <trkpt lat="50.106794" lon="8.660512"><ele>107</ele></trkpt>
   <trkpt lat="50.107361" lon="8.66196"><ele>112.25</ele></trkpt>
   <trkpt lat="50.10752" lon="8.66237"><ele>111.75</ele></trkpt>
  </trkseg>
 </trk>
</gpx>