<?xml version="1.0" encoding="UTF-8"?>
<!-- track-length = 13834 filtered ascend = 16 plain-ascend = 3 cost=13834 energy=0.2kwh time=18m 27s -->
<gpx 
 xmlns="http://www.topografix.com/GPX/1/1" 
 xmlns:xsi="http://www.w3.org/2001/XMLSchema-instance" 
 xsi:schemaLocation="http://www.topografix.com/GPX/1/1 http://www.topografix.com/GPX/1/1/gpx.xsd" 
 version="1.1" 
 creator="BRouter-Web 0.18.1">
 <trk>
  <name>meißen</name>
  <trkseg>
   <trkpt lat="51.110846" lon="13.618176"><ele>110.25</ele></trkpt>
   <trkpt lat="51.110902" lon="13.617996"><ele>110.25</ele></trkpt>
   <trkpt lat="51.111309" lon="13.616542"><ele>108.25</ele></trkpt>
   <trkpt lat="51.111702" lon="13.615282"><ele>108</ele></trkpt>
   <trkpt lat="51.111997" lon="13.614337"><ele>108.25</ele></trkpt>
   <trkpt lat="51.112558" lon="13.612401"><ele>109.75</ele></trkpt>
   <trkpt lat="51.112801" lon="13.611596"><ele>109</ele></trkpt>
   <trkpt lat="51.113022" lon="13.610864"><ele>108.25</ele></trkpt>
   <trkpt lat="51.113302" lon="13.609943"><ele>108</ele></trkpt>
   <trkpt lat="51.113451" lon="13.609454"><ele>108.5</ele></trkpt>
   <trkpt lat="51.113514" lon="13.609243"><ele>108.5</ele></trkpt>
   <trkpt lat="51.113713" lon="13.608598"><ele>108.75</ele></trkpt>
   <trkpt lat="51.113816" lon="13.608252"><ele>108.75</ele></trkpt>
   <trkpt lat="51.114198" lon="13.606975"><ele>108.75</ele></trkpt>
   <trkpt lat="51.114755" lon="13.605044"><ele>109.25</ele></trkpt>
   <trkpt lat="51.114875" lon="13.604621"><ele>110</ele></trkpt>
   <trkpt lat="51.115363" lon="13.602966"><ele>110.5</ele></trkpt>
   <trkpt lat="51.115717" lon="13.601731"><ele>109.75</ele></trkpt>
   <trkpt lat="51.115942" lon="13.600975"><ele>109</ele></trkpt>
   <trkpt lat="51.116378" lon="13.599604"><ele>108.75</ele></trkpt>
   <trkpt lat="51.117212" lon="13.597381"><ele>111</ele></trkpt>
   <trkpt lat="51.11743" lon="13.596747"><ele>111.75</ele></trkpt>
   <trkpt lat="51.117694" lon="13.595875"><ele>111.75</ele></trkpt>
   <trkpt lat="51.117945" lon="13.594986"><ele>111.25</ele></trkpt>
   <trkpt lat="51.118004" lon="13.594787"><ele>111</ele></trkpt>
   <trkpt lat="51.118185" lon="13.594158"><ele>109.75</ele></trkpt>
   <trkpt lat="51.118584" lon="13.592764"><ele>108</ele></trkpt>
   <trkpt lat="51.120103" lon="13.587713"><ele>108</ele></trkpt>
   <trkpt lat="51.120198" lon="13.587397"><ele>108</ele></trkpt>
   <trkpt lat="51.120391" lon="13.58676"><ele>108</ele></trkpt>
   <trkpt lat="51.120427" lon="13.586644"><ele>108</ele></trkpt>
   <trkpt lat="51.121083" lon="13.584486"><ele>108.5</ele></trkpt>
   <trkpt lat="51.121375" lon="13.583523"><ele>108.25</ele></trkpt>
   <trkpt lat="51.12203" lon="13.58136"><ele>107.25</ele></trkpt>
   <trkpt lat="51.122149" lon="13.580984"><ele>107.75</ele></trkpt>
   <trkpt lat="51.122285" lon="13.580565"><ele>108</ele></trkpt>
   <trkpt lat="51.122466" lon="13.580046"><ele>108</ele></trkpt>
   <trkpt lat="51.122522" lon="13.579896"><ele>108</ele></trkpt>
   <trkpt lat="51.122548" lon="13.579828"><ele>108.75</ele></trkpt>
   <trkpt lat="51.122765" lon="13.579291"><ele>108.75</ele></trkpt>
   <trkpt lat="51.122872" lon="13.579033"><ele>109</ele></trkpt>
   <trkpt lat="51.123045" lon="13.578648"><ele>109</ele></trkpt>
   <trkpt lat="51.123219" lon="13.5783"><ele>109</ele></trkpt>
   <trkpt lat="51.123443" lon="13.577883"><ele>108.75</ele></trkpt>
   <trkpt lat="51.123562" lon="13.577701"><ele>108.75</ele></trkpt>
   <trkpt lat="51.123632" lon="13.577594"><ele>108.75</ele></trkpt>
   <trkpt lat="51.124038" lon="13.577031"><ele>109</ele></trkpt>
   <trkpt lat="51.124387" lon="13.576497"><ele>109</ele></trkpt>
   <trkpt lat="51.124624" lon="13.576165"><ele>108.75</ele></trkpt>
   <trkpt lat="51.124888" lon="13.575795"><ele>108.25</ele></trkpt>
   <trkpt lat="51.125209" lon="13.575393"><ele>108</ele></trkpt>
   <trkpt lat="51.125471" lon="13.575109"><ele>108</ele></trkpt>
   <trkpt lat="51.125601" lon="13.574969"><ele>108</ele></trkpt>
   <trkpt lat="51.125708" lon="13.574853"><ele>108</ele></trkpt>
   <trkpt lat="51.126154" lon="13.574408"><ele>108.75</ele></trkpt>
   <trkpt lat="51.126551" lon="13.574057"><ele>109</ele></trkpt>
   <trkpt lat="51.127349" lon="13.57344"><ele>109</ele></trkpt>
   <trkpt lat="51.127822" lon="13.57315"><ele>108.5</ele></trkpt>
   <trkpt lat="51.128401" lon="13.572842"><ele>107.25</ele></trkpt>
   <trkpt lat="51.128994" lon="13.572588"><ele>107.5</ele></trkpt>
   <trkpt lat="51.131989" lon="13.571477"><ele>109.25</ele></trkpt>
   <trkpt lat="51.135134" lon="13.570309"><ele>109.5</ele></trkpt>
   <trkpt lat="51.135161" lon="13.570301"><ele>109.5</ele></trkpt>
   <trkpt lat="51.13547" lon="13.570174"><ele>110</ele></trkpt>
   <trkpt lat="51.13578" lon="13.57"><ele>110.75</ele></trkpt>
   <trkpt lat="51.136341" lon="13.569682"><ele>110.75</ele></trkpt>
   <trkpt lat="51.136365" lon="13.569668"><ele>110.75</ele></trkpt>
   <trkpt lat="51.136542" lon="13.569572"><ele>110.75</ele></trkpt>
   <trkpt lat="51.136792" lon="13.569416"><ele>111</ele></trkpt>
   <trkpt lat="51.137036" lon="13.569245"><ele>111.25</ele></trkpt>
   <trkpt lat="51.137261" lon="13.569064"><ele>111.5</ele></trkpt>
   <trkpt lat="51.137592" lon="13.568757"><ele>111.75</ele></trkpt>
   <trkpt lat="51.137942" lon="13.56838"><ele>111.25</ele></trkpt>
   <trkpt lat="51.138125" lon="13.568157"><ele>111</ele></trkpt>
   <trkpt lat="51.13839" lon="13.56779"><ele>111</ele></trkpt>
   <trkpt lat="51.138484" lon="13.567657"><ele>111</ele></trkpt>
   <trkpt lat="51.138925" lon="13.56695"><ele>111</ele></trkpt>
   <trkpt lat="51.138935" lon="13.56693"><ele>111</ele></trkpt>
   <trkpt lat="51.138945" lon="13.566913"><ele>111</ele></trkpt>
   <trkpt lat="51.139976" lon="13.565216"><ele>110.25</ele></trkpt>
   <trkpt lat="51.144676" lon="13.557465"><ele>106.25</ele></trkpt>
   <trkpt lat="51.145092" lon="13.556787"><ele>106</ele></trkpt>
   <trkpt lat="51.145722" lon="13.555749"><ele>105.75</ele></trkpt>
   <trkpt lat="51.146506" lon="13.554454"><ele>106.5</ele></trkpt>
   <trkpt lat="51.146875" lon="13.55385"><ele>107.25</ele></trkpt>
   <trkpt lat="51.147058" lon="13.55355"><ele>107.25</ele></trkpt>
   <trkpt lat="51.147343" lon="13.553078"><ele>107</ele></trkpt>
   <trkpt lat="51.147843" lon="13.552255"><ele>106.5</ele></trkpt>
   <trkpt lat="51.148275" lon="13.551518"><ele>106</ele></trkpt>
   <trkpt lat="51.14851" lon="13.551098"><ele>106</ele></trkpt>
   <trkpt lat="51.148704" lon="13.55073"><ele>106</ele></trkpt>
   <trkpt lat="51.148997" lon="13.550146"><ele>106</ele></trkpt>
   <trkpt lat="51.149206" lon="13.549702"><ele>105.75</ele></trkpt>
   <trkpt lat="51.149603" lon="13.548798"><ele>106</ele></trkpt>
   <trkpt lat="51.149794" lon="13.548337"><ele>106</ele></trkpt>
   <trkpt lat="51.151896" lon="13.543068"><ele>107.25</ele></trkpt>
   <trkpt lat="51.151956" lon="13.542918"><ele>107</ele></trkpt>
   <trkpt lat="51.152833" lon="13.540726"><ele>106</ele></trkpt>
   <trkpt lat="51.154464" lon="13.536646"><ele>104</ele></trkpt>
   <trkpt lat="51.154704" lon="13.536046"><ele>104.25</ele></trkpt>
   <trkpt lat="51.15629" lon="13.532065"><ele>104</ele></trkpt>
   <trkpt lat="51.156906" lon="13.530528"><ele>104</ele></trkpt>
   <trkpt lat="51.15911" lon="13.525011"><ele>104</ele></trkpt>
   <trkpt lat="51.159802" lon="13.523276"><ele>104.75</ele></trkpt>
   <trkpt lat="51.159888" lon="13.523062"><ele>104.75</ele></trkpt>
   <trkpt lat="51.160074" lon="13.5226"><ele>105</ele></trkpt>
   <trkpt lat="51.160344" lon="13.521905"><ele>105.25</ele></trkpt>
   <trkpt lat="51.160512" lon="13.521443"><ele>105.5</ele></trkpt>
   <trkpt lat="51.160676" lon="13.520975"><ele>105.75</ele></trkpt>
   <trkpt lat="51.160986" lon="13.520013"><ele>105.75</ele></trkpt>
   <trkpt lat="51.161131" lon="13.519519"><ele>105</ele></trkpt>
   <trkpt lat="51.161266" lon="13.519021"><ele>104.25</ele></trkpt>
   <trkpt lat="51.161522" lon="13.518013"><ele>104</ele></trkpt>
   <trkpt lat="51.161665" lon="13.517387"><ele>104</ele></trkpt>
   <trkpt lat="51.161933" lon="13.515969"><ele>104.75</ele></trkpt>
   <trkpt lat="51.162284" lon="13.513806"><ele>105.25</ele></trkpt>
   <trkpt lat="51.162445" lon="13.5128"><ele>105</ele></trkpt>
   <trkpt lat="51.162667" lon="13.511515"><ele>104.75</ele></trkpt>
   <trkpt lat="51.163594" lon="13.506382"><ele>106.25</ele></trkpt>
   <trkpt lat="51.163814" lon="13.505115"><ele>106.5</ele></trkpt>
   <trkpt lat="51.163974" lon="13.504124"><ele>107.75</ele></trkpt>
   <trkpt lat="51.164005" lon="13.503927"><ele>107.75</ele></trkpt>
   <trkpt lat="51.164097" lon="13.503366"><ele>107.75</ele></trkpt>
   <trkpt lat="51.164473" lon="13.501035"><ele>107.25</ele></trkpt>
   <trkpt lat="51.164586" lon="13.500326"><ele>105.75</ele></trkpt>
   <trkpt lat="51.16471" lon="13.499501"><ele>104.75</ele></trkpt>
   <trkpt lat="51.164756" lon="13.499124"><ele>104.5</ele></trkpt>
   <trkpt lat="51.164791" lon="13.498741"><ele>104.25</ele></trkpt>
   <trkpt lat="51.164813" lon="13.498346"><ele>104.25</ele></trkpt>
   <trkpt lat="51.164828" lon="13.497956"><ele>104.25</ele></trkpt>
   <trkpt lat="51.164828" lon="13.497565"><ele>104</ele></trkpt>
   <trkpt lat="51.164818" lon="13.497167"><ele>104</ele></trkpt>
   <trkpt lat="51.164771" lon="13.49639"><ele>104</ele></trkpt>
   <trkpt lat="51.164637" lon="13.494674"><ele>105.25</ele></trkpt>
   <trkpt lat="51.16462" lon="13.494475"><ele>105.5</ele></trkpt>
   <trkpt lat="51.164511" lon="13.493086"><ele>106.25</ele></trkpt>
   <trkpt lat="51.16441" lon="13.49208"><ele>106</ele></trkpt>
   <trkpt lat="51.164233" lon="13.490567"><ele>106.75</ele></trkpt>
   <trkpt lat="51.164199" lon="13.49031"><ele>106.75</ele></trkpt>
   <trkpt lat="51.164054" lon="13.489295"><ele>107</ele></trkpt>
   <trkpt lat="51.163943" lon="13.488598"><ele>107</ele></trkpt>
   <trkpt lat="51.16336" lon="13.485157"><ele>107.75</ele></trkpt>
   <trkpt lat="51.163353" lon="13.485116"><ele>107.75</ele></trkpt>
   <trkpt lat="51.163236" lon="13.484443"><ele>107.5</ele></trkpt>
   <trkpt lat="51.163194" lon="13.484182"><ele>107.25</ele></trkpt>
   <trkpt lat="51.163084" lon="13.483599"><ele>107.5</ele></trkpt>
   <trkpt lat="51.163005" lon="13.483229"><ele>107.75</ele></trkpt>
   <trkpt lat="51.162997" lon="13.48319"><ele>108</ele></trkpt>
   <trkpt lat="51.162895" lon="13.482711"><ele>108.75</ele></trkpt>
   <trkpt lat="51.162668" lon="13.481764"><ele>109</ele></trkpt>
   <trkpt lat="51.162608" lon="13.481487"><ele>108.5</ele></trkpt>
   <trkpt lat="51.162568" lon="13.481312"><ele>107.75</ele></trkpt>
   <trkpt lat="51.162541" lon="13.48119"><ele>107.25</ele></trkpt>
   <trkpt lat="51.162436" lon="13.480797"><ele>105.25</ele></trkpt>
   <trkpt lat="51.162374" lon="13.48056"><ele>104</ele></trkpt>
   <trkpt lat="51.16236" lon="13.480515"><ele>103.5</ele></trkpt>
   <trkpt lat="51.162352" lon="13.480483"><ele>103.5</ele></trkpt>
   <trkpt lat="51.162277" lon="13.480198"><ele>104.25</ele></trkpt>
   <trkpt lat="51.162239" lon="13.480054"><ele>104.75</ele></trkpt>
   <trkpt lat="51.161802" lon="13.478476"><ele>110.25</ele></trkpt>
   <trkpt lat="51.161343" lon="13.476807"><ele>116.25</ele></trkpt>
   <trkpt lat="51.161076" lon="13.475884"><ele>116.25</ele></trkpt>
   <trkpt lat="51.160881" lon="13.475279"><ele>116</ele></trkpt>
   <trkpt lat="51.160701" lon="13.474854"><ele>116.75</ele></trkpt>
   <trkpt lat="51.160612" lon="13.474683"><ele>117.25</ele></trkpt>
   <trkpt lat="51.160438" lon="13.474393"><ele>117.5</ele></trkpt>
   <trkpt lat="51.160323" lon="13.474243"><ele>117.5</ele></trkpt>
   <trkpt lat="51.160147" lon="13.474053"><ele>117.25</ele></trkpt>
   <trkpt lat="51.160053" lon="13.473953"><ele>117</ele></trkpt>
   <trkpt lat="51.159536" lon="13.47353"><ele>118.25</ele></trkpt>
   <trkpt lat="51.159527" lon="13.473523"><ele>118.25</ele></trkpt>
   <trkpt lat="51.158797" lon="13.472944"><ele>121.5</ele></trkpt>
   <trkpt lat="51.158268" lon="13.47246"><ele>120.25</ele></trkpt>
   <trkpt lat="51.158173" lon="13.472378"><ele>120.5</ele></trkpt>
   <trkpt lat="51.157925" lon="13.472153"><ele>120.5</ele></trkpt>
   <trkpt lat="51.157582" lon="13.471752"><ele>118.25</ele></trkpt>
   <trkpt lat="51.157461" lon="13.471593"><ele>118.5</ele></trkpt>
   <trkpt lat="51.156962" lon="13.470829"><ele>121.25</ele></trkpt>
   <trkpt lat="51.156838" lon="13.470649"><ele>120.75</ele></trkpt>
   <trkpt lat="51.156777" lon="13.470564"><ele>120.25</ele></trkpt>
   <trkpt lat="51.156634" lon="13.47035"><ele>119.25</ele></trkpt>
   <trkpt lat="51.156497" lon="13.470146"><ele>120.5</ele></trkpt>
   <trkpt lat="51.156282" lon="13.469732"><ele>123</ele></trkpt>
   <trkpt lat="51.156206" lon="13.469569"><ele>123.75</ele></trkpt>
   <trkpt lat="51.155924" lon="13.468876"><ele>122</ele></trkpt>
   <trkpt lat="51.155855" lon="13.468718"><ele>121</ele></trkpt>
   <trkpt lat="51.15574" lon="13.468459"><ele>121</ele></trkpt>
   <trkpt lat="51.155534" lon="13.46805"><ele>122.75</ele></trkpt>
   <trkpt lat="51.155348" lon="13.467743"><ele>123.75</ele></trkpt>
   <trkpt lat="51.155179" lon="13.467481"><ele>123</ele></trkpt>
   <trkpt lat="51.154734" lon="13.466816"><ele>114.75</ele></trkpt>
   <trkpt lat="51.154451" lon="13.466372"><ele>112.25</ele></trkpt>
   <trkpt lat="51.154185" lon="13.465985"><ele>111.5</ele></trkpt>
   <trkpt lat="51.153849" lon="13.465441"><ele>113</ele></trkpt>
   <trkpt lat="51.15366" lon="13.465088"><ele>112.25</ele></trkpt>
   <trkpt lat="51.153398" lon="13.464549"><ele>111.75</ele></trkpt>
   <trkpt lat="51.153393" lon="13.46454"><ele>111.75</ele></trkpt>
   <trkpt lat="51.153388" lon="13.464529"><ele>111.75</ele></trkpt>
   <trkpt lat="51.153313" lon="13.464371"><ele>112</ele></trkpt>
   <trkpt lat="51.153249" lon="13.464234"><ele>112.75</ele></trkpt>
   <trkpt lat="51.152983" lon="13.463654"><ele>113.5</ele></trkpt>
   <trkpt lat="51.152385" lon="13.462367"><ele>113</ele></trkpt>
   <trkpt lat="51.152229" lon="13.462031"><ele>113.25</ele></trkpt>
   <trkpt lat="51.152126" lon="13.461816"><ele>112.25</ele></trkpt>
  </trkseg>
 </trk>
</gpx>