<?xml version="1.0" encoding="UTF-8"?>
<!-- track-length = 7644 filtered ascend = 47 plain-ascend = 47 cost=7644 energy=.1kwh time=10m 12s -->
<gpx 
 xmlns="http://www.topografix.com/GPX/1/1" 
 xmlns:xsi="http://www.w3.org/2001/XMLSchema-instance" 
 xsi:schemaLocation="http://www.topografix.com/GPX/1/1 http://www.topografix.com/GPX/1/1/gpx.xsd" 
 creator="BRouter-1.7.0" version="1.1">
 <trk>
  <name>Mittelherwigsdorf - Grossschoenau</name>
  <trkseg>
   <trkpt lon="14.742968" lat="50.921047"><ele>283.0</ele></trkpt>
   <trkpt lon="14.742900" lat="50.921159"><ele>283.25</ele></trkpt>
   <trkpt lon="14.742540" lat="50.921659"><ele>283.75</ele></trkpt>
   <trkpt lon="14.742071" lat="50.922139"><ele>283.0</ele></trkpt>
   <trkpt lon="14.741897" lat="50.922282"><ele>283.0</ele></trkpt>
   <trkpt lon="14.741724" lat="50.922401"><ele>283.25</ele></trkpt>
   <trkpt lon="14.741488" lat="50.922535"><ele>283.0</ele></trkpt>
   <trkpt lon="14.741307" lat="50.922627"><ele>282.5</ele></trkpt>
   <trkpt lon="14.741107" lat="50.922713"><ele>282.25</ele></trkpt>
   <trkpt lon="14.740653" lat="50.922876"><ele>281.5</ele></trkpt>
   <trkpt lon="14.740189" lat="50.923007"><ele>280.75</ele></trkpt>
   <trkpt lon="14.739764" lat="50.923099"><ele>280.75</ele></trkpt>
   <trkpt lon="14.739523" lat="50.923136"><ele>281.0</ele></trkpt>
   <trkpt lon="14.739272" lat="50.923167"><ele>281.0</ele></trkpt>
   <trkpt lon="14.738860" lat="50.923201"><ele>281.5</ele></trkpt>
   <trkpt lon="14.736852" lat="50.923353"><ele>285.25</ele></trkpt>
   <trkpt lon="14.735465" lat="50.923469"><ele>287.75</ele></trkpt>
   <trkpt lon="14.733803" lat="50.923530"><ele>291.5</ele></trkpt>
   <trkpt lon="14.733212" lat="50.923498"><ele>292.5</ele></trkpt>
   <trkpt lon="14.732513" lat="50.923441"><ele>291.75</ele></trkpt>
   <trkpt lon="14.728607" lat="50.923022"><ele>301.25</ele></trkpt>
   <trkpt lon="14.725385" lat="50.922669"><ele>300.5</ele></trkpt>
   <trkpt lon="14.722715" lat="50.922355"><ele>299.5</ele></trkpt>
   <trkpt lon="14.722346" lat="50.922292"><ele>299.5</ele></trkpt>
   <trkpt lon="14.722033" lat="50.922221"><ele>300.0</ele></trkpt>
   <trkpt lon="14.721672" lat="50.922116"><ele>300.5</ele></trkpt>
   <trkpt lon="14.721251" lat="50.921963"><ele>301.0</ele></trkpt>
   <trkpt lon="14.721008" lat="50.921859"><ele>300.75</ele></trkpt>
   <trkpt lon="14.720561" lat="50.921625"><ele>298.75</ele></trkpt>
   <trkpt lon="14.720177" lat="50.921359"><ele>298.0</ele></trkpt>
   <trkpt lon="14.719777" lat="50.921036"><ele>296.75</ele></trkpt>
   <trkpt lon="14.719345" lat="50.920602"><ele>297.0</ele></trkpt>
   <trkpt lon="14.719152" lat="50.920381"><ele>297.5</ele></trkpt>
   <trkpt lon="14.718760" lat="50.919872"><ele>296.75</ele></trkpt>
   <trkpt lon="14.718081" lat="50.918996"><ele>296.0</ele></trkpt>
   <trkpt lon="14.717873" lat="50.918731"><ele>295.75</ele></trkpt>
   <trkpt lon="14.717658" lat="50.918475"><ele>294.75</ele></trkpt>
   <trkpt lon="14.717479" lat="50.918295"><ele>294.0</ele></trkpt>
   <trkpt lon="14.717079" lat="50.917948"><ele>295.5</ele></trkpt>
   <trkpt lon="14.716789" lat="50.917745"><ele>296.75</ele></trkpt>
   <trkpt lon="14.715607" lat="50.916949"><ele>300.0</ele></trkpt>
   <trkpt lon="14.715136" lat="50.916619"><ele>301.25</ele></trkpt>
   <trkpt lon="14.714940" lat="50.916465"><ele>299.5</ele></trkpt>
   <trkpt lon="14.714792" lat="50.916359"><ele>298.0</ele></trkpt>
   <trkpt lon="14.714604" lat="50.916194"><ele>296.25</ele></trkpt>
   <trkpt lon="14.714312" lat="50.915911"><ele>294.5</ele></trkpt>
   <trkpt lon="14.713970" lat="50.915566"><ele>295.0</ele></trkpt>
   <trkpt lon="14.713336" lat="50.914952"><ele>297.5</ele></trkpt>
   <trkpt lon="14.712966" lat="50.914566"><ele>301.25</ele></trkpt>
   <trkpt lon="14.712591" lat="50.914244"><ele>304.25</ele></trkpt>
   <trkpt lon="14.712331" lat="50.914043"><ele>305.5</ele></trkpt>
   <trkpt lon="14.712072" lat="50.913859"><ele>306.0</ele></trkpt>
   <trkpt lon="14.711721" lat="50.913636"><ele>306.25</ele></trkpt>
   <trkpt lon="14.711189" lat="50.913323"><ele>306.25</ele></trkpt>
   <trkpt lon="14.709406" lat="50.912297"><ele>304.75</ele></trkpt>
   <trkpt lon="14.709248" lat="50.912184"><ele>304.25</ele></trkpt>
   <trkpt lon="14.708995" lat="50.912011"><ele>304.0</ele></trkpt>
   <trkpt lon="14.708605" lat="50.911693"><ele>305.0</ele></trkpt>
   <trkpt lon="14.707287" lat="50.910561"><ele>309.5</ele></trkpt>
   <trkpt lon="14.706957" lat="50.910194"><ele>313.25</ele></trkpt>
   <trkpt lon="14.706189" lat="50.909220"><ele>311.25</ele></trkpt>
   <trkpt lon="14.705128" lat="50.907523"><ele>307.25</ele></trkpt>
   <trkpt lon="14.705024" lat="50.907357"><ele>307.75</ele></trkpt>
   <trkpt lon="14.704862" lat="50.907110"><ele>308.25</ele></trkpt>
   <trkpt lon="14.704638" lat="50.906810"><ele>309.25</ele></trkpt>
   <trkpt lon="14.704313" lat="50.906428"><ele>310.5</ele></trkpt>
   <trkpt lon="14.704055" lat="50.906148"><ele>311.0</ele></trkpt>
   <trkpt lon="14.703768" lat="50.905841"><ele>311.5</ele></trkpt>
   <trkpt lon="14.703506" lat="50.905590"><ele>312.5</ele></trkpt>
   <trkpt lon="14.703179" lat="50.905299"><ele>312.75</ele></trkpt>
   <trkpt lon="14.702841" lat="50.905044"><ele>311.25</ele></trkpt>
   <trkpt lon="14.702695" lat="50.904942"><ele>311.0</ele></trkpt>
   <trkpt lon="14.702527" lat="50.904825"><ele>311.5</ele></trkpt>
   <trkpt lon="14.701724" lat="50.904274"><ele>317.5</ele></trkpt>
   <trkpt lon="14.700933" lat="50.903820"><ele>316.25</ele></trkpt>
   <trkpt lon="14.700442" lat="50.903548"><ele>317.0</ele></trkpt>
   <trkpt lon="14.699222" lat="50.902939"><ele>319.5</ele></trkpt>
   <trkpt lon="14.697989" lat="50.902334"><ele>321.0</ele></trkpt>
   <trkpt lon="14.697670" lat="50.902145"><ele>321.25</ele></trkpt>
   <trkpt lon="14.697407" lat="50.901978"><ele>321.5</ele></trkpt>
   <trkpt lon="14.697059" lat="50.901699"><ele>322.5</ele></trkpt>
   <trkpt lon="14.696844" lat="50.901496"><ele>322.0</ele></trkpt>
   <trkpt lon="14.696463" lat="50.901018"><ele>323.0</ele></trkpt>
   <trkpt lon="14.695659" lat="50.899829"><ele>317.25</ele></trkpt>
   <trkpt lon="14.695542" lat="50.899653"><ele>316.75</ele></trkpt>
   <trkpt lon="14.695405" lat="50.899467"><ele>316.0</ele></trkpt>
   <trkpt lon="14.694287" lat="50.897877"><ele>317.0</ele></trkpt>
   <trkpt lon="14.693905" lat="50.897366"><ele>318.5</ele></trkpt>
   <trkpt lon="14.693317" lat="50.896503"><ele>321.25</ele></trkpt>
   <trkpt lon="14.692367" lat="50.895141"><ele>323.0</ele></trkpt>
   <trkpt lon="14.691429" lat="50.893845"><ele>319.0</ele></trkpt>
   <trkpt lon="14.691391" lat="50.893793"><ele>319.0</ele></trkpt>
   <trkpt lon="14.690924" lat="50.893116"><ele>319.25</ele></trkpt>
   <trkpt lon="14.689879" lat="50.891651"><ele>320.75</ele></trkpt>
   <trkpt lon="14.689545" lat="50.891294"><ele>320.25</ele></trkpt>
   <trkpt lon="14.689150" lat="50.890968"><ele>320.75</ele></trkpt>
   <trkpt lon="14.688650" lat="50.890660"><ele>320.75</ele></trkpt>
   <trkpt lon="14.688407" lat="50.890533"><ele>320.5</ele></trkpt>
   <trkpt lon="14.688030" lat="50.890366"><ele>319.25</ele></trkpt>
   <trkpt lon="14.687672" lat="50.890233"><ele>318.0</ele></trkpt>
   <trkpt lon="14.687210" lat="50.890124"><ele>317.0</ele></trkpt>
   <trkpt lon="14.686737" lat="50.890021"><ele>316.75</ele></trkpt>
   <trkpt lon="14.686360" lat="50.889965"><ele>316.75</ele></trkpt>
   <trkpt lon="14.685981" lat="50.889935"><ele>316.75</ele></trkpt>
   <trkpt lon="14.685571" lat="50.889925"><ele>316.75</ele></trkpt>
   <trkpt lon="14.685141" lat="50.889932"><ele>316.5</ele></trkpt>
   <trkpt lon="14.684643" lat="50.889979"><ele>316.75</ele></trkpt>
   <trkpt lon="14.684026" lat="50.890068"><ele>319.0</ele></trkpt>
   <trkpt lon="14.683433" lat="50.890226"><ele>320.0</ele></trkpt>
   <trkpt lon="14.683126" lat="50.890323"><ele>320.25</ele></trkpt>
   <trkpt lon="14.682832" lat="50.890439"><ele>320.5</ele></trkpt>
   <trkpt lon="14.682524" lat="50.890580"><ele>320.5</ele></trkpt>
   <trkpt lon="14.681269" lat="50.891210"><ele>320.75</ele></trkpt>
   <trkpt lon="14.680216" lat="50.891718"><ele>322.25</ele></trkpt>
   <trkpt lon="14.679782" lat="50.891894"><ele>321.75</ele></trkpt>
   <trkpt lon="14.679339" lat="50.892041"><ele>321.25</ele></trkpt>
   <trkpt lon="14.678881" lat="50.892154"><ele>321.5</ele></trkpt>
   <trkpt lon="14.678383" lat="50.892254"><ele>322.0</ele></trkpt>
   <trkpt lon="14.678069" lat="50.892301"><ele>322.5</ele></trkpt>
   <trkpt lon="14.675612" lat="50.892625"><ele>322.0</ele></trkpt>
   <trkpt lon="14.672985" lat="50.892971"><ele>318.5</ele></trkpt>
   <trkpt lon="14.672859" lat="50.892987"><ele>318.75</ele></trkpt>
   <trkpt lon="14.670704" lat="50.893276"><ele>320.25</ele></trkpt>
   <trkpt lon="14.670569" lat="50.893294"><ele>320.0</ele></trkpt>
   <trkpt lon="14.669928" lat="50.893362"><ele>320.0</ele></trkpt>
   <trkpt lon="14.669601" lat="50.893377"><ele>321.0</ele></trkpt>
   <trkpt lon="14.669256" lat="50.893383"><ele>322.25</ele></trkpt>
   <trkpt lon="14.669074" lat="50.893375"><ele>322.75</ele></trkpt>
   <trkpt lon="14.668977" lat="50.893370"><ele>323.0</ele></trkpt>
   <trkpt lon="14.668665" lat="50.893347"><ele>324.0</ele></trkpt>
   <trkpt lon="14.668079" lat="50.893268"><ele>326.0</ele></trkpt>
   <trkpt lon="14.667671" lat="50.893207"><ele>327.5</ele></trkpt>
   <trkpt lon="14.667601" lat="50.893195"><ele>327.75</ele></trkpt>
   <trkpt lon="14.667194" lat="50.893097"><ele>329.0</ele></trkpt>
   <trkpt lon="14.666839" lat="50.892987"><ele>330.0</ele></trkpt>
   <trkpt lon="14.665678" lat="50.892670"><ele>329.5</ele></trkpt>
   <trkpt lon="14.665476" lat="50.892615"><ele>329.75</ele></trkpt>
  </trkseg>
 </trk>
</gpx>
