<?xml version="1.0" encoding="UTF-8"?>
<!-- track-length = 2489 filtered ascend = 2 plain-ascend = -3 cost=2489 energy=0.0kwh time=3m 19s -->
<gpx 
 xmlns="http://www.topografix.com/GPX/1/1" 
 xmlns:xsi="http://www.w3.org/2001/XMLSchema-instance" 
 xsi:schemaLocation="http://www.topografix.com/GPX/1/1 http://www.topografix.com/GPX/1/1/gpx.xsd" 
 version="1.1" 
 creator="BRouter-Web 0.18.1">
 <trk>
  <name>naundorf</name>
  <trkseg>
   <trkpt lat="51.122768" lon="13.579281"><ele>108.75</ele></trkpt>
   <trkpt lat="51.122765" lon="13.579291"><ele>108.75</ele></trkpt>
   <trkpt lat="51.122522" lon="13.579896"><ele>108</ele></trkpt>
   <trkpt lat="51.122466" lon="13.580046"><ele>108</ele></trkpt>
   <trkpt lat="51.122285" lon="13.580565"><ele>108</ele></trkpt>
   <trkpt lat="51.122149" lon="13.580984"><ele>107.75</ele></trkpt>
   <trkpt lat="51.12203" lon="13.58136"><ele>107.25</ele></trkpt>
   <trkpt lat="51.121375" lon="13.583523"><ele>108.25</ele></trkpt>
   <trkpt lat="51.121083" lon="13.584486"><ele>108.5</ele></trkpt>
   <trkpt lat="51.120427" lon="13.586644"><ele>108</ele></trkpt>
   <trkpt lat="51.120391" lon="13.58676"><ele>108</ele></trkpt>
   <trkpt lat="51.120231" lon="13.587232"><ele>108</ele></trkpt>
   <trkpt lat="51.119732" lon="13.588496"><ele>108.25</ele></trkpt>
   <trkpt lat="51.119122" lon="13.590045"><ele>108.75</ele></trkpt>
   <trkpt lat="51.118698" lon="13.591121"><ele>108.25</ele></trkpt>
   <trkpt lat="51.118577" lon="13.591419"><ele>108</ele></trkpt>
   <trkpt lat="51.11828" lon="13.592166"><ele>108</ele></trkpt>
   <trkpt lat="51.118111" lon="13.592549"><ele>108</ele></trkpt>
   <trkpt lat="51.11793" lon="13.592915"><ele>108.25</ele></trkpt>
   <trkpt lat="51.117679" lon="13.593355"><ele>109</ele></trkpt>
   <trkpt lat="51.117411" lon="13.593778"><ele>109.25</ele></trkpt>
   <trkpt lat="51.117188" lon="13.594102"><ele>109.5</ele></trkpt>
   <trkpt lat="51.11696" lon="13.594405"><ele>109.75</ele></trkpt>
   <trkpt lat="51.116579" lon="13.594844"><ele>110.25</ele></trkpt>
   <trkpt lat="51.116197" lon="13.595223"><ele>110</ele></trkpt>
   <trkpt lat="51.115793" lon="13.595567"><ele>109.5</ele></trkpt>
   <trkpt lat="51.114586" lon="13.596422"><ele>110.5</ele></trkpt>
   <trkpt lat="51.114375" lon="13.596574"><ele>110.75</ele></trkpt>
   <trkpt lat="51.113748" lon="13.597016"><ele>110.25</ele></trkpt>
   <trkpt lat="51.112704" lon="13.597801"><ele>109.5</ele></trkpt>
   <trkpt lat="51.11222" lon="13.598141"><ele>109.25</ele></trkpt>
   <trkpt lat="51.11205" lon="13.598249"><ele>109.5</ele></trkpt>
   <trkpt lat="51.11161" lon="13.598527"><ele>109.75</ele></trkpt>
   <trkpt lat="51.111388" lon="13.598661"><ele>109.75</ele></trkpt>
   <trkpt lat="51.111076" lon="13.598815"><ele>109.5</ele></trkpt>
   <trkpt lat="51.110851" lon="13.598907"><ele>109.5</ele></trkpt>
   <trkpt lat="51.110287" lon="13.599149"><ele>109.25</ele></trkpt>
   <trkpt lat="51.110167" lon="13.599201"><ele>109</ele></trkpt>
   <trkpt lat="51.109605" lon="13.599445"><ele>108.75</ele></trkpt>
   <trkpt lat="51.108977" lon="13.599717"><ele>108.25</ele></trkpt>
   <trkpt lat="51.108883" lon="13.599759"><ele>108.25</ele></trkpt>
   <trkpt lat="51.107122" lon="13.600528"><ele>107</ele></trkpt>
   <trkpt lat="51.107061" lon="13.600554"><ele>106.75</ele></trkpt>
   <trkpt lat="51.106869" lon="13.600638"><ele>106.25</ele></trkpt>
   <trkpt lat="51.10661" lon="13.600749"><ele>105.25</ele></trkpt>
  </trkseg>
 </trk>
</gpx>