<?xml version="1.0" encoding="UTF-8"?>
<!-- track-length = 10597 filtered ascend = 106 plain-ascend = 107 cost=10597 energy=0.2kwh time=14m 8s -->
<gpx 
 xmlns="http://www.topografix.com/GPX/1/1" 
 xmlns:xsi="http://www.w3.org/2001/XMLSchema-instance" 
 xsi:schemaLocation="http://www.topografix.com/GPX/1/1 http://www.topografix.com/GPX/1/1/gpx.xsd" 
 version="1.1" 
 creator="BRouter-Web 0.18.1">
 <trk>
  <name>neustadtdrs</name>
  <trkseg>
   <trkpt lat="51.065646" lon="13.740143"><ele>118.75</ele></trkpt>
   <trkpt lat="51.065854" lon="13.740468"><ele>119.25</ele></trkpt>
   <trkpt lat="51.066657" lon="13.741721"><ele>117.75</ele></trkpt>
   <trkpt lat="51.066811" lon="13.741961"><ele>117.25</ele></trkpt>
   <trkpt lat="51.066874" lon="13.742058"><ele>117</ele></trkpt>
   <trkpt lat="51.066978" lon="13.742221"><ele>116.75</ele></trkpt>
   <trkpt lat="51.067022" lon="13.742289"><ele>116.5</ele></trkpt>
   <trkpt lat="51.067119" lon="13.742433"><ele>116.25</ele></trkpt>
   <trkpt lat="51.067192" lon="13.742539"><ele>116.25</ele></trkpt>
   <trkpt lat="51.067246" lon="13.742616"><ele>116.25</ele></trkpt>
   <trkpt lat="51.067323" lon="13.742725"><ele>116.25</ele></trkpt>
   <trkpt lat="51.067341" lon="13.74275"><ele>116.25</ele></trkpt>
   <trkpt lat="51.067381" lon="13.742802"><ele>116.25</ele></trkpt>
   <trkpt lat="51.067566" lon="13.743073"><ele>116.5</ele></trkpt>
   <trkpt lat="51.067655" lon="13.743218"><ele>116.5</ele></trkpt>
   <trkpt lat="51.067802" lon="13.743478"><ele>116.5</ele></trkpt>
   <trkpt lat="51.068033" lon="13.743923"><ele>116</ele></trkpt>
   <trkpt lat="51.068236" lon="13.744279"><ele>116</ele></trkpt>
   <trkpt lat="51.068262" lon="13.744318"><ele>116</ele></trkpt>
   <trkpt lat="51.068411" lon="13.744552"><ele>116.25</ele></trkpt>
   <trkpt lat="51.068565" lon="13.744787"><ele>116.5</ele></trkpt>
   <trkpt lat="51.068853" lon="13.7452"><ele>117</ele></trkpt>
   <trkpt lat="51.069073" lon="13.745478"><ele>117</ele></trkpt>
   <trkpt lat="51.069133" lon="13.74555"><ele>117</ele></trkpt>
   <trkpt lat="51.069329" lon="13.745776"><ele>116.25</ele></trkpt>
   <trkpt lat="51.069537" lon="13.745994"><ele>115.5</ele></trkpt>
   <trkpt lat="51.070323" lon="13.746803"><ele>115.5</ele></trkpt>
   <trkpt lat="51.07038" lon="13.746861"><ele>115.5</ele></trkpt>
   <trkpt lat="51.070411" lon="13.746891"><ele>115.5</ele></trkpt>
   <trkpt lat="51.070437" lon="13.746916"><ele>115.25</ele></trkpt>
   <trkpt lat="51.070652" lon="13.747126"><ele>115</ele></trkpt>
   <trkpt lat="51.070863" lon="13.747337"><ele>115</ele></trkpt>
   <trkpt lat="51.071181" lon="13.747638"><ele>115.25</ele></trkpt>
   <trkpt lat="51.071272" lon="13.747721"><ele>115.5</ele></trkpt>
   <trkpt lat="51.071656" lon="13.748097"><ele>115.75</ele></trkpt>
   <trkpt lat="51.071707" lon="13.748155"><ele>116</ele></trkpt>
   <trkpt lat="51.071902" lon="13.748337"><ele>116.5</ele></trkpt>
   <trkpt lat="51.072227" lon="13.748654"><ele>117.25</ele></trkpt>
   <trkpt lat="51.072245" lon="13.748671"><ele>117.25</ele></trkpt>
   <trkpt lat="51.072751" lon="13.749236"><ele>117.75</ele></trkpt>
   <trkpt lat="51.073193" lon="13.749661"><ele>117.75</ele></trkpt>
   <trkpt lat="51.073691" lon="13.750078"><ele>118.5</ele></trkpt>
   <trkpt lat="51.073884" lon="13.750262"><ele>118.75</ele></trkpt>
   <trkpt lat="51.074072" lon="13.750443"><ele>119.25</ele></trkpt>
   <trkpt lat="51.074504" lon="13.750856"><ele>120.25</ele></trkpt>
   <trkpt lat="51.074673" lon="13.751017"><ele>120.75</ele></trkpt>
   <trkpt lat="51.075237" lon="13.751534"><ele>123</ele></trkpt>
   <trkpt lat="51.076781" lon="13.752946"><ele>128</ele></trkpt>
   <trkpt lat="51.076797" lon="13.752961"><ele>128</ele></trkpt>
   <trkpt lat="51.077219" lon="13.753349"><ele>128.5</ele></trkpt>
   <trkpt lat="51.077517" lon="13.753618"><ele>129.25</ele></trkpt>
   <trkpt lat="51.078336" lon="13.754367"><ele>133</ele></trkpt>
   <trkpt lat="51.078955" lon="13.754933"><ele>135.25</ele></trkpt>
   <trkpt lat="51.079104" lon="13.755068"><ele>135.75</ele></trkpt>
   <trkpt lat="51.07986" lon="13.75576"><ele>139.25</ele></trkpt>
   <trkpt lat="51.079894" lon="13.755791"><ele>139.25</ele></trkpt>
   <trkpt lat="51.081452" lon="13.757214"><ele>144.75</ele></trkpt>
   <trkpt lat="51.082133" lon="13.757836"><ele>145.75</ele></trkpt>
   <trkpt lat="51.082379" lon="13.758061"><ele>146.25</ele></trkpt>
   <trkpt lat="51.084311" lon="13.759826"><ele>146.25</ele></trkpt>
   <trkpt lat="51.087023" lon="13.762313"><ele>153.25</ele></trkpt>
   <trkpt lat="51.087659" lon="13.762894"><ele>154.25</ele></trkpt>
   <trkpt lat="51.08914" lon="13.764247"><ele>158</ele></trkpt>
   <trkpt lat="51.089295" lon="13.764389"><ele>158.5</ele></trkpt>
   <trkpt lat="51.090804" lon="13.765769"><ele>160</ele></trkpt>
   <trkpt lat="51.091598" lon="13.766495"><ele>160.75</ele></trkpt>
   <trkpt lat="51.092362" lon="13.767198"><ele>162</ele></trkpt>
   <trkpt lat="51.093516" lon="13.768253"><ele>161.75</ele></trkpt>
   <trkpt lat="51.093911" lon="13.768634"><ele>162.75</ele></trkpt>
   <trkpt lat="51.094022" lon="13.768741"><ele>163</ele></trkpt>
   <trkpt lat="51.094243" lon="13.768975"><ele>163.5</ele></trkpt>
   <trkpt lat="51.09446" lon="13.76922"><ele>163.75</ele></trkpt>
   <trkpt lat="51.094659" lon="13.769462"><ele>163.75</ele></trkpt>
   <trkpt lat="51.095019" lon="13.769947"><ele>163.25</ele></trkpt>
   <trkpt lat="51.095327" lon="13.770402"><ele>164.5</ele></trkpt>
   <trkpt lat="51.095424" lon="13.770546"><ele>165</ele></trkpt>
   <trkpt lat="51.095631" lon="13.770879"><ele>165.75</ele></trkpt>
   <trkpt lat="51.095826" lon="13.771214"><ele>166.5</ele></trkpt>
   <trkpt lat="51.096032" lon="13.771589"><ele>167</ele></trkpt>
   <trkpt lat="51.096246" lon="13.772004"><ele>168.75</ele></trkpt>
   <trkpt lat="51.096414" lon="13.772347"><ele>170</ele></trkpt>
   <trkpt lat="51.096491" lon="13.772515"><ele>170.5</ele></trkpt>
   <trkpt lat="51.09655" lon="13.772641"><ele>171</ele></trkpt>
   <trkpt lat="51.096769" lon="13.773145"><ele>172.25</ele></trkpt>
   <trkpt lat="51.097074" lon="13.773927"><ele>173</ele></trkpt>
   <trkpt lat="51.097348" lon="13.774728"><ele>173.75</ele></trkpt>
   <trkpt lat="51.097471" lon="13.775121"><ele>174.5</ele></trkpt>
   <trkpt lat="51.097583" lon="13.775511"><ele>175.75</ele></trkpt>
   <trkpt lat="51.097688" lon="13.775895"><ele>176.75</ele></trkpt>
   <trkpt lat="51.097786" lon="13.776308"><ele>177.75</ele></trkpt>
   <trkpt lat="51.097893" lon="13.776832"><ele>178.75</ele></trkpt>
   <trkpt lat="51.098046" lon="13.777673"><ele>179.75</ele></trkpt>
   <trkpt lat="51.098259" lon="13.779019"><ele>180.75</ele></trkpt>
   <trkpt lat="51.098416" lon="13.779924"><ele>180.75</ele></trkpt>
   <trkpt lat="51.098523" lon="13.78047"><ele>180</ele></trkpt>
   <trkpt lat="51.098602" lon="13.78083"><ele>179.5</ele></trkpt>
   <trkpt lat="51.098693" lon="13.781198"><ele>178.75</ele></trkpt>
   <trkpt lat="51.098805" lon="13.781605"><ele>178.25</ele></trkpt>
   <trkpt lat="51.098922" lon="13.781998"><ele>177.75</ele></trkpt>
   <trkpt lat="51.099047" lon="13.782376"><ele>177.75</ele></trkpt>
   <trkpt lat="51.099142" lon="13.782636"><ele>177.75</ele></trkpt>
   <trkpt lat="51.099274" lon="13.782986"><ele>178.5</ele></trkpt>
   <trkpt lat="51.099285" lon="13.783014"><ele>178.5</ele></trkpt>
   <trkpt lat="51.099585" lon="13.783703"><ele>181</ele></trkpt>
   <trkpt lat="51.099756" lon="13.784054"><ele>182.75</ele></trkpt>
   <trkpt lat="51.099924" lon="13.78438"><ele>184.5</ele></trkpt>
   <trkpt lat="51.100128" lon="13.784736"><ele>186</ele></trkpt>
   <trkpt lat="51.100326" lon="13.785055"><ele>187.25</ele></trkpt>
   <trkpt lat="51.100421" lon="13.785194"><ele>188.25</ele></trkpt>
   <trkpt lat="51.100522" lon="13.785354"><ele>189.25</ele></trkpt>
   <trkpt lat="51.100748" lon="13.785685"><ele>191.75</ele></trkpt>
   <trkpt lat="51.101009" lon="13.786028"><ele>193.5</ele></trkpt>
   <trkpt lat="51.101206" lon="13.78627"><ele>194</ele></trkpt>
   <trkpt lat="51.101475" lon="13.786572"><ele>194.25</ele></trkpt>
   <trkpt lat="51.101666" lon="13.786781"><ele>195.25</ele></trkpt>
   <trkpt lat="51.101883" lon="13.786995"><ele>197.5</ele></trkpt>
   <trkpt lat="51.102133" lon="13.787221"><ele>199.5</ele></trkpt>
   <trkpt lat="51.102524" lon="13.787535"><ele>200.75</ele></trkpt>
   <trkpt lat="51.102562" lon="13.787563"><ele>200.75</ele></trkpt>
   <trkpt lat="51.10293" lon="13.787824"><ele>199.25</ele></trkpt>
   <trkpt lat="51.10315" lon="13.787956"><ele>198</ele></trkpt>
   <trkpt lat="51.103508" lon="13.788145"><ele>196</ele></trkpt>
   <trkpt lat="51.103681" lon="13.788229"><ele>195.25</ele></trkpt>
   <trkpt lat="51.103828" lon="13.788288"><ele>195</ele></trkpt>
   <trkpt lat="51.103886" lon="13.788311"><ele>194.75</ele></trkpt>
   <trkpt lat="51.104207" lon="13.788426"><ele>194.5</ele></trkpt>
   <trkpt lat="51.104524" lon="13.78852"><ele>195.25</ele></trkpt>
   <trkpt lat="51.104762" lon="13.788574"><ele>195.75</ele></trkpt>
   <trkpt lat="51.105123" lon="13.78863"><ele>196</ele></trkpt>
   <trkpt lat="51.105168" lon="13.788637"><ele>195.75</ele></trkpt>
   <trkpt lat="51.10532" lon="13.788653"><ele>195.25</ele></trkpt>
   <trkpt lat="51.105577" lon="13.788668"><ele>194.25</ele></trkpt>
   <trkpt lat="51.105883" lon="13.788665"><ele>193.5</ele></trkpt>
   <trkpt lat="51.106251" lon="13.788628"><ele>194.5</ele></trkpt>
   <trkpt lat="51.106708" lon="13.788561"><ele>195.75</ele></trkpt>
   <trkpt lat="51.107044" lon="13.78848"><ele>196.5</ele></trkpt>
   <trkpt lat="51.107416" lon="13.788385"><ele>197.5</ele></trkpt>
   <trkpt lat="51.10844" lon="13.788096"><ele>200.75</ele></trkpt>
   <trkpt lat="51.108918" lon="13.787971"><ele>200.75</ele></trkpt>
   <trkpt lat="51.109182" lon="13.787901"><ele>201</ele></trkpt>
   <trkpt lat="51.110523" lon="13.787592"><ele>199.5</ele></trkpt>
   <trkpt lat="51.110703" lon="13.787574"><ele>199</ele></trkpt>
   <trkpt lat="51.111283" lon="13.787563"><ele>199</ele></trkpt>
   <trkpt lat="51.111517" lon="13.787578"><ele>199</ele></trkpt>
   <trkpt lat="51.111938" lon="13.787641"><ele>198.75</ele></trkpt>
   <trkpt lat="51.112228" lon="13.787698"><ele>198.5</ele></trkpt>
   <trkpt lat="51.11247" lon="13.787769"><ele>198.25</ele></trkpt>
   <trkpt lat="51.112604" lon="13.787814"><ele>197.75</ele></trkpt>
   <trkpt lat="51.112994" lon="13.787963"><ele>195.75</ele></trkpt>
   <trkpt lat="51.113192" lon="13.788052"><ele>194.5</ele></trkpt>
   <trkpt lat="51.113213" lon="13.788061"><ele>194.5</ele></trkpt>
   <trkpt lat="51.113728" lon="13.788346"><ele>193</ele></trkpt>
   <trkpt lat="51.113969" lon="13.788506"><ele>193.25</ele></trkpt>
   <trkpt lat="51.113983" lon="13.788516"><ele>193.25</ele></trkpt>
   <trkpt lat="51.114173" lon="13.788653"><ele>193.75</ele></trkpt>
   <trkpt lat="51.114341" lon="13.788776"><ele>193.75</ele></trkpt>
   <trkpt lat="51.11469" lon="13.789061"><ele>193.5</ele></trkpt>
   <trkpt lat="51.114836" lon="13.789187"><ele>193.25</ele></trkpt>
   <trkpt lat="51.115039" lon="13.789366"><ele>192.75</ele></trkpt>
   <trkpt lat="51.115647" lon="13.789976"><ele>194.25</ele></trkpt>
   <trkpt lat="51.115682" lon="13.790012"><ele>194.25</ele></trkpt>
   <trkpt lat="51.115708" lon="13.790038"><ele>194.5</ele></trkpt>
   <trkpt lat="51.116566" lon="13.790855"><ele>198.5</ele></trkpt>
   <trkpt lat="51.116678" lon="13.790975"><ele>198.25</ele></trkpt>
   <trkpt lat="51.118115" lon="13.792471"><ele>194.25</ele></trkpt>
   <trkpt lat="51.118369" lon="13.792736"><ele>193.75</ele></trkpt>
   <trkpt lat="51.118775" lon="13.793157"><ele>193</ele></trkpt>
   <trkpt lat="51.120438" lon="13.794886"><ele>195.5</ele></trkpt>
   <trkpt lat="51.120608" lon="13.795072"><ele>196.25</ele></trkpt>
   <trkpt lat="51.121533" lon="13.79603"><ele>198.5</ele></trkpt>
   <trkpt lat="51.121595" lon="13.796096"><ele>198.25</ele></trkpt>
   <trkpt lat="51.122553" lon="13.797096"><ele>197.5</ele></trkpt>
   <trkpt lat="51.122704" lon="13.797239"><ele>197.5</ele></trkpt>
   <trkpt lat="51.122939" lon="13.797429"><ele>197.5</ele></trkpt>
   <trkpt lat="51.123109" lon="13.797532"><ele>197.5</ele></trkpt>
   <trkpt lat="51.123242" lon="13.797597"><ele>197.75</ele></trkpt>
   <trkpt lat="51.123391" lon="13.797655"><ele>198</ele></trkpt>
   <trkpt lat="51.123568" lon="13.797703"><ele>198.5</ele></trkpt>
   <trkpt lat="51.123714" lon="13.797727"><ele>199</ele></trkpt>
   <trkpt lat="51.123855" lon="13.797734"><ele>199.75</ele></trkpt>
   <trkpt lat="51.124136" lon="13.797712"><ele>200.75</ele></trkpt>
   <trkpt lat="51.124288" lon="13.797674"><ele>201</ele></trkpt>
   <trkpt lat="51.124474" lon="13.797603"><ele>201</ele></trkpt>
   <trkpt lat="51.124629" lon="13.797533"><ele>201</ele></trkpt>
   <trkpt lat="51.124786" lon="13.797434"><ele>200.75</ele></trkpt>
   <trkpt lat="51.124932" lon="13.797326"><ele>200.5</ele></trkpt>
   <trkpt lat="51.125069" lon="13.797207"><ele>199.75</ele></trkpt>
   <trkpt lat="51.125199" lon="13.797073"><ele>198.75</ele></trkpt>
   <trkpt lat="51.12533" lon="13.796917"><ele>197.75</ele></trkpt>
   <trkpt lat="51.125427" lon="13.796784"><ele>197</ele></trkpt>
   <trkpt lat="51.125498" lon="13.796683"><ele>196.5</ele></trkpt>
   <trkpt lat="51.12559" lon="13.796533"><ele>196</ele></trkpt>
   <trkpt lat="51.125748" lon="13.796232"><ele>195.25</ele></trkpt>
   <trkpt lat="51.126086" lon="13.795461"><ele>195.5</ele></trkpt>
   <trkpt lat="51.126281" lon="13.794971"><ele>196</ele></trkpt>
   <trkpt lat="51.126374" lon="13.79471"><ele>195.75</ele></trkpt>
   <trkpt lat="51.127111" lon="13.792703"><ele>195.75</ele></trkpt>
   <trkpt lat="51.127338" lon="13.792067"><ele>196.25</ele></trkpt>
   <trkpt lat="51.127445" lon="13.791746"><ele>196.75</ele></trkpt>
   <trkpt lat="51.127526" lon="13.791461"><ele>197</ele></trkpt>
   <trkpt lat="51.127583" lon="13.791216"><ele>197.25</ele></trkpt>
   <trkpt lat="51.127627" lon="13.790985"><ele>197.25</ele></trkpt>
   <trkpt lat="51.127673" lon="13.790669"><ele>197.5</ele></trkpt>
   <trkpt lat="51.127703" lon="13.790397"><ele>197.75</ele></trkpt>
   <trkpt lat="51.127716" lon="13.790122"><ele>197.75</ele></trkpt>
   <trkpt lat="51.127721" lon="13.789819"><ele>198.25</ele></trkpt>
   <trkpt lat="51.127712" lon="13.789497"><ele>198.5</ele></trkpt>
   <trkpt lat="51.127696" lon="13.789234"><ele>198.75</ele></trkpt>
   <trkpt lat="51.127657" lon="13.788911"><ele>198.75</ele></trkpt>
   <trkpt lat="51.12743" lon="13.787698"><ele>199.5</ele></trkpt>
   <trkpt lat="51.127366" lon="13.787211"><ele>200.5</ele></trkpt>
   <trkpt lat="51.127339" lon="13.786747"><ele>201.75</ele></trkpt>
   <trkpt lat="51.127336" lon="13.78639"><ele>202.75</ele></trkpt>
   <trkpt lat="51.127346" lon="13.786146"><ele>203.75</ele></trkpt>
   <trkpt lat="51.127367" lon="13.785883"><ele>204.5</ele></trkpt>
   <trkpt lat="51.127421" lon="13.785477"><ele>205.5</ele></trkpt>
   <trkpt lat="51.127439" lon="13.785367"><ele>206</ele></trkpt>
   <trkpt lat="51.127491" lon="13.785127"><ele>206.5</ele></trkpt>
   <trkpt lat="51.127549" lon="13.784902"><ele>207.25</ele></trkpt>
   <trkpt lat="51.127707" lon="13.784401"><ele>209.25</ele></trkpt>
   <trkpt lat="51.127813" lon="13.784089"><ele>210.5</ele></trkpt>
   <trkpt lat="51.127897" lon="13.783819"><ele>211.5</ele></trkpt>
   <trkpt lat="51.127968" lon="13.783557"><ele>212.25</ele></trkpt>
   <trkpt lat="51.128034" lon="13.783303"><ele>212.75</ele></trkpt>
   <trkpt lat="51.128087" lon="13.783066"><ele>213.5</ele></trkpt>
   <trkpt lat="51.128138" lon="13.7828"><ele>214</ele></trkpt>
   <trkpt lat="51.128212" lon="13.782273"><ele>214.5</ele></trkpt>
   <trkpt lat="51.128253" lon="13.781889"><ele>214.75</ele></trkpt>
   <trkpt lat="51.128292" lon="13.78135"><ele>215.25</ele></trkpt>
   <trkpt lat="51.128308" lon="13.780995"><ele>215.75</ele></trkpt>
   <trkpt lat="51.128316" lon="13.780445"><ele>216</ele></trkpt>
   <trkpt lat="51.128313" lon="13.780168"><ele>216</ele></trkpt>
   <trkpt lat="51.128276" lon="13.779012"><ele>217</ele></trkpt>
   <trkpt lat="51.12824" lon="13.777864"><ele>218.25</ele></trkpt>
   <trkpt lat="51.128186" lon="13.776201"><ele>220.5</ele></trkpt>
   <trkpt lat="51.128134" lon="13.774646"><ele>221.75</ele></trkpt>
   <trkpt lat="51.128099" lon="13.774158"><ele>223</ele></trkpt>
   <trkpt lat="51.128063" lon="13.773862"><ele>223.25</ele></trkpt>
   <trkpt lat="51.128046" lon="13.773728"><ele>223.5</ele></trkpt>
   <trkpt lat="51.128023" lon="13.773584"><ele>223.75</ele></trkpt>
   <trkpt lat="51.127871" lon="13.77282"><ele>224.75</ele></trkpt>
   <trkpt lat="51.127745" lon="13.772249"><ele>224.75</ele></trkpt>
   <trkpt lat="51.127508" lon="13.771128"/>
   <trkpt lat="51.127359" lon="13.770456"/>
   <trkpt lat="51.127217" lon="13.769981"/>
   <trkpt lat="51.127114" lon="13.7697"/>
   <trkpt lat="51.126899" lon="13.769212"/>
   <trkpt lat="51.126764" lon="13.768979"/>
   <trkpt lat="51.126446" lon="13.768515"/>
   <trkpt lat="51.126172" lon="13.768143"/>
   <trkpt lat="51.125911" lon="13.767778"/>
   <trkpt lat="51.124887" lon="13.76635"/>
   <trkpt lat="51.124868" lon="13.766323"/>
   <trkpt lat="51.124627" lon="13.765983"/>
   <trkpt lat="51.124609" lon="13.765957"/>
  </trkseg>
 </trk>
</gpx>