<?xml version="1.0" encoding="UTF-8"?>
<!-- track-length = 34703 filtered ascend = 28 plain-ascend = -28 cost=34703 energy=0.4kwh time=46m 16s -->
<gpx 
 xmlns="http://www.topografix.com/GPX/1/1" 
 xmlns:xsi="http://www.w3.org/2001/XMLSchema-instance" 
 xsi:schemaLocation="http://www.topografix.com/GPX/1/1 http://www.topografix.com/GPX/1/1/gpx.xsd" 
 version="1.1" 
 creator="BRouter-Web 0.18.1">
 <trk>
  <name>Norderstedt-Mitte -&gt; Elmshorn</name>
  <trkseg>
   <trkpt lat="53.70754" lon="9.992397"><ele>34.5</ele></trkpt>
   <trkpt lat="53.707885" lon="9.992369"><ele>33</ele></trkpt>
   <trkpt lat="53.708888" lon="9.992285"><ele>30.25</ele></trkpt>
   <trkpt lat="53.70891" lon="9.992284"><ele>30.25</ele></trkpt>
   <trkpt lat="53.709079" lon="9.992272"><ele>30</ele></trkpt>
   <trkpt lat="53.709275" lon="9.992254"><ele>30.25</ele></trkpt>
   <trkpt lat="53.710193" lon="9.992171"><ele>31.75</ele></trkpt>
   <trkpt lat="53.710572" lon="9.992137"><ele>31.25</ele></trkpt>
   <trkpt lat="53.71242" lon="9.991997"><ele>31.75</ele></trkpt>
   <trkpt lat="53.712519" lon="9.99199"><ele>32</ele></trkpt>
   <trkpt lat="53.712635" lon="9.991983"><ele>32</ele></trkpt>
   <trkpt lat="53.712692" lon="9.99198"><ele>32</ele></trkpt>
   <trkpt lat="53.713687" lon="9.991923"><ele>32.5</ele></trkpt>
   <trkpt lat="53.71427" lon="9.991893"><ele>32</ele></trkpt>
   <trkpt lat="53.715137" lon="9.991846"><ele>32.25</ele></trkpt>
   <trkpt lat="53.715183" lon="9.991844"><ele>32.25</ele></trkpt>
   <trkpt lat="53.715465" lon="9.991825"><ele>33</ele></trkpt>
   <trkpt lat="53.716477" lon="9.991773"><ele>31.75</ele></trkpt>
   <trkpt lat="53.716564" lon="9.99177"><ele>31.25</ele></trkpt>
   <trkpt lat="53.716571" lon="9.99177"><ele>31.25</ele></trkpt>
   <trkpt lat="53.716699" lon="9.99176"><ele>31</ele></trkpt>
   <trkpt lat="53.717028" lon="9.991737"><ele>31</ele></trkpt>
   <trkpt lat="53.717865" lon="9.99169"><ele>30.5</ele></trkpt>
   <trkpt lat="53.719115" lon="9.991557"><ele>32.75</ele></trkpt>
   <trkpt lat="53.720298" lon="9.991257"><ele>34.75</ele></trkpt>
   <trkpt lat="53.721901" lon="9.990856"><ele>35.25</ele></trkpt>
   <trkpt lat="53.722178" lon="9.990769"><ele>35.5</ele></trkpt>
   <trkpt lat="53.722728" lon="9.990576"><ele>35.75</ele></trkpt>
   <trkpt lat="53.725461" lon="9.989823"><ele>35.25</ele></trkpt>
   <trkpt lat="53.726213" lon="9.989605"><ele>34.5</ele></trkpt>
   <trkpt lat="53.727193" lon="9.989337"><ele>36</ele></trkpt>
   <trkpt lat="53.728524" lon="9.988966"><ele>35</ele></trkpt>
   <trkpt lat="53.728868" lon="9.988888"><ele>35</ele></trkpt>
   <trkpt lat="53.729056" lon="9.98886"><ele>35</ele></trkpt>
   <trkpt lat="53.729231" lon="9.988852"><ele>35</ele></trkpt>
   <trkpt lat="53.730117" lon="9.988854"><ele>35</ele></trkpt>
   <trkpt lat="53.730662" lon="9.988885"><ele>35.75</ele></trkpt>
   <trkpt lat="53.731094" lon="9.988933"><ele>35.5</ele></trkpt>
   <trkpt lat="53.73187" lon="9.989108"><ele>35</ele></trkpt>
   <trkpt lat="53.73281" lon="9.989427"><ele>36.5</ele></trkpt>
   <trkpt lat="53.733219" lon="9.989611"><ele>37.25</ele></trkpt>
   <trkpt lat="53.733348" lon="9.989669"><ele>37.5</ele></trkpt>
   <trkpt lat="53.733646" lon="9.989781"><ele>37.25</ele></trkpt>
   <trkpt lat="53.733802" lon="9.989826"><ele>37</ele></trkpt>
   <trkpt lat="53.733861" lon="9.98984"><ele>37</ele></trkpt>
   <trkpt lat="53.733932" lon="9.989851"><ele>37</ele></trkpt>
   <trkpt lat="53.733996" lon="9.989863"><ele>37</ele></trkpt>
   <trkpt lat="53.734077" lon="9.989878"><ele>36.75</ele></trkpt>
   <trkpt lat="53.734312" lon="9.989901"><ele>36.5</ele></trkpt>
   <trkpt lat="53.735096" lon="9.98991"><ele>35.75</ele></trkpt>
   <trkpt lat="53.735204" lon="9.98991"><ele>35.5</ele></trkpt>
   <trkpt lat="53.735577" lon="9.989819"><ele>35.25</ele></trkpt>
   <trkpt lat="53.736817" lon="9.989397"><ele>33.5</ele></trkpt>
   <trkpt lat="53.737504" lon="9.989164"><ele>33</ele></trkpt>
   <trkpt lat="53.73757" lon="9.989142"><ele>33</ele></trkpt>
   <trkpt lat="53.738843" lon="9.98871"><ele>33</ele></trkpt>
   <trkpt lat="53.739192" lon="9.988598"><ele>33</ele></trkpt>
   <trkpt lat="53.739387" lon="9.988509"><ele>33.5</ele></trkpt>
   <trkpt lat="53.73948" lon="9.988451"><ele>34</ele></trkpt>
   <trkpt lat="53.739681" lon="9.988368"><ele>34.75</ele></trkpt>
   <trkpt lat="53.741523" lon="9.987742"><ele>34.75</ele></trkpt>
   <trkpt lat="53.741879" lon="9.987623"><ele>34.5</ele></trkpt>
   <trkpt lat="53.742146" lon="9.987534"><ele>34.25</ele></trkpt>
   <trkpt lat="53.74419" lon="9.98685"><ele>35.25</ele></trkpt>
   <trkpt lat="53.74445" lon="9.986763"><ele>36.25</ele></trkpt>
   <trkpt lat="53.744644" lon="9.986697"><ele>37.25</ele></trkpt>
   <trkpt lat="53.745581" lon="9.986394"><ele>41.5</ele></trkpt>
   <trkpt lat="53.747324" lon="9.985834"><ele>45.5</ele></trkpt>
   <trkpt lat="53.747652" lon="9.985733"><ele>45.75</ele></trkpt>
   <trkpt lat="53.748263" lon="9.98549"><ele>45.25</ele></trkpt>
   <trkpt lat="53.748685" lon="9.985217"><ele>42.75</ele></trkpt>
   <trkpt lat="53.749078" lon="9.984858"><ele>40</ele></trkpt>
   <trkpt lat="53.749173" lon="9.984761"><ele>39.5</ele></trkpt>
   <trkpt lat="53.749881" lon="9.984033"><ele>36</ele></trkpt>
   <trkpt lat="53.751136" lon="9.982738"><ele>32.75</ele></trkpt>
   <trkpt lat="53.752269" lon="9.981555"><ele>34.25</ele></trkpt>
   <trkpt lat="53.753724" lon="9.980034"><ele>39</ele></trkpt>
   <trkpt lat="53.754129" lon="9.979611"><ele>38.5</ele></trkpt>
   <trkpt lat="53.754148" lon="9.979592"><ele>38.5</ele></trkpt>
   <trkpt lat="53.754188" lon="9.97955"><ele>38.5</ele></trkpt>
   <trkpt lat="53.754224" lon="9.979512"><ele>39</ele></trkpt>
   <trkpt lat="53.75427" lon="9.979465"><ele>39.25</ele></trkpt>
   <trkpt lat="53.754288" lon="9.979446"><ele>39.5</ele></trkpt>
   <trkpt lat="53.755256" lon="9.978444"><ele>44</ele></trkpt>
   <trkpt lat="53.756259" lon="9.977404"><ele>43.5</ele></trkpt>
   <trkpt lat="53.756898" lon="9.976808"><ele>41</ele></trkpt>
   <trkpt lat="53.757374" lon="9.976416"><ele>42.25</ele></trkpt>
   <trkpt lat="53.757556" lon="9.976266"><ele>42.75</ele></trkpt>
   <trkpt lat="53.758215" lon="9.975796"><ele>42.25</ele></trkpt>
   <trkpt lat="53.758897" lon="9.975409"><ele>42</ele></trkpt>
   <trkpt lat="53.760763" lon="9.974509"><ele>46.25</ele></trkpt>
   <trkpt lat="53.763183" lon="9.973366"><ele>42.5</ele></trkpt>
   <trkpt lat="53.764189" lon="9.972902"><ele>44.75</ele></trkpt>
   <trkpt lat="53.765264" lon="9.972401"><ele>41.5</ele></trkpt>
   <trkpt lat="53.766795" lon="9.971677"><ele>34.5</ele></trkpt>
   <trkpt lat="53.767006" lon="9.971574"><ele>34</ele></trkpt>
   <trkpt lat="53.767668" lon="9.971264"><ele>32.75</ele></trkpt>
   <trkpt lat="53.768156" lon="9.971063"><ele>32.75</ele></trkpt>
   <trkpt lat="53.768517" lon="9.970959"><ele>33</ele></trkpt>
   <trkpt lat="53.768854" lon="9.970925"><ele>33.5</ele></trkpt>
   <trkpt lat="53.769194" lon="9.970915"><ele>33.75</ele></trkpt>
   <trkpt lat="53.769399" lon="9.970949"><ele>34.25</ele></trkpt>
   <trkpt lat="53.769828" lon="9.971022"><ele>35.25</ele></trkpt>
   <trkpt lat="53.7702" lon="9.971169"><ele>35</ele></trkpt>
   <trkpt lat="53.770568" lon="9.971359"><ele>34.25</ele></trkpt>
   <trkpt lat="53.770935" lon="9.971569"><ele>33.75</ele></trkpt>
   <trkpt lat="53.771802" lon="9.972062"><ele>34</ele></trkpt>
   <trkpt lat="53.772663" lon="9.972555"><ele>33.5</ele></trkpt>
   <trkpt lat="53.772676" lon="9.97256"><ele>33.5</ele></trkpt>
   <trkpt lat="53.772754" lon="9.972608"><ele>33.25</ele></trkpt>
   <trkpt lat="53.773233" lon="9.972886"><ele>32.5</ele></trkpt>
   <trkpt lat="53.773511" lon="9.973045"><ele>32.5</ele></trkpt>
   <trkpt lat="53.773533" lon="9.973057"><ele>32.5</ele></trkpt>
   <trkpt lat="53.773662" lon="9.973127"><ele>32.5</ele></trkpt>
   <trkpt lat="53.77375" lon="9.973175"><ele>32.5</ele></trkpt>
   <trkpt lat="53.774423" lon="9.973428"><ele>32</ele></trkpt>
   <trkpt lat="53.775194" lon="9.973653"><ele>31.75</ele></trkpt>
   <trkpt lat="53.775705" lon="9.973821"><ele>31</ele></trkpt>
   <trkpt lat="53.775784" lon="9.973842"><ele>31</ele></trkpt>
   <trkpt lat="53.776632" lon="9.97411"><ele>31.75</ele></trkpt>
   <trkpt lat="53.77675" lon="9.974145"><ele>31.75</ele></trkpt>
   <trkpt lat="53.777567" lon="9.974384"><ele>32.25</ele></trkpt>
   <trkpt lat="53.777658" lon="9.974411"><ele>32.25</ele></trkpt>
   <trkpt lat="53.778154" lon="9.974503"><ele>32.25</ele></trkpt>
   <trkpt lat="53.779185" lon="9.974555"><ele>31.25</ele></trkpt>
   <trkpt lat="53.779495" lon="9.974559"><ele>31.75</ele></trkpt>
   <trkpt lat="53.78114" lon="9.974582"><ele>29.75</ele></trkpt>
   <trkpt lat="53.782031" lon="9.974594"><ele>29.25</ele></trkpt>
   <trkpt lat="53.782943" lon="9.974614"><ele>26.5</ele></trkpt>
   <trkpt lat="53.783671" lon="9.97465"><ele>24.75</ele></trkpt>
   <trkpt lat="53.784127" lon="9.974723"><ele>24.5</ele></trkpt>
   <trkpt lat="53.78439" lon="9.97478"><ele>24.25</ele></trkpt>
   <trkpt lat="53.784751" lon="9.974884"><ele>24</ele></trkpt>
   <trkpt lat="53.78513" lon="9.975019"><ele>24</ele></trkpt>
   <trkpt lat="53.785836" lon="9.975375"><ele>25.25</ele></trkpt>
   <trkpt lat="53.78606" lon="9.975488"><ele>26.5</ele></trkpt>
   <trkpt lat="53.788117" lon="9.976765"><ele>32.75</ele></trkpt>
   <trkpt lat="53.788707" lon="9.977143"><ele>34.75</ele></trkpt>
   <trkpt lat="53.789042" lon="9.977396"><ele>35.75</ele></trkpt>
   <trkpt lat="53.789301" lon="9.977643"><ele>36.25</ele></trkpt>
   <trkpt lat="53.789458" lon="9.977827"><ele>37</ele></trkpt>
   <trkpt lat="53.789605" lon="9.978016"><ele>37</ele></trkpt>
   <trkpt lat="53.790085" lon="9.978803"><ele>37.25</ele></trkpt>
   <trkpt lat="53.790448" lon="9.979551"><ele>37.25</ele></trkpt>
   <trkpt lat="53.790808" lon="9.980057"><ele>37.5</ele></trkpt>
   <trkpt lat="53.791117" lon="9.98038"><ele>37.75</ele></trkpt>
   <trkpt lat="53.791619" lon="9.980682"><ele>37.75</ele></trkpt>
   <trkpt lat="53.791929" lon="9.980844"><ele>38</ele></trkpt>
   <trkpt lat="53.793642" lon="9.98162"><ele>38.5</ele></trkpt>
   <trkpt lat="53.794157" lon="9.981787"><ele>38.75</ele></trkpt>
   <trkpt lat="53.794624" lon="9.98194"><ele>39</ele></trkpt>
   <trkpt lat="53.794882" lon="9.982041"><ele>39</ele></trkpt>
   <trkpt lat="53.795523" lon="9.982296"><ele>39</ele></trkpt>
   <trkpt lat="53.795529" lon="9.982298"><ele>39</ele></trkpt>
   <trkpt lat="53.796019" lon="9.982494"><ele>38.75</ele></trkpt>
   <trkpt lat="53.796109" lon="9.982532"><ele>38.5</ele></trkpt>
   <trkpt lat="53.796734" lon="9.982716"><ele>37.75</ele></trkpt>
   <trkpt lat="53.79712" lon="9.982817"><ele>37</ele></trkpt>
   <trkpt lat="53.79735" lon="9.982851"><ele>36.25</ele></trkpt>
   <trkpt lat="53.797583" lon="9.982837"><ele>36</ele></trkpt>
   <trkpt lat="53.797777" lon="9.982793"><ele>36.25</ele></trkpt>
   <trkpt lat="53.797971" lon="9.982719"><ele>36.25</ele></trkpt>
   <trkpt lat="53.798234" lon="9.982556"><ele>36.75</ele></trkpt>
   <trkpt lat="53.798373" lon="9.982438"><ele>37</ele></trkpt>
   <trkpt lat="53.798506" lon="9.982304"><ele>37.25</ele></trkpt>
   <trkpt lat="53.798637" lon="9.982148"><ele>37.5</ele></trkpt>
   <trkpt lat="53.798762" lon="9.981972"><ele>37.75</ele></trkpt>
   <trkpt lat="53.798894" lon="9.981754"><ele>38</ele></trkpt>
   <trkpt lat="53.798979" lon="9.981594"><ele>38</ele></trkpt>
   <trkpt lat="53.799055" lon="9.981424"><ele>38</ele></trkpt>
   <trkpt lat="53.799186" lon="9.981072"><ele>38</ele></trkpt>
   <trkpt lat="53.79929" lon="9.980699"><ele>38.25</ele></trkpt>
   <trkpt lat="53.799346" lon="9.980444"><ele>38.75</ele></trkpt>
   <trkpt lat="53.799392" lon="9.980171"><ele>39</ele></trkpt>
   <trkpt lat="53.799415" lon="9.980007"><ele>39.25</ele></trkpt>
   <trkpt lat="53.799445" lon="9.979683"><ele>39.75</ele></trkpt>
   <trkpt lat="53.799456" lon="9.979446"><ele>39.75</ele></trkpt>
   <trkpt lat="53.79946" lon="9.979212"><ele>40</ele></trkpt>
   <trkpt lat="53.79945" lon="9.97889"><ele>40</ele></trkpt>
   <trkpt lat="53.799437" lon="9.978746"><ele>39.75</ele></trkpt>
   <trkpt lat="53.799433" lon="9.978691"><ele>39.75</ele></trkpt>
   <trkpt lat="53.799426" lon="9.978611"><ele>39.75</ele></trkpt>
   <trkpt lat="53.799416" lon="9.978526"><ele>39.75</ele></trkpt>
   <trkpt lat="53.799406" lon="9.978441"><ele>39.75</ele></trkpt>
   <trkpt lat="53.799355" lon="9.978106"><ele>39.75</ele></trkpt>
   <trkpt lat="53.799303" lon="9.977859"><ele>39.75</ele></trkpt>
   <trkpt lat="53.799247" lon="9.977639"><ele>39.75</ele></trkpt>
   <trkpt lat="53.799129" lon="9.977265"><ele>40</ele></trkpt>
   <trkpt lat="53.798997" lon="9.976949"><ele>40.25</ele></trkpt>
   <trkpt lat="53.798904" lon="9.976757"><ele>40.5</ele></trkpt>
   <trkpt lat="53.798523" lon="9.976054"><ele>40.75</ele></trkpt>
   <trkpt lat="53.798513" lon="9.976036"><ele>40.75</ele></trkpt>
   <trkpt lat="53.797915" lon="9.974945"><ele>40.25</ele></trkpt>
   <trkpt lat="53.796637" lon="9.972618"><ele>40.25</ele></trkpt>
   <trkpt lat="53.796593" lon="9.972537"><ele>40</ele></trkpt>
   <trkpt lat="53.796554" lon="9.972466"><ele>40</ele></trkpt>
   <trkpt lat="53.79454" lon="9.968803"><ele>37.5</ele></trkpt>
   <trkpt lat="53.794267" lon="9.968267"><ele>37</ele></trkpt>
   <trkpt lat="53.79416" lon="9.968013"><ele>37.25</ele></trkpt>
   <trkpt lat="53.794075" lon="9.967773"><ele>37.5</ele></trkpt>
   <trkpt lat="53.794003" lon="9.967541"><ele>37.75</ele></trkpt>
   <trkpt lat="53.793862" lon="9.966988"><ele>37.5</ele></trkpt>
   <trkpt lat="53.793815" lon="9.966727"><ele>37.5</ele></trkpt>
   <trkpt lat="53.793773" lon="9.966428"><ele>37.5</ele></trkpt>
   <trkpt lat="53.793746" lon="9.966164"><ele>37.75</ele></trkpt>
   <trkpt lat="53.793726" lon="9.965832"><ele>38</ele></trkpt>
   <trkpt lat="53.79372" lon="9.965542"><ele>38</ele></trkpt>
   <trkpt lat="53.793729" lon="9.965173"><ele>38.25</ele></trkpt>
   <trkpt lat="53.793765" lon="9.964572"><ele>37.75</ele></trkpt>
   <trkpt lat="53.793805" lon="9.964048"><ele>37.25</ele></trkpt>
   <trkpt lat="53.793826" lon="9.963711"><ele>36.75</ele></trkpt>
   <trkpt lat="53.793848" lon="9.963412"><ele>36.25</ele></trkpt>
   <trkpt lat="53.793963" lon="9.96173"><ele>36</ele></trkpt>
   <trkpt lat="53.794222" lon="9.958251"><ele>32.75</ele></trkpt>
   <trkpt lat="53.794509" lon="9.954196"><ele>30.75</ele></trkpt>
   <trkpt lat="53.794703" lon="9.951517"><ele>28.75</ele></trkpt>
   <trkpt lat="53.794766" lon="9.950332"><ele>29</ele></trkpt>
   <trkpt lat="53.794793" lon="9.94945"><ele>28.5</ele></trkpt>
   <trkpt lat="53.794792" lon="9.948673"><ele>28.25</ele></trkpt>
   <trkpt lat="53.794764" lon="9.948046"><ele>28</ele></trkpt>
   <trkpt lat="53.794718" lon="9.947372"><ele>28</ele></trkpt>
   <trkpt lat="53.794647" lon="9.946503"><ele>27.75</ele></trkpt>
   <trkpt lat="53.794486" lon="9.945277"><ele>26.5</ele></trkpt>
   <trkpt lat="53.794404" lon="9.944805"><ele>26</ele></trkpt>
   <trkpt lat="53.794301" lon="9.94434"><ele>25.25</ele></trkpt>
   <trkpt lat="53.793924" lon="9.943051"><ele>24.75</ele></trkpt>
   <trkpt lat="53.793576" lon="9.94191"><ele>25</ele></trkpt>
   <trkpt lat="53.792939" lon="9.939843"><ele>24.5</ele></trkpt>
   <trkpt lat="53.792301" lon="9.937739"><ele>27.75</ele></trkpt>
   <trkpt lat="53.791812" lon="9.936147"><ele>29.25</ele></trkpt>
   <trkpt lat="53.791478" lon="9.935059"><ele>29.25</ele></trkpt>
   <trkpt lat="53.791206" lon="9.934137"><ele>27.25</ele></trkpt>
   <trkpt lat="53.790956" lon="9.933194"><ele>26.75</ele></trkpt>
   <trkpt lat="53.790664" lon="9.931746"><ele>26.25</ele></trkpt>
   <trkpt lat="53.790527" lon="9.930755"><ele>26.5</ele></trkpt>
   <trkpt lat="53.790475" lon="9.930229"><ele>26.75</ele></trkpt>
   <trkpt lat="53.790438" lon="9.929676"><ele>27</ele></trkpt>
   <trkpt lat="53.790391" lon="9.928523"><ele>27.75</ele></trkpt>
   <trkpt lat="53.790381" lon="9.927646"><ele>27.5</ele></trkpt>
   <trkpt lat="53.790397" lon="9.926722"><ele>27.5</ele></trkpt>
   <trkpt lat="53.790458" lon="9.925675"><ele>27.75</ele></trkpt>
   <trkpt lat="53.790526" lon="9.924797"><ele>27.75</ele></trkpt>
   <trkpt lat="53.791053" lon="9.920056"><ele>28.5</ele></trkpt>
   <trkpt lat="53.791069" lon="9.919912"><ele>28.75</ele></trkpt>
   <trkpt lat="53.791086" lon="9.919766"><ele>28.75</ele></trkpt>
   <trkpt lat="53.791145" lon="9.919194"><ele>29.5</ele></trkpt>
   <trkpt lat="53.791434" lon="9.916579"><ele>30.5</ele></trkpt>
   <trkpt lat="53.79153" lon="9.915695"><ele>31.25</ele></trkpt>
   <trkpt lat="53.791781" lon="9.913388"><ele>32</ele></trkpt>
   <trkpt lat="53.791878" lon="9.912467"><ele>33.25</ele></trkpt>
   <trkpt lat="53.792032" lon="9.910872"><ele>34.25</ele></trkpt>
   <trkpt lat="53.792101" lon="9.909862"><ele>34.5</ele></trkpt>
   <trkpt lat="53.79213" lon="9.909023"><ele>35</ele></trkpt>
   <trkpt lat="53.792148" lon="9.907751"><ele>35</ele></trkpt>
   <trkpt lat="53.792029" lon="9.904986"><ele>32.25</ele></trkpt>
   <trkpt lat="53.791894" lon="9.901517"><ele>28</ele></trkpt>
   <trkpt lat="53.791888" lon="9.901361"><ele>27.75</ele></trkpt>
   <trkpt lat="53.791885" lon="9.901293"><ele>27.5</ele></trkpt>
   <trkpt lat="53.791884" lon="9.901264"><ele>27.5</ele></trkpt>
   <trkpt lat="53.791781" lon="9.898774"><ele>25.75</ele></trkpt>
   <trkpt lat="53.791692" lon="9.895846"><ele>23</ele></trkpt>
   <trkpt lat="53.791678" lon="9.895492"><ele>23</ele></trkpt>
   <trkpt lat="53.791671" lon="9.895328"><ele>23</ele></trkpt>
   <trkpt lat="53.791667" lon="9.895202"><ele>22.75</ele></trkpt>
   <trkpt lat="53.791665" lon="9.895148"><ele>22.75</ele></trkpt>
   <trkpt lat="53.791586" lon="9.893084"><ele>22.5</ele></trkpt>
   <trkpt lat="53.791575" lon="9.892532"><ele>22</ele></trkpt>
   <trkpt lat="53.791571" lon="9.891842"><ele>22</ele></trkpt>
   <trkpt lat="53.791574" lon="9.88926"><ele>23.75</ele></trkpt>
   <trkpt lat="53.791601" lon="9.886457"><ele>24</ele></trkpt>
   <trkpt lat="53.791615" lon="9.88495"><ele>24</ele></trkpt>
   <trkpt lat="53.791635" lon="9.882924"><ele>22</ele></trkpt>
   <trkpt lat="53.791641" lon="9.882231"><ele>22</ele></trkpt>
   <trkpt lat="53.791644" lon="9.882001"><ele>22</ele></trkpt>
   <trkpt lat="53.791667" lon="9.878879"><ele>22</ele></trkpt>
   <trkpt lat="53.791685" lon="9.876476"><ele>22.5</ele></trkpt>
   <trkpt lat="53.791687" lon="9.876181"><ele>22.25</ele></trkpt>
   <trkpt lat="53.791689" lon="9.876039"><ele>22</ele></trkpt>
   <trkpt lat="53.79169" lon="9.875878"><ele>22</ele></trkpt>
   <trkpt lat="53.791815" lon="9.863251"><ele>22.75</ele></trkpt>
   <trkpt lat="53.791817" lon="9.863065"><ele>22.5</ele></trkpt>
   <trkpt lat="53.791818" lon="9.862921"><ele>22.5</ele></trkpt>
   <trkpt lat="53.791825" lon="9.862112"><ele>22</ele></trkpt>
   <trkpt lat="53.79188" lon="9.855128"><ele>20.5</ele></trkpt>
   <trkpt lat="53.791888" lon="9.854129"><ele>20.5</ele></trkpt>
   <trkpt lat="53.791888" lon="9.853961"><ele>20.5</ele></trkpt>
   <trkpt lat="53.79189" lon="9.853796"><ele>20.5</ele></trkpt>
   <trkpt lat="53.791893" lon="9.853345"><ele>20.5</ele></trkpt>
   <trkpt lat="53.79191" lon="9.850293"><ele>22.5</ele></trkpt>
   <trkpt lat="53.791934" lon="9.847902"><ele>21</ele></trkpt>
   <trkpt lat="53.791977" lon="9.843498"><ele>19.25</ele></trkpt>
   <trkpt lat="53.791981" lon="9.843068"><ele>19</ele></trkpt>
   <trkpt lat="53.791984" lon="9.842841"><ele>19</ele></trkpt>
   <trkpt lat="53.792043" lon="9.836999"><ele>17</ele></trkpt>
   <trkpt lat="53.792149" lon="9.82653"><ele>26.75</ele></trkpt>
   <trkpt lat="53.792187" lon="9.822732"><ele>24</ele></trkpt>
   <trkpt lat="53.792189" lon="9.822533"><ele>23.5</ele></trkpt>
   <trkpt lat="53.79219" lon="9.822363"><ele>23.5</ele></trkpt>
   <trkpt lat="53.792191" lon="9.822317"><ele>23.5</ele></trkpt>
   <trkpt lat="53.79221" lon="9.817451"><ele>30</ele></trkpt>
   <trkpt lat="53.792216" lon="9.815965"><ele>28.25</ele></trkpt>
   <trkpt lat="53.792371" lon="9.810291"><ele>13</ele></trkpt>
   <trkpt lat="53.792743" lon="9.803624"><ele>9</ele></trkpt>
   <trkpt lat="53.79276" lon="9.802614"><ele>9</ele></trkpt>
   <trkpt lat="53.792696" lon="9.797378"><ele>8.75</ele></trkpt>
   <trkpt lat="53.792665" lon="9.795482"><ele>9.25</ele></trkpt>
   <trkpt lat="53.792663" lon="9.795332"><ele>9.25</ele></trkpt>
   <trkpt lat="53.792536" lon="9.784989"><ele>9.75</ele></trkpt>
   <trkpt lat="53.792525" lon="9.7842"><ele>8.75</ele></trkpt>
   <trkpt lat="53.792522" lon="9.784"><ele>8.75</ele></trkpt>
   <trkpt lat="53.792521" lon="9.783842"><ele>8.75</ele></trkpt>
   <trkpt lat="53.792499" lon="9.782185"><ele>8</ele></trkpt>
   <trkpt lat="53.792472" lon="9.78025"><ele>11.25</ele></trkpt>
   <trkpt lat="53.792515" lon="9.779006"><ele>11.75</ele></trkpt>
   <trkpt lat="53.792516" lon="9.778957"><ele>11.75</ele></trkpt>
   <trkpt lat="53.792521" lon="9.778778"><ele>11.75</ele></trkpt>
   <trkpt lat="53.792527" lon="9.778689"><ele>11.75</ele></trkpt>
   <trkpt lat="53.792546" lon="9.778335"><ele>11.75</ele></trkpt>
   <trkpt lat="53.792594" lon="9.777345"><ele>12.75</ele></trkpt>
   <trkpt lat="53.792657" lon="9.776262"><ele>13</ele></trkpt>
   <trkpt lat="53.792745" lon="9.774623"><ele>13.5</ele></trkpt>
   <trkpt lat="53.792756" lon="9.774414"><ele>13.75</ele></trkpt>
   <trkpt lat="53.79277" lon="9.774143"><ele>14</ele></trkpt>
   <trkpt lat="53.792798" lon="9.773571"><ele>14</ele></trkpt>
   <trkpt lat="53.792817" lon="9.773189"><ele>13.75</ele></trkpt>
   <trkpt lat="53.792836" lon="9.772836"><ele>13.5</ele></trkpt>
   <trkpt lat="53.792862" lon="9.772344"><ele>13.25</ele></trkpt>
   <trkpt lat="53.79287" lon="9.772183"><ele>13.25</ele></trkpt>
   <trkpt lat="53.792887" lon="9.771822"><ele>13.25</ele></trkpt>
   <trkpt lat="53.7929" lon="9.771529"><ele>13.5</ele></trkpt>
   <trkpt lat="53.792911" lon="9.771269"><ele>13.5</ele></trkpt>
   <trkpt lat="53.792914" lon="9.771204"><ele>13.75</ele></trkpt>
   <trkpt lat="53.792922" lon="9.770693"><ele>14</ele></trkpt>
   <trkpt lat="53.792908" lon="9.770172"><ele>14</ele></trkpt>
   <trkpt lat="53.792848" lon="9.769293"><ele>14</ele></trkpt>
   <trkpt lat="53.792819" lon="9.768955"><ele>14</ele></trkpt>
   <trkpt lat="53.792814" lon="9.768909"><ele>14</ele></trkpt>
   <trkpt lat="53.792809" lon="9.768839"><ele>14</ele></trkpt>
   <trkpt lat="53.792802" lon="9.768756"><ele>14</ele></trkpt>
   <trkpt lat="53.792652" lon="9.766873"><ele>14.75</ele></trkpt>
   <trkpt lat="53.792633" lon="9.766473"><ele>14.5</ele></trkpt>
   <trkpt lat="53.792624" lon="9.765657"><ele>14</ele></trkpt>
   <trkpt lat="53.792619" lon="9.762155"><ele>14</ele></trkpt>
   <trkpt lat="53.792621" lon="9.761066"><ele>14</ele></trkpt>
   <trkpt lat="53.792621" lon="9.760974"><ele>14</ele></trkpt>
   <trkpt lat="53.79262" lon="9.760917"><ele>14</ele></trkpt>
   <trkpt lat="53.792588" lon="9.75828"><ele>13</ele></trkpt>
   <trkpt lat="53.792594" lon="9.75171"><ele>13.5</ele></trkpt>
   <trkpt lat="53.792587" lon="9.750912"><ele>18</ele></trkpt>
   <trkpt lat="53.792606" lon="9.74638"><ele>20.5</ele></trkpt>
   <trkpt lat="53.792607" lon="9.746224"><ele>19.75</ele></trkpt>
   <trkpt lat="53.792462" lon="9.744434"><ele>14.75</ele></trkpt>
   <trkpt lat="53.792304" lon="9.743331"><ele>14.25</ele></trkpt>
   <trkpt lat="53.792105" lon="9.742248"><ele>13.25</ele></trkpt>
   <trkpt lat="53.791097" lon="9.737906"><ele>11.5</ele></trkpt>
   <trkpt lat="53.79066" lon="9.736026"><ele>10</ele></trkpt>
   <trkpt lat="53.78944" lon="9.730877"><ele>10.75</ele></trkpt>
   <trkpt lat="53.788182" lon="9.725643"><ele>12.25</ele></trkpt>
   <trkpt lat="53.787142" lon="9.72111"><ele>8.5</ele></trkpt>
   <trkpt lat="53.786992" lon="9.720459"><ele>8.25</ele></trkpt>
   <trkpt lat="53.786141" lon="9.716957"><ele>9</ele></trkpt>
   <trkpt lat="53.785835" lon="9.715695"><ele>8</ele></trkpt>
   <trkpt lat="53.785372" lon="9.714176"><ele>7.5</ele></trkpt>
   <trkpt lat="53.784892" lon="9.712904"><ele>7.75</ele></trkpt>
   <trkpt lat="53.7843" lon="9.71166"><ele>7</ele></trkpt>
   <trkpt lat="53.783892" lon="9.710707"><ele>6</ele></trkpt>
   <trkpt lat="53.7836" lon="9.709893"><ele>5.75</ele></trkpt>
   <trkpt lat="53.783338" lon="9.709025"><ele>4.75</ele></trkpt>
   <trkpt lat="53.783051" lon="9.707826"><ele>4.25</ele></trkpt>
   <trkpt lat="53.782902" lon="9.706982"><ele>4.5</ele></trkpt>
   <trkpt lat="53.78278" lon="9.706151"><ele>5.25</ele></trkpt>
   <trkpt lat="53.782624" lon="9.704562"><ele>5</ele></trkpt>
   <trkpt lat="53.782542" lon="9.703645"><ele>4.75</ele></trkpt>
   <trkpt lat="53.782126" lon="9.698679"><ele>2.5</ele></trkpt>
   <trkpt lat="53.781976" lon="9.69691"><ele>4</ele></trkpt>
   <trkpt lat="53.781966" lon="9.6968"><ele>4</ele></trkpt>
   <trkpt lat="53.781957" lon="9.696696"><ele>4.25</ele></trkpt>
   <trkpt lat="53.781769" lon="9.694555"><ele>4</ele></trkpt>
   <trkpt lat="53.781676" lon="9.693226"><ele>4</ele></trkpt>
   <trkpt lat="53.781648" lon="9.692666"><ele>4.75</ele></trkpt>
   <trkpt lat="53.781559" lon="9.69027"><ele>5.75</ele></trkpt>
   <trkpt lat="53.781475" lon="9.688363"><ele>5</ele></trkpt>
   <trkpt lat="53.781344" lon="9.685797"><ele>6.5</ele></trkpt>
   <trkpt lat="53.781339" lon="9.685718"><ele>6.5</ele></trkpt>
   <trkpt lat="53.781321" lon="9.685475"><ele>6.75</ele></trkpt>
   <trkpt lat="53.781291" lon="9.685043"><ele>6.75</ele></trkpt>
   <trkpt lat="53.781213" lon="9.683873"><ele>7</ele></trkpt>
   <trkpt lat="53.781128" lon="9.682484"><ele>7</ele></trkpt>
   <trkpt lat="53.781091" lon="9.682044"><ele>7</ele></trkpt>
   <trkpt lat="53.781039" lon="9.681534"><ele>7</ele></trkpt>
   <trkpt lat="53.780929" lon="9.680786"><ele>7</ele></trkpt>
   <trkpt lat="53.780863" lon="9.680448"><ele>6.75</ele></trkpt>
   <trkpt lat="53.780494" lon="9.679074"><ele>7</ele></trkpt>
   <trkpt lat="53.78016" lon="9.677874"><ele>6.5</ele></trkpt>
   <trkpt lat="53.779496" lon="9.675625"><ele>6.25</ele></trkpt>
   <trkpt lat="53.779187" lon="9.67466"><ele>6.25</ele></trkpt>
   <trkpt lat="53.778837" lon="9.673715"><ele>6.25</ele></trkpt>
   <trkpt lat="53.778744" lon="9.673482"><ele>6.25</ele></trkpt>
   <trkpt lat="53.778473" lon="9.672892"><ele>8</ele></trkpt>
   <trkpt lat="53.777699" lon="9.671342"><ele>9.25</ele></trkpt>
   <trkpt lat="53.777138" lon="9.670336"><ele>9.25</ele></trkpt>
   <trkpt lat="53.776569" lon="9.669397"><ele>9</ele></trkpt>
   <trkpt lat="53.775829" lon="9.66829"><ele>7.75</ele></trkpt>
   <trkpt lat="53.772709" lon="9.664048"><ele>2.5</ele></trkpt>
   <trkpt lat="53.772155" lon="9.663309"><ele>3</ele></trkpt>
   <trkpt lat="53.770351" lon="9.660895"><ele>3.75</ele></trkpt>
   <trkpt lat="53.768158" lon="9.657916"><ele>3.5</ele></trkpt>
   <trkpt lat="53.76798" lon="9.657675"><ele>3.5</ele></trkpt>
   <trkpt lat="53.767795" lon="9.657448"><ele>3.5</ele></trkpt>
   <trkpt lat="53.767519" lon="9.657139"><ele>3.75</ele></trkpt>
   <trkpt lat="53.767311" lon="9.656949"><ele>4</ele></trkpt>
   <trkpt lat="53.767099" lon="9.656784"><ele>4</ele></trkpt>
   <trkpt lat="53.766937" lon="9.65668"><ele>4</ele></trkpt>
   <trkpt lat="53.766777" lon="9.656588"><ele>4</ele></trkpt>
   <trkpt lat="53.766639" lon="9.656523"><ele>4</ele></trkpt>
   <trkpt lat="53.7665" lon="9.65647"><ele>4</ele></trkpt>
   <trkpt lat="53.766206" lon="9.656381"><ele>4.25</ele></trkpt>
   <trkpt lat="53.765924" lon="9.656339"><ele>4.25</ele></trkpt>
   <trkpt lat="53.765741" lon="9.656338"><ele>4.25</ele></trkpt>
   <trkpt lat="53.765561" lon="9.65635"><ele>4.5</ele></trkpt>
   <trkpt lat="53.76527" lon="9.656398"><ele>4.75</ele></trkpt>
   <trkpt lat="53.764791" lon="9.656515"><ele>5.25</ele></trkpt>
   <trkpt lat="53.76403" lon="9.656733"><ele>5.75</ele></trkpt>
   <trkpt lat="53.764019" lon="9.656736"><ele>5.75</ele></trkpt>
   <trkpt lat="53.762818" lon="9.657072"><ele>4.5</ele></trkpt>
   <trkpt lat="53.761825" lon="9.657351"><ele>4</ele></trkpt>
   <trkpt lat="53.760473" lon="9.657708"><ele>3.5</ele></trkpt>
   <trkpt lat="53.759918" lon="9.657839"><ele>4.25</ele></trkpt>
   <trkpt lat="53.758113" lon="9.658347"><ele>3.5</ele></trkpt>
   <trkpt lat="53.75731" lon="9.658575"><ele>3</ele></trkpt>
   <trkpt lat="53.756097" lon="9.658936"><ele>3.5</ele></trkpt>
   <trkpt lat="53.756029" lon="9.658958"><ele>3.5</ele></trkpt>
   <trkpt lat="53.755788" lon="9.659029"><ele>3.75</ele></trkpt>
   <trkpt lat="53.755354" lon="9.659151"><ele>4.5</ele></trkpt>
   <trkpt lat="53.754971" lon="9.659264"><ele>4.75</ele></trkpt>
  </trkseg>
 </trk>
</gpx>