<?xml version="1.0" encoding="UTF-8"?>
<!-- track-length = 87096 filtered ascend = 324 plain-ascend = 128 cost=87096 energy=1.1kwh time=1h 56m 8s -->
<gpx 
 xmlns="http://www.topografix.com/GPX/1/1" 
 xmlns:xsi="http://www.w3.org/2001/XMLSchema-instance" 
 xsi:schemaLocation="http://www.topografix.com/GPX/1/1 http://www.topografix.com/GPX/1/1/gpx.xsd" 
 version="1.1" 
 creator="BRouter-Web 0.18.1">
 <trk>
  <name>Novara -&gt; Domodossola</name>
  <trkseg>
   <trkpt lat="45.451207" lon="8.624998"><ele>149.5</ele></trkpt>
   <trkpt lat="45.451471" lon="8.624649"><ele>149.75</ele></trkpt>
   <trkpt lat="45.451605" lon="8.624461"><ele>149.75</ele></trkpt>
   <trkpt lat="45.452274" lon="8.623451"><ele>149.5</ele></trkpt>
   <trkpt lat="45.45257" lon="8.623"><ele>150</ele></trkpt>
   <trkpt lat="45.452955" lon="8.622532"><ele>150.25</ele></trkpt>
   <trkpt lat="45.45322" lon="8.622206"><ele>149.75</ele></trkpt>
   <trkpt lat="45.45354" lon="8.621822"><ele>149.75</ele></trkpt>
   <trkpt lat="45.453931" lon="8.621365"><ele>150.75</ele></trkpt>
   <trkpt lat="45.454144" lon="8.621146"><ele>151.75</ele></trkpt>
   <trkpt lat="45.454361" lon="8.620936"><ele>152.25</ele></trkpt>
   <trkpt lat="45.454852" lon="8.620541"><ele>151.25</ele></trkpt>
   <trkpt lat="45.455066" lon="8.620352"><ele>150.25</ele></trkpt>
   <trkpt lat="45.455329" lon="8.620128"><ele>150</ele></trkpt>
   <trkpt lat="45.455597" lon="8.619913"><ele>150.5</ele></trkpt>
   <trkpt lat="45.455846" lon="8.61973"><ele>151.75</ele></trkpt>
   <trkpt lat="45.457219" lon="8.618876"><ele>152.75</ele></trkpt>
   <trkpt lat="45.45767" lon="8.618666"><ele>152.75</ele></trkpt>
   <trkpt lat="45.458358" lon="8.618416"><ele>151.75</ele></trkpt>
   <trkpt lat="45.460453" lon="8.617891"><ele>153.5</ele></trkpt>
   <trkpt lat="45.467283" lon="8.616154"><ele>153.25</ele></trkpt>
   <trkpt lat="45.471982" lon="8.614968"><ele>154.5</ele></trkpt>
   <trkpt lat="45.473004" lon="8.614711"><ele>155.25</ele></trkpt>
   <trkpt lat="45.475308" lon="8.614128"><ele>157.5</ele></trkpt>
   <trkpt lat="45.475328" lon="8.614124"><ele>157.5</ele></trkpt>
   <trkpt lat="45.475424" lon="8.614101"><ele>157.25</ele></trkpt>
   <trkpt lat="45.477917" lon="8.613473"><ele>158.75</ele></trkpt>
   <trkpt lat="45.478603" lon="8.613297"><ele>158.5</ele></trkpt>
   <trkpt lat="45.4789" lon="8.613227"><ele>158.25</ele></trkpt>
   <trkpt lat="45.479015" lon="8.613195"><ele>158.25</ele></trkpt>
   <trkpt lat="45.479405" lon="8.613053"><ele>158.5</ele></trkpt>
   <trkpt lat="45.480033" lon="8.612894"><ele>159.5</ele></trkpt>
   <trkpt lat="45.483881" lon="8.611915"><ele>160.25</ele></trkpt>
   <trkpt lat="45.486603" lon="8.611223"><ele>161.5</ele></trkpt>
   <trkpt lat="45.487212" lon="8.611028"><ele>161.25</ele></trkpt>
   <trkpt lat="45.487961" lon="8.610749"><ele>160.75</ele></trkpt>
   <trkpt lat="45.488692" lon="8.610416"><ele>160.75</ele></trkpt>
   <trkpt lat="45.489015" lon="8.610255"><ele>161.5</ele></trkpt>
   <trkpt lat="45.489644" lon="8.60991"><ele>161.5</ele></trkpt>
   <trkpt lat="45.489875" lon="8.609773"><ele>161.5</ele></trkpt>
   <trkpt lat="45.491641" lon="8.608675"><ele>162</ele></trkpt>
   <trkpt lat="45.511639" lon="8.596301"><ele>172.25</ele></trkpt>
   <trkpt lat="45.513659" lon="8.59505"><ele>173.5</ele></trkpt>
   <trkpt lat="45.518583" lon="8.591995"><ele>176.25</ele></trkpt>
   <trkpt lat="45.518649" lon="8.591952"><ele>176.25</ele></trkpt>
   <trkpt lat="45.519198" lon="8.591618"><ele>176</ele></trkpt>
   <trkpt lat="45.522844" lon="8.589361"><ele>177.75</ele></trkpt>
   <trkpt lat="45.523693" lon="8.588836"><ele>178</ele></trkpt>
   <trkpt lat="45.523873" lon="8.588722"><ele>178</ele></trkpt>
   <trkpt lat="45.526886" lon="8.586863"><ele>180.5</ele></trkpt>
   <trkpt lat="45.528858" lon="8.585625"><ele>180.5</ele></trkpt>
   <trkpt lat="45.529432" lon="8.585281"><ele>181.25</ele></trkpt>
   <trkpt lat="45.529973" lon="8.584938"><ele>181.75</ele></trkpt>
   <trkpt lat="45.533324" lon="8.582866"><ele>186.5</ele></trkpt>
   <trkpt lat="45.533371" lon="8.582837"><ele>186.5</ele></trkpt>
   <trkpt lat="45.539425" lon="8.57908"><ele>188.75</ele></trkpt>
   <trkpt lat="45.5412" lon="8.577987"><ele>190.5</ele></trkpt>
   <trkpt lat="45.542916" lon="8.576912"><ele>191</ele></trkpt>
   <trkpt lat="45.55271" lon="8.570842"><ele>198.75</ele></trkpt>
   <trkpt lat="45.557984" lon="8.567579"><ele>200.5</ele></trkpt>
   <trkpt lat="45.564758" lon="8.563375"><ele>204.75</ele></trkpt>
   <trkpt lat="45.569091" lon="8.560695"><ele>207</ele></trkpt>
   <trkpt lat="45.569826" lon="8.560224"><ele>208.5</ele></trkpt>
   <trkpt lat="45.571606" lon="8.559123"><ele>209</ele></trkpt>
   <trkpt lat="45.572069" lon="8.558836"><ele>209.75</ele></trkpt>
   <trkpt lat="45.572741" lon="8.558397"><ele>211.5</ele></trkpt>
   <trkpt lat="45.573074" lon="8.558154"><ele>212.25</ele></trkpt>
   <trkpt lat="45.573377" lon="8.557918"><ele>212.5</ele></trkpt>
   <trkpt lat="45.574317" lon="8.557156"><ele>213</ele></trkpt>
   <trkpt lat="45.574657" lon="8.556882"><ele>212.5</ele></trkpt>
   <trkpt lat="45.574708" lon="8.556839"><ele>212.5</ele></trkpt>
   <trkpt lat="45.576111" lon="8.555694"><ele>212.75</ele></trkpt>
   <trkpt lat="45.577793" lon="8.554318"><ele>215.5</ele></trkpt>
   <trkpt lat="45.577896" lon="8.554233"><ele>215.75</ele></trkpt>
   <trkpt lat="45.581102" lon="8.551623"><ele>216</ele></trkpt>
   <trkpt lat="45.587371" lon="8.546482"><ele>220.5</ele></trkpt>
   <trkpt lat="45.589716" lon="8.544554"><ele>221.25</ele></trkpt>
   <trkpt lat="45.592481" lon="8.542291"><ele>225</ele></trkpt>
   <trkpt lat="45.592524" lon="8.542256"><ele>225</ele></trkpt>
   <trkpt lat="45.598952" lon="8.536976"><ele>228.75</ele></trkpt>
   <trkpt lat="45.599291" lon="8.536697"><ele>229.75</ele></trkpt>
   <trkpt lat="45.60065" lon="8.535593"><ele>229.5</ele></trkpt>
   <trkpt lat="45.601719" lon="8.53471"><ele>231.5</ele></trkpt>
   <trkpt lat="45.601761" lon="8.534675"><ele>231.5</ele></trkpt>
   <trkpt lat="45.601766" lon="8.534671"><ele>231.5</ele></trkpt>
   <trkpt lat="45.604781" lon="8.532199"><ele>233</ele></trkpt>
   <trkpt lat="45.607245" lon="8.530183"><ele>237</ele></trkpt>
   <trkpt lat="45.607289" lon="8.530148"><ele>237.25</ele></trkpt>
   <trkpt lat="45.612427" lon="8.525926"><ele>239.5</ele></trkpt>
   <trkpt lat="45.612473" lon="8.525889"><ele>239.75</ele></trkpt>
   <trkpt lat="45.616128" lon="8.522887"><ele>240</ele></trkpt>
   <trkpt lat="45.620356" lon="8.519429"><ele>246.25</ele></trkpt>
   <trkpt lat="45.622047" lon="8.518029"><ele>245.25</ele></trkpt>
   <trkpt lat="45.624104" lon="8.516349"><ele>249.75</ele></trkpt>
   <trkpt lat="45.625179" lon="8.515469"><ele>250</ele></trkpt>
   <trkpt lat="45.625223" lon="8.515433"><ele>250</ele></trkpt>
   <trkpt lat="45.625266" lon="8.515398"><ele>249.75</ele></trkpt>
   <trkpt lat="45.626756" lon="8.514178"><ele>250</ele></trkpt>
   <trkpt lat="45.629547" lon="8.511886"><ele>253.75</ele></trkpt>
   <trkpt lat="45.632326" lon="8.5096"><ele>253.75</ele></trkpt>
   <trkpt lat="45.632369" lon="8.509565"><ele>253.5</ele></trkpt>
   <trkpt lat="45.638293" lon="8.504706"><ele>257.75</ele></trkpt>
   <trkpt lat="45.638398" lon="8.504617"><ele>257.5</ele></trkpt>
   <trkpt lat="45.640213" lon="8.50312"><ele>258.75</ele></trkpt>
   <trkpt lat="45.641101" lon="8.502403"><ele>261</ele></trkpt>
   <trkpt lat="45.643278" lon="8.500604"><ele>261.75</ele></trkpt>
   <trkpt lat="45.644304" lon="8.49978"><ele>263.5</ele></trkpt>
   <trkpt lat="45.644728" lon="8.499454"><ele>264.5</ele></trkpt>
   <trkpt lat="45.644954" lon="8.49929"><ele>264.75</ele></trkpt>
   <trkpt lat="45.645397" lon="8.498991"><ele>264.75</ele></trkpt>
   <trkpt lat="45.645899" lon="8.498678"><ele>265.5</ele></trkpt>
   <trkpt lat="45.646332" lon="8.498434"><ele>265.25</ele></trkpt>
   <trkpt lat="45.647039" lon="8.498088"><ele>266.25</ele></trkpt>
   <trkpt lat="45.647775" lon="8.497756"><ele>266.75</ele></trkpt>
   <trkpt lat="45.648574" lon="8.497416"><ele>267</ele></trkpt>
   <trkpt lat="45.653793" lon="8.495421"><ele>269.25</ele></trkpt>
   <trkpt lat="45.655342" lon="8.49482"><ele>271.25</ele></trkpt>
   <trkpt lat="45.660236" lon="8.49294"><ele>276.25</ele></trkpt>
   <trkpt lat="45.668097" lon="8.489901"><ele>282.5</ele></trkpt>
   <trkpt lat="45.668613" lon="8.489674"><ele>282.5</ele></trkpt>
   <trkpt lat="45.669175" lon="8.489395"><ele>283.5</ele></trkpt>
   <trkpt lat="45.669591" lon="8.489178"><ele>283.25</ele></trkpt>
   <trkpt lat="45.670082" lon="8.488872"><ele>283</ele></trkpt>
   <trkpt lat="45.670575" lon="8.488546"><ele>283.75</ele></trkpt>
   <trkpt lat="45.672109" lon="8.487502"><ele>285.5</ele></trkpt>
   <trkpt lat="45.672152" lon="8.487473"><ele>285.5</ele></trkpt>
   <trkpt lat="45.674193" lon="8.4861"><ele>286.75</ele></trkpt>
   <trkpt lat="45.679174" lon="8.482707"><ele>291.25</ele></trkpt>
   <trkpt lat="45.682015" lon="8.48078"><ele>294.25</ele></trkpt>
   <trkpt lat="45.686847" lon="8.477498"><ele>299</ele></trkpt>
   <trkpt lat="45.689558" lon="8.475658"><ele>302.5</ele></trkpt>
   <trkpt lat="45.690797" lon="8.474818"><ele>301.75</ele></trkpt>
   <trkpt lat="45.694953" lon="8.472006"><ele>306</ele></trkpt>
   <trkpt lat="45.695285" lon="8.471787"><ele>306.25</ele></trkpt>
   <trkpt lat="45.696111" lon="8.471231"><ele>306.5</ele></trkpt>
   <trkpt lat="45.69677" lon="8.470804"><ele>308.75</ele></trkpt>
   <trkpt lat="45.696836" lon="8.470761"><ele>309</ele></trkpt>
   <trkpt lat="45.696926" lon="8.470701"><ele>309.5</ele></trkpt>
   <trkpt lat="45.698619" lon="8.469618"><ele>309.5</ele></trkpt>
   <trkpt lat="45.699742" lon="8.468924"><ele>310.5</ele></trkpt>
   <trkpt lat="45.700769" lon="8.46827"><ele>312</ele></trkpt>
   <trkpt lat="45.701188" lon="8.467989"><ele>313</ele></trkpt>
   <trkpt lat="45.701666" lon="8.467648"><ele>313.75</ele></trkpt>
   <trkpt lat="45.702073" lon="8.467344"><ele>313.25</ele></trkpt>
   <trkpt lat="45.702436" lon="8.467081"><ele>313</ele></trkpt>
   <trkpt lat="45.702593" lon="8.466969"><ele>313</ele></trkpt>
   <trkpt lat="45.703049" lon="8.466635"><ele>313.5</ele></trkpt>
   <trkpt lat="45.703316" lon="8.466445"><ele>313.5</ele></trkpt>
   <trkpt lat="45.704071" lon="8.465911"><ele>312</ele></trkpt>
   <trkpt lat="45.704698" lon="8.46549"><ele>312.5</ele></trkpt>
   <trkpt lat="45.704715" lon="8.465479"><ele>312.5</ele></trkpt>
   <trkpt lat="45.704821" lon="8.465408"><ele>312.25</ele></trkpt>
   <trkpt lat="45.705312" lon="8.465078"><ele>312</ele></trkpt>
   <trkpt lat="45.70555" lon="8.464917"><ele>311.75</ele></trkpt>
   <trkpt lat="45.707637" lon="8.463529"><ele>315</ele></trkpt>
   <trkpt lat="45.70771" lon="8.46348"><ele>315.25</ele></trkpt>
   <trkpt lat="45.716935" lon="8.45734"><ele>326.5</ele></trkpt>
   <trkpt lat="45.721423" lon="8.454358"><ele>333.25</ele></trkpt>
   <trkpt lat="45.726625" lon="8.450886"><ele>334</ele></trkpt>
   <trkpt lat="45.730282" lon="8.448447"><ele>339.25</ele></trkpt>
   <trkpt lat="45.730331" lon="8.448415"><ele>339.25</ele></trkpt>
   <trkpt lat="45.732516" lon="8.446944"><ele>339.5</ele></trkpt>
   <trkpt lat="45.734483" lon="8.445636"><ele>341.5</ele></trkpt>
   <trkpt lat="45.735009" lon="8.445285"><ele>342</ele></trkpt>
   <trkpt lat="45.735662" lon="8.444828"><ele>342.25</ele></trkpt>
   <trkpt lat="45.73604" lon="8.444571"><ele>342.75</ele></trkpt>
   <trkpt lat="45.73712" lon="8.443791"><ele>345.25</ele></trkpt>
   <trkpt lat="45.737768" lon="8.443375"><ele>347</ele></trkpt>
   <trkpt lat="45.738767" lon="8.442655"><ele>347</ele></trkpt>
   <trkpt lat="45.738996" lon="8.442513"><ele>347.5</ele></trkpt>
   <trkpt lat="45.739469" lon="8.442241"><ele>347.25</ele></trkpt>
   <trkpt lat="45.739707" lon="8.442123"><ele>347.25</ele></trkpt>
   <trkpt lat="45.739959" lon="8.442016"><ele>347.5</ele></trkpt>
   <trkpt lat="45.740194" lon="8.441927"><ele>347.25</ele></trkpt>
   <trkpt lat="45.740414" lon="8.441856"><ele>347</ele></trkpt>
   <trkpt lat="45.740669" lon="8.441782"><ele>346.75</ele></trkpt>
   <trkpt lat="45.740997" lon="8.441699"><ele>346.5</ele></trkpt>
   <trkpt lat="45.741538" lon="8.441575"><ele>346.25</ele></trkpt>
   <trkpt lat="45.743522" lon="8.441147"><ele>349.25</ele></trkpt>
   <trkpt lat="45.744061" lon="8.441026"><ele>349.25</ele></trkpt>
   <trkpt lat="45.744476" lon="8.440932"><ele>348.75</ele></trkpt>
   <trkpt lat="45.745789" lon="8.440635"><ele>346.5</ele></trkpt>
   <trkpt lat="45.74655" lon="8.44042"><ele>349</ele></trkpt>
   <trkpt lat="45.746939" lon="8.440342"><ele>350.5</ele></trkpt>
   <trkpt lat="45.747535" lon="8.440253"><ele>353.5</ele></trkpt>
   <trkpt lat="45.747927" lon="8.440214"><ele>353.5</ele></trkpt>
   <trkpt lat="45.748239" lon="8.440197"><ele>353.5</ele></trkpt>
   <trkpt lat="45.748608" lon="8.440192"><ele>355</ele></trkpt>
   <trkpt lat="45.750273" lon="8.440313"><ele>359.5</ele></trkpt>
   <trkpt lat="45.752001" lon="8.44041"><ele>355.75</ele></trkpt>
   <trkpt lat="45.75291" lon="8.440449"><ele>353.5</ele></trkpt>
   <trkpt lat="45.753763" lon="8.440512"><ele>355.25</ele></trkpt>
   <trkpt lat="45.754287" lon="8.44056"><ele>356.75</ele></trkpt>
   <trkpt lat="45.756116" lon="8.440693"><ele>358.75</ele></trkpt>
   <trkpt lat="45.75952" lon="8.440778"><ele>363.75</ele></trkpt>
   <trkpt lat="45.759678" lon="8.440782"><ele>363.75</ele></trkpt>
   <trkpt lat="45.759683" lon="8.440782"><ele>369</ele></trkpt>
   <trkpt lat="45.762538" lon="8.440872"><ele>369</ele></trkpt>
   <trkpt lat="45.762761" lon="8.440889"><ele>370.75</ele></trkpt>
   <trkpt lat="45.762989" lon="8.440925"><ele>373</ele></trkpt>
   <trkpt lat="45.763155" lon="8.440972"><ele>375</ele></trkpt>
   <trkpt lat="45.764147" lon="8.441274"><ele>383</ele></trkpt>
   <trkpt lat="45.764578" lon="8.441431"><ele>381.25</ele></trkpt>
   <trkpt lat="45.765062" lon="8.44151"><ele>377.5</ele></trkpt>
   <trkpt lat="45.765267" lon="8.44153"><ele>377.25</ele></trkpt>
   <trkpt lat="45.765485" lon="8.441523"><ele>376.75</ele></trkpt>
   <trkpt lat="45.76571" lon="8.441503"><ele>376.25</ele></trkpt>
   <trkpt lat="45.765948" lon="8.441454"><ele>376</ele></trkpt>
   <trkpt lat="45.766231" lon="8.44138"><ele>376.5</ele></trkpt>
   <trkpt lat="45.76641" lon="8.44132"><ele>376.25</ele></trkpt>
   <trkpt lat="45.766759" lon="8.441161"><ele>376</ele></trkpt>
   <trkpt lat="45.766881" lon="8.441087"><ele>376.75</ele></trkpt>
   <trkpt lat="45.767194" lon="8.440851"><ele>377.25</ele></trkpt>
   <trkpt lat="45.767353" lon="8.440711"><ele>378.25</ele></trkpt>
   <trkpt lat="45.767516" lon="8.440552"><ele>378.75</ele></trkpt>
   <trkpt lat="45.767623" lon="8.440442"><ele>379.25</ele></trkpt>
   <trkpt lat="45.767724" lon="8.440324"><ele>379.25</ele></trkpt>
   <trkpt lat="45.767833" lon="8.440189"><ele>378.75</ele></trkpt>
   <trkpt lat="45.767961" lon="8.440011"><ele>377.25</ele></trkpt>
   <trkpt lat="45.76814" lon="8.439747"><ele>376.25</ele></trkpt>
   <trkpt lat="45.768446" lon="8.439269"><ele>373.25</ele></trkpt>
   <trkpt lat="45.768734" lon="8.438836"><ele>374.25</ele></trkpt>
   <trkpt lat="45.769218" lon="8.438125"><ele>374</ele></trkpt>
   <trkpt lat="45.769439" lon="8.437825"><ele>376</ele></trkpt>
   <trkpt lat="45.769682" lon="8.437535"><ele>376.75</ele></trkpt>
   <trkpt lat="45.769959" lon="8.437229"><ele>377.5</ele></trkpt>
   <trkpt lat="45.770331" lon="8.436827"><ele>377.25</ele></trkpt>
   <trkpt lat="45.770695" lon="8.436449"><ele>375.5</ele></trkpt>
   <trkpt lat="45.770981" lon="8.436177"><ele>375.5</ele></trkpt>
   <trkpt lat="45.771262" lon="8.435947"><ele>375.75</ele></trkpt>
   <trkpt lat="45.772652" lon="8.434973"><ele>374.25</ele></trkpt>
   <trkpt lat="45.772888" lon="8.434756"><ele>377.5</ele></trkpt>
   <trkpt lat="45.773262" lon="8.43438"><ele>379</ele></trkpt>
   <trkpt lat="45.776689" lon="8.430411"><ele>367.25</ele></trkpt>
   <trkpt lat="45.77684" lon="8.430258"><ele>366.5</ele></trkpt>
   <trkpt lat="45.777006" lon="8.430108"><ele>366.25</ele></trkpt>
   <trkpt lat="45.777177" lon="8.42997"><ele>366</ele></trkpt>
   <trkpt lat="45.77732" lon="8.429865"><ele>366</ele></trkpt>
   <trkpt lat="45.777681" lon="8.429648"><ele>366.5</ele></trkpt>
   <trkpt lat="45.777942" lon="8.42953"><ele>367</ele></trkpt>
   <trkpt lat="45.778071" lon="8.429482"><ele>367.25</ele></trkpt>
   <trkpt lat="45.778258" lon="8.42943"><ele>368.25</ele></trkpt>
   <trkpt lat="45.778446" lon="8.429385"><ele>368.75</ele></trkpt>
   <trkpt lat="45.778659" lon="8.429352"><ele>369.5</ele></trkpt>
   <trkpt lat="45.779187" lon="8.42933"><ele>372.25</ele></trkpt>
   <trkpt lat="45.779582" lon="8.429305"><ele>373</ele></trkpt>
   <trkpt lat="45.779786" lon="8.429283"><ele>373.25</ele></trkpt>
   <trkpt lat="45.780141" lon="8.429205"><ele>373.25</ele></trkpt>
   <trkpt lat="45.780291" lon="8.429158"><ele>373.5</ele></trkpt>
   <trkpt lat="45.780447" lon="8.429095"><ele>373.5</ele></trkpt>
   <trkpt lat="45.780603" lon="8.429021"><ele>373.5</ele></trkpt>
   <trkpt lat="45.780753" lon="8.428938"><ele>373</ele></trkpt>
   <trkpt lat="45.78091" lon="8.428837"><ele>372.75</ele></trkpt>
   <trkpt lat="45.781264" lon="8.428543"><ele>371</ele></trkpt>
   <trkpt lat="45.781433" lon="8.428387"><ele>369.25</ele></trkpt>
   <trkpt lat="45.781649" lon="8.42817"><ele>366.5</ele></trkpt>
   <trkpt lat="45.782742" lon="8.427057"><ele>367.25</ele></trkpt>
   <trkpt lat="45.783906" lon="8.42585"><ele>368</ele></trkpt>
   <trkpt lat="45.784078" lon="8.4257"><ele>367.75</ele></trkpt>
   <trkpt lat="45.784581" lon="8.425299"><ele>365.75</ele></trkpt>
   <trkpt lat="45.785185" lon="8.424847"><ele>363.75</ele></trkpt>
   <trkpt lat="45.785893" lon="8.424341"><ele>361</ele></trkpt>
   <trkpt lat="45.786126" lon="8.4242"><ele>359.75</ele></trkpt>
   <trkpt lat="45.786325" lon="8.424096"><ele>360</ele></trkpt>
   <trkpt lat="45.786546" lon="8.423994"><ele>361.25</ele></trkpt>
   <trkpt lat="45.786906" lon="8.423844"><ele>362.25</ele></trkpt>
   <trkpt lat="45.787167" lon="8.423743"><ele>362.75</ele></trkpt>
   <trkpt lat="45.788365" lon="8.423287"><ele>360.5</ele></trkpt>
   <trkpt lat="45.788696" lon="8.423161"><ele>359.75</ele></trkpt>
   <trkpt lat="45.788967" lon="8.423048"><ele>359.5</ele></trkpt>
   <trkpt lat="45.789118" lon="8.422977"><ele>359.5</ele></trkpt>
   <trkpt lat="45.789434" lon="8.422787"><ele>359.5</ele></trkpt>
   <trkpt lat="45.789618" lon="8.422661"><ele>359.25</ele></trkpt>
   <trkpt lat="45.790068" lon="8.422308"><ele>358.75</ele></trkpt>
   <trkpt lat="45.791501" lon="8.421113"><ele>358</ele></trkpt>
   <trkpt lat="45.791643" lon="8.421007"><ele>359</ele></trkpt>
   <trkpt lat="45.791837" lon="8.420876"><ele>359</ele></trkpt>
   <trkpt lat="45.79205" lon="8.420756"><ele>358.5</ele></trkpt>
   <trkpt lat="45.792253" lon="8.420654"><ele>358.25</ele></trkpt>
   <trkpt lat="45.792714" lon="8.420489"><ele>358</ele></trkpt>
   <trkpt lat="45.792938" lon="8.420427"><ele>358</ele></trkpt>
   <trkpt lat="45.793105" lon="8.420397"><ele>357.75</ele></trkpt>
   <trkpt lat="45.793215" lon="8.420379"><ele>357.75</ele></trkpt>
   <trkpt lat="45.793398" lon="8.420379"><ele>357.75</ele></trkpt>
   <trkpt lat="45.7935" lon="8.42039"><ele>358</ele></trkpt>
   <trkpt lat="45.794074" lon="8.420453"><ele>358</ele></trkpt>
   <trkpt lat="45.79426" lon="8.420485"><ele>358</ele></trkpt>
   <trkpt lat="45.79462" lon="8.420582"><ele>358.5</ele></trkpt>
   <trkpt lat="45.79483" lon="8.420657"><ele>358.75</ele></trkpt>
   <trkpt lat="45.795017" lon="8.420739"><ele>358.75</ele></trkpt>
   <trkpt lat="45.795426" lon="8.420964"><ele>359.25</ele></trkpt>
   <trkpt lat="45.795618" lon="8.421092"><ele>359.5</ele></trkpt>
   <trkpt lat="45.795868" lon="8.421278"><ele>359.75</ele></trkpt>
   <trkpt lat="45.796312" lon="8.421627"><ele>359.5</ele></trkpt>
   <trkpt lat="45.796512" lon="8.421753"><ele>359.25</ele></trkpt>
   <trkpt lat="45.796782" lon="8.421938"><ele>358.25</ele></trkpt>
   <trkpt lat="45.796823" lon="8.421969"><ele>358</ele></trkpt>
   <trkpt lat="45.797605" lon="8.422588"><ele>356</ele></trkpt>
   <trkpt lat="45.797763" lon="8.4227"><ele>356.25</ele></trkpt>
   <trkpt lat="45.797931" lon="8.422805"><ele>356.75</ele></trkpt>
   <trkpt lat="45.798142" lon="8.42292"><ele>357.25</ele></trkpt>
   <trkpt lat="45.798327" lon="8.423004"><ele>358</ele></trkpt>
   <trkpt lat="45.798526" lon="8.423079"><ele>357.75</ele></trkpt>
   <trkpt lat="45.798733" lon="8.423141"><ele>357.25</ele></trkpt>
   <trkpt lat="45.798887" lon="8.423177"><ele>356.75</ele></trkpt>
   <trkpt lat="45.799062" lon="8.423204"><ele>356</ele></trkpt>
   <trkpt lat="45.79928" lon="8.423224"><ele>355.25</ele></trkpt>
   <trkpt lat="45.800641" lon="8.423316"><ele>354.75</ele></trkpt>
   <trkpt lat="45.800955" lon="8.423322"><ele>354.5</ele></trkpt>
   <trkpt lat="45.801198" lon="8.423311"><ele>353.75</ele></trkpt>
   <trkpt lat="45.80138" lon="8.423284"><ele>353</ele></trkpt>
   <trkpt lat="45.801586" lon="8.423241"><ele>351.5</ele></trkpt>
   <trkpt lat="45.801915" lon="8.423125"><ele>351.75</ele></trkpt>
   <trkpt lat="45.8021" lon="8.423042"><ele>352.25</ele></trkpt>
   <trkpt lat="45.802299" lon="8.422931"><ele>352.75</ele></trkpt>
   <trkpt lat="45.802456" lon="8.422828"><ele>352.75</ele></trkpt>
   <trkpt lat="45.802731" lon="8.42262"><ele>353.5</ele></trkpt>
   <trkpt lat="45.802875" lon="8.422497"><ele>353.5</ele></trkpt>
   <trkpt lat="45.803008" lon="8.422366"><ele>352.75</ele></trkpt>
   <trkpt lat="45.803177" lon="8.422181"><ele>352</ele></trkpt>
   <trkpt lat="45.803555" lon="8.421731"><ele>350.75</ele></trkpt>
   <trkpt lat="45.804165" lon="8.421051"><ele>348.5</ele></trkpt>
   <trkpt lat="45.804538" lon="8.420697"><ele>347.75</ele></trkpt>
   <trkpt lat="45.804755" lon="8.420514"><ele>347.5</ele></trkpt>
   <trkpt lat="45.804947" lon="8.420365"><ele>348.25</ele></trkpt>
   <trkpt lat="45.805976" lon="8.419634"><ele>353</ele></trkpt>
   <trkpt lat="45.806172" lon="8.419486"><ele>352.75</ele></trkpt>
   <trkpt lat="45.806289" lon="8.41939"><ele>352.5</ele></trkpt>
   <trkpt lat="45.806427" lon="8.419262"><ele>351.75</ele></trkpt>
   <trkpt lat="45.806505" lon="8.419186"><ele>351.25</ele></trkpt>
   <trkpt lat="45.80667" lon="8.419001"><ele>351.75</ele></trkpt>
   <trkpt lat="45.806798" lon="8.418836"><ele>352.5</ele></trkpt>
   <trkpt lat="45.806913" lon="8.418675"><ele>353</ele></trkpt>
   <trkpt lat="45.807025" lon="8.418503"><ele>353.25</ele></trkpt>
   <trkpt lat="45.807147" lon="8.418291"><ele>353.5</ele></trkpt>
   <trkpt lat="45.80726" lon="8.418077"><ele>353.75</ele></trkpt>
   <trkpt lat="45.807354" lon="8.41788"><ele>354</ele></trkpt>
   <trkpt lat="45.807534" lon="8.417451"><ele>353.75</ele></trkpt>
   <trkpt lat="45.807632" lon="8.417189"><ele>352</ele></trkpt>
   <trkpt lat="45.807997" lon="8.416146"><ele>346</ele></trkpt>
   <trkpt lat="45.808236" lon="8.415506"><ele>345.25</ele></trkpt>
   <trkpt lat="45.808325" lon="8.4153"><ele>345</ele></trkpt>
   <trkpt lat="45.808557" lon="8.414855"><ele>345.25</ele></trkpt>
   <trkpt lat="45.808678" lon="8.414662"><ele>343.5</ele></trkpt>
   <trkpt lat="45.808856" lon="8.414406"><ele>341.25</ele></trkpt>
   <trkpt lat="45.809076" lon="8.414122"><ele>339.25</ele></trkpt>
   <trkpt lat="45.809419" lon="8.413697"><ele>340.75</ele></trkpt>
   <trkpt lat="45.809595" lon="8.413496"><ele>342</ele></trkpt>
   <trkpt lat="45.809725" lon="8.413354"><ele>343.25</ele></trkpt>
   <trkpt lat="45.809901" lon="8.413187"><ele>344.75</ele></trkpt>
   <trkpt lat="45.810094" lon="8.413022"><ele>344</ele></trkpt>
   <trkpt lat="45.81026" lon="8.412904"><ele>342.5</ele></trkpt>
   <trkpt lat="45.810412" lon="8.41281"><ele>341.5</ele></trkpt>
   <trkpt lat="45.810572" lon="8.412722"><ele>341</ele></trkpt>
   <trkpt lat="45.810762" lon="8.412632"><ele>340.5</ele></trkpt>
   <trkpt lat="45.81116" lon="8.412491"><ele>340.75</ele></trkpt>
   <trkpt lat="45.811405" lon="8.412415"><ele>341.5</ele></trkpt>
   <trkpt lat="45.811852" lon="8.412307"><ele>342</ele></trkpt>
   <trkpt lat="45.812004" lon="8.412282"><ele>341.75</ele></trkpt>
   <trkpt lat="45.812211" lon="8.412262"><ele>342.25</ele></trkpt>
   <trkpt lat="45.812572" lon="8.412266"><ele>344.25</ele></trkpt>
   <trkpt lat="45.812916" lon="8.412313"><ele>344</ele></trkpt>
   <trkpt lat="45.813806" lon="8.412511"><ele>345.25</ele></trkpt>
   <trkpt lat="45.814139" lon="8.412553"><ele>342.75</ele></trkpt>
   <trkpt lat="45.814476" lon="8.41255"><ele>344</ele></trkpt>
   <trkpt lat="45.814671" lon="8.412522"><ele>343.75</ele></trkpt>
   <trkpt lat="45.814868" lon="8.412483"><ele>343.5</ele></trkpt>
   <trkpt lat="45.815041" lon="8.412433"><ele>343</ele></trkpt>
   <trkpt lat="45.815454" lon="8.41228"><ele>340.75</ele></trkpt>
   <trkpt lat="45.816305" lon="8.411923"><ele>337</ele></trkpt>
   <trkpt lat="45.816405" lon="8.411879"><ele>336.5</ele></trkpt>
   <trkpt lat="45.816608" lon="8.411779"><ele>335.5</ele></trkpt>
   <trkpt lat="45.816903" lon="8.411656"><ele>334.75</ele></trkpt>
   <trkpt lat="45.817185" lon="8.41151"><ele>334.25</ele></trkpt>
   <trkpt lat="45.817361" lon="8.411408"><ele>334</ele></trkpt>
   <trkpt lat="45.817544" lon="8.411285"><ele>333.75</ele></trkpt>
   <trkpt lat="45.817671" lon="8.411189"><ele>333.5</ele></trkpt>
   <trkpt lat="45.817817" lon="8.411061"><ele>333.25</ele></trkpt>
   <trkpt lat="45.818128" lon="8.410759"><ele>332.5</ele></trkpt>
   <trkpt lat="45.818254" lon="8.410619"><ele>332.25</ele></trkpt>
   <trkpt lat="45.818546" lon="8.410229"><ele>331.75</ele></trkpt>
   <trkpt lat="45.818697" lon="8.409999"><ele>331.75</ele></trkpt>
   <trkpt lat="45.818942" lon="8.409582"><ele>335.5</ele></trkpt>
   <trkpt lat="45.819086" lon="8.409307"><ele>337</ele></trkpt>
   <trkpt lat="45.819431" lon="8.408609"><ele>335.75</ele></trkpt>
   <trkpt lat="45.819708" lon="8.408076"><ele>333.25</ele></trkpt>
   <trkpt lat="45.819935" lon="8.407668"><ele>332</ele></trkpt>
   <trkpt lat="45.820094" lon="8.407402"><ele>331.5</ele></trkpt>
   <trkpt lat="45.820263" lon="8.407138"><ele>331.25</ele></trkpt>
   <trkpt lat="45.820514" lon="8.406782"><ele>331</ele></trkpt>
   <trkpt lat="45.821249" lon="8.405759"><ele>331</ele></trkpt>
   <trkpt lat="45.821943" lon="8.404798"><ele>330.75</ele></trkpt>
   <trkpt lat="45.822337" lon="8.404333"><ele>330</ele></trkpt>
   <trkpt lat="45.822605" lon="8.404072"><ele>329.5</ele></trkpt>
   <trkpt lat="45.822947" lon="8.403776"><ele>328.25</ele></trkpt>
   <trkpt lat="45.823147" lon="8.40363"><ele>328</ele></trkpt>
   <trkpt lat="45.823301" lon="8.40353"><ele>328</ele></trkpt>
   <trkpt lat="45.823392" lon="8.403479"><ele>328</ele></trkpt>
   <trkpt lat="45.82395" lon="8.403179"><ele>328.25</ele></trkpt>
   <trkpt lat="45.824396" lon="8.402962"><ele>329.5</ele></trkpt>
   <trkpt lat="45.824465" lon="8.402931"><ele>329.5</ele></trkpt>
   <trkpt lat="45.824985" lon="8.402684"><ele>329.75</ele></trkpt>
   <trkpt lat="45.825174" lon="8.402589"><ele>330.25</ele></trkpt>
   <trkpt lat="45.825347" lon="8.40249"><ele>330.75</ele></trkpt>
   <trkpt lat="45.825643" lon="8.402303"><ele>330.5</ele></trkpt>
   <trkpt lat="45.825801" lon="8.402185"><ele>329.75</ele></trkpt>
   <trkpt lat="45.825942" lon="8.402067"><ele>329.25</ele></trkpt>
   <trkpt lat="45.826092" lon="8.401928"><ele>328.5</ele></trkpt>
   <trkpt lat="45.826227" lon="8.401791"><ele>327.75</ele></trkpt>
   <trkpt lat="45.826509" lon="8.401469"><ele>326.25</ele></trkpt>
   <trkpt lat="45.826764" lon="8.401109"><ele>325.75</ele></trkpt>
   <trkpt lat="45.82693" lon="8.400849"><ele>326.5</ele></trkpt>
   <trkpt lat="45.826974" lon="8.400776"><ele>326</ele></trkpt>
   <trkpt lat="45.827745" lon="8.39947"><ele>319.75</ele></trkpt>
   <trkpt lat="45.827937" lon="8.399161"><ele>318.75</ele></trkpt>
   <trkpt lat="45.828208" lon="8.398795"><ele>317.25</ele></trkpt>
   <trkpt lat="45.828378" lon="8.398593"><ele>316</ele></trkpt>
   <trkpt lat="45.82853" lon="8.398437"><ele>315.5</ele></trkpt>
   <trkpt lat="45.828816" lon="8.398186"><ele>317</ele></trkpt>
   <trkpt lat="45.828965" lon="8.398074"><ele>317.75</ele></trkpt>
   <trkpt lat="45.82917" lon="8.397945"><ele>319.5</ele></trkpt>
   <trkpt lat="45.829389" lon="8.397826"><ele>320.75</ele></trkpt>
   <trkpt lat="45.82958" lon="8.397734"><ele>322</ele></trkpt>
   <trkpt lat="45.829769" lon="8.397662"><ele>323.5</ele></trkpt>
   <trkpt lat="45.830114" lon="8.397577"><ele>325.75</ele></trkpt>
   <trkpt lat="45.830307" lon="8.397553"><ele>326</ele></trkpt>
   <trkpt lat="45.830611" lon="8.397547"><ele>327</ele></trkpt>
   <trkpt lat="45.830967" lon="8.397591"><ele>327.5</ele></trkpt>
   <trkpt lat="45.831143" lon="8.397627"><ele>326.5</ele></trkpt>
   <trkpt lat="45.831323" lon="8.397675"><ele>325.75</ele></trkpt>
   <trkpt lat="45.831494" lon="8.397734"><ele>325</ele></trkpt>
   <trkpt lat="45.831662" lon="8.397808"><ele>324.25</ele></trkpt>
   <trkpt lat="45.831842" lon="8.397903"><ele>322.75</ele></trkpt>
   <trkpt lat="45.832028" lon="8.398013"><ele>321.5</ele></trkpt>
   <trkpt lat="45.832203" lon="8.398138"><ele>320.5</ele></trkpt>
   <trkpt lat="45.832502" lon="8.398373"><ele>319.75</ele></trkpt>
   <trkpt lat="45.833621" lon="8.399339"><ele>321</ele></trkpt>
   <trkpt lat="45.833853" lon="8.399522"><ele>321.75</ele></trkpt>
   <trkpt lat="45.833998" lon="8.399632"><ele>322</ele></trkpt>
   <trkpt lat="45.834139" lon="8.399726"><ele>321.75</ele></trkpt>
   <trkpt lat="45.834414" lon="8.399881"><ele>322.25</ele></trkpt>
   <trkpt lat="45.834574" lon="8.399959"><ele>322.25</ele></trkpt>
   <trkpt lat="45.834828" lon="8.400065"><ele>321.75</ele></trkpt>
   <trkpt lat="45.835047" lon="8.400135"><ele>321</ele></trkpt>
   <trkpt lat="45.835667" lon="8.400307"><ele>316.75</ele></trkpt>
   <trkpt lat="45.836758" lon="8.400577"><ele>317.75</ele></trkpt>
   <trkpt lat="45.837075" lon="8.400669"><ele>318.75</ele></trkpt>
   <trkpt lat="45.837411" lon="8.4008"><ele>320.5</ele></trkpt>
   <trkpt lat="45.837573" lon="8.400881"><ele>320.75</ele></trkpt>
   <trkpt lat="45.83777" lon="8.400992"><ele>319.5</ele></trkpt>
   <trkpt lat="45.837946" lon="8.401101"><ele>318.25</ele></trkpt>
   <trkpt lat="45.838124" lon="8.401227"><ele>316.75</ele></trkpt>
   <trkpt lat="45.838493" lon="8.401528"><ele>313.25</ele></trkpt>
   <trkpt lat="45.839558" lon="8.40253"><ele>310.5</ele></trkpt>
   <trkpt lat="45.839781" lon="8.402718"><ele>311.25</ele></trkpt>
   <trkpt lat="45.840034" lon="8.402912"><ele>311.25</ele></trkpt>
   <trkpt lat="45.840288" lon="8.403085"><ele>311.5</ele></trkpt>
   <trkpt lat="45.840905" lon="8.403518"><ele>309.5</ele></trkpt>
   <trkpt lat="45.841321" lon="8.403787"><ele>308.75</ele></trkpt>
   <trkpt lat="45.841532" lon="8.403907"><ele>308</ele></trkpt>
   <trkpt lat="45.841774" lon="8.404032"><ele>307.75</ele></trkpt>
   <trkpt lat="45.843252" lon="8.404755"><ele>308.5</ele></trkpt>
   <trkpt lat="45.843684" lon="8.404949"><ele>307.75</ele></trkpt>
   <trkpt lat="45.843923" lon="8.405041"><ele>307.75</ele></trkpt>
   <trkpt lat="45.844103" lon="8.405102"><ele>308.5</ele></trkpt>
   <trkpt lat="45.844436" lon="8.405199"><ele>309.25</ele></trkpt>
   <trkpt lat="45.846285" lon="8.405709"><ele>311.75</ele></trkpt>
   <trkpt lat="45.846744" lon="8.405855"><ele>311</ele></trkpt>
   <trkpt lat="45.847471" lon="8.406109"><ele>312.5</ele></trkpt>
   <trkpt lat="45.847674" lon="8.406167"><ele>313</ele></trkpt>
   <trkpt lat="45.847884" lon="8.406215"><ele>313</ele></trkpt>
   <trkpt lat="45.848269" lon="8.406262"><ele>310.75</ele></trkpt>
   <trkpt lat="45.84905" lon="8.406294"><ele>311.75</ele></trkpt>
   <trkpt lat="45.849256" lon="8.406312"><ele>311.25</ele></trkpt>
   <trkpt lat="45.849439" lon="8.406343"><ele>309.75</ele></trkpt>
   <trkpt lat="45.849869" lon="8.40645"><ele>307.5</ele></trkpt>
   <trkpt lat="45.851104" lon="8.406827"><ele>311.25</ele></trkpt>
   <trkpt lat="45.851422" lon="8.406905"><ele>312.5</ele></trkpt>
   <trkpt lat="45.852249" lon="8.40706"><ele>315.25</ele></trkpt>
   <trkpt lat="45.852417" lon="8.407099"><ele>316.25</ele></trkpt>
   <trkpt lat="45.853404" lon="8.407404"><ele>316</ele></trkpt>
   <trkpt lat="45.853625" lon="8.407457"><ele>313.75</ele></trkpt>
   <trkpt lat="45.854209" lon="8.407578"><ele>307</ele></trkpt>
   <trkpt lat="45.85545" lon="8.407808"><ele>306</ele></trkpt>
   <trkpt lat="45.855863" lon="8.407894"><ele>307</ele></trkpt>
   <trkpt lat="45.856053" lon="8.407949"><ele>307</ele></trkpt>
   <trkpt lat="45.856291" lon="8.40803"><ele>307.25</ele></trkpt>
   <trkpt lat="45.856469" lon="8.408102"><ele>307.25</ele></trkpt>
   <trkpt lat="45.85667" lon="8.408196"><ele>307.5</ele></trkpt>
   <trkpt lat="45.856876" lon="8.408312"><ele>307</ele></trkpt>
   <trkpt lat="45.857103" lon="8.408448"><ele>306.5</ele></trkpt>
   <trkpt lat="45.857331" lon="8.408607"><ele>306.5</ele></trkpt>
   <trkpt lat="45.857504" lon="8.408737"><ele>306.25</ele></trkpt>
   <trkpt lat="45.857775" lon="8.408965"><ele>305.5</ele></trkpt>
   <trkpt lat="45.858808" lon="8.409901"><ele>307.75</ele></trkpt>
   <trkpt lat="45.860004" lon="8.411073"><ele>307.75</ele></trkpt>
   <trkpt lat="45.860803" lon="8.411746"><ele>307.25</ele></trkpt>
   <trkpt lat="45.86107" lon="8.411983"><ele>308</ele></trkpt>
   <trkpt lat="45.861217" lon="8.412104"><ele>308</ele></trkpt>
   <trkpt lat="45.861477" lon="8.412366"><ele>308</ele></trkpt>
   <trkpt lat="45.861992" lon="8.412603"><ele>307</ele></trkpt>
   <trkpt lat="45.862344" lon="8.41274"><ele>307</ele></trkpt>
   <trkpt lat="45.862904" lon="8.412986"><ele>306.75</ele></trkpt>
   <trkpt lat="45.863344" lon="8.413228"><ele>305.75</ele></trkpt>
   <trkpt lat="45.864338" lon="8.413734"><ele>314.25</ele></trkpt>
   <trkpt lat="45.865348" lon="8.414215"><ele>315.75</ele></trkpt>
   <trkpt lat="45.865575" lon="8.414301"><ele>316.5</ele></trkpt>
   <trkpt lat="45.865787" lon="8.414352"><ele>316</ele></trkpt>
   <trkpt lat="45.866006" lon="8.414388"><ele>316.25</ele></trkpt>
   <trkpt lat="45.866338" lon="8.414374"><ele>314.75</ele></trkpt>
   <trkpt lat="45.866723" lon="8.414289"><ele>311</ele></trkpt>
   <trkpt lat="45.866866" lon="8.414241"><ele>309.75</ele></trkpt>
   <trkpt lat="45.866987" lon="8.414188"><ele>308.25</ele></trkpt>
   <trkpt lat="45.867144" lon="8.414095"><ele>307.25</ele></trkpt>
   <trkpt lat="45.867569" lon="8.413781"><ele>306.25</ele></trkpt>
   <trkpt lat="45.867799" lon="8.41363"><ele>306</ele></trkpt>
   <trkpt lat="45.868243" lon="8.413341"><ele>305.5</ele></trkpt>
   <trkpt lat="45.868562" lon="8.41318"><ele>305.25</ele></trkpt>
   <trkpt lat="45.868673" lon="8.413143"><ele>305.5</ele></trkpt>
   <trkpt lat="45.868908" lon="8.413068"><ele>305.5</ele></trkpt>
   <trkpt lat="45.869084" lon="8.413027"><ele>305.75</ele></trkpt>
   <trkpt lat="45.869286" lon="8.412994"><ele>306</ele></trkpt>
   <trkpt lat="45.86962" lon="8.412973"><ele>306.25</ele></trkpt>
   <trkpt lat="45.869969" lon="8.412996"><ele>307</ele></trkpt>
   <trkpt lat="45.870163" lon="8.413023"><ele>307</ele></trkpt>
   <trkpt lat="45.871513" lon="8.413263"><ele>308</ele></trkpt>
   <trkpt lat="45.871857" lon="8.4133"><ele>307.5</ele></trkpt>
   <trkpt lat="45.87203" lon="8.413306"><ele>306.5</ele></trkpt>
   <trkpt lat="45.872281" lon="8.413297"><ele>305</ele></trkpt>
   <trkpt lat="45.872436" lon="8.413278"><ele>304</ele></trkpt>
   <trkpt lat="45.872599" lon="8.413247"><ele>304</ele></trkpt>
   <trkpt lat="45.872726" lon="8.413217"><ele>304.5</ele></trkpt>
   <trkpt lat="45.872968" lon="8.413139"><ele>305.25</ele></trkpt>
   <trkpt lat="45.873392" lon="8.412967"><ele>306</ele></trkpt>
   <trkpt lat="45.87497" lon="8.41234"><ele>307.5</ele></trkpt>
   <trkpt lat="45.875474" lon="8.412133"><ele>307.25</ele></trkpt>
   <trkpt lat="45.87599" lon="8.411903"><ele>306.25</ele></trkpt>
   <trkpt lat="45.876338" lon="8.411713"><ele>304.5</ele></trkpt>
   <trkpt lat="45.876489" lon="8.411612"><ele>303.75</ele></trkpt>
   <trkpt lat="45.876668" lon="8.411488"><ele>303</ele></trkpt>
   <trkpt lat="45.876988" lon="8.411229"><ele>300.75</ele></trkpt>
   <trkpt lat="45.877348" lon="8.410903"><ele>298.5</ele></trkpt>
   <trkpt lat="45.877719" lon="8.410555"><ele>299.25</ele></trkpt>
   <trkpt lat="45.878026" lon="8.410268"><ele>301</ele></trkpt>
   <trkpt lat="45.878271" lon="8.410052"><ele>302.5</ele></trkpt>
   <trkpt lat="45.878439" lon="8.409922"><ele>303.25</ele></trkpt>
   <trkpt lat="45.878655" lon="8.409775"><ele>303.75</ele></trkpt>
   <trkpt lat="45.878887" lon="8.409643"><ele>304.5</ele></trkpt>
   <trkpt lat="45.879127" lon="8.40953"><ele>305</ele></trkpt>
   <trkpt lat="45.879384" lon="8.409429"><ele>305</ele></trkpt>
   <trkpt lat="45.880138" lon="8.409161"><ele>303.75</ele></trkpt>
   <trkpt lat="45.881918" lon="8.408538"><ele>298.25</ele></trkpt>
   <trkpt lat="45.882722" lon="8.408265"><ele>291.25</ele></trkpt>
   <trkpt lat="45.883174" lon="8.408111"><ele>292.75</ele></trkpt>
   <trkpt lat="45.883426" lon="8.408037"><ele>293</ele></trkpt>
   <trkpt lat="45.883656" lon="8.407984"><ele>292.5</ele></trkpt>
   <trkpt lat="45.885816" lon="8.407591"><ele>288.75</ele></trkpt>
   <trkpt lat="45.886227" lon="8.407556"><ele>288.5</ele></trkpt>
   <trkpt lat="45.886415" lon="8.407556"><ele>288.25</ele></trkpt>
   <trkpt lat="45.886615" lon="8.407568"><ele>288</ele></trkpt>
   <trkpt lat="45.886978" lon="8.407627"><ele>288</ele></trkpt>
   <trkpt lat="45.887176" lon="8.407679"><ele>288</ele></trkpt>
   <trkpt lat="45.887559" lon="8.40782"><ele>288.25</ele></trkpt>
   <trkpt lat="45.887815" lon="8.407935"><ele>288.5</ele></trkpt>
   <trkpt lat="45.888087" lon="8.408074"><ele>288.25</ele></trkpt>
   <trkpt lat="45.889668" lon="8.40887"><ele>285.75</ele></trkpt>
   <trkpt lat="45.889927" lon="8.408992"><ele>285.5</ele></trkpt>
   <trkpt lat="45.89018" lon="8.409097"><ele>284.75</ele></trkpt>
   <trkpt lat="45.890408" lon="8.409176"><ele>284</ele></trkpt>
   <trkpt lat="45.890577" lon="8.409223"><ele>283.5</ele></trkpt>
   <trkpt lat="45.890799" lon="8.409272"><ele>283</ele></trkpt>
   <trkpt lat="45.891509" lon="8.409398"><ele>284.25</ele></trkpt>
   <trkpt lat="45.891979" lon="8.409482"><ele>284.5</ele></trkpt>
   <trkpt lat="45.892204" lon="8.409532"><ele>284.75</ele></trkpt>
   <trkpt lat="45.892536" lon="8.409625"><ele>284.75</ele></trkpt>
   <trkpt lat="45.892736" lon="8.409703"><ele>285.25</ele></trkpt>
   <trkpt lat="45.89291" lon="8.409781"><ele>285.5</ele></trkpt>
   <trkpt lat="45.893337" lon="8.410029"><ele>284.75</ele></trkpt>
   <trkpt lat="45.893542" lon="8.410172"><ele>286.5</ele></trkpt>
   <trkpt lat="45.893761" lon="8.410345"><ele>287.25</ele></trkpt>
   <trkpt lat="45.894464" lon="8.411013"><ele>284.75</ele></trkpt>
   <trkpt lat="45.895016" lon="8.411503"><ele>282.5</ele></trkpt>
   <trkpt lat="45.895324" lon="8.411756"><ele>283.5</ele></trkpt>
   <trkpt lat="45.895681" lon="8.412035"><ele>283.5</ele></trkpt>
   <trkpt lat="45.896849" lon="8.413005"><ele>276.75</ele></trkpt>
   <trkpt lat="45.897433" lon="8.413451"><ele>270.75</ele></trkpt>
   <trkpt lat="45.898162" lon="8.41397"><ele>268.75</ele></trkpt>
   <trkpt lat="45.900128" lon="8.41536"><ele>266</ele></trkpt>
   <trkpt lat="45.901106" lon="8.416031"><ele>269.5</ele></trkpt>
   <trkpt lat="45.906371" lon="8.419771"><ele>250.75</ele></trkpt>
   <trkpt lat="45.906962" lon="8.420188"><ele>250.5</ele></trkpt>
   <trkpt lat="45.907441" lon="8.420511"><ele>250.25</ele></trkpt>
   <trkpt lat="45.908541" lon="8.421277"><ele>250.75</ele></trkpt>
   <trkpt lat="45.909304" lon="8.421792"><ele>252</ele></trkpt>
   <trkpt lat="45.909459" lon="8.421894"><ele>252</ele></trkpt>
   <trkpt lat="45.910179" lon="8.422342"><ele>253</ele></trkpt>
   <trkpt lat="45.910869" lon="8.422793"><ele>253</ele></trkpt>
   <trkpt lat="45.911151" lon="8.422991"><ele>253.75</ele></trkpt>
   <trkpt lat="45.911522" lon="8.423264"><ele>253.25</ele></trkpt>
   <trkpt lat="45.913646" lon="8.424919"><ele>252.75</ele></trkpt>
   <trkpt lat="45.913955" lon="8.425143"><ele>251.75</ele></trkpt>
   <trkpt lat="45.914168" lon="8.425279"><ele>251.5</ele></trkpt>
   <trkpt lat="45.914454" lon="8.425433"><ele>251.25</ele></trkpt>
   <trkpt lat="45.914774" lon="8.425588"><ele>250.5</ele></trkpt>
   <trkpt lat="45.915065" lon="8.425716"><ele>249.5</ele></trkpt>
   <trkpt lat="45.915452" lon="8.425863"><ele>249.25</ele></trkpt>
   <trkpt lat="45.916493" lon="8.426206"><ele>246</ele></trkpt>
   <trkpt lat="45.919887" lon="8.427228"><ele>246</ele></trkpt>
   <trkpt lat="45.922486" lon="8.428038"><ele>230.5</ele></trkpt>
   <trkpt lat="45.922719" lon="8.428108"><ele>228.25</ele></trkpt>
   <trkpt lat="45.923067" lon="8.428184"><ele>225.75</ele></trkpt>
   <trkpt lat="45.923276" lon="8.428214"><ele>224.5</ele></trkpt>
   <trkpt lat="45.923451" lon="8.428228"><ele>223.75</ele></trkpt>
   <trkpt lat="45.923723" lon="8.428234"><ele>223</ele></trkpt>
   <trkpt lat="45.925776" lon="8.428258"><ele>217</ele></trkpt>
   <trkpt lat="45.927041" lon="8.428263"><ele>216.25</ele></trkpt>
   <trkpt lat="45.927144" lon="8.428263"><ele>216.5</ele></trkpt>
   <trkpt lat="45.928368" lon="8.428269"><ele>214.75</ele></trkpt>
   <trkpt lat="45.928477" lon="8.428269"><ele>214.75</ele></trkpt>
   <trkpt lat="45.930653" lon="8.42828"><ele>212.25</ele></trkpt>
   <trkpt lat="45.930683" lon="8.42828"><ele>212.25</ele></trkpt>
   <trkpt lat="45.930704" lon="8.42828"><ele>212.25</ele></trkpt>
   <trkpt lat="45.930786" lon="8.428281"><ele>212</ele></trkpt>
   <trkpt lat="45.931291" lon="8.428244"><ele>210.75</ele></trkpt>
   <trkpt lat="45.932067" lon="8.428254"><ele>209.75</ele></trkpt>
   <trkpt lat="45.933453" lon="8.42834"><ele>208.75</ele></trkpt>
   <trkpt lat="45.934103" lon="8.428349"><ele>208</ele></trkpt>
   <trkpt lat="45.936251" lon="8.428368"><ele>204.25</ele></trkpt>
   <trkpt lat="45.9369" lon="8.428338"><ele>203.25</ele></trkpt>
   <trkpt lat="45.937171" lon="8.428315"><ele>202.75</ele></trkpt>
   <trkpt lat="45.937634" lon="8.428259"><ele>201.75</ele></trkpt>
   <trkpt lat="45.938176" lon="8.428248"><ele>201.75</ele></trkpt>
   <trkpt lat="45.93892" lon="8.428087"><ele>202</ele></trkpt>
   <trkpt lat="45.939911" lon="8.427888"><ele>204.25</ele></trkpt>
   <trkpt lat="45.940921" lon="8.427723"><ele>201</ele></trkpt>
   <trkpt lat="45.941483" lon="8.427618"><ele>201</ele></trkpt>
   <trkpt lat="45.941575" lon="8.427601"><ele>201</ele></trkpt>
   <trkpt lat="45.943763" lon="8.42722"><ele>201</ele></trkpt>
   <trkpt lat="45.944838" lon="8.427023"><ele>203.25</ele></trkpt>
   <trkpt lat="45.946545" lon="8.426744"><ele>200.25</ele></trkpt>
   <trkpt lat="45.948862" lon="8.426326"><ele>202.75</ele></trkpt>
   <trkpt lat="45.949033" lon="8.426294"><ele>203</ele></trkpt>
   <trkpt lat="45.949972" lon="8.426147"><ele>200.75</ele></trkpt>
   <trkpt lat="45.950317" lon="8.426105"><ele>200.75</ele></trkpt>
   <trkpt lat="45.950516" lon="8.426084"><ele>201</ele></trkpt>
   <trkpt lat="45.950966" lon="8.426073"><ele>201.25</ele></trkpt>
   <trkpt lat="45.951222" lon="8.426079"><ele>201.25</ele></trkpt>
   <trkpt lat="45.951751" lon="8.426124"><ele>201.75</ele></trkpt>
   <trkpt lat="45.953424" lon="8.426355"><ele>201.75</ele></trkpt>
   <trkpt lat="45.953914" lon="8.426386"><ele>200.5</ele></trkpt>
   <trkpt lat="45.954218" lon="8.426388"><ele>200</ele></trkpt>
   <trkpt lat="45.954369" lon="8.426376"><ele>200.25</ele></trkpt>
   <trkpt lat="45.954588" lon="8.426354"><ele>200.5</ele></trkpt>
   <trkpt lat="45.955021" lon="8.426271"><ele>201</ele></trkpt>
   <trkpt lat="45.955325" lon="8.426149"><ele>202.25</ele></trkpt>
   <trkpt lat="45.955515" lon="8.426054"><ele>203</ele></trkpt>
   <trkpt lat="45.957237" lon="8.425123"><ele>202</ele></trkpt>
   <trkpt lat="45.958179" lon="8.424595"><ele>203.5</ele></trkpt>
   <trkpt lat="45.959669" lon="8.423783"><ele>202.75</ele></trkpt>
   <trkpt lat="45.960679" lon="8.423219"><ele>203.5</ele></trkpt>
   <trkpt lat="45.963919" lon="8.42144"><ele>203.5</ele></trkpt>
   <trkpt lat="45.964877" lon="8.420921"><ele>203</ele></trkpt>
   <trkpt lat="45.965153" lon="8.420763"><ele>203</ele></trkpt>
   <trkpt lat="45.965563" lon="8.420477"><ele>203</ele></trkpt>
   <trkpt lat="45.96576" lon="8.420318"><ele>203</ele></trkpt>
   <trkpt lat="45.966141" lon="8.419971"><ele>203.5</ele></trkpt>
   <trkpt lat="45.968454" lon="8.417721"><ele>209.5</ele></trkpt>
   <trkpt lat="45.969239" lon="8.416966"><ele>211</ele></trkpt>
   <trkpt lat="45.969344" lon="8.416867"><ele>210.75</ele></trkpt>
   <trkpt lat="45.970277" lon="8.415957"><ele>213</ele></trkpt>
   <trkpt lat="45.97166" lon="8.414611"><ele>214.25</ele></trkpt>
   <trkpt lat="45.972004" lon="8.414288"><ele>214</ele></trkpt>
   <trkpt lat="45.972046" lon="8.41424"><ele>214</ele></trkpt>
   <trkpt lat="45.972193" lon="8.414102"><ele>213.5</ele></trkpt>
   <trkpt lat="45.988157" lon="8.398655"><ele>213.25</ele></trkpt>
   <trkpt lat="45.991747" lon="8.395168"><ele>208.25</ele></trkpt>
   <trkpt lat="45.992293" lon="8.394645"><ele>211.75</ele></trkpt>
   <trkpt lat="45.992534" lon="8.394402"><ele>213</ele></trkpt>
   <trkpt lat="45.992687" lon="8.394227"><ele>213.5</ele></trkpt>
   <trkpt lat="45.99297" lon="8.393834"><ele>214.75</ele></trkpt>
   <trkpt lat="45.993104" lon="8.39362"><ele>215</ele></trkpt>
   <trkpt lat="45.993242" lon="8.393376"><ele>215</ele></trkpt>
   <trkpt lat="45.993393" lon="8.39309"><ele>215.25</ele></trkpt>
   <trkpt lat="45.993542" lon="8.392766"><ele>215.75</ele></trkpt>
   <trkpt lat="45.993642" lon="8.392523"><ele>216</ele></trkpt>
   <trkpt lat="45.993758" lon="8.392215"><ele>216.25</ele></trkpt>
   <trkpt lat="45.993839" lon="8.391957"><ele>216.25</ele></trkpt>
   <trkpt lat="45.993909" lon="8.391709"><ele>216</ele></trkpt>
   <trkpt lat="45.993979" lon="8.391437"><ele>215.75</ele></trkpt>
   <trkpt lat="45.99408" lon="8.390965"><ele>214.75</ele></trkpt>
   <trkpt lat="45.994127" lon="8.390687"><ele>214</ele></trkpt>
   <trkpt lat="45.994163" lon="8.390414"><ele>213.5</ele></trkpt>
   <trkpt lat="45.994196" lon="8.390092"><ele>213</ele></trkpt>
   <trkpt lat="45.994213" lon="8.389797"><ele>212.5</ele></trkpt>
   <trkpt lat="45.994223" lon="8.389522"><ele>212.25</ele></trkpt>
   <trkpt lat="45.994223" lon="8.38922"><ele>211.75</ele></trkpt>
   <trkpt lat="45.994197" lon="8.388656"><ele>210.5</ele></trkpt>
   <trkpt lat="45.99414" lon="8.387845"><ele>210</ele></trkpt>
   <trkpt lat="45.994116" lon="8.387507"><ele>210</ele></trkpt>
   <trkpt lat="45.993991" lon="8.385851"><ele>211.5</ele></trkpt>
   <trkpt lat="45.993971" lon="8.385559"><ele>211.25</ele></trkpt>
   <trkpt lat="45.993598" lon="8.380558"><ele>211.25</ele></trkpt>
   <trkpt lat="45.99344" lon="8.37836"><ele>211.25</ele></trkpt>
   <trkpt lat="45.993116" lon="8.373964"><ele>211</ele></trkpt>
   <trkpt lat="45.993021" lon="8.372701"><ele>210</ele></trkpt>
   <trkpt lat="45.992982" lon="8.372098"><ele>210.25</ele></trkpt>
   <trkpt lat="45.992978" lon="8.372023"><ele>210.25</ele></trkpt>
   <trkpt lat="45.992968" lon="8.371664"><ele>210.5</ele></trkpt>
   <trkpt lat="45.992969" lon="8.371453"><ele>210.5</ele></trkpt>
   <trkpt lat="45.992981" lon="8.371177"><ele>210.25</ele></trkpt>
   <trkpt lat="45.993003" lon="8.370884"><ele>210.25</ele></trkpt>
   <trkpt lat="45.993034" lon="8.370601"><ele>210.5</ele></trkpt>
   <trkpt lat="45.993074" lon="8.370309"><ele>210.75</ele></trkpt>
   <trkpt lat="45.993136" lon="8.369939"><ele>211</ele></trkpt>
   <trkpt lat="45.993288" lon="8.36911"><ele>212</ele></trkpt>
   <trkpt lat="45.993703" lon="8.366923"><ele>211</ele></trkpt>
   <trkpt lat="45.99397" lon="8.365479"><ele>211.5</ele></trkpt>
   <trkpt lat="45.993994" lon="8.365357"><ele>211.75</ele></trkpt>
   <trkpt lat="45.994437" lon="8.362925"><ele>218.25</ele></trkpt>
   <trkpt lat="45.994623" lon="8.361961"><ele>214.75</ele></trkpt>
   <trkpt lat="45.9947" lon="8.3616"><ele>212.5</ele></trkpt>
   <trkpt lat="45.994797" lon="8.361189"><ele>212.25</ele></trkpt>
   <trkpt lat="45.995273" lon="8.35928"><ele>215.5</ele></trkpt>
   <trkpt lat="45.995859" lon="8.356996"><ele>212.25</ele></trkpt>
   <trkpt lat="45.997186" lon="8.351737"><ele>213.5</ele></trkpt>
   <trkpt lat="45.997255" lon="8.35146"><ele>213.75</ele></trkpt>
   <trkpt lat="45.999639" lon="8.342017"><ele>215.25</ele></trkpt>
   <trkpt lat="46.000243" lon="8.339683"><ele>215</ele></trkpt>
   <trkpt lat="46.000385" lon="8.339117"><ele>215.25</ele></trkpt>
   <trkpt lat="46.000475" lon="8.338729"><ele>214</ele></trkpt>
   <trkpt lat="46.000606" lon="8.338069"><ele>213</ele></trkpt>
   <trkpt lat="46.000718" lon="8.337437"><ele>212.75</ele></trkpt>
   <trkpt lat="46.000969" lon="8.335672"><ele>213.5</ele></trkpt>
   <trkpt lat="46.001155" lon="8.334286"><ele>214</ele></trkpt>
   <trkpt lat="46.001386" lon="8.332772"><ele>216.5</ele></trkpt>
   <trkpt lat="46.001439" lon="8.332492"><ele>216.75</ele></trkpt>
   <trkpt lat="46.001501" lon="8.332214"><ele>216.75</ele></trkpt>
   <trkpt lat="46.001559" lon="8.331884"><ele>216.75</ele></trkpt>
   <trkpt lat="46.001689" lon="8.330995"><ele>217.75</ele></trkpt>
   <trkpt lat="46.00179" lon="8.330211"><ele>218.75</ele></trkpt>
   <trkpt lat="46.001845" lon="8.329846"><ele>219.25</ele></trkpt>
   <trkpt lat="46.001922" lon="8.329321"><ele>219.5</ele></trkpt>
   <trkpt lat="46.002132" lon="8.327754"><ele>220</ele></trkpt>
   <trkpt lat="46.002667" lon="8.323965"><ele>219.75</ele></trkpt>
   <trkpt lat="46.002856" lon="8.322832"><ele>218.25</ele></trkpt>
   <trkpt lat="46.002914" lon="8.322442"><ele>217.75</ele></trkpt>
   <trkpt lat="46.003108" lon="8.321289"><ele>216.5</ele></trkpt>
   <trkpt lat="46.003224" lon="8.320731"><ele>216</ele></trkpt>
   <trkpt lat="46.003298" lon="8.320254"><ele>216</ele></trkpt>
   <trkpt lat="46.003524" lon="8.318537"><ele>215.75</ele></trkpt>
   <trkpt lat="46.003583" lon="8.317589"><ele>215.75</ele></trkpt>
   <trkpt lat="46.003611" lon="8.316487"><ele>215</ele></trkpt>
   <trkpt lat="46.003617" lon="8.314469"><ele>216.25</ele></trkpt>
   <trkpt lat="46.003641" lon="8.312205"><ele>215.75</ele></trkpt>
   <trkpt lat="46.003657" lon="8.306665"><ele>217</ele></trkpt>
   <trkpt lat="46.003685" lon="8.301632"><ele>217</ele></trkpt>
   <trkpt lat="46.003739" lon="8.30051"><ele>217.75</ele></trkpt>
   <trkpt lat="46.003821" lon="8.299872"><ele>218.75</ele></trkpt>
   <trkpt lat="46.003903" lon="8.29939"><ele>219.75</ele></trkpt>
   <trkpt lat="46.004014" lon="8.298921"><ele>220.25</ele></trkpt>
   <trkpt lat="46.004107" lon="8.298582"><ele>220</ele></trkpt>
   <trkpt lat="46.004267" lon="8.298036"><ele>219.5</ele></trkpt>
   <trkpt lat="46.004372" lon="8.297714"><ele>219</ele></trkpt>
   <trkpt lat="46.004504" lon="8.297413"><ele>219</ele></trkpt>
   <trkpt lat="46.004891" lon="8.296597"><ele>219.75</ele></trkpt>
   <trkpt lat="46.005533" lon="8.295363"><ele>220.75</ele></trkpt>
   <trkpt lat="46.005899" lon="8.294676"><ele>220.75</ele></trkpt>
   <trkpt lat="46.006477" lon="8.293552"><ele>220.5</ele></trkpt>
   <trkpt lat="46.006608" lon="8.293298"><ele>220.75</ele></trkpt>
   <trkpt lat="46.006965" lon="8.292619"><ele>221.5</ele></trkpt>
   <trkpt lat="46.007283" lon="8.292098"><ele>222</ele></trkpt>
   <trkpt lat="46.007487" lon="8.291777"><ele>222</ele></trkpt>
   <trkpt lat="46.007867" lon="8.291317"><ele>220.75</ele></trkpt>
   <trkpt lat="46.00812" lon="8.291018"><ele>220</ele></trkpt>
   <trkpt lat="46.010321" lon="8.288655"><ele>221</ele></trkpt>
   <trkpt lat="46.011501" lon="8.287359"><ele>221</ele></trkpt>
   <trkpt lat="46.01241" lon="8.2864"><ele>222.5</ele></trkpt>
   <trkpt lat="46.013008" lon="8.28586"><ele>222.5</ele></trkpt>
   <trkpt lat="46.013609" lon="8.285422"><ele>222.75</ele></trkpt>
   <trkpt lat="46.013972" lon="8.285244"><ele>223.5</ele></trkpt>
   <trkpt lat="46.014318" lon="8.285096"><ele>224.25</ele></trkpt>
   <trkpt lat="46.014679" lon="8.284979"><ele>225</ele></trkpt>
   <trkpt lat="46.015025" lon="8.284898"><ele>225.75</ele></trkpt>
   <trkpt lat="46.015374" lon="8.284854"><ele>226.75</ele></trkpt>
   <trkpt lat="46.015707" lon="8.284828"><ele>227.5</ele></trkpt>
   <trkpt lat="46.015977" lon="8.284823"><ele>227.5</ele></trkpt>
   <trkpt lat="46.016258" lon="8.284834"><ele>227.25</ele></trkpt>
   <trkpt lat="46.017276" lon="8.28485"><ele>226.5</ele></trkpt>
   <trkpt lat="46.018304" lon="8.284838"><ele>226.75</ele></trkpt>
   <trkpt lat="46.018854" lon="8.284769"><ele>231</ele></trkpt>
   <trkpt lat="46.019244" lon="8.284659"><ele>232.5</ele></trkpt>
   <trkpt lat="46.020453" lon="8.284223"><ele>228.75</ele></trkpt>
   <trkpt lat="46.020618" lon="8.284166"><ele>228</ele></trkpt>
   <trkpt lat="46.022008" lon="8.283629"><ele>237.25</ele></trkpt>
   <trkpt lat="46.023235" lon="8.283515"><ele>245.5</ele></trkpt>
   <trkpt lat="46.023669" lon="8.28358"><ele>248.5</ele></trkpt>
   <trkpt lat="46.024746" lon="8.283742"><ele>248.5</ele></trkpt>
   <trkpt lat="46.025086" lon="8.283825"><ele>246.25</ele></trkpt>
   <trkpt lat="46.027084" lon="8.284611"><ele>234.5</ele></trkpt>
   <trkpt lat="46.027469" lon="8.28475"><ele>231</ele></trkpt>
   <trkpt lat="46.027853" lon="8.28485"><ele>232.25</ele></trkpt>
   <trkpt lat="46.028075" lon="8.284898"><ele>233.5</ele></trkpt>
   <trkpt lat="46.02832" lon="8.284927"><ele>234.75</ele></trkpt>
   <trkpt lat="46.029959" lon="8.284879"><ele>234.25</ele></trkpt>
   <trkpt lat="46.030788" lon="8.284788"><ele>245</ele></trkpt>
   <trkpt lat="46.031473" lon="8.284614"><ele>247</ele></trkpt>
   <trkpt lat="46.032328" lon="8.284167"><ele>241.5</ele></trkpt>
   <trkpt lat="46.032944" lon="8.283691"><ele>240.25</ele></trkpt>
   <trkpt lat="46.03379" lon="8.282762"><ele>233.75</ele></trkpt>
   <trkpt lat="46.033901" lon="8.282625"><ele>233.25</ele></trkpt>
   <trkpt lat="46.03496" lon="8.281229"><ele>233.5</ele></trkpt>
   <trkpt lat="46.03587" lon="8.280052"><ele>229.25</ele></trkpt>
   <trkpt lat="46.036194" lon="8.279655"><ele>229</ele></trkpt>
   <trkpt lat="46.036482" lon="8.279316"><ele>228.75</ele></trkpt>
   <trkpt lat="46.036818" lon="8.27897"><ele>229</ele></trkpt>
   <trkpt lat="46.037235" lon="8.278609"><ele>229.25</ele></trkpt>
   <trkpt lat="46.037765" lon="8.278199"><ele>229.75</ele></trkpt>
   <trkpt lat="46.038413" lon="8.277814"><ele>229.5</ele></trkpt>
   <trkpt lat="46.038943" lon="8.277588"><ele>230.25</ele></trkpt>
   <trkpt lat="46.039303" lon="8.277462"><ele>230.75</ele></trkpt>
   <trkpt lat="46.039648" lon="8.277372"><ele>230.75</ele></trkpt>
   <trkpt lat="46.039944" lon="8.277305"><ele>230.5</ele></trkpt>
   <trkpt lat="46.040389" lon="8.277241"><ele>230</ele></trkpt>
   <trkpt lat="46.040719" lon="8.277229"><ele>229.75</ele></trkpt>
   <trkpt lat="46.041169" lon="8.277237"><ele>229.25</ele></trkpt>
   <trkpt lat="46.041516" lon="8.277253"><ele>229</ele></trkpt>
   <trkpt lat="46.044129" lon="8.277511"><ele>228</ele></trkpt>
   <trkpt lat="46.045423" lon="8.277638"><ele>227.5</ele></trkpt>
   <trkpt lat="46.045902" lon="8.277686"><ele>227.75</ele></trkpt>
   <trkpt lat="46.047046" lon="8.277792"><ele>227.75</ele></trkpt>
   <trkpt lat="46.047346" lon="8.27782"><ele>228</ele></trkpt>
   <trkpt lat="46.04935" lon="8.278006"><ele>230.25</ele></trkpt>
   <trkpt lat="46.051285" lon="8.278186"><ele>232</ele></trkpt>
   <trkpt lat="46.05136" lon="8.278193"><ele>232</ele></trkpt>
   <trkpt lat="46.052698" lon="8.278326"><ele>233</ele></trkpt>
   <trkpt lat="46.053075" lon="8.278378"><ele>233.75</ele></trkpt>
   <trkpt lat="46.053442" lon="8.278459"><ele>234.25</ele></trkpt>
   <trkpt lat="46.053717" lon="8.278544"><ele>234.25</ele></trkpt>
   <trkpt lat="46.05408" lon="8.278679"><ele>234</ele></trkpt>
   <trkpt lat="46.054407" lon="8.278852"><ele>234</ele></trkpt>
   <trkpt lat="46.05474" lon="8.279048"><ele>234</ele></trkpt>
   <trkpt lat="46.055076" lon="8.279295"><ele>234</ele></trkpt>
   <trkpt lat="46.055509" lon="8.279651"><ele>233.5</ele></trkpt>
   <trkpt lat="46.057179" lon="8.281076"><ele>238</ele></trkpt>
   <trkpt lat="46.058267" lon="8.281869"><ele>246.75</ele></trkpt>
   <trkpt lat="46.058402" lon="8.281967"><ele>249.25</ele></trkpt>
   <trkpt lat="46.059541" lon="8.282769"><ele>250</ele></trkpt>
   <trkpt lat="46.060351" lon="8.283296"><ele>248.75</ele></trkpt>
   <trkpt lat="46.061815" lon="8.284148"><ele>247</ele></trkpt>
   <trkpt lat="46.062828" lon="8.284868"><ele>245.75</ele></trkpt>
   <trkpt lat="46.064523" lon="8.286524"><ele>243.5</ele></trkpt>
   <trkpt lat="46.067296" lon="8.288823"><ele>243.5</ele></trkpt>
   <trkpt lat="46.068375" lon="8.289672"><ele>241.25</ele></trkpt>
   <trkpt lat="46.069101" lon="8.290134"><ele>241.5</ele></trkpt>
   <trkpt lat="46.072847" lon="8.29224"><ele>237.25</ele></trkpt>
   <trkpt lat="46.072943" lon="8.292294"><ele>237.25</ele></trkpt>
   <trkpt lat="46.075248" lon="8.293599"><ele>239</ele></trkpt>
   <trkpt lat="46.075877" lon="8.293901"><ele>240</ele></trkpt>
   <trkpt lat="46.076176" lon="8.294026"><ele>241.5</ele></trkpt>
   <trkpt lat="46.076587" lon="8.294148"><ele>243.5</ele></trkpt>
   <trkpt lat="46.077305" lon="8.294336"><ele>244</ele></trkpt>
   <trkpt lat="46.077908" lon="8.294431"><ele>245.25</ele></trkpt>
   <trkpt lat="46.078962" lon="8.294492"><ele>245.5</ele></trkpt>
   <trkpt lat="46.079023" lon="8.294496"><ele>245.5</ele></trkpt>
   <trkpt lat="46.081125" lon="8.294618"><ele>245.25</ele></trkpt>
   <trkpt lat="46.081385" lon="8.294633"><ele>245.25</ele></trkpt>
   <trkpt lat="46.082201" lon="8.29468"><ele>244.25</ele></trkpt>
   <trkpt lat="46.082574" lon="8.294702"><ele>244</ele></trkpt>
   <trkpt lat="46.084096" lon="8.294791"><ele>244.75</ele></trkpt>
   <trkpt lat="46.084296" lon="8.294796"><ele>245</ele></trkpt>
   <trkpt lat="46.085625" lon="8.294865"><ele>246.25</ele></trkpt>
   <trkpt lat="46.087733" lon="8.294975"><ele>246.75</ele></trkpt>
   <trkpt lat="46.087909" lon="8.294985"><ele>246.75</ele></trkpt>
   <trkpt lat="46.088584" lon="8.295085"><ele>247</ele></trkpt>
   <trkpt lat="46.089483" lon="8.295136"><ele>247.5</ele></trkpt>
   <trkpt lat="46.090404" lon="8.295197"><ele>247.5</ele></trkpt>
   <trkpt lat="46.090569" lon="8.295206"><ele>248</ele></trkpt>
   <trkpt lat="46.091251" lon="8.295243"><ele>248.25</ele></trkpt>
   <trkpt lat="46.100924" lon="8.295775"><ele>254.5</ele></trkpt>
   <trkpt lat="46.101096" lon="8.295785"><ele>254.5</ele></trkpt>
   <trkpt lat="46.106076" lon="8.296058"><ele>264.25</ele></trkpt>
   <trkpt lat="46.106381" lon="8.296075"><ele>263.75</ele></trkpt>
   <trkpt lat="46.109661" lon="8.296252"><ele>264.75</ele></trkpt>
   <trkpt lat="46.110927" lon="8.296319"><ele>267.75</ele></trkpt>
   <trkpt lat="46.111235" lon="8.296354"><ele>268</ele></trkpt>
   <trkpt lat="46.111509" lon="8.296331"><ele>268.5</ele></trkpt>
   <trkpt lat="46.111844" lon="8.296367"><ele>269</ele></trkpt>
   <trkpt lat="46.111953" lon="8.296355"><ele>269.25</ele></trkpt>
   <trkpt lat="46.112034" lon="8.296379"><ele>269.5</ele></trkpt>
   <trkpt lat="46.112156" lon="8.296399"><ele>269.75</ele></trkpt>
   <trkpt lat="46.11238" lon="8.296423"><ele>270.25</ele></trkpt>
   <trkpt lat="46.1125" lon="8.29643"><ele>270.5</ele></trkpt>
   <trkpt lat="46.112569" lon="8.296433"><ele>270.75</ele></trkpt>
   <trkpt lat="46.112927" lon="8.296468"><ele>271.75</ele></trkpt>
   <trkpt lat="46.113185" lon="8.296503"><ele>272.5</ele></trkpt>
   <trkpt lat="46.113529" lon="8.29653"><ele>273</ele></trkpt>
   <trkpt lat="46.115339" lon="8.296673"><ele>272.5</ele></trkpt>
   <trkpt lat="46.115515" lon="8.296691"><ele>271</ele></trkpt>
  </trkseg>
 </trk>
</gpx>