<?xml version="1.0" encoding="UTF-8"?>
<!-- track-length = 45149 filtered ascend = 29 plain-ascend = -14 cost=45149 energy=0.5kwh time=1h 13s -->
<gpx 
 xmlns="http://www.topografix.com/GPX/1/1" 
 xmlns:xsi="http://www.w3.org/2001/XMLSchema-instance" 
 xsi:schemaLocation="http://www.topografix.com/GPX/1/1 http://www.topografix.com/GPX/1/1/gpx.xsd" 
 version="1.1" 
 creator="BRouter-Web 0.18.1">
 <trk>
  <name>Oberhausen - Haldern</name>
  <trkseg>
   <trkpt lat="51.475171" lon="6.852062"><ele>35.75</ele></trkpt>
   <trkpt lat="51.475456" lon="6.852366"><ele>36.25</ele></trkpt>
   <trkpt lat="51.475951" lon="6.852904"><ele>36.75</ele></trkpt>
   <trkpt lat="51.476199" lon="6.853121"><ele>36.75</ele></trkpt>
   <trkpt lat="51.476326" lon="6.853213"><ele>36.75</ele></trkpt>
   <trkpt lat="51.476665" lon="6.853419"><ele>37</ele></trkpt>
   <trkpt lat="51.476822" lon="6.853537"><ele>36.75</ele></trkpt>
   <trkpt lat="51.476962" lon="6.853658"><ele>36.5</ele></trkpt>
   <trkpt lat="51.477094" lon="6.853785"><ele>36.25</ele></trkpt>
   <trkpt lat="51.477765" lon="6.854438"><ele>36.25</ele></trkpt>
   <trkpt lat="51.478032" lon="6.854667"><ele>37</ele></trkpt>
   <trkpt lat="51.478328" lon="6.854885"><ele>37.75</ele></trkpt>
   <trkpt lat="51.47866" lon="6.855072"><ele>36.75</ele></trkpt>
   <trkpt lat="51.478964" lon="6.855175"><ele>35.5</ele></trkpt>
   <trkpt lat="51.479242" lon="6.85523"><ele>34.75</ele></trkpt>
   <trkpt lat="51.479525" lon="6.855253"><ele>34.5</ele></trkpt>
   <trkpt lat="51.479801" lon="6.855238"><ele>34</ele></trkpt>
   <trkpt lat="51.480061" lon="6.855181"><ele>34</ele></trkpt>
   <trkpt lat="51.480249" lon="6.855117"><ele>34.75</ele></trkpt>
   <trkpt lat="51.480443" lon="6.855027"><ele>35.5</ele></trkpt>
   <trkpt lat="51.480865" lon="6.854775"><ele>36.25</ele></trkpt>
   <trkpt lat="51.481443" lon="6.854352"><ele>33.75</ele></trkpt>
   <trkpt lat="51.481854" lon="6.854081"><ele>33.25</ele></trkpt>
   <trkpt lat="51.482013" lon="6.853995"><ele>33.5</ele></trkpt>
   <trkpt lat="51.482187" lon="6.853901"><ele>33.75</ele></trkpt>
   <trkpt lat="51.482533" lon="6.853756"><ele>34.5</ele></trkpt>
   <trkpt lat="51.48362" lon="6.853386"><ele>36</ele></trkpt>
   <trkpt lat="51.484662" lon="6.853099"><ele>38.75</ele></trkpt>
   <trkpt lat="51.484962" lon="6.852994"><ele>39.25</ele></trkpt>
   <trkpt lat="51.485532" lon="6.852851"><ele>38.25</ele></trkpt>
   <trkpt lat="51.486021" lon="6.852686"><ele>36.25</ele></trkpt>
   <trkpt lat="51.486106" lon="6.852654"><ele>36</ele></trkpt>
   <trkpt lat="51.486448" lon="6.852533"><ele>34</ele></trkpt>
   <trkpt lat="51.487675" lon="6.852104"><ele>33</ele></trkpt>
   <trkpt lat="51.487798" lon="6.852062"><ele>33</ele></trkpt>
   <trkpt lat="51.489422" lon="6.85149"><ele>32.5</ele></trkpt>
   <trkpt lat="51.489472" lon="6.851471"><ele>32.5</ele></trkpt>
   <trkpt lat="51.490995" lon="6.850941"><ele>32.25</ele></trkpt>
   <trkpt lat="51.491534" lon="6.850758"><ele>29.5</ele></trkpt>
   <trkpt lat="51.492435" lon="6.850459"><ele>29.75</ele></trkpt>
   <trkpt lat="51.492647" lon="6.850396"><ele>30</ele></trkpt>
   <trkpt lat="51.493017" lon="6.850286"><ele>30.25</ele></trkpt>
   <trkpt lat="51.493119" lon="6.850256"><ele>30.25</ele></trkpt>
   <trkpt lat="51.493733" lon="6.850075"><ele>31.25</ele></trkpt>
   <trkpt lat="51.494691" lon="6.849748"><ele>30</ele></trkpt>
   <trkpt lat="51.4942" lon="6.849884"><ele>31.5</ele></trkpt>
   <trkpt lat="51.493885" lon="6.849953"><ele>31.5</ele></trkpt>
   <trkpt lat="51.493507" lon="6.850052"><ele>31</ele></trkpt>
   <trkpt lat="51.494579" lon="6.849695"><ele>30.25</ele></trkpt>
   <trkpt lat="51.494603" lon="6.849687"><ele>30.25</ele></trkpt>
   <trkpt lat="51.494822" lon="6.849613"><ele>29.5</ele></trkpt>
   <trkpt lat="51.495202" lon="6.849479"><ele>29.5</ele></trkpt>
   <trkpt lat="51.495303" lon="6.849444"><ele>29.75</ele></trkpt>
   <trkpt lat="51.499631" lon="6.847943"><ele>34.5</ele></trkpt>
   <trkpt lat="51.500014" lon="6.847811"><ele>33.25</ele></trkpt>
   <trkpt lat="51.501577" lon="6.847273"><ele>29.5</ele></trkpt>
   <trkpt lat="51.504488" lon="6.846275"><ele>33.25</ele></trkpt>
   <trkpt lat="51.506849" lon="6.845448"><ele>33.25</ele></trkpt>
   <trkpt lat="51.506991" lon="6.845396"><ele>33.5</ele></trkpt>
   <trkpt lat="51.507405" lon="6.845233"><ele>34</ele></trkpt>
   <trkpt lat="51.50758" lon="6.845148"><ele>34.5</ele></trkpt>
   <trkpt lat="51.507964" lon="6.844993"><ele>37.25</ele></trkpt>
   <trkpt lat="51.5083" lon="6.844871"><ele>39.25</ele></trkpt>
   <trkpt lat="51.508345" lon="6.844855"><ele>39.5</ele></trkpt>
   <trkpt lat="51.50874" lon="6.844692"><ele>38.75</ele></trkpt>
   <trkpt lat="51.50899" lon="6.84457"><ele>38</ele></trkpt>
   <trkpt lat="51.509322" lon="6.84444"><ele>37.25</ele></trkpt>
   <trkpt lat="51.510109" lon="6.844125"><ele>35</ele></trkpt>
   <trkpt lat="51.512064" lon="6.843445"><ele>36</ele></trkpt>
   <trkpt lat="51.512962" lon="6.843154"><ele>35.75</ele></trkpt>
   <trkpt lat="51.513814" lon="6.842903"><ele>35.5</ele></trkpt>
   <trkpt lat="51.514546" lon="6.842674"><ele>36.5</ele></trkpt>
   <trkpt lat="51.515709" lon="6.842251"><ele>36.5</ele></trkpt>
   <trkpt lat="51.516374" lon="6.841966"><ele>36.25</ele></trkpt>
   <trkpt lat="51.51729" lon="6.841457"><ele>38.75</ele></trkpt>
   <trkpt lat="51.517974" lon="6.840998"><ele>40.5</ele></trkpt>
   <trkpt lat="51.518856" lon="6.840339"><ele>38.75</ele></trkpt>
   <trkpt lat="51.519169" lon="6.840093"><ele>38.25</ele></trkpt>
   <trkpt lat="51.519329" lon="6.839949"><ele>38.5</ele></trkpt>
   <trkpt lat="51.520059" lon="6.839257"><ele>40</ele></trkpt>
   <trkpt lat="51.520592" lon="6.838709"><ele>40.5</ele></trkpt>
   <trkpt lat="51.520959" lon="6.838305"><ele>41</ele></trkpt>
   <trkpt lat="51.521385" lon="6.83781"><ele>39.75</ele></trkpt>
   <trkpt lat="51.521836" lon="6.837243"><ele>38.75</ele></trkpt>
   <trkpt lat="51.522285" lon="6.836635"><ele>39.75</ele></trkpt>
   <trkpt lat="51.522617" lon="6.836157"><ele>40</ele></trkpt>
   <trkpt lat="51.52283" lon="6.835833"><ele>40.5</ele></trkpt>
   <trkpt lat="51.523041" lon="6.835497"><ele>41.25</ele></trkpt>
   <trkpt lat="51.523436" lon="6.834821"><ele>42.75</ele></trkpt>
   <trkpt lat="51.5238" lon="6.834133"><ele>42.5</ele></trkpt>
   <trkpt lat="51.524216" lon="6.833257"><ele>43</ele></trkpt>
   <trkpt lat="51.524603" lon="6.832374"><ele>44.5</ele></trkpt>
   <trkpt lat="51.525361" lon="6.830599"><ele>43</ele></trkpt>
   <trkpt lat="51.525771" lon="6.829674"><ele>39.75</ele></trkpt>
   <trkpt lat="51.526362" lon="6.828382"><ele>39.5</ele></trkpt>
   <trkpt lat="51.527451" lon="6.826006"><ele>36</ele></trkpt>
   <trkpt lat="51.528295" lon="6.824177"><ele>35.75</ele></trkpt>
   <trkpt lat="51.52866" lon="6.823382"><ele>34.75</ele></trkpt>
   <trkpt lat="51.529712" lon="6.821081"><ele>32.25</ele></trkpt>
   <trkpt lat="51.5304" lon="6.819576"><ele>32.75</ele></trkpt>
   <trkpt lat="51.530703" lon="6.818914"><ele>32.5</ele></trkpt>
   <trkpt lat="51.531182" lon="6.817866"><ele>32.25</ele></trkpt>
   <trkpt lat="51.531678" lon="6.816763"><ele>32.75</ele></trkpt>
   <trkpt lat="51.532223" lon="6.815553"><ele>33</ele></trkpt>
   <trkpt lat="51.532733" lon="6.814431"><ele>32.25</ele></trkpt>
   <trkpt lat="51.53318" lon="6.813446"><ele>32</ele></trkpt>
   <trkpt lat="51.534136" lon="6.811313"><ele>30</ele></trkpt>
   <trkpt lat="51.534312" lon="6.810923"><ele>30.25</ele></trkpt>
   <trkpt lat="51.534448" lon="6.810639"><ele>30.5</ele></trkpt>
   <trkpt lat="51.535798" lon="6.807652"><ele>33</ele></trkpt>
   <trkpt lat="51.53622" lon="6.806731"><ele>33.75</ele></trkpt>
   <trkpt lat="51.537628" lon="6.803651"><ele>29.25</ele></trkpt>
   <trkpt lat="51.538907" lon="6.800854"><ele>32.5</ele></trkpt>
   <trkpt lat="51.539201" lon="6.800221"><ele>33</ele></trkpt>
   <trkpt lat="51.540868" lon="6.796632"><ele>41</ele></trkpt>
   <trkpt lat="51.542115" lon="6.793913"><ele>41.5</ele></trkpt>
   <trkpt lat="51.542491" lon="6.793091"><ele>40.25</ele></trkpt>
   <trkpt lat="51.543344" lon="6.791227"><ele>38.5</ele></trkpt>
   <trkpt lat="51.544621" lon="6.788433"><ele>39.25</ele></trkpt>
   <trkpt lat="51.545426" lon="6.786663"><ele>40</ele></trkpt>
   <trkpt lat="51.546666" lon="6.783936"><ele>41.75</ele></trkpt>
   <trkpt lat="51.547489" lon="6.782124"><ele>37.5</ele></trkpt>
   <trkpt lat="51.547531" lon="6.782032"><ele>37.25</ele></trkpt>
   <trkpt lat="51.547988" lon="6.781028"><ele>37.25</ele></trkpt>
   <trkpt lat="51.548034" lon="6.780921"><ele>37.25</ele></trkpt>
   <trkpt lat="51.54808" lon="6.780818"><ele>37.25</ele></trkpt>
   <trkpt lat="51.548651" lon="6.779572"><ele>36.25</ele></trkpt>
   <trkpt lat="51.54948" lon="6.777761"><ele>33.75</ele></trkpt>
   <trkpt lat="51.549628" lon="6.777436"><ele>33.25</ele></trkpt>
   <trkpt lat="51.549714" lon="6.777253"><ele>33.25</ele></trkpt>
   <trkpt lat="51.5508" lon="6.774862"><ele>36.75</ele></trkpt>
   <trkpt lat="51.551956" lon="6.772321"><ele>34.5</ele></trkpt>
   <trkpt lat="51.553087" lon="6.76984"><ele>35</ele></trkpt>
   <trkpt lat="51.553683" lon="6.768536"><ele>35</ele></trkpt>
   <trkpt lat="51.553886" lon="6.768091"><ele>34.25</ele></trkpt>
   <trkpt lat="51.555049" lon="6.765536"><ele>33</ele></trkpt>
   <trkpt lat="51.556248" lon="6.762911"><ele>32.25</ele></trkpt>
   <trkpt lat="51.557062" lon="6.761125"><ele>33</ele></trkpt>
   <trkpt lat="51.559449" lon="6.755889"><ele>32.25</ele></trkpt>
   <trkpt lat="51.560554" lon="6.75346"><ele>34.25</ele></trkpt>
   <trkpt lat="51.560967" lon="6.752547"><ele>33</ele></trkpt>
   <trkpt lat="51.561041" lon="6.752388"><ele>33</ele></trkpt>
   <trkpt lat="51.561294" lon="6.751833"><ele>33</ele></trkpt>
   <trkpt lat="51.561356" lon="6.751696"><ele>33</ele></trkpt>
   <trkpt lat="51.561649" lon="6.751043"><ele>32.25</ele></trkpt>
   <trkpt lat="51.562446" lon="6.749205"><ele>31.75</ele></trkpt>
   <trkpt lat="51.563158" lon="6.747537"><ele>32.5</ele></trkpt>
   <trkpt lat="51.563298" lon="6.747232"><ele>32</ele></trkpt>
   <trkpt lat="51.563508" lon="6.746814"><ele>31.5</ele></trkpt>
   <trkpt lat="51.563682" lon="6.746449"><ele>31.25</ele></trkpt>
   <trkpt lat="51.563733" lon="6.746343"><ele>31</ele></trkpt>
   <trkpt lat="51.564003" lon="6.745738"><ele>30.5</ele></trkpt>
   <trkpt lat="51.56406" lon="6.745613"><ele>30.25</ele></trkpt>
   <trkpt lat="51.564255" lon="6.745235"><ele>29.75</ele></trkpt>
   <trkpt lat="51.564458" lon="6.74488"><ele>29.75</ele></trkpt>
   <trkpt lat="51.564557" lon="6.744677"><ele>29.75</ele></trkpt>
   <trkpt lat="51.564705" lon="6.74435"><ele>30</ele></trkpt>
   <trkpt lat="51.56495" lon="6.743827"><ele>30.25</ele></trkpt>
   <trkpt lat="51.564983" lon="6.743758"><ele>30.5</ele></trkpt>
   <trkpt lat="51.56622" lon="6.741244"><ele>33.25</ele></trkpt>
   <trkpt lat="51.567106" lon="6.739495"><ele>35</ele></trkpt>
   <trkpt lat="51.567445" lon="6.738789"><ele>35.25</ele></trkpt>
   <trkpt lat="51.567688" lon="6.738253"><ele>35.5</ele></trkpt>
   <trkpt lat="51.568236" lon="6.737005"><ele>35</ele></trkpt>
   <trkpt lat="51.568588" lon="6.73614"><ele>34</ele></trkpt>
   <trkpt lat="51.569165" lon="6.734846"><ele>32.5</ele></trkpt>
   <trkpt lat="51.569241" lon="6.734673"><ele>32</ele></trkpt>
   <trkpt lat="51.569676" lon="6.733784"><ele>30.5</ele></trkpt>
   <trkpt lat="51.570414" lon="6.732375"><ele>29</ele></trkpt>
   <trkpt lat="51.570532" lon="6.73213"><ele>29</ele></trkpt>
   <trkpt lat="51.570847" lon="6.731568"><ele>28.75</ele></trkpt>
   <trkpt lat="51.571611" lon="6.730216"><ele>29.5</ele></trkpt>
   <trkpt lat="51.572156" lon="6.729289"><ele>29.5</ele></trkpt>
   <trkpt lat="51.572739" lon="6.728382"><ele>30.5</ele></trkpt>
   <trkpt lat="51.573402" lon="6.727276"><ele>27.75</ele></trkpt>
   <trkpt lat="51.573931" lon="6.726352"><ele>28.5</ele></trkpt>
   <trkpt lat="51.574655" lon="6.725195"><ele>27.25</ele></trkpt>
   <trkpt lat="51.577332" lon="6.720952"><ele>28</ele></trkpt>
   <trkpt lat="51.577446" lon="6.720768"><ele>28</ele></trkpt>
   <trkpt lat="51.58055" lon="6.71585"><ele>28</ele></trkpt>
   <trkpt lat="51.584472" lon="6.709626"><ele>35.75</ele></trkpt>
   <trkpt lat="51.584556" lon="6.709486"><ele>36</ele></trkpt>
   <trkpt lat="51.584965" lon="6.708838"><ele>36</ele></trkpt>
   <trkpt lat="51.587905" lon="6.704175"><ele>28</ele></trkpt>
   <trkpt lat="51.592802" lon="6.696408"><ele>24.25</ele></trkpt>
   <trkpt lat="51.593412" lon="6.695441"><ele>25.5</ele></trkpt>
   <trkpt lat="51.593462" lon="6.695361"><ele>25.5</ele></trkpt>
   <trkpt lat="51.596465" lon="6.690598"><ele>29.75</ele></trkpt>
   <trkpt lat="51.597277" lon="6.689308"><ele>27.75</ele></trkpt>
   <trkpt lat="51.597424" lon="6.689082"><ele>27.75</ele></trkpt>
   <trkpt lat="51.597737" lon="6.688586"><ele>27.5</ele></trkpt>
   <trkpt lat="51.597874" lon="6.688372"><ele>27.5</ele></trkpt>
   <trkpt lat="51.597933" lon="6.688281"><ele>27.25</ele></trkpt>
   <trkpt lat="51.599485" lon="6.685851"><ele>27</ele></trkpt>
   <trkpt lat="51.600787" lon="6.683741"><ele>26.75</ele></trkpt>
   <trkpt lat="51.60344" lon="6.679529"><ele>26.5</ele></trkpt>
   <trkpt lat="51.603668" lon="6.67915"><ele>26.5</ele></trkpt>
   <trkpt lat="51.603915" lon="6.678703"><ele>25.75</ele></trkpt>
   <trkpt lat="51.604149" lon="6.678315"><ele>25</ele></trkpt>
   <trkpt lat="51.60422" lon="6.678206"><ele>25</ele></trkpt>
   <trkpt lat="51.604245" lon="6.678159"><ele>25</ele></trkpt>
   <trkpt lat="51.604265" lon="6.678128"><ele>25</ele></trkpt>
   <trkpt lat="51.604748" lon="6.677458"><ele>25.25</ele></trkpt>
   <trkpt lat="51.605328" lon="6.676527"><ele>25.25</ele></trkpt>
   <trkpt lat="51.605359" lon="6.67648"><ele>25.25</ele></trkpt>
   <trkpt lat="51.606438" lon="6.674744"><ele>23.75</ele></trkpt>
   <trkpt lat="51.606749" lon="6.674244"><ele>23</ele></trkpt>
   <trkpt lat="51.606953" lon="6.673941"><ele>23.25</ele></trkpt>
   <trkpt lat="51.607087" lon="6.673728"><ele>23.5</ele></trkpt>
   <trkpt lat="51.607537" lon="6.673014"><ele>23.75</ele></trkpt>
   <trkpt lat="51.607827" lon="6.672552"><ele>26.25</ele></trkpt>
   <trkpt lat="51.615917" lon="6.659703"><ele>26.25</ele></trkpt>
   <trkpt lat="51.617796" lon="6.656715"><ele>27</ele></trkpt>
   <trkpt lat="51.618701" lon="6.655191"><ele>26.5</ele></trkpt>
   <trkpt lat="51.618762" lon="6.655095"><ele>26.5</ele></trkpt>
   <trkpt lat="51.619641" lon="6.653704"><ele>25.75</ele></trkpt>
   <trkpt lat="51.620232" lon="6.65279"><ele>26</ele></trkpt>
   <trkpt lat="51.620719" lon="6.652094"><ele>25.5</ele></trkpt>
   <trkpt lat="51.620874" lon="6.651895"><ele>25.25</ele></trkpt>
   <trkpt lat="51.62126" lon="6.651398"><ele>25.5</ele></trkpt>
   <trkpt lat="51.62183" lon="6.650746"><ele>25.25</ele></trkpt>
   <trkpt lat="51.622323" lon="6.65024"><ele>26</ele></trkpt>
   <trkpt lat="51.622835" lon="6.649761"><ele>25.5</ele></trkpt>
   <trkpt lat="51.623004" lon="6.649613"><ele>25.25</ele></trkpt>
   <trkpt lat="51.623671" lon="6.649055"><ele>25</ele></trkpt>
   <trkpt lat="51.625794" lon="6.647309"><ele>24.75</ele></trkpt>
   <trkpt lat="51.626409" lon="6.646804"><ele>25.5</ele></trkpt>
   <trkpt lat="51.627117" lon="6.646221"><ele>25.5</ele></trkpt>
   <trkpt lat="51.627585" lon="6.645841"><ele>25</ele></trkpt>
   <trkpt lat="51.628443" lon="6.645214"><ele>25.25</ele></trkpt>
   <trkpt lat="51.628632" lon="6.645076"><ele>25.25</ele></trkpt>
   <trkpt lat="51.628774" lon="6.64498"><ele>25.5</ele></trkpt>
   <trkpt lat="51.628917" lon="6.644884"><ele>25.5</ele></trkpt>
   <trkpt lat="51.62949" lon="6.6445"><ele>23.75</ele></trkpt>
   <trkpt lat="51.630069" lon="6.644115"><ele>23</ele></trkpt>
   <trkpt lat="51.631927" lon="6.64287"><ele>27.5</ele></trkpt>
   <trkpt lat="51.6323" lon="6.64263"><ele>27</ele></trkpt>
   <trkpt lat="51.634075" lon="6.641485"><ele>25.5</ele></trkpt>
   <trkpt lat="51.634453" lon="6.641243"><ele>25.5</ele></trkpt>
   <trkpt lat="51.634739" lon="6.641067"><ele>25.75</ele></trkpt>
   <trkpt lat="51.635293" lon="6.640707"><ele>26.5</ele></trkpt>
   <trkpt lat="51.637134" lon="6.639521"><ele>27.25</ele></trkpt>
   <trkpt lat="51.637296" lon="6.639417"><ele>27</ele></trkpt>
   <trkpt lat="51.640817" lon="6.637276"><ele>22.5</ele></trkpt>
   <trkpt lat="51.641749" lon="6.636671"><ele>23</ele></trkpt>
   <trkpt lat="51.642621" lon="6.636084"><ele>23.75</ele></trkpt>
   <trkpt lat="51.643151" lon="6.63567"><ele>23</ele></trkpt>
   <trkpt lat="51.643502" lon="6.635362"><ele>23</ele></trkpt>
   <trkpt lat="51.644167" lon="6.634713"><ele>22.25</ele></trkpt>
   <trkpt lat="51.645389" lon="6.633521"><ele>22</ele></trkpt>
   <trkpt lat="51.645879" lon="6.633057"><ele>22.25</ele></trkpt>
   <trkpt lat="51.648245" lon="6.630725"><ele>24</ele></trkpt>
   <trkpt lat="51.648785" lon="6.630198"><ele>24.25</ele></trkpt>
   <trkpt lat="51.648835" lon="6.63015"><ele>24.25</ele></trkpt>
   <trkpt lat="51.649319" lon="6.629627"><ele>24.25</ele></trkpt>
   <trkpt lat="51.649606" lon="6.629302"><ele>24</ele></trkpt>
   <trkpt lat="51.649906" lon="6.629001"><ele>23.5</ele></trkpt>
   <trkpt lat="51.650395" lon="6.628577"><ele>23.5</ele></trkpt>
   <trkpt lat="51.650938" lon="6.628196"><ele>24</ele></trkpt>
   <trkpt lat="51.651176" lon="6.628043"><ele>24.5</ele></trkpt>
   <trkpt lat="51.651366" lon="6.627934"><ele>24.75</ele></trkpt>
   <trkpt lat="51.651795" lon="6.627714"><ele>25.5</ele></trkpt>
   <trkpt lat="51.652338" lon="6.627483"><ele>25</ele></trkpt>
   <trkpt lat="51.652362" lon="6.627473"><ele>25</ele></trkpt>
   <trkpt lat="51.652947" lon="6.627289"><ele>26.5</ele></trkpt>
   <trkpt lat="51.653227" lon="6.627224"><ele>27.5</ele></trkpt>
   <trkpt lat="51.653537" lon="6.627168"><ele>28.5</ele></trkpt>
   <trkpt lat="51.65386" lon="6.627126"><ele>29.75</ele></trkpt>
   <trkpt lat="51.653947" lon="6.627116"><ele>30</ele></trkpt>
   <trkpt lat="51.654294" lon="6.627086"><ele>30.5</ele></trkpt>
   <trkpt lat="51.654638" lon="6.627076"><ele>29.25</ele></trkpt>
   <trkpt lat="51.654958" lon="6.627078"><ele>28</ele></trkpt>
   <trkpt lat="51.655459" lon="6.627105"><ele>27.25</ele></trkpt>
   <trkpt lat="51.655899" lon="6.627159"><ele>27</ele></trkpt>
   <trkpt lat="51.656198" lon="6.627201"><ele>27.25</ele></trkpt>
   <trkpt lat="51.656494" lon="6.627258"><ele>27.75</ele></trkpt>
   <trkpt lat="51.657023" lon="6.627387"><ele>27.5</ele></trkpt>
   <trkpt lat="51.657112" lon="6.627414"><ele>27.75</ele></trkpt>
   <trkpt lat="51.659283" lon="6.628072"><ele>27.75</ele></trkpt>
   <trkpt lat="51.659396" lon="6.628108"><ele>27.75</ele></trkpt>
   <trkpt lat="51.661523" lon="6.628746"><ele>26.25</ele></trkpt>
   <trkpt lat="51.661987" lon="6.628858"><ele>25.75</ele></trkpt>
   <trkpt lat="51.662335" lon="6.628925"><ele>25</ele></trkpt>
   <trkpt lat="51.662855" lon="6.628978"><ele>25.25</ele></trkpt>
   <trkpt lat="51.663212" lon="6.628998"><ele>25.75</ele></trkpt>
   <trkpt lat="51.663554" lon="6.62898"><ele>25.5</ele></trkpt>
   <trkpt lat="51.664142" lon="6.628905"><ele>25</ele></trkpt>
   <trkpt lat="51.664245" lon="6.628885"><ele>25</ele></trkpt>
   <trkpt lat="51.664723" lon="6.628738"><ele>25.5</ele></trkpt>
   <trkpt lat="51.665719" lon="6.628318"><ele>25</ele></trkpt>
   <trkpt lat="51.665754" lon="6.628304"><ele>25</ele></trkpt>
   <trkpt lat="51.666151" lon="6.628115"><ele>24.5</ele></trkpt>
   <trkpt lat="51.666645" lon="6.627829"><ele>24.5</ele></trkpt>
   <trkpt lat="51.667112" lon="6.627511"><ele>25.5</ele></trkpt>
   <trkpt lat="51.667573" lon="6.627147"><ele>26.25</ele></trkpt>
   <trkpt lat="51.668011" lon="6.62675"><ele>25.5</ele></trkpt>
   <trkpt lat="51.66851" lon="6.626256"><ele>25</ele></trkpt>
   <trkpt lat="51.668853" lon="6.625858"><ele>25</ele></trkpt>
   <trkpt lat="51.669079" lon="6.625596"><ele>24.5</ele></trkpt>
   <trkpt lat="51.672548" lon="6.621321"><ele>25.25</ele></trkpt>
   <trkpt lat="51.676413" lon="6.616535"><ele>25</ele></trkpt>
   <trkpt lat="51.676741" lon="6.616119"><ele>25</ele></trkpt>
   <trkpt lat="51.682031" lon="6.609612"><ele>26.75</ele></trkpt>
   <trkpt lat="51.682285" lon="6.609302"><ele>26.25</ele></trkpt>
   <trkpt lat="51.685947" lon="6.604776"><ele>29.25</ele></trkpt>
   <trkpt lat="51.696287" lon="6.592037"><ele>29.5</ele></trkpt>
   <trkpt lat="51.701136" lon="6.586049"><ele>21.75</ele></trkpt>
   <trkpt lat="51.706551" lon="6.579374"><ele>23</ele></trkpt>
   <trkpt lat="51.710734" lon="6.574215"><ele>20.75</ele></trkpt>
   <trkpt lat="51.711554" lon="6.573191"><ele>21.75</ele></trkpt>
   <trkpt lat="51.712112" lon="6.572437"><ele>21.5</ele></trkpt>
   <trkpt lat="51.713215" lon="6.570678"><ele>24</ele></trkpt>
   <trkpt lat="51.713749" lon="6.569703"><ele>24.75</ele></trkpt>
   <trkpt lat="51.716429" lon="6.564249"><ele>31</ele></trkpt>
   <trkpt lat="51.717328" lon="6.562422"><ele>30</ele></trkpt>
   <trkpt lat="51.72061" lon="6.555688"><ele>23</ele></trkpt>
   <trkpt lat="51.722456" lon="6.551931"><ele>22</ele></trkpt>
   <trkpt lat="51.726426" lon="6.543819"><ele>21.25</ele></trkpt>
   <trkpt lat="51.733278" lon="6.529819"><ele>21.5</ele></trkpt>
   <trkpt lat="51.734394" lon="6.527522"><ele>18.75</ele></trkpt>
   <trkpt lat="51.734733" lon="6.526926"><ele>20</ele></trkpt>
   <trkpt lat="51.736426" lon="6.523435"><ele>19.5</ele></trkpt>
   <trkpt lat="51.739464" lon="6.517217"><ele>20.5</ele></trkpt>
   <trkpt lat="51.739498" lon="6.51715"><ele>20.75</ele></trkpt>
   <trkpt lat="51.739535" lon="6.517074"><ele>20.75</ele></trkpt>
   <trkpt lat="51.73989" lon="6.516345"><ele>21.25</ele></trkpt>
   <trkpt lat="51.741126" lon="6.513843"><ele>20</ele></trkpt>
   <trkpt lat="51.743953" lon="6.508"><ele>20.25</ele></trkpt>
   <trkpt lat="51.746513" lon="6.502738"><ele>18</ele></trkpt>
   <trkpt lat="51.749086" lon="6.497466"><ele>20</ele></trkpt>
   <trkpt lat="51.749126" lon="6.497386"><ele>20</ele></trkpt>
   <trkpt lat="51.752241" lon="6.490992"><ele>20.5</ele></trkpt>
   <trkpt lat="51.755372" lon="6.484611"><ele>20.75</ele></trkpt>
   <trkpt lat="51.755801" lon="6.48369"><ele>21.75</ele></trkpt>
   <trkpt lat="51.75794" lon="6.4793"><ele>27</ele></trkpt>
   <trkpt lat="51.759099" lon="6.476917"><ele>27</ele></trkpt>
   <trkpt lat="51.760093" lon="6.474905"><ele>23.75</ele></trkpt>
   <trkpt lat="51.760646" lon="6.473898"><ele>21.75</ele></trkpt>
   <trkpt lat="51.761112" lon="6.473114"><ele>22</ele></trkpt>
   <trkpt lat="51.762894" lon="6.470406"><ele>22</ele></trkpt>
   <trkpt lat="51.772271" lon="6.456259"><ele>19.75</ele></trkpt>
   <trkpt lat="51.772302" lon="6.456211"><ele>19.5</ele></trkpt>
   <trkpt lat="51.772844" lon="6.455393"><ele>18.25</ele></trkpt>
   <trkpt lat="51.773157" lon="6.454919"><ele>16.5</ele></trkpt>
  </trkseg>
 </trk>
</gpx>