<?xml version="1.0" encoding="UTF-8"?>
<!-- track-length = 41470 filtered ascend = 122 plain-ascend = -54 cost=41470 energy=0.5kwh time=55m 17s -->
<gpx 
 xmlns="http://www.topografix.com/GPX/1/1" 
 xmlns:xsi="http://www.w3.org/2001/XMLSchema-instance" 
 xsi:schemaLocation="http://www.topografix.com/GPX/1/1 http://www.topografix.com/GPX/1/1/gpx.xsd" 
 version="1.1" 
 creator="BRouter-Web 0.18.1">
 <trk>
  <name>Obrnice - Lovosice</name>
  <trkseg>
   <trkpt lat="50.505811" lon="13.696534"><ele>212.25</ele></trkpt>
   <trkpt lat="50.505795" lon="13.696582"><ele>212.25</ele></trkpt>
   <trkpt lat="50.505641" lon="13.697043"><ele>213</ele></trkpt>
   <trkpt lat="50.505495" lon="13.69762"><ele>213.25</ele></trkpt>
   <trkpt lat="50.505399" lon="13.698015"><ele>213</ele></trkpt>
   <trkpt lat="50.505306" lon="13.698367"><ele>212.75</ele></trkpt>
   <trkpt lat="50.50518" lon="13.698736"><ele>212.75</ele></trkpt>
   <trkpt lat="50.504695" lon="13.699907"><ele>212.25</ele></trkpt>
   <trkpt lat="50.504516" lon="13.700275"><ele>212.5</ele></trkpt>
   <trkpt lat="50.504362" lon="13.700526"><ele>212.75</ele></trkpt>
   <trkpt lat="50.504219" lon="13.700736"><ele>212.75</ele></trkpt>
   <trkpt lat="50.504041" lon="13.700941"><ele>213.25</ele></trkpt>
   <trkpt lat="50.503851" lon="13.701126"><ele>213.75</ele></trkpt>
   <trkpt lat="50.503566" lon="13.701327"><ele>214</ele></trkpt>
   <trkpt lat="50.503394" lon="13.701421"><ele>214</ele></trkpt>
   <trkpt lat="50.503225" lon="13.70149"><ele>214.25</ele></trkpt>
   <trkpt lat="50.502916" lon="13.701565"><ele>215</ele></trkpt>
   <trkpt lat="50.501486" lon="13.701688"><ele>218.5</ele></trkpt>
   <trkpt lat="50.500801" lon="13.701757"><ele>217.5</ele></trkpt>
   <trkpt lat="50.500448" lon="13.701774"><ele>216.75</ele></trkpt>
   <trkpt lat="50.50016" lon="13.701753"><ele>216.25</ele></trkpt>
   <trkpt lat="50.49957" lon="13.701682"><ele>214.25</ele></trkpt>
   <trkpt lat="50.498751" lon="13.701589"><ele>213.75</ele></trkpt>
   <trkpt lat="50.497933" lon="13.701521"><ele>214</ele></trkpt>
   <trkpt lat="50.497738" lon="13.701525"><ele>213.75</ele></trkpt>
   <trkpt lat="50.497498" lon="13.701567"><ele>213.5</ele></trkpt>
   <trkpt lat="50.497286" lon="13.701631"><ele>213.25</ele></trkpt>
   <trkpt lat="50.497027" lon="13.701752"><ele>213.5</ele></trkpt>
   <trkpt lat="50.496875" lon="13.701843"><ele>213.5</ele></trkpt>
   <trkpt lat="50.496737" lon="13.70194"><ele>213.5</ele></trkpt>
   <trkpt lat="50.496525" lon="13.702123"><ele>214</ele></trkpt>
   <trkpt lat="50.496343" lon="13.702315"><ele>214.25</ele></trkpt>
   <trkpt lat="50.496199" lon="13.702489"><ele>214.5</ele></trkpt>
   <trkpt lat="50.495978" lon="13.702814"><ele>214.25</ele></trkpt>
   <trkpt lat="50.495788" lon="13.70316"><ele>213.75</ele></trkpt>
   <trkpt lat="50.495263" lon="13.704295"><ele>214.25</ele></trkpt>
   <trkpt lat="50.493389" lon="13.7084"><ele>213.5</ele></trkpt>
   <trkpt lat="50.493136" lon="13.708934"><ele>214</ele></trkpt>
   <trkpt lat="50.492982" lon="13.709205"><ele>214</ele></trkpt>
   <trkpt lat="50.492847" lon="13.709416"><ele>214</ele></trkpt>
   <trkpt lat="50.492679" lon="13.709638"><ele>213.75</ele></trkpt>
   <trkpt lat="50.492422" lon="13.709923"><ele>213.5</ele></trkpt>
   <trkpt lat="50.492105" lon="13.710184"><ele>214</ele></trkpt>
   <trkpt lat="50.491805" lon="13.710345"><ele>214.5</ele></trkpt>
   <trkpt lat="50.491505" lon="13.710444"><ele>215.25</ele></trkpt>
   <trkpt lat="50.491176" lon="13.710492"><ele>215.75</ele></trkpt>
   <trkpt lat="50.490841" lon="13.710497"><ele>216.75</ele></trkpt>
   <trkpt lat="50.490443" lon="13.710387"><ele>216.75</ele></trkpt>
   <trkpt lat="50.490084" lon="13.7102"><ele>216.75</ele></trkpt>
   <trkpt lat="50.489891" lon="13.710066"><ele>216.5</ele></trkpt>
   <trkpt lat="50.489683" lon="13.709894"><ele>216</ele></trkpt>
   <trkpt lat="50.489456" lon="13.709648"><ele>215.75</ele></trkpt>
   <trkpt lat="50.489301" lon="13.709438"><ele>215.25</ele></trkpt>
   <trkpt lat="50.489132" lon="13.709187"><ele>214.75</ele></trkpt>
   <trkpt lat="50.488977" lon="13.708906"><ele>214.5</ele></trkpt>
   <trkpt lat="50.488857" lon="13.708627"><ele>214.5</ele></trkpt>
   <trkpt lat="50.488745" lon="13.70835"><ele>214.25</ele></trkpt>
   <trkpt lat="50.488655" lon="13.708062"><ele>214.25</ele></trkpt>
   <trkpt lat="50.488505" lon="13.707508"><ele>213.75</ele></trkpt>
   <trkpt lat="50.487845" lon="13.704966"><ele>214.5</ele></trkpt>
   <trkpt lat="50.487802" lon="13.70481"><ele>215</ele></trkpt>
   <trkpt lat="50.487222" lon="13.702569"><ele>219.25</ele></trkpt>
   <trkpt lat="50.48707" lon="13.702064"><ele>219.25</ele></trkpt>
   <trkpt lat="50.486987" lon="13.701838"><ele>219.25</ele></trkpt>
   <trkpt lat="50.486893" lon="13.701611"><ele>219.5</ele></trkpt>
   <trkpt lat="50.486785" lon="13.701358"><ele>219</ele></trkpt>
   <trkpt lat="50.486577" lon="13.700971"><ele>218.75</ele></trkpt>
   <trkpt lat="50.486334" lon="13.700597"><ele>218.5</ele></trkpt>
   <trkpt lat="50.486055" lon="13.700266"><ele>218</ele></trkpt>
   <trkpt lat="50.485763" lon="13.69998"><ele>216.75</ele></trkpt>
   <trkpt lat="50.485448" lon="13.699738"><ele>215.5</ele></trkpt>
   <trkpt lat="50.482904" lon="13.698131"><ele>214.5</ele></trkpt>
   <trkpt lat="50.481861" lon="13.697477"><ele>215.25</ele></trkpt>
   <trkpt lat="50.48141" lon="13.697203"><ele>215.5</ele></trkpt>
   <trkpt lat="50.481006" lon="13.697018"><ele>215.5</ele></trkpt>
   <trkpt lat="50.48065" lon="13.696896"><ele>215.5</ele></trkpt>
   <trkpt lat="50.480247" lon="13.696814"><ele>215.5</ele></trkpt>
   <trkpt lat="50.479355" lon="13.696771"><ele>215.5</ele></trkpt>
   <trkpt lat="50.47922" lon="13.696787"><ele>215.5</ele></trkpt>
   <trkpt lat="50.478928" lon="13.696861"><ele>215.5</ele></trkpt>
   <trkpt lat="50.47874" lon="13.696963"><ele>215.75</ele></trkpt>
   <trkpt lat="50.478563" lon="13.697088"><ele>216</ele></trkpt>
   <trkpt lat="50.478487" lon="13.697151"><ele>216</ele></trkpt>
   <trkpt lat="50.478398" lon="13.69724"><ele>216</ele></trkpt>
   <trkpt lat="50.478197" lon="13.69748"><ele>216.25</ele></trkpt>
   <trkpt lat="50.478099" lon="13.697627"><ele>216.25</ele></trkpt>
   <trkpt lat="50.47801" lon="13.697781"><ele>216.5</ele></trkpt>
   <trkpt lat="50.477876" lon="13.698072"><ele>216.75</ele></trkpt>
   <trkpt lat="50.477798" lon="13.698297"><ele>217</ele></trkpt>
   <trkpt lat="50.477697" lon="13.698644"><ele>217.75</ele></trkpt>
   <trkpt lat="50.477352" lon="13.699912"><ele>219.75</ele></trkpt>
   <trkpt lat="50.477235" lon="13.700264"><ele>220.75</ele></trkpt>
   <trkpt lat="50.477147" lon="13.700487"><ele>221.25</ele></trkpt>
   <trkpt lat="50.477073" lon="13.700653"><ele>221.5</ele></trkpt>
   <trkpt lat="50.476899" lon="13.700982"><ele>221.5</ele></trkpt>
   <trkpt lat="50.476783" lon="13.701168"><ele>221.25</ele></trkpt>
   <trkpt lat="50.476586" lon="13.70144"><ele>220.75</ele></trkpt>
   <trkpt lat="50.476313" lon="13.701734"><ele>221</ele></trkpt>
   <trkpt lat="50.476184" lon="13.701849"><ele>221.25</ele></trkpt>
   <trkpt lat="50.476021" lon="13.701976"><ele>221.25</ele></trkpt>
   <trkpt lat="50.475734" lon="13.702162"><ele>221</ele></trkpt>
   <trkpt lat="50.475691" lon="13.70219"><ele>221</ele></trkpt>
   <trkpt lat="50.475367" lon="13.702404"><ele>221.25</ele></trkpt>
   <trkpt lat="50.475223" lon="13.702514"><ele>221.5</ele></trkpt>
   <trkpt lat="50.475087" lon="13.702645"><ele>221.5</ele></trkpt>
   <trkpt lat="50.474978" lon="13.702766"><ele>221.75</ele></trkpt>
   <trkpt lat="50.474853" lon="13.702937"><ele>221.75</ele></trkpt>
   <trkpt lat="50.474738" lon="13.703119"><ele>222</ele></trkpt>
   <trkpt lat="50.474646" lon="13.703301"><ele>222</ele></trkpt>
   <trkpt lat="50.474553" lon="13.703517"><ele>222.5</ele></trkpt>
   <trkpt lat="50.474494" lon="13.70368"><ele>222.75</ele></trkpt>
   <trkpt lat="50.474432" lon="13.703902"><ele>223.25</ele></trkpt>
   <trkpt lat="50.474377" lon="13.704131"><ele>223.75</ele></trkpt>
   <trkpt lat="50.474339" lon="13.704357"><ele>224.5</ele></trkpt>
   <trkpt lat="50.474312" lon="13.704599"><ele>225.25</ele></trkpt>
   <trkpt lat="50.474301" lon="13.70483"><ele>226</ele></trkpt>
   <trkpt lat="50.474299" lon="13.705111"><ele>226.75</ele></trkpt>
   <trkpt lat="50.474355" lon="13.706224"><ele>228.25</ele></trkpt>
   <trkpt lat="50.474348" lon="13.706529"><ele>228.5</ele></trkpt>
   <trkpt lat="50.474332" lon="13.706761"><ele>228.5</ele></trkpt>
   <trkpt lat="50.474304" lon="13.706991"><ele>228.75</ele></trkpt>
   <trkpt lat="50.474215" lon="13.707397"><ele>229</ele></trkpt>
   <trkpt lat="50.474136" lon="13.70764"><ele>229</ele></trkpt>
   <trkpt lat="50.474057" lon="13.707853"><ele>229.25</ele></trkpt>
   <trkpt lat="50.473964" lon="13.708055"><ele>229.5</ele></trkpt>
   <trkpt lat="50.473836" lon="13.708287"><ele>230.25</ele></trkpt>
   <trkpt lat="50.473702" lon="13.708503"><ele>230.75</ele></trkpt>
   <trkpt lat="50.472107" lon="13.710933"><ele>233.75</ele></trkpt>
   <trkpt lat="50.471854" lon="13.711357"><ele>235</ele></trkpt>
   <trkpt lat="50.47165" lon="13.711762"><ele>235.75</ele></trkpt>
   <trkpt lat="50.471477" lon="13.712179"><ele>235.25</ele></trkpt>
   <trkpt lat="50.471371" lon="13.712498"><ele>235</ele></trkpt>
   <trkpt lat="50.471339" lon="13.712597"><ele>235</ele></trkpt>
   <trkpt lat="50.470457" lon="13.715377"><ele>238.5</ele></trkpt>
   <trkpt lat="50.47038" lon="13.715593"><ele>238.75</ele></trkpt>
   <trkpt lat="50.470275" lon="13.715847"><ele>239.25</ele></trkpt>
   <trkpt lat="50.47018" lon="13.716045"><ele>240</ele></trkpt>
   <trkpt lat="50.470048" lon="13.716268"><ele>240.75</ele></trkpt>
   <trkpt lat="50.46983" lon="13.716566"><ele>241.5</ele></trkpt>
   <trkpt lat="50.469359" lon="13.717105"><ele>242.25</ele></trkpt>
   <trkpt lat="50.468992" lon="13.717529"><ele>242.5</ele></trkpt>
   <trkpt lat="50.468733" lon="13.717903"><ele>243.25</ele></trkpt>
   <trkpt lat="50.468611" lon="13.718105"><ele>243.5</ele></trkpt>
   <trkpt lat="50.468514" lon="13.718292"><ele>244</ele></trkpt>
   <trkpt lat="50.46841" lon="13.718509"><ele>244</ele></trkpt>
   <trkpt lat="50.468253" lon="13.718892"><ele>243.75</ele></trkpt>
   <trkpt lat="50.468123" lon="13.719283"><ele>244</ele></trkpt>
   <trkpt lat="50.468025" lon="13.719659"><ele>244.5</ele></trkpt>
   <trkpt lat="50.467987" lon="13.719831"><ele>244.75</ele></trkpt>
   <trkpt lat="50.467899" lon="13.7204"><ele>245</ele></trkpt>
   <trkpt lat="50.467871" lon="13.720638"><ele>245</ele></trkpt>
   <trkpt lat="50.467853" lon="13.720895"><ele>245.25</ele></trkpt>
   <trkpt lat="50.467843" lon="13.721164"><ele>245.5</ele></trkpt>
   <trkpt lat="50.467842" lon="13.721403"><ele>245.75</ele></trkpt>
   <trkpt lat="50.467864" lon="13.721915"><ele>246.25</ele></trkpt>
   <trkpt lat="50.467955" lon="13.722868"><ele>247</ele></trkpt>
   <trkpt lat="50.467962" lon="13.72294"><ele>247</ele></trkpt>
   <trkpt lat="50.468038" lon="13.723725"><ele>251.5</ele></trkpt>
   <trkpt lat="50.468306" lon="13.726486"><ele>251.5</ele></trkpt>
   <trkpt lat="50.468313" lon="13.726559"><ele>251.75</ele></trkpt>
   <trkpt lat="50.468351" lon="13.726962"><ele>252.25</ele></trkpt>
   <trkpt lat="50.468373" lon="13.727265"><ele>252.75</ele></trkpt>
   <trkpt lat="50.468396" lon="13.727744"><ele>253.5</ele></trkpt>
   <trkpt lat="50.468423" lon="13.728714"><ele>254.75</ele></trkpt>
   <trkpt lat="50.468424" lon="13.729108"><ele>255.25</ele></trkpt>
   <trkpt lat="50.468408" lon="13.729612"><ele>256.25</ele></trkpt>
   <trkpt lat="50.468361" lon="13.730499"><ele>257.75</ele></trkpt>
   <trkpt lat="50.468307" lon="13.731024"><ele>258</ele></trkpt>
   <trkpt lat="50.46823" lon="13.731675"><ele>258.25</ele></trkpt>
   <trkpt lat="50.467547" lon="13.736466"><ele>263.75</ele></trkpt>
   <trkpt lat="50.467168" lon="13.739184"><ele>268</ele></trkpt>
   <trkpt lat="50.46677" lon="13.741893"><ele>271</ele></trkpt>
   <trkpt lat="50.466667" lon="13.742414"><ele>272.5</ele></trkpt>
   <trkpt lat="50.466536" lon="13.742844"><ele>273.5</ele></trkpt>
   <trkpt lat="50.466453" lon="13.743071"><ele>273.75</ele></trkpt>
   <trkpt lat="50.466389" lon="13.743224"><ele>274</ele></trkpt>
   <trkpt lat="50.466307" lon="13.743408"><ele>274.5</ele></trkpt>
   <trkpt lat="50.466211" lon="13.743601"><ele>275</ele></trkpt>
   <trkpt lat="50.466042" lon="13.74388"><ele>275.5</ele></trkpt>
   <trkpt lat="50.465942" lon="13.744024"><ele>275.25</ele></trkpt>
   <trkpt lat="50.465751" lon="13.744267"><ele>275.25</ele></trkpt>
   <trkpt lat="50.465561" lon="13.74446"><ele>275.5</ele></trkpt>
   <trkpt lat="50.465452" lon="13.744559"><ele>275.75</ele></trkpt>
   <trkpt lat="50.465307" lon="13.744677"><ele>275.75</ele></trkpt>
   <trkpt lat="50.465172" lon="13.744771"><ele>275.5</ele></trkpt>
   <trkpt lat="50.465111" lon="13.744806"><ele>275.5</ele></trkpt>
   <trkpt lat="50.464536" lon="13.745166"><ele>276.25</ele></trkpt>
   <trkpt lat="50.464054" lon="13.745484"><ele>277</ele></trkpt>
   <trkpt lat="50.463043" lon="13.74611"><ele>278.5</ele></trkpt>
   <trkpt lat="50.461243" lon="13.747251"><ele>279</ele></trkpt>
   <trkpt lat="50.461096" lon="13.747336"><ele>279</ele></trkpt>
   <trkpt lat="50.460967" lon="13.747397"><ele>278.75</ele></trkpt>
   <trkpt lat="50.460818" lon="13.74745"><ele>278.75</ele></trkpt>
   <trkpt lat="50.460682" lon="13.747482"><ele>279.75</ele></trkpt>
   <trkpt lat="50.460548" lon="13.747491"><ele>280.5</ele></trkpt>
   <trkpt lat="50.460407" lon="13.747482"><ele>281.25</ele></trkpt>
   <trkpt lat="50.458681" lon="13.747293"><ele>283</ele></trkpt>
   <trkpt lat="50.458601" lon="13.747288"><ele>282.75</ele></trkpt>
   <trkpt lat="50.458285" lon="13.747301"><ele>282.5</ele></trkpt>
   <trkpt lat="50.45811" lon="13.747326"><ele>283.25</ele></trkpt>
   <trkpt lat="50.457942" lon="13.747367"><ele>284</ele></trkpt>
   <trkpt lat="50.457757" lon="13.74743"><ele>284.75</ele></trkpt>
   <trkpt lat="50.457483" lon="13.747577"><ele>286</ele></trkpt>
   <trkpt lat="50.457318" lon="13.747691"><ele>286.5</ele></trkpt>
   <trkpt lat="50.457057" lon="13.747907"><ele>286.75</ele></trkpt>
   <trkpt lat="50.456929" lon="13.748036"><ele>286.5</ele></trkpt>
   <trkpt lat="50.456814" lon="13.74817"><ele>286.25</ele></trkpt>
   <trkpt lat="50.456688" lon="13.748332"><ele>286</ele></trkpt>
   <trkpt lat="50.456586" lon="13.748483"><ele>286.5</ele></trkpt>
   <trkpt lat="50.456473" lon="13.748667"><ele>287.25</ele></trkpt>
   <trkpt lat="50.456236" lon="13.749136"><ele>288.5</ele></trkpt>
   <trkpt lat="50.456162" lon="13.749318"><ele>288.75</ele></trkpt>
   <trkpt lat="50.456068" lon="13.749586"><ele>288.75</ele></trkpt>
   <trkpt lat="50.455993" lon="13.749836"><ele>288.5</ele></trkpt>
   <trkpt lat="50.455918" lon="13.750138"><ele>288.5</ele></trkpt>
   <trkpt lat="50.455853" lon="13.750485"><ele>288.75</ele></trkpt>
   <trkpt lat="50.455816" lon="13.750771"><ele>289</ele></trkpt>
   <trkpt lat="50.455791" lon="13.751036"><ele>289.5</ele></trkpt>
   <trkpt lat="50.455767" lon="13.751462"><ele>290.5</ele></trkpt>
   <trkpt lat="50.455741" lon="13.752503"><ele>291</ele></trkpt>
   <trkpt lat="50.455708" lon="13.75338"><ele>292.75</ele></trkpt>
   <trkpt lat="50.455665" lon="13.753845"><ele>293</ele></trkpt>
   <trkpt lat="50.455636" lon="13.754086"><ele>293.25</ele></trkpt>
   <trkpt lat="50.455592" lon="13.754383"><ele>293.75</ele></trkpt>
   <trkpt lat="50.455455" lon="13.755042"><ele>294.5</ele></trkpt>
   <trkpt lat="50.455227" lon="13.756004"><ele>296.5</ele></trkpt>
   <trkpt lat="50.455108" lon="13.756505"><ele>296.75</ele></trkpt>
   <trkpt lat="50.455028" lon="13.75688"><ele>297</ele></trkpt>
   <trkpt lat="50.45497" lon="13.757215"><ele>297.75</ele></trkpt>
   <trkpt lat="50.454936" lon="13.757511"><ele>298.25</ele></trkpt>
   <trkpt lat="50.454918" lon="13.757767"><ele>299</ele></trkpt>
   <trkpt lat="50.454909" lon="13.758048"><ele>299.75</ele></trkpt>
   <trkpt lat="50.454868" lon="13.759269"><ele>300</ele></trkpt>
   <trkpt lat="50.454826" lon="13.759813"><ele>299.5</ele></trkpt>
   <trkpt lat="50.454801" lon="13.76"><ele>299.25</ele></trkpt>
   <trkpt lat="50.454769" lon="13.760176"><ele>299.5</ele></trkpt>
   <trkpt lat="50.454718" lon="13.760393"><ele>299.5</ele></trkpt>
   <trkpt lat="50.454658" lon="13.760606"><ele>299.75</ele></trkpt>
   <trkpt lat="50.454581" lon="13.76083"><ele>300</ele></trkpt>
   <trkpt lat="50.454476" lon="13.761068"><ele>300.25</ele></trkpt>
   <trkpt lat="50.454369" lon="13.761278"><ele>300.5</ele></trkpt>
   <trkpt lat="50.454245" lon="13.761499"><ele>300.75</ele></trkpt>
   <trkpt lat="50.453999" lon="13.761896"><ele>301.75</ele></trkpt>
   <trkpt lat="50.453451" lon="13.76279"><ele>304</ele></trkpt>
   <trkpt lat="50.453114" lon="13.763359"><ele>305.25</ele></trkpt>
   <trkpt lat="50.45293" lon="13.763717"><ele>306</ele></trkpt>
   <trkpt lat="50.452852" lon="13.76391"><ele>306.25</ele></trkpt>
   <trkpt lat="50.452695" lon="13.764362"><ele>306.75</ele></trkpt>
   <trkpt lat="50.452631" lon="13.764616"><ele>307</ele></trkpt>
   <trkpt lat="50.452556" lon="13.764951"><ele>306.75</ele></trkpt>
   <trkpt lat="50.452278" lon="13.766496"><ele>306.75</ele></trkpt>
   <trkpt lat="50.452207" lon="13.766833"><ele>306.5</ele></trkpt>
   <trkpt lat="50.452059" lon="13.767419"><ele>307</ele></trkpt>
   <trkpt lat="50.452026" lon="13.767552"><ele>307</ele></trkpt>
   <trkpt lat="50.451916" lon="13.76798"><ele>307.25</ele></trkpt>
   <trkpt lat="50.451823" lon="13.7683"><ele>307.5</ele></trkpt>
   <trkpt lat="50.451277" lon="13.77001"><ele>307.25</ele></trkpt>
   <trkpt lat="50.451114" lon="13.770512"><ele>307.75</ele></trkpt>
   <trkpt lat="50.451032" lon="13.770745"><ele>307.75</ele></trkpt>
   <trkpt lat="50.450962" lon="13.770918"><ele>308</ele></trkpt>
   <trkpt lat="50.450868" lon="13.771125"><ele>308</ele></trkpt>
   <trkpt lat="50.450771" lon="13.771305"><ele>308</ele></trkpt>
   <trkpt lat="50.450664" lon="13.771481"><ele>308</ele></trkpt>
   <trkpt lat="50.450536" lon="13.771657"><ele>308.25</ele></trkpt>
   <trkpt lat="50.450435" lon="13.771779"><ele>308.5</ele></trkpt>
   <trkpt lat="50.450318" lon="13.771903"><ele>308.75</ele></trkpt>
   <trkpt lat="50.450028" lon="13.772157"><ele>309.5</ele></trkpt>
   <trkpt lat="50.449865" lon="13.77225"><ele>309.75</ele></trkpt>
   <trkpt lat="50.449681" lon="13.772339"><ele>310</ele></trkpt>
   <trkpt lat="50.449259" lon="13.772512"><ele>310.75</ele></trkpt>
   <trkpt lat="50.449012" lon="13.772669"><ele>310.75</ele></trkpt>
   <trkpt lat="50.448889" lon="13.772767"><ele>310.5</ele></trkpt>
   <trkpt lat="50.44869" lon="13.772973"><ele>310</ele></trkpt>
   <trkpt lat="50.448588" lon="13.773108"><ele>309.75</ele></trkpt>
   <trkpt lat="50.448476" lon="13.773274"><ele>309.25</ele></trkpt>
   <trkpt lat="50.44837" lon="13.773461"><ele>309.25</ele></trkpt>
   <trkpt lat="50.448155" lon="13.773923"><ele>309.5</ele></trkpt>
   <trkpt lat="50.44795" lon="13.774359"><ele>309.5</ele></trkpt>
   <trkpt lat="50.447534" lon="13.775277"><ele>309.75</ele></trkpt>
   <trkpt lat="50.44621" lon="13.778126"><ele>309.25</ele></trkpt>
   <trkpt lat="50.446039" lon="13.778517"><ele>309.5</ele></trkpt>
   <trkpt lat="50.44541" lon="13.779867"><ele>310</ele></trkpt>
   <trkpt lat="50.445293" lon="13.780152"><ele>309.5</ele></trkpt>
   <trkpt lat="50.445096" lon="13.7807"><ele>308.5</ele></trkpt>
   <trkpt lat="50.445016" lon="13.78097"><ele>308.25</ele></trkpt>
   <trkpt lat="50.444934" lon="13.781283"><ele>308.25</ele></trkpt>
   <trkpt lat="50.444879" lon="13.781511"><ele>308.25</ele></trkpt>
   <trkpt lat="50.444838" lon="13.781714"><ele>308.5</ele></trkpt>
   <trkpt lat="50.444755" lon="13.782179"><ele>308.5</ele></trkpt>
   <trkpt lat="50.44453" lon="13.783659"><ele>308.5</ele></trkpt>
   <trkpt lat="50.44442" lon="13.784292"><ele>308.5</ele></trkpt>
   <trkpt lat="50.444292" lon="13.784781"><ele>308</ele></trkpt>
   <trkpt lat="50.444222" lon="13.784998"><ele>307.5</ele></trkpt>
   <trkpt lat="50.444054" lon="13.785408"><ele>307.75</ele></trkpt>
   <trkpt lat="50.443962" lon="13.785599"><ele>307.75</ele></trkpt>
   <trkpt lat="50.443857" lon="13.785787"><ele>307.75</ele></trkpt>
   <trkpt lat="50.443697" lon="13.786045"><ele>307.5</ele></trkpt>
   <trkpt lat="50.44329" lon="13.786655"><ele>306.5</ele></trkpt>
   <trkpt lat="50.442972" lon="13.787158"><ele>306.25</ele></trkpt>
   <trkpt lat="50.442843" lon="13.787393"><ele>306.25</ele></trkpt>
   <trkpt lat="50.442662" lon="13.787773"><ele>306.25</ele></trkpt>
   <trkpt lat="50.442559" lon="13.788038"><ele>306.25</ele></trkpt>
   <trkpt lat="50.442518" lon="13.788147"><ele>306.25</ele></trkpt>
   <trkpt lat="50.442366" lon="13.788624"><ele>306.25</ele></trkpt>
   <trkpt lat="50.442297" lon="13.788877"><ele>306</ele></trkpt>
   <trkpt lat="50.441382" lon="13.792929"><ele>305.25</ele></trkpt>
   <trkpt lat="50.440741" lon="13.79578"><ele>304.5</ele></trkpt>
   <trkpt lat="50.440649" lon="13.796212"><ele>305</ele></trkpt>
   <trkpt lat="50.440594" lon="13.796564"><ele>305.5</ele></trkpt>
   <trkpt lat="50.440525" lon="13.797159"><ele>305.25</ele></trkpt>
   <trkpt lat="50.4405" lon="13.797601"><ele>304.75</ele></trkpt>
   <trkpt lat="50.440499" lon="13.79788"><ele>304.75</ele></trkpt>
   <trkpt lat="50.440504" lon="13.79815"><ele>304.5</ele></trkpt>
   <trkpt lat="50.440528" lon="13.798502"><ele>304.5</ele></trkpt>
   <trkpt lat="50.440849" lon="13.802177"><ele>303</ele></trkpt>
   <trkpt lat="50.441021" lon="13.804065"><ele>302</ele></trkpt>
   <trkpt lat="50.441101" lon="13.804559"><ele>302</ele></trkpt>
   <trkpt lat="50.441167" lon="13.804837"><ele>302</ele></trkpt>
   <trkpt lat="50.44123" lon="13.805056"><ele>302.25</ele></trkpt>
   <trkpt lat="50.441366" lon="13.80545"><ele>302.5</ele></trkpt>
   <trkpt lat="50.441456" lon="13.805661"><ele>302.5</ele></trkpt>
   <trkpt lat="50.441551" lon="13.805863"><ele>302.25</ele></trkpt>
   <trkpt lat="50.441651" lon="13.806048"><ele>302</ele></trkpt>
   <trkpt lat="50.441784" lon="13.806262"><ele>301.75</ele></trkpt>
   <trkpt lat="50.441905" lon="13.80643"><ele>301.75</ele></trkpt>
   <trkpt lat="50.442509" lon="13.807159"><ele>301.75</ele></trkpt>
   <trkpt lat="50.442768" lon="13.807545"><ele>301.75</ele></trkpt>
   <trkpt lat="50.442886" lon="13.80774"><ele>301.5</ele></trkpt>
   <trkpt lat="50.443002" lon="13.807952"><ele>301</ele></trkpt>
   <trkpt lat="50.443109" lon="13.808175"><ele>300.75</ele></trkpt>
   <trkpt lat="50.443211" lon="13.80841"><ele>300.5</ele></trkpt>
   <trkpt lat="50.443311" lon="13.808662"><ele>300.75</ele></trkpt>
   <trkpt lat="50.44347" lon="13.809144"><ele>301.25</ele></trkpt>
   <trkpt lat="50.443578" lon="13.809565"><ele>301.25</ele></trkpt>
   <trkpt lat="50.443678" lon="13.810098"><ele>300.75</ele></trkpt>
   <trkpt lat="50.443717" lon="13.81037"><ele>300.75</ele></trkpt>
   <trkpt lat="50.443746" lon="13.810608"><ele>300.75</ele></trkpt>
   <trkpt lat="50.443782" lon="13.811096"><ele>300.75</ele></trkpt>
   <trkpt lat="50.44379" lon="13.811402"><ele>300.5</ele></trkpt>
   <trkpt lat="50.443787" lon="13.81167"><ele>300.5</ele></trkpt>
   <trkpt lat="50.443778" lon="13.811887"><ele>300.5</ele></trkpt>
   <trkpt lat="50.443764" lon="13.812143"><ele>300.5</ele></trkpt>
   <trkpt lat="50.443741" lon="13.812423"><ele>300.25</ele></trkpt>
   <trkpt lat="50.44371" lon="13.812672"><ele>300</ele></trkpt>
   <trkpt lat="50.44367" lon="13.812941"><ele>299.75</ele></trkpt>
   <trkpt lat="50.443627" lon="13.813169"><ele>299.5</ele></trkpt>
   <trkpt lat="50.443305" lon="13.814655"><ele>298.75</ele></trkpt>
   <trkpt lat="50.443248" lon="13.814961"><ele>298.5</ele></trkpt>
   <trkpt lat="50.44321" lon="13.815202"><ele>298.75</ele></trkpt>
   <trkpt lat="50.443163" lon="13.815726"><ele>299</ele></trkpt>
   <trkpt lat="50.44315" lon="13.815983"><ele>299.25</ele></trkpt>
   <trkpt lat="50.443146" lon="13.816234"><ele>299.5</ele></trkpt>
   <trkpt lat="50.443146" lon="13.816457"><ele>299.75</ele></trkpt>
   <trkpt lat="50.443156" lon="13.81674"><ele>300</ele></trkpt>
   <trkpt lat="50.443194" lon="13.817473"><ele>299.5</ele></trkpt>
   <trkpt lat="50.44347" lon="13.822118"><ele>297</ele></trkpt>
   <trkpt lat="50.443517" lon="13.822597"><ele>297</ele></trkpt>
   <trkpt lat="50.443559" lon="13.822849"><ele>297.25</ele></trkpt>
   <trkpt lat="50.443671" lon="13.823334"><ele>297.75</ele></trkpt>
   <trkpt lat="50.443824" lon="13.823754"><ele>297.5</ele></trkpt>
   <trkpt lat="50.443918" lon="13.823968"><ele>297.5</ele></trkpt>
   <trkpt lat="50.444109" lon="13.82432"><ele>297.5</ele></trkpt>
   <trkpt lat="50.444318" lon="13.82461"><ele>297.5</ele></trkpt>
   <trkpt lat="50.444461" lon="13.824769"><ele>297.5</ele></trkpt>
   <trkpt lat="50.444613" lon="13.824921"><ele>297.5</ele></trkpt>
   <trkpt lat="50.44475" lon="13.825034"><ele>297.5</ele></trkpt>
   <trkpt lat="50.444889" lon="13.82513"><ele>297.5</ele></trkpt>
   <trkpt lat="50.445047" lon="13.82521"><ele>297.25</ele></trkpt>
   <trkpt lat="50.445175" lon="13.825262"><ele>297</ele></trkpt>
   <trkpt lat="50.445341" lon="13.825315"><ele>296.5</ele></trkpt>
   <trkpt lat="50.44548" lon="13.825344"><ele>296.25</ele></trkpt>
   <trkpt lat="50.445622" lon="13.825359"><ele>295.75</ele></trkpt>
   <trkpt lat="50.445745" lon="13.825361"><ele>295.5</ele></trkpt>
   <trkpt lat="50.446106" lon="13.825344"><ele>295</ele></trkpt>
   <trkpt lat="50.446292" lon="13.825326"><ele>294.5</ele></trkpt>
   <trkpt lat="50.446335" lon="13.825324"><ele>294.5</ele></trkpt>
   <trkpt lat="50.446917" lon="13.825288"><ele>294.25</ele></trkpt>
   <trkpt lat="50.447066" lon="13.825294"><ele>294.25</ele></trkpt>
   <trkpt lat="50.44721" lon="13.825322"><ele>294.5</ele></trkpt>
   <trkpt lat="50.447361" lon="13.825365"><ele>294.75</ele></trkpt>
   <trkpt lat="50.447518" lon="13.825434"><ele>295</ele></trkpt>
   <trkpt lat="50.447675" lon="13.825528"><ele>295</ele></trkpt>
   <trkpt lat="50.447791" lon="13.825621"><ele>295</ele></trkpt>
   <trkpt lat="50.447883" lon="13.825705"><ele>295</ele></trkpt>
   <trkpt lat="50.448004" lon="13.825834"><ele>294.75</ele></trkpt>
   <trkpt lat="50.448114" lon="13.825972"><ele>294.75</ele></trkpt>
   <trkpt lat="50.448241" lon="13.826159"><ele>294.5</ele></trkpt>
   <trkpt lat="50.448331" lon="13.826316"><ele>294.25</ele></trkpt>
   <trkpt lat="50.448407" lon="13.826471"><ele>294.25</ele></trkpt>
   <trkpt lat="50.44849" lon="13.826671"><ele>294.25</ele></trkpt>
   <trkpt lat="50.448556" lon="13.826872"><ele>294.25</ele></trkpt>
   <trkpt lat="50.448621" lon="13.827108"><ele>294.5</ele></trkpt>
   <trkpt lat="50.448662" lon="13.827309"><ele>294.25</ele></trkpt>
   <trkpt lat="50.448694" lon="13.827511"><ele>294.25</ele></trkpt>
   <trkpt lat="50.448715" lon="13.827702"><ele>294</ele></trkpt>
   <trkpt lat="50.448729" lon="13.827925"><ele>293.75</ele></trkpt>
   <trkpt lat="50.448731" lon="13.82821"><ele>293.5</ele></trkpt>
   <trkpt lat="50.448716" lon="13.828943"><ele>293.25</ele></trkpt>
   <trkpt lat="50.448692" lon="13.829959"><ele>294.25</ele></trkpt>
   <trkpt lat="50.448675" lon="13.830696"><ele>294.25</ele></trkpt>
   <trkpt lat="50.448662" lon="13.831249"><ele>294.5</ele></trkpt>
   <trkpt lat="50.448645" lon="13.832084"><ele>294.5</ele></trkpt>
   <trkpt lat="50.448628" lon="13.83281"><ele>294.25</ele></trkpt>
   <trkpt lat="50.44862" lon="13.833213"><ele>293.75</ele></trkpt>
   <trkpt lat="50.448617" lon="13.833305"><ele>293.5</ele></trkpt>
   <trkpt lat="50.44861" lon="13.83354"><ele>293.75</ele></trkpt>
   <trkpt lat="50.448578" lon="13.834068"><ele>294</ele></trkpt>
   <trkpt lat="50.448548" lon="13.834339"><ele>294.25</ele></trkpt>
   <trkpt lat="50.448465" lon="13.834796"><ele>294.75</ele></trkpt>
   <trkpt lat="50.448439" lon="13.834901"><ele>295</ele></trkpt>
   <trkpt lat="50.448388" lon="13.835106"><ele>295</ele></trkpt>
   <trkpt lat="50.448319" lon="13.835334"><ele>295.25</ele></trkpt>
   <trkpt lat="50.448253" lon="13.835527"><ele>295.25</ele></trkpt>
   <trkpt lat="50.448187" lon="13.835696"><ele>295.25</ele></trkpt>
   <trkpt lat="50.448008" lon="13.836086"><ele>295</ele></trkpt>
   <trkpt lat="50.447924" lon="13.836242"><ele>295</ele></trkpt>
   <trkpt lat="50.44782" lon="13.836413"><ele>294.75</ele></trkpt>
   <trkpt lat="50.447736" lon="13.836551"><ele>294.5</ele></trkpt>
   <trkpt lat="50.447597" lon="13.836734"><ele>294.25</ele></trkpt>
   <trkpt lat="50.445722" lon="13.838959"><ele>299.25</ele></trkpt>
   <trkpt lat="50.445669" lon="13.839022"><ele>299.5</ele></trkpt>
   <trkpt lat="50.443476" lon="13.841625"><ele>302</ele></trkpt>
   <trkpt lat="50.443296" lon="13.841853"><ele>302.5</ele></trkpt>
   <trkpt lat="50.443153" lon="13.842071"><ele>303.5</ele></trkpt>
   <trkpt lat="50.443034" lon="13.842285"><ele>304.25</ele></trkpt>
   <trkpt lat="50.442947" lon="13.842464"><ele>304.75</ele></trkpt>
   <trkpt lat="50.44285" lon="13.842685"><ele>305.25</ele></trkpt>
   <trkpt lat="50.442717" lon="13.84311"><ele>306</ele></trkpt>
   <trkpt lat="50.442658" lon="13.843351"><ele>306</ele></trkpt>
   <trkpt lat="50.442606" lon="13.843615"><ele>306</ele></trkpt>
   <trkpt lat="50.442574" lon="13.843857"><ele>306</ele></trkpt>
   <trkpt lat="50.442551" lon="13.844107"><ele>306</ele></trkpt>
   <trkpt lat="50.44254" lon="13.844327"><ele>305.75</ele></trkpt>
   <trkpt lat="50.442544" lon="13.844805"><ele>305.25</ele></trkpt>
   <trkpt lat="50.44257" lon="13.84509"><ele>304.75</ele></trkpt>
   <trkpt lat="50.442604" lon="13.845344"><ele>304.5</ele></trkpt>
   <trkpt lat="50.442638" lon="13.845537"><ele>304.5</ele></trkpt>
   <trkpt lat="50.442739" lon="13.845943"><ele>304</ele></trkpt>
   <trkpt lat="50.4428" lon="13.846139"><ele>303.75</ele></trkpt>
   <trkpt lat="50.442958" lon="13.846552"><ele>303.25</ele></trkpt>
   <trkpt lat="50.442986" lon="13.846622"><ele>303</ele></trkpt>
   <trkpt lat="50.444132" lon="13.849417"><ele>301.25</ele></trkpt>
   <trkpt lat="50.444292" lon="13.8499"><ele>300.75</ele></trkpt>
   <trkpt lat="50.44436" lon="13.850178"><ele>300.75</ele></trkpt>
   <trkpt lat="50.444404" lon="13.850393"><ele>300.75</ele></trkpt>
   <trkpt lat="50.444445" lon="13.850641"><ele>300.75</ele></trkpt>
   <trkpt lat="50.444477" lon="13.850889"><ele>300.75</ele></trkpt>
   <trkpt lat="50.444498" lon="13.851109"><ele>300.5</ele></trkpt>
   <trkpt lat="50.44451" lon="13.851317"><ele>300.25</ele></trkpt>
   <trkpt lat="50.444516" lon="13.851579"><ele>300</ele></trkpt>
   <trkpt lat="50.444512" lon="13.851809"><ele>300</ele></trkpt>
   <trkpt lat="50.4445" lon="13.852043"><ele>300</ele></trkpt>
   <trkpt lat="50.444467" lon="13.852408"><ele>300</ele></trkpt>
   <trkpt lat="50.444369" lon="13.853313"><ele>300.25</ele></trkpt>
   <trkpt lat="50.444343" lon="13.853602"><ele>300.25</ele></trkpt>
   <trkpt lat="50.444332" lon="13.853857"><ele>300</ele></trkpt>
   <trkpt lat="50.444328" lon="13.854146"><ele>300</ele></trkpt>
   <trkpt lat="50.444336" lon="13.854399"><ele>299.75</ele></trkpt>
   <trkpt lat="50.444352" lon="13.854663"><ele>299.5</ele></trkpt>
   <trkpt lat="50.444425" lon="13.855292"><ele>298.75</ele></trkpt>
   <trkpt lat="50.4447" lon="13.857458"><ele>295.5</ele></trkpt>
   <trkpt lat="50.444758" lon="13.857791"><ele>295.25</ele></trkpt>
   <trkpt lat="50.444839" lon="13.858111"><ele>295</ele></trkpt>
   <trkpt lat="50.444906" lon="13.85834"><ele>295</ele></trkpt>
   <trkpt lat="50.444998" lon="13.858602"><ele>295</ele></trkpt>
   <trkpt lat="50.445092" lon="13.858825"><ele>294.75</ele></trkpt>
   <trkpt lat="50.445273" lon="13.859193"><ele>294.75</ele></trkpt>
   <trkpt lat="50.445399" lon="13.859407"><ele>294.5</ele></trkpt>
   <trkpt lat="50.445534" lon="13.859617"><ele>294.25</ele></trkpt>
   <trkpt lat="50.445976" lon="13.860276"><ele>294</ele></trkpt>
   <trkpt lat="50.446104" lon="13.860485"><ele>294.25</ele></trkpt>
   <trkpt lat="50.446216" lon="13.860701"><ele>294.25</ele></trkpt>
   <trkpt lat="50.446309" lon="13.860901"><ele>294</ele></trkpt>
   <trkpt lat="50.44639" lon="13.861096"><ele>293.75</ele></trkpt>
   <trkpt lat="50.446483" lon="13.86134"><ele>293.25</ele></trkpt>
   <trkpt lat="50.446651" lon="13.861821"><ele>292</ele></trkpt>
   <trkpt lat="50.447903" lon="13.865224"><ele>292.25</ele></trkpt>
   <trkpt lat="50.448179" lon="13.865963"><ele>290.5</ele></trkpt>
   <trkpt lat="50.448287" lon="13.866187"><ele>290.25</ele></trkpt>
   <trkpt lat="50.448402" lon="13.866388"><ele>290</ele></trkpt>
   <trkpt lat="50.448495" lon="13.866517"><ele>290.25</ele></trkpt>
   <trkpt lat="50.448607" lon="13.86666"><ele>290.25</ele></trkpt>
   <trkpt lat="50.449077" lon="13.86718"><ele>291.75</ele></trkpt>
   <trkpt lat="50.449305" lon="13.867454"><ele>291.75</ele></trkpt>
   <trkpt lat="50.449415" lon="13.867612"><ele>291.5</ele></trkpt>
   <trkpt lat="50.449617" lon="13.867987"><ele>290</ele></trkpt>
   <trkpt lat="50.449703" lon="13.8682"><ele>289.25</ele></trkpt>
   <trkpt lat="50.449774" lon="13.868433"><ele>288.75</ele></trkpt>
   <trkpt lat="50.449838" lon="13.868671"><ele>288.75</ele></trkpt>
   <trkpt lat="50.449883" lon="13.868919"><ele>288.5</ele></trkpt>
   <trkpt lat="50.44991" lon="13.869157"><ele>288.5</ele></trkpt>
   <trkpt lat="50.449927" lon="13.86934"><ele>288.25</ele></trkpt>
   <trkpt lat="50.449934" lon="13.869556"><ele>288</ele></trkpt>
   <trkpt lat="50.449929" lon="13.869817"><ele>287.75</ele></trkpt>
   <trkpt lat="50.449872" lon="13.870352"><ele>289.75</ele></trkpt>
   <trkpt lat="50.449824" lon="13.870571"><ele>291.25</ele></trkpt>
   <trkpt lat="50.449735" lon="13.870869"><ele>292.5</ele></trkpt>
   <trkpt lat="50.449665" lon="13.871078"><ele>293.5</ele></trkpt>
   <trkpt lat="50.44959" lon="13.871243"><ele>294</ele></trkpt>
   <trkpt lat="50.449481" lon="13.871456"><ele>294.25</ele></trkpt>
   <trkpt lat="50.449376" lon="13.871626"><ele>294</ele></trkpt>
   <trkpt lat="50.449258" lon="13.871785"><ele>293.75</ele></trkpt>
   <trkpt lat="50.449129" lon="13.87193"><ele>293.25</ele></trkpt>
   <trkpt lat="50.448905" lon="13.872147"><ele>292.5</ele></trkpt>
   <trkpt lat="50.448618" lon="13.8724"><ele>291.25</ele></trkpt>
   <trkpt lat="50.448044" lon="13.872897"><ele>289.5</ele></trkpt>
   <trkpt lat="50.44773" lon="13.873149"><ele>288.75</ele></trkpt>
   <trkpt lat="50.447454" lon="13.873352"><ele>287.75</ele></trkpt>
   <trkpt lat="50.447218" lon="13.873504"><ele>287.75</ele></trkpt>
   <trkpt lat="50.446828" lon="13.873718"><ele>287.5</ele></trkpt>
   <trkpt lat="50.444899" lon="13.874686"><ele>287.25</ele></trkpt>
   <trkpt lat="50.444227" lon="13.87502"><ele>287.25</ele></trkpt>
   <trkpt lat="50.444014" lon="13.875128"><ele>286.5</ele></trkpt>
   <trkpt lat="50.443807" lon="13.875266"><ele>285.75</ele></trkpt>
   <trkpt lat="50.443658" lon="13.875394"><ele>285.5</ele></trkpt>
   <trkpt lat="50.443551" lon="13.875498"><ele>285.5</ele></trkpt>
   <trkpt lat="50.443433" lon="13.875644"><ele>285.5</ele></trkpt>
   <trkpt lat="50.443335" lon="13.87578"><ele>285.5</ele></trkpt>
   <trkpt lat="50.443243" lon="13.875931"><ele>285.75</ele></trkpt>
   <trkpt lat="50.443143" lon="13.87613"><ele>286</ele></trkpt>
   <trkpt lat="50.443062" lon="13.87631"><ele>286.5</ele></trkpt>
   <trkpt lat="50.442985" lon="13.876519"><ele>287</ele></trkpt>
   <trkpt lat="50.442921" lon="13.876742"><ele>287.5</ele></trkpt>
   <trkpt lat="50.442869" lon="13.876971"><ele>287.25</ele></trkpt>
   <trkpt lat="50.442826" lon="13.87723"><ele>287.25</ele></trkpt>
   <trkpt lat="50.442803" lon="13.877469"><ele>287.25</ele></trkpt>
   <trkpt lat="50.44279" lon="13.877698"><ele>287.5</ele></trkpt>
   <trkpt lat="50.44279" lon="13.877905"><ele>288</ele></trkpt>
   <trkpt lat="50.442799" lon="13.878091"><ele>288.25</ele></trkpt>
   <trkpt lat="50.442821" lon="13.878346"><ele>288.75</ele></trkpt>
   <trkpt lat="50.442856" lon="13.878568"><ele>288.75</ele></trkpt>
   <trkpt lat="50.442907" lon="13.878808"><ele>288.75</ele></trkpt>
   <trkpt lat="50.442972" lon="13.879046"><ele>289</ele></trkpt>
   <trkpt lat="50.443032" lon="13.879219"><ele>289</ele></trkpt>
   <trkpt lat="50.443111" lon="13.879417"><ele>289</ele></trkpt>
   <trkpt lat="50.4432" lon="13.879597"><ele>289</ele></trkpt>
   <trkpt lat="50.443303" lon="13.879772"><ele>289</ele></trkpt>
   <trkpt lat="50.443456" lon="13.879998"><ele>289</ele></trkpt>
   <trkpt lat="50.444261" lon="13.881083"><ele>288.25</ele></trkpt>
   <trkpt lat="50.444447" lon="13.88132"><ele>287.75</ele></trkpt>
   <trkpt lat="50.444604" lon="13.881485"><ele>287.25</ele></trkpt>
   <trkpt lat="50.444747" lon="13.88162"><ele>287</ele></trkpt>
   <trkpt lat="50.444881" lon="13.881733"><ele>286.75</ele></trkpt>
   <trkpt lat="50.445035" lon="13.881841"><ele>286.25</ele></trkpt>
   <trkpt lat="50.445315" lon="13.881987"><ele>285.25</ele></trkpt>
   <trkpt lat="50.445453" lon="13.882046"><ele>285</ele></trkpt>
   <trkpt lat="50.445758" lon="13.88212"><ele>284.25</ele></trkpt>
   <trkpt lat="50.445895" lon="13.882145"><ele>284</ele></trkpt>
   <trkpt lat="50.446048" lon="13.882154"><ele>283.25</ele></trkpt>
   <trkpt lat="50.446194" lon="13.882149"><ele>282.75</ele></trkpt>
   <trkpt lat="50.446499" lon="13.882096"><ele>282</ele></trkpt>
   <trkpt lat="50.446635" lon="13.882056"><ele>281.5</ele></trkpt>
   <trkpt lat="50.446777" lon="13.882006"><ele>281.25</ele></trkpt>
   <trkpt lat="50.447047" lon="13.881858"><ele>281.25</ele></trkpt>
   <trkpt lat="50.447188" lon="13.881764"><ele>281.25</ele></trkpt>
   <trkpt lat="50.447901" lon="13.881215"><ele>281.5</ele></trkpt>
   <trkpt lat="50.44843" lon="13.880821"><ele>281.5</ele></trkpt>
   <trkpt lat="50.448679" lon="13.880686"><ele>281.5</ele></trkpt>
   <trkpt lat="50.448793" lon="13.880644"><ele>281.25</ele></trkpt>
   <trkpt lat="50.449048" lon="13.880599"><ele>280.5</ele></trkpt>
   <trkpt lat="50.449283" lon="13.88061"><ele>279.75</ele></trkpt>
   <trkpt lat="50.449421" lon="13.880634"><ele>279.5</ele></trkpt>
   <trkpt lat="50.449541" lon="13.880666"><ele>279</ele></trkpt>
   <trkpt lat="50.44968" lon="13.880729"><ele>278.5</ele></trkpt>
   <trkpt lat="50.44982" lon="13.880807"><ele>278.25</ele></trkpt>
   <trkpt lat="50.449976" lon="13.880928"><ele>277.5</ele></trkpt>
   <trkpt lat="50.450093" lon="13.881036"><ele>277.25</ele></trkpt>
   <trkpt lat="50.450188" lon="13.881136"><ele>277</ele></trkpt>
   <trkpt lat="50.450287" lon="13.881258"><ele>276.75</ele></trkpt>
   <trkpt lat="50.450369" lon="13.881368"><ele>276.75</ele></trkpt>
   <trkpt lat="50.450462" lon="13.881524"><ele>276.5</ele></trkpt>
   <trkpt lat="50.450549" lon="13.881686"><ele>276.25</ele></trkpt>
   <trkpt lat="50.450629" lon="13.881857"><ele>276.25</ele></trkpt>
   <trkpt lat="50.450979" lon="13.882677"><ele>275.75</ele></trkpt>
   <trkpt lat="50.451552" lon="13.884048"><ele>274.75</ele></trkpt>
   <trkpt lat="50.451638" lon="13.884247"><ele>274.5</ele></trkpt>
   <trkpt lat="50.452009" lon="13.885141"><ele>276.25</ele></trkpt>
   <trkpt lat="50.452109" lon="13.885408"><ele>277</ele></trkpt>
   <trkpt lat="50.452172" lon="13.885604"><ele>277.25</ele></trkpt>
   <trkpt lat="50.452223" lon="13.885817"><ele>277.25</ele></trkpt>
   <trkpt lat="50.452282" lon="13.886238"><ele>276.75</ele></trkpt>
   <trkpt lat="50.452302" lon="13.886478"><ele>276.5</ele></trkpt>
   <trkpt lat="50.452321" lon="13.8873"><ele>276</ele></trkpt>
   <trkpt lat="50.452373" lon="13.889003"><ele>275.75</ele></trkpt>
   <trkpt lat="50.452391" lon="13.889224"><ele>276</ele></trkpt>
   <trkpt lat="50.452416" lon="13.88944"><ele>276.5</ele></trkpt>
   <trkpt lat="50.452458" lon="13.889686"><ele>277.25</ele></trkpt>
   <trkpt lat="50.452513" lon="13.889903"><ele>277.75</ele></trkpt>
   <trkpt lat="50.452581" lon="13.89013"><ele>278.25</ele></trkpt>
   <trkpt lat="50.452662" lon="13.890348"><ele>278.5</ele></trkpt>
   <trkpt lat="50.452859" lon="13.890823"><ele>278.5</ele></trkpt>
   <trkpt lat="50.452923" lon="13.891002"><ele>278.25</ele></trkpt>
   <trkpt lat="50.452982" lon="13.8912"><ele>278</ele></trkpt>
   <trkpt lat="50.453047" lon="13.891453"><ele>277.25</ele></trkpt>
   <trkpt lat="50.453114" lon="13.891753"><ele>276.5</ele></trkpt>
   <trkpt lat="50.453161" lon="13.892"><ele>276</ele></trkpt>
   <trkpt lat="50.453189" lon="13.892204"><ele>275.5</ele></trkpt>
   <trkpt lat="50.453223" lon="13.892676"><ele>274.75</ele></trkpt>
   <trkpt lat="50.453229" lon="13.892985"><ele>274.5</ele></trkpt>
   <trkpt lat="50.453216" lon="13.893398"><ele>274</ele></trkpt>
   <trkpt lat="50.453189" lon="13.893708"><ele>273.5</ele></trkpt>
   <trkpt lat="50.453118" lon="13.894178"><ele>272.75</ele></trkpt>
   <trkpt lat="50.453061" lon="13.894444"><ele>272</ele></trkpt>
   <trkpt lat="50.453001" lon="13.894671"><ele>271.25</ele></trkpt>
   <trkpt lat="50.452898" lon="13.894999"><ele>270.5</ele></trkpt>
   <trkpt lat="50.452784" lon="13.895299"><ele>270.25</ele></trkpt>
   <trkpt lat="50.45265" lon="13.895589"><ele>270</ele></trkpt>
   <trkpt lat="50.452554" lon="13.895766"><ele>270</ele></trkpt>
   <trkpt lat="50.452415" lon="13.895994"><ele>269.5</ele></trkpt>
   <trkpt lat="50.452262" lon="13.896215"><ele>269.25</ele></trkpt>
   <trkpt lat="50.452141" lon="13.896364"><ele>269</ele></trkpt>
   <trkpt lat="50.450523" lon="13.898192"><ele>269.5</ele></trkpt>
   <trkpt lat="50.450419" lon="13.898318"><ele>269.5</ele></trkpt>
   <trkpt lat="50.450294" lon="13.898488"><ele>270</ele></trkpt>
   <trkpt lat="50.450213" lon="13.898629"><ele>270</ele></trkpt>
   <trkpt lat="50.450044" lon="13.89899"><ele>270.25</ele></trkpt>
   <trkpt lat="50.449978" lon="13.899167"><ele>270</ele></trkpt>
   <trkpt lat="50.449924" lon="13.899353"><ele>269.75</ele></trkpt>
   <trkpt lat="50.449874" lon="13.899557"><ele>269.25</ele></trkpt>
   <trkpt lat="50.449839" lon="13.899737"><ele>268.75</ele></trkpt>
   <trkpt lat="50.449807" lon="13.899966"><ele>268</ele></trkpt>
   <trkpt lat="50.449775" lon="13.900319"><ele>266.75</ele></trkpt>
   <trkpt lat="50.449782" lon="13.90069"><ele>265</ele></trkpt>
   <trkpt lat="50.4498" lon="13.900909"><ele>264</ele></trkpt>
   <trkpt lat="50.449823" lon="13.901098"><ele>263</ele></trkpt>
   <trkpt lat="50.449865" lon="13.901318"><ele>261.75</ele></trkpt>
   <trkpt lat="50.449917" lon="13.901554"><ele>260.5</ele></trkpt>
   <trkpt lat="50.449992" lon="13.901807"><ele>259.5</ele></trkpt>
   <trkpt lat="50.450065" lon="13.902"><ele>258.75</ele></trkpt>
   <trkpt lat="50.450201" lon="13.902296"><ele>257.5</ele></trkpt>
   <trkpt lat="50.450277" lon="13.902426"><ele>257</ele></trkpt>
   <trkpt lat="50.450366" lon="13.902559"><ele>256.5</ele></trkpt>
   <trkpt lat="50.450547" lon="13.902785"><ele>255.25</ele></trkpt>
   <trkpt lat="50.450667" lon="13.902901"><ele>254.75</ele></trkpt>
   <trkpt lat="50.450787" lon="13.902999"><ele>254.5</ele></trkpt>
   <trkpt lat="50.451002" lon="13.90314"><ele>253.75</ele></trkpt>
   <trkpt lat="50.451121" lon="13.9032"><ele>253.5</ele></trkpt>
   <trkpt lat="50.451382" lon="13.903282"><ele>252.75</ele></trkpt>
   <trkpt lat="50.451602" lon="13.903296"><ele>252</ele></trkpt>
   <trkpt lat="50.451729" lon="13.903284"><ele>252</ele></trkpt>
   <trkpt lat="50.451846" lon="13.903261"><ele>252.25</ele></trkpt>
   <trkpt lat="50.452142" lon="13.9032"><ele>252.75</ele></trkpt>
   <trkpt lat="50.453058" lon="13.902992"><ele>254.75</ele></trkpt>
   <trkpt lat="50.453375" lon="13.902975"><ele>255</ele></trkpt>
   <trkpt lat="50.453565" lon="13.902992"><ele>254.5</ele></trkpt>
   <trkpt lat="50.453779" lon="13.903037"><ele>253.5</ele></trkpt>
   <trkpt lat="50.453938" lon="13.903086"><ele>252.75</ele></trkpt>
   <trkpt lat="50.454181" lon="13.903199"><ele>251.5</ele></trkpt>
   <trkpt lat="50.454362" lon="13.903305"><ele>252.25</ele></trkpt>
   <trkpt lat="50.455891" lon="13.904436"><ele>256.5</ele></trkpt>
   <trkpt lat="50.455949" lon="13.904479"><ele>256.5</ele></trkpt>
   <trkpt lat="50.456136" lon="13.904614"><ele>256.25</ele></trkpt>
   <trkpt lat="50.456351" lon="13.904821"><ele>256</ele></trkpt>
   <trkpt lat="50.45654" lon="13.905031"><ele>255.75</ele></trkpt>
   <trkpt lat="50.456674" lon="13.905196"><ele>255.5</ele></trkpt>
   <trkpt lat="50.456902" lon="13.90556"><ele>255.25</ele></trkpt>
   <trkpt lat="50.457038" lon="13.905817"><ele>255.25</ele></trkpt>
   <trkpt lat="50.457202" lon="13.906207"><ele>255.25</ele></trkpt>
   <trkpt lat="50.457274" lon="13.906424"><ele>255.25</ele></trkpt>
   <trkpt lat="50.457331" lon="13.906608"><ele>255.25</ele></trkpt>
   <trkpt lat="50.457369" lon="13.906755"><ele>255.25</ele></trkpt>
   <trkpt lat="50.457376" lon="13.90678"><ele>255.25</ele></trkpt>
   <trkpt lat="50.4574" lon="13.90687"><ele>255.25</ele></trkpt>
   <trkpt lat="50.457419" lon="13.906944"><ele>255.5</ele></trkpt>
   <trkpt lat="50.457448" lon="13.907062"><ele>255.5</ele></trkpt>
   <trkpt lat="50.457537" lon="13.907443"><ele>256.25</ele></trkpt>
   <trkpt lat="50.457596" lon="13.90777"><ele>256.5</ele></trkpt>
   <trkpt lat="50.45763" lon="13.90801"><ele>256.75</ele></trkpt>
   <trkpt lat="50.457667" lon="13.908196"><ele>257</ele></trkpt>
   <trkpt lat="50.457687" lon="13.908289"><ele>257.25</ele></trkpt>
   <trkpt lat="50.457794" lon="13.908747"><ele>257.75</ele></trkpt>
   <trkpt lat="50.458432" lon="13.91147"><ele>253</ele></trkpt>
   <trkpt lat="50.458472" lon="13.911619"><ele>252.5</ele></trkpt>
   <trkpt lat="50.458558" lon="13.911884"><ele>252.75</ele></trkpt>
   <trkpt lat="50.458638" lon="13.912156"><ele>253</ele></trkpt>
   <trkpt lat="50.458651" lon="13.912216"><ele>253</ele></trkpt>
   <trkpt lat="50.458812" lon="13.912922"><ele>253</ele></trkpt>
   <trkpt lat="50.458875" lon="13.913292"><ele>252.75</ele></trkpt>
   <trkpt lat="50.458905" lon="13.913715"><ele>253.25</ele></trkpt>
   <trkpt lat="50.458905" lon="13.913863"><ele>253.25</ele></trkpt>
   <trkpt lat="50.458905" lon="13.913968"><ele>253.5</ele></trkpt>
   <trkpt lat="50.458887" lon="13.914253"><ele>253.75</ele></trkpt>
   <trkpt lat="50.458842" lon="13.914574"><ele>254</ele></trkpt>
   <trkpt lat="50.458781" lon="13.91486"><ele>254</ele></trkpt>
   <trkpt lat="50.458706" lon="13.915142"><ele>254</ele></trkpt>
   <trkpt lat="50.457985" lon="13.917609"><ele>254.5</ele></trkpt>
   <trkpt lat="50.457179" lon="13.920329"><ele>255.5</ele></trkpt>
   <trkpt lat="50.457163" lon="13.920391"><ele>255.5</ele></trkpt>
   <trkpt lat="50.457146" lon="13.920452"><ele>255.5</ele></trkpt>
   <trkpt lat="50.457098" lon="13.920635"><ele>255.5</ele></trkpt>
   <trkpt lat="50.457029" lon="13.920954"><ele>255.75</ele></trkpt>
   <trkpt lat="50.456973" lon="13.921271"><ele>256</ele></trkpt>
   <trkpt lat="50.456909" lon="13.921804"><ele>256.5</ele></trkpt>
   <trkpt lat="50.456886" lon="13.922161"><ele>256.5</ele></trkpt>
   <trkpt lat="50.456878" lon="13.922596"><ele>256.75</ele></trkpt>
   <trkpt lat="50.456889" lon="13.922992"><ele>257</ele></trkpt>
   <trkpt lat="50.456904" lon="13.923232"><ele>257.5</ele></trkpt>
   <trkpt lat="50.456935" lon="13.923574"><ele>257.5</ele></trkpt>
   <trkpt lat="50.456998" lon="13.924036"><ele>257.25</ele></trkpt>
   <trkpt lat="50.457257" lon="13.925742"><ele>258.25</ele></trkpt>
   <trkpt lat="50.457466" lon="13.927065"><ele>261.5</ele></trkpt>
   <trkpt lat="50.458131" lon="13.931396"><ele>260.25</ele></trkpt>
   <trkpt lat="50.458406" lon="13.933138"><ele>263.25</ele></trkpt>
   <trkpt lat="50.458653" lon="13.934792"><ele>262</ele></trkpt>
   <trkpt lat="50.458925" lon="13.936558"><ele>262.25</ele></trkpt>
   <trkpt lat="50.458984" lon="13.936867"><ele>262.5</ele></trkpt>
   <trkpt lat="50.459072" lon="13.937261"><ele>263.25</ele></trkpt>
   <trkpt lat="50.459136" lon="13.937483"><ele>263.75</ele></trkpt>
   <trkpt lat="50.459207" lon="13.937694"><ele>264</ele></trkpt>
   <trkpt lat="50.459283" lon="13.937898"><ele>264</ele></trkpt>
   <trkpt lat="50.459366" lon="13.938091"><ele>264.25</ele></trkpt>
   <trkpt lat="50.459537" lon="13.938431"><ele>264.25</ele></trkpt>
   <trkpt lat="50.459634" lon="13.938589"><ele>264.5</ele></trkpt>
   <trkpt lat="50.459863" lon="13.938915"><ele>264.75</ele></trkpt>
   <trkpt lat="50.46008" lon="13.93917"><ele>265</ele></trkpt>
   <trkpt lat="50.46033" lon="13.939399"><ele>265.5</ele></trkpt>
   <trkpt lat="50.460454" lon="13.93949"><ele>265.5</ele></trkpt>
   <trkpt lat="50.460715" lon="13.939649"><ele>266</ele></trkpt>
   <trkpt lat="50.460847" lon="13.939711"><ele>266.25</ele></trkpt>
   <trkpt lat="50.460988" lon="13.939765"><ele>266.25</ele></trkpt>
   <trkpt lat="50.461105" lon="13.939802"><ele>266.25</ele></trkpt>
   <trkpt lat="50.461235" lon="13.93983"><ele>266.25</ele></trkpt>
   <trkpt lat="50.461379" lon="13.939846"><ele>266.25</ele></trkpt>
   <trkpt lat="50.461497" lon="13.939854"><ele>266.25</ele></trkpt>
   <trkpt lat="50.461805" lon="13.939838"><ele>266.25</ele></trkpt>
   <trkpt lat="50.464" lon="13.939435"><ele>268</ele></trkpt>
   <trkpt lat="50.46407" lon="13.939425"><ele>268.25</ele></trkpt>
   <trkpt lat="50.464463" lon="13.939407"><ele>268</ele></trkpt>
   <trkpt lat="50.464654" lon="13.939421"><ele>267.75</ele></trkpt>
   <trkpt lat="50.464801" lon="13.939454"><ele>267.75</ele></trkpt>
   <trkpt lat="50.465095" lon="13.939553"><ele>267.5</ele></trkpt>
   <trkpt lat="50.465265" lon="13.939635"><ele>267.5</ele></trkpt>
   <trkpt lat="50.465405" lon="13.939718"><ele>267.5</ele></trkpt>
   <trkpt lat="50.465547" lon="13.939816"><ele>267.25</ele></trkpt>
   <trkpt lat="50.465689" lon="13.939936"><ele>267</ele></trkpt>
   <trkpt lat="50.465915" lon="13.940157"><ele>267.25</ele></trkpt>
   <trkpt lat="50.466015" lon="13.940269"><ele>267.75</ele></trkpt>
   <trkpt lat="50.466253" lon="13.94059"><ele>269</ele></trkpt>
   <trkpt lat="50.466427" lon="13.940885"><ele>269.75</ele></trkpt>
   <trkpt lat="50.466513" lon="13.94105"><ele>270.25</ele></trkpt>
   <trkpt lat="50.466612" lon="13.941273"><ele>270.5</ele></trkpt>
   <trkpt lat="50.466753" lon="13.941622"><ele>271.25</ele></trkpt>
   <trkpt lat="50.468058" lon="13.945302"><ele>273.5</ele></trkpt>
   <trkpt lat="50.468764" lon="13.947291"><ele>274.5</ele></trkpt>
   <trkpt lat="50.468793" lon="13.947377"><ele>274.5</ele></trkpt>
   <trkpt lat="50.468815" lon="13.947437"><ele>274.5</ele></trkpt>
   <trkpt lat="50.469996" lon="13.950765"><ele>275.75</ele></trkpt>
   <trkpt lat="50.470037" lon="13.950877"><ele>276</ele></trkpt>
   <trkpt lat="50.470239" lon="13.951462"><ele>276.75</ele></trkpt>
   <trkpt lat="50.470281" lon="13.951624"><ele>277</ele></trkpt>
   <trkpt lat="50.470319" lon="13.95181"><ele>277.25</ele></trkpt>
   <trkpt lat="50.470352" lon="13.952023"><ele>277.5</ele></trkpt>
   <trkpt lat="50.470373" lon="13.952216"><ele>277.75</ele></trkpt>
   <trkpt lat="50.470381" lon="13.952378"><ele>278</ele></trkpt>
   <trkpt lat="50.470381" lon="13.952569"><ele>278.25</ele></trkpt>
   <trkpt lat="50.470373" lon="13.952782"><ele>278.5</ele></trkpt>
   <trkpt lat="50.470357" lon="13.952992"><ele>278.75</ele></trkpt>
   <trkpt lat="50.470252" lon="13.953547"><ele>278.75</ele></trkpt>
   <trkpt lat="50.470146" lon="13.954031"><ele>278.5</ele></trkpt>
   <trkpt lat="50.470073" lon="13.954297"><ele>278.25</ele></trkpt>
   <trkpt lat="50.469924" lon="13.954811"><ele>277.75</ele></trkpt>
   <trkpt lat="50.469307" lon="13.956896"><ele>277.25</ele></trkpt>
   <trkpt lat="50.469174" lon="13.95735"><ele>277</ele></trkpt>
   <trkpt lat="50.46872" lon="13.958889"><ele>275.75</ele></trkpt>
   <trkpt lat="50.468619" lon="13.959184"><ele>275.75</ele></trkpt>
   <trkpt lat="50.468453" lon="13.959625"><ele>275.75</ele></trkpt>
   <trkpt lat="50.467725" lon="13.961337"><ele>275.75</ele></trkpt>
   <trkpt lat="50.467625" lon="13.961604"><ele>276.25</ele></trkpt>
   <trkpt lat="50.467531" lon="13.961918"><ele>276.25</ele></trkpt>
   <trkpt lat="50.467448" lon="13.962289"><ele>276.25</ele></trkpt>
   <trkpt lat="50.4674" lon="13.962589"><ele>276.25</ele></trkpt>
   <trkpt lat="50.467084" lon="13.965686"><ele>276.75</ele></trkpt>
   <trkpt lat="50.466956" lon="13.966912"><ele>277.25</ele></trkpt>
   <trkpt lat="50.466916" lon="13.967195"><ele>277.5</ele></trkpt>
   <trkpt lat="50.466868" lon="13.967451"><ele>277.5</ele></trkpt>
   <trkpt lat="50.466805" lon="13.96773"><ele>277.5</ele></trkpt>
   <trkpt lat="50.466713" lon="13.968063"><ele>277.5</ele></trkpt>
   <trkpt lat="50.466612" lon="13.968368"><ele>277.5</ele></trkpt>
   <trkpt lat="50.466525" lon="13.968597"><ele>277.5</ele></trkpt>
   <trkpt lat="50.466387" lon="13.968919"><ele>277</ele></trkpt>
   <trkpt lat="50.465338" lon="13.97118"><ele>272.25</ele></trkpt>
   <trkpt lat="50.465266" lon="13.971354"><ele>272.25</ele></trkpt>
   <trkpt lat="50.4652" lon="13.97155"><ele>272</ele></trkpt>
   <trkpt lat="50.465109" lon="13.971922"><ele>271.75</ele></trkpt>
   <trkpt lat="50.465077" lon="13.972103"><ele>271.5</ele></trkpt>
   <trkpt lat="50.465036" lon="13.972448"><ele>271.25</ele></trkpt>
   <trkpt lat="50.465028" lon="13.972615"><ele>271.25</ele></trkpt>
   <trkpt lat="50.465029" lon="13.972939"><ele>271.5</ele></trkpt>
   <trkpt lat="50.46506" lon="13.973315"><ele>272.25</ele></trkpt>
   <trkpt lat="50.465085" lon="13.97349"><ele>272.25</ele></trkpt>
   <trkpt lat="50.465119" lon="13.973677"><ele>272.5</ele></trkpt>
   <trkpt lat="50.465161" lon="13.973849"><ele>272.5</ele></trkpt>
   <trkpt lat="50.465249" lon="13.974134"><ele>272.5</ele></trkpt>
   <trkpt lat="50.465354" lon="13.974396"><ele>272.25</ele></trkpt>
   <trkpt lat="50.465466" lon="13.97462"><ele>271.75</ele></trkpt>
   <trkpt lat="50.465593" lon="13.974824"><ele>271.5</ele></trkpt>
   <trkpt lat="50.465738" lon="13.97502"><ele>270.75</ele></trkpt>
   <trkpt lat="50.465889" lon="13.975188"><ele>269.5</ele></trkpt>
   <trkpt lat="50.466051" lon="13.975328"><ele>268.75</ele></trkpt>
   <trkpt lat="50.466214" lon="13.975431"><ele>268.25</ele></trkpt>
   <trkpt lat="50.466348" lon="13.975497"><ele>267.75</ele></trkpt>
   <trkpt lat="50.466482" lon="13.975545"><ele>267.5</ele></trkpt>
   <trkpt lat="50.466678" lon="13.975591"><ele>267.5</ele></trkpt>
   <trkpt lat="50.467152" lon="13.975654"><ele>267.75</ele></trkpt>
   <trkpt lat="50.467435" lon="13.975704"><ele>268</ele></trkpt>
   <trkpt lat="50.467598" lon="13.975756"><ele>268.25</ele></trkpt>
   <trkpt lat="50.467762" lon="13.975841"><ele>268.25</ele></trkpt>
   <trkpt lat="50.467874" lon="13.975917"><ele>268.25</ele></trkpt>
   <trkpt lat="50.467993" lon="13.976015"><ele>268</ele></trkpt>
   <trkpt lat="50.468103" lon="13.976125"><ele>267.5</ele></trkpt>
   <trkpt lat="50.468267" lon="13.976321"><ele>266.75</ele></trkpt>
   <trkpt lat="50.468466" lon="13.976616"><ele>266</ele></trkpt>
   <trkpt lat="50.468661" lon="13.976936"><ele>265.5</ele></trkpt>
   <trkpt lat="50.468908" lon="13.977347"><ele>265</ele></trkpt>
   <trkpt lat="50.470088" lon="13.979304"><ele>260.25</ele></trkpt>
   <trkpt lat="50.470229" lon="13.979512"><ele>259.5</ele></trkpt>
   <trkpt lat="50.470335" lon="13.979645"><ele>259</ele></trkpt>
   <trkpt lat="50.470467" lon="13.979786"><ele>258.75</ele></trkpt>
   <trkpt lat="50.470614" lon="13.979919"><ele>258.75</ele></trkpt>
   <trkpt lat="50.470786" lon="13.980035"><ele>259.25</ele></trkpt>
   <trkpt lat="50.470938" lon="13.980123"><ele>259</ele></trkpt>
   <trkpt lat="50.471101" lon="13.980187"><ele>258.75</ele></trkpt>
   <trkpt lat="50.471275" lon="13.980236"><ele>258.75</ele></trkpt>
   <trkpt lat="50.471463" lon="13.980259"><ele>259</ele></trkpt>
   <trkpt lat="50.472553" lon="13.980315"><ele>257</ele></trkpt>
   <trkpt lat="50.474093" lon="13.980414"><ele>254.25</ele></trkpt>
   <trkpt lat="50.475306" lon="13.98048"><ele>252.25</ele></trkpt>
   <trkpt lat="50.475578" lon="13.98049"><ele>251.5</ele></trkpt>
   <trkpt lat="50.476009" lon="13.980472"><ele>250.25</ele></trkpt>
   <trkpt lat="50.476508" lon="13.980402"><ele>248.25</ele></trkpt>
   <trkpt lat="50.476805" lon="13.980345"><ele>247.75</ele></trkpt>
   <trkpt lat="50.47724" lon="13.980233"><ele>248</ele></trkpt>
   <trkpt lat="50.478372" lon="13.97992"><ele>250.25</ele></trkpt>
   <trkpt lat="50.478834" lon="13.979816"><ele>250.5</ele></trkpt>
   <trkpt lat="50.478971" lon="13.979798"><ele>250.5</ele></trkpt>
   <trkpt lat="50.479284" lon="13.979811"><ele>249.75</ele></trkpt>
   <trkpt lat="50.479486" lon="13.979844"><ele>248.25</ele></trkpt>
   <trkpt lat="50.479653" lon="13.979893"><ele>247.25</ele></trkpt>
   <trkpt lat="50.479778" lon="13.97994"><ele>246.25</ele></trkpt>
   <trkpt lat="50.479913" lon="13.980004"><ele>245.5</ele></trkpt>
   <trkpt lat="50.480138" lon="13.980138"><ele>243.5</ele></trkpt>
   <trkpt lat="50.480427" lon="13.980361"><ele>241.5</ele></trkpt>
   <trkpt lat="50.480692" lon="13.980645"><ele>239.75</ele></trkpt>
   <trkpt lat="50.480818" lon="13.980802"><ele>239</ele></trkpt>
   <trkpt lat="50.480949" lon="13.980988"><ele>238</ele></trkpt>
   <trkpt lat="50.481053" lon="13.981154"><ele>237.5</ele></trkpt>
   <trkpt lat="50.481262" lon="13.981558"><ele>236.25</ele></trkpt>
   <trkpt lat="50.481357" lon="13.98178"><ele>235.75</ele></trkpt>
   <trkpt lat="50.48142" lon="13.98195"><ele>235.75</ele></trkpt>
   <trkpt lat="50.481476" lon="13.98211"><ele>235.75</ele></trkpt>
   <trkpt lat="50.481536" lon="13.982303"><ele>235.75</ele></trkpt>
   <trkpt lat="50.481591" lon="13.982517"><ele>235.75</ele></trkpt>
   <trkpt lat="50.481649" lon="13.982778"><ele>235.75</ele></trkpt>
   <trkpt lat="50.481695" lon="13.983045"><ele>236</ele></trkpt>
   <trkpt lat="50.481726" lon="13.983275"><ele>236.25</ele></trkpt>
   <trkpt lat="50.481748" lon="13.983495"><ele>236.5</ele></trkpt>
   <trkpt lat="50.481762" lon="13.983737"><ele>236.75</ele></trkpt>
   <trkpt lat="50.481765" lon="13.98421"><ele>236.75</ele></trkpt>
   <trkpt lat="50.48175" lon="13.984485"><ele>237</ele></trkpt>
   <trkpt lat="50.48173" lon="13.984708"><ele>237.25</ele></trkpt>
   <trkpt lat="50.481696" lon="13.984964"><ele>237.25</ele></trkpt>
   <trkpt lat="50.481604" lon="13.985549"><ele>237</ele></trkpt>
   <trkpt lat="50.481592" lon="13.985624"><ele>237</ele></trkpt>
   <trkpt lat="50.481583" lon="13.985676"><ele>237</ele></trkpt>
   <trkpt lat="50.481501" lon="13.98614"><ele>237.25</ele></trkpt>
   <trkpt lat="50.481484" lon="13.986237"><ele>234.5</ele></trkpt>
   <trkpt lat="50.481033" lon="13.988933"><ele>234.5</ele></trkpt>
   <trkpt lat="50.480947" lon="13.98955"><ele>233.5</ele></trkpt>
   <trkpt lat="50.480818" lon="13.990682"><ele>231.75</ele></trkpt>
   <trkpt lat="50.480802" lon="13.990823"><ele>231.75</ele></trkpt>
   <trkpt lat="50.480787" lon="13.990957"><ele>231.75</ele></trkpt>
   <trkpt lat="50.480769" lon="13.991112"><ele>231.75</ele></trkpt>
   <trkpt lat="50.480476" lon="13.993711"><ele>230</ele></trkpt>
   <trkpt lat="50.480429" lon="13.994047"><ele>229.5</ele></trkpt>
   <trkpt lat="50.480385" lon="13.99429"><ele>229</ele></trkpt>
   <trkpt lat="50.480314" lon="13.99457"><ele>228.5</ele></trkpt>
   <trkpt lat="50.480244" lon="13.994809"><ele>227.75</ele></trkpt>
   <trkpt lat="50.480164" lon="13.995028"><ele>227.25</ele></trkpt>
   <trkpt lat="50.48007" lon="13.995253"><ele>227.5</ele></trkpt>
   <trkpt lat="50.479976" lon="13.995445"><ele>228</ele></trkpt>
   <trkpt lat="50.479876" lon="13.995626"><ele>228.25</ele></trkpt>
   <trkpt lat="50.479747" lon="13.995818"><ele>228.5</ele></trkpt>
   <trkpt lat="50.479612" lon="13.995997"><ele>229</ele></trkpt>
   <trkpt lat="50.47946" lon="13.996161"><ele>229</ele></trkpt>
   <trkpt lat="50.4793" lon="13.996312"><ele>229.25</ele></trkpt>
   <trkpt lat="50.479158" lon="13.996421"><ele>229.25</ele></trkpt>
   <trkpt lat="50.478932" lon="13.996552"><ele>229.5</ele></trkpt>
   <trkpt lat="50.478794" lon="13.996613"><ele>229.25</ele></trkpt>
   <trkpt lat="50.478659" lon="13.996658"><ele>229</ele></trkpt>
   <trkpt lat="50.478531" lon="13.996687"><ele>228.75</ele></trkpt>
   <trkpt lat="50.478352" lon="13.996712"><ele>228.25</ele></trkpt>
   <trkpt lat="50.477635" lon="13.996782"><ele>225.25</ele></trkpt>
   <trkpt lat="50.475838" lon="13.996945"><ele>218.5</ele></trkpt>
   <trkpt lat="50.475656" lon="13.996967"><ele>218</ele></trkpt>
   <trkpt lat="50.475488" lon="13.997002"><ele>217.75</ele></trkpt>
   <trkpt lat="50.475323" lon="13.997063"><ele>217.25</ele></trkpt>
   <trkpt lat="50.475198" lon="13.997127"><ele>217</ele></trkpt>
   <trkpt lat="50.475069" lon="13.997209"><ele>216.75</ele></trkpt>
   <trkpt lat="50.474917" lon="13.99733"><ele>216.5</ele></trkpt>
   <trkpt lat="50.474806" lon="13.997439"><ele>216.25</ele></trkpt>
   <trkpt lat="50.474669" lon="13.997594"><ele>216.25</ele></trkpt>
   <trkpt lat="50.474535" lon="13.997786"><ele>216</ele></trkpt>
   <trkpt lat="50.474423" lon="13.997978"><ele>216</ele></trkpt>
   <trkpt lat="50.474312" lon="13.998215"><ele>216</ele></trkpt>
   <trkpt lat="50.474217" lon="13.998467"><ele>216</ele></trkpt>
   <trkpt lat="50.474155" lon="13.998669"><ele>215.75</ele></trkpt>
   <trkpt lat="50.47411" lon="13.998851"><ele>215.75</ele></trkpt>
   <trkpt lat="50.474055" lon="13.999164"><ele>215.5</ele></trkpt>
   <trkpt lat="50.474019" lon="13.999511"><ele>215</ele></trkpt>
   <trkpt lat="50.474" lon="14.000053"><ele>214.5</ele></trkpt>
   <trkpt lat="50.473989" lon="14.000472"><ele>214.5</ele></trkpt>
   <trkpt lat="50.473974" lon="14.00115"><ele>214</ele></trkpt>
   <trkpt lat="50.473965" lon="14.001515"><ele>213.75</ele></trkpt>
   <trkpt lat="50.47394" lon="14.002691"><ele>214.5</ele></trkpt>
   <trkpt lat="50.473923" lon="14.003387"><ele>214.75</ele></trkpt>
   <trkpt lat="50.473912" lon="14.003798"><ele>214.75</ele></trkpt>
   <trkpt lat="50.473892" lon="14.004508"><ele>214.25</ele></trkpt>
   <trkpt lat="50.473872" lon="14.00482"><ele>214</ele></trkpt>
   <trkpt lat="50.473847" lon="14.005053"><ele>213.75</ele></trkpt>
   <trkpt lat="50.473816" lon="14.005229"><ele>213.25</ele></trkpt>
   <trkpt lat="50.473758" lon="14.00549"><ele>212.75</ele></trkpt>
   <trkpt lat="50.473697" lon="14.005713"><ele>212.25</ele></trkpt>
   <trkpt lat="50.47335" lon="14.006674"><ele>210</ele></trkpt>
   <trkpt lat="50.472102" lon="14.010038"><ele>206.25</ele></trkpt>
   <trkpt lat="50.471999" lon="14.010345"><ele>206</ele></trkpt>
   <trkpt lat="50.471874" lon="14.01077"><ele>206</ele></trkpt>
   <trkpt lat="50.471772" lon="14.011172"><ele>205.5</ele></trkpt>
   <trkpt lat="50.471687" lon="14.011582"><ele>205</ele></trkpt>
   <trkpt lat="50.471623" lon="14.011984"><ele>204.75</ele></trkpt>
   <trkpt lat="50.471547" lon="14.012696"><ele>204.25</ele></trkpt>
   <trkpt lat="50.471527" lon="14.013048"><ele>204</ele></trkpt>
   <trkpt lat="50.471518" lon="14.013368"><ele>203.5</ele></trkpt>
   <trkpt lat="50.471518" lon="14.013724"><ele>203</ele></trkpt>
   <trkpt lat="50.47155" lon="14.014388"><ele>202</ele></trkpt>
   <trkpt lat="50.471583" lon="14.014739"><ele>201.25</ele></trkpt>
   <trkpt lat="50.47163" lon="14.015096"><ele>200.75</ele></trkpt>
   <trkpt lat="50.471678" lon="14.015408"><ele>200.5</ele></trkpt>
   <trkpt lat="50.47179" lon="14.015945"><ele>200</ele></trkpt>
   <trkpt lat="50.471869" lon="14.016262"><ele>199.25</ele></trkpt>
   <trkpt lat="50.471952" lon="14.016542"><ele>198.75</ele></trkpt>
   <trkpt lat="50.472057" lon="14.016871"><ele>198.5</ele></trkpt>
   <trkpt lat="50.472844" lon="14.019081"><ele>197.25</ele></trkpt>
   <trkpt lat="50.472973" lon="14.019421"><ele>197</ele></trkpt>
   <trkpt lat="50.473083" lon="14.019664"><ele>196.5</ele></trkpt>
   <trkpt lat="50.4732" lon="14.019886"><ele>196.25</ele></trkpt>
   <trkpt lat="50.473321" lon="14.02009"><ele>195.75</ele></trkpt>
   <trkpt lat="50.473446" lon="14.02026"><ele>195.5</ele></trkpt>
   <trkpt lat="50.473584" lon="14.020422"><ele>195</ele></trkpt>
   <trkpt lat="50.473725" lon="14.020563"><ele>194.5</ele></trkpt>
   <trkpt lat="50.473893" lon="14.020701"><ele>193.75</ele></trkpt>
   <trkpt lat="50.474063" lon="14.020814"><ele>193.25</ele></trkpt>
   <trkpt lat="50.474241" lon="14.020926"><ele>192.75</ele></trkpt>
   <trkpt lat="50.475743" lon="14.021794"><ele>189.75</ele></trkpt>
   <trkpt lat="50.47626" lon="14.022099"><ele>189</ele></trkpt>
   <trkpt lat="50.476414" lon="14.022192"><ele>189</ele></trkpt>
   <trkpt lat="50.47676" lon="14.022481"><ele>189</ele></trkpt>
   <trkpt lat="50.476917" lon="14.022654"><ele>188.5</ele></trkpt>
   <trkpt lat="50.477078" lon="14.022858"><ele>188</ele></trkpt>
   <trkpt lat="50.477216" lon="14.023059"><ele>187.5</ele></trkpt>
   <trkpt lat="50.477353" lon="14.023287"><ele>187</ele></trkpt>
   <trkpt lat="50.47747" lon="14.023517"><ele>186.75</ele></trkpt>
   <trkpt lat="50.477577" lon="14.023759"><ele>186.5</ele></trkpt>
   <trkpt lat="50.477675" lon="14.02401"><ele>186.75</ele></trkpt>
   <trkpt lat="50.477755" lon="14.02426"><ele>186.75</ele></trkpt>
   <trkpt lat="50.477823" lon="14.024508"><ele>186.75</ele></trkpt>
   <trkpt lat="50.477874" lon="14.024734"><ele>186.5</ele></trkpt>
   <trkpt lat="50.477921" lon="14.024971"><ele>186.5</ele></trkpt>
   <trkpt lat="50.477956" lon="14.025216"><ele>186.25</ele></trkpt>
   <trkpt lat="50.477982" lon="14.025458"><ele>186</ele></trkpt>
   <trkpt lat="50.477998" lon="14.025697"><ele>185.75</ele></trkpt>
   <trkpt lat="50.478006" lon="14.025965"><ele>185.5</ele></trkpt>
   <trkpt lat="50.477993" lon="14.026578"><ele>184.5</ele></trkpt>
   <trkpt lat="50.477821" lon="14.029927"><ele>180</ele></trkpt>
   <trkpt lat="50.477768" lon="14.031123"><ele>178.75</ele></trkpt>
   <trkpt lat="50.477768" lon="14.031253"><ele>178.5</ele></trkpt>
   <trkpt lat="50.477768" lon="14.031347"><ele>178.25</ele></trkpt>
   <trkpt lat="50.47778" lon="14.031604"><ele>178</ele></trkpt>
   <trkpt lat="50.477797" lon="14.031814"><ele>178</ele></trkpt>
   <trkpt lat="50.477856" lon="14.032233"><ele>177.75</ele></trkpt>
   <trkpt lat="50.4779" lon="14.032452"><ele>177.75</ele></trkpt>
   <trkpt lat="50.477962" lon="14.032695"><ele>177.75</ele></trkpt>
   <trkpt lat="50.478031" lon="14.032912"><ele>177.5</ele></trkpt>
   <trkpt lat="50.478097" lon="14.033096"><ele>177.25</ele></trkpt>
   <trkpt lat="50.47818" lon="14.03328"><ele>177</ele></trkpt>
   <trkpt lat="50.478296" lon="14.033522"><ele>176.25</ele></trkpt>
   <trkpt lat="50.478399" lon="14.033703"><ele>175.75</ele></trkpt>
   <trkpt lat="50.478532" lon="14.033901"><ele>175.25</ele></trkpt>
   <trkpt lat="50.47869" lon="14.034112"><ele>175</ele></trkpt>
   <trkpt lat="50.479023" lon="14.034529"><ele>173.75</ele></trkpt>
   <trkpt lat="50.479094" lon="14.034618"><ele>173.5</ele></trkpt>
   <trkpt lat="50.479182" lon="14.034728"><ele>173.25</ele></trkpt>
   <trkpt lat="50.480591" lon="14.036489"><ele>170.5</ele></trkpt>
   <trkpt lat="50.480728" lon="14.03666"><ele>170</ele></trkpt>
   <trkpt lat="50.481719" lon="14.037906"><ele>171</ele></trkpt>
   <trkpt lat="50.482179" lon="14.038452"><ele>170.75</ele></trkpt>
   <trkpt lat="50.48227" lon="14.038536"><ele>171</ele></trkpt>
   <trkpt lat="50.482636" lon="14.038816"><ele>171</ele></trkpt>
   <trkpt lat="50.482767" lon="14.038901"><ele>171.25</ele></trkpt>
   <trkpt lat="50.48302" lon="14.039021"><ele>171.5</ele></trkpt>
   <trkpt lat="50.483445" lon="14.039198"><ele>172</ele></trkpt>
   <trkpt lat="50.483561" lon="14.039249"><ele>172</ele></trkpt>
   <trkpt lat="50.483728" lon="14.039335"><ele>171.75</ele></trkpt>
   <trkpt lat="50.483771" lon="14.039353"><ele>171.75</ele></trkpt>
   <trkpt lat="50.484165" lon="14.039611"><ele>171.75</ele></trkpt>
   <trkpt lat="50.484479" lon="14.039778"><ele>171.25</ele></trkpt>
   <trkpt lat="50.484625" lon="14.03984"><ele>170.75</ele></trkpt>
   <trkpt lat="50.484775" lon="14.039897"><ele>170.5</ele></trkpt>
   <trkpt lat="50.484922" lon="14.039927"><ele>170.25</ele></trkpt>
   <trkpt lat="50.48517" lon="14.039946"><ele>169.5</ele></trkpt>
   <trkpt lat="50.485388" lon="14.039909"><ele>168.75</ele></trkpt>
   <trkpt lat="50.485498" lon="14.039877"><ele>168.5</ele></trkpt>
   <trkpt lat="50.485713" lon="14.039782"><ele>167.75</ele></trkpt>
   <trkpt lat="50.485924" lon="14.039636"><ele>167.5</ele></trkpt>
   <trkpt lat="50.486042" lon="14.039536"><ele>167</ele></trkpt>
   <trkpt lat="50.486154" lon="14.039416"><ele>166.75</ele></trkpt>
   <trkpt lat="50.486362" lon="14.039154"><ele>166.25</ele></trkpt>
   <trkpt lat="50.486467" lon="14.038972"><ele>166.25</ele></trkpt>
   <trkpt lat="50.486554" lon="14.038804"><ele>166</ele></trkpt>
   <trkpt lat="50.486691" lon="14.038511"><ele>165.5</ele></trkpt>
   <trkpt lat="50.487087" lon="14.037604"><ele>166</ele></trkpt>
   <trkpt lat="50.487307" lon="14.037124"><ele>166</ele></trkpt>
   <trkpt lat="50.487413" lon="14.036927"><ele>165.75</ele></trkpt>
   <trkpt lat="50.487526" lon="14.036745"><ele>165.75</ele></trkpt>
   <trkpt lat="50.487648" lon="14.036593"><ele>165.75</ele></trkpt>
   <trkpt lat="50.487769" lon="14.036461"><ele>165.75</ele></trkpt>
   <trkpt lat="50.487877" lon="14.036356"><ele>165.5</ele></trkpt>
   <trkpt lat="50.488013" lon="14.036257"><ele>165.25</ele></trkpt>
   <trkpt lat="50.488145" lon="14.036174"><ele>165</ele></trkpt>
   <trkpt lat="50.488332" lon="14.036096"><ele>164.5</ele></trkpt>
   <trkpt lat="50.488491" lon="14.036041"><ele>164.75</ele></trkpt>
   <trkpt lat="50.48866" lon="14.03598"><ele>164.5</ele></trkpt>
   <trkpt lat="50.488905" lon="14.035866"><ele>164.25</ele></trkpt>
   <trkpt lat="50.489008" lon="14.035808"><ele>164</ele></trkpt>
   <trkpt lat="50.489233" lon="14.035628"><ele>163.75</ele></trkpt>
   <trkpt lat="50.489648" lon="14.035189"><ele>164.75</ele></trkpt>
   <trkpt lat="50.489667" lon="14.035168"><ele>164.75</ele></trkpt>
   <trkpt lat="50.489779" lon="14.035045"><ele>165</ele></trkpt>
   <trkpt lat="50.489944" lon="14.034887"><ele>165.25</ele></trkpt>
   <trkpt lat="50.490194" lon="14.034703"><ele>165.25</ele></trkpt>
   <trkpt lat="50.490321" lon="14.034638"><ele>165</ele></trkpt>
   <trkpt lat="50.490464" lon="14.034585"><ele>165</ele></trkpt>
   <trkpt lat="50.490594" lon="14.03455"><ele>164.75</ele></trkpt>
   <trkpt lat="50.490747" lon="14.03453"><ele>164.75</ele></trkpt>
   <trkpt lat="50.490983" lon="14.034533"><ele>164.5</ele></trkpt>
   <trkpt lat="50.491085" lon="14.034549"><ele>164.5</ele></trkpt>
   <trkpt lat="50.491174" lon="14.034576"><ele>164.5</ele></trkpt>
   <trkpt lat="50.491257" lon="14.034601"><ele>164.5</ele></trkpt>
   <trkpt lat="50.491513" lon="14.034718"><ele>164.5</ele></trkpt>
   <trkpt lat="50.491626" lon="14.034782"><ele>164.5</ele></trkpt>
   <trkpt lat="50.49223" lon="14.035119"><ele>164.25</ele></trkpt>
   <trkpt lat="50.492485" lon="14.035228"><ele>164.25</ele></trkpt>
   <trkpt lat="50.492643" lon="14.035284"><ele>163.5</ele></trkpt>
   <trkpt lat="50.492767" lon="14.035318"><ele>163</ele></trkpt>
   <trkpt lat="50.49373" lon="14.035484"><ele>160</ele></trkpt>
   <trkpt lat="50.49392" lon="14.03553"><ele>159.75</ele></trkpt>
   <trkpt lat="50.494078" lon="14.035589"><ele>159.5</ele></trkpt>
   <trkpt lat="50.494174" lon="14.03564"><ele>159.5</ele></trkpt>
   <trkpt lat="50.494341" lon="14.035742"><ele>159.25</ele></trkpt>
   <trkpt lat="50.494476" lon="14.035844"><ele>159.25</ele></trkpt>
   <trkpt lat="50.494711" lon="14.036045"><ele>159.25</ele></trkpt>
   <trkpt lat="50.495041" lon="14.036306"><ele>159.5</ele></trkpt>
   <trkpt lat="50.495251" lon="14.036427"><ele>159.25</ele></trkpt>
   <trkpt lat="50.495478" lon="14.036513"><ele>158.5</ele></trkpt>
   <trkpt lat="50.495608" lon="14.036535"><ele>158</ele></trkpt>
   <trkpt lat="50.495748" lon="14.036544"><ele>157.25</ele></trkpt>
   <trkpt lat="50.495909" lon="14.036536"><ele>157</ele></trkpt>
   <trkpt lat="50.496038" lon="14.036509"><ele>157</ele></trkpt>
   <trkpt lat="50.496201" lon="14.036457"><ele>157.25</ele></trkpt>
   <trkpt lat="50.496336" lon="14.036396"><ele>157.25</ele></trkpt>
   <trkpt lat="50.49641" lon="14.036349"><ele>157.25</ele></trkpt>
   <trkpt lat="50.496479" lon="14.036305"><ele>157.25</ele></trkpt>
   <trkpt lat="50.496616" lon="14.036199"><ele>157.5</ele></trkpt>
   <trkpt lat="50.497201" lon="14.035609"><ele>157.25</ele></trkpt>
   <trkpt lat="50.497464" lon="14.035408"><ele>157</ele></trkpt>
   <trkpt lat="50.49758" lon="14.035344"><ele>157.25</ele></trkpt>
   <trkpt lat="50.497706" lon="14.035289"><ele>158</ele></trkpt>
   <trkpt lat="50.497974" lon="14.035223"><ele>159.75</ele></trkpt>
   <trkpt lat="50.498112" lon="14.035213"><ele>160.5</ele></trkpt>
   <trkpt lat="50.498221" lon="14.035216"><ele>161.25</ele></trkpt>
   <trkpt lat="50.498336" lon="14.035231"><ele>162</ele></trkpt>
   <trkpt lat="50.498466" lon="14.035261"><ele>162</ele></trkpt>
   <trkpt lat="50.498591" lon="14.035307"><ele>162.25</ele></trkpt>
   <trkpt lat="50.49871" lon="14.035364"><ele>162.25</ele></trkpt>
   <trkpt lat="50.49884" lon="14.035445"><ele>162.5</ele></trkpt>
   <trkpt lat="50.498983" lon="14.035551"><ele>162.75</ele></trkpt>
   <trkpt lat="50.499095" lon="14.035655"><ele>162.75</ele></trkpt>
   <trkpt lat="50.4992" lon="14.035766"><ele>163</ele></trkpt>
   <trkpt lat="50.499313" lon="14.035908"><ele>163</ele></trkpt>
   <trkpt lat="50.499413" lon="14.036047"><ele>163</ele></trkpt>
   <trkpt lat="50.499513" lon="14.03622"><ele>163</ele></trkpt>
   <trkpt lat="50.49965" lon="14.036483"><ele>163</ele></trkpt>
   <trkpt lat="50.499802" lon="14.036823"><ele>162.75</ele></trkpt>
   <trkpt lat="50.49984" lon="14.036914"><ele>162.75</ele></trkpt>
   <trkpt lat="50.499845" lon="14.036924"><ele>162.75</ele></trkpt>
   <trkpt lat="50.500079" lon="14.037448"><ele>162.75</ele></trkpt>
   <trkpt lat="50.50017" lon="14.037627"><ele>162.25</ele></trkpt>
   <trkpt lat="50.500287" lon="14.037827"><ele>161.75</ele></trkpt>
   <trkpt lat="50.500296" lon="14.03784"><ele>161.75</ele></trkpt>
   <trkpt lat="50.500299" lon="14.037844"><ele>161.75</ele></trkpt>
   <trkpt lat="50.500488" lon="14.038112"><ele>161</ele></trkpt>
   <trkpt lat="50.503091" lon="14.041395"><ele>157.25</ele></trkpt>
   <trkpt lat="50.504713" lon="14.043442"><ele>157.75</ele></trkpt>
   <trkpt lat="50.505342" lon="14.044238"><ele>158.5</ele></trkpt>
   <trkpt lat="50.506946" lon="14.046261"><ele>157.75</ele></trkpt>
   <trkpt lat="50.507213" lon="14.046555"><ele>156.75</ele></trkpt>
   <trkpt lat="50.507398" lon="14.046718"><ele>156</ele></trkpt>
   <trkpt lat="50.507502" lon="14.046802"><ele>155.75</ele></trkpt>
   <trkpt lat="50.507798" lon="14.046985"><ele>155.25</ele></trkpt>
   <trkpt lat="50.507941" lon="14.047053"><ele>154.75</ele></trkpt>
   <trkpt lat="50.508177" lon="14.047137"><ele>154.25</ele></trkpt>
   <trkpt lat="50.50841" lon="14.047199"><ele>153.75</ele></trkpt>
   <trkpt lat="50.508721" lon="14.047268"><ele>153.5</ele></trkpt>
   <trkpt lat="50.508855" lon="14.047299"><ele>153.25</ele></trkpt>
   <trkpt lat="50.509306" lon="14.047404"><ele>153.25</ele></trkpt>
   <trkpt lat="50.509336" lon="14.047411"><ele>153.25</ele></trkpt>
   <trkpt lat="50.509467" lon="14.047453"><ele>153.5</ele></trkpt>
   <trkpt lat="50.509542" lon="14.047478"><ele>153.75</ele></trkpt>
   <trkpt lat="50.509742" lon="14.04757"><ele>154.25</ele></trkpt>
   <trkpt lat="50.509985" lon="14.047732"><ele>154.75</ele></trkpt>
   <trkpt lat="50.510061" lon="14.047801"><ele>154.75</ele></trkpt>
   <trkpt lat="50.510141" lon="14.047873"><ele>154.75</ele></trkpt>
   <trkpt lat="50.510215" lon="14.047941"><ele>154.5</ele></trkpt>
   <trkpt lat="50.510415" lon="14.048168"><ele>154</ele></trkpt>
   <trkpt lat="50.51062" lon="14.048461"><ele>153.5</ele></trkpt>
   <trkpt lat="50.510792" lon="14.048786"><ele>153</ele></trkpt>
   <trkpt lat="50.510969" lon="14.049209"><ele>152.75</ele></trkpt>
   <trkpt lat="50.51109" lon="14.049634"><ele>152.75</ele></trkpt>
   <trkpt lat="50.511148" lon="14.049912"><ele>152.75</ele></trkpt>
   <trkpt lat="50.51119" lon="14.050196"><ele>153</ele></trkpt>
   <trkpt lat="50.511221" lon="14.050461"><ele>153.25</ele></trkpt>
   <trkpt lat="50.511237" lon="14.050737"><ele>153.25</ele></trkpt>
   <trkpt lat="50.511233" lon="14.051078"><ele>153.75</ele></trkpt>
   <trkpt lat="50.511214" lon="14.051372"><ele>154.25</ele></trkpt>
   <trkpt lat="50.511204" lon="14.051484"><ele>154.5</ele></trkpt>
   <trkpt lat="50.511167" lon="14.051862"><ele>154.5</ele></trkpt>
   <trkpt lat="50.511111" lon="14.052291"><ele>153.75</ele></trkpt>
   <trkpt lat="50.511057" lon="14.052663"><ele>153.25</ele></trkpt>
   <trkpt lat="50.510973" lon="14.053176"><ele>152.25</ele></trkpt>
   <trkpt lat="50.510951" lon="14.053289"><ele>152</ele></trkpt>
   <trkpt lat="50.51079" lon="14.054299"><ele>153</ele></trkpt>
   <trkpt lat="50.510766" lon="14.054427"><ele>153.25</ele></trkpt>
   <trkpt lat="50.510548" lon="14.055487"><ele>153.25</ele></trkpt>
   <trkpt lat="50.510067" lon="14.057831"><ele>153.75</ele></trkpt>
   <trkpt lat="50.50972" lon="14.059532"><ele>155</ele></trkpt>
  </trkseg>
 </trk>
</gpx>