<?xml version="1.0" encoding="UTF-8"?>
<!-- track-length = 88674 filtered ascend = 323 plain-ascend = 82 cost=88674 energy=1.1kwh time=1h 58m 14s -->
<gpx 
 xmlns="http://www.topografix.com/GPX/1/1" 
 xmlns:xsi="http://www.w3.org/2001/XMLSchema-instance" 
 xsi:schemaLocation="http://www.topografix.com/GPX/1/1 http://www.topografix.com/GPX/1/1/gpx.xsd" 
 creator="BRouter-1.7.0" version="1.1">
 <trk>
  <name>Peja - Pristina</name>
  <trkseg>
   <trkpt lon="20.304201" lat="42.662400"><ele>501.0</ele></trkpt>
   <trkpt lon="20.305598" lat="42.659241"><ele>501.0</ele></trkpt>
   <trkpt lon="20.306004" lat="42.658335"><ele>500.75</ele></trkpt>
   <trkpt lon="20.306144" lat="42.658025"><ele>500.25</ele></trkpt>
   <trkpt lon="20.306501" lat="42.657177"><ele>499.0</ele></trkpt>
   <trkpt lon="20.306514" lat="42.657148"><ele>499.0</ele></trkpt>
   <trkpt lon="20.306814" lat="42.656721"><ele>498.25</ele></trkpt>
   <trkpt lon="20.306985" lat="42.656516"><ele>497.5</ele></trkpt>
   <trkpt lon="20.307281" lat="42.656250"><ele>496.75</ele></trkpt>
   <trkpt lon="20.307606" lat="42.656016"><ele>496.5</ele></trkpt>
   <trkpt lon="20.307962" lat="42.655823"><ele>497.0</ele></trkpt>
   <trkpt lon="20.308306" lat="42.655673"><ele>497.0</ele></trkpt>
   <trkpt lon="20.308540" lat="42.655587"><ele>497.0</ele></trkpt>
   <trkpt lon="20.308804" lat="42.655510"><ele>496.75</ele></trkpt>
   <trkpt lon="20.309196" lat="42.655431"><ele>496.25</ele></trkpt>
   <trkpt lon="20.309653" lat="42.655377"><ele>496.0</ele></trkpt>
   <trkpt lon="20.310021" lat="42.655368"><ele>496.0</ele></trkpt>
   <trkpt lon="20.310383" lat="42.655380"><ele>496.0</ele></trkpt>
   <trkpt lon="20.315425" lat="42.655878"><ele>494.0</ele></trkpt>
   <trkpt lon="20.321617" lat="42.656486"><ele>489.75</ele></trkpt>
   <trkpt lon="20.322347" lat="42.656567"><ele>488.5</ele></trkpt>
   <trkpt lon="20.324515" lat="42.656807"><ele>487.5</ele></trkpt>
   <trkpt lon="20.327754" lat="42.657061"><ele>486.0</ele></trkpt>
   <trkpt lon="20.330479" lat="42.657335"><ele>483.5</ele></trkpt>
   <trkpt lon="20.334121" lat="42.657670"><ele>480.5</ele></trkpt>
   <trkpt lon="20.337962" lat="42.658023"><ele>480.25</ele></trkpt>
   <trkpt lon="20.340271" lat="42.658273"><ele>478.5</ele></trkpt>
   <trkpt lon="20.343948" lat="42.658627"><ele>474.25</ele></trkpt>
   <trkpt lon="20.346242" lat="42.658860"><ele>473.5</ele></trkpt>
   <trkpt lon="20.348633" lat="42.659066"><ele>472.25</ele></trkpt>
   <trkpt lon="20.351896" lat="42.659400"><ele>469.5</ele></trkpt>
   <trkpt lon="20.354690" lat="42.659604"><ele>470.0</ele></trkpt>
   <trkpt lon="20.357640" lat="42.659632"><ele>467.25</ele></trkpt>
   <trkpt lon="20.362261" lat="42.659676"><ele>466.0</ele></trkpt>
   <trkpt lon="20.365170" lat="42.659704"><ele>463.75</ele></trkpt>
   <trkpt lon="20.367391" lat="42.659678"><ele>464.5</ele></trkpt>
   <trkpt lon="20.369041" lat="42.659645"><ele>463.0</ele></trkpt>
   <trkpt lon="20.371183" lat="42.659504"><ele>458.75</ele></trkpt>
   <trkpt lon="20.373477" lat="42.659325"><ele>459.0</ele></trkpt>
   <trkpt lon="20.377354" lat="42.659032"><ele>458.0</ele></trkpt>
   <trkpt lon="20.378709" lat="42.658958"><ele>457.25</ele></trkpt>
   <trkpt lon="20.381729" lat="42.658707"><ele>455.5</ele></trkpt>
   <trkpt lon="20.382514" lat="42.658628"><ele>457.75</ele></trkpt>
   <trkpt lon="20.385472" lat="42.658425"><ele>456.0</ele></trkpt>
   <trkpt lon="20.387324" lat="42.658249"><ele>455.5</ele></trkpt>
   <trkpt lon="20.390692" lat="42.658001"><ele>454.25</ele></trkpt>
   <trkpt lon="20.391321" lat="42.657961"><ele>453.25</ele></trkpt>
   <trkpt lon="20.391904" lat="42.657862"><ele>453.0</ele></trkpt>
   <trkpt lon="20.392607" lat="42.657690"><ele>453.0</ele></trkpt>
   <trkpt lon="20.395213" lat="42.656571"><ele>452.75</ele></trkpt>
   <trkpt lon="20.397392" lat="42.655645"><ele>451.75</ele></trkpt>
   <trkpt lon="20.398118" lat="42.655426"><ele>453.5</ele></trkpt>
   <trkpt lon="20.398696" lat="42.655290"><ele>454.75</ele></trkpt>
   <trkpt lon="20.399500" lat="42.655217"><ele>455.0</ele></trkpt>
   <trkpt lon="20.400364" lat="42.655271"><ele>453.0</ele></trkpt>
   <trkpt lon="20.401273" lat="42.655409"><ele>452.5</ele></trkpt>
   <trkpt lon="20.402663" lat="42.655724"><ele>452.5</ele></trkpt>
   <trkpt lon="20.406598" lat="42.656746"><ele>449.25</ele></trkpt>
   <trkpt lon="20.411609" lat="42.658057"><ele>442.25</ele></trkpt>
   <trkpt lon="20.414098" lat="42.658707"><ele>441.25</ele></trkpt>
   <trkpt lon="20.415484" lat="42.659045"><ele>440.75</ele></trkpt>
   <trkpt lon="20.419950" lat="42.660151"><ele>442.0</ele></trkpt>
   <trkpt lon="20.420134" lat="42.660195"><ele>442.5</ele></trkpt>
   <trkpt lon="20.420537" lat="42.660324"><ele>443.25</ele></trkpt>
   <trkpt lon="20.422971" lat="42.660908"><ele>439.25</ele></trkpt>
   <trkpt lon="20.425174" lat="42.661413"><ele>436.25</ele></trkpt>
   <trkpt lon="20.427487" lat="42.661997"><ele>436.0</ele></trkpt>
   <trkpt lon="20.429484" lat="42.662364"><ele>436.0</ele></trkpt>
   <trkpt lon="20.429730" lat="42.662409"><ele>436.0</ele></trkpt>
   <trkpt lon="20.429903" lat="42.662441"><ele>436.0</ele></trkpt>
   <trkpt lon="20.430817" lat="42.662523"><ele>435.0</ele></trkpt>
   <trkpt lon="20.431709" lat="42.662544"><ele>434.75</ele></trkpt>
   <trkpt lon="20.433330" lat="42.662486"><ele>434.0</ele></trkpt>
   <trkpt lon="20.434022" lat="42.662434"><ele>433.5</ele></trkpt>
   <trkpt lon="20.434551" lat="42.662376"><ele>433.75</ele></trkpt>
   <trkpt lon="20.435271" lat="42.662395"><ele>434.0</ele></trkpt>
   <trkpt lon="20.436379" lat="42.662602"><ele>433.25</ele></trkpt>
   <trkpt lon="20.440114" lat="42.663692"><ele>433.0</ele></trkpt>
   <trkpt lon="20.443289" lat="42.664575"><ele>428.25</ele></trkpt>
   <trkpt lon="20.444573" lat="42.665024"><ele>429.25</ele></trkpt>
   <trkpt lon="20.449780" lat="42.666934"><ele>429.0</ele></trkpt>
   <trkpt lon="20.452255" lat="42.667821"><ele>425.25</ele></trkpt>
   <trkpt lon="20.453107" lat="42.668098"><ele>425.0</ele></trkpt>
   <trkpt lon="20.454247" lat="42.668378"><ele>425.0</ele></trkpt>
   <trkpt lon="20.463756" lat="42.669729"><ele>421.25</ele></trkpt>
   <trkpt lon="20.464701" lat="42.669868"><ele>421.0</ele></trkpt>
   <trkpt lon="20.467995" lat="42.670323"><ele>418.25</ele></trkpt>
   <trkpt lon="20.471177" lat="42.670775"><ele>416.0</ele></trkpt>
   <trkpt lon="20.472686" lat="42.670973"><ele>417.75</ele></trkpt>
   <trkpt lon="20.474156" lat="42.671092"><ele>417.25</ele></trkpt>
   <trkpt lon="20.475640" lat="42.671017"><ele>416.5</ele></trkpt>
   <trkpt lon="20.479679" lat="42.670631"><ele>413.25</ele></trkpt>
   <trkpt lon="20.482311" lat="42.670320"><ele>412.25</ele></trkpt>
   <trkpt lon="20.484212" lat="42.670171"><ele>411.75</ele></trkpt>
   <trkpt lon="20.485832" lat="42.670044"><ele>412.0</ele></trkpt>
   <trkpt lon="20.487974" lat="42.669828"><ele>411.0</ele></trkpt>
   <trkpt lon="20.488753" lat="42.669711"><ele>409.5</ele></trkpt>
   <trkpt lon="20.489329" lat="42.669570"><ele>408.5</ele></trkpt>
   <trkpt lon="20.489837" lat="42.669391"><ele>408.5</ele></trkpt>
   <trkpt lon="20.490382" lat="42.669204"><ele>408.75</ele></trkpt>
   <trkpt lon="20.490861" lat="42.669040"><ele>409.0</ele></trkpt>
   <trkpt lon="20.491273" lat="42.668846"><ele>409.0</ele></trkpt>
   <trkpt lon="20.493248" lat="42.668159"><ele>410.25</ele></trkpt>
   <trkpt lon="20.493708" lat="42.667994"><ele>409.5</ele></trkpt>
   <trkpt lon="20.494699" lat="42.667640"><ele>408.25</ele></trkpt>
   <trkpt lon="20.496203" lat="42.667117"><ele>408.0</ele></trkpt>
   <trkpt lon="20.496430" lat="42.667045"><ele>408.0</ele></trkpt>
   <trkpt lon="20.496751" lat="42.666967"><ele>408.0</ele></trkpt>
   <trkpt lon="20.497354" lat="42.666761"><ele>408.0</ele></trkpt>
   <trkpt lon="20.497969" lat="42.666540"><ele>408.25</ele></trkpt>
   <trkpt lon="20.498906" lat="42.666140"><ele>406.75</ele></trkpt>
   <trkpt lon="20.499604" lat="42.665759"><ele>406.25</ele></trkpt>
   <trkpt lon="20.500404" lat="42.665236"><ele>404.75</ele></trkpt>
   <trkpt lon="20.505544" lat="42.661949"><ele>404.0</ele></trkpt>
   <trkpt lon="20.506841" lat="42.661193"><ele>404.75</ele></trkpt>
   <trkpt lon="20.508767" lat="42.659757"><ele>403.0</ele></trkpt>
   <trkpt lon="20.510000" lat="42.658775"><ele>400.25</ele></trkpt>
   <trkpt lon="20.512873" lat="42.656782"><ele>400.25</ele></trkpt>
   <trkpt lon="20.514325" lat="42.655733"><ele>400.0</ele></trkpt>
   <trkpt lon="20.515326" lat="42.654962"><ele>400.0</ele></trkpt>
   <trkpt lon="20.516222" lat="42.654371"><ele>399.75</ele></trkpt>
   <trkpt lon="20.518508" lat="42.652737"><ele>399.5</ele></trkpt>
   <trkpt lon="20.520779" lat="42.651101"><ele>400.25</ele></trkpt>
   <trkpt lon="20.521378" lat="42.650628"><ele>400.5</ele></trkpt>
   <trkpt lon="20.521827" lat="42.650169"><ele>400.75</ele></trkpt>
   <trkpt lon="20.522353" lat="42.649598"><ele>402.25</ele></trkpt>
   <trkpt lon="20.522926" lat="42.648738"><ele>399.75</ele></trkpt>
   <trkpt lon="20.523422" lat="42.647827"><ele>397.5</ele></trkpt>
   <trkpt lon="20.523889" lat="42.646910"><ele>399.0</ele></trkpt>
   <trkpt lon="20.524270" lat="42.646243"><ele>399.25</ele></trkpt>
   <trkpt lon="20.524658" lat="42.645721"><ele>398.75</ele></trkpt>
   <trkpt lon="20.525045" lat="42.645258"><ele>398.75</ele></trkpt>
   <trkpt lon="20.525455" lat="42.644845"><ele>397.5</ele></trkpt>
   <trkpt lon="20.525976" lat="42.644408"><ele>395.75</ele></trkpt>
   <trkpt lon="20.527599" lat="42.643084"><ele>396.25</ele></trkpt>
   <trkpt lon="20.529750" lat="42.641320"><ele>394.5</ele></trkpt>
   <trkpt lon="20.532060" lat="42.639429"><ele>392.0</ele></trkpt>
   <trkpt lon="20.533871" lat="42.637927"><ele>391.75</ele></trkpt>
   <trkpt lon="20.533963" lat="42.637847"><ele>391.75</ele></trkpt>
   <trkpt lon="20.538940" lat="42.633799"><ele>390.0</ele></trkpt>
   <trkpt lon="20.540143" lat="42.632784"><ele>387.25</ele></trkpt>
   <trkpt lon="20.543444" lat="42.630076"><ele>384.75</ele></trkpt>
   <trkpt lon="20.544079" lat="42.629672"><ele>384.25</ele></trkpt>
   <trkpt lon="20.544902" lat="42.629173"><ele>383.0</ele></trkpt>
   <trkpt lon="20.549378" lat="42.626794"><ele>380.75</ele></trkpt>
   <trkpt lon="20.555473" lat="42.623536"><ele>381.25</ele></trkpt>
   <trkpt lon="20.555820" lat="42.623358"><ele>381.0</ele></trkpt>
   <trkpt lon="20.559502" lat="42.621332"><ele>379.75</ele></trkpt>
   <trkpt lon="20.560710" lat="42.620706"><ele>378.25</ele></trkpt>
   <trkpt lon="20.561240" lat="42.620416"><ele>378.5</ele></trkpt>
   <trkpt lon="20.562337" lat="42.620071"><ele>379.0</ele></trkpt>
   <trkpt lon="20.562842" lat="42.620007"><ele>378.5</ele></trkpt>
   <trkpt lon="20.563249" lat="42.619980"><ele>378.0</ele></trkpt>
   <trkpt lon="20.563693" lat="42.619971"><ele>378.0</ele></trkpt>
   <trkpt lon="20.564136" lat="42.619980"><ele>378.0</ele></trkpt>
   <trkpt lon="20.564542" lat="42.620024"><ele>378.0</ele></trkpt>
   <trkpt lon="20.565096" lat="42.620114"><ele>378.0</ele></trkpt>
   <trkpt lon="20.566005" lat="42.620342"><ele>377.75</ele></trkpt>
   <trkpt lon="20.566892" lat="42.620580"><ele>378.0</ele></trkpt>
   <trkpt lon="20.568281" lat="42.620953"><ele>377.75</ele></trkpt>
   <trkpt lon="20.570719" lat="42.621590"><ele>376.75</ele></trkpt>
   <trkpt lon="20.571051" lat="42.621672"><ele>377.25</ele></trkpt>
   <trkpt lon="20.571378" lat="42.621734"><ele>377.5</ele></trkpt>
   <trkpt lon="20.571717" lat="42.621768"><ele>378.0</ele></trkpt>
   <trkpt lon="20.572156" lat="42.621795"><ele>378.75</ele></trkpt>
   <trkpt lon="20.572516" lat="42.621791"><ele>379.25</ele></trkpt>
   <trkpt lon="20.572831" lat="42.621763"><ele>380.25</ele></trkpt>
   <trkpt lon="20.573251" lat="42.621704"><ele>381.75</ele></trkpt>
   <trkpt lon="20.573752" lat="42.621590"><ele>383.5</ele></trkpt>
   <trkpt lon="20.573993" lat="42.621520"><ele>384.5</ele></trkpt>
   <trkpt lon="20.574081" lat="42.621494"><ele>384.75</ele></trkpt>
   <trkpt lon="20.574281" lat="42.621409"><ele>385.0</ele></trkpt>
   <trkpt lon="20.574612" lat="42.621253"><ele>385.25</ele></trkpt>
   <trkpt lon="20.575166" lat="42.620955"><ele>385.0</ele></trkpt>
   <trkpt lon="20.575853" lat="42.620548"><ele>384.0</ele></trkpt>
   <trkpt lon="20.576205" lat="42.620363"><ele>384.0</ele></trkpt>
   <trkpt lon="20.576569" lat="42.620226"><ele>384.5</ele></trkpt>
   <trkpt lon="20.577031" lat="42.620111"><ele>384.75</ele></trkpt>
   <trkpt lon="20.577476" lat="42.620039"><ele>385.25</ele></trkpt>
   <trkpt lon="20.578279" lat="42.620030"><ele>386.25</ele></trkpt>
   <trkpt lon="20.578476" lat="42.620038"><ele>386.0</ele></trkpt>
   <trkpt lon="20.578748" lat="42.620049"><ele>385.5</ele></trkpt>
   <trkpt lon="20.579221" lat="42.620128"><ele>385.5</ele></trkpt>
   <trkpt lon="20.579684" lat="42.620266"><ele>385.5</ele></trkpt>
   <trkpt lon="20.580075" lat="42.620421"><ele>385.25</ele></trkpt>
   <trkpt lon="20.580386" lat="42.620587"><ele>384.75</ele></trkpt>
   <trkpt lon="20.580731" lat="42.620832"><ele>384.25</ele></trkpt>
   <trkpt lon="20.581257" lat="42.621302"><ele>385.75</ele></trkpt>
   <trkpt lon="20.581539" lat="42.621560"><ele>384.75</ele></trkpt>
   <trkpt lon="20.581875" lat="42.621812"><ele>384.75</ele></trkpt>
   <trkpt lon="20.582206" lat="42.622115"><ele>385.5</ele></trkpt>
   <trkpt lon="20.582612" lat="42.622432"><ele>385.5</ele></trkpt>
   <trkpt lon="20.584459" lat="42.624158"><ele>386.5</ele></trkpt>
   <trkpt lon="20.584817" lat="42.624504"><ele>386.5</ele></trkpt>
   <trkpt lon="20.585380" lat="42.625017"><ele>385.0</ele></trkpt>
   <trkpt lon="20.586296" lat="42.625878"><ele>384.0</ele></trkpt>
   <trkpt lon="20.586600" lat="42.626152"><ele>384.25</ele></trkpt>
   <trkpt lon="20.587047" lat="42.626526"><ele>384.75</ele></trkpt>
   <trkpt lon="20.587926" lat="42.627233"><ele>386.5</ele></trkpt>
   <trkpt lon="20.588269" lat="42.627575"><ele>386.75</ele></trkpt>
   <trkpt lon="20.588567" lat="42.627883"><ele>388.25</ele></trkpt>
   <trkpt lon="20.588941" lat="42.628203"><ele>389.0</ele></trkpt>
   <trkpt lon="20.589265" lat="42.628436"><ele>389.5</ele></trkpt>
   <trkpt lon="20.589611" lat="42.628671"><ele>390.25</ele></trkpt>
   <trkpt lon="20.590021" lat="42.628907"><ele>390.25</ele></trkpt>
   <trkpt lon="20.590508" lat="42.629101"><ele>390.5</ele></trkpt>
   <trkpt lon="20.591313" lat="42.629332"><ele>391.0</ele></trkpt>
   <trkpt lon="20.591604" lat="42.629388"><ele>391.0</ele></trkpt>
   <trkpt lon="20.591901" lat="42.629432"><ele>391.75</ele></trkpt>
   <trkpt lon="20.592376" lat="42.629473"><ele>392.75</ele></trkpt>
   <trkpt lon="20.593081" lat="42.629484"><ele>393.25</ele></trkpt>
   <trkpt lon="20.593397" lat="42.629456"><ele>393.25</ele></trkpt>
   <trkpt lon="20.593764" lat="42.629412"><ele>393.5</ele></trkpt>
   <trkpt lon="20.594795" lat="42.629259"><ele>394.75</ele></trkpt>
   <trkpt lon="20.595587" lat="42.629149"><ele>395.0</ele></trkpt>
   <trkpt lon="20.596973" lat="42.628954"><ele>394.75</ele></trkpt>
   <trkpt lon="20.597235" lat="42.628911"><ele>395.5</ele></trkpt>
   <trkpt lon="20.597489" lat="42.628854"><ele>396.0</ele></trkpt>
   <trkpt lon="20.598436" lat="42.628601"><ele>399.25</ele></trkpt>
   <trkpt lon="20.599279" lat="42.628253"><ele>397.5</ele></trkpt>
   <trkpt lon="20.599620" lat="42.628075"><ele>396.75</ele></trkpt>
   <trkpt lon="20.599900" lat="42.627903"><ele>396.25</ele></trkpt>
   <trkpt lon="20.600143" lat="42.627735"><ele>395.5</ele></trkpt>
   <trkpt lon="20.600341" lat="42.627591"><ele>395.5</ele></trkpt>
   <trkpt lon="20.600813" lat="42.627136"><ele>396.75</ele></trkpt>
   <trkpt lon="20.601331" lat="42.626592"><ele>400.0</ele></trkpt>
   <trkpt lon="20.601914" lat="42.626038"><ele>399.0</ele></trkpt>
   <trkpt lon="20.602406" lat="42.625660"><ele>400.5</ele></trkpt>
   <trkpt lon="20.602916" lat="42.625306"><ele>402.25</ele></trkpt>
   <trkpt lon="20.603755" lat="42.624799"><ele>404.75</ele></trkpt>
   <trkpt lon="20.604404" lat="42.624361"><ele>406.0</ele></trkpt>
   <trkpt lon="20.604720" lat="42.624136"><ele>406.5</ele></trkpt>
   <trkpt lon="20.605022" lat="42.623911"><ele>407.5</ele></trkpt>
   <trkpt lon="20.605442" lat="42.623515"><ele>409.0</ele></trkpt>
   <trkpt lon="20.605826" lat="42.623097"><ele>408.75</ele></trkpt>
   <trkpt lon="20.606234" lat="42.622683"><ele>412.5</ele></trkpt>
   <trkpt lon="20.606660" lat="42.622283"><ele>415.75</ele></trkpt>
   <trkpt lon="20.607095" lat="42.621921"><ele>418.75</ele></trkpt>
   <trkpt lon="20.607602" lat="42.621598"><ele>414.75</ele></trkpt>
   <trkpt lon="20.608415" lat="42.621045"><ele>413.75</ele></trkpt>
   <trkpt lon="20.608898" lat="42.620709"><ele>415.75</ele></trkpt>
   <trkpt lon="20.609532" lat="42.620234"><ele>417.75</ele></trkpt>
   <trkpt lon="20.610245" lat="42.619689"><ele>420.0</ele></trkpt>
   <trkpt lon="20.610429" lat="42.619576"><ele>420.5</ele></trkpt>
   <trkpt lon="20.610639" lat="42.619485"><ele>421.0</ele></trkpt>
   <trkpt lon="20.610829" lat="42.619428"><ele>421.5</ele></trkpt>
   <trkpt lon="20.611022" lat="42.619384"><ele>422.0</ele></trkpt>
   <trkpt lon="20.611231" lat="42.619343"><ele>422.5</ele></trkpt>
   <trkpt lon="20.611410" lat="42.619321"><ele>423.0</ele></trkpt>
   <trkpt lon="20.611792" lat="42.619299"><ele>423.75</ele></trkpt>
   <trkpt lon="20.612514" lat="42.619282"><ele>425.5</ele></trkpt>
   <trkpt lon="20.614002" lat="42.619355"><ele>429.0</ele></trkpt>
   <trkpt lon="20.614311" lat="42.619388"><ele>429.0</ele></trkpt>
   <trkpt lon="20.614778" lat="42.619489"><ele>427.5</ele></trkpt>
   <trkpt lon="20.615502" lat="42.619615"><ele>425.25</ele></trkpt>
   <trkpt lon="20.616231" lat="42.619710"><ele>422.25</ele></trkpt>
   <trkpt lon="20.617656" lat="42.619822"><ele>417.75</ele></trkpt>
   <trkpt lon="20.618021" lat="42.619898"><ele>416.5</ele></trkpt>
   <trkpt lon="20.618347" lat="42.619986"><ele>414.75</ele></trkpt>
   <trkpt lon="20.618694" lat="42.620089"><ele>416.25</ele></trkpt>
   <trkpt lon="20.619267" lat="42.620382"><ele>420.25</ele></trkpt>
   <trkpt lon="20.619787" lat="42.620756"><ele>419.5</ele></trkpt>
   <trkpt lon="20.620335" lat="42.621372"><ele>427.0</ele></trkpt>
   <trkpt lon="20.620859" lat="42.621981"><ele>432.0</ele></trkpt>
   <trkpt lon="20.621239" lat="42.622342"><ele>438.0</ele></trkpt>
   <trkpt lon="20.621622" lat="42.622675"><ele>438.5</ele></trkpt>
   <trkpt lon="20.623013" lat="42.623591"><ele>443.25</ele></trkpt>
   <trkpt lon="20.624063" lat="42.624219"><ele>440.0</ele></trkpt>
   <trkpt lon="20.624522" lat="42.624591"><ele>442.0</ele></trkpt>
   <trkpt lon="20.625015" lat="42.624991"><ele>433.0</ele></trkpt>
   <trkpt lon="20.626503" lat="42.625925"><ele>439.75</ele></trkpt>
   <trkpt lon="20.631235" lat="42.627219"><ele>447.0</ele></trkpt>
   <trkpt lon="20.631845" lat="42.627365"><ele>432.0</ele></trkpt>
   <trkpt lon="20.632491" lat="42.627472"><ele>429.25</ele></trkpt>
   <trkpt lon="20.633143" lat="42.627545"><ele>428.75</ele></trkpt>
   <trkpt lon="20.633719" lat="42.627553"><ele>428.25</ele></trkpt>
   <trkpt lon="20.634361" lat="42.627548"><ele>428.0</ele></trkpt>
   <trkpt lon="20.635323" lat="42.627550"><ele>429.75</ele></trkpt>
   <trkpt lon="20.635859" lat="42.627586"><ele>431.25</ele></trkpt>
   <trkpt lon="20.636417" lat="42.627657"><ele>433.5</ele></trkpt>
   <trkpt lon="20.636957" lat="42.627756"><ele>436.0</ele></trkpt>
   <trkpt lon="20.637473" lat="42.627907"><ele>437.0</ele></trkpt>
   <trkpt lon="20.640183" lat="42.628728"><ele>434.75</ele></trkpt>
   <trkpt lon="20.645818" lat="42.630502"><ele>433.5</ele></trkpt>
   <trkpt lon="20.645915" lat="42.630531"><ele>433.0</ele></trkpt>
   <trkpt lon="20.645978" lat="42.630550"><ele>433.0</ele></trkpt>
   <trkpt lon="20.647003" lat="42.630865"><ele>431.25</ele></trkpt>
   <trkpt lon="20.647250" lat="42.630936"><ele>431.5</ele></trkpt>
   <trkpt lon="20.647613" lat="42.631018"><ele>432.0</ele></trkpt>
   <trkpt lon="20.647915" lat="42.631075"><ele>432.25</ele></trkpt>
   <trkpt lon="20.648257" lat="42.631097"><ele>432.25</ele></trkpt>
   <trkpt lon="20.648697" lat="42.631101"><ele>432.0</ele></trkpt>
   <trkpt lon="20.649072" lat="42.631062"><ele>432.0</ele></trkpt>
   <trkpt lon="20.649507" lat="42.631003"><ele>432.0</ele></trkpt>
   <trkpt lon="20.649959" lat="42.630901"><ele>432.0</ele></trkpt>
   <trkpt lon="20.650440" lat="42.630718"><ele>432.75</ele></trkpt>
   <trkpt lon="20.650773" lat="42.630549"><ele>432.75</ele></trkpt>
   <trkpt lon="20.650918" lat="42.630461"><ele>432.5</ele></trkpt>
   <trkpt lon="20.651061" lat="42.630385"><ele>432.25</ele></trkpt>
   <trkpt lon="20.651335" lat="42.630182"><ele>431.75</ele></trkpt>
   <trkpt lon="20.655229" lat="42.626949"><ele>435.0</ele></trkpt>
   <trkpt lon="20.655920" lat="42.626353"><ele>436.5</ele></trkpt>
   <trkpt lon="20.656233" lat="42.626111"><ele>436.75</ele></trkpt>
   <trkpt lon="20.656475" lat="42.625949"><ele>436.75</ele></trkpt>
   <trkpt lon="20.656732" lat="42.625809"><ele>437.0</ele></trkpt>
   <trkpt lon="20.656973" lat="42.625687"><ele>437.75</ele></trkpt>
   <trkpt lon="20.657298" lat="42.625563"><ele>438.5</ele></trkpt>
   <trkpt lon="20.657591" lat="42.625465"><ele>439.25</ele></trkpt>
   <trkpt lon="20.657944" lat="42.625387"><ele>440.25</ele></trkpt>
   <trkpt lon="20.658352" lat="42.625327"><ele>441.25</ele></trkpt>
   <trkpt lon="20.658755" lat="42.625299"><ele>442.5</ele></trkpt>
   <trkpt lon="20.659199" lat="42.625318"><ele>444.0</ele></trkpt>
   <trkpt lon="20.659618" lat="42.625353"><ele>443.75</ele></trkpt>
   <trkpt lon="20.661131" lat="42.625561"><ele>443.5</ele></trkpt>
   <trkpt lon="20.661869" lat="42.625651"><ele>445.0</ele></trkpt>
   <trkpt lon="20.662242" lat="42.625678"><ele>445.75</ele></trkpt>
   <trkpt lon="20.662748" lat="42.625699"><ele>447.0</ele></trkpt>
   <trkpt lon="20.663280" lat="42.625666"><ele>447.5</ele></trkpt>
   <trkpt lon="20.663791" lat="42.625620"><ele>448.75</ele></trkpt>
   <trkpt lon="20.664175" lat="42.625552"><ele>448.75</ele></trkpt>
   <trkpt lon="20.664859" lat="42.625401"><ele>450.5</ele></trkpt>
   <trkpt lon="20.665320" lat="42.625247"><ele>451.5</ele></trkpt>
   <trkpt lon="20.665779" lat="42.625053"><ele>450.25</ele></trkpt>
   <trkpt lon="20.666039" lat="42.624923"><ele>450.75</ele></trkpt>
   <trkpt lon="20.666286" lat="42.624781"><ele>451.5</ele></trkpt>
   <trkpt lon="20.667016" lat="42.624277"><ele>447.75</ele></trkpt>
   <trkpt lon="20.667381" lat="42.623938"><ele>446.75</ele></trkpt>
   <trkpt lon="20.667960" lat="42.623334"><ele>445.25</ele></trkpt>
   <trkpt lon="20.668260" lat="42.623010"><ele>446.25</ele></trkpt>
   <trkpt lon="20.668553" lat="42.622753"><ele>446.0</ele></trkpt>
   <trkpt lon="20.668995" lat="42.622455"><ele>444.75</ele></trkpt>
   <trkpt lon="20.669430" lat="42.622191"><ele>447.0</ele></trkpt>
   <trkpt lon="20.669958" lat="42.621958"><ele>450.0</ele></trkpt>
   <trkpt lon="20.670495" lat="42.621790"><ele>453.25</ele></trkpt>
   <trkpt lon="20.671018" lat="42.621680"><ele>455.25</ele></trkpt>
   <trkpt lon="20.671503" lat="42.621626"><ele>455.25</ele></trkpt>
   <trkpt lon="20.672056" lat="42.621585"><ele>453.75</ele></trkpt>
   <trkpt lon="20.672724" lat="42.621571"><ele>450.75</ele></trkpt>
   <trkpt lon="20.672797" lat="42.621572"><ele>450.5</ele></trkpt>
   <trkpt lon="20.673872" lat="42.621565"><ele>448.0</ele></trkpt>
   <trkpt lon="20.676722" lat="42.621566"><ele>454.5</ele></trkpt>
   <trkpt lon="20.677286" lat="42.621534"><ele>451.0</ele></trkpt>
   <trkpt lon="20.677970" lat="42.621486"><ele>449.0</ele></trkpt>
   <trkpt lon="20.678739" lat="42.621357"><ele>449.25</ele></trkpt>
   <trkpt lon="20.679440" lat="42.621182"><ele>450.25</ele></trkpt>
   <trkpt lon="20.680155" lat="42.620966"><ele>451.25</ele></trkpt>
   <trkpt lon="20.680831" lat="42.620713"><ele>452.5</ele></trkpt>
   <trkpt lon="20.681338" lat="42.620491"><ele>452.5</ele></trkpt>
   <trkpt lon="20.683425" lat="42.619332"><ele>456.25</ele></trkpt>
   <trkpt lon="20.686964" lat="42.617345"><ele>460.25</ele></trkpt>
   <trkpt lon="20.688624" lat="42.616435"><ele>459.0</ele></trkpt>
   <trkpt lon="20.690407" lat="42.615411"><ele>464.25</ele></trkpt>
   <trkpt lon="20.690901" lat="42.615144"><ele>465.25</ele></trkpt>
   <trkpt lon="20.691277" lat="42.614965"><ele>465.5</ele></trkpt>
   <trkpt lon="20.691716" lat="42.614809"><ele>466.0</ele></trkpt>
   <trkpt lon="20.692081" lat="42.614689"><ele>466.25</ele></trkpt>
   <trkpt lon="20.692797" lat="42.614541"><ele>465.5</ele></trkpt>
   <trkpt lon="20.693307" lat="42.614467"><ele>465.5</ele></trkpt>
   <trkpt lon="20.693679" lat="42.614437"><ele>465.0</ele></trkpt>
   <trkpt lon="20.694789" lat="42.614413"><ele>463.75</ele></trkpt>
   <trkpt lon="20.695065" lat="42.614438"><ele>463.5</ele></trkpt>
   <trkpt lon="20.695645" lat="42.614441"><ele>463.75</ele></trkpt>
   <trkpt lon="20.695938" lat="42.614415"><ele>464.25</ele></trkpt>
   <trkpt lon="20.696266" lat="42.614404"><ele>464.5</ele></trkpt>
   <trkpt lon="20.697365" lat="42.614416"><ele>465.25</ele></trkpt>
   <trkpt lon="20.703907" lat="42.614435"><ele>464.5</ele></trkpt>
   <trkpt lon="20.704253" lat="42.614450"><ele>464.5</ele></trkpt>
   <trkpt lon="20.704694" lat="42.614485"><ele>464.25</ele></trkpt>
   <trkpt lon="20.705431" lat="42.614488"><ele>465.5</ele></trkpt>
   <trkpt lon="20.705911" lat="42.614458"><ele>467.0</ele></trkpt>
   <trkpt lon="20.706325" lat="42.614521"><ele>467.5</ele></trkpt>
   <trkpt lon="20.706752" lat="42.614625"><ele>468.0</ele></trkpt>
   <trkpt lon="20.707393" lat="42.614866"><ele>469.75</ele></trkpt>
   <trkpt lon="20.708359" lat="42.615488"><ele>471.5</ele></trkpt>
   <trkpt lon="20.710435" lat="42.617038"><ele>470.25</ele></trkpt>
   <trkpt lon="20.710976" lat="42.617538"><ele>469.25</ele></trkpt>
   <trkpt lon="20.712154" lat="42.618735"><ele>472.0</ele></trkpt>
   <trkpt lon="20.712493" lat="42.619374"><ele>470.25</ele></trkpt>
   <trkpt lon="20.712636" lat="42.619664"><ele>471.25</ele></trkpt>
   <trkpt lon="20.712744" lat="42.619925"><ele>471.25</ele></trkpt>
   <trkpt lon="20.712847" lat="42.620261"><ele>470.75</ele></trkpt>
   <trkpt lon="20.712894" lat="42.620494"><ele>470.25</ele></trkpt>
   <trkpt lon="20.712983" lat="42.621156"><ele>470.25</ele></trkpt>
   <trkpt lon="20.713032" lat="42.621640"><ele>471.5</ele></trkpt>
   <trkpt lon="20.713113" lat="42.622329"><ele>489.0</ele></trkpt>
   <trkpt lon="20.713244" lat="42.623492"><ele>494.25</ele></trkpt>
   <trkpt lon="20.713257" lat="42.623617"><ele>490.5</ele></trkpt>
   <trkpt lon="20.713297" lat="42.624077"><ele>477.5</ele></trkpt>
   <trkpt lon="20.713501" lat="42.625807"><ele>482.5</ele></trkpt>
   <trkpt lon="20.713560" lat="42.626120"><ele>481.25</ele></trkpt>
   <trkpt lon="20.713595" lat="42.626247"><ele>480.5</ele></trkpt>
   <trkpt lon="20.713668" lat="42.626470"><ele>479.75</ele></trkpt>
   <trkpt lon="20.713724" lat="42.626582"><ele>479.25</ele></trkpt>
   <trkpt lon="20.713898" lat="42.626908"><ele>479.25</ele></trkpt>
   <trkpt lon="20.714005" lat="42.627070"><ele>479.25</ele></trkpt>
   <trkpt lon="20.714134" lat="42.627255"><ele>479.0</ele></trkpt>
   <trkpt lon="20.714397" lat="42.627559"><ele>481.25</ele></trkpt>
   <trkpt lon="20.714590" lat="42.627743"><ele>482.75</ele></trkpt>
   <trkpt lon="20.715628" lat="42.628601"><ele>485.5</ele></trkpt>
   <trkpt lon="20.715777" lat="42.628714"><ele>486.25</ele></trkpt>
   <trkpt lon="20.715986" lat="42.628860"><ele>486.5</ele></trkpt>
   <trkpt lon="20.716166" lat="42.628963"><ele>486.75</ele></trkpt>
   <trkpt lon="20.716357" lat="42.629059"><ele>486.5</ele></trkpt>
   <trkpt lon="20.716710" lat="42.629217"><ele>487.75</ele></trkpt>
   <trkpt lon="20.717435" lat="42.629483"><ele>496.0</ele></trkpt>
   <trkpt lon="20.719620" lat="42.630331"><ele>498.5</ele></trkpt>
   <trkpt lon="20.719829" lat="42.630397"><ele>497.5</ele></trkpt>
   <trkpt lon="20.720067" lat="42.630459"><ele>496.25</ele></trkpt>
   <trkpt lon="20.720297" lat="42.630502"><ele>496.25</ele></trkpt>
   <trkpt lon="20.720368" lat="42.630514"><ele>496.0</ele></trkpt>
   <trkpt lon="20.720617" lat="42.630545"><ele>495.25</ele></trkpt>
   <trkpt lon="20.720702" lat="42.630550"><ele>495.0</ele></trkpt>
   <trkpt lon="20.721044" lat="42.630550"><ele>495.0</ele></trkpt>
   <trkpt lon="20.721484" lat="42.630521"><ele>496.5</ele></trkpt>
   <trkpt lon="20.721961" lat="42.630458"><ele>496.75</ele></trkpt>
   <trkpt lon="20.722175" lat="42.630410"><ele>496.0</ele></trkpt>
   <trkpt lon="20.722347" lat="42.630363"><ele>495.0</ele></trkpt>
   <trkpt lon="20.723435" lat="42.629955"><ele>496.25</ele></trkpt>
   <trkpt lon="20.723932" lat="42.629770"><ele>496.75</ele></trkpt>
   <trkpt lon="20.724144" lat="42.629706"><ele>497.0</ele></trkpt>
   <trkpt lon="20.724370" lat="42.629659"><ele>497.25</ele></trkpt>
   <trkpt lon="20.724568" lat="42.629629"><ele>497.5</ele></trkpt>
   <trkpt lon="20.724855" lat="42.629607"><ele>498.0</ele></trkpt>
   <trkpt lon="20.725913" lat="42.629553"><ele>498.0</ele></trkpt>
   <trkpt lon="20.725999" lat="42.629545"><ele>498.25</ele></trkpt>
   <trkpt lon="20.726352" lat="42.629518"><ele>499.5</ele></trkpt>
   <trkpt lon="20.726848" lat="42.629456"><ele>501.25</ele></trkpt>
   <trkpt lon="20.727183" lat="42.629396"><ele>502.25</ele></trkpt>
   <trkpt lon="20.727366" lat="42.629353"><ele>502.0</ele></trkpt>
   <trkpt lon="20.727532" lat="42.629301"><ele>501.5</ele></trkpt>
   <trkpt lon="20.727696" lat="42.629240"><ele>501.25</ele></trkpt>
   <trkpt lon="20.727960" lat="42.629125"><ele>501.75</ele></trkpt>
   <trkpt lon="20.728204" lat="42.628997"><ele>503.5</ele></trkpt>
   <trkpt lon="20.728321" lat="42.628925"><ele>503.5</ele></trkpt>
   <trkpt lon="20.728524" lat="42.628782"><ele>503.75</ele></trkpt>
   <trkpt lon="20.728625" lat="42.628704"><ele>503.75</ele></trkpt>
   <trkpt lon="20.728713" lat="42.628619"><ele>503.0</ele></trkpt>
   <trkpt lon="20.728828" lat="42.628509"><ele>502.0</ele></trkpt>
   <trkpt lon="20.728951" lat="42.628372"><ele>500.0</ele></trkpt>
   <trkpt lon="20.729321" lat="42.627828"><ele>502.5</ele></trkpt>
   <trkpt lon="20.729534" lat="42.627238"><ele>506.0</ele></trkpt>
   <trkpt lon="20.729691" lat="42.626775"><ele>510.0</ele></trkpt>
   <trkpt lon="20.729843" lat="42.626371"><ele>512.75</ele></trkpt>
   <trkpt lon="20.730073" lat="42.625993"><ele>511.5</ele></trkpt>
   <trkpt lon="20.730429" lat="42.625669"><ele>512.0</ele></trkpt>
   <trkpt lon="20.730840" lat="42.625374"><ele>508.5</ele></trkpt>
   <trkpt lon="20.730910" lat="42.625345"><ele>509.25</ele></trkpt>
   <trkpt lon="20.731011" lat="42.625302"><ele>510.25</ele></trkpt>
   <trkpt lon="20.731639" lat="42.625037"><ele>511.25</ele></trkpt>
   <trkpt lon="20.732921" lat="42.624573"><ele>516.25</ele></trkpt>
   <trkpt lon="20.733469" lat="42.624246"><ele>512.75</ele></trkpt>
   <trkpt lon="20.733753" lat="42.623998"><ele>514.0</ele></trkpt>
   <trkpt lon="20.733994" lat="42.623700"><ele>514.5</ele></trkpt>
   <trkpt lon="20.734329" lat="42.623236"><ele>515.5</ele></trkpt>
   <trkpt lon="20.734536" lat="42.622933"><ele>516.75</ele></trkpt>
   <trkpt lon="20.734829" lat="42.622545"><ele>515.5</ele></trkpt>
   <trkpt lon="20.735335" lat="42.622063"><ele>518.0</ele></trkpt>
   <trkpt lon="20.736723" lat="42.620767"><ele>517.5</ele></trkpt>
   <trkpt lon="20.737415" lat="42.620138"><ele>521.0</ele></trkpt>
   <trkpt lon="20.737765" lat="42.619779"><ele>522.5</ele></trkpt>
   <trkpt lon="20.738083" lat="42.619426"><ele>522.25</ele></trkpt>
   <trkpt lon="20.738339" lat="42.619073"><ele>520.0</ele></trkpt>
   <trkpt lon="20.739397" lat="42.616530"><ele>531.75</ele></trkpt>
   <trkpt lon="20.739432" lat="42.616446"><ele>532.5</ele></trkpt>
   <trkpt lon="20.740419" lat="42.614075"><ele>535.25</ele></trkpt>
   <trkpt lon="20.740456" lat="42.613987"><ele>535.25</ele></trkpt>
   <trkpt lon="20.741012" lat="42.612582"><ele>536.0</ele></trkpt>
   <trkpt lon="20.741046" lat="42.612499"><ele>535.75</ele></trkpt>
   <trkpt lon="20.741158" lat="42.612205"><ele>536.25</ele></trkpt>
   <trkpt lon="20.741270" lat="42.611840"><ele>535.25</ele></trkpt>
   <trkpt lon="20.741313" lat="42.611641"><ele>534.5</ele></trkpt>
   <trkpt lon="20.741352" lat="42.611185"><ele>538.0</ele></trkpt>
   <trkpt lon="20.741291" lat="42.610699"><ele>542.0</ele></trkpt>
   <trkpt lon="20.741125" lat="42.609852"><ele>544.25</ele></trkpt>
   <trkpt lon="20.741076" lat="42.609211"><ele>542.75</ele></trkpt>
   <trkpt lon="20.741268" lat="42.607829"><ele>547.5</ele></trkpt>
   <trkpt lon="20.741424" lat="42.607267"><ele>545.0</ele></trkpt>
   <trkpt lon="20.741585" lat="42.606970"><ele>541.0</ele></trkpt>
   <trkpt lon="20.741675" lat="42.606842"><ele>539.25</ele></trkpt>
   <trkpt lon="20.741748" lat="42.606749"><ele>540.0</ele></trkpt>
   <trkpt lon="20.742084" lat="42.606386"><ele>543.5</ele></trkpt>
   <trkpt lon="20.742299" lat="42.606216"><ele>545.0</ele></trkpt>
   <trkpt lon="20.742539" lat="42.606072"><ele>546.5</ele></trkpt>
   <trkpt lon="20.742833" lat="42.605909"><ele>547.75</ele></trkpt>
   <trkpt lon="20.743182" lat="42.605769"><ele>548.75</ele></trkpt>
   <trkpt lon="20.743593" lat="42.605629"><ele>549.0</ele></trkpt>
   <trkpt lon="20.744036" lat="42.605545"><ele>548.0</ele></trkpt>
   <trkpt lon="20.744521" lat="42.605462"><ele>546.75</ele></trkpt>
   <trkpt lon="20.745153" lat="42.605365"><ele>545.5</ele></trkpt>
   <trkpt lon="20.747101" lat="42.605045"><ele>543.75</ele></trkpt>
   <trkpt lon="20.747635" lat="42.604926"><ele>544.75</ele></trkpt>
   <trkpt lon="20.748086" lat="42.604811"><ele>547.75</ele></trkpt>
   <trkpt lon="20.749831" lat="42.604242"><ele>545.75</ele></trkpt>
   <trkpt lon="20.750971" lat="42.603870"><ele>547.75</ele></trkpt>
   <trkpt lon="20.751382" lat="42.603756"><ele>547.0</ele></trkpt>
   <trkpt lon="20.751670" lat="42.603666"><ele>546.0</ele></trkpt>
   <trkpt lon="20.751804" lat="42.603619"><ele>546.0</ele></trkpt>
   <trkpt lon="20.752518" lat="42.603404"><ele>545.25</ele></trkpt>
   <trkpt lon="20.752699" lat="42.603361"><ele>545.75</ele></trkpt>
   <trkpt lon="20.752903" lat="42.603328"><ele>546.25</ele></trkpt>
   <trkpt lon="20.753340" lat="42.603270"><ele>548.5</ele></trkpt>
   <trkpt lon="20.753560" lat="42.603257"><ele>549.25</ele></trkpt>
   <trkpt lon="20.753756" lat="42.603249"><ele>550.0</ele></trkpt>
   <trkpt lon="20.753935" lat="42.603255"><ele>550.5</ele></trkpt>
   <trkpt lon="20.754113" lat="42.603269"><ele>550.75</ele></trkpt>
   <trkpt lon="20.754480" lat="42.603324"><ele>550.0</ele></trkpt>
   <trkpt lon="20.756780" lat="42.603841"><ele>556.75</ele></trkpt>
   <trkpt lon="20.759043" lat="42.604338"><ele>559.25</ele></trkpt>
   <trkpt lon="20.759705" lat="42.604505"><ele>559.25</ele></trkpt>
   <trkpt lon="20.760684" lat="42.604765"><ele>558.5</ele></trkpt>
   <trkpt lon="20.760778" lat="42.604793"><ele>558.25</ele></trkpt>
   <trkpt lon="20.761927" lat="42.605100"><ele>565.25</ele></trkpt>
   <trkpt lon="20.764314" lat="42.605664"><ele>571.5</ele></trkpt>
   <trkpt lon="20.764458" lat="42.605693"><ele>571.0</ele></trkpt>
   <trkpt lon="20.765040" lat="42.605805"><ele>568.5</ele></trkpt>
   <trkpt lon="20.767958" lat="42.606394"><ele>572.5</ele></trkpt>
   <trkpt lon="20.768754" lat="42.606595"><ele>572.5</ele></trkpt>
   <trkpt lon="20.769407" lat="42.606812"><ele>574.5</ele></trkpt>
   <trkpt lon="20.769734" lat="42.606935"><ele>576.5</ele></trkpt>
   <trkpt lon="20.770140" lat="42.607113"><ele>579.0</ele></trkpt>
   <trkpt lon="20.770598" lat="42.607337"><ele>579.0</ele></trkpt>
   <trkpt lon="20.770791" lat="42.607464"><ele>578.25</ele></trkpt>
   <trkpt lon="20.771638" lat="42.607985"><ele>579.75</ele></trkpt>
   <trkpt lon="20.772078" lat="42.608234"><ele>580.75</ele></trkpt>
   <trkpt lon="20.772615" lat="42.608486"><ele>581.0</ele></trkpt>
   <trkpt lon="20.773034" lat="42.608675"><ele>582.25</ele></trkpt>
   <trkpt lon="20.773488" lat="42.608855"><ele>582.25</ele></trkpt>
   <trkpt lon="20.773974" lat="42.609013"><ele>580.5</ele></trkpt>
   <trkpt lon="20.774390" lat="42.609128"><ele>579.0</ele></trkpt>
   <trkpt lon="20.774624" lat="42.609185"><ele>578.75</ele></trkpt>
   <trkpt lon="20.775763" lat="42.609410"><ele>585.75</ele></trkpt>
   <trkpt lon="20.776158" lat="42.609507"><ele>587.0</ele></trkpt>
   <trkpt lon="20.776442" lat="42.609589"><ele>587.75</ele></trkpt>
   <trkpt lon="20.776665" lat="42.609665"><ele>588.0</ele></trkpt>
   <trkpt lon="20.776949" lat="42.609767"><ele>588.0</ele></trkpt>
   <trkpt lon="20.777569" lat="42.610006"><ele>586.75</ele></trkpt>
   <trkpt lon="20.777829" lat="42.610121"><ele>587.5</ele></trkpt>
   <trkpt lon="20.778035" lat="42.610223"><ele>588.25</ele></trkpt>
   <trkpt lon="20.778581" lat="42.610535"><ele>589.5</ele></trkpt>
   <trkpt lon="20.779720" lat="42.611309"><ele>590.5</ele></trkpt>
   <trkpt lon="20.782362" lat="42.613358"><ele>592.5</ele></trkpt>
   <trkpt lon="20.782989" lat="42.613966"><ele>593.5</ele></trkpt>
   <trkpt lon="20.783610" lat="42.614516"><ele>594.75</ele></trkpt>
   <trkpt lon="20.784070" lat="42.614900"><ele>596.5</ele></trkpt>
   <trkpt lon="20.784577" lat="42.615351"><ele>598.5</ele></trkpt>
   <trkpt lon="20.786741" lat="42.617201"><ele>603.5</ele></trkpt>
   <trkpt lon="20.787222" lat="42.617583"><ele>604.75</ele></trkpt>
   <trkpt lon="20.787841" lat="42.618042"><ele>605.25</ele></trkpt>
   <trkpt lon="20.788126" lat="42.618232"><ele>604.5</ele></trkpt>
   <trkpt lon="20.788498" lat="42.618464"><ele>605.0</ele></trkpt>
   <trkpt lon="20.788840" lat="42.618657"><ele>606.0</ele></trkpt>
   <trkpt lon="20.789547" lat="42.619035"><ele>606.25</ele></trkpt>
   <trkpt lon="20.789885" lat="42.619195"><ele>605.5</ele></trkpt>
   <trkpt lon="20.790529" lat="42.619485"><ele>608.25</ele></trkpt>
   <trkpt lon="20.791165" lat="42.619728"><ele>610.0</ele></trkpt>
   <trkpt lon="20.791455" lat="42.619828"><ele>609.75</ele></trkpt>
   <trkpt lon="20.792523" lat="42.620174"><ele>610.25</ele></trkpt>
   <trkpt lon="20.795551" lat="42.621099"><ele>615.5</ele></trkpt>
   <trkpt lon="20.796328" lat="42.621312"><ele>619.5</ele></trkpt>
   <trkpt lon="20.797260" lat="42.621582"><ele>622.0</ele></trkpt>
   <trkpt lon="20.797511" lat="42.621674"><ele>621.75</ele></trkpt>
   <trkpt lon="20.798116" lat="42.621920"><ele>620.0</ele></trkpt>
   <trkpt lon="20.798678" lat="42.622169"><ele>619.25</ele></trkpt>
   <trkpt lon="20.799332" lat="42.622479"><ele>620.0</ele></trkpt>
   <trkpt lon="20.800469" lat="42.623077"><ele>625.25</ele></trkpt>
   <trkpt lon="20.800967" lat="42.623366"><ele>626.0</ele></trkpt>
   <trkpt lon="20.804564" lat="42.625201"><ele>647.5</ele></trkpt>
   <trkpt lon="20.816324" lat="42.630263"><ele>651.75</ele></trkpt>
   <trkpt lon="20.817554" lat="42.630795"><ele>649.0</ele></trkpt>
   <trkpt lon="20.818800" lat="42.631122"><ele>648.5</ele></trkpt>
   <trkpt lon="20.820072" lat="42.631410"><ele>645.0</ele></trkpt>
   <trkpt lon="20.821294" lat="42.631619"><ele>646.5</ele></trkpt>
   <trkpt lon="20.822141" lat="42.631599"><ele>644.5</ele></trkpt>
   <trkpt lon="20.822946" lat="42.631507"><ele>641.5</ele></trkpt>
   <trkpt lon="20.825568" lat="42.630912"><ele>636.75</ele></trkpt>
   <trkpt lon="20.825810" lat="42.630859"><ele>637.5</ele></trkpt>
   <trkpt lon="20.828865" lat="42.630189"><ele>631.25</ele></trkpt>
   <trkpt lon="20.829376" lat="42.630097"><ele>631.75</ele></trkpt>
   <trkpt lon="20.830093" lat="42.629995"><ele>632.0</ele></trkpt>
   <trkpt lon="20.830997" lat="42.629915"><ele>634.0</ele></trkpt>
   <trkpt lon="20.832989" lat="42.629774"><ele>632.75</ele></trkpt>
   <trkpt lon="20.833956" lat="42.629632"><ele>632.0</ele></trkpt>
   <trkpt lon="20.835394" lat="42.629336"><ele>628.5</ele></trkpt>
   <trkpt lon="20.836088" lat="42.629122"><ele>626.75</ele></trkpt>
   <trkpt lon="20.836800" lat="42.628882"><ele>624.5</ele></trkpt>
   <trkpt lon="20.839571" lat="42.627734"><ele>625.5</ele></trkpt>
   <trkpt lon="20.840739" lat="42.627223"><ele>626.5</ele></trkpt>
   <trkpt lon="20.841945" lat="42.626630"><ele>630.25</ele></trkpt>
   <trkpt lon="20.845298" lat="42.624855"><ele>615.25</ele></trkpt>
   <trkpt lon="20.846805" lat="42.623928"><ele>618.0</ele></trkpt>
   <trkpt lon="20.847734" lat="42.623224"><ele>618.75</ele></trkpt>
   <trkpt lon="20.850265" lat="42.620848"><ele>613.25</ele></trkpt>
   <trkpt lon="20.851564" lat="42.619651"><ele>613.5</ele></trkpt>
   <trkpt lon="20.852256" lat="42.619135"><ele>611.0</ele></trkpt>
   <trkpt lon="20.853029" lat="42.618695"><ele>608.5</ele></trkpt>
   <trkpt lon="20.853646" lat="42.618361"><ele>607.25</ele></trkpt>
   <trkpt lon="20.854640" lat="42.617885"><ele>608.75</ele></trkpt>
   <trkpt lon="20.855340" lat="42.617567"><ele>607.75</ele></trkpt>
   <trkpt lon="20.857969" lat="42.616392"><ele>605.75</ele></trkpt>
   <trkpt lon="20.858852" lat="42.615979"><ele>604.5</ele></trkpt>
   <trkpt lon="20.860705" lat="42.615310"><ele>600.0</ele></trkpt>
   <trkpt lon="20.861419" lat="42.615134"><ele>601.0</ele></trkpt>
   <trkpt lon="20.862349" lat="42.614927"><ele>603.0</ele></trkpt>
   <trkpt lon="20.863269" lat="42.614806"><ele>601.0</ele></trkpt>
   <trkpt lon="20.864276" lat="42.614730"><ele>600.75</ele></trkpt>
   <trkpt lon="20.865770" lat="42.614711"><ele>599.75</ele></trkpt>
   <trkpt lon="20.871126" lat="42.614997"><ele>593.0</ele></trkpt>
   <trkpt lon="20.871215" lat="42.615002"><ele>593.0</ele></trkpt>
   <trkpt lon="20.871698" lat="42.615045"><ele>593.0</ele></trkpt>
   <trkpt lon="20.872591" lat="42.615052"><ele>593.75</ele></trkpt>
   <trkpt lon="20.873394" lat="42.615017"><ele>592.75</ele></trkpt>
   <trkpt lon="20.874566" lat="42.614953"><ele>591.25</ele></trkpt>
   <trkpt lon="20.876164" lat="42.614847"><ele>590.5</ele></trkpt>
   <trkpt lon="20.877682" lat="42.614756"><ele>587.25</ele></trkpt>
   <trkpt lon="20.879156" lat="42.614646"><ele>587.5</ele></trkpt>
   <trkpt lon="20.880407" lat="42.614614"><ele>586.75</ele></trkpt>
   <trkpt lon="20.881048" lat="42.614614"><ele>585.5</ele></trkpt>
   <trkpt lon="20.881933" lat="42.614644"><ele>585.5</ele></trkpt>
   <trkpt lon="20.883313" lat="42.614792"><ele>581.75</ele></trkpt>
   <trkpt lon="20.883751" lat="42.614881"><ele>581.25</ele></trkpt>
   <trkpt lon="20.884011" lat="42.614924"><ele>581.25</ele></trkpt>
   <trkpt lon="20.886841" lat="42.615499"><ele>581.5</ele></trkpt>
   <trkpt lon="20.888249" lat="42.615795"><ele>578.25</ele></trkpt>
   <trkpt lon="20.889565" lat="42.616200"><ele>576.25</ele></trkpt>
   <trkpt lon="20.890078" lat="42.616453"><ele>578.5</ele></trkpt>
   <trkpt lon="20.890566" lat="42.616718"><ele>578.0</ele></trkpt>
   <trkpt lon="20.891450" lat="42.617404"><ele>573.25</ele></trkpt>
   <trkpt lon="20.892504" lat="42.618544"><ele>574.75</ele></trkpt>
   <trkpt lon="20.892708" lat="42.618749"><ele>574.0</ele></trkpt>
   <trkpt lon="20.893557" lat="42.619663"><ele>573.75</ele></trkpt>
   <trkpt lon="20.895391" lat="42.621663"><ele>575.5</ele></trkpt>
   <trkpt lon="20.895662" lat="42.621937"><ele>575.75</ele></trkpt>
   <trkpt lon="20.897722" lat="42.624144"><ele>577.0</ele></trkpt>
   <trkpt lon="20.899082" lat="42.625629"><ele>576.5</ele></trkpt>
   <trkpt lon="20.899520" lat="42.626088"><ele>576.0</ele></trkpt>
   <trkpt lon="20.900055" lat="42.626673"><ele>576.0</ele></trkpt>
   <trkpt lon="20.900596" lat="42.627242"><ele>578.25</ele></trkpt>
   <trkpt lon="20.900975" lat="42.627661"><ele>578.0</ele></trkpt>
   <trkpt lon="20.901260" lat="42.627958"><ele>576.5</ele></trkpt>
   <trkpt lon="20.902030" lat="42.628780"><ele>575.25</ele></trkpt>
   <trkpt lon="20.904472" lat="42.631353"><ele>573.75</ele></trkpt>
   <trkpt lon="20.904828" lat="42.631751"><ele>573.25</ele></trkpt>
   <trkpt lon="20.905153" lat="42.632021"><ele>572.25</ele></trkpt>
   <trkpt lon="20.905496" lat="42.632262"><ele>571.5</ele></trkpt>
   <trkpt lon="20.905770" lat="42.632420"><ele>571.0</ele></trkpt>
   <trkpt lon="20.906113" lat="42.632566"><ele>571.75</ele></trkpt>
   <trkpt lon="20.906371" lat="42.632656"><ele>573.0</ele></trkpt>
   <trkpt lon="20.906746" lat="42.632747"><ele>574.0</ele></trkpt>
   <trkpt lon="20.907127" lat="42.632806"><ele>574.5</ele></trkpt>
   <trkpt lon="20.907519" lat="42.632830"><ele>574.75</ele></trkpt>
   <trkpt lon="20.907942" lat="42.632846"><ele>575.25</ele></trkpt>
   <trkpt lon="20.908500" lat="42.632826"><ele>575.0</ele></trkpt>
   <trkpt lon="20.911483" lat="42.632598"><ele>576.75</ele></trkpt>
   <trkpt lon="20.911923" lat="42.632605"><ele>577.75</ele></trkpt>
   <trkpt lon="20.912352" lat="42.632660"><ele>578.75</ele></trkpt>
   <trkpt lon="20.912984" lat="42.632789"><ele>579.75</ele></trkpt>
   <trkpt lon="20.913312" lat="42.632895"><ele>580.5</ele></trkpt>
   <trkpt lon="20.913773" lat="42.633116"><ele>579.25</ele></trkpt>
   <trkpt lon="20.914036" lat="42.633274"><ele>577.25</ele></trkpt>
   <trkpt lon="20.914368" lat="42.633503"><ele>577.25</ele></trkpt>
   <trkpt lon="20.914615" lat="42.633732"><ele>578.25</ele></trkpt>
   <trkpt lon="20.915007" lat="42.634123"><ele>576.5</ele></trkpt>
   <trkpt lon="20.916028" lat="42.635190"><ele>579.5</ele></trkpt>
   <trkpt lon="20.916566" lat="42.635751"><ele>577.5</ele></trkpt>
   <trkpt lon="20.916835" lat="42.635999"><ele>576.75</ele></trkpt>
   <trkpt lon="20.917193" lat="42.636275"><ele>577.75</ele></trkpt>
   <trkpt lon="20.917486" lat="42.636467"><ele>578.0</ele></trkpt>
   <trkpt lon="20.918351" lat="42.636912"><ele>578.5</ele></trkpt>
   <trkpt lon="20.918653" lat="42.637071"><ele>578.75</ele></trkpt>
   <trkpt lon="20.918810" lat="42.637173"><ele>579.0</ele></trkpt>
   <trkpt lon="20.919003" lat="42.637311"><ele>579.25</ele></trkpt>
   <trkpt lon="20.919132" lat="42.637453"><ele>579.25</ele></trkpt>
   <trkpt lon="20.919411" lat="42.637825"><ele>579.75</ele></trkpt>
   <trkpt lon="20.919529" lat="42.638006"><ele>580.0</ele></trkpt>
   <trkpt lon="20.919652" lat="42.638215"><ele>580.0</ele></trkpt>
   <trkpt lon="20.919840" lat="42.638641"><ele>580.5</ele></trkpt>
   <trkpt lon="20.919926" lat="42.638862"><ele>580.75</ele></trkpt>
   <trkpt lon="20.919990" lat="42.639083"><ele>581.0</ele></trkpt>
   <trkpt lon="20.920017" lat="42.639288"><ele>581.0</ele></trkpt>
   <trkpt lon="20.919975" lat="42.639677"><ele>581.25</ele></trkpt>
   <trkpt lon="20.919916" lat="42.639906"><ele>578.5</ele></trkpt>
   <trkpt lon="20.919755" lat="42.640297"><ele>576.5</ele></trkpt>
   <trkpt lon="20.919626" lat="42.640502"><ele>575.75</ele></trkpt>
   <trkpt lon="20.919406" lat="42.640766"><ele>575.25</ele></trkpt>
   <trkpt lon="20.919235" lat="42.640956"><ele>574.75</ele></trkpt>
   <trkpt lon="20.918984" lat="42.641169"><ele>574.75</ele></trkpt>
   <trkpt lon="20.918667" lat="42.641386"><ele>574.25</ele></trkpt>
   <trkpt lon="20.917153" lat="42.642345"><ele>573.25</ele></trkpt>
   <trkpt lon="20.916206" lat="42.642952"><ele>571.0</ele></trkpt>
   <trkpt lon="20.915512" lat="42.643414"><ele>570.5</ele></trkpt>
   <trkpt lon="20.915227" lat="42.643655"><ele>571.25</ele></trkpt>
   <trkpt lon="20.914991" lat="42.643951"><ele>571.75</ele></trkpt>
   <trkpt lon="20.914820" lat="42.644227"><ele>571.0</ele></trkpt>
   <trkpt lon="20.914696" lat="42.644550"><ele>569.75</ele></trkpt>
   <trkpt lon="20.914621" lat="42.644819"><ele>568.75</ele></trkpt>
   <trkpt lon="20.914567" lat="42.645123"><ele>568.5</ele></trkpt>
   <trkpt lon="20.914573" lat="42.645383"><ele>568.5</ele></trkpt>
   <trkpt lon="20.914616" lat="42.645691"><ele>568.25</ele></trkpt>
   <trkpt lon="20.914696" lat="42.645967"><ele>568.25</ele></trkpt>
   <trkpt lon="20.914814" lat="42.646220"><ele>568.25</ele></trkpt>
   <trkpt lon="20.914948" lat="42.646444"><ele>568.5</ele></trkpt>
   <trkpt lon="20.915131" lat="42.646673"><ele>568.5</ele></trkpt>
   <trkpt lon="20.915447" lat="42.646997"><ele>569.5</ele></trkpt>
   <trkpt lon="20.915796" lat="42.647245"><ele>570.25</ele></trkpt>
   <trkpt lon="20.916987" lat="42.647987"><ele>570.75</ele></trkpt>
   <trkpt lon="20.917518" lat="42.648256"><ele>570.5</ele></trkpt>
   <trkpt lon="20.918027" lat="42.648475"><ele>570.25</ele></trkpt>
   <trkpt lon="20.918440" lat="42.648621"><ele>570.5</ele></trkpt>
   <trkpt lon="20.918582" lat="42.648652"><ele>570.75</ele></trkpt>
   <trkpt lon="20.919235" lat="42.648804"><ele>571.25</ele></trkpt>
   <trkpt lon="20.920066" lat="42.648903"><ele>571.25</ele></trkpt>
   <trkpt lon="20.920817" lat="42.648970"><ele>570.25</ele></trkpt>
   <trkpt lon="20.921359" lat="42.649012"><ele>568.5</ele></trkpt>
   <trkpt lon="20.921772" lat="42.649025"><ele>567.5</ele></trkpt>
   <trkpt lon="20.922367" lat="42.649072"><ele>568.5</ele></trkpt>
   <trkpt lon="20.922791" lat="42.649124"><ele>568.5</ele></trkpt>
   <trkpt lon="20.923156" lat="42.649195"><ele>568.25</ele></trkpt>
   <trkpt lon="20.923489" lat="42.649281"><ele>568.75</ele></trkpt>
   <trkpt lon="20.923907" lat="42.649439"><ele>570.0</ele></trkpt>
   <trkpt lon="20.924266" lat="42.649629"><ele>570.75</ele></trkpt>
   <trkpt lon="20.924599" lat="42.649830"><ele>570.25</ele></trkpt>
   <trkpt lon="20.924958" lat="42.650141"><ele>570.0</ele></trkpt>
   <trkpt lon="20.925130" lat="42.650343"><ele>569.5</ele></trkpt>
   <trkpt lon="20.925409" lat="42.650737"><ele>568.5</ele></trkpt>
   <trkpt lon="20.925543" lat="42.651112"><ele>568.0</ele></trkpt>
   <trkpt lon="20.925917" lat="42.652332"><ele>565.75</ele></trkpt>
   <trkpt lon="20.925949" lat="42.652437"><ele>565.75</ele></trkpt>
   <trkpt lon="20.926112" lat="42.652789"><ele>565.75</ele></trkpt>
   <trkpt lon="20.926321" lat="42.653160"><ele>566.5</ele></trkpt>
   <trkpt lon="20.926619" lat="42.653535"><ele>567.25</ele></trkpt>
   <trkpt lon="20.926973" lat="42.653879"><ele>568.75</ele></trkpt>
   <trkpt lon="20.927400" lat="42.654248"><ele>571.75</ele></trkpt>
   <trkpt lon="20.929746" lat="42.656228"><ele>567.75</ele></trkpt>
   <trkpt lon="20.935088" lat="42.660754"><ele>562.0</ele></trkpt>
   <trkpt lon="20.935226" lat="42.660877"><ele>562.5</ele></trkpt>
   <trkpt lon="20.935650" lat="42.661318"><ele>565.75</ele></trkpt>
   <trkpt lon="20.935859" lat="42.661512"><ele>566.75</ele></trkpt>
   <trkpt lon="20.936368" lat="42.662166"><ele>566.75</ele></trkpt>
   <trkpt lon="20.936824" lat="42.662794"><ele>564.75</ele></trkpt>
   <trkpt lon="20.937118" lat="42.663223"><ele>564.5</ele></trkpt>
   <trkpt lon="20.937184" lat="42.663318"><ele>564.25</ele></trkpt>
   <trkpt lon="20.937522" lat="42.663788"><ele>563.25</ele></trkpt>
   <trkpt lon="20.937711" lat="42.664015"><ele>562.75</ele></trkpt>
   <trkpt lon="20.937763" lat="42.664080"><ele>562.5</ele></trkpt>
   <trkpt lon="20.937812" lat="42.664147"><ele>562.25</ele></trkpt>
   <trkpt lon="20.938096" lat="42.664391"><ele>563.25</ele></trkpt>
   <trkpt lon="20.938316" lat="42.664592"><ele>565.0</ele></trkpt>
   <trkpt lon="20.938584" lat="42.664774"><ele>565.5</ele></trkpt>
   <trkpt lon="20.938852" lat="42.664967"><ele>565.25</ele></trkpt>
   <trkpt lon="20.939367" lat="42.665279"><ele>567.5</ele></trkpt>
   <trkpt lon="20.940424" lat="42.665957"><ele>568.0</ele></trkpt>
   <trkpt lon="20.941101" lat="42.666371"><ele>566.25</ele></trkpt>
   <trkpt lon="20.941689" lat="42.666744"><ele>565.5</ele></trkpt>
   <trkpt lon="20.942585" lat="42.667340"><ele>567.5</ele></trkpt>
   <trkpt lon="20.943154" lat="42.667807"><ele>567.75</ele></trkpt>
   <trkpt lon="20.943578" lat="42.668208"><ele>566.75</ele></trkpt>
   <trkpt lon="20.943985" lat="42.668638"><ele>565.0</ele></trkpt>
   <trkpt lon="20.944139" lat="42.668819"><ele>564.5</ele></trkpt>
   <trkpt lon="20.944172" lat="42.668857"><ele>564.25</ele></trkpt>
   <trkpt lon="20.944388" lat="42.669111"><ele>564.5</ele></trkpt>
   <trkpt lon="20.944941" lat="42.669839"><ele>565.0</ele></trkpt>
   <trkpt lon="20.945365" lat="42.670268"><ele>564.5</ele></trkpt>
   <trkpt lon="20.945772" lat="42.670596"><ele>565.0</ele></trkpt>
   <trkpt lon="20.946324" lat="42.671020"><ele>564.75</ele></trkpt>
   <trkpt lon="20.946893" lat="42.671415"><ele>564.75</ele></trkpt>
   <trkpt lon="20.947543" lat="42.671894"><ele>563.25</ele></trkpt>
   <trkpt lon="20.948095" lat="42.672284"><ele>564.0</ele></trkpt>
   <trkpt lon="20.948555" lat="42.672565"><ele>563.25</ele></trkpt>
   <trkpt lon="20.948605" lat="42.672596"><ele>563.25</ele></trkpt>
   <trkpt lon="20.949270" lat="42.672915"><ele>562.5</ele></trkpt>
   <trkpt lon="20.950584" lat="42.673526"><ele>564.0</ele></trkpt>
   <trkpt lon="20.950922" lat="42.673643"><ele>565.25</ele></trkpt>
   <trkpt lon="20.951244" lat="42.673716"><ele>566.5</ele></trkpt>
   <trkpt lon="20.951716" lat="42.673783"><ele>568.5</ele></trkpt>
   <trkpt lon="20.952113" lat="42.673799"><ele>569.75</ele></trkpt>
   <trkpt lon="20.952483" lat="42.673799"><ele>570.5</ele></trkpt>
   <trkpt lon="20.952955" lat="42.673747"><ele>571.0</ele></trkpt>
   <trkpt lon="20.953492" lat="42.673653"><ele>570.5</ele></trkpt>
   <trkpt lon="20.954034" lat="42.673483"><ele>568.0</ele></trkpt>
   <trkpt lon="20.954538" lat="42.673287"><ele>566.75</ele></trkpt>
   <trkpt lon="20.956227" lat="42.672826"><ele>570.75</ele></trkpt>
   <trkpt lon="20.957028" lat="42.672831"><ele>570.5</ele></trkpt>
   <trkpt lon="20.957509" lat="42.672908"><ele>571.75</ele></trkpt>
   <trkpt lon="20.957850" lat="42.672992"><ele>571.5</ele></trkpt>
   <trkpt lon="20.958238" lat="42.673142"><ele>570.5</ele></trkpt>
   <trkpt lon="20.959180" lat="42.673669"><ele>566.0</ele></trkpt>
   <trkpt lon="20.959844" lat="42.674061"><ele>566.25</ele></trkpt>
   <trkpt lon="20.960068" lat="42.674149"><ele>564.75</ele></trkpt>
   <trkpt lon="20.960597" lat="42.674326"><ele>567.5</ele></trkpt>
   <trkpt lon="20.961727" lat="42.674640"><ele>567.5</ele></trkpt>
   <trkpt lon="20.962890" lat="42.674925"><ele>568.25</ele></trkpt>
   <trkpt lon="20.965344" lat="42.675496"><ele>566.25</ele></trkpt>
   <trkpt lon="20.965976" lat="42.675610"><ele>566.25</ele></trkpt>
   <trkpt lon="20.966451" lat="42.675620"><ele>563.75</ele></trkpt>
   <trkpt lon="20.967063" lat="42.675574"><ele>562.5</ele></trkpt>
   <trkpt lon="20.967199" lat="42.675555"><ele>562.5</ele></trkpt>
   <trkpt lon="20.967443" lat="42.675521"><ele>562.5</ele></trkpt>
   <trkpt lon="20.968015" lat="42.675378"><ele>562.75</ele></trkpt>
   <trkpt lon="20.969363" lat="42.674858"><ele>562.0</ele></trkpt>
   <trkpt lon="20.969750" lat="42.674729"><ele>562.0</ele></trkpt>
   <trkpt lon="20.969982" lat="42.674668"><ele>562.0</ele></trkpt>
   <trkpt lon="20.970947" lat="42.674416"><ele>558.75</ele></trkpt>
   <trkpt lon="20.972185" lat="42.674117"><ele>558.0</ele></trkpt>
   <trkpt lon="20.972675" lat="42.673979"><ele>559.5</ele></trkpt>
   <trkpt lon="20.973057" lat="42.673834"><ele>560.5</ele></trkpt>
   <trkpt lon="20.973418" lat="42.673654"><ele>560.5</ele></trkpt>
   <trkpt lon="20.973760" lat="42.673465"><ele>561.25</ele></trkpt>
   <trkpt lon="20.974397" lat="42.672994"><ele>562.5</ele></trkpt>
   <trkpt lon="20.975413" lat="42.672018"><ele>566.0</ele></trkpt>
   <trkpt lon="20.976343" lat="42.671172"><ele>565.25</ele></trkpt>
   <trkpt lon="20.977548" lat="42.670029"><ele>560.5</ele></trkpt>
   <trkpt lon="20.979250" lat="42.668450"><ele>558.0</ele></trkpt>
   <trkpt lon="20.979665" lat="42.668062"><ele>557.5</ele></trkpt>
   <trkpt lon="20.980319" lat="42.667567"><ele>557.75</ele></trkpt>
   <trkpt lon="20.981805" lat="42.666814"><ele>556.75</ele></trkpt>
   <trkpt lon="20.983416" lat="42.666007"><ele>557.5</ele></trkpt>
   <trkpt lon="20.983830" lat="42.665700"><ele>558.5</ele></trkpt>
   <trkpt lon="20.984227" lat="42.665343"><ele>558.75</ele></trkpt>
   <trkpt lon="20.985539" lat="42.663817"><ele>560.0</ele></trkpt>
   <trkpt lon="20.988269" lat="42.661202"><ele>558.25</ele></trkpt>
   <trkpt lon="20.988900" lat="42.660626"><ele>558.25</ele></trkpt>
   <trkpt lon="20.989438" lat="42.660112"><ele>557.0</ele></trkpt>
   <trkpt lon="20.990080" lat="42.659625"><ele>556.5</ele></trkpt>
   <trkpt lon="20.990716" lat="42.659226"><ele>557.0</ele></trkpt>
   <trkpt lon="20.991405" lat="42.658877"><ele>556.75</ele></trkpt>
   <trkpt lon="20.993210" lat="42.658105"><ele>558.0</ele></trkpt>
   <trkpt lon="20.995014" lat="42.657281"><ele>557.75</ele></trkpt>
   <trkpt lon="20.995464" lat="42.657031"><ele>558.0</ele></trkpt>
   <trkpt lon="20.995897" lat="42.656747"><ele>557.5</ele></trkpt>
   <trkpt lon="20.998292" lat="42.655028"><ele>554.0</ele></trkpt>
   <trkpt lon="20.999636" lat="42.654046"><ele>557.25</ele></trkpt>
   <trkpt lon="21.000887" lat="42.652968"><ele>560.25</ele></trkpt>
   <trkpt lon="21.001631" lat="42.652121"><ele>558.0</ele></trkpt>
   <trkpt lon="21.002412" lat="42.651290"><ele>561.75</ele></trkpt>
   <trkpt lon="21.004016" lat="42.649620"><ele>554.0</ele></trkpt>
   <trkpt lon="21.004997" lat="42.648577"><ele>551.0</ele></trkpt>
   <trkpt lon="21.005013" lat="42.648536"><ele>550.75</ele></trkpt>
   <trkpt lon="21.005187" lat="42.648232"><ele>550.25</ele></trkpt>
   <trkpt lon="21.005350" lat="42.647878"><ele>550.5</ele></trkpt>
   <trkpt lon="21.005536" lat="42.647257"><ele>551.25</ele></trkpt>
   <trkpt lon="21.005707" lat="42.645598"><ele>552.5</ele></trkpt>
   <trkpt lon="21.005816" lat="42.645227"><ele>553.5</ele></trkpt>
   <trkpt lon="21.005973" lat="42.644869"><ele>553.5</ele></trkpt>
   <trkpt lon="21.006197" lat="42.644492"><ele>552.0</ele></trkpt>
   <trkpt lon="21.006463" lat="42.644159"><ele>550.5</ele></trkpt>
   <trkpt lon="21.006799" lat="42.643842"><ele>550.75</ele></trkpt>
   <trkpt lon="21.007144" lat="42.643559"><ele>551.75</ele></trkpt>
   <trkpt lon="21.007533" lat="42.643308"><ele>553.0</ele></trkpt>
   <trkpt lon="21.007982" lat="42.643072"><ele>554.0</ele></trkpt>
   <trkpt lon="21.009044" lat="42.642676"><ele>556.5</ele></trkpt>
   <trkpt lon="21.010125" lat="42.642296"><ele>553.5</ele></trkpt>
   <trkpt lon="21.011872" lat="42.641668"><ele>547.0</ele></trkpt>
   <trkpt lon="21.012766" lat="42.641363"><ele>547.75</ele></trkpt>
   <trkpt lon="21.013215" lat="42.641198"><ele>547.75</ele></trkpt>
   <trkpt lon="21.013593" lat="42.641002"><ele>548.25</ele></trkpt>
   <trkpt lon="21.014068" lat="42.640719"><ele>549.25</ele></trkpt>
   <trkpt lon="21.014541" lat="42.640405"><ele>549.75</ele></trkpt>
   <trkpt lon="21.014964" lat="42.640024"><ele>550.0</ele></trkpt>
   <trkpt lon="21.015348" lat="42.639624"><ele>548.25</ele></trkpt>
   <trkpt lon="21.015489" lat="42.639391"><ele>547.5</ele></trkpt>
   <trkpt lon="21.015649" lat="42.639159"><ele>547.0</ele></trkpt>
   <trkpt lon="21.015869" lat="42.638697"><ele>547.0</ele></trkpt>
   <trkpt lon="21.016045" lat="42.638229"><ele>547.5</ele></trkpt>
   <trkpt lon="21.016105" lat="42.638013"><ele>547.75</ele></trkpt>
   <trkpt lon="21.016321" lat="42.637312"><ele>547.75</ele></trkpt>
   <trkpt lon="21.016574" lat="42.636569"><ele>547.0</ele></trkpt>
   <trkpt lon="21.016721" lat="42.636250"><ele>547.5</ele></trkpt>
   <trkpt lon="21.016882" lat="42.635987"><ele>547.75</ele></trkpt>
   <trkpt lon="21.017189" lat="42.635551"><ele>547.5</ele></trkpt>
   <trkpt lon="21.017481" lat="42.635223"><ele>547.25</ele></trkpt>
   <trkpt lon="21.017839" lat="42.634886"><ele>547.0</ele></trkpt>
   <trkpt lon="21.019497" lat="42.633396"><ele>548.25</ele></trkpt>
   <trkpt lon="21.019669" lat="42.633295"><ele>548.5</ele></trkpt>
   <trkpt lon="21.019762" lat="42.633178"><ele>548.5</ele></trkpt>
   <trkpt lon="21.020383" lat="42.632576"><ele>548.75</ele></trkpt>
   <trkpt lon="21.020550" lat="42.632431"><ele>549.25</ele></trkpt>
   <trkpt lon="21.020818" lat="42.632152"><ele>549.5</ele></trkpt>
   <trkpt lon="21.021240" lat="42.631698"><ele>549.5</ele></trkpt>
   <trkpt lon="21.021446" lat="42.631469"><ele>549.25</ele></trkpt>
   <trkpt lon="21.021728" lat="42.631149"><ele>548.75</ele></trkpt>
   <trkpt lon="21.022669" lat="42.630305"><ele>549.5</ele></trkpt>
   <trkpt lon="21.023236" lat="42.629781"><ele>549.5</ele></trkpt>
   <trkpt lon="21.024635" lat="42.628562"><ele>549.75</ele></trkpt>
   <trkpt lon="21.025324" lat="42.627912"><ele>549.5</ele></trkpt>
   <trkpt lon="21.025751" lat="42.627601"><ele>548.25</ele></trkpt>
   <trkpt lon="21.026181" lat="42.627286"><ele>548.5</ele></trkpt>
   <trkpt lon="21.026605" lat="42.626947"><ele>549.5</ele></trkpt>
   <trkpt lon="21.026847" lat="42.626732"><ele>549.75</ele></trkpt>
   <trkpt lon="21.027324" lat="42.626392"><ele>549.75</ele></trkpt>
   <trkpt lon="21.027825" lat="42.625964"><ele>550.5</ele></trkpt>
   <trkpt lon="21.028621" lat="42.625317"><ele>548.75</ele></trkpt>
   <trkpt lon="21.028887" lat="42.625138"><ele>548.25</ele></trkpt>
   <trkpt lon="21.029146" lat="42.624969"><ele>548.0</ele></trkpt>
   <trkpt lon="21.029622" lat="42.624680"><ele>548.0</ele></trkpt>
   <trkpt lon="21.030403" lat="42.624260"><ele>548.0</ele></trkpt>
   <trkpt lon="21.030832" lat="42.624065"><ele>547.75</ele></trkpt>
   <trkpt lon="21.031313" lat="42.623850"><ele>547.5</ele></trkpt>
   <trkpt lon="21.031739" lat="42.623685"><ele>547.5</ele></trkpt>
   <trkpt lon="21.032088" lat="42.623567"><ele>547.5</ele></trkpt>
   <trkpt lon="21.032471" lat="42.623447"><ele>547.75</ele></trkpt>
   <trkpt lon="21.033009" lat="42.623289"><ele>547.75</ele></trkpt>
   <trkpt lon="21.033664" lat="42.623132"><ele>547.25</ele></trkpt>
   <trkpt lon="21.035320" lat="42.622817"><ele>547.25</ele></trkpt>
   <trkpt lon="21.041089" lat="42.622215"><ele>543.0</ele></trkpt>
   <trkpt lon="21.043015" lat="42.622300"><ele>541.5</ele></trkpt>
   <trkpt lon="21.050746" lat="42.623034"><ele>538.0</ele></trkpt>
   <trkpt lon="21.050898" lat="42.623049"><ele>537.75</ele></trkpt>
   <trkpt lon="21.056489" lat="42.623580"><ele>535.5</ele></trkpt>
   <trkpt lon="21.058056" lat="42.623668"><ele>535.0</ele></trkpt>
   <trkpt lon="21.060567" lat="42.623809"><ele>534.75</ele></trkpt>
   <trkpt lon="21.070129" lat="42.624331"><ele>535.5</ele></trkpt>
   <trkpt lon="21.071068" lat="42.624363"><ele>535.0</ele></trkpt>
   <trkpt lon="21.073680" lat="42.624522"><ele>535.25</ele></trkpt>
   <trkpt lon="21.074921" lat="42.624583"><ele>536.25</ele></trkpt>
   <trkpt lon="21.076701" lat="42.624687"><ele>535.25</ele></trkpt>
   <trkpt lon="21.077608" lat="42.624730"><ele>535.25</ele></trkpt>
   <trkpt lon="21.078642" lat="42.624931"><ele>536.0</ele></trkpt>
   <trkpt lon="21.079239" lat="42.625177"><ele>536.0</ele></trkpt>
   <trkpt lon="21.079799" lat="42.625530"><ele>536.5</ele></trkpt>
   <trkpt lon="21.080157" lat="42.625830"><ele>536.25</ele></trkpt>
   <trkpt lon="21.080444" lat="42.626167"><ele>536.75</ele></trkpt>
   <trkpt lon="21.080626" lat="42.626484"><ele>537.25</ele></trkpt>
   <trkpt lon="21.080788" lat="42.626911"><ele>537.75</ele></trkpt>
   <trkpt lon="21.080850" lat="42.627207"><ele>538.0</ele></trkpt>
   <trkpt lon="21.080905" lat="42.627672"><ele>538.0</ele></trkpt>
   <trkpt lon="21.080927" lat="42.628082"><ele>538.0</ele></trkpt>
   <trkpt lon="21.080924" lat="42.628260"><ele>538.0</ele></trkpt>
   <trkpt lon="21.080925" lat="42.628563"><ele>538.25</ele></trkpt>
   <trkpt lon="21.080926" lat="42.628982"><ele>538.75</ele></trkpt>
   <trkpt lon="21.080929" lat="42.629787"><ele>539.0</ele></trkpt>
   <trkpt lon="21.080929" lat="42.630446"><ele>537.75</ele></trkpt>
   <trkpt lon="21.080945" lat="42.633990"><ele>539.0</ele></trkpt>
   <trkpt lon="21.080957" lat="42.634819"><ele>540.0</ele></trkpt>
   <trkpt lon="21.080958" lat="42.635371"><ele>539.75</ele></trkpt>
   <trkpt lon="21.080957" lat="42.636132"><ele>538.75</ele></trkpt>
   <trkpt lon="21.080935" lat="42.636964"><ele>537.75</ele></trkpt>
   <trkpt lon="21.080950" lat="42.637192"><ele>537.5</ele></trkpt>
   <trkpt lon="21.080958" lat="42.637506"><ele>537.0</ele></trkpt>
   <trkpt lon="21.080958" lat="42.637618"><ele>536.75</ele></trkpt>
   <trkpt lon="21.081012" lat="42.637925"><ele>536.5</ele></trkpt>
   <trkpt lon="21.081017" lat="42.638313"><ele>536.0</ele></trkpt>
   <trkpt lon="21.081074" lat="42.638581"><ele>536.0</ele></trkpt>
   <trkpt lon="21.081075" lat="42.638603"><ele>536.0</ele></trkpt>
   <trkpt lon="21.081082" lat="42.638758"><ele>536.25</ele></trkpt>
   <trkpt lon="21.081083" lat="42.638832"><ele>536.25</ele></trkpt>
   <trkpt lon="21.081099" lat="42.638951"><ele>536.5</ele></trkpt>
   <trkpt lon="21.081129" lat="42.639086"><ele>536.5</ele></trkpt>
   <trkpt lon="21.081198" lat="42.639309"><ele>536.75</ele></trkpt>
   <trkpt lon="21.081301" lat="42.639541"><ele>537.25</ele></trkpt>
   <trkpt lon="21.081421" lat="42.639771"><ele>537.5</ele></trkpt>
   <trkpt lon="21.081737" lat="42.640172"><ele>537.75</ele></trkpt>
   <trkpt lon="21.082034" lat="42.640455"><ele>537.5</ele></trkpt>
   <trkpt lon="21.082343" lat="42.640660"><ele>537.75</ele></trkpt>
   <trkpt lon="21.082710" lat="42.640862"><ele>538.0</ele></trkpt>
   <trkpt lon="21.083200" lat="42.641067"><ele>538.0</ele></trkpt>
   <trkpt lon="21.084786" lat="42.641632"><ele>539.75</ele></trkpt>
   <trkpt lon="21.086439" lat="42.642239"><ele>539.75</ele></trkpt>
   <trkpt lon="21.091087" lat="42.643860"><ele>541.5</ele></trkpt>
   <trkpt lon="21.092509" lat="42.644335"><ele>542.75</ele></trkpt>
   <trkpt lon="21.093055" lat="42.644500"><ele>542.0</ele></trkpt>
   <trkpt lon="21.093706" lat="42.644661"><ele>542.25</ele></trkpt>
   <trkpt lon="21.094132" lat="42.644759"><ele>542.5</ele></trkpt>
   <trkpt lon="21.094514" lat="42.644858"><ele>543.0</ele></trkpt>
   <trkpt lon="21.094931" lat="42.644934"><ele>543.75</ele></trkpt>
   <trkpt lon="21.098635" lat="42.645578"><ele>547.25</ele></trkpt>
   <trkpt lon="21.102977" lat="42.646303"><ele>552.0</ele></trkpt>
   <trkpt lon="21.106309" lat="42.646858"><ele>552.25</ele></trkpt>
   <trkpt lon="21.108758" lat="42.647251"><ele>555.75</ele></trkpt>
   <trkpt lon="21.110081" lat="42.647429"><ele>556.5</ele></trkpt>
   <trkpt lon="21.111505" lat="42.647672"><ele>556.75</ele></trkpt>
   <trkpt lon="21.112095" lat="42.647805"><ele>558.0</ele></trkpt>
   <trkpt lon="21.112484" lat="42.647916"><ele>558.75</ele></trkpt>
   <trkpt lon="21.112786" lat="42.648018"><ele>559.5</ele></trkpt>
   <trkpt lon="21.113317" lat="42.648209"><ele>560.75</ele></trkpt>
   <trkpt lon="21.113825" lat="42.648447"><ele>560.75</ele></trkpt>
   <trkpt lon="21.115487" lat="42.649293"><ele>560.0</ele></trkpt>
   <trkpt lon="21.119722" lat="42.651578"><ele>566.0</ele></trkpt>
   <trkpt lon="21.119942" lat="42.651686"><ele>566.0</ele></trkpt>
   <trkpt lon="21.120553" lat="42.652004"><ele>565.0</ele></trkpt>
   <trkpt lon="21.120969" lat="42.652162"><ele>564.25</ele></trkpt>
   <trkpt lon="21.121318" lat="42.652270"><ele>564.0</ele></trkpt>
   <trkpt lon="21.121551" lat="42.652331"><ele>563.75</ele></trkpt>
   <trkpt lon="21.121752" lat="42.652375"><ele>563.5</ele></trkpt>
   <trkpt lon="21.121959" lat="42.652414"><ele>563.5</ele></trkpt>
   <trkpt lon="21.122401" lat="42.652481"><ele>563.0</ele></trkpt>
   <trkpt lon="21.122809" lat="42.652511"><ele>563.75</ele></trkpt>
   <trkpt lon="21.123270" lat="42.652517"><ele>564.75</ele></trkpt>
   <trkpt lon="21.123482" lat="42.652511"><ele>565.25</ele></trkpt>
   <trkpt lon="21.123858" lat="42.652475"><ele>566.0</ele></trkpt>
   <trkpt lon="21.124032" lat="42.652454"><ele>566.5</ele></trkpt>
   <trkpt lon="21.124201" lat="42.652426"><ele>566.75</ele></trkpt>
   <trkpt lon="21.124389" lat="42.652389"><ele>567.0</ele></trkpt>
   <trkpt lon="21.124746" lat="42.652304"><ele>567.75</ele></trkpt>
   <trkpt lon="21.125105" lat="42.652193"><ele>568.0</ele></trkpt>
   <trkpt lon="21.125483" lat="42.652049"><ele>568.25</ele></trkpt>
   <trkpt lon="21.126050" lat="42.651791"><ele>568.5</ele></trkpt>
   <trkpt lon="21.127637" lat="42.650990"><ele>569.0</ele></trkpt>
   <trkpt lon="21.129290" lat="42.650151"><ele>569.75</ele></trkpt>
   <trkpt lon="21.130106" lat="42.649806"><ele>571.75</ele></trkpt>
   <trkpt lon="21.130381" lat="42.649681"><ele>572.0</ele></trkpt>
   <trkpt lon="21.130585" lat="42.649607"><ele>572.25</ele></trkpt>
   <trkpt lon="21.131130" lat="42.649467"><ele>572.0</ele></trkpt>
   <trkpt lon="21.131709" lat="42.649354"><ele>571.75</ele></trkpt>
   <trkpt lon="21.131926" lat="42.649326"><ele>572.0</ele></trkpt>
   <trkpt lon="21.132299" lat="42.649291"><ele>572.5</ele></trkpt>
   <trkpt lon="21.132756" lat="42.649272"><ele>573.5</ele></trkpt>
   <trkpt lon="21.133203" lat="42.649277"><ele>574.0</ele></trkpt>
   <trkpt lon="21.133602" lat="42.649297"><ele>573.75</ele></trkpt>
   <trkpt lon="21.133801" lat="42.649315"><ele>573.5</ele></trkpt>
   <trkpt lon="21.134219" lat="42.649370"><ele>573.0</ele></trkpt>
   <trkpt lon="21.134492" lat="42.649418"><ele>573.25</ele></trkpt>
   <trkpt lon="21.134753" lat="42.649473"><ele>573.75</ele></trkpt>
   <trkpt lon="21.135101" lat="42.649556"><ele>574.25</ele></trkpt>
   <trkpt lon="21.138347" lat="42.650445"><ele>580.0</ele></trkpt>
   <trkpt lon="21.141323" lat="42.651230"><ele>578.75</ele></trkpt>
   <trkpt lon="21.141995" lat="42.651411"><ele>578.25</ele></trkpt>
   <trkpt lon="21.142476" lat="42.651592"><ele>578.75</ele></trkpt>
   <trkpt lon="21.142938" lat="42.651786"><ele>579.5</ele></trkpt>
   <trkpt lon="21.143677" lat="42.652161"><ele>580.25</ele></trkpt>
   <trkpt lon="21.143940" lat="42.652309"><ele>580.0</ele></trkpt>
   <trkpt lon="21.144122" lat="42.652434"><ele>579.75</ele></trkpt>
   <trkpt lon="21.144441" lat="42.652684"><ele>580.75</ele></trkpt>
   <trkpt lon="21.148226" lat="42.656317"><ele>583.0</ele></trkpt>
   <trkpt lon="21.148445" lat="42.656532"><ele>582.75</ele></trkpt>
   <trkpt lon="21.149493" lat="42.657448"><ele>581.5</ele></trkpt>
   <trkpt lon="21.149629" lat="42.657584"><ele>581.75</ele></trkpt>
   <trkpt lon="21.149767" lat="42.657742"><ele>582.0</ele></trkpt>
   <trkpt lon="21.149960" lat="42.657935"><ele>581.75</ele></trkpt>
   <trkpt lon="21.151008" lat="42.658936"><ele>582.25</ele></trkpt>
   <trkpt lon="21.151291" lat="42.659220"><ele>582.75</ele></trkpt>
  </trkseg>
 </trk>
</gpx>
