<?xml version="1.0" encoding="UTF-8"?>
<!-- track-length = 33201 filtered ascend = 51 plain-ascend = -27 cost=33201 energy=0.4kwh time=44m 16s -->
<gpx 
 xmlns="http://www.topografix.com/GPX/1/1" 
 xmlns:xsi="http://www.w3.org/2001/XMLSchema-instance" 
 xsi:schemaLocation="http://www.topografix.com/GPX/1/1 http://www.topografix.com/GPX/1/1/gpx.xsd" 
 version="1.1" 
 creator="BRouter-Web 0.18.1">
 <trk>
  <name>pendeltaguppsala</name>
  <trkseg>
   <trkpt lat="59.629972" lon="17.922619"><ele>40.5</ele></trkpt>
   <trkpt lat="59.630086" lon="17.922653"><ele>40.5</ele></trkpt>
   <trkpt lat="59.630926" lon="17.922897"><ele>40.5</ele></trkpt>
   <trkpt lat="59.639698" lon="17.925333"><ele>40.5</ele></trkpt>
   <trkpt lat="59.641375" lon="17.925891"><ele>40.5</ele></trkpt>
   <trkpt lat="59.641847" lon="17.926027"><ele>40.5</ele></trkpt>
   <trkpt lat="59.648442" lon="17.928122"><ele>40.5</ele></trkpt>
   <trkpt lat="59.649435" lon="17.928436"><ele>40.5</ele></trkpt>
   <trkpt lat="59.652272" lon="17.929292"><ele>40.5</ele></trkpt>
   <trkpt lat="59.656986" lon="17.931287"><ele>40.5</ele></trkpt>
   <trkpt lat="59.65725" lon="17.931386"><ele>40.5</ele></trkpt>
   <trkpt lat="59.65874" lon="17.931833"><ele>40.5</ele></trkpt>
   <trkpt lat="59.659417" lon="17.931962"><ele>40.5</ele></trkpt>
   <trkpt lat="59.660333" lon="17.931984"><ele>40.5</ele></trkpt>
   <trkpt lat="59.661165" lon="17.931916"><ele>40.5</ele></trkpt>
   <trkpt lat="59.661565" lon="17.931837"><ele>40.5</ele></trkpt>
   <trkpt lat="59.662246" lon="17.931662"><ele>40.5</ele></trkpt>
   <trkpt lat="59.662877" lon="17.931468"><ele>40.5</ele></trkpt>
   <trkpt lat="59.663178" lon="17.931351"><ele>40.5</ele></trkpt>
   <trkpt lat="59.664224" lon="17.930814"><ele>40.5</ele></trkpt>
   <trkpt lat="59.664649" lon="17.930573"><ele>40.5</ele></trkpt>
   <trkpt lat="59.665527" lon="17.929953"><ele>40.5</ele></trkpt>
   <trkpt lat="59.665715" lon="17.929808"><ele>40.5</ele></trkpt>
   <trkpt lat="59.665997" lon="17.929564"><ele>40.5</ele></trkpt>
   <trkpt lat="59.666857" lon="17.928743"><ele>40.5</ele></trkpt>
   <trkpt lat="59.667692" lon="17.927842"><ele>40.5</ele></trkpt>
   <trkpt lat="59.668602" lon="17.926683"><ele>40.5</ele></trkpt>
   <trkpt lat="59.669401" lon="17.925471"><ele>40.5</ele></trkpt>
   <trkpt lat="59.669911" lon="17.924634"><ele>40.5</ele></trkpt>
   <trkpt lat="59.670387" lon="17.923781"><ele>40.5</ele></trkpt>
   <trkpt lat="59.670794" lon="17.922912"><ele>40.5</ele></trkpt>
   <trkpt lat="59.671105" lon="17.92222"><ele>40.5</ele></trkpt>
   <trkpt lat="59.671737" lon="17.920586"><ele>40.5</ele></trkpt>
   <trkpt lat="59.672103" lon="17.919432"><ele>39</ele></trkpt>
   <trkpt lat="59.672116" lon="17.919387"><ele>38.75</ele></trkpt>
   <trkpt lat="59.672143" lon="17.919288"><ele>38.75</ele></trkpt>
   <trkpt lat="59.672433" lon="17.918291"><ele>36.75</ele></trkpt>
   <trkpt lat="59.672575" lon="17.917774"><ele>38.5</ele></trkpt>
   <trkpt lat="59.672705" lon="17.91725"><ele>40.5</ele></trkpt>
   <trkpt lat="59.672904" lon="17.916392"><ele>40.5</ele></trkpt>
   <trkpt lat="59.673106" lon="17.915481"><ele>38.25</ele></trkpt>
   <trkpt lat="59.673484" lon="17.913385"><ele>32.75</ele></trkpt>
   <trkpt lat="59.673811" lon="17.911196"><ele>29</ele></trkpt>
   <trkpt lat="59.674098" lon="17.908965"><ele>28.75</ele></trkpt>
   <trkpt lat="59.67431" lon="17.906878"><ele>31.5</ele></trkpt>
   <trkpt lat="59.674437" lon="17.905537"><ele>32.25</ele></trkpt>
   <trkpt lat="59.674551" lon="17.904035"><ele>29.5</ele></trkpt>
   <trkpt lat="59.674628" lon="17.903113"><ele>27.75</ele></trkpt>
   <trkpt lat="59.674643" lon="17.902919"><ele>27.5</ele></trkpt>
   <trkpt lat="59.674731" lon="17.901185"><ele>25.75</ele></trkpt>
   <trkpt lat="59.6748" lon="17.89962"><ele>25.75</ele></trkpt>
   <trkpt lat="59.674849" lon="17.89807"><ele>25.75</ele></trkpt>
   <trkpt lat="59.674873" lon="17.896449"><ele>26.5</ele></trkpt>
   <trkpt lat="59.674889" lon="17.894835"><ele>28.5</ele></trkpt>
   <trkpt lat="59.674873" lon="17.892941"><ele>29.25</ele></trkpt>
   <trkpt lat="59.67485" lon="17.891972"><ele>29.75</ele></trkpt>
   <trkpt lat="59.674832" lon="17.89123"><ele>29.75</ele></trkpt>
   <trkpt lat="59.674772" lon="17.889595"><ele>31</ele></trkpt>
   <trkpt lat="59.674648" lon="17.887314"><ele>34.75</ele></trkpt>
   <trkpt lat="59.674483" lon="17.885077"><ele>34.25</ele></trkpt>
   <trkpt lat="59.674399" lon="17.883832"><ele>33.25</ele></trkpt>
   <trkpt lat="59.674387" lon="17.88368"><ele>33.25</ele></trkpt>
   <trkpt lat="59.674357" lon="17.883325"><ele>33</ele></trkpt>
   <trkpt lat="59.673809" lon="17.876387"><ele>38.5</ele></trkpt>
   <trkpt lat="59.673525" lon="17.87254"><ele>35.5</ele></trkpt>
   <trkpt lat="59.673397" lon="17.870999"><ele>35</ele></trkpt>
   <trkpt lat="59.673183" lon="17.868276"><ele>35</ele></trkpt>
   <trkpt lat="59.673007" lon="17.865595"><ele>35</ele></trkpt>
   <trkpt lat="59.67298" lon="17.865153"><ele>35</ele></trkpt>
   <trkpt lat="59.672909" lon="17.863684"><ele>34.25</ele></trkpt>
   <trkpt lat="59.672869" lon="17.862294"><ele>32.75</ele></trkpt>
   <trkpt lat="59.672871" lon="17.861007"><ele>33.75</ele></trkpt>
   <trkpt lat="59.67289" lon="17.859904"><ele>35.75</ele></trkpt>
   <trkpt lat="59.672898" lon="17.85943"><ele>36.75</ele></trkpt>
   <trkpt lat="59.672967" lon="17.857534"><ele>39.5</ele></trkpt>
   <trkpt lat="59.673009" lon="17.856478"><ele>39.25</ele></trkpt>
   <trkpt lat="59.673123" lon="17.854323"><ele>38.5</ele></trkpt>
   <trkpt lat="59.673252" lon="17.852273"><ele>40.5</ele></trkpt>
   <trkpt lat="59.673416" lon="17.849339"><ele>39.5</ele></trkpt>
   <trkpt lat="59.673512" lon="17.847796"><ele>37.75</ele></trkpt>
   <trkpt lat="59.673648" lon="17.845653"><ele>34.5</ele></trkpt>
   <trkpt lat="59.673784" lon="17.844114"><ele>34.5</ele></trkpt>
   <trkpt lat="59.673852" lon="17.843453"><ele>35.25</ele></trkpt>
   <trkpt lat="59.673947" lon="17.842521"><ele>36.75</ele></trkpt>
   <trkpt lat="59.674177" lon="17.840831"><ele>38.75</ele></trkpt>
   <trkpt lat="59.674429" lon="17.839254"><ele>37.5</ele></trkpt>
   <trkpt lat="59.674675" lon="17.837881"><ele>37.5</ele></trkpt>
   <trkpt lat="59.674952" lon="17.836524"><ele>37.5</ele></trkpt>
   <trkpt lat="59.675244" lon="17.835322"><ele>40.25</ele></trkpt>
   <trkpt lat="59.675627" lon="17.833962"><ele>41.5</ele></trkpt>
   <trkpt lat="59.676138" lon="17.832223"><ele>43.5</ele></trkpt>
   <trkpt lat="59.67642" lon="17.831387"><ele>43.5</ele></trkpt>
   <trkpt lat="59.676714" lon="17.83051"><ele>41</ele></trkpt>
   <trkpt lat="59.677234" lon="17.829122"><ele>40.75</ele></trkpt>
   <trkpt lat="59.677554" lon="17.828291"><ele>40</ele></trkpt>
   <trkpt lat="59.677912" lon="17.827449"><ele>39.75</ele></trkpt>
   <trkpt lat="59.678241" lon="17.826691"><ele>38.75</ele></trkpt>
   <trkpt lat="59.678703" lon="17.825739"><ele>39.5</ele></trkpt>
   <trkpt lat="59.679692" lon="17.823841"><ele>41.25</ele></trkpt>
   <trkpt lat="59.680307" lon="17.82265"><ele>44.25</ele></trkpt>
   <trkpt lat="59.682254" lon="17.818988"><ele>40.5</ele></trkpt>
   <trkpt lat="59.682482" lon="17.818562"><ele>39.25</ele></trkpt>
   <trkpt lat="59.683344" lon="17.817003"><ele>33.5</ele></trkpt>
   <trkpt lat="59.683895" lon="17.816079"><ele>33</ele></trkpt>
   <trkpt lat="59.684541" lon="17.815046"><ele>30.5</ele></trkpt>
   <trkpt lat="59.685125" lon="17.814212"><ele>30.5</ele></trkpt>
   <trkpt lat="59.685735" lon="17.813425"><ele>27.5</ele></trkpt>
   <trkpt lat="59.686131" lon="17.812944"><ele>27</ele></trkpt>
   <trkpt lat="59.686523" lon="17.812491"><ele>28.25</ele></trkpt>
   <trkpt lat="59.686816" lon="17.812173"><ele>29.75</ele></trkpt>
   <trkpt lat="59.687233" lon="17.81174"><ele>32.25</ele></trkpt>
   <trkpt lat="59.68778" lon="17.811216"><ele>36.75</ele></trkpt>
   <trkpt lat="59.688224" lon="17.810808"><ele>40.75</ele></trkpt>
   <trkpt lat="59.688672" lon="17.810446"><ele>41.75</ele></trkpt>
   <trkpt lat="59.689103" lon="17.810119"><ele>40.75</ele></trkpt>
   <trkpt lat="59.689546" lon="17.809801"><ele>40.75</ele></trkpt>
   <trkpt lat="59.690108" lon="17.809441"><ele>40.25</ele></trkpt>
   <trkpt lat="59.690663" lon="17.80913"><ele>40</ele></trkpt>
   <trkpt lat="59.691215" lon="17.808856"><ele>39.75</ele></trkpt>
   <trkpt lat="59.691913" lon="17.808526"><ele>39.5</ele></trkpt>
   <trkpt lat="59.692601" lon="17.808229"><ele>40</ele></trkpt>
   <trkpt lat="59.693528" lon="17.807825"><ele>41.75</ele></trkpt>
   <trkpt lat="59.693747" lon="17.807737"><ele>42.25</ele></trkpt>
   <trkpt lat="59.694408" lon="17.807434"><ele>43.5</ele></trkpt>
   <trkpt lat="59.695055" lon="17.807167"><ele>42.75</ele></trkpt>
   <trkpt lat="59.695888" lon="17.8068"><ele>39.25</ele></trkpt>
   <trkpt lat="59.696364" lon="17.80657"><ele>37.75</ele></trkpt>
   <trkpt lat="59.69683" lon="17.806319"><ele>37</ele></trkpt>
   <trkpt lat="59.697673" lon="17.805776"><ele>36.5</ele></trkpt>
   <trkpt lat="59.700462" lon="17.803695"><ele>31.75</ele></trkpt>
   <trkpt lat="59.702295" lon="17.802245"><ele>30.5</ele></trkpt>
   <trkpt lat="59.703264" lon="17.801558"><ele>31</ele></trkpt>
   <trkpt lat="59.70354" lon="17.801379"><ele>31.5</ele></trkpt>
   <trkpt lat="59.703904" lon="17.801172"><ele>31.25</ele></trkpt>
   <trkpt lat="59.706887" lon="17.799703"><ele>19.25</ele></trkpt>
   <trkpt lat="59.706925" lon="17.799684"><ele>19.25</ele></trkpt>
   <trkpt lat="59.708732" lon="17.798806"><ele>17.25</ele></trkpt>
   <trkpt lat="59.710548" lon="17.797883"><ele>19.5</ele></trkpt>
   <trkpt lat="59.712235" lon="17.796973"><ele>17</ele></trkpt>
   <trkpt lat="59.712828" lon="17.796596"><ele>14.25</ele></trkpt>
   <trkpt lat="59.714516" lon="17.795373"><ele>12.25</ele></trkpt>
   <trkpt lat="59.716639" lon="17.793676"><ele>13.25</ele></trkpt>
   <trkpt lat="59.717156" lon="17.793291"><ele>13.5</ele></trkpt>
   <trkpt lat="59.718166" lon="17.792533"><ele>14.5</ele></trkpt>
   <trkpt lat="59.719172" lon="17.791778"><ele>15</ele></trkpt>
   <trkpt lat="59.719654" lon="17.791396"><ele>15</ele></trkpt>
   <trkpt lat="59.720175" lon="17.791047"><ele>15.25</ele></trkpt>
   <trkpt lat="59.720579" lon="17.790729"><ele>15.5</ele></trkpt>
   <trkpt lat="59.722982" lon="17.78891"><ele>17.5</ele></trkpt>
   <trkpt lat="59.723319" lon="17.788678"><ele>17.75</ele></trkpt>
   <trkpt lat="59.723447" lon="17.788592"><ele>17.75</ele></trkpt>
   <trkpt lat="59.723695" lon="17.788402"><ele>17.5</ele></trkpt>
   <trkpt lat="59.723791" lon="17.788319"><ele>17.5</ele></trkpt>
   <trkpt lat="59.723911" lon="17.788232"><ele>17.5</ele></trkpt>
   <trkpt lat="59.724418" lon="17.787872"><ele>18.25</ele></trkpt>
   <trkpt lat="59.725761" lon="17.786886"><ele>17.75</ele></trkpt>
   <trkpt lat="59.72641" lon="17.786317"><ele>17.5</ele></trkpt>
   <trkpt lat="59.726932" lon="17.785842"><ele>18.25</ele></trkpt>
   <trkpt lat="59.727591" lon="17.78528"><ele>19.25</ele></trkpt>
   <trkpt lat="59.728969" lon="17.784198"><ele>20</ele></trkpt>
   <trkpt lat="59.729375" lon="17.783869"><ele>20.25</ele></trkpt>
   <trkpt lat="59.729695" lon="17.783628"><ele>20</ele></trkpt>
   <trkpt lat="59.729836" lon="17.783505"><ele>20</ele></trkpt>
   <trkpt lat="59.730207" lon="17.783186"><ele>20.5</ele></trkpt>
   <trkpt lat="59.730877" lon="17.782602"><ele>22.25</ele></trkpt>
   <trkpt lat="59.730981" lon="17.782517"><ele>22.25</ele></trkpt>
   <trkpt lat="59.733428" lon="17.780432"><ele>17</ele></trkpt>
   <trkpt lat="59.734495" lon="17.779518"><ele>17.25</ele></trkpt>
   <trkpt lat="59.73665" lon="17.777677"><ele>19</ele></trkpt>
   <trkpt lat="59.737218" lon="17.777175"><ele>20.25</ele></trkpt>
   <trkpt lat="59.738336" lon="17.776202"><ele>22.25</ele></trkpt>
   <trkpt lat="59.739611" lon="17.775127"><ele>19.5</ele></trkpt>
   <trkpt lat="59.74154" lon="17.773479"><ele>15</ele></trkpt>
   <trkpt lat="59.742807" lon="17.772393"><ele>15.25</ele></trkpt>
   <trkpt lat="59.744208" lon="17.77113"><ele>20</ele></trkpt>
   <trkpt lat="59.744863" lon="17.770582"><ele>22.25</ele></trkpt>
   <trkpt lat="59.745468" lon="17.770119"><ele>22</ele></trkpt>
   <trkpt lat="59.746322" lon="17.769556"><ele>21</ele></trkpt>
   <trkpt lat="59.74684" lon="17.769253"><ele>20.5</ele></trkpt>
   <trkpt lat="59.746894" lon="17.769213"><ele>20.25</ele></trkpt>
   <trkpt lat="59.748591" lon="17.768122"><ele>20.25</ele></trkpt>
   <trkpt lat="59.749278" lon="17.767694"><ele>20.75</ele></trkpt>
   <trkpt lat="59.75181" lon="17.766121"><ele>21.75</ele></trkpt>
   <trkpt lat="59.754004" lon="17.764721"><ele>25</ele></trkpt>
   <trkpt lat="59.755067" lon="17.764039"><ele>26</ele></trkpt>
   <trkpt lat="59.755412" lon="17.763843"><ele>26.75</ele></trkpt>
   <trkpt lat="59.756274" lon="17.763269"><ele>28.5</ele></trkpt>
   <trkpt lat="59.75781" lon="17.762343"><ele>31.75</ele></trkpt>
   <trkpt lat="59.758198" lon="17.762144"><ele>31.25</ele></trkpt>
   <trkpt lat="59.758424" lon="17.762049"><ele>30.75</ele></trkpt>
   <trkpt lat="59.760153" lon="17.761379"><ele>29.25</ele></trkpt>
   <trkpt lat="59.760181" lon="17.761365"><ele>29.25</ele></trkpt>
   <trkpt lat="59.762197" lon="17.760564"><ele>29</ele></trkpt>
   <trkpt lat="59.762692" lon="17.760382"><ele>29.25</ele></trkpt>
   <trkpt lat="59.766669" lon="17.75882"><ele>38</ele></trkpt>
   <trkpt lat="59.767314" lon="17.758585"><ele>36.75</ele></trkpt>
   <trkpt lat="59.769526" lon="17.757834"><ele>38.75</ele></trkpt>
   <trkpt lat="59.771523" lon="17.757191"><ele>34.25</ele></trkpt>
   <trkpt lat="59.773902" lon="17.756369"><ele>38.25</ele></trkpt>
   <trkpt lat="59.773924" lon="17.756361"><ele>38.5</ele></trkpt>
   <trkpt lat="59.776168" lon="17.75561"><ele>41</ele></trkpt>
   <trkpt lat="59.776342" lon="17.755508"><ele>40.75</ele></trkpt>
   <trkpt lat="59.776742" lon="17.755302"><ele>40</ele></trkpt>
   <trkpt lat="59.777163" lon="17.75516"><ele>40.25</ele></trkpt>
   <trkpt lat="59.779739" lon="17.754284"><ele>42</ele></trkpt>
   <trkpt lat="59.779767" lon="17.754274"><ele>42</ele></trkpt>
   <trkpt lat="59.780403" lon="17.754057"><ele>42</ele></trkpt>
   <trkpt lat="59.786678" lon="17.751919"><ele>54</ele></trkpt>
   <trkpt lat="59.78924" lon="17.751033"><ele>58.5</ele></trkpt>
   <trkpt lat="59.790359" lon="17.750665"><ele>58.25</ele></trkpt>
   <trkpt lat="59.791558" lon="17.750074"><ele>54.25</ele></trkpt>
   <trkpt lat="59.79243" lon="17.749465"><ele>54.25</ele></trkpt>
   <trkpt lat="59.792849" lon="17.749156"><ele>54</ele></trkpt>
   <trkpt lat="59.793262" lon="17.7488"><ele>53</ele></trkpt>
   <trkpt lat="59.793393" lon="17.748675"><ele>52.5</ele></trkpt>
   <trkpt lat="59.793426" lon="17.748643"><ele>52.25</ele></trkpt>
   <trkpt lat="59.794234" lon="17.747793"><ele>50.25</ele></trkpt>
   <trkpt lat="59.79738" lon="17.744014"><ele>44.5</ele></trkpt>
   <trkpt lat="59.797944" lon="17.743339"><ele>43.25</ele></trkpt>
   <trkpt lat="59.798061" lon="17.74319"><ele>44</ele></trkpt>
   <trkpt lat="59.798837" lon="17.742228"><ele>44</ele></trkpt>
   <trkpt lat="59.803352" lon="17.736724"><ele>39.5</ele></trkpt>
   <trkpt lat="59.804219" lon="17.735699"><ele>38</ele></trkpt>
   <trkpt lat="59.804647" lon="17.73523"><ele>36.25</ele></trkpt>
   <trkpt lat="59.804656" lon="17.735219"><ele>36.25</ele></trkpt>
   <trkpt lat="59.805047" lon="17.734786"><ele>35.25</ele></trkpt>
   <trkpt lat="59.805523" lon="17.734262"><ele>35.75</ele></trkpt>
   <trkpt lat="59.807761" lon="17.73186"><ele>28.5</ele></trkpt>
   <trkpt lat="59.807894" lon="17.73172"><ele>27.75</ele></trkpt>
   <trkpt lat="59.810855" lon="17.728543"><ele>20.75</ele></trkpt>
   <trkpt lat="59.812172" lon="17.727092"><ele>25</ele></trkpt>
   <trkpt lat="59.812654" lon="17.72658"><ele>25.5</ele></trkpt>
   <trkpt lat="59.812925" lon="17.726287"><ele>25.5</ele></trkpt>
   <trkpt lat="59.813583" lon="17.72559"><ele>24.75</ele></trkpt>
   <trkpt lat="59.81502" lon="17.724027"><ele>24.25</ele></trkpt>
   <trkpt lat="59.815077" lon="17.723965"><ele>24.25</ele></trkpt>
   <trkpt lat="59.81572" lon="17.723268"><ele>24.5</ele></trkpt>
   <trkpt lat="59.816195" lon="17.722717"><ele>24.25</ele></trkpt>
   <trkpt lat="59.816657" lon="17.722157"><ele>24.5</ele></trkpt>
   <trkpt lat="59.817109" lon="17.721597"><ele>24</ele></trkpt>
   <trkpt lat="59.817554" lon="17.721027"><ele>23</ele></trkpt>
   <trkpt lat="59.817981" lon="17.720438"><ele>23.75</ele></trkpt>
   <trkpt lat="59.817997" lon="17.720416"><ele>24</ele></trkpt>
   <trkpt lat="59.818894" lon="17.719196"><ele>24</ele></trkpt>
   <trkpt lat="59.819334" lon="17.7186"><ele>23.5</ele></trkpt>
   <trkpt lat="59.820542" lon="17.716925"><ele>20.75</ele></trkpt>
   <trkpt lat="59.821099" lon="17.71613"><ele>19.75</ele></trkpt>
   <trkpt lat="59.822401" lon="17.714193"><ele>18.5</ele></trkpt>
   <trkpt lat="59.823655" lon="17.712222"><ele>16</ele></trkpt>
   <trkpt lat="59.824483" lon="17.71087"><ele>11.5</ele></trkpt>
   <trkpt lat="59.825315" lon="17.709468"><ele>11.25</ele></trkpt>
   <trkpt lat="59.82572" lon="17.708776"><ele>11</ele></trkpt>
   <trkpt lat="59.826324" lon="17.707701"><ele>10.75</ele></trkpt>
   <trkpt lat="59.826889" lon="17.706673"><ele>11.5</ele></trkpt>
   <trkpt lat="59.826911" lon="17.706632"><ele>11.5</ele></trkpt>
   <trkpt lat="59.82747" lon="17.705604"><ele>9.75</ele></trkpt>
   <trkpt lat="59.828089" lon="17.704447"><ele>9.5</ele></trkpt>
   <trkpt lat="59.828433" lon="17.703776"><ele>10.25</ele></trkpt>
   <trkpt lat="59.828685" lon="17.703389"><ele>10</ele></trkpt>
   <trkpt lat="59.828982" lon="17.702835"><ele>9.25</ele></trkpt>
   <trkpt lat="59.829198" lon="17.702423"><ele>9</ele></trkpt>
   <trkpt lat="59.829395" lon="17.702044"><ele>9.25</ele></trkpt>
   <trkpt lat="59.829683" lon="17.70141"><ele>9.5</ele></trkpt>
   <trkpt lat="59.829696" lon="17.701384"><ele>9.75</ele></trkpt>
   <trkpt lat="59.830802" lon="17.699237"><ele>10.75</ele></trkpt>
   <trkpt lat="59.831185" lon="17.698513"><ele>11</ele></trkpt>
   <trkpt lat="59.831199" lon="17.698486"><ele>11</ele></trkpt>
   <trkpt lat="59.832752" lon="17.695504"><ele>9.5</ele></trkpt>
   <trkpt lat="59.833144" lon="17.694769"><ele>9.5</ele></trkpt>
   <trkpt lat="59.833914" lon="17.693292"><ele>9.5</ele></trkpt>
   <trkpt lat="59.837008" lon="17.687374"><ele>8.25</ele></trkpt>
   <trkpt lat="59.838545" lon="17.684416"><ele>9.25</ele></trkpt>
   <trkpt lat="59.839332" lon="17.682924"><ele>10</ele></trkpt>
   <trkpt lat="59.839711" lon="17.682182"><ele>10.5</ele></trkpt>
   <trkpt lat="59.840107" lon="17.681431"><ele>11</ele></trkpt>
   <trkpt lat="59.840392" lon="17.680887"><ele>11</ele></trkpt>
   <trkpt lat="59.840876" lon="17.679962"><ele>9.75</ele></trkpt>
   <trkpt lat="59.842443" lon="17.676962"><ele>9.5</ele></trkpt>
   <trkpt lat="59.842816" lon="17.676232"><ele>8.25</ele></trkpt>
   <trkpt lat="59.844352" lon="17.673298"><ele>11</ele></trkpt>
   <trkpt lat="59.844945" lon="17.672172"><ele>9</ele></trkpt>
   <trkpt lat="59.845312" lon="17.671458"><ele>8.75</ele></trkpt>
   <trkpt lat="59.845749" lon="17.670618"><ele>8.5</ele></trkpt>
   <trkpt lat="59.845863" lon="17.6704"><ele>8.5</ele></trkpt>
   <trkpt lat="59.846583" lon="17.669025"><ele>10.75</ele></trkpt>
   <trkpt lat="59.846876" lon="17.668473"><ele>11.25</ele></trkpt>
   <trkpt lat="59.847737" lon="17.6668"><ele>12</ele></trkpt>
   <trkpt lat="59.847782" lon="17.666712"><ele>12</ele></trkpt>
   <trkpt lat="59.847904" lon="17.666475"><ele>12</ele></trkpt>
   <trkpt lat="59.848872" lon="17.664734"><ele>12.25</ele></trkpt>
   <trkpt lat="59.84897" lon="17.664541"><ele>12.25</ele></trkpt>
   <trkpt lat="59.849336" lon="17.663846"><ele>12</ele></trkpt>
   <trkpt lat="59.85007" lon="17.662318"><ele>11</ele></trkpt>
   <trkpt lat="59.850079" lon="17.662303"><ele>11</ele></trkpt>
   <trkpt lat="59.850338" lon="17.66181"><ele>11.25</ele></trkpt>
   <trkpt lat="59.851255" lon="17.660045"><ele>10</ele></trkpt>
   <trkpt lat="59.851297" lon="17.659965"><ele>9.75</ele></trkpt>
   <trkpt lat="59.851641" lon="17.65931"><ele>10.5</ele></trkpt>
   <trkpt lat="59.852424" lon="17.657808"><ele>12</ele></trkpt>
   <trkpt lat="59.85255" lon="17.657564"><ele>12.5</ele></trkpt>
   <trkpt lat="59.853526" lon="17.65581"><ele>10.25</ele></trkpt>
   <trkpt lat="59.853613" lon="17.655641"><ele>10.5</ele></trkpt>
   <trkpt lat="59.854637" lon="17.65367"><ele>13.75</ele></trkpt>
   <trkpt lat="59.854956" lon="17.653072"><ele>14</ele></trkpt>
   <trkpt lat="59.855185" lon="17.652623"><ele>13.75</ele></trkpt>
   <trkpt lat="59.855386" lon="17.65223"><ele>13.25</ele></trkpt>
   <trkpt lat="59.855407" lon="17.652191"><ele>13.25</ele></trkpt>
   <trkpt lat="59.855771" lon="17.651506"><ele>12.25</ele></trkpt>
   <trkpt lat="59.856238" lon="17.650696"><ele>12.75</ele></trkpt>
   <trkpt lat="59.857116" lon="17.649206"><ele>12.25</ele></trkpt>
  </trkseg>
 </trk>
</gpx>