<?xml version="1.0" encoding="UTF-8"?>
<!-- track-length = 65857 filtered ascend = 111 plain-ascend = -21 cost=65857 energy=0.8kwh time=1h 27m 48s -->
<gpx 
 xmlns="http://www.topografix.com/GPX/1/1" 
 xmlns:xsi="http://www.w3.org/2001/XMLSchema-instance" 
 xsi:schemaLocation="http://www.topografix.com/GPX/1/1 http://www.topografix.com/GPX/1/1/gpx.xsd" 
 version="1.1" 
 creator="BRouter-Web 0.18.1">
 <trk>
  <name>Praha -&gt; Velký Osek</name>
  <trkseg>
   <trkpt lat="50.082012" lon="14.435189"><ele>213</ele></trkpt>
   <trkpt lat="50.082114" lon="14.435265"><ele>213.75</ele></trkpt>
   <trkpt lat="50.082981" lon="14.435903"><ele>216.75</ele></trkpt>
   <trkpt lat="50.083021" lon="14.435933"><ele>216.75</ele></trkpt>
   <trkpt lat="50.083212" lon="14.436074"><ele>217.5</ele></trkpt>
   <trkpt lat="50.083966" lon="14.436629"><ele>214.5</ele></trkpt>
   <trkpt lat="50.084975" lon="14.437369"><ele>207.75</ele></trkpt>
   <trkpt lat="50.085272" lon="14.437588"><ele>207.75</ele></trkpt>
   <trkpt lat="50.085322" lon="14.437623"><ele>207.75</ele></trkpt>
   <trkpt lat="50.085547" lon="14.437813"><ele>207.75</ele></trkpt>
   <trkpt lat="50.085917" lon="14.43817"><ele>207</ele></trkpt>
   <trkpt lat="50.08594" lon="14.438194"><ele>207</ele></trkpt>
   <trkpt lat="50.085988" lon="14.438241"><ele>206.75</ele></trkpt>
   <trkpt lat="50.08612" lon="14.438385"><ele>206.25</ele></trkpt>
   <trkpt lat="50.086252" lon="14.438553"><ele>205.75</ele></trkpt>
   <trkpt lat="50.086356" lon="14.438695"><ele>205.75</ele></trkpt>
   <trkpt lat="50.086442" lon="14.438829"><ele>205.75</ele></trkpt>
   <trkpt lat="50.086476" lon="14.438879"><ele>205.75</ele></trkpt>
   <trkpt lat="50.086651" lon="14.439176"><ele>206</ele></trkpt>
   <trkpt lat="50.086822" lon="14.439496"><ele>206.25</ele></trkpt>
   <trkpt lat="50.086919" lon="14.439683"><ele>206.25</ele></trkpt>
   <trkpt lat="50.086999" lon="14.43984"><ele>206.5</ele></trkpt>
   <trkpt lat="50.087111" lon="14.440092"><ele>206.75</ele></trkpt>
   <trkpt lat="50.087248" lon="14.440466"><ele>207</ele></trkpt>
   <trkpt lat="50.087434" lon="14.441046"><ele>207.5</ele></trkpt>
   <trkpt lat="50.087538" lon="14.441375"><ele>207.75</ele></trkpt>
   <trkpt lat="50.087806" lon="14.442215"><ele>208.5</ele></trkpt>
   <trkpt lat="50.087872" lon="14.44242"><ele>208.5</ele></trkpt>
   <trkpt lat="50.087945" lon="14.442656"><ele>208.75</ele></trkpt>
   <trkpt lat="50.088084" lon="14.443175"><ele>209.25</ele></trkpt>
   <trkpt lat="50.088155" lon="14.443488"><ele>209.5</ele></trkpt>
   <trkpt lat="50.088238" lon="14.443907"><ele>209.75</ele></trkpt>
   <trkpt lat="50.088314" lon="14.444392"><ele>210.25</ele></trkpt>
   <trkpt lat="50.088356" lon="14.444748"><ele>210.5</ele></trkpt>
   <trkpt lat="50.088388" lon="14.445083"><ele>210.75</ele></trkpt>
   <trkpt lat="50.088406" lon="14.445387"><ele>211</ele></trkpt>
   <trkpt lat="50.088416" lon="14.44557"><ele>211</ele></trkpt>
   <trkpt lat="50.088417" lon="14.445616"><ele>211.75</ele></trkpt>
   <trkpt lat="50.088422" lon="14.445876"><ele>211.75</ele></trkpt>
   <trkpt lat="50.088417" lon="14.446423"><ele>212.25</ele></trkpt>
   <trkpt lat="50.088361" lon="14.448425"><ele>213.5</ele></trkpt>
   <trkpt lat="50.088351" lon="14.449047"><ele>214</ele></trkpt>
   <trkpt lat="50.088343" lon="14.449568"><ele>214.25</ele></trkpt>
   <trkpt lat="50.088384" lon="14.450254"><ele>214.75</ele></trkpt>
   <trkpt lat="50.088441" lon="14.450956"><ele>215.25</ele></trkpt>
   <trkpt lat="50.088682" lon="14.452301"><ele>216.25</ele></trkpt>
   <trkpt lat="50.090196" lon="14.458866"><ele>221</ele></trkpt>
   <trkpt lat="50.090508" lon="14.460174"><ele>222</ele></trkpt>
   <trkpt lat="50.090705" lon="14.460816"><ele>222.5</ele></trkpt>
   <trkpt lat="50.090916" lon="14.461409"><ele>223</ele></trkpt>
   <trkpt lat="50.091378" lon="14.462612"><ele>224</ele></trkpt>
   <trkpt lat="50.091715" lon="14.463561"><ele>224.75</ele></trkpt>
   <trkpt lat="50.091787" lon="14.463807"><ele>224.75</ele></trkpt>
   <trkpt lat="50.091869" lon="14.464123"><ele>225</ele></trkpt>
   <trkpt lat="50.091897" lon="14.464234"><ele>224.25</ele></trkpt>
   <trkpt lat="50.092021" lon="14.46481"><ele>221.75</ele></trkpt>
   <trkpt lat="50.092208" lon="14.465877"><ele>219.5</ele></trkpt>
   <trkpt lat="50.092323" lon="14.466524"><ele>219</ele></trkpt>
   <trkpt lat="50.092444" lon="14.467108"><ele>218.5</ele></trkpt>
   <trkpt lat="50.092599" lon="14.467695"><ele>218.75</ele></trkpt>
   <trkpt lat="50.09266" lon="14.467898"><ele>218.5</ele></trkpt>
   <trkpt lat="50.092823" lon="14.468387"><ele>217.75</ele></trkpt>
   <trkpt lat="50.092983" lon="14.468862"><ele>217.5</ele></trkpt>
   <trkpt lat="50.093103" lon="14.469192"><ele>217.5</ele></trkpt>
   <trkpt lat="50.093164" lon="14.469341"><ele>217.5</ele></trkpt>
   <trkpt lat="50.093355" lon="14.469738"><ele>216.75</ele></trkpt>
   <trkpt lat="50.093622" lon="14.470234"><ele>216.75</ele></trkpt>
   <trkpt lat="50.093756" lon="14.470477"><ele>216</ele></trkpt>
   <trkpt lat="50.094524" lon="14.471845"><ele>213</ele></trkpt>
   <trkpt lat="50.094901" lon="14.47252"><ele>213.25</ele></trkpt>
   <trkpt lat="50.096957" lon="14.476191"><ele>218.25</ele></trkpt>
   <trkpt lat="50.097254" lon="14.476705"><ele>218</ele></trkpt>
   <trkpt lat="50.09751" lon="14.477117"><ele>217.5</ele></trkpt>
   <trkpt lat="50.097711" lon="14.477404"><ele>217.25</ele></trkpt>
   <trkpt lat="50.097906" lon="14.477667"><ele>217</ele></trkpt>
   <trkpt lat="50.098087" lon="14.477894"><ele>216.25</ele></trkpt>
   <trkpt lat="50.098451" lon="14.478307"><ele>214.5</ele></trkpt>
   <trkpt lat="50.09893" lon="14.478789"><ele>213.75</ele></trkpt>
   <trkpt lat="50.099333" lon="14.479151"><ele>212.75</ele></trkpt>
   <trkpt lat="50.099516" lon="14.479297"><ele>212.25</ele></trkpt>
   <trkpt lat="50.099895" lon="14.479568"><ele>212</ele></trkpt>
   <trkpt lat="50.100094" lon="14.479693"><ele>212</ele></trkpt>
   <trkpt lat="50.100304" lon="14.479812"><ele>212.25</ele></trkpt>
   <trkpt lat="50.100626" lon="14.479973"><ele>212.75</ele></trkpt>
   <trkpt lat="50.100827" lon="14.48006"><ele>212.5</ele></trkpt>
   <trkpt lat="50.101003" lon="14.480131"><ele>212.25</ele></trkpt>
   <trkpt lat="50.10129" lon="14.480224"><ele>212</ele></trkpt>
   <trkpt lat="50.101555" lon="14.48031"><ele>211.75</ele></trkpt>
   <trkpt lat="50.101838" lon="14.48039"><ele>211.75</ele></trkpt>
   <trkpt lat="50.10223" lon="14.480472"><ele>210</ele></trkpt>
   <trkpt lat="50.10255" lon="14.480508"><ele>208.75</ele></trkpt>
   <trkpt lat="50.102766" lon="14.480521"><ele>208.5</ele></trkpt>
   <trkpt lat="50.103006" lon="14.480523"><ele>208.25</ele></trkpt>
   <trkpt lat="50.10331" lon="14.480507"><ele>208</ele></trkpt>
   <trkpt lat="50.103375" lon="14.480504"><ele>207.75</ele></trkpt>
   <trkpt lat="50.104213" lon="14.480418"><ele>203</ele></trkpt>
   <trkpt lat="50.105223" lon="14.480308"><ele>203</ele></trkpt>
   <trkpt lat="50.106158" lon="14.480206"><ele>201.25</ele></trkpt>
   <trkpt lat="50.106522" lon="14.480158"><ele>202.25</ele></trkpt>
   <trkpt lat="50.106778" lon="14.480141"><ele>202.75</ele></trkpt>
   <trkpt lat="50.107129" lon="14.480146"><ele>203.5</ele></trkpt>
   <trkpt lat="50.107316" lon="14.480162"><ele>203.75</ele></trkpt>
   <trkpt lat="50.107511" lon="14.480203"><ele>204</ele></trkpt>
   <trkpt lat="50.107699" lon="14.48026"><ele>203.25</ele></trkpt>
   <trkpt lat="50.107889" lon="14.480339"><ele>202.5</ele></trkpt>
   <trkpt lat="50.108187" lon="14.480501"><ele>200.75</ele></trkpt>
   <trkpt lat="50.108238" lon="14.480532"><ele>200.25</ele></trkpt>
   <trkpt lat="50.108493" lon="14.480713"><ele>198.75</ele></trkpt>
   <trkpt lat="50.108873" lon="14.481023"><ele>196.25</ele></trkpt>
   <trkpt lat="50.109071" lon="14.481212"><ele>195</ele></trkpt>
   <trkpt lat="50.109157" lon="14.481297"><ele>195</ele></trkpt>
   <trkpt lat="50.109427" lon="14.4816"><ele>197.25</ele></trkpt>
   <trkpt lat="50.109722" lon="14.482001"><ele>199.75</ele></trkpt>
   <trkpt lat="50.109938" lon="14.482392"><ele>202.75</ele></trkpt>
   <trkpt lat="50.110051" lon="14.482619"><ele>204.75</ele></trkpt>
   <trkpt lat="50.110254" lon="14.483121"><ele>208.5</ele></trkpt>
   <trkpt lat="50.110349" lon="14.483399"><ele>210</ele></trkpt>
   <trkpt lat="50.110569" lon="14.484096"><ele>209.25</ele></trkpt>
   <trkpt lat="50.110792" lon="14.484835"><ele>210.5</ele></trkpt>
   <trkpt lat="50.110987" lon="14.485488"><ele>211.25</ele></trkpt>
   <trkpt lat="50.111641" lon="14.48767"><ele>212.25</ele></trkpt>
   <trkpt lat="50.111738" lon="14.488028"><ele>212.25</ele></trkpt>
   <trkpt lat="50.111866" lon="14.488595"><ele>212.5</ele></trkpt>
   <trkpt lat="50.111961" lon="14.489146"><ele>211.75</ele></trkpt>
   <trkpt lat="50.11202" lon="14.489604"><ele>210.5</ele></trkpt>
   <trkpt lat="50.112067" lon="14.490124"><ele>209.25</ele></trkpt>
   <trkpt lat="50.1121" lon="14.490993"><ele>209.75</ele></trkpt>
   <trkpt lat="50.112104" lon="14.491172"><ele>209.5</ele></trkpt>
   <trkpt lat="50.112129" lon="14.491613"><ele>209.75</ele></trkpt>
   <trkpt lat="50.112176" lon="14.49235"><ele>211</ele></trkpt>
   <trkpt lat="50.112178" lon="14.492453"><ele>211</ele></trkpt>
   <trkpt lat="50.112188" lon="14.492832"><ele>212</ele></trkpt>
   <trkpt lat="50.112238" lon="14.494993"><ele>211.5</ele></trkpt>
   <trkpt lat="50.1123" lon="14.497543"><ele>210.5</ele></trkpt>
   <trkpt lat="50.112302" lon="14.497601"><ele>210.5</ele></trkpt>
   <trkpt lat="50.112347" lon="14.499488"><ele>211</ele></trkpt>
   <trkpt lat="50.112377" lon="14.500597"><ele>211.75</ele></trkpt>
   <trkpt lat="50.112411" lon="14.501807"><ele>211</ele></trkpt>
   <trkpt lat="50.112416" lon="14.501957"><ele>211.25</ele></trkpt>
   <trkpt lat="50.112427" lon="14.502358"><ele>211.75</ele></trkpt>
   <trkpt lat="50.112436" lon="14.502654"><ele>212</ele></trkpt>
   <trkpt lat="50.112451" lon="14.503143"><ele>212.5</ele></trkpt>
   <trkpt lat="50.112484" lon="14.504339"><ele>216.5</ele></trkpt>
   <trkpt lat="50.112486" lon="14.50441"><ele>216.75</ele></trkpt>
   <trkpt lat="50.112495" lon="14.504689"><ele>217.75</ele></trkpt>
   <trkpt lat="50.112519" lon="14.505187"><ele>218.75</ele></trkpt>
   <trkpt lat="50.112562" lon="14.5058"><ele>218</ele></trkpt>
   <trkpt lat="50.112581" lon="14.506218"><ele>217.5</ele></trkpt>
   <trkpt lat="50.112584" lon="14.50633"><ele>217.5</ele></trkpt>
   <trkpt lat="50.112614" lon="14.507285"><ele>217.25</ele></trkpt>
   <trkpt lat="50.112629" lon="14.507624"><ele>217.25</ele></trkpt>
   <trkpt lat="50.112655" lon="14.507989"><ele>217.5</ele></trkpt>
   <trkpt lat="50.112722" lon="14.508598"><ele>217.75</ele></trkpt>
   <trkpt lat="50.112795" lon="14.509087"><ele>217.75</ele></trkpt>
   <trkpt lat="50.112918" lon="14.509763"><ele>218</ele></trkpt>
   <trkpt lat="50.113472" lon="14.512731"><ele>219.75</ele></trkpt>
   <trkpt lat="50.113556" lon="14.513178"><ele>220.5</ele></trkpt>
   <trkpt lat="50.113666" lon="14.513869"><ele>221.75</ele></trkpt>
   <trkpt lat="50.11371" lon="14.514224"><ele>222.25</ele></trkpt>
   <trkpt lat="50.113767" lon="14.514893"><ele>222.25</ele></trkpt>
   <trkpt lat="50.113796" lon="14.515647"><ele>222.5</ele></trkpt>
   <trkpt lat="50.113792" lon="14.516059"><ele>222.25</ele></trkpt>
   <trkpt lat="50.11378" lon="14.516426"><ele>221.75</ele></trkpt>
   <trkpt lat="50.113754" lon="14.516852"><ele>221.75</ele></trkpt>
   <trkpt lat="50.113725" lon="14.517209"><ele>222</ele></trkpt>
   <trkpt lat="50.113677" lon="14.517613"><ele>222.25</ele></trkpt>
   <trkpt lat="50.113628" lon="14.51796"><ele>222.5</ele></trkpt>
   <trkpt lat="50.113566" lon="14.518325"><ele>222.75</ele></trkpt>
   <trkpt lat="50.113496" lon="14.518684"><ele>223.25</ele></trkpt>
   <trkpt lat="50.113315" lon="14.519424"><ele>223.5</ele></trkpt>
   <trkpt lat="50.113213" lon="14.519768"><ele>223.5</ele></trkpt>
   <trkpt lat="50.113107" lon="14.520099"><ele>223.25</ele></trkpt>
   <trkpt lat="50.112853" lon="14.520788"><ele>223.25</ele></trkpt>
   <trkpt lat="50.112137" lon="14.522535"><ele>223.5</ele></trkpt>
   <trkpt lat="50.111968" lon="14.522996"><ele>224.5</ele></trkpt>
   <trkpt lat="50.111738" lon="14.523754"><ele>225.5</ele></trkpt>
   <trkpt lat="50.111665" lon="14.524067"><ele>225.5</ele></trkpt>
   <trkpt lat="50.111604" lon="14.524369"><ele>226.25</ele></trkpt>
   <trkpt lat="50.111559" lon="14.524629"><ele>227</ele></trkpt>
   <trkpt lat="50.11149" lon="14.525078"><ele>228</ele></trkpt>
   <trkpt lat="50.111451" lon="14.525454"><ele>228.75</ele></trkpt>
   <trkpt lat="50.111427" lon="14.525775"><ele>229.5</ele></trkpt>
   <trkpt lat="50.111412" lon="14.526075"><ele>230</ele></trkpt>
   <trkpt lat="50.111407" lon="14.526762"><ele>231.5</ele></trkpt>
   <trkpt lat="50.11146" lon="14.528538"><ele>233</ele></trkpt>
   <trkpt lat="50.111471" lon="14.529367"><ele>232.25</ele></trkpt>
   <trkpt lat="50.111463" lon="14.529659"><ele>231.5</ele></trkpt>
   <trkpt lat="50.111432" lon="14.530212"><ele>230.75</ele></trkpt>
   <trkpt lat="50.111397" lon="14.530613"><ele>230.5</ele></trkpt>
   <trkpt lat="50.111333" lon="14.531138"><ele>230.25</ele></trkpt>
   <trkpt lat="50.111284" lon="14.531513"><ele>230</ele></trkpt>
   <trkpt lat="50.111136" lon="14.532697"><ele>232</ele></trkpt>
   <trkpt lat="50.110991" lon="14.53392"><ele>236.25</ele></trkpt>
   <trkpt lat="50.110906" lon="14.534729"><ele>238.75</ele></trkpt>
   <trkpt lat="50.110674" lon="14.537951"><ele>242</ele></trkpt>
   <trkpt lat="50.110525" lon="14.53996"><ele>246.5</ele></trkpt>
   <trkpt lat="50.11017" lon="14.544931"><ele>247.25</ele></trkpt>
   <trkpt lat="50.11003" lon="14.546821"><ele>250</ele></trkpt>
   <trkpt lat="50.109957" lon="14.547459"><ele>251.5</ele></trkpt>
   <trkpt lat="50.109911" lon="14.547765"><ele>252.25</ele></trkpt>
   <trkpt lat="50.10986" lon="14.548053"><ele>252.75</ele></trkpt>
   <trkpt lat="50.109796" lon="14.548355"><ele>253.25</ele></trkpt>
   <trkpt lat="50.109725" lon="14.548644"><ele>253</ele></trkpt>
   <trkpt lat="50.109647" lon="14.548934"><ele>252.75</ele></trkpt>
   <trkpt lat="50.109564" lon="14.549208"><ele>252.25</ele></trkpt>
   <trkpt lat="50.109462" lon="14.549512"><ele>252</ele></trkpt>
   <trkpt lat="50.109266" lon="14.550008"><ele>251.5</ele></trkpt>
   <trkpt lat="50.109169" lon="14.550229"><ele>251</ele></trkpt>
   <trkpt lat="50.109039" lon="14.550501"><ele>250.5</ele></trkpt>
   <trkpt lat="50.10889" lon="14.550786"><ele>250.25</ele></trkpt>
   <trkpt lat="50.10826" lon="14.551916"><ele>250.25</ele></trkpt>
   <trkpt lat="50.108026" lon="14.552355"><ele>251.5</ele></trkpt>
   <trkpt lat="50.107936" lon="14.552542"><ele>252</ele></trkpt>
   <trkpt lat="50.107748" lon="14.552959"><ele>253.25</ele></trkpt>
   <trkpt lat="50.107636" lon="14.55325"><ele>254.25</ele></trkpt>
   <trkpt lat="50.107559" lon="14.553474"><ele>255</ele></trkpt>
   <trkpt lat="50.107461" lon="14.553787"><ele>256</ele></trkpt>
   <trkpt lat="50.107385" lon="14.554064"><ele>257</ele></trkpt>
   <trkpt lat="50.107312" lon="14.554362"><ele>258</ele></trkpt>
   <trkpt lat="50.107258" lon="14.554617"><ele>258.75</ele></trkpt>
   <trkpt lat="50.107168" lon="14.555156"><ele>260</ele></trkpt>
   <trkpt lat="50.107134" lon="14.555426"><ele>260.25</ele></trkpt>
   <trkpt lat="50.10709" lon="14.555934"><ele>260.5</ele></trkpt>
   <trkpt lat="50.107075" lon="14.556245"><ele>260.5</ele></trkpt>
   <trkpt lat="50.10707" lon="14.556556"><ele>260.75</ele></trkpt>
   <trkpt lat="50.107076" lon="14.556878"><ele>260.5</ele></trkpt>
   <trkpt lat="50.10709" lon="14.557215"><ele>260.25</ele></trkpt>
   <trkpt lat="50.107139" lon="14.557786"><ele>260.25</ele></trkpt>
   <trkpt lat="50.107185" lon="14.558116"><ele>260.5</ele></trkpt>
   <trkpt lat="50.107294" lon="14.558723"><ele>260.75</ele></trkpt>
   <trkpt lat="50.107442" lon="14.559327"><ele>260.5</ele></trkpt>
   <trkpt lat="50.107601" lon="14.559863"><ele>260.5</ele></trkpt>
   <trkpt lat="50.10778" lon="14.560392"><ele>260.75</ele></trkpt>
   <trkpt lat="50.10788" lon="14.560659"><ele>261</ele></trkpt>
   <trkpt lat="50.108099" lon="14.561162"><ele>261.5</ele></trkpt>
   <trkpt lat="50.108242" lon="14.561453"><ele>262</ele></trkpt>
   <trkpt lat="50.108371" lon="14.561696"><ele>262</ele></trkpt>
   <trkpt lat="50.108394" lon="14.561738"><ele>262</ele></trkpt>
   <trkpt lat="50.108745" lon="14.562329"><ele>262.5</ele></trkpt>
   <trkpt lat="50.109228" lon="14.563077"><ele>261.75</ele></trkpt>
   <trkpt lat="50.109501" lon="14.563515"><ele>262</ele></trkpt>
   <trkpt lat="50.109624" lon="14.563714"><ele>262.5</ele></trkpt>
   <trkpt lat="50.109817" lon="14.564053"><ele>263</ele></trkpt>
   <trkpt lat="50.109898" lon="14.564201"><ele>263.25</ele></trkpt>
   <trkpt lat="50.11015" lon="14.564692"><ele>264.25</ele></trkpt>
   <trkpt lat="50.110886" lon="14.566305"><ele>268.5</ele></trkpt>
   <trkpt lat="50.111321" lon="14.567383"><ele>267.5</ele></trkpt>
   <trkpt lat="50.111759" lon="14.568361"><ele>267.25</ele></trkpt>
   <trkpt lat="50.111887" lon="14.56867"><ele>267</ele></trkpt>
   <trkpt lat="50.112023" lon="14.569019"><ele>267</ele></trkpt>
   <trkpt lat="50.112158" lon="14.569388"><ele>266.5</ele></trkpt>
   <trkpt lat="50.11232" lon="14.569866"><ele>266</ele></trkpt>
   <trkpt lat="50.112433" lon="14.570229"><ele>266</ele></trkpt>
   <trkpt lat="50.112459" lon="14.570318"><ele>266.25</ele></trkpt>
   <trkpt lat="50.112548" lon="14.570626"><ele>266.5</ele></trkpt>
   <trkpt lat="50.11263" lon="14.570951"><ele>266.5</ele></trkpt>
   <trkpt lat="50.112725" lon="14.571358"><ele>266.25</ele></trkpt>
   <trkpt lat="50.112814" lon="14.571786"><ele>266.25</ele></trkpt>
   <trkpt lat="50.112985" lon="14.572707"><ele>267</ele></trkpt>
   <trkpt lat="50.113124" lon="14.573471"><ele>268.25</ele></trkpt>
   <trkpt lat="50.113166" lon="14.573699"><ele>268.75</ele></trkpt>
   <trkpt lat="50.11321" lon="14.57396"><ele>269.25</ele></trkpt>
   <trkpt lat="50.113256" lon="14.574208"><ele>269.25</ele></trkpt>
   <trkpt lat="50.113308" lon="14.574548"><ele>270.5</ele></trkpt>
   <trkpt lat="50.113343" lon="14.574824"><ele>271.5</ele></trkpt>
   <trkpt lat="50.113368" lon="14.575084"><ele>272.25</ele></trkpt>
   <trkpt lat="50.1134" lon="14.575564"><ele>273</ele></trkpt>
   <trkpt lat="50.113407" lon="14.575788"><ele>273.25</ele></trkpt>
   <trkpt lat="50.11341" lon="14.576303"><ele>274</ele></trkpt>
   <trkpt lat="50.113395" lon="14.576711"><ele>274.5</ele></trkpt>
   <trkpt lat="50.113354" lon="14.577212"><ele>276</ele></trkpt>
   <trkpt lat="50.113179" lon="14.578785"><ele>278.25</ele></trkpt>
   <trkpt lat="50.113132" lon="14.579258"><ele>278.25</ele></trkpt>
   <trkpt lat="50.113086" lon="14.579912"><ele>278.5</ele></trkpt>
   <trkpt lat="50.113051" lon="14.580934"><ele>278.5</ele></trkpt>
   <trkpt lat="50.11295" lon="14.585704"><ele>278.75</ele></trkpt>
   <trkpt lat="50.112939" lon="14.586774"><ele>279.75</ele></trkpt>
   <trkpt lat="50.112938" lon="14.587499"><ele>280</ele></trkpt>
   <trkpt lat="50.112948" lon="14.588418"><ele>280.5</ele></trkpt>
   <trkpt lat="50.112984" lon="14.589701"><ele>281</ele></trkpt>
   <trkpt lat="50.113043" lon="14.5909"><ele>282</ele></trkpt>
   <trkpt lat="50.113133" lon="14.592251"><ele>283.25</ele></trkpt>
   <trkpt lat="50.113176" lon="14.592728"><ele>284</ele></trkpt>
   <trkpt lat="50.113285" lon="14.593833"><ele>285</ele></trkpt>
   <trkpt lat="50.113409" lon="14.59497"><ele>284.75</ele></trkpt>
   <trkpt lat="50.113542" lon="14.595977"><ele>285</ele></trkpt>
   <trkpt lat="50.113687" lon="14.596977"><ele>285</ele></trkpt>
   <trkpt lat="50.113925" lon="14.598413"><ele>284.25</ele></trkpt>
   <trkpt lat="50.11402" lon="14.598909"><ele>284</ele></trkpt>
   <trkpt lat="50.114211" lon="14.599848"><ele>284.75</ele></trkpt>
   <trkpt lat="50.114323" lon="14.600654"><ele>285</ele></trkpt>
   <trkpt lat="50.114391" lon="14.601006"><ele>285.25</ele></trkpt>
   <trkpt lat="50.114576" lon="14.601966"><ele>285.25</ele></trkpt>
   <trkpt lat="50.114626" lon="14.602227"><ele>285.25</ele></trkpt>
   <trkpt lat="50.1148" lon="14.603176"><ele>284</ele></trkpt>
   <trkpt lat="50.114885" lon="14.603639"><ele>283.5</ele></trkpt>
   <trkpt lat="50.115154" lon="14.60511"><ele>282.75</ele></trkpt>
   <trkpt lat="50.115303" lon="14.605881"><ele>282.5</ele></trkpt>
   <trkpt lat="50.11541" lon="14.606425"><ele>282.5</ele></trkpt>
   <trkpt lat="50.11572" lon="14.608008"><ele>281.5</ele></trkpt>
   <trkpt lat="50.116603" lon="14.61252"><ele>282</ele></trkpt>
   <trkpt lat="50.117308" lon="14.616098"><ele>281.25</ele></trkpt>
   <trkpt lat="50.117437" lon="14.616724"><ele>281</ele></trkpt>
   <trkpt lat="50.11754" lon="14.617263"><ele>281</ele></trkpt>
   <trkpt lat="50.117632" lon="14.617701"><ele>281</ele></trkpt>
   <trkpt lat="50.117973" lon="14.619511"><ele>281.25</ele></trkpt>
   <trkpt lat="50.118085" lon="14.620071"><ele>281.5</ele></trkpt>
   <trkpt lat="50.118324" lon="14.621075"><ele>279.5</ele></trkpt>
   <trkpt lat="50.119054" lon="14.624832"><ele>274.25</ele></trkpt>
   <trkpt lat="50.119093" lon="14.625019"><ele>274</ele></trkpt>
   <trkpt lat="50.120099" lon="14.630142"><ele>271.75</ele></trkpt>
   <trkpt lat="50.120116" lon="14.630229"><ele>271.75</ele></trkpt>
   <trkpt lat="50.120562" lon="14.632507"><ele>270.75</ele></trkpt>
   <trkpt lat="50.120649" lon="14.632932"><ele>269.75</ele></trkpt>
   <trkpt lat="50.120754" lon="14.633385"><ele>269</ele></trkpt>
   <trkpt lat="50.120894" lon="14.63387"><ele>268.5</ele></trkpt>
   <trkpt lat="50.121041" lon="14.63432"><ele>267.75</ele></trkpt>
   <trkpt lat="50.121359" lon="14.635143"><ele>266.75</ele></trkpt>
   <trkpt lat="50.12154" lon="14.635542"><ele>266.75</ele></trkpt>
   <trkpt lat="50.121609" lon="14.635693"><ele>266.75</ele></trkpt>
   <trkpt lat="50.121896" lon="14.636225"><ele>267.25</ele></trkpt>
   <trkpt lat="50.122273" lon="14.636892"><ele>266.75</ele></trkpt>
   <trkpt lat="50.122674" lon="14.637544"><ele>265</ele></trkpt>
   <trkpt lat="50.123231" lon="14.638428"><ele>263.25</ele></trkpt>
   <trkpt lat="50.123325" lon="14.638589"><ele>263</ele></trkpt>
   <trkpt lat="50.123367" lon="14.638661"><ele>262.75</ele></trkpt>
   <trkpt lat="50.123587" lon="14.639061"><ele>262</ele></trkpt>
   <trkpt lat="50.12377" lon="14.639427"><ele>261.25</ele></trkpt>
   <trkpt lat="50.124015" lon="14.639959"><ele>261</ele></trkpt>
   <trkpt lat="50.124064" lon="14.640064"><ele>261</ele></trkpt>
   <trkpt lat="50.124331" lon="14.640694"><ele>261</ele></trkpt>
   <trkpt lat="50.124591" lon="14.641345"><ele>261.75</ele></trkpt>
   <trkpt lat="50.124733" lon="14.641721"><ele>262.5</ele></trkpt>
   <trkpt lat="50.124874" lon="14.642098"><ele>262.75</ele></trkpt>
   <trkpt lat="50.125269" lon="14.643197"><ele>263.25</ele></trkpt>
   <trkpt lat="50.125575" lon="14.644113"><ele>263.75</ele></trkpt>
   <trkpt lat="50.125746" lon="14.644648"><ele>263.25</ele></trkpt>
   <trkpt lat="50.126167" lon="14.646041"><ele>263.25</ele></trkpt>
   <trkpt lat="50.126467" lon="14.647151"><ele>263.5</ele></trkpt>
   <trkpt lat="50.12685" lon="14.648668"><ele>264</ele></trkpt>
   <trkpt lat="50.127018" lon="14.649412"><ele>264</ele></trkpt>
   <trkpt lat="50.128259" lon="14.655281"><ele>262.75</ele></trkpt>
   <trkpt lat="50.129085" lon="14.659173"><ele>260.75</ele></trkpt>
   <trkpt lat="50.130013" lon="14.663579"><ele>259</ele></trkpt>
   <trkpt lat="50.13011" lon="14.664079"><ele>259</ele></trkpt>
   <trkpt lat="50.130186" lon="14.664528"><ele>258.5</ele></trkpt>
   <trkpt lat="50.130281" lon="14.665234"><ele>258</ele></trkpt>
   <trkpt lat="50.13034" lon="14.66574"><ele>257.75</ele></trkpt>
   <trkpt lat="50.13037" lon="14.666056"><ele>257.5</ele></trkpt>
   <trkpt lat="50.1304" lon="14.666488"><ele>257</ele></trkpt>
   <trkpt lat="50.130421" lon="14.666901"><ele>256.5</ele></trkpt>
   <trkpt lat="50.130435" lon="14.667335"><ele>256.25</ele></trkpt>
   <trkpt lat="50.130454" lon="14.668062"><ele>255.5</ele></trkpt>
   <trkpt lat="50.130458" lon="14.669097"><ele>255</ele></trkpt>
   <trkpt lat="50.130451" lon="14.671718"><ele>252.5</ele></trkpt>
   <trkpt lat="50.130454" lon="14.672624"><ele>252.5</ele></trkpt>
   <trkpt lat="50.130462" lon="14.673047"><ele>252.25</ele></trkpt>
   <trkpt lat="50.130483" lon="14.67348"><ele>252</ele></trkpt>
   <trkpt lat="50.130545" lon="14.674347"><ele>251.5</ele></trkpt>
   <trkpt lat="50.130587" lon="14.674777"><ele>250.75</ele></trkpt>
   <trkpt lat="50.130696" lon="14.675607"><ele>250</ele></trkpt>
   <trkpt lat="50.130766" lon="14.676027"><ele>249.5</ele></trkpt>
   <trkpt lat="50.130842" lon="14.676428"><ele>249.25</ele></trkpt>
   <trkpt lat="50.130927" lon="14.676861"><ele>248.75</ele></trkpt>
   <trkpt lat="50.131024" lon="14.677277"><ele>248.5</ele></trkpt>
   <trkpt lat="50.131224" lon="14.678037"><ele>247</ele></trkpt>
   <trkpt lat="50.131345" lon="14.678428"><ele>246.5</ele></trkpt>
   <trkpt lat="50.13146" lon="14.678795"><ele>246.75</ele></trkpt>
   <trkpt lat="50.131603" lon="14.679201"><ele>246.75</ele></trkpt>
   <trkpt lat="50.13174" lon="14.679565"><ele>246.5</ele></trkpt>
   <trkpt lat="50.131887" lon="14.679937"><ele>246.25</ele></trkpt>
   <trkpt lat="50.132131" lon="14.680499"><ele>246</ele></trkpt>
   <trkpt lat="50.132176" lon="14.680604"><ele>246</ele></trkpt>
   <trkpt lat="50.132577" lon="14.68148"><ele>245</ele></trkpt>
   <trkpt lat="50.132769" lon="14.681884"><ele>244.25</ele></trkpt>
   <trkpt lat="50.133042" lon="14.682609"><ele>244.25</ele></trkpt>
   <trkpt lat="50.133333" lon="14.683265"><ele>244.75</ele></trkpt>
   <trkpt lat="50.133713" lon="14.684014"><ele>244</ele></trkpt>
   <trkpt lat="50.133772" lon="14.684171"><ele>243.75</ele></trkpt>
   <trkpt lat="50.133987" lon="14.684607"><ele>243.75</ele></trkpt>
   <trkpt lat="50.134207" lon="14.685125"><ele>243.5</ele></trkpt>
   <trkpt lat="50.134426" lon="14.685574"><ele>242.5</ele></trkpt>
   <trkpt lat="50.134686" lon="14.686161"><ele>241.75</ele></trkpt>
   <trkpt lat="50.135118" lon="14.68718"><ele>241.75</ele></trkpt>
   <trkpt lat="50.13533" lon="14.687686"><ele>241.5</ele></trkpt>
   <trkpt lat="50.135659" lon="14.688517"><ele>240.5</ele></trkpt>
   <trkpt lat="50.136166" lon="14.689904"><ele>241</ele></trkpt>
   <trkpt lat="50.136992" lon="14.692113"><ele>240.25</ele></trkpt>
   <trkpt lat="50.137154" lon="14.692496"><ele>240</ele></trkpt>
   <trkpt lat="50.137282" lon="14.692847"><ele>240</ele></trkpt>
   <trkpt lat="50.13773" lon="14.693982"><ele>240.25</ele></trkpt>
   <trkpt lat="50.137977" lon="14.694548"><ele>240.25</ele></trkpt>
   <trkpt lat="50.138285" lon="14.695171"><ele>240</ele></trkpt>
   <trkpt lat="50.138817" lon="14.696218"><ele>239.25</ele></trkpt>
   <trkpt lat="50.139181" lon="14.696881"><ele>238.75</ele></trkpt>
   <trkpt lat="50.13976" lon="14.697936"><ele>237.75</ele></trkpt>
   <trkpt lat="50.139948" lon="14.69828"><ele>238</ele></trkpt>
   <trkpt lat="50.14028" lon="14.69899"><ele>237.75</ele></trkpt>
   <trkpt lat="50.141506" lon="14.701231"><ele>236.5</ele></trkpt>
   <trkpt lat="50.141722" lon="14.70164"><ele>236.75</ele></trkpt>
   <trkpt lat="50.14193" lon="14.702059"><ele>236</ele></trkpt>
   <trkpt lat="50.142133" lon="14.702484"><ele>235.25</ele></trkpt>
   <trkpt lat="50.142305" lon="14.702868"><ele>234.75</ele></trkpt>
   <trkpt lat="50.142473" lon="14.703264"><ele>234.75</ele></trkpt>
   <trkpt lat="50.142634" lon="14.703669"><ele>234.75</ele></trkpt>
   <trkpt lat="50.142786" lon="14.70408"><ele>234.5</ele></trkpt>
   <trkpt lat="50.142988" lon="14.704668"><ele>234.25</ele></trkpt>
   <trkpt lat="50.143196" lon="14.705333"><ele>233.75</ele></trkpt>
   <trkpt lat="50.143302" lon="14.705713"><ele>233</ele></trkpt>
   <trkpt lat="50.143489" lon="14.706443"><ele>232.25</ele></trkpt>
   <trkpt lat="50.143649" lon="14.707165"><ele>231.75</ele></trkpt>
   <trkpt lat="50.143788" lon="14.707899"><ele>231.25</ele></trkpt>
   <trkpt lat="50.143872" lon="14.70841"><ele>230.75</ele></trkpt>
   <trkpt lat="50.143935" lon="14.708843"><ele>230</ele></trkpt>
   <trkpt lat="50.143993" lon="14.709294"><ele>229.25</ele></trkpt>
   <trkpt lat="50.144426" lon="14.712954"><ele>225.25</ele></trkpt>
   <trkpt lat="50.144458" lon="14.713237"><ele>225.5</ele></trkpt>
   <trkpt lat="50.145159" lon="14.719172"><ele>220.75</ele></trkpt>
   <trkpt lat="50.146233" lon="14.728363"><ele>214.5</ele></trkpt>
   <trkpt lat="50.146296" lon="14.72892"><ele>214.25</ele></trkpt>
   <trkpt lat="50.146376" lon="14.729618"><ele>213.75</ele></trkpt>
   <trkpt lat="50.146436" lon="14.730198"><ele>213.25</ele></trkpt>
   <trkpt lat="50.146473" lon="14.730618"><ele>213</ele></trkpt>
   <trkpt lat="50.146501" lon="14.730981"><ele>213</ele></trkpt>
   <trkpt lat="50.146542" lon="14.731814"><ele>212.25</ele></trkpt>
   <trkpt lat="50.146547" lon="14.73264"><ele>212</ele></trkpt>
   <trkpt lat="50.146518" lon="14.733504"><ele>211</ele></trkpt>
   <trkpt lat="50.146439" lon="14.734859"><ele>208.5</ele></trkpt>
   <trkpt lat="50.146434" lon="14.734955"><ele>208.25</ele></trkpt>
   <trkpt lat="50.145756" lon="14.745954"><ele>204.25</ele></trkpt>
   <trkpt lat="50.145737" lon="14.746415"><ele>204.75</ele></trkpt>
   <trkpt lat="50.145734" lon="14.746864"><ele>204.75</ele></trkpt>
   <trkpt lat="50.14575" lon="14.747272"><ele>204.25</ele></trkpt>
   <trkpt lat="50.14577" lon="14.747547"><ele>204</ele></trkpt>
   <trkpt lat="50.145803" lon="14.747836"><ele>203.5</ele></trkpt>
   <trkpt lat="50.145845" lon="14.748113"><ele>203.25</ele></trkpt>
   <trkpt lat="50.145942" lon="14.748616"><ele>203</ele></trkpt>
   <trkpt lat="50.146029" lon="14.748955"><ele>203</ele></trkpt>
   <trkpt lat="50.146099" lon="14.749192"><ele>203</ele></trkpt>
   <trkpt lat="50.146205" lon="14.749508"><ele>203</ele></trkpt>
   <trkpt lat="50.146303" lon="14.749761"><ele>202.75</ele></trkpt>
   <trkpt lat="50.146378" lon="14.749937"><ele>202.5</ele></trkpt>
   <trkpt lat="50.146505" lon="14.750201"><ele>202.25</ele></trkpt>
   <trkpt lat="50.146638" lon="14.750448"><ele>202</ele></trkpt>
   <trkpt lat="50.146873" lon="14.750823"><ele>201.5</ele></trkpt>
   <trkpt lat="50.147017" lon="14.751023"><ele>201.25</ele></trkpt>
   <trkpt lat="50.147177" lon="14.751227"><ele>201</ele></trkpt>
   <trkpt lat="50.147315" lon="14.751374"><ele>200.75</ele></trkpt>
   <trkpt lat="50.147467" lon="14.751527"><ele>200.75</ele></trkpt>
   <trkpt lat="50.147649" lon="14.751691"><ele>200.75</ele></trkpt>
   <trkpt lat="50.147818" lon="14.751823"><ele>200.25</ele></trkpt>
   <trkpt lat="50.14797" lon="14.751923"><ele>200</ele></trkpt>
   <trkpt lat="50.14814" lon="14.75203"><ele>199.75</ele></trkpt>
   <trkpt lat="50.148318" lon="14.752118"><ele>199.25</ele></trkpt>
   <trkpt lat="50.148518" lon="14.752197"><ele>198.5</ele></trkpt>
   <trkpt lat="50.14871" lon="14.752259"><ele>197.75</ele></trkpt>
   <trkpt lat="50.148862" lon="14.7523"><ele>197</ele></trkpt>
   <trkpt lat="50.149078" lon="14.752328"><ele>196.25</ele></trkpt>
   <trkpt lat="50.149161" lon="14.752334"><ele>196</ele></trkpt>
   <trkpt lat="50.149342" lon="14.752346"><ele>195.5</ele></trkpt>
   <trkpt lat="50.149478" lon="14.752343"><ele>195.25</ele></trkpt>
   <trkpt lat="50.149656" lon="14.752333"><ele>194.75</ele></trkpt>
   <trkpt lat="50.149808" lon="14.752304"><ele>194.25</ele></trkpt>
   <trkpt lat="50.149973" lon="14.752267"><ele>194</ele></trkpt>
   <trkpt lat="50.150187" lon="14.752199"><ele>194.25</ele></trkpt>
   <trkpt lat="50.150394" lon="14.75212"><ele>194.5</ele></trkpt>
   <trkpt lat="50.151396" lon="14.751626"><ele>194</ele></trkpt>
   <trkpt lat="50.151543" lon="14.751562"><ele>193.75</ele></trkpt>
   <trkpt lat="50.152076" lon="14.751374"><ele>194</ele></trkpt>
   <trkpt lat="50.15233" lon="14.751336"><ele>194.75</ele></trkpt>
   <trkpt lat="50.152682" lon="14.751317"><ele>195</ele></trkpt>
   <trkpt lat="50.152992" lon="14.751345"><ele>195</ele></trkpt>
   <trkpt lat="50.153162" lon="14.751386"><ele>195</ele></trkpt>
   <trkpt lat="50.153333" lon="14.751434"><ele>195</ele></trkpt>
   <trkpt lat="50.153533" lon="14.751509"><ele>194.75</ele></trkpt>
   <trkpt lat="50.153826" lon="14.751653"><ele>194</ele></trkpt>
   <trkpt lat="50.154075" lon="14.7518"><ele>193.25</ele></trkpt>
   <trkpt lat="50.154475" lon="14.752061"><ele>192.5</ele></trkpt>
   <trkpt lat="50.155067" lon="14.752452"><ele>190.75</ele></trkpt>
   <trkpt lat="50.155182" lon="14.752529"><ele>191</ele></trkpt>
   <trkpt lat="50.155718" lon="14.752952"><ele>191.5</ele></trkpt>
   <trkpt lat="50.155772" lon="14.752989"><ele>191.5</ele></trkpt>
   <trkpt lat="50.156499" lon="14.753471"><ele>191</ele></trkpt>
   <trkpt lat="50.156881" lon="14.75372"><ele>191</ele></trkpt>
   <trkpt lat="50.157255" lon="14.753989"><ele>191</ele></trkpt>
   <trkpt lat="50.157841" lon="14.754441"><ele>190</ele></trkpt>
   <trkpt lat="50.158112" lon="14.754633"><ele>189.5</ele></trkpt>
   <trkpt lat="50.15826" lon="14.754738"><ele>189</ele></trkpt>
   <trkpt lat="50.158925" lon="14.755175"><ele>188.75</ele></trkpt>
   <trkpt lat="50.15985" lon="14.755787"><ele>189.75</ele></trkpt>
   <trkpt lat="50.16037" lon="14.756129"><ele>190</ele></trkpt>
   <trkpt lat="50.160755" lon="14.756414"><ele>189.25</ele></trkpt>
   <trkpt lat="50.161075" lon="14.756693"><ele>188.5</ele></trkpt>
   <trkpt lat="50.161241" lon="14.756846"><ele>188.5</ele></trkpt>
   <trkpt lat="50.161629" lon="14.757239"><ele>188.5</ele></trkpt>
   <trkpt lat="50.161877" lon="14.757536"><ele>188.5</ele></trkpt>
   <trkpt lat="50.162115" lon="14.757901"><ele>188.25</ele></trkpt>
   <trkpt lat="50.162317" lon="14.758259"><ele>188.25</ele></trkpt>
   <trkpt lat="50.162472" lon="14.758541"><ele>188</ele></trkpt>
   <trkpt lat="50.162943" lon="14.759468"><ele>185.75</ele></trkpt>
   <trkpt lat="50.163219" lon="14.760021"><ele>185.25</ele></trkpt>
   <trkpt lat="50.16369" lon="14.760969"><ele>183.5</ele></trkpt>
   <trkpt lat="50.16391" lon="14.761369"><ele>182.75</ele></trkpt>
   <trkpt lat="50.164183" lon="14.761808"><ele>182</ele></trkpt>
   <trkpt lat="50.164441" lon="14.762163"><ele>180.75</ele></trkpt>
   <trkpt lat="50.164851" lon="14.762655"><ele>179</ele></trkpt>
   <trkpt lat="50.166084" lon="14.763943"><ele>178</ele></trkpt>
   <trkpt lat="50.167543" lon="14.765487"><ele>177</ele></trkpt>
   <trkpt lat="50.168954" lon="14.76697"><ele>177</ele></trkpt>
   <trkpt lat="50.169177" lon="14.767218"><ele>176.75</ele></trkpt>
   <trkpt lat="50.169788" lon="14.767988"><ele>176</ele></trkpt>
   <trkpt lat="50.170197" lon="14.768473"><ele>175.75</ele></trkpt>
   <trkpt lat="50.170454" lon="14.768743"><ele>175.25</ele></trkpt>
   <trkpt lat="50.170649" lon="14.768923"><ele>175</ele></trkpt>
   <trkpt lat="50.170821" lon="14.769067"><ele>175</ele></trkpt>
   <trkpt lat="50.170972" lon="14.769175"><ele>174.75</ele></trkpt>
   <trkpt lat="50.171118" lon="14.769267"><ele>174.75</ele></trkpt>
   <trkpt lat="50.171502" lon="14.769475"><ele>174.5</ele></trkpt>
   <trkpt lat="50.171902" lon="14.769644"><ele>173.75</ele></trkpt>
   <trkpt lat="50.173364" lon="14.770121"><ele>173.75</ele></trkpt>
   <trkpt lat="50.17424" lon="14.770422"><ele>172.75</ele></trkpt>
   <trkpt lat="50.175277" lon="14.770745"><ele>171</ele></trkpt>
   <trkpt lat="50.175957" lon="14.770954"><ele>171</ele></trkpt>
   <trkpt lat="50.176473" lon="14.771095"><ele>171.5</ele></trkpt>
   <trkpt lat="50.178637" lon="14.771529"><ele>172.5</ele></trkpt>
   <trkpt lat="50.179139" lon="14.771622"><ele>173.75</ele></trkpt>
   <trkpt lat="50.179581" lon="14.771721"><ele>176.25</ele></trkpt>
   <trkpt lat="50.179773" lon="14.771779"><ele>177.25</ele></trkpt>
   <trkpt lat="50.18019" lon="14.771936"><ele>178.25</ele></trkpt>
   <trkpt lat="50.180398" lon="14.772025"><ele>178.25</ele></trkpt>
   <trkpt lat="50.180597" lon="14.772125"><ele>178.25</ele></trkpt>
   <trkpt lat="50.180776" lon="14.772232"><ele>178.5</ele></trkpt>
   <trkpt lat="50.181187" lon="14.77253"><ele>178.25</ele></trkpt>
   <trkpt lat="50.181349" lon="14.772661"><ele>178</ele></trkpt>
   <trkpt lat="50.181672" lon="14.772969"><ele>177.75</ele></trkpt>
   <trkpt lat="50.182016" lon="14.773345"><ele>177.75</ele></trkpt>
   <trkpt lat="50.182338" lon="14.773774"><ele>178.5</ele></trkpt>
   <trkpt lat="50.182486" lon="14.773987"><ele>178.75</ele></trkpt>
   <trkpt lat="50.182772" lon="14.77447"><ele>180.75</ele></trkpt>
   <trkpt lat="50.183033" lon="14.774976"><ele>181.75</ele></trkpt>
   <trkpt lat="50.183135" lon="14.775185"><ele>182.25</ele></trkpt>
   <trkpt lat="50.183286" lon="14.775525"><ele>183.25</ele></trkpt>
   <trkpt lat="50.183428" lon="14.775881"><ele>184</ele></trkpt>
   <trkpt lat="50.183779" lon="14.7768"><ele>184.25</ele></trkpt>
   <trkpt lat="50.184106" lon="14.777532"><ele>183.75</ele></trkpt>
   <trkpt lat="50.184173" lon="14.777702"><ele>184</ele></trkpt>
   <trkpt lat="50.184474" lon="14.778569"><ele>184.75</ele></trkpt>
   <trkpt lat="50.186311" lon="14.783279"><ele>181.75</ele></trkpt>
   <trkpt lat="50.186616" lon="14.78411"><ele>181.75</ele></trkpt>
   <trkpt lat="50.186694" lon="14.784352"><ele>181.25</ele></trkpt>
   <trkpt lat="50.186857" lon="14.784898"><ele>181</ele></trkpt>
   <trkpt lat="50.186964" lon="14.78532"><ele>181.75</ele></trkpt>
   <trkpt lat="50.187125" lon="14.786086"><ele>182.5</ele></trkpt>
   <trkpt lat="50.187242" lon="14.786744"><ele>182.75</ele></trkpt>
   <trkpt lat="50.190524" lon="14.804025"><ele>186.5</ele></trkpt>
   <trkpt lat="50.193323" lon="14.818344"><ele>178.75</ele></trkpt>
   <trkpt lat="50.193368" lon="14.818578"><ele>179</ele></trkpt>
   <trkpt lat="50.195655" lon="14.830786"><ele>177</ele></trkpt>
   <trkpt lat="50.19588" lon="14.832009"><ele>178</ele></trkpt>
   <trkpt lat="50.196076" lon="14.833058"><ele>178.75</ele></trkpt>
   <trkpt lat="50.196164" lon="14.833615"><ele>179</ele></trkpt>
   <trkpt lat="50.196195" lon="14.8339"><ele>179</ele></trkpt>
   <trkpt lat="50.196235" lon="14.83444"><ele>179</ele></trkpt>
   <trkpt lat="50.196244" lon="14.834692"><ele>179</ele></trkpt>
   <trkpt lat="50.196247" lon="14.835019"><ele>179</ele></trkpt>
   <trkpt lat="50.196225" lon="14.835604"><ele>179</ele></trkpt>
   <trkpt lat="50.196203" lon="14.835907"><ele>178.75</ele></trkpt>
   <trkpt lat="50.196151" lon="14.836388"><ele>178.5</ele></trkpt>
   <trkpt lat="50.196039" lon="14.837314"><ele>178</ele></trkpt>
   <trkpt lat="50.195927" lon="14.838242"><ele>178.75</ele></trkpt>
   <trkpt lat="50.195762" lon="14.839141"><ele>178.75</ele></trkpt>
   <trkpt lat="50.195678" lon="14.839901"><ele>178</ele></trkpt>
   <trkpt lat="50.195039" lon="14.84567"><ele>179.75</ele></trkpt>
   <trkpt lat="50.194859" lon="14.84733"><ele>179</ele></trkpt>
   <trkpt lat="50.194756" lon="14.848155"><ele>179.5</ele></trkpt>
   <trkpt lat="50.194736" lon="14.84829"><ele>179.5</ele></trkpt>
   <trkpt lat="50.1947" lon="14.848722"><ele>179.5</ele></trkpt>
   <trkpt lat="50.19468" lon="14.849313"><ele>179.5</ele></trkpt>
   <trkpt lat="50.194671" lon="14.849808"><ele>179</ele></trkpt>
   <trkpt lat="50.19465" lon="14.850316"><ele>179</ele></trkpt>
   <trkpt lat="50.194546" lon="14.851274"><ele>178.75</ele></trkpt>
   <trkpt lat="50.194516" lon="14.851951"><ele>178.75</ele></trkpt>
   <trkpt lat="50.194443" lon="14.852613"><ele>178.5</ele></trkpt>
   <trkpt lat="50.194029" lon="14.856374"><ele>178.75</ele></trkpt>
   <trkpt lat="50.19382" lon="14.858134"><ele>177.75</ele></trkpt>
   <trkpt lat="50.193598" lon="14.859783"><ele>177.5</ele></trkpt>
   <trkpt lat="50.193544" lon="14.860179"><ele>177.5</ele></trkpt>
   <trkpt lat="50.193427" lon="14.860951"><ele>177</ele></trkpt>
   <trkpt lat="50.193333" lon="14.861543"><ele>176.75</ele></trkpt>
   <trkpt lat="50.193172" lon="14.862491"><ele>176.5</ele></trkpt>
   <trkpt lat="50.192862" lon="14.864234"><ele>177.25</ele></trkpt>
   <trkpt lat="50.192698" lon="14.865094"><ele>178</ele></trkpt>
   <trkpt lat="50.192505" lon="14.866056"><ele>178.25</ele></trkpt>
   <trkpt lat="50.192308" lon="14.866986"><ele>178.75</ele></trkpt>
   <trkpt lat="50.192104" lon="14.867906"><ele>178.25</ele></trkpt>
   <trkpt lat="50.191687" lon="14.869775"><ele>177.75</ele></trkpt>
   <trkpt lat="50.191271" lon="14.871602"><ele>177.75</ele></trkpt>
   <trkpt lat="50.190478" lon="14.875156"><ele>179</ele></trkpt>
   <trkpt lat="50.189762" lon="14.878359"><ele>179.5</ele></trkpt>
   <trkpt lat="50.189448" lon="14.879865"><ele>179.5</ele></trkpt>
   <trkpt lat="50.189268" lon="14.880794"><ele>179.25</ele></trkpt>
   <trkpt lat="50.189093" lon="14.881738"><ele>179.75</ele></trkpt>
   <trkpt lat="50.188925" lon="14.882686"><ele>180.25</ele></trkpt>
   <trkpt lat="50.188767" lon="14.883626"><ele>180</ele></trkpt>
   <trkpt lat="50.188617" lon="14.884585"><ele>179.5</ele></trkpt>
   <trkpt lat="50.188479" lon="14.885521"><ele>179.5</ele></trkpt>
   <trkpt lat="50.188251" lon="14.887241"><ele>179.5</ele></trkpt>
   <trkpt lat="50.188127" lon="14.888265"><ele>179.5</ele></trkpt>
   <trkpt lat="50.188016" lon="14.88925"><ele>178.75</ele></trkpt>
   <trkpt lat="50.187772" lon="14.891889"><ele>177.5</ele></trkpt>
   <trkpt lat="50.187713" lon="14.892627"><ele>177.25</ele></trkpt>
   <trkpt lat="50.18761" lon="14.894116"><ele>177</ele></trkpt>
   <trkpt lat="50.187513" lon="14.895994"><ele>177.75</ele></trkpt>
   <trkpt lat="50.187472" lon="14.897051"><ele>176.75</ele></trkpt>
   <trkpt lat="50.187425" lon="14.898813"><ele>177.75</ele></trkpt>
   <trkpt lat="50.187415" lon="14.899763"><ele>177.75</ele></trkpt>
   <trkpt lat="50.18741" lon="14.900756"><ele>178</ele></trkpt>
   <trkpt lat="50.18741" lon="14.906811"><ele>178</ele></trkpt>
   <trkpt lat="50.187411" lon="14.907807"><ele>177.75</ele></trkpt>
   <trkpt lat="50.187416" lon="14.915543"><ele>178.75</ele></trkpt>
   <trkpt lat="50.187422" lon="14.931473"><ele>181.5</ele></trkpt>
   <trkpt lat="50.187412" lon="14.932533"><ele>181.5</ele></trkpt>
   <trkpt lat="50.187399" lon="14.933207"><ele>181.5</ele></trkpt>
   <trkpt lat="50.187396" lon="14.933386"><ele>181.5</ele></trkpt>
   <trkpt lat="50.187256" lon="14.9391"><ele>182.5</ele></trkpt>
   <trkpt lat="50.187236" lon="14.93986"><ele>182.25</ele></trkpt>
   <trkpt lat="50.187067" lon="14.946933"><ele>184.5</ele></trkpt>
   <trkpt lat="50.186973" lon="14.950744"><ele>183</ele></trkpt>
   <trkpt lat="50.186897" lon="14.953666"><ele>182</ele></trkpt>
   <trkpt lat="50.186871" lon="14.954625"><ele>182.5</ele></trkpt>
   <trkpt lat="50.186843" lon="14.955261"><ele>183.25</ele></trkpt>
   <trkpt lat="50.18681" lon="14.955729"><ele>183.75</ele></trkpt>
   <trkpt lat="50.186775" lon="14.956164"><ele>184.25</ele></trkpt>
   <trkpt lat="50.186685" lon="14.957049"><ele>184.75</ele></trkpt>
   <trkpt lat="50.186627" lon="14.957478"><ele>184.75</ele></trkpt>
   <trkpt lat="50.186587" lon="14.957738"><ele>184.5</ele></trkpt>
   <trkpt lat="50.186471" lon="14.958525"><ele>184</ele></trkpt>
   <trkpt lat="50.18603" lon="14.961317"><ele>185.75</ele></trkpt>
   <trkpt lat="50.185953" lon="14.961809"><ele>185.75</ele></trkpt>
   <trkpt lat="50.185935" lon="14.961917"><ele>185.75</ele></trkpt>
   <trkpt lat="50.1859" lon="14.962152"><ele>185.75</ele></trkpt>
   <trkpt lat="50.185844" lon="14.962508"><ele>185.75</ele></trkpt>
   <trkpt lat="50.185309" lon="14.965938"><ele>184.5</ele></trkpt>
   <trkpt lat="50.185025" lon="14.967777"><ele>184.75</ele></trkpt>
   <trkpt lat="50.184923" lon="14.96857"><ele>185</ele></trkpt>
   <trkpt lat="50.184837" lon="14.969409"><ele>185</ele></trkpt>
   <trkpt lat="50.18477" lon="14.97031"><ele>185</ele></trkpt>
   <trkpt lat="50.184749" lon="14.970705"><ele>185</ele></trkpt>
   <trkpt lat="50.184714" lon="14.971356"><ele>184.25</ele></trkpt>
   <trkpt lat="50.184722" lon="14.972047"><ele>184.25</ele></trkpt>
   <trkpt lat="50.184712" lon="14.972244"><ele>184.25</ele></trkpt>
   <trkpt lat="50.184694" lon="14.97261"><ele>184.5</ele></trkpt>
   <trkpt lat="50.184605" lon="14.973812"><ele>184.5</ele></trkpt>
   <trkpt lat="50.184612" lon="14.974795"><ele>185</ele></trkpt>
   <trkpt lat="50.18463" lon="14.975696"><ele>185</ele></trkpt>
   <trkpt lat="50.184661" lon="14.976531"><ele>185</ele></trkpt>
   <trkpt lat="50.18471" lon="14.977467"><ele>185</ele></trkpt>
   <trkpt lat="50.184776" lon="14.978423"><ele>184</ele></trkpt>
   <trkpt lat="50.184871" lon="14.97949"><ele>184.25</ele></trkpt>
   <trkpt lat="50.18496" lon="14.980329"><ele>184.75</ele></trkpt>
   <trkpt lat="50.185072" lon="14.981268"><ele>185</ele></trkpt>
   <trkpt lat="50.185203" lon="14.982208"><ele>185</ele></trkpt>
   <trkpt lat="50.185349" lon="14.98319"><ele>185.25</ele></trkpt>
   <trkpt lat="50.185499" lon="14.984123"><ele>186</ele></trkpt>
   <trkpt lat="50.185705" lon="14.985288"><ele>187</ele></trkpt>
   <trkpt lat="50.187698" lon="14.996272"><ele>184</ele></trkpt>
   <trkpt lat="50.188182" lon="14.998939"><ele>184.75</ele></trkpt>
   <trkpt lat="50.188366" lon="14.999946"><ele>185</ele></trkpt>
   <trkpt lat="50.188692" lon="15.001756"><ele>186</ele></trkpt>
   <trkpt lat="50.188926" lon="15.003035"><ele>186.25</ele></trkpt>
   <trkpt lat="50.188955" lon="15.003202"><ele>186.5</ele></trkpt>
   <trkpt lat="50.190908" lon="15.01397"><ele>188</ele></trkpt>
   <trkpt lat="50.191587" lon="15.01768"><ele>186.75</ele></trkpt>
   <trkpt lat="50.194017" lon="15.031094"><ele>184.25</ele></trkpt>
   <trkpt lat="50.194042" lon="15.03123"><ele>184.25</ele></trkpt>
   <trkpt lat="50.194268" lon="15.032479"><ele>185.75</ele></trkpt>
   <trkpt lat="50.194792" lon="15.035368"><ele>187</ele></trkpt>
   <trkpt lat="50.194891" lon="15.035944"><ele>186.75</ele></trkpt>
   <trkpt lat="50.194927" lon="15.036164"><ele>186.5</ele></trkpt>
   <trkpt lat="50.194955" lon="15.036389"><ele>186.25</ele></trkpt>
   <trkpt lat="50.194979" lon="15.036658"><ele>186</ele></trkpt>
   <trkpt lat="50.194993" lon="15.03711"><ele>186</ele></trkpt>
   <trkpt lat="50.194991" lon="15.037336"><ele>186</ele></trkpt>
   <trkpt lat="50.194951" lon="15.037793"><ele>186.25</ele></trkpt>
   <trkpt lat="50.194912" lon="15.038059"><ele>186.75</ele></trkpt>
   <trkpt lat="50.194845" lon="15.038434"><ele>187.25</ele></trkpt>
   <trkpt lat="50.194775" lon="15.038765"><ele>187.25</ele></trkpt>
   <trkpt lat="50.194627" lon="15.039503"><ele>187.25</ele></trkpt>
   <trkpt lat="50.194223" lon="15.041426"><ele>186.25</ele></trkpt>
   <trkpt lat="50.194174" lon="15.041672"><ele>186</ele></trkpt>
   <trkpt lat="50.194106" lon="15.041951"><ele>186.25</ele></trkpt>
   <trkpt lat="50.194005" lon="15.042307"><ele>186.75</ele></trkpt>
   <trkpt lat="50.193933" lon="15.042608"><ele>187</ele></trkpt>
   <trkpt lat="50.193885" lon="15.042832"><ele>187</ele></trkpt>
   <trkpt lat="50.193365" lon="15.04534"><ele>187</ele></trkpt>
   <trkpt lat="50.193327" lon="15.045528"><ele>187</ele></trkpt>
   <trkpt lat="50.193247" lon="15.045905"><ele>187.25</ele></trkpt>
   <trkpt lat="50.193209" lon="15.046094"><ele>187.25</ele></trkpt>
   <trkpt lat="50.193197" lon="15.046149"><ele>187.25</ele></trkpt>
   <trkpt lat="50.19313" lon="15.046469"><ele>187.5</ele></trkpt>
   <trkpt lat="50.193025" lon="15.046977"><ele>187.25</ele></trkpt>
   <trkpt lat="50.192991" lon="15.04714"><ele>187.25</ele></trkpt>
   <trkpt lat="50.192877" lon="15.04769"><ele>186.5</ele></trkpt>
   <trkpt lat="50.192811" lon="15.048009"><ele>186.25</ele></trkpt>
   <trkpt lat="50.191908" lon="15.052362"><ele>187.25</ele></trkpt>
   <trkpt lat="50.191805" lon="15.053071"><ele>187</ele></trkpt>
   <trkpt lat="50.191618" lon="15.053981"><ele>187</ele></trkpt>
   <trkpt lat="50.191607" lon="15.054035"><ele>187</ele></trkpt>
   <trkpt lat="50.191506" lon="15.054509"><ele>186.75</ele></trkpt>
   <trkpt lat="50.191397" lon="15.054907"><ele>186.25</ele></trkpt>
   <trkpt lat="50.191269" lon="15.055269"><ele>186.5</ele></trkpt>
   <trkpt lat="50.191171" lon="15.0556"><ele>186.75</ele></trkpt>
   <trkpt lat="50.191057" lon="15.056044"><ele>187</ele></trkpt>
   <trkpt lat="50.190517" lon="15.058705"><ele>188</ele></trkpt>
   <trkpt lat="50.1903" lon="15.059556"><ele>188</ele></trkpt>
   <trkpt lat="50.190007" lon="15.060593"><ele>188</ele></trkpt>
   <trkpt lat="50.189807" lon="15.061274"><ele>188</ele></trkpt>
   <trkpt lat="50.189522" lon="15.062006"><ele>188.5</ele></trkpt>
   <trkpt lat="50.189196" lon="15.062742"><ele>188.5</ele></trkpt>
   <trkpt lat="50.188847" lon="15.063437"><ele>188</ele></trkpt>
   <trkpt lat="50.188646" lon="15.063786"><ele>188</ele></trkpt>
   <trkpt lat="50.188373" lon="15.064228"><ele>188</ele></trkpt>
   <trkpt lat="50.188235" lon="15.06447"><ele>187.75</ele></trkpt>
   <trkpt lat="50.188053" lon="15.064804"><ele>187.5</ele></trkpt>
   <trkpt lat="50.187909" lon="15.065085"><ele>187.25</ele></trkpt>
   <trkpt lat="50.187484" lon="15.06588"><ele>187</ele></trkpt>
   <trkpt lat="50.187345" lon="15.066096"><ele>187</ele></trkpt>
   <trkpt lat="50.187145" lon="15.0664"><ele>187.25</ele></trkpt>
   <trkpt lat="50.1866" lon="15.067231"><ele>189.25</ele></trkpt>
   <trkpt lat="50.185232" lon="15.069347"><ele>189.25</ele></trkpt>
   <trkpt lat="50.179329" lon="15.078384"><ele>189.5</ele></trkpt>
   <trkpt lat="50.177946" lon="15.080488"><ele>186.75</ele></trkpt>
   <trkpt lat="50.175512" lon="15.08423"><ele>196.25</ele></trkpt>
   <trkpt lat="50.174762" lon="15.085363"><ele>195</ele></trkpt>
   <trkpt lat="50.174334" lon="15.086022"><ele>193</ele></trkpt>
   <trkpt lat="50.173922" lon="15.086655"><ele>189</ele></trkpt>
   <trkpt lat="50.173565" lon="15.087281"><ele>187.75</ele></trkpt>
   <trkpt lat="50.171606" lon="15.090283"><ele>185</ele></trkpt>
   <trkpt lat="50.171478" lon="15.090478"><ele>185.25</ele></trkpt>
   <trkpt lat="50.16961" lon="15.093338"><ele>185.5</ele></trkpt>
   <trkpt lat="50.165412" lon="15.099754"><ele>188</ele></trkpt>
   <trkpt lat="50.164816" lon="15.10067"><ele>187.75</ele></trkpt>
   <trkpt lat="50.164463" lon="15.10121"><ele>187.25</ele></trkpt>
   <trkpt lat="50.159563" lon="15.1087"><ele>186.5</ele></trkpt>
   <trkpt lat="50.159501" lon="15.108795"><ele>186.75</ele></trkpt>
   <trkpt lat="50.158443" lon="15.110405"><ele>188.5</ele></trkpt>
   <trkpt lat="50.156991" lon="15.112628"><ele>187.25</ele></trkpt>
   <trkpt lat="50.154699" lon="15.116141"><ele>187</ele></trkpt>
   <trkpt lat="50.154545" lon="15.116364"><ele>187.25</ele></trkpt>
   <trkpt lat="50.154212" lon="15.116872"><ele>187.75</ele></trkpt>
   <trkpt lat="50.152777" lon="15.119059"><ele>187.25</ele></trkpt>
   <trkpt lat="50.151875" lon="15.120435"><ele>187</ele></trkpt>
   <trkpt lat="50.151567" lon="15.120913"><ele>187</ele></trkpt>
   <trkpt lat="50.150384" lon="15.122723"><ele>189.25</ele></trkpt>
   <trkpt lat="50.149664" lon="15.12382"><ele>189.25</ele></trkpt>
   <trkpt lat="50.148397" lon="15.125753"><ele>189</ele></trkpt>
   <trkpt lat="50.147295" lon="15.12743"><ele>189</ele></trkpt>
   <trkpt lat="50.147109" lon="15.127717"><ele>189.25</ele></trkpt>
   <trkpt lat="50.146763" lon="15.128158"><ele>189.25</ele></trkpt>
   <trkpt lat="50.146557" lon="15.128463"><ele>189</ele></trkpt>
   <trkpt lat="50.146217" lon="15.128983"><ele>189.5</ele></trkpt>
   <trkpt lat="50.146083" lon="15.129197"><ele>189.5</ele></trkpt>
   <trkpt lat="50.146057" lon="15.12924"><ele>189.5</ele></trkpt>
   <trkpt lat="50.145875" lon="15.129541"><ele>189</ele></trkpt>
   <trkpt lat="50.145628" lon="15.129991"><ele>188</ele></trkpt>
   <trkpt lat="50.145443" lon="15.130333"><ele>188</ele></trkpt>
   <trkpt lat="50.145291" lon="15.130643"><ele>188</ele></trkpt>
   <trkpt lat="50.144885" lon="15.131586"><ele>188</ele></trkpt>
   <trkpt lat="50.144771" lon="15.131885"><ele>188</ele></trkpt>
   <trkpt lat="50.144637" lon="15.132253"><ele>188</ele></trkpt>
   <trkpt lat="50.144406" lon="15.132967"><ele>187.5</ele></trkpt>
   <trkpt lat="50.144216" lon="15.133635"><ele>187</ele></trkpt>
   <trkpt lat="50.14413" lon="15.133976"><ele>187</ele></trkpt>
   <trkpt lat="50.144015" lon="15.134475"><ele>187.25</ele></trkpt>
   <trkpt lat="50.143893" lon="15.135073"><ele>187.5</ele></trkpt>
   <trkpt lat="50.143803" lon="15.135597"><ele>187.75</ele></trkpt>
   <trkpt lat="50.143685" lon="15.136429"><ele>188.25</ele></trkpt>
   <trkpt lat="50.143513" lon="15.137919"><ele>189.5</ele></trkpt>
   <trkpt lat="50.143393" lon="15.13896"><ele>190</ele></trkpt>
   <trkpt lat="50.143038" lon="15.142152"><ele>190.75</ele></trkpt>
   <trkpt lat="50.142569" lon="15.146248"><ele>189</ele></trkpt>
   <trkpt lat="50.142203" lon="15.149502"><ele>187.25</ele></trkpt>
   <trkpt lat="50.141941" lon="15.151687"><ele>189.5</ele></trkpt>
   <trkpt lat="50.141845" lon="15.152404"><ele>190</ele></trkpt>
   <trkpt lat="50.141669" lon="15.153624"><ele>189.5</ele></trkpt>
   <trkpt lat="50.141523" lon="15.154491"><ele>189</ele></trkpt>
   <trkpt lat="50.141334" lon="15.15554"><ele>188.5</ele></trkpt>
   <trkpt lat="50.141139" lon="15.156492"><ele>187.75</ele></trkpt>
   <trkpt lat="50.140937" lon="15.157425"><ele>187</ele></trkpt>
   <trkpt lat="50.140605" lon="15.158806"><ele>187.25</ele></trkpt>
   <trkpt lat="50.140467" lon="15.159351"><ele>188.5</ele></trkpt>
   <trkpt lat="50.140087" lon="15.160716"><ele>190.75</ele></trkpt>
   <trkpt lat="50.140047" lon="15.160855"><ele>190.75</ele></trkpt>
   <trkpt lat="50.13969" lon="15.162044"><ele>189.5</ele></trkpt>
   <trkpt lat="50.139349" lon="15.163086"><ele>189</ele></trkpt>
   <trkpt lat="50.13899" lon="15.164108"><ele>189</ele></trkpt>
   <trkpt lat="50.138753" lon="15.164743"><ele>188.25</ele></trkpt>
   <trkpt lat="50.138506" lon="15.165392"><ele>188</ele></trkpt>
   <trkpt lat="50.1382" lon="15.166148"><ele>188.25</ele></trkpt>
   <trkpt lat="50.137918" lon="15.16682"><ele>188.25</ele></trkpt>
   <trkpt lat="50.13758" lon="15.167589"><ele>188.75</ele></trkpt>
   <trkpt lat="50.137254" lon="15.168295"><ele>189.25</ele></trkpt>
   <trkpt lat="50.136913" lon="15.169003"><ele>189.5</ele></trkpt>
   <trkpt lat="50.136617" lon="15.169596"><ele>189.25</ele></trkpt>
   <trkpt lat="50.135943" lon="15.170865"><ele>189.75</ele></trkpt>
   <trkpt lat="50.135401" lon="15.171814"><ele>188.75</ele></trkpt>
   <trkpt lat="50.135087" lon="15.172339"><ele>188</ele></trkpt>
   <trkpt lat="50.134703" lon="15.172962"><ele>187</ele></trkpt>
   <trkpt lat="50.133676" lon="15.174577"><ele>186.75</ele></trkpt>
   <trkpt lat="50.133605" lon="15.174689"><ele>186.75</ele></trkpt>
   <trkpt lat="50.131851" lon="15.177464"><ele>187.25</ele></trkpt>
   <trkpt lat="50.131197" lon="15.178469"><ele>188</ele></trkpt>
   <trkpt lat="50.130826" lon="15.178998"><ele>187.75</ele></trkpt>
   <trkpt lat="50.130444" lon="15.179514"><ele>188.5</ele></trkpt>
   <trkpt lat="50.130188" lon="15.17987"><ele>189</ele></trkpt>
   <trkpt lat="50.130039" lon="15.180065"><ele>189</ele></trkpt>
   <trkpt lat="50.129208" lon="15.181171"><ele>189.25</ele></trkpt>
   <trkpt lat="50.128842" lon="15.181633"><ele>189.75</ele></trkpt>
   <trkpt lat="50.128422" lon="15.182134"><ele>190</ele></trkpt>
   <trkpt lat="50.127609" lon="15.183054"><ele>190</ele></trkpt>
   <trkpt lat="50.126502" lon="15.184254"><ele>190</ele></trkpt>
   <trkpt lat="50.126072" lon="15.184699"><ele>190</ele></trkpt>
   <trkpt lat="50.125812" lon="15.184937"><ele>189.75</ele></trkpt>
   <trkpt lat="50.125402" lon="15.185291"><ele>189.5</ele></trkpt>
   <trkpt lat="50.12516" lon="15.185481"><ele>189.5</ele></trkpt>
   <trkpt lat="50.124982" lon="15.185634"><ele>189.5</ele></trkpt>
   <trkpt lat="50.124548" lon="15.185988"><ele>189</ele></trkpt>
   <trkpt lat="50.124491" lon="15.186035"><ele>189</ele></trkpt>
   <trkpt lat="50.12402" lon="15.186418"><ele>188.75</ele></trkpt>
   <trkpt lat="50.123534" lon="15.186786"><ele>189</ele></trkpt>
   <trkpt lat="50.123089" lon="15.187103"><ele>189.25</ele></trkpt>
   <trkpt lat="50.122517" lon="15.187485"><ele>189.75</ele></trkpt>
   <trkpt lat="50.12232" lon="15.187607"><ele>189.75</ele></trkpt>
   <trkpt lat="50.122188" lon="15.187688"><ele>189.75</ele></trkpt>
   <trkpt lat="50.121415" lon="15.188134"><ele>190</ele></trkpt>
   <trkpt lat="50.120895" lon="15.188413"><ele>190</ele></trkpt>
   <trkpt lat="50.120292" lon="15.188719"><ele>190</ele></trkpt>
   <trkpt lat="50.119256" lon="15.189197"><ele>190.75</ele></trkpt>
   <trkpt lat="50.118855" lon="15.189367"><ele>190.5</ele></trkpt>
   <trkpt lat="50.117913" lon="15.189721"><ele>190.25</ele></trkpt>
   <trkpt lat="50.116971" lon="15.18998"><ele>190.5</ele></trkpt>
   <trkpt lat="50.110257" lon="15.191534"><ele>190</ele></trkpt>
   <trkpt lat="50.109766" lon="15.191647"><ele>190</ele></trkpt>
   <trkpt lat="50.106937" lon="15.192296"><ele>193.5</ele></trkpt>
   <trkpt lat="50.106271" lon="15.192513"><ele>193.75</ele></trkpt>
   <trkpt lat="50.105993" lon="15.192583"><ele>193.5</ele></trkpt>
   <trkpt lat="50.105804" lon="15.192624"><ele>193.5</ele></trkpt>
   <trkpt lat="50.105472" lon="15.192705"><ele>193.25</ele></trkpt>
   <trkpt lat="50.10489" lon="15.192901"><ele>192.5</ele></trkpt>
   <trkpt lat="50.104678" lon="15.192952"><ele>192.25</ele></trkpt>
   <trkpt lat="50.104199" lon="15.193"><ele>192</ele></trkpt>
   <trkpt lat="50.103925" lon="15.193063"><ele>192</ele></trkpt>
   <trkpt lat="50.102232" lon="15.193454"><ele>191.5</ele></trkpt>
   <trkpt lat="50.101939" lon="15.193521"><ele>192</ele></trkpt>
   <trkpt lat="50.101857" lon="15.19354"><ele>192.25</ele></trkpt>
   <trkpt lat="50.101672" lon="15.193583"><ele>192.5</ele></trkpt>
   <trkpt lat="50.101664" lon="15.193585"><ele>192.5</ele></trkpt>
   <trkpt lat="50.100697" lon="15.193808"><ele>191</ele></trkpt>
  </trkseg>
 </trk>
</gpx>