<?xml version="1.0" encoding="UTF-8"?>
<!-- track-length = 6614 filtered ascend = 6 plain-ascend = -28 cost=6614 energy=0.1kwh time=8m 49s -->
<gpx 
 xmlns="http://www.topografix.com/GPX/1/1" 
 xmlns:xsi="http://www.w3.org/2001/XMLSchema-instance" 
 xsi:schemaLocation="http://www.topografix.com/GPX/1/1 http://www.topografix.com/GPX/1/1/gpx.xsd" 
 version="1.1" 
 creator="BRouter-Web 0.18.1">
 <trk>
  <name>Priestewitz - Grossenhain - Berliner Strecke</name>
  <trkseg>
   <trkpt lat="51.250515" lon="13.509315"><ele>144.5</ele></trkpt>
   <trkpt lat="51.250767" lon="13.508785"><ele>145</ele></trkpt>
   <trkpt lat="51.251403" lon="13.507338"><ele>146.75</ele></trkpt>
   <trkpt lat="51.25157" lon="13.506973"><ele>146.75</ele></trkpt>
   <trkpt lat="51.251775" lon="13.50654"><ele>147</ele></trkpt>
   <trkpt lat="51.252148" lon="13.505853"><ele>147.25</ele></trkpt>
   <trkpt lat="51.252302" lon="13.505529"><ele>147.25</ele></trkpt>
   <trkpt lat="51.252578" lon="13.504991"><ele>146.75</ele></trkpt>
   <trkpt lat="51.25276" lon="13.504693"><ele>146.5</ele></trkpt>
   <trkpt lat="51.252976" lon="13.50439"><ele>146.5</ele></trkpt>
   <trkpt lat="51.253138" lon="13.504189"><ele>146.75</ele></trkpt>
   <trkpt lat="51.253392" lon="13.50393"><ele>147</ele></trkpt>
   <trkpt lat="51.25366" lon="13.503721"><ele>146.75</ele></trkpt>
   <trkpt lat="51.25395" lon="13.503546"><ele>146.25</ele></trkpt>
   <trkpt lat="51.254202" lon="13.503435"><ele>146</ele></trkpt>
   <trkpt lat="51.254314" lon="13.503399"><ele>146</ele></trkpt>
   <trkpt lat="51.254424" lon="13.503365"><ele>146.25</ele></trkpt>
   <trkpt lat="51.254734" lon="13.503317"><ele>146.5</ele></trkpt>
   <trkpt lat="51.254947" lon="13.503317"><ele>146.75</ele></trkpt>
   <trkpt lat="51.255148" lon="13.503332"><ele>147.5</ele></trkpt>
   <trkpt lat="51.255349" lon="13.503374"><ele>148.25</ele></trkpt>
   <trkpt lat="51.255446" lon="13.503406"><ele>148.5</ele></trkpt>
   <trkpt lat="51.255707" lon="13.50352"><ele>149.5</ele></trkpt>
   <trkpt lat="51.255877" lon="13.503601"><ele>149.75</ele></trkpt>
   <trkpt lat="51.25619" lon="13.503769"><ele>149</ele></trkpt>
   <trkpt lat="51.256228" lon="13.50379"><ele>149</ele></trkpt>
   <trkpt lat="51.25721" lon="13.504314"><ele>145.75</ele></trkpt>
   <trkpt lat="51.258277" lon="13.504899"><ele>143</ele></trkpt>
   <trkpt lat="51.258822" lon="13.505185"><ele>141.75</ele></trkpt>
   <trkpt lat="51.26027" lon="13.505946"><ele>139.75</ele></trkpt>
   <trkpt lat="51.262795" lon="13.507317"><ele>137.5</ele></trkpt>
   <trkpt lat="51.263818" lon="13.507843"><ele>136</ele></trkpt>
   <trkpt lat="51.264503" lon="13.50811"><ele>135.25</ele></trkpt>
   <trkpt lat="51.264803" lon="13.508217"><ele>135</ele></trkpt>
   <trkpt lat="51.265584" lon="13.508436"><ele>133.75</ele></trkpt>
   <trkpt lat="51.266853" lon="13.508705"><ele>134</ele></trkpt>
   <trkpt lat="51.269113" lon="13.509165"><ele>130</ele></trkpt>
   <trkpt lat="51.275572" lon="13.510484"><ele>123</ele></trkpt>
   <trkpt lat="51.277091" lon="13.51079"><ele>123.75</ele></trkpt>
   <trkpt lat="51.278628" lon="13.511115"><ele>124.25</ele></trkpt>
   <trkpt lat="51.278919" lon="13.511193"><ele>124</ele></trkpt>
   <trkpt lat="51.279137" lon="13.511259"><ele>124</ele></trkpt>
   <trkpt lat="51.279637" lon="13.511432"><ele>125.25</ele></trkpt>
   <trkpt lat="51.279982" lon="13.511573"><ele>126.5</ele></trkpt>
   <trkpt lat="51.280307" lon="13.511727"><ele>125.75</ele></trkpt>
   <trkpt lat="51.280688" lon="13.511915"><ele>124.5</ele></trkpt>
   <trkpt lat="51.281233" lon="13.51223"><ele>121.75</ele></trkpt>
   <trkpt lat="51.281448" lon="13.512365"><ele>120.75</ele></trkpt>
   <trkpt lat="51.281945" lon="13.51271"><ele>119.5</ele></trkpt>
   <trkpt lat="51.282307" lon="13.51298"><ele>119</ele></trkpt>
   <trkpt lat="51.282716" lon="13.513318"><ele>118.25</ele></trkpt>
   <trkpt lat="51.283117" lon="13.513675"><ele>117.5</ele></trkpt>
   <trkpt lat="51.283494" lon="13.514042"><ele>116.75</ele></trkpt>
   <trkpt lat="51.28377" lon="13.514329"><ele>116.5</ele></trkpt>
   <trkpt lat="51.283864" lon="13.514426"><ele>116.5</ele></trkpt>
   <trkpt lat="51.284201" lon="13.514813"><ele>116.5</ele></trkpt>
   <trkpt lat="51.284533" lon="13.515212"><ele>116.25</ele></trkpt>
   <trkpt lat="51.284901" lon="13.515691"><ele>115.25</ele></trkpt>
   <trkpt lat="51.285037" lon="13.515871"><ele>114.75</ele></trkpt>
   <trkpt lat="51.285068" lon="13.515913"><ele>114.75</ele></trkpt>
   <trkpt lat="51.285533" lon="13.516586"><ele>114.25</ele></trkpt>
   <trkpt lat="51.285697" lon="13.516829"><ele>114.5</ele></trkpt>
   <trkpt lat="51.286853" lon="13.518568"><ele>118.5</ele></trkpt>
   <trkpt lat="51.287447" lon="13.519451"><ele>117.5</ele></trkpt>
   <trkpt lat="51.287982" lon="13.520266"><ele>117.25</ele></trkpt>
   <trkpt lat="51.288076" lon="13.520401"><ele>117</ele></trkpt>
   <trkpt lat="51.288132" lon="13.520498"><ele>117</ele></trkpt>
   <trkpt lat="51.28815" lon="13.520525"><ele>117</ele></trkpt>
   <trkpt lat="51.288164" lon="13.520542"><ele>117</ele></trkpt>
   <trkpt lat="51.288631" lon="13.521146"><ele>115.75</ele></trkpt>
   <trkpt lat="51.288778" lon="13.521358"><ele>115</ele></trkpt>
   <trkpt lat="51.288988" lon="13.521671"><ele>114</ele></trkpt>
   <trkpt lat="51.289197" lon="13.521934"><ele>113.75</ele></trkpt>
   <trkpt lat="51.289382" lon="13.522174"><ele>113.75</ele></trkpt>
   <trkpt lat="51.289631" lon="13.522462"><ele>113.75</ele></trkpt>
   <trkpt lat="51.290181" lon="13.522968"><ele>114.5</ele></trkpt>
   <trkpt lat="51.290727" lon="13.523352"><ele>115</ele></trkpt>
   <trkpt lat="51.290989" lon="13.523516"><ele>115.25</ele></trkpt>
   <trkpt lat="51.291251" lon="13.523652"><ele>115.5</ele></trkpt>
   <trkpt lat="51.291406" lon="13.523719"><ele>115.75</ele></trkpt>
   <trkpt lat="51.291627" lon="13.523815"><ele>116</ele></trkpt>
   <trkpt lat="51.291717" lon="13.523846"><ele>115.5</ele></trkpt>
   <trkpt lat="51.292093" lon="13.52398"><ele>115.5</ele></trkpt>
   <trkpt lat="51.292607" lon="13.524135"><ele>115</ele></trkpt>
   <trkpt lat="51.292792" lon="13.524185"><ele>115.25</ele></trkpt>
   <trkpt lat="51.29329" lon="13.524282"><ele>116</ele></trkpt>
   <trkpt lat="51.293792" lon="13.524366"><ele>116.25</ele></trkpt>
   <trkpt lat="51.293842" lon="13.524375"><ele>116.25</ele></trkpt>
   <trkpt lat="51.293998" lon="13.524397"><ele>116.25</ele></trkpt>
   <trkpt lat="51.294236" lon="13.524418"><ele>116.25</ele></trkpt>
   <trkpt lat="51.294381" lon="13.524411"><ele>116.25</ele></trkpt>
   <trkpt lat="51.294565" lon="13.524386"><ele>116.25</ele></trkpt>
   <trkpt lat="51.294839" lon="13.524345"><ele>116</ele></trkpt>
   <trkpt lat="51.295174" lon="13.524246"><ele>116</ele></trkpt>
   <trkpt lat="51.295615" lon="13.524093"><ele>115.75</ele></trkpt>
   <trkpt lat="51.295625" lon="13.524089"><ele>115.75</ele></trkpt>
   <trkpt lat="51.295698" lon="13.524063"><ele>115.75</ele></trkpt>
   <trkpt lat="51.295794" lon="13.524025"><ele>115.75</ele></trkpt>
   <trkpt lat="51.295805" lon="13.52402"><ele>115.75</ele></trkpt>
   <trkpt lat="51.296094" lon="13.523905"><ele>115.5</ele></trkpt>
   <trkpt lat="51.296355" lon="13.523756"><ele>115.5</ele></trkpt>
   <trkpt lat="51.296554" lon="13.523616"><ele>115.25</ele></trkpt>
   <trkpt lat="51.296717" lon="13.523488"><ele>115</ele></trkpt>
   <trkpt lat="51.296914" lon="13.523297"><ele>115.25</ele></trkpt>
   <trkpt lat="51.297147" lon="13.523046"><ele>115.75</ele></trkpt>
   <trkpt lat="51.297308" lon="13.522826"><ele>116.25</ele></trkpt>
   <trkpt lat="51.297399" lon="13.522693"><ele>116.5</ele></trkpt>
   <trkpt lat="51.297823" lon="13.521994"><ele>117.25</ele></trkpt>
   <trkpt lat="51.298014" lon="13.521699"><ele>117.5</ele></trkpt>
   <trkpt lat="51.298176" lon="13.52147"><ele>117.5</ele></trkpt>
   <trkpt lat="51.298367" lon="13.521247"><ele>117.25</ele></trkpt>
   <trkpt lat="51.29864" lon="13.52097"><ele>117</ele></trkpt>
   <trkpt lat="51.29884" lon="13.520784"><ele>116.75</ele></trkpt>
   <trkpt lat="51.298891" lon="13.520738"><ele>116.75</ele></trkpt>
   <trkpt lat="51.299006" lon="13.520648"><ele>116.75</ele></trkpt>
   <trkpt lat="51.299086" lon="13.52059"><ele>116.5</ele></trkpt>
   <trkpt lat="51.299379" lon="13.520434"><ele>116.5</ele></trkpt>
   <trkpt lat="51.299703" lon="13.520328"><ele>116.75</ele></trkpt>
   <trkpt lat="51.300441" lon="13.520168"><ele>117</ele></trkpt>
   <trkpt lat="51.30075" lon="13.520124"><ele>117</ele></trkpt>
   <trkpt lat="51.300991" lon="13.520108"><ele>116.5</ele></trkpt>
   <trkpt lat="51.301491" lon="13.520064"><ele>115.25</ele></trkpt>
   <trkpt lat="51.301676" lon="13.52003"><ele>114.75</ele></trkpt>
   <trkpt lat="51.301947" lon="13.52001"><ele>114.25</ele></trkpt>
   <trkpt lat="51.302196" lon="13.519996"><ele>113.5</ele></trkpt>
   <trkpt lat="51.302299" lon="13.519983"><ele>113.5</ele></trkpt>
   <trkpt lat="51.302562" lon="13.519939"><ele>112.75</ele></trkpt>
   <trkpt lat="51.302812" lon="13.519913"><ele>112.5</ele></trkpt>
   <trkpt lat="51.302853" lon="13.519913"><ele>112.5</ele></trkpt>
   <trkpt lat="51.303086" lon="13.519909"><ele>112.25</ele></trkpt>
   <trkpt lat="51.303398" lon="13.519905"><ele>112.25</ele></trkpt>
   <trkpt lat="51.303668" lon="13.519908"><ele>112.75</ele></trkpt>
   <trkpt lat="51.303891" lon="13.519932"><ele>113.25</ele></trkpt>
   <trkpt lat="51.304146" lon="13.519941"><ele>113.75</ele></trkpt>
   <trkpt lat="51.304164" lon="13.519942"><ele>113.75</ele></trkpt>
   <trkpt lat="51.304191" lon="13.519941"><ele>113.75</ele></trkpt>
   <trkpt lat="51.30439" lon="13.519935"><ele>115.75</ele></trkpt>
  </trkseg>
 </trk>
</gpx>