<?xml version="1.0" encoding="UTF-8"?>
<!-- track-length = 20834 filtered ascend = 10 plain-ascend = -1 cost=20834 energy=0.3kwh time=27m 47s -->
<gpx 
 xmlns="http://www.topografix.com/GPX/1/1" 
 xmlns:xsi="http://www.w3.org/2001/XMLSchema-instance" 
 xsi:schemaLocation="http://www.topografix.com/GPX/1/1 http://www.topografix.com/GPX/1/1/gpx.xsd" 
 version="1.1" 
 creator="BRouter-Web 0.18.1">
 <trk>
  <name>Rastatt - Karlsruhe SFS</name>
  <trkseg>
   <trkpt lat="48.860912" lon="8.215956"><ele>119.25</ele></trkpt>
   <trkpt lat="48.860938" lon="8.215981"><ele>119.25</ele></trkpt>
   <trkpt lat="48.861039" lon="8.216088"><ele>119</ele></trkpt>
   <trkpt lat="48.861253" lon="8.216338"><ele>119</ele></trkpt>
   <trkpt lat="48.861557" lon="8.216722"><ele>119</ele></trkpt>
   <trkpt lat="48.861797" lon="8.217061"><ele>119</ele></trkpt>
   <trkpt lat="48.862009" lon="8.21739"><ele>118.75</ele></trkpt>
   <trkpt lat="48.862149" lon="8.217623"><ele>118.25</ele></trkpt>
   <trkpt lat="48.862444" lon="8.218164"><ele>118</ele></trkpt>
   <trkpt lat="48.862578" lon="8.218426"><ele>118</ele></trkpt>
   <trkpt lat="48.862722" lon="8.218712"><ele>118</ele></trkpt>
   <trkpt lat="48.863601" lon="8.220469"><ele>117</ele></trkpt>
   <trkpt lat="48.86375" lon="8.220769"><ele>117</ele></trkpt>
   <trkpt lat="48.864362" lon="8.221991"><ele>117</ele></trkpt>
   <trkpt lat="48.864389" lon="8.222049"><ele>117</ele></trkpt>
   <trkpt lat="48.864398" lon="8.222067"><ele>117</ele></trkpt>
   <trkpt lat="48.864402" lon="8.222073"><ele>117</ele></trkpt>
   <trkpt lat="48.86442" lon="8.222113"><ele>117</ele></trkpt>
   <trkpt lat="48.864851" lon="8.222975"><ele>116.5</ele></trkpt>
   <trkpt lat="48.865393" lon="8.224107"><ele>114.5</ele></trkpt>
   <trkpt lat="48.865719" lon="8.224689"><ele>114</ele></trkpt>
   <trkpt lat="48.865724" lon="8.224698"><ele>114</ele></trkpt>
   <trkpt lat="48.86574" lon="8.224725"><ele>114</ele></trkpt>
   <trkpt lat="48.86595" lon="8.225094"><ele>114</ele></trkpt>
   <trkpt lat="48.866094" lon="8.22534"><ele>114</ele></trkpt>
   <trkpt lat="48.866333" lon="8.225727"><ele>114</ele></trkpt>
   <trkpt lat="48.866655" lon="8.226212"><ele>114</ele></trkpt>
   <trkpt lat="48.866886" lon="8.226529"><ele>114</ele></trkpt>
   <trkpt lat="48.867071" lon="8.226776"><ele>114</ele></trkpt>
   <trkpt lat="48.867382" lon="8.227156"><ele>113</ele></trkpt>
   <trkpt lat="48.867778" lon="8.227608"><ele>113</ele></trkpt>
   <trkpt lat="48.868032" lon="8.22787"><ele>113</ele></trkpt>
   <trkpt lat="48.868412" lon="8.22824"><ele>111.75</ele></trkpt>
   <trkpt lat="48.868634" lon="8.228434"><ele>112</ele></trkpt>
   <trkpt lat="48.868793" lon="8.228571"><ele>112</ele></trkpt>
   <trkpt lat="48.869224" lon="8.228898"><ele>111</ele></trkpt>
   <trkpt lat="48.86951" lon="8.229092"><ele>111</ele></trkpt>
   <trkpt lat="48.869772" lon="8.229257"><ele>110.75</ele></trkpt>
   <trkpt lat="48.869827" lon="8.229291"><ele>110.75</ele></trkpt>
   <trkpt lat="48.870047" lon="8.229425"><ele>110</ele></trkpt>
   <trkpt lat="48.870277" lon="8.22955"><ele>110</ele></trkpt>
   <trkpt lat="48.870291" lon="8.229557"><ele>110</ele></trkpt>
   <trkpt lat="48.87068" lon="8.229777"><ele>110</ele></trkpt>
   <trkpt lat="48.870764" lon="8.229822"><ele>110</ele></trkpt>
   <trkpt lat="48.870772" lon="8.229827"><ele>110</ele></trkpt>
   <trkpt lat="48.870934" lon="8.229913"><ele>110</ele></trkpt>
   <trkpt lat="48.871292" lon="8.230114"><ele>110</ele></trkpt>
   <trkpt lat="48.871301" lon="8.230118"><ele>110</ele></trkpt>
   <trkpt lat="48.871944" lon="8.230484"><ele>110.5</ele></trkpt>
   <trkpt lat="48.873967" lon="8.231618"><ele>112</ele></trkpt>
   <trkpt lat="48.873988" lon="8.23163"><ele>111.5</ele></trkpt>
   <trkpt lat="48.875205" lon="8.232316"><ele>111.5</ele></trkpt>
   <trkpt lat="48.877074" lon="8.233363"><ele>111</ele></trkpt>
   <trkpt lat="48.877222" lon="8.233451"><ele>111</ele></trkpt>
   <trkpt lat="48.877247" lon="8.233463"><ele>111</ele></trkpt>
   <trkpt lat="48.878295" lon="8.234053"><ele>111.75</ele></trkpt>
   <trkpt lat="48.879127" lon="8.234515"><ele>113.5</ele></trkpt>
   <trkpt lat="48.879759" lon="8.234875"><ele>120</ele></trkpt>
   <trkpt lat="48.880266" lon="8.235161"><ele>120</ele></trkpt>
   <trkpt lat="48.881091" lon="8.235633"><ele>120</ele></trkpt>
   <trkpt lat="48.881108" lon="8.235642"><ele>120</ele></trkpt>
   <trkpt lat="48.881991" lon="8.236141"><ele>119</ele></trkpt>
   <trkpt lat="48.882049" lon="8.236174"><ele>119</ele></trkpt>
   <trkpt lat="48.882154" lon="8.23623"><ele>119</ele></trkpt>
   <trkpt lat="48.882189" lon="8.236249"><ele>119</ele></trkpt>
   <trkpt lat="48.882708" lon="8.236596"><ele>119.5</ele></trkpt>
   <trkpt lat="48.883228" lon="8.236897"><ele>119.5</ele></trkpt>
   <trkpt lat="48.884113" lon="8.237407"><ele>120</ele></trkpt>
   <trkpt lat="48.884598" lon="8.237709"><ele>119.75</ele></trkpt>
   <trkpt lat="48.885295" lon="8.238175"><ele>120</ele></trkpt>
   <trkpt lat="48.885807" lon="8.23854"><ele>120</ele></trkpt>
   <trkpt lat="48.886145" lon="8.238797"><ele>120</ele></trkpt>
   <trkpt lat="48.887036" lon="8.2395"><ele>120</ele></trkpt>
   <trkpt lat="48.88744" lon="8.23982"><ele>120</ele></trkpt>
   <trkpt lat="48.888501" lon="8.240661"><ele>120</ele></trkpt>
   <trkpt lat="48.888696" lon="8.240819"><ele>120</ele></trkpt>
   <trkpt lat="48.888982" lon="8.241046"><ele>120</ele></trkpt>
   <trkpt lat="48.889434" lon="8.241384"><ele>120</ele></trkpt>
   <trkpt lat="48.889713" lon="8.241577"><ele>120</ele></trkpt>
   <trkpt lat="48.890444" lon="8.242042"><ele>120</ele></trkpt>
   <trkpt lat="48.890452" lon="8.242049"><ele>120</ele></trkpt>
   <trkpt lat="48.890634" lon="8.242198"><ele>119.75</ele></trkpt>
   <trkpt lat="48.891446" lon="8.242841"><ele>120</ele></trkpt>
   <trkpt lat="48.891684" lon="8.243029"><ele>119.75</ele></trkpt>
   <trkpt lat="48.891915" lon="8.243208"><ele>120</ele></trkpt>
   <trkpt lat="48.893281" lon="8.244298"><ele>120</ele></trkpt>
   <trkpt lat="48.895005" lon="8.245657"><ele>119.75</ele></trkpt>
   <trkpt lat="48.896944" lon="8.247208"><ele>119.75</ele></trkpt>
   <trkpt lat="48.900028" lon="8.249662"><ele>120</ele></trkpt>
   <trkpt lat="48.901241" lon="8.250631"><ele>120</ele></trkpt>
   <trkpt lat="48.901265" lon="8.250651"><ele>120</ele></trkpt>
   <trkpt lat="48.903297" lon="8.252266"><ele>120</ele></trkpt>
   <trkpt lat="48.903351" lon="8.252309"><ele>120</ele></trkpt>
   <trkpt lat="48.90621" lon="8.254583"><ele>119</ele></trkpt>
   <trkpt lat="48.907386" lon="8.255518"><ele>119.5</ele></trkpt>
   <trkpt lat="48.908308" lon="8.25626"><ele>120</ele></trkpt>
   <trkpt lat="48.910223" lon="8.25778"><ele>119</ele></trkpt>
   <trkpt lat="48.910347" lon="8.25788"><ele>119</ele></trkpt>
   <trkpt lat="48.910436" lon="8.257952"><ele>119</ele></trkpt>
   <trkpt lat="48.910504" lon="8.25801"><ele>119</ele></trkpt>
   <trkpt lat="48.910625" lon="8.258105"><ele>119</ele></trkpt>
   <trkpt lat="48.91072" lon="8.258179"><ele>119</ele></trkpt>
   <trkpt lat="48.911012" lon="8.258411"><ele>118</ele></trkpt>
   <trkpt lat="48.913709" lon="8.260549"><ele>118</ele></trkpt>
   <trkpt lat="48.91396" lon="8.260745"><ele>118</ele></trkpt>
   <trkpt lat="48.91397" lon="8.260754"><ele>118</ele></trkpt>
   <trkpt lat="48.914272" lon="8.260994"><ele>118</ele></trkpt>
   <trkpt lat="48.917297" lon="8.263405"><ele>117.5</ele></trkpt>
   <trkpt lat="48.920882" lon="8.266261"><ele>117</ele></trkpt>
   <trkpt lat="48.921882" lon="8.267058"><ele>117</ele></trkpt>
   <trkpt lat="48.922064" lon="8.267204"><ele>117.25</ele></trkpt>
   <trkpt lat="48.923494" lon="8.268345"><ele>118</ele></trkpt>
   <trkpt lat="48.923778" lon="8.268569"><ele>118</ele></trkpt>
   <trkpt lat="48.923858" lon="8.268631"><ele>118</ele></trkpt>
   <trkpt lat="48.924885" lon="8.269442"><ele>118</ele></trkpt>
   <trkpt lat="48.924983" lon="8.269524"><ele>118</ele></trkpt>
   <trkpt lat="48.925205" lon="8.269708"><ele>118</ele></trkpt>
   <trkpt lat="48.925374" lon="8.269869"><ele>118</ele></trkpt>
   <trkpt lat="48.925463" lon="8.269963"><ele>118</ele></trkpt>
   <trkpt lat="48.925805" lon="8.270249"><ele>118</ele></trkpt>
   <trkpt lat="48.926012" lon="8.270412"><ele>118</ele></trkpt>
   <trkpt lat="48.928079" lon="8.27208"><ele>117.5</ele></trkpt>
   <trkpt lat="48.92814" lon="8.272132"><ele>117.5</ele></trkpt>
   <trkpt lat="48.929004" lon="8.27282"><ele>117.25</ele></trkpt>
   <trkpt lat="48.929074" lon="8.272875"><ele>117.25</ele></trkpt>
   <trkpt lat="48.929235" lon="8.273003"><ele>117.25</ele></trkpt>
   <trkpt lat="48.929554" lon="8.273258"><ele>117.5</ele></trkpt>
   <trkpt lat="48.929872" lon="8.27351"><ele>117.5</ele></trkpt>
   <trkpt lat="48.931795" lon="8.275041"><ele>118</ele></trkpt>
   <trkpt lat="48.932592" lon="8.275651"><ele>118</ele></trkpt>
   <trkpt lat="48.932943" lon="8.275872"><ele>118</ele></trkpt>
   <trkpt lat="48.933046" lon="8.275942"><ele>118</ele></trkpt>
   <trkpt lat="48.933088" lon="8.275977"><ele>118</ele></trkpt>
   <trkpt lat="48.933176" lon="8.27605"><ele>118</ele></trkpt>
   <trkpt lat="48.933454" lon="8.276267"><ele>118</ele></trkpt>
   <trkpt lat="48.933484" lon="8.276291"><ele>118</ele></trkpt>
   <trkpt lat="48.93412" lon="8.276804"><ele>118</ele></trkpt>
   <trkpt lat="48.934839" lon="8.277435"><ele>118</ele></trkpt>
   <trkpt lat="48.935343" lon="8.277911"><ele>118</ele></trkpt>
   <trkpt lat="48.936035" lon="8.27861"><ele>118</ele></trkpt>
   <trkpt lat="48.936602" lon="8.279231"><ele>118</ele></trkpt>
   <trkpt lat="48.937154" lon="8.279852"><ele>118</ele></trkpt>
   <trkpt lat="48.937754" lon="8.280575"><ele>117</ele></trkpt>
   <trkpt lat="48.937766" lon="8.28059"><ele>117</ele></trkpt>
   <trkpt lat="48.937818" lon="8.280654"><ele>117</ele></trkpt>
   <trkpt lat="48.937829" lon="8.280669"><ele>117</ele></trkpt>
   <trkpt lat="48.937843" lon="8.280688"><ele>117</ele></trkpt>
   <trkpt lat="48.937996" lon="8.28089"><ele>117</ele></trkpt>
   <trkpt lat="48.938343" lon="8.281338"><ele>117</ele></trkpt>
   <trkpt lat="48.938444" lon="8.281475"><ele>117</ele></trkpt>
   <trkpt lat="48.938709" lon="8.281836"><ele>117</ele></trkpt>
   <trkpt lat="48.938903" lon="8.282094"><ele>117</ele></trkpt>
   <trkpt lat="48.939226" lon="8.282556"><ele>116.75</ele></trkpt>
   <trkpt lat="48.939639" lon="8.283169"><ele>117</ele></trkpt>
   <trkpt lat="48.939856" lon="8.283513"><ele>117</ele></trkpt>
   <trkpt lat="48.940403" lon="8.284395"><ele>117</ele></trkpt>
   <trkpt lat="48.941024" lon="8.285467"><ele>117</ele></trkpt>
   <trkpt lat="48.941382" lon="8.286125"><ele>116.75</ele></trkpt>
   <trkpt lat="48.941759" lon="8.286849"><ele>117</ele></trkpt>
   <trkpt lat="48.942156" lon="8.28766"><ele>117</ele></trkpt>
   <trkpt lat="48.942601" lon="8.28862"><ele>117</ele></trkpt>
   <trkpt lat="48.942787" lon="8.289035"><ele>116.75</ele></trkpt>
   <trkpt lat="48.943148" lon="8.289861"><ele>116</ele></trkpt>
   <trkpt lat="48.943358" lon="8.290332"><ele>116</ele></trkpt>
   <trkpt lat="48.943666" lon="8.291027"><ele>116</ele></trkpt>
   <trkpt lat="48.943832" lon="8.291401"><ele>116</ele></trkpt>
   <trkpt lat="48.943891" lon="8.291535"><ele>116</ele></trkpt>
   <trkpt lat="48.945891" lon="8.296061"><ele>117</ele></trkpt>
   <trkpt lat="48.946163" lon="8.296666"><ele>117</ele></trkpt>
   <trkpt lat="48.94634" lon="8.297043"><ele>117</ele></trkpt>
   <trkpt lat="48.946642" lon="8.297658"><ele>117</ele></trkpt>
   <trkpt lat="48.947168" lon="8.298763"><ele>116.5</ele></trkpt>
   <trkpt lat="48.947631" lon="8.299759"><ele>116</ele></trkpt>
   <trkpt lat="48.947783" lon="8.300113"><ele>116</ele></trkpt>
   <trkpt lat="48.948176" lon="8.301036"><ele>116</ele></trkpt>
   <trkpt lat="48.948749" lon="8.302462"><ele>116</ele></trkpt>
   <trkpt lat="48.948868" lon="8.302727"><ele>116</ele></trkpt>
   <trkpt lat="48.948968" lon="8.302954"><ele>116</ele></trkpt>
   <trkpt lat="48.949169" lon="8.303441"><ele>116</ele></trkpt>
   <trkpt lat="48.94937" lon="8.30395"><ele>116</ele></trkpt>
   <trkpt lat="48.949735" lon="8.30479"><ele>116</ele></trkpt>
   <trkpt lat="48.950264" lon="8.305986"><ele>117</ele></trkpt>
   <trkpt lat="48.950344" lon="8.306168"><ele>117</ele></trkpt>
   <trkpt lat="48.950524" lon="8.306595"><ele>117</ele></trkpt>
   <trkpt lat="48.950605" lon="8.306777"><ele>117</ele></trkpt>
   <trkpt lat="48.951533" lon="8.308865"><ele>117</ele></trkpt>
   <trkpt lat="48.952055" lon="8.310064"><ele>117</ele></trkpt>
   <trkpt lat="48.9522" lon="8.310402"><ele>117</ele></trkpt>
   <trkpt lat="48.95255" lon="8.311181"><ele>116.75</ele></trkpt>
   <trkpt lat="48.95355" lon="8.313464"><ele>117</ele></trkpt>
   <trkpt lat="48.954573" lon="8.315753"><ele>116</ele></trkpt>
   <trkpt lat="48.955041" lon="8.316815"><ele>116</ele></trkpt>
   <trkpt lat="48.955292" lon="8.317377"><ele>116</ele></trkpt>
   <trkpt lat="48.95535" lon="8.317507"><ele>116</ele></trkpt>
   <trkpt lat="48.955383" lon="8.317583"><ele>116</ele></trkpt>
   <trkpt lat="48.955438" lon="8.317711"><ele>116</ele></trkpt>
   <trkpt lat="48.955663" lon="8.318225"><ele>116</ele></trkpt>
   <trkpt lat="48.956864" lon="8.320946"><ele>115</ele></trkpt>
   <trkpt lat="48.957123" lon="8.321536"><ele>114.75</ele></trkpt>
   <trkpt lat="48.957665" lon="8.322759"><ele>114.5</ele></trkpt>
   <trkpt lat="48.957986" lon="8.323488"><ele>114.75</ele></trkpt>
   <trkpt lat="48.95887" lon="8.325498"><ele>114.75</ele></trkpt>
   <trkpt lat="48.959668" lon="8.327307"><ele>114.5</ele></trkpt>
   <trkpt lat="48.960188" lon="8.328493"><ele>114.75</ele></trkpt>
   <trkpt lat="48.960469" lon="8.329128"><ele>114.5</ele></trkpt>
   <trkpt lat="48.961482" lon="8.331425"><ele>114.5</ele></trkpt>
   <trkpt lat="48.961526" lon="8.331525"><ele>114.5</ele></trkpt>
   <trkpt lat="48.962614" lon="8.333997"><ele>116</ele></trkpt>
   <trkpt lat="48.963717" lon="8.33651"><ele>116</ele></trkpt>
   <trkpt lat="48.964071" lon="8.337314"><ele>116</ele></trkpt>
   <trkpt lat="48.964139" lon="8.337468"><ele>116</ele></trkpt>
   <trkpt lat="48.964201" lon="8.337612"><ele>116</ele></trkpt>
   <trkpt lat="48.964453" lon="8.338191"><ele>116</ele></trkpt>
   <trkpt lat="48.964483" lon="8.338261"><ele>116</ele></trkpt>
   <trkpt lat="48.964496" lon="8.338287"><ele>116</ele></trkpt>
   <trkpt lat="48.964706" lon="8.338766"><ele>116</ele></trkpt>
   <trkpt lat="48.964751" lon="8.338866"><ele>116</ele></trkpt>
   <trkpt lat="48.964887" lon="8.339172"><ele>116</ele></trkpt>
   <trkpt lat="48.964986" lon="8.3394"><ele>116</ele></trkpt>
   <trkpt lat="48.965425" lon="8.3404"><ele>116</ele></trkpt>
   <trkpt lat="48.96571" lon="8.341052"><ele>116</ele></trkpt>
   <trkpt lat="48.966365" lon="8.342532"><ele>116</ele></trkpt>
   <trkpt lat="48.966631" lon="8.343112"><ele>116</ele></trkpt>
   <trkpt lat="48.966849" lon="8.343601"><ele>116</ele></trkpt>
   <trkpt lat="48.96794" lon="8.346075"><ele>116</ele></trkpt>
   <trkpt lat="48.968657" lon="8.347695"><ele>116</ele></trkpt>
   <trkpt lat="48.969073" lon="8.34864"><ele>116.75</ele></trkpt>
   <trkpt lat="48.969703" lon="8.350074"><ele>117</ele></trkpt>
   <trkpt lat="48.969836" lon="8.350373"><ele>117</ele></trkpt>
   <trkpt lat="48.97065" lon="8.352215"><ele>117</ele></trkpt>
   <trkpt lat="48.971697" lon="8.354611"><ele>116</ele></trkpt>
   <trkpt lat="48.971855" lon="8.354973"><ele>115.25</ele></trkpt>
   <trkpt lat="48.972664" lon="8.356808"><ele>114</ele></trkpt>
   <trkpt lat="48.97381" lon="8.359404"><ele>113.75</ele></trkpt>
   <trkpt lat="48.973881" lon="8.359566"><ele>113.5</ele></trkpt>
   <trkpt lat="48.974611" lon="8.361226"><ele>113</ele></trkpt>
   <trkpt lat="48.9747" lon="8.36143"><ele>113</ele></trkpt>
   <trkpt lat="48.975813" lon="8.363959"><ele>113.75</ele></trkpt>
   <trkpt lat="48.976613" lon="8.365776"><ele>114</ele></trkpt>
   <trkpt lat="48.97774" lon="8.368339"><ele>114.75</ele></trkpt>
   <trkpt lat="48.978738" lon="8.37062"><ele>114</ele></trkpt>
   <trkpt lat="48.978815" lon="8.370797"><ele>114</ele></trkpt>
   <trkpt lat="48.979441" lon="8.372224"><ele>114</ele></trkpt>
   <trkpt lat="48.979536" lon="8.372433"><ele>114</ele></trkpt>
   <trkpt lat="48.979807" lon="8.373054"><ele>114</ele></trkpt>
   <trkpt lat="48.979818" lon="8.373078"><ele>114</ele></trkpt>
   <trkpt lat="48.979913" lon="8.373292"><ele>114</ele></trkpt>
   <trkpt lat="48.979925" lon="8.373321"><ele>114</ele></trkpt>
   <trkpt lat="48.980325" lon="8.374226"><ele>115</ele></trkpt>
   <trkpt lat="48.980538" lon="8.374713"><ele>115</ele></trkpt>
   <trkpt lat="48.980658" lon="8.374972"><ele>115</ele></trkpt>
   <trkpt lat="48.980705" lon="8.375075"><ele>115</ele></trkpt>
   <trkpt lat="48.981073" lon="8.375848"><ele>115</ele></trkpt>
   <trkpt lat="48.981104" lon="8.375909"><ele>115</ele></trkpt>
   <trkpt lat="48.981118" lon="8.375937"><ele>115</ele></trkpt>
   <trkpt lat="48.981291" lon="8.376279"><ele>115</ele></trkpt>
   <trkpt lat="48.9815" lon="8.376662"><ele>115</ele></trkpt>
   <trkpt lat="48.981691" lon="8.377008"><ele>115</ele></trkpt>
   <trkpt lat="48.982245" lon="8.37794"><ele>114.75</ele></trkpt>
   <trkpt lat="48.98244" lon="8.378254"><ele>115</ele></trkpt>
   <trkpt lat="48.982518" lon="8.378383"><ele>115</ele></trkpt>
   <trkpt lat="48.983553" lon="8.380089"><ele>114</ele></trkpt>
   <trkpt lat="48.983816" lon="8.38053"><ele>114</ele></trkpt>
   <trkpt lat="48.984982" lon="8.382438"><ele>114</ele></trkpt>
   <trkpt lat="48.985261" lon="8.382896"><ele>114</ele></trkpt>
   <trkpt lat="48.985343" lon="8.383026"><ele>114</ele></trkpt>
   <trkpt lat="48.9867" lon="8.38526"><ele>114</ele></trkpt>
   <trkpt lat="48.987112" lon="8.385926"><ele>114</ele></trkpt>
   <trkpt lat="48.987169" lon="8.386022"><ele>114</ele></trkpt>
   <trkpt lat="48.987387" lon="8.386381"><ele>114</ele></trkpt>
   <trkpt lat="48.987427" lon="8.386447"><ele>114</ele></trkpt>
   <trkpt lat="48.987524" lon="8.386606"><ele>114</ele></trkpt>
   <trkpt lat="48.987601" lon="8.386732"><ele>114</ele></trkpt>
   <trkpt lat="48.987606" lon="8.386741"><ele>114</ele></trkpt>
   <trkpt lat="48.987916" lon="8.387256"><ele>114</ele></trkpt>
   <trkpt lat="48.988123" lon="8.387624"><ele>114</ele></trkpt>
   <trkpt lat="48.988345" lon="8.388044"><ele>114</ele></trkpt>
   <trkpt lat="48.988534" lon="8.388435"><ele>114</ele></trkpt>
   <trkpt lat="48.98864" lon="8.388669"><ele>114</ele></trkpt>
   <trkpt lat="48.988678" lon="8.388756"><ele>114</ele></trkpt>
   <trkpt lat="48.988791" lon="8.389"><ele>114</ele></trkpt>
   <trkpt lat="48.989059" lon="8.389542"><ele>114</ele></trkpt>
   <trkpt lat="48.989179" lon="8.389815"><ele>114</ele></trkpt>
   <trkpt lat="48.989417" lon="8.390385"><ele>114</ele></trkpt>
   <trkpt lat="48.989423" lon="8.390398"><ele>114</ele></trkpt>
   <trkpt lat="48.989445" lon="8.39045"><ele>113.75</ele></trkpt>
   <trkpt lat="48.989742" lon="8.391153"><ele>113</ele></trkpt>
   <trkpt lat="48.99004" lon="8.39187"><ele>113</ele></trkpt>
   <trkpt lat="48.990153" lon="8.392147"><ele>113</ele></trkpt>
   <trkpt lat="48.990173" lon="8.392197"><ele>113</ele></trkpt>
   <trkpt lat="48.990271" lon="8.392442"><ele>112.75</ele></trkpt>
   <trkpt lat="48.990413" lon="8.392841"><ele>113.25</ele></trkpt>
   <trkpt lat="48.990592" lon="8.393293"><ele>114</ele></trkpt>
   <trkpt lat="48.990701" lon="8.393567"><ele>114.75</ele></trkpt>
   <trkpt lat="48.990805" lon="8.393813"><ele>115</ele></trkpt>
   <trkpt lat="48.990933" lon="8.394138"><ele>115.75</ele></trkpt>
   <trkpt lat="48.991095" lon="8.394624"><ele>115.75</ele></trkpt>
   <trkpt lat="48.991291" lon="8.395092"><ele>116.5</ele></trkpt>
   <trkpt lat="48.991681" lon="8.396051"><ele>117</ele></trkpt>
   <trkpt lat="48.991877" lon="8.396515"><ele>117</ele></trkpt>
   <trkpt lat="48.992097" lon="8.396932"><ele>117</ele></trkpt>
   <trkpt lat="48.992204" lon="8.397159"><ele>117</ele></trkpt>
   <trkpt lat="48.992434" lon="8.39771"><ele>117</ele></trkpt>
   <trkpt lat="48.992533" lon="8.39795"><ele>117</ele></trkpt>
   <trkpt lat="48.992582" lon="8.398066"><ele>117</ele></trkpt>
   <trkpt lat="48.992726" lon="8.39843"><ele>117</ele></trkpt>
   <trkpt lat="48.992904" lon="8.398952"><ele>117</ele></trkpt>
   <trkpt lat="48.993064" lon="8.399435"><ele>117</ele></trkpt>
   <trkpt lat="48.993069" lon="8.399449"><ele>117</ele></trkpt>
   <trkpt lat="48.993085" lon="8.399498"><ele>117</ele></trkpt>
   <trkpt lat="48.993091" lon="8.399514"><ele>117</ele></trkpt>
   <trkpt lat="48.993217" lon="8.399918"><ele>117</ele></trkpt>
   <trkpt lat="48.993312" lon="8.400273"><ele>117</ele></trkpt>
   <trkpt lat="48.993416" lon="8.400672"><ele>117</ele></trkpt>
   <trkpt lat="48.993454" lon="8.400818"><ele>117</ele></trkpt>
   <trkpt lat="48.993543" lon="8.401167"><ele>117</ele></trkpt>
   <trkpt lat="48.993709" lon="8.401811"><ele>117</ele></trkpt>
   <trkpt lat="48.993723" lon="8.401865"><ele>117</ele></trkpt>
   <trkpt lat="48.993734" lon="8.401904"><ele>117</ele></trkpt>
   <trkpt lat="48.993831" lon="8.402281"><ele>117</ele></trkpt>
   <trkpt lat="48.994001" lon="8.402943"><ele>117</ele></trkpt>
  </trkseg>
 </trk>
</gpx>