<?xml version="1.0" encoding="UTF-8"?>
<!-- track-length = 35554 filtered ascend = 66 plain-ascend = 6 cost=35554 energy=0.4kwh time=47m 24s -->
<gpx 
 xmlns="http://www.topografix.com/GPX/1/1" 
 xmlns:xsi="http://www.w3.org/2001/XMLSchema-instance" 
 xsi:schemaLocation="http://www.topografix.com/GPX/1/1 http://www.topografix.com/GPX/1/1/gpx.xsd" 
 version="1.1" 
 creator="BRouter-Web 0.18.1">
 <trk>
  <name>Raunheim - Offenbach-Bieber</name>
  <trkseg>
   <trkpt lat="50.019904" lon="8.468963"><ele>96.5</ele></trkpt>
   <trkpt lat="50.019928" lon="8.468992"><ele>96.75</ele></trkpt>
   <trkpt lat="50.019956" lon="8.469027"><ele>97</ele></trkpt>
   <trkpt lat="50.02029" lon="8.46942"><ele>97.75</ele></trkpt>
   <trkpt lat="50.023124" lon="8.472752"><ele>93.75</ele></trkpt>
   <trkpt lat="50.027393" lon="8.477773"><ele>91.75</ele></trkpt>
   <trkpt lat="50.031759" lon="8.482906"><ele>91.25</ele></trkpt>
   <trkpt lat="50.03516" lon="8.486905"><ele>94</ele></trkpt>
   <trkpt lat="50.039584" lon="8.492107"><ele>91.75</ele></trkpt>
   <trkpt lat="50.042988" lon="8.49612"><ele>93.25</ele></trkpt>
   <trkpt lat="50.04343" lon="8.496662"><ele>91.75</ele></trkpt>
   <trkpt lat="50.043906" lon="8.49726"><ele>93.5</ele></trkpt>
   <trkpt lat="50.044855" lon="8.49852"><ele>95.25</ele></trkpt>
   <trkpt lat="50.045325" lon="8.49918"><ele>93.5</ele></trkpt>
   <trkpt lat="50.045518" lon="8.499462"><ele>93.75</ele></trkpt>
   <trkpt lat="50.045835" lon="8.499921"><ele>95.5</ele></trkpt>
   <trkpt lat="50.046086" lon="8.500299"><ele>96.5</ele></trkpt>
   <trkpt lat="50.046731" lon="8.501298"><ele>97.25</ele></trkpt>
   <trkpt lat="50.047125" lon="8.501933"><ele>96.75</ele></trkpt>
   <trkpt lat="50.047529" lon="8.502609"><ele>98</ele></trkpt>
   <trkpt lat="50.047914" lon="8.503278"><ele>99</ele></trkpt>
   <trkpt lat="50.048495" lon="8.504319"><ele>97.5</ele></trkpt>
   <trkpt lat="50.049075" lon="8.505366"><ele>96</ele></trkpt>
   <trkpt lat="50.049329" lon="8.505825"><ele>97.25</ele></trkpt>
   <trkpt lat="50.051626" lon="8.509976"><ele>99.75</ele></trkpt>
   <trkpt lat="50.053157" lon="8.512738"><ele>100.5</ele></trkpt>
   <trkpt lat="50.053348" lon="8.51309"><ele>99</ele></trkpt>
   <trkpt lat="50.053562" lon="8.513476"><ele>99.75</ele></trkpt>
   <trkpt lat="50.055772" lon="8.517469"><ele>103.75</ele></trkpt>
   <trkpt lat="50.058472" lon="8.522349"><ele>106</ele></trkpt>
   <trkpt lat="50.059142" lon="8.523556"><ele>106</ele></trkpt>
   <trkpt lat="50.059587" lon="8.524361"><ele>107</ele></trkpt>
   <trkpt lat="50.059907" lon="8.524969"><ele>107</ele></trkpt>
   <trkpt lat="50.060194" lon="8.525459"><ele>107.25</ele></trkpt>
   <trkpt lat="50.060499" lon="8.526014"><ele>107.5</ele></trkpt>
   <trkpt lat="50.060821" lon="8.526595"><ele>107</ele></trkpt>
   <trkpt lat="50.061297" lon="8.527518"><ele>107.25</ele></trkpt>
   <trkpt lat="50.061506" lon="8.527908"><ele>106.75</ele></trkpt>
   <trkpt lat="50.06179" lon="8.528389"><ele>106</ele></trkpt>
   <trkpt lat="50.062322" lon="8.52932"><ele>106.25</ele></trkpt>
   <trkpt lat="50.062499" lon="8.529634"><ele>106</ele></trkpt>
   <trkpt lat="50.062564" lon="8.529745"><ele>105.5</ele></trkpt>
   <trkpt lat="50.062732" lon="8.530026"><ele>105.5</ele></trkpt>
   <trkpt lat="50.062912" lon="8.53036"><ele>105.5</ele></trkpt>
   <trkpt lat="50.063016" lon="8.530573"><ele>105.25</ele></trkpt>
   <trkpt lat="50.063214" lon="8.530949"><ele>105.25</ele></trkpt>
   <trkpt lat="50.063521" lon="8.531568"><ele>106</ele></trkpt>
   <trkpt lat="50.06366" lon="8.531822"><ele>106.5</ele></trkpt>
   <trkpt lat="50.063791" lon="8.532081"><ele>107</ele></trkpt>
   <trkpt lat="50.063992" lon="8.5325"><ele>107.75</ele></trkpt>
   <trkpt lat="50.064184" lon="8.532943"><ele>108.5</ele></trkpt>
   <trkpt lat="50.06451" lon="8.533813"><ele>109.25</ele></trkpt>
   <trkpt lat="50.064534" lon="8.533878"><ele>109.25</ele></trkpt>
   <trkpt lat="50.064627" lon="8.534137"><ele>109.5</ele></trkpt>
   <trkpt lat="50.064822" lon="8.534737"><ele>109.75</ele></trkpt>
   <trkpt lat="50.06496" lon="8.5352"><ele>110</ele></trkpt>
   <trkpt lat="50.065078" lon="8.535601"><ele>110</ele></trkpt>
   <trkpt lat="50.065284" lon="8.536478"><ele>110.25</ele></trkpt>
   <trkpt lat="50.065346" lon="8.536772"><ele>110.25</ele></trkpt>
   <trkpt lat="50.065452" lon="8.537364"><ele>110</ele></trkpt>
   <trkpt lat="50.065504" lon="8.537662"><ele>109.75</ele></trkpt>
   <trkpt lat="50.065555" lon="8.53801"><ele>109.25</ele></trkpt>
   <trkpt lat="50.065644" lon="8.538719"><ele>109</ele></trkpt>
   <trkpt lat="50.065681" lon="8.539077"><ele>109.25</ele></trkpt>
   <trkpt lat="50.065741" lon="8.539865"><ele>110</ele></trkpt>
   <trkpt lat="50.065776" lon="8.540663"><ele>110</ele></trkpt>
   <trkpt lat="50.065789" lon="8.541458"><ele>109.25</ele></trkpt>
   <trkpt lat="50.06578" lon="8.542284"><ele>109.25</ele></trkpt>
   <trkpt lat="50.065747" lon="8.543144"><ele>109.25</ele></trkpt>
   <trkpt lat="50.065721" lon="8.543563"><ele>109.25</ele></trkpt>
   <trkpt lat="50.06568" lon="8.543991"><ele>109.5</ele></trkpt>
   <trkpt lat="50.065651" lon="8.544244"><ele>109.5</ele></trkpt>
   <trkpt lat="50.06558" lon="8.54474"><ele>110.25</ele></trkpt>
   <trkpt lat="50.065495" lon="8.545214"><ele>110.75</ele></trkpt>
   <trkpt lat="50.065402" lon="8.545645"><ele>111</ele></trkpt>
   <trkpt lat="50.065325" lon="8.545967"><ele>111.25</ele></trkpt>
   <trkpt lat="50.065243" lon="8.546264"><ele>111.5</ele></trkpt>
   <trkpt lat="50.065157" lon="8.546544"><ele>111.75</ele></trkpt>
   <trkpt lat="50.064989" lon="8.547044"><ele>112.25</ele></trkpt>
   <trkpt lat="50.064781" lon="8.547572"><ele>113.25</ele></trkpt>
   <trkpt lat="50.064677" lon="8.547809"><ele>113.25</ele></trkpt>
   <trkpt lat="50.064449" lon="8.548282"><ele>112.5</ele></trkpt>
   <trkpt lat="50.064257" lon="8.548633"><ele>112</ele></trkpt>
   <trkpt lat="50.064051" lon="8.548973"><ele>112</ele></trkpt>
   <trkpt lat="50.063852" lon="8.549272"><ele>111.75</ele></trkpt>
   <trkpt lat="50.063649" lon="8.549553"><ele>111.5</ele></trkpt>
   <trkpt lat="50.063338" lon="8.549931"><ele>111.25</ele></trkpt>
   <trkpt lat="50.063175" lon="8.550112"><ele>111.25</ele></trkpt>
   <trkpt lat="50.06301" lon="8.550281"><ele>111.25</ele></trkpt>
   <trkpt lat="50.062974" lon="8.550315"><ele>111.25</ele></trkpt>
   <trkpt lat="50.062707" lon="8.55056"><ele>112.25</ele></trkpt>
   <trkpt lat="50.062474" lon="8.55075"><ele>112.75</ele></trkpt>
   <trkpt lat="50.062007" lon="8.551073"><ele>112.75</ele></trkpt>
   <trkpt lat="50.0616" lon="8.551298"><ele>111.75</ele></trkpt>
   <trkpt lat="50.061259" lon="8.551445"><ele>111</ele></trkpt>
   <trkpt lat="50.060908" lon="8.551566"><ele>110.25</ele></trkpt>
   <trkpt lat="50.06049" lon="8.551662"><ele>110.75</ele></trkpt>
   <trkpt lat="50.060307" lon="8.551686"><ele>111.25</ele></trkpt>
   <trkpt lat="50.060001" lon="8.551712"><ele>112</ele></trkpt>
   <trkpt lat="50.059636" lon="8.551715"><ele>113.25</ele></trkpt>
   <trkpt lat="50.059311" lon="8.551683"><ele>114.5</ele></trkpt>
   <trkpt lat="50.058936" lon="8.551615"><ele>113.75</ele></trkpt>
   <trkpt lat="50.058381" lon="8.551461"><ele>110.75</ele></trkpt>
   <trkpt lat="50.058114" lon="8.55137"><ele>110</ele></trkpt>
   <trkpt lat="50.057813" lon="8.551255"><ele>109.5</ele></trkpt>
   <trkpt lat="50.057007" lon="8.550966"><ele>110.25</ele></trkpt>
   <trkpt lat="50.056583" lon="8.550834"><ele>111</ele></trkpt>
   <trkpt lat="50.056159" lon="8.550737"><ele>111.25</ele></trkpt>
   <trkpt lat="50.055854" lon="8.550693"><ele>111.25</ele></trkpt>
   <trkpt lat="50.055551" lon="8.550672"><ele>111.25</ele></trkpt>
   <trkpt lat="50.055242" lon="8.55068"><ele>111.25</ele></trkpt>
   <trkpt lat="50.054937" lon="8.550707"><ele>111.25</ele></trkpt>
   <trkpt lat="50.054699" lon="8.550749"><ele>111.25</ele></trkpt>
   <trkpt lat="50.05446" lon="8.550805"><ele>111</ele></trkpt>
   <trkpt lat="50.054232" lon="8.55087"><ele>111.25</ele></trkpt>
   <trkpt lat="50.053995" lon="8.550955"><ele>110.75</ele></trkpt>
   <trkpt lat="50.053781" lon="8.551048"><ele>110.25</ele></trkpt>
   <trkpt lat="50.053569" lon="8.55115"><ele>109.75</ele></trkpt>
   <trkpt lat="50.053144" lon="8.551396"><ele>109.5</ele></trkpt>
   <trkpt lat="50.052713" lon="8.551714"><ele>111</ele></trkpt>
   <trkpt lat="50.05243" lon="8.551954"><ele>112</ele></trkpt>
   <trkpt lat="50.052291" lon="8.552088"><ele>112.25</ele></trkpt>
   <trkpt lat="50.052022" lon="8.552366"><ele>111.75</ele></trkpt>
   <trkpt lat="50.051799" lon="8.55262"><ele>111</ele></trkpt>
   <trkpt lat="50.051584" lon="8.552891"><ele>110</ele></trkpt>
   <trkpt lat="50.051305" lon="8.553286"><ele>109.25</ele></trkpt>
   <trkpt lat="50.051076" lon="8.55365"><ele>108.25</ele></trkpt>
   <trkpt lat="50.050896" lon="8.55397"><ele>107.25</ele></trkpt>
   <trkpt lat="50.05048" lon="8.554828"><ele>106.5</ele></trkpt>
   <trkpt lat="50.050351" lon="8.555146"><ele>106.25</ele></trkpt>
   <trkpt lat="50.050232" lon="8.555463"><ele>105.75</ele></trkpt>
   <trkpt lat="50.05013" lon="8.555765"><ele>105.5</ele></trkpt>
   <trkpt lat="50.050027" lon="8.556104"><ele>105.25</ele></trkpt>
   <trkpt lat="50.050005" lon="8.55619"><ele>105.25</ele></trkpt>
   <trkpt lat="50.049878" lon="8.556678"/>
   <trkpt lat="50.049735" lon="8.557347"/>
   <trkpt lat="50.049619" lon="8.558009"/>
   <trkpt lat="50.049543" lon="8.558703"/>
   <trkpt lat="50.049493" lon="8.559527"/>
   <trkpt lat="50.049496" lon="8.560086"/>
   <trkpt lat="50.049511" lon="8.560697"/>
   <trkpt lat="50.049567" lon="8.561473"/>
   <trkpt lat="50.049639" lon="8.562191"/>
   <trkpt lat="50.049889" lon="8.564253"/>
   <trkpt lat="50.050056" lon="8.565619"/>
   <trkpt lat="50.050195" lon="8.566827"/>
   <trkpt lat="50.050285" lon="8.567547"/>
   <trkpt lat="50.050384" lon="8.568119"/>
   <trkpt lat="50.050652" lon="8.569256"/>
   <trkpt lat="50.050859" lon="8.570076"/>
   <trkpt lat="50.051291" lon="8.571805"/>
   <trkpt lat="50.051416" lon="8.572306"/>
   <trkpt lat="50.051586" lon="8.572989"/>
   <trkpt lat="50.051873" lon="8.574105"/>
   <trkpt lat="50.052091" lon="8.574878"/>
   <trkpt lat="50.052254" lon="8.575631"/>
   <trkpt lat="50.052362" lon="8.576192"/>
   <trkpt lat="50.052416" lon="8.576415"/>
   <trkpt lat="50.052677" lon="8.577495"/>
   <trkpt lat="50.053027" lon="8.578788"/>
   <trkpt lat="50.053444" lon="8.580003"/>
   <trkpt lat="50.053592" lon="8.580304"/>
   <trkpt lat="50.054007" lon="8.581121"/>
   <trkpt lat="50.054377" lon="8.581751"/>
   <trkpt lat="50.054733" lon="8.582274"/>
   <trkpt lat="50.054882" lon="8.582493"/>
   <trkpt lat="50.055269" lon="8.583046"/>
   <trkpt lat="50.055361" lon="8.583207"/>
   <trkpt lat="50.055529" lon="8.583529"/>
   <trkpt lat="50.055627" lon="8.583737"/>
   <trkpt lat="50.055697" lon="8.583908"/>
   <trkpt lat="50.055856" lon="8.584385"/>
   <trkpt lat="50.055944" lon="8.584712"/>
   <trkpt lat="50.055998" lon="8.584963"><ele>117.75</ele></trkpt>
   <trkpt lat="50.056017" lon="8.585052"><ele>117.75</ele></trkpt>
   <trkpt lat="50.056371" lon="8.586906"><ele>117.75</ele></trkpt>
   <trkpt lat="50.056572" lon="8.58792"><ele>117.75</ele></trkpt>
   <trkpt lat="50.056681" lon="8.588467"><ele>117.75</ele></trkpt>
   <trkpt lat="50.0568" lon="8.589292"><ele>117.75</ele></trkpt>
   <trkpt lat="50.056831" lon="8.589654"><ele>117.75</ele></trkpt>
   <trkpt lat="50.056848" lon="8.590095"><ele>117.75</ele></trkpt>
   <trkpt lat="50.056838" lon="8.590616"><ele>117.75</ele></trkpt>
   <trkpt lat="50.056819" lon="8.590925"><ele>117.75</ele></trkpt>
   <trkpt lat="50.056713" lon="8.592167"><ele>117.75</ele></trkpt>
   <trkpt lat="50.056645" lon="8.593027"><ele>117.75</ele></trkpt>
   <trkpt lat="50.056636" lon="8.593143"><ele>117.75</ele></trkpt>
   <trkpt lat="50.056547" lon="8.59474"><ele>117.75</ele></trkpt>
   <trkpt lat="50.056473" lon="8.596067"><ele>117.75</ele></trkpt>
   <trkpt lat="50.05647" lon="8.596137"><ele>117.75</ele></trkpt>
   <trkpt lat="50.056392" lon="8.597852"><ele>117.75</ele></trkpt>
   <trkpt lat="50.056373" lon="8.598453"><ele>117.75</ele></trkpt>
   <trkpt lat="50.056358" lon="8.599312"><ele>117.75</ele></trkpt>
   <trkpt lat="50.05628" lon="8.600782"><ele>117.75</ele></trkpt>
   <trkpt lat="50.056191" lon="8.602515"><ele>117.75</ele></trkpt>
   <trkpt lat="50.056159" lon="8.603089"><ele>117.75</ele></trkpt>
   <trkpt lat="50.056136" lon="8.603765"><ele>117.75</ele></trkpt>
   <trkpt lat="50.05614" lon="8.604271"><ele>117.75</ele></trkpt>
   <trkpt lat="50.056158" lon="8.604569"><ele>117.75</ele></trkpt>
   <trkpt lat="50.056213" lon="8.605122"><ele>117.75</ele></trkpt>
   <trkpt lat="50.056299" lon="8.605641"><ele>117.75</ele></trkpt>
   <trkpt lat="50.056397" lon="8.606122"><ele>117.75</ele></trkpt>
   <trkpt lat="50.056505" lon="8.606574"><ele>117.75</ele></trkpt>
   <trkpt lat="50.05666" lon="8.607062"><ele>117.75</ele></trkpt>
   <trkpt lat="50.056873" lon="8.607632"><ele>117.75</ele></trkpt>
   <trkpt lat="50.057159" lon="8.608264"><ele>117.75</ele></trkpt>
   <trkpt lat="50.057385" lon="8.608655"><ele>117.75</ele></trkpt>
   <trkpt lat="50.05749" lon="8.608812"><ele>117.75</ele></trkpt>
   <trkpt lat="50.057512" lon="8.608846"><ele>117.75</ele></trkpt>
   <trkpt lat="50.057633" lon="8.609031"><ele>117.75</ele></trkpt>
   <trkpt lat="50.057795" lon="8.609259"><ele>118.75</ele></trkpt>
   <trkpt lat="50.057943" lon="8.609439"><ele>119.5</ele></trkpt>
   <trkpt lat="50.058173" lon="8.609665"><ele>120.25</ele></trkpt>
   <trkpt lat="50.058562" lon="8.610015"><ele>121.5</ele></trkpt>
   <trkpt lat="50.058843" lon="8.610219"><ele>121.5</ele></trkpt>
   <trkpt lat="50.058863" lon="8.610233"><ele>121.5</ele></trkpt>
   <trkpt lat="50.058966" lon="8.610291"><ele>121.5</ele></trkpt>
   <trkpt lat="50.059284" lon="8.610473"><ele>121.75</ele></trkpt>
   <trkpt lat="50.059562" lon="8.610595"><ele>122.25</ele></trkpt>
   <trkpt lat="50.059765" lon="8.610664"><ele>122.5</ele></trkpt>
   <trkpt lat="50.06038" lon="8.610799"><ele>121.5</ele></trkpt>
   <trkpt lat="50.061047" lon="8.610784"><ele>119.5</ele></trkpt>
   <trkpt lat="50.061707" lon="8.610773"><ele>118.75</ele></trkpt>
   <trkpt lat="50.061841" lon="8.610771"><ele>118.5</ele></trkpt>
   <trkpt lat="50.062584" lon="8.61083"><ele>116.75</ele></trkpt>
   <trkpt lat="50.062842" lon="8.610877"><ele>117</ele></trkpt>
   <trkpt lat="50.063151" lon="8.610956"><ele>117.5</ele></trkpt>
   <trkpt lat="50.063415" lon="8.611052"><ele>117.75</ele></trkpt>
   <trkpt lat="50.063705" lon="8.611193"><ele>118.25</ele></trkpt>
   <trkpt lat="50.063959" lon="8.611341"><ele>119</ele></trkpt>
   <trkpt lat="50.064097" lon="8.611438"><ele>119.5</ele></trkpt>
   <trkpt lat="50.064394" lon="8.611672"><ele>120.25</ele></trkpt>
   <trkpt lat="50.064691" lon="8.61195"><ele>120</ele></trkpt>
   <trkpt lat="50.065021" lon="8.612322"><ele>120.25</ele></trkpt>
   <trkpt lat="50.065175" lon="8.612523"><ele>120</ele></trkpt>
   <trkpt lat="50.065344" lon="8.612766"><ele>120.25</ele></trkpt>
   <trkpt lat="50.065444" lon="8.612924"><ele>120.25</ele></trkpt>
   <trkpt lat="50.065627" lon="8.613238"><ele>121</ele></trkpt>
   <trkpt lat="50.065813" lon="8.613605"><ele>121</ele></trkpt>
   <trkpt lat="50.065986" lon="8.613998"><ele>120</ele></trkpt>
   <trkpt lat="50.066063" lon="8.614194"><ele>119.75</ele></trkpt>
   <trkpt lat="50.066137" lon="8.614396"><ele>119.5</ele></trkpt>
   <trkpt lat="50.066267" lon="8.6148"><ele>119.25</ele></trkpt>
   <trkpt lat="50.06641" lon="8.615341"><ele>118.5</ele></trkpt>
   <trkpt lat="50.066475" lon="8.615641"><ele>118.25</ele></trkpt>
   <trkpt lat="50.066529" lon="8.615935"><ele>118</ele></trkpt>
   <trkpt lat="50.066564" lon="8.616149"><ele>118</ele></trkpt>
   <trkpt lat="50.066608" lon="8.616491"><ele>117.75</ele></trkpt>
   <trkpt lat="50.066648" lon="8.616939"><ele>117.5</ele></trkpt>
   <trkpt lat="50.066659" lon="8.617081"><ele>117.5</ele></trkpt>
   <trkpt lat="50.066677" lon="8.617516"><ele>117</ele></trkpt>
   <trkpt lat="50.066693" lon="8.618674"><ele>115.5</ele></trkpt>
   <trkpt lat="50.066715" lon="8.620599"><ele>114</ele></trkpt>
   <trkpt lat="50.066717" lon="8.620807"><ele>114</ele></trkpt>
   <trkpt lat="50.066726" lon="8.62147"><ele>114</ele></trkpt>
   <trkpt lat="50.066736" lon="8.622361"><ele>113.25</ele></trkpt>
   <trkpt lat="50.066743" lon="8.623106"><ele>112.5</ele></trkpt>
   <trkpt lat="50.066759" lon="8.623731"><ele>112.25</ele></trkpt>
   <trkpt lat="50.06676" lon="8.62374"><ele>112.25</ele></trkpt>
   <trkpt lat="50.066769" lon="8.62396"><ele>112.25</ele></trkpt>
   <trkpt lat="50.066807" lon="8.624514"><ele>112.5</ele></trkpt>
   <trkpt lat="50.066851" lon="8.625036"><ele>113</ele></trkpt>
   <trkpt lat="50.066891" lon="8.62546"><ele>113</ele></trkpt>
   <trkpt lat="50.066897" lon="8.625522"><ele>113</ele></trkpt>
   <trkpt lat="50.067016" lon="8.627167"><ele>111.25</ele></trkpt>
   <trkpt lat="50.067025" lon="8.62726"><ele>111.25</ele></trkpt>
   <trkpt lat="50.067027" lon="8.627286"><ele>111.25</ele></trkpt>
   <trkpt lat="50.067095" lon="8.628164"><ele>110</ele></trkpt>
   <trkpt lat="50.06715" lon="8.628619"><ele>110</ele></trkpt>
   <trkpt lat="50.067171" lon="8.628753"><ele>110</ele></trkpt>
   <trkpt lat="50.067267" lon="8.629331"><ele>109.75</ele></trkpt>
   <trkpt lat="50.067408" lon="8.630142"><ele>109.75</ele></trkpt>
   <trkpt lat="50.067537" lon="8.630782"><ele>110</ele></trkpt>
   <trkpt lat="50.067539" lon="8.630794"><ele>110</ele></trkpt>
   <trkpt lat="50.067555" lon="8.630868"><ele>110</ele></trkpt>
   <trkpt lat="50.067708" lon="8.631518"><ele>110.25</ele></trkpt>
   <trkpt lat="50.06788" lon="8.632172"><ele>110.75</ele></trkpt>
   <trkpt lat="50.068026" lon="8.632672"><ele>111</ele></trkpt>
   <trkpt lat="50.068043" lon="8.63273"><ele>111</ele></trkpt>
   <trkpt lat="50.068134" lon="8.633038"><ele>110.75</ele></trkpt>
   <trkpt lat="50.068158" lon="8.633121"><ele>110.5</ele></trkpt>
   <trkpt lat="50.06831" lon="8.633635"><ele>110.25</ele></trkpt>
   <trkpt lat="50.068337" lon="8.633725"><ele>110.25</ele></trkpt>
   <trkpt lat="50.068657" lon="8.63484"><ele>112.25</ele></trkpt>
   <trkpt lat="50.068685" lon="8.634933"><ele>112.25</ele></trkpt>
   <trkpt lat="50.068875" lon="8.635431"><ele>112.75</ele></trkpt>
   <trkpt lat="50.069036" lon="8.635919"><ele>112.25</ele></trkpt>
   <trkpt lat="50.06907" lon="8.636037"><ele>112</ele></trkpt>
   <trkpt lat="50.069088" lon="8.636099"><ele>112</ele></trkpt>
   <trkpt lat="50.069469" lon="8.637385"><ele>112.25</ele></trkpt>
   <trkpt lat="50.069629" lon="8.637921"><ele>112.5</ele></trkpt>
   <trkpt lat="50.06982" lon="8.638522"><ele>112.25</ele></trkpt>
   <trkpt lat="50.069991" lon="8.63899"><ele>112</ele></trkpt>
   <trkpt lat="50.070102" lon="8.639253"><ele>112</ele></trkpt>
   <trkpt lat="50.070212" lon="8.639487"><ele>112.25</ele></trkpt>
   <trkpt lat="50.070379" lon="8.639812"><ele>112.5</ele></trkpt>
   <trkpt lat="50.070649" lon="8.640247"><ele>112.5</ele></trkpt>
   <trkpt lat="50.070893" lon="8.640574"><ele>112.25</ele></trkpt>
   <trkpt lat="50.070912" lon="8.640597"><ele>112.25</ele></trkpt>
   <trkpt lat="50.071031" lon="8.640742"><ele>112.25</ele></trkpt>
   <trkpt lat="50.071247" lon="8.640982"><ele>112</ele></trkpt>
   <trkpt lat="50.071484" lon="8.641206"><ele>111.5</ele></trkpt>
   <trkpt lat="50.071669" lon="8.641363"><ele>111</ele></trkpt>
   <trkpt lat="50.07192" lon="8.641552"><ele>109.75</ele></trkpt>
   <trkpt lat="50.072152" lon="8.641701"><ele>109.25</ele></trkpt>
   <trkpt lat="50.072454" lon="8.641843"><ele>109</ele></trkpt>
   <trkpt lat="50.072787" lon="8.641969"><ele>109</ele></trkpt>
   <trkpt lat="50.073164" lon="8.642072"><ele>109</ele></trkpt>
   <trkpt lat="50.073357" lon="8.642097"><ele>108.75</ele></trkpt>
   <trkpt lat="50.073614" lon="8.642107"><ele>109</ele></trkpt>
   <trkpt lat="50.073882" lon="8.642092"><ele>109</ele></trkpt>
   <trkpt lat="50.074165" lon="8.642042"><ele>109</ele></trkpt>
   <trkpt lat="50.074376" lon="8.641983"><ele>108.5</ele></trkpt>
   <trkpt lat="50.074503" lon="8.641936"><ele>108.5</ele></trkpt>
   <trkpt lat="50.074609" lon="8.641897"><ele>108.25</ele></trkpt>
   <trkpt lat="50.075025" lon="8.641686"><ele>108</ele></trkpt>
   <trkpt lat="50.075213" lon="8.641565"><ele>108.25</ele></trkpt>
   <trkpt lat="50.075432" lon="8.641406"><ele>108.5</ele></trkpt>
   <trkpt lat="50.075892" lon="8.641009"><ele>108</ele></trkpt>
   <trkpt lat="50.076285" lon="8.640668"><ele>106</ele></trkpt>
   <trkpt lat="50.07671" lon="8.64033"><ele>104.25</ele></trkpt>
   <trkpt lat="50.077253" lon="8.639949"><ele>103.75</ele></trkpt>
   <trkpt lat="50.077664" lon="8.639656"><ele>102</ele></trkpt>
   <trkpt lat="50.077753" lon="8.639586"><ele>101.75</ele></trkpt>
   <trkpt lat="50.078144" lon="8.639284"><ele>100.25</ele></trkpt>
   <trkpt lat="50.078473" lon="8.639046"><ele>100.25</ele></trkpt>
   <trkpt lat="50.079285" lon="8.638501"><ele>102.5</ele></trkpt>
   <trkpt lat="50.079471" lon="8.638364"><ele>102.25</ele></trkpt>
   <trkpt lat="50.07974" lon="8.638152"><ele>101.25</ele></trkpt>
   <trkpt lat="50.080372" lon="8.637667"><ele>100.25</ele></trkpt>
   <trkpt lat="50.080389" lon="8.637655"><ele>100.25</ele></trkpt>
   <trkpt lat="50.080713" lon="8.637405"><ele>100.75</ele></trkpt>
   <trkpt lat="50.081007" lon="8.637177"><ele>101.25</ele></trkpt>
   <trkpt lat="50.081103" lon="8.637102"><ele>101.5</ele></trkpt>
   <trkpt lat="50.081166" lon="8.637052"><ele>101.5</ele></trkpt>
   <trkpt lat="50.081571" lon="8.636742"><ele>102.5</ele></trkpt>
   <trkpt lat="50.081814" lon="8.636556"><ele>102.5</ele></trkpt>
   <trkpt lat="50.081874" lon="8.636509"><ele>102.5</ele></trkpt>
   <trkpt lat="50.08189" lon="8.636497"><ele>102.5</ele></trkpt>
   <trkpt lat="50.082279" lon="8.636205"><ele>102</ele></trkpt>
   <trkpt lat="50.083242" lon="8.635468"><ele>103.75</ele></trkpt>
   <trkpt lat="50.083256" lon="8.635457"><ele>103.75</ele></trkpt>
   <trkpt lat="50.083374" lon="8.635365"><ele>103.75</ele></trkpt>
   <trkpt lat="50.083685" lon="8.63512"><ele>103</ele></trkpt>
   <trkpt lat="50.083777" lon="8.635054"><ele>102.75</ele></trkpt>
   <trkpt lat="50.084323" lon="8.634636"><ele>100.5</ele></trkpt>
   <trkpt lat="50.084658" lon="8.634374"><ele>99.25</ele></trkpt>
   <trkpt lat="50.084669" lon="8.634364"><ele>99.25</ele></trkpt>
   <trkpt lat="50.084676" lon="8.634359"><ele>99.25</ele></trkpt>
   <trkpt lat="50.084846" lon="8.634223"><ele>98.5</ele></trkpt>
   <trkpt lat="50.086169" lon="8.633172"><ele>98.75</ele></trkpt>
   <trkpt lat="50.087063" lon="8.632461"><ele>99</ele></trkpt>
   <trkpt lat="50.087082" lon="8.632447"><ele>99</ele></trkpt>
   <trkpt lat="50.087271" lon="8.632301"><ele>98.5</ele></trkpt>
   <trkpt lat="50.087643" lon="8.632037"><ele>97.75</ele></trkpt>
   <trkpt lat="50.087989" lon="8.631848"><ele>97.25</ele></trkpt>
   <trkpt lat="50.088093" lon="8.631793"><ele>96.75</ele></trkpt>
   <trkpt lat="50.088194" lon="8.631745"><ele>96.5</ele></trkpt>
   <trkpt lat="50.088208" lon="8.631738"><ele>96.5</ele></trkpt>
   <trkpt lat="50.088217" lon="8.631735"><ele>96.5</ele></trkpt>
   <trkpt lat="50.089174" lon="8.631261"><ele>94</ele></trkpt>
   <trkpt lat="50.090055" lon="8.630825"><ele>92</ele></trkpt>
   <trkpt lat="50.090323" lon="8.630691"><ele>92</ele></trkpt>
   <trkpt lat="50.090689" lon="8.630513"><ele>94.75</ele></trkpt>
   <trkpt lat="50.090904" lon="8.630394"><ele>96.25</ele></trkpt>
   <trkpt lat="50.09126" lon="8.630181"><ele>98.25</ele></trkpt>
   <trkpt lat="50.091275" lon="8.630171"><ele>98.25</ele></trkpt>
   <trkpt lat="50.091287" lon="8.630164"><ele>98.25</ele></trkpt>
   <trkpt lat="50.091291" lon="8.630161"><ele>98.5</ele></trkpt>
   <trkpt lat="50.091455" lon="8.630061"><ele>99.5</ele></trkpt>
   <trkpt lat="50.091587" lon="8.629993"><ele>100.25</ele></trkpt>
   <trkpt lat="50.091876" lon="8.629871"><ele>100.25</ele></trkpt>
   <trkpt lat="50.092303" lon="8.629692"><ele>99.25</ele></trkpt>
   <trkpt lat="50.092589" lon="8.629635"><ele>98.75</ele></trkpt>
   <trkpt lat="50.092628" lon="8.629626"><ele>98.75</ele></trkpt>
   <trkpt lat="50.092949" lon="8.629588"><ele>98</ele></trkpt>
   <trkpt lat="50.093089" lon="8.629594"><ele>97.75</ele></trkpt>
   <trkpt lat="50.093104" lon="8.629595"><ele>97.5</ele></trkpt>
   <trkpt lat="50.093255" lon="8.629605"><ele>97.5</ele></trkpt>
   <trkpt lat="50.093457" lon="8.629642"><ele>97.25</ele></trkpt>
   <trkpt lat="50.093652" lon="8.629689"><ele>97.25</ele></trkpt>
   <trkpt lat="50.093802" lon="8.629736"><ele>97.5</ele></trkpt>
   <trkpt lat="50.093939" lon="8.629788"><ele>97.5</ele></trkpt>
   <trkpt lat="50.094087" lon="8.629857"><ele>97.5</ele></trkpt>
   <trkpt lat="50.094247" lon="8.629947"><ele>97.75</ele></trkpt>
   <trkpt lat="50.094398" lon="8.630041"><ele>98</ele></trkpt>
   <trkpt lat="50.094605" lon="8.630192"><ele>98</ele></trkpt>
   <trkpt lat="50.094625" lon="8.630206"><ele>98</ele></trkpt>
   <trkpt lat="50.09476" lon="8.630325"><ele>98.25</ele></trkpt>
   <trkpt lat="50.094966" lon="8.630523"><ele>98.5</ele></trkpt>
   <trkpt lat="50.095061" lon="8.630626"><ele>98.75</ele></trkpt>
   <trkpt lat="50.09514" lon="8.630713"><ele>99</ele></trkpt>
   <trkpt lat="50.095445" lon="8.631117"><ele>100.25</ele></trkpt>
   <trkpt lat="50.095569" lon="8.631306"><ele>100.75</ele></trkpt>
   <trkpt lat="50.095751" lon="8.631628"><ele>101.75</ele></trkpt>
   <trkpt lat="50.095926" lon="8.631968"><ele>101.5</ele></trkpt>
   <trkpt lat="50.096082" lon="8.632285"><ele>100.75</ele></trkpt>
   <trkpt lat="50.096171" lon="8.632483"><ele>100.5</ele></trkpt>
   <trkpt lat="50.09625" lon="8.632664"><ele>100.25</ele></trkpt>
   <trkpt lat="50.096491" lon="8.63326"><ele>99.25</ele></trkpt>
   <trkpt lat="50.096529" lon="8.633354"><ele>99</ele></trkpt>
   <trkpt lat="50.096673" lon="8.633728"><ele>99</ele></trkpt>
   <trkpt lat="50.096971" lon="8.634484"><ele>99.5</ele></trkpt>
   <trkpt lat="50.097045" lon="8.634674"><ele>99.75</ele></trkpt>
   <trkpt lat="50.097109" lon="8.634849"><ele>100</ele></trkpt>
   <trkpt lat="50.09718" lon="8.635076"><ele>100.25</ele></trkpt>
   <trkpt lat="50.097292" lon="8.635415"><ele>100.5</ele></trkpt>
   <trkpt lat="50.097306" lon="8.63545"><ele>100.5</ele></trkpt>
   <trkpt lat="50.097401" lon="8.635694"><ele>100.75</ele></trkpt>
   <trkpt lat="50.097406" lon="8.635705"><ele>100.75</ele></trkpt>
   <trkpt lat="50.097449" lon="8.635818"><ele>100.75</ele></trkpt>
   <trkpt lat="50.097558" lon="8.636172"><ele>100.25</ele></trkpt>
   <trkpt lat="50.097722" lon="8.636712"><ele>100</ele></trkpt>
   <trkpt lat="50.097737" lon="8.636765"><ele>100</ele></trkpt>
   <trkpt lat="50.09786" lon="8.63717"><ele>99.75</ele></trkpt>
   <trkpt lat="50.097962" lon="8.637508"><ele>99.5</ele></trkpt>
   <trkpt lat="50.098055" lon="8.637826"><ele>98.75</ele></trkpt>
   <trkpt lat="50.098121" lon="8.638032"><ele>98</ele></trkpt>
   <trkpt lat="50.09823" lon="8.63831"><ele>97</ele></trkpt>
   <trkpt lat="50.098237" lon="8.638326"><ele>97</ele></trkpt>
   <trkpt lat="50.098572" lon="8.639178"><ele>97.25</ele></trkpt>
   <trkpt lat="50.098578" lon="8.639192"><ele>97.25</ele></trkpt>
   <trkpt lat="50.098912" lon="8.640038"><ele>98.5</ele></trkpt>
   <trkpt lat="50.098917" lon="8.640052"><ele>98.5</ele></trkpt>
   <trkpt lat="50.099254" lon="8.640909"><ele>99.25</ele></trkpt>
   <trkpt lat="50.09926" lon="8.640924"><ele>99.25</ele></trkpt>
   <trkpt lat="50.099425" lon="8.641342"><ele>99.25</ele></trkpt>
   <trkpt lat="50.099529" lon="8.641684"><ele>99.25</ele></trkpt>
   <trkpt lat="50.099535" lon="8.641707"><ele>99.25</ele></trkpt>
   <trkpt lat="50.099617" lon="8.641979"><ele>99.25</ele></trkpt>
   <trkpt lat="50.099816" lon="8.642636"><ele>99.25</ele></trkpt>
   <trkpt lat="50.099909" lon="8.642945"><ele>99.25</ele></trkpt>
   <trkpt lat="50.099939" lon="8.643042"><ele>99.25</ele></trkpt>
   <trkpt lat="50.100007" lon="8.643267"><ele>99</ele></trkpt>
   <trkpt lat="50.100145" lon="8.643754"><ele>98.75</ele></trkpt>
   <trkpt lat="50.100252" lon="8.644146"><ele>98.5</ele></trkpt>
   <trkpt lat="50.100301" lon="8.644317"><ele>98.25</ele></trkpt>
   <trkpt lat="50.100392" lon="8.644595"><ele>98</ele></trkpt>
   <trkpt lat="50.100556" lon="8.64503"><ele>97.25</ele></trkpt>
   <trkpt lat="50.100563" lon="8.645046"><ele>97.25</ele></trkpt>
   <trkpt lat="50.100583" lon="8.645097"><ele>97.25</ele></trkpt>
   <trkpt lat="50.100738" lon="8.645514"><ele>97</ele></trkpt>
   <trkpt lat="50.100907" lon="8.646032"><ele>97</ele></trkpt>
   <trkpt lat="50.101031" lon="8.64636"><ele>97.5</ele></trkpt>
   <trkpt lat="50.101065" lon="8.646448"><ele>97.75</ele></trkpt>
   <trkpt lat="50.101106" lon="8.646552"><ele>97.75</ele></trkpt>
   <trkpt lat="50.101238" lon="8.646907"><ele>98.25</ele></trkpt>
   <trkpt lat="50.10145" lon="8.647529"><ele>98.25</ele></trkpt>
   <trkpt lat="50.101564" lon="8.647827"><ele>98.25</ele></trkpt>
   <trkpt lat="50.101573" lon="8.64785"><ele>98.25</ele></trkpt>
   <trkpt lat="50.101652" lon="8.648043"><ele>98.25</ele></trkpt>
   <trkpt lat="50.101762" lon="8.648304"><ele>98</ele></trkpt>
   <trkpt lat="50.101993" lon="8.648814"><ele>98</ele></trkpt>
   <trkpt lat="50.102146" lon="8.64919"><ele>98</ele></trkpt>
   <trkpt lat="50.102184" lon="8.649282"><ele>98</ele></trkpt>
   <trkpt lat="50.102205" lon="8.649333"><ele>98</ele></trkpt>
   <trkpt lat="50.102677" lon="8.650532"><ele>98.75</ele></trkpt>
   <trkpt lat="50.102702" lon="8.650599"><ele>98.75</ele></trkpt>
   <trkpt lat="50.102718" lon="8.650641"><ele>98.75</ele></trkpt>
   <trkpt lat="50.10318" lon="8.651848"><ele>96.5</ele></trkpt>
   <trkpt lat="50.103374" lon="8.652348"><ele>96.75</ele></trkpt>
   <trkpt lat="50.103705" lon="8.653219"/>
   <trkpt lat="50.10371" lon="8.653233"/>
   <trkpt lat="50.104687" lon="8.655771"/>
   <trkpt lat="50.10469" lon="8.655781"/>
   <trkpt lat="50.105492" lon="8.657881"/>
   <trkpt lat="50.105529" lon="8.657978"/>
   <trkpt lat="50.105547" lon="8.658023"/>
   <trkpt lat="50.10623" lon="8.659863"/>
   <trkpt lat="50.106233" lon="8.659872"/>
   <trkpt lat="50.106403" lon="8.660308"/>
   <trkpt lat="50.106474" lon="8.660492"/>
   <trkpt lat="50.106517" lon="8.660601"/>
   <trkpt lat="50.106519" lon="8.660609"/>
   <trkpt lat="50.107125" lon="8.662141"/>
   <trkpt lat="50.107364" lon="8.662739"/>
   <trkpt lat="50.107514" lon="8.663114"/>
   <trkpt lat="50.107519" lon="8.663128"/>
   <trkpt lat="50.107583" lon="8.663317"/>
   <trkpt lat="50.107619" lon="8.663391"/>
   <trkpt lat="50.107862" lon="8.663803"/>
   <trkpt lat="50.108071" lon="8.664191"/>
   <trkpt lat="50.108129" lon="8.664295"/>
   <trkpt lat="50.108315" lon="8.66462"/>
   <trkpt lat="50.108441" lon="8.664829"/>
   <trkpt lat="50.108483" lon="8.664886"/>
   <trkpt lat="50.108721" lon="8.665147"/>
   <trkpt lat="50.108855" lon="8.665279"/>
   <trkpt lat="50.109233" lon="8.665609"/>
   <trkpt lat="50.109353" lon="8.665688"/>
   <trkpt lat="50.110082" lon="8.666062"/>
   <trkpt lat="50.110102" lon="8.66607"/>
   <trkpt lat="50.110727" lon="8.666305"/>
   <trkpt lat="50.110974" lon="8.666421"/>
   <trkpt lat="50.11117" lon="8.666525"><ele>98.25</ele></trkpt>
   <trkpt lat="50.111213" lon="8.666549"><ele>98.25</ele></trkpt>
   <trkpt lat="50.111384" lon="8.666641"><ele>98.25</ele></trkpt>
   <trkpt lat="50.111854" lon="8.666921"><ele>98.25</ele></trkpt>
   <trkpt lat="50.112274" lon="8.667301"><ele>98.25</ele></trkpt>
   <trkpt lat="50.112429" lon="8.667442"><ele>98.25</ele></trkpt>
   <trkpt lat="50.112569" lon="8.667607"><ele>98.25</ele></trkpt>
   <trkpt lat="50.112583" lon="8.667625"><ele>98.25</ele></trkpt>
   <trkpt lat="50.112975" lon="8.668088"><ele>98.25</ele></trkpt>
   <trkpt lat="50.113635" lon="8.669009"><ele>98.25</ele></trkpt>
   <trkpt lat="50.113643" lon="8.66902"><ele>98.25</ele></trkpt>
   <trkpt lat="50.114052" lon="8.669651"><ele>98.25</ele></trkpt>
   <trkpt lat="50.114215" lon="8.669941"><ele>98.25</ele></trkpt>
   <trkpt lat="50.114225" lon="8.66996"><ele>98.25</ele></trkpt>
   <trkpt lat="50.114339" lon="8.670169"><ele>98.25</ele></trkpt>
   <trkpt lat="50.114556" lon="8.670763"><ele>98.25</ele></trkpt>
   <trkpt lat="50.114752" lon="8.671559"><ele>98.25</ele></trkpt>
   <trkpt lat="50.1148" lon="8.671998"><ele>98.25</ele></trkpt>
   <trkpt lat="50.114826" lon="8.672657"><ele>98.25</ele></trkpt>
   <trkpt lat="50.114816" lon="8.673154"><ele>98.25</ele></trkpt>
   <trkpt lat="50.114772" lon="8.673497"><ele>98.25</ele></trkpt>
   <trkpt lat="50.114723" lon="8.673807"><ele>98.25</ele></trkpt>
   <trkpt lat="50.114584" lon="8.674517"><ele>98.25</ele></trkpt>
   <trkpt lat="50.114554" lon="8.674678"><ele>98.25</ele></trkpt>
   <trkpt lat="50.114508" lon="8.675038"><ele>98.25</ele></trkpt>
   <trkpt lat="50.114464" lon="8.675418"><ele>98.25</ele></trkpt>
   <trkpt lat="50.114394" lon="8.675884"><ele>98.25</ele></trkpt>
   <trkpt lat="50.114324" lon="8.676296"><ele>98.25</ele></trkpt>
   <trkpt lat="50.114315" lon="8.676352"><ele>98.25</ele></trkpt>
   <trkpt lat="50.114257" lon="8.676661"><ele>98.25</ele></trkpt>
   <trkpt lat="50.114189" lon="8.677304"><ele>98.25</ele></trkpt>
   <trkpt lat="50.11413" lon="8.677884"><ele>98.25</ele></trkpt>
   <trkpt lat="50.1141" lon="8.678247"><ele>98.25</ele></trkpt>
   <trkpt lat="50.114095" lon="8.678298"><ele>98.25</ele></trkpt>
   <trkpt lat="50.114016" lon="8.679336"><ele>98.25</ele></trkpt>
   <trkpt lat="50.113975" lon="8.679912"><ele>98.25</ele></trkpt>
   <trkpt lat="50.113973" lon="8.680069"><ele>98.25</ele></trkpt>
   <trkpt lat="50.113997" lon="8.680361"><ele>98.25</ele></trkpt>
   <trkpt lat="50.11405" lon="8.680865"><ele>98.25</ele></trkpt>
   <trkpt lat="50.114127" lon="8.681339"><ele>98.25</ele></trkpt>
   <trkpt lat="50.11427" lon="8.681969"><ele>98.25</ele></trkpt>
   <trkpt lat="50.114404" lon="8.682529"><ele>98.25</ele></trkpt>
   <trkpt lat="50.114427" lon="8.682628"><ele>98.25</ele></trkpt>
   <trkpt lat="50.114469" lon="8.682823"><ele>98.25</ele></trkpt>
   <trkpt lat="50.114518" lon="8.683123"><ele>98.25</ele></trkpt>
   <trkpt lat="50.11455" lon="8.683419"><ele>98.25</ele></trkpt>
   <trkpt lat="50.114581" lon="8.683912"><ele>98.25</ele></trkpt>
   <trkpt lat="50.114595" lon="8.684096"><ele>98.25</ele></trkpt>
   <trkpt lat="50.11462" lon="8.68452"><ele>98.25</ele></trkpt>
   <trkpt lat="50.114617" lon="8.685298"><ele>98.25</ele></trkpt>
   <trkpt lat="50.114597" lon="8.687033"><ele>98.25</ele></trkpt>
   <trkpt lat="50.114598" lon="8.687275"><ele>98.25</ele></trkpt>
   <trkpt lat="50.114599" lon="8.687638"><ele>98.25</ele></trkpt>
   <trkpt lat="50.1146" lon="8.68784"><ele>98.25</ele></trkpt>
   <trkpt lat="50.114607" lon="8.688024"><ele>98.25</ele></trkpt>
   <trkpt lat="50.114613" lon="8.688122"><ele>98.25</ele></trkpt>
   <trkpt lat="50.114663" lon="8.688527"><ele>98.25</ele></trkpt>
   <trkpt lat="50.1148" lon="8.689655"><ele>98.25</ele></trkpt>
   <trkpt lat="50.11481" lon="8.690231"><ele>98.25</ele></trkpt>
   <trkpt lat="50.114807" lon="8.690487"><ele>98.25</ele></trkpt>
   <trkpt lat="50.114788" lon="8.691051"><ele>98.25</ele></trkpt>
   <trkpt lat="50.114767" lon="8.691408"><ele>98.25</ele></trkpt>
   <trkpt lat="50.114732" lon="8.691745"><ele>98.25</ele></trkpt>
   <trkpt lat="50.114691" lon="8.692087"><ele>98.25</ele></trkpt>
   <trkpt lat="50.114639" lon="8.692449"><ele>98.25</ele></trkpt>
   <trkpt lat="50.114589" lon="8.692732"><ele>98.25</ele></trkpt>
   <trkpt lat="50.114491" lon="8.693178"><ele>98.25</ele></trkpt>
   <trkpt lat="50.114421" lon="8.693464"><ele>98.25</ele></trkpt>
   <trkpt lat="50.114346" lon="8.693749"><ele>98.25</ele></trkpt>
   <trkpt lat="50.114258" lon="8.694048"><ele>98.25</ele></trkpt>
   <trkpt lat="50.114167" lon="8.694331"><ele>98.25</ele></trkpt>
   <trkpt lat="50.114055" lon="8.694636"><ele>98.25</ele></trkpt>
   <trkpt lat="50.113931" lon="8.694938"><ele>98.25</ele></trkpt>
   <trkpt lat="50.113796" lon="8.695228"><ele>98.25</ele></trkpt>
   <trkpt lat="50.113667" lon="8.695476"><ele>98.25</ele></trkpt>
   <trkpt lat="50.113449" lon="8.695824"><ele>98.25</ele></trkpt>
   <trkpt lat="50.113291" lon="8.696048"><ele>98.25</ele></trkpt>
   <trkpt lat="50.113271" lon="8.696072"><ele>98.25</ele></trkpt>
   <trkpt lat="50.113081" lon="8.696304"><ele>98.25</ele></trkpt>
   <trkpt lat="50.11307" lon="8.696316"><ele>98.25</ele></trkpt>
   <trkpt lat="50.112848" lon="8.696555"><ele>98.25</ele></trkpt>
   <trkpt lat="50.112532" lon="8.69688"><ele>98.25</ele></trkpt>
   <trkpt lat="50.112481" lon="8.696931"><ele>98.25</ele></trkpt>
   <trkpt lat="50.111742" lon="8.697683"><ele>98.25</ele></trkpt>
   <trkpt lat="50.111452" lon="8.69797"><ele>98.25</ele></trkpt>
   <trkpt lat="50.111391" lon="8.698028"><ele>98.25</ele></trkpt>
   <trkpt lat="50.111166" lon="8.698235"><ele>98.25</ele></trkpt>
   <trkpt lat="50.110738" lon="8.698498"><ele>98.25</ele></trkpt>
   <trkpt lat="50.110202" lon="8.698709"><ele>98.25</ele></trkpt>
   <trkpt lat="50.109769" lon="8.698785"><ele>98.25</ele></trkpt>
   <trkpt lat="50.109311" lon="8.698796"><ele>98.25</ele></trkpt>
   <trkpt lat="50.108521" lon="8.698686"><ele>98.25</ele></trkpt>
   <trkpt lat="50.108214" lon="8.698621"><ele>98.25</ele></trkpt>
   <trkpt lat="50.107678" lon="8.698508"><ele>98.25</ele></trkpt>
   <trkpt lat="50.106768" lon="8.698279"><ele>98.25</ele></trkpt>
   <trkpt lat="50.106462" lon="8.698198"><ele>98.25</ele></trkpt>
   <trkpt lat="50.105786" lon="8.69802"><ele>98.25</ele></trkpt>
   <trkpt lat="50.105689" lon="8.697994"><ele>98.25</ele></trkpt>
   <trkpt lat="50.105081" lon="8.697864"><ele>98.25</ele></trkpt>
   <trkpt lat="50.104855" lon="8.697847"><ele>98.25</ele></trkpt>
   <trkpt lat="50.104455" lon="8.69786"><ele>98.25</ele></trkpt>
   <trkpt lat="50.103963" lon="8.697958"><ele>98.25</ele></trkpt>
   <trkpt lat="50.103698" lon="8.69808"><ele>98.25</ele></trkpt>
   <trkpt lat="50.103342" lon="8.698307"><ele>98.25</ele></trkpt>
   <trkpt lat="50.103133" lon="8.698474"><ele>98.25</ele></trkpt>
   <trkpt lat="50.103017" lon="8.698605"><ele>98.25</ele></trkpt>
   <trkpt lat="50.102668" lon="8.699014"><ele>98.25</ele></trkpt>
   <trkpt lat="50.102433" lon="8.699345"><ele>98.25</ele></trkpt>
   <trkpt lat="50.102389" lon="8.699429"><ele>98.25</ele></trkpt>
   <trkpt lat="50.102094" lon="8.69999"><ele>98.25</ele></trkpt>
   <trkpt lat="50.101885" lon="8.700455"><ele>98.25</ele></trkpt>
   <trkpt lat="50.101748" lon="8.70085"><ele>98.25</ele></trkpt>
   <trkpt lat="50.101665" lon="8.701093"><ele>98.25</ele></trkpt>
   <trkpt lat="50.101578" lon="8.701376"><ele>98.25</ele></trkpt>
   <trkpt lat="50.101452" lon="8.701884"><ele>98.25</ele></trkpt>
   <trkpt lat="50.101371" lon="8.702272"><ele>98.25</ele></trkpt>
   <trkpt lat="50.1013" lon="8.702706"><ele>98.25</ele></trkpt>
   <trkpt lat="50.101241" lon="8.703271"><ele>98.25</ele></trkpt>
   <trkpt lat="50.101214" lon="8.703713"><ele>98.25</ele></trkpt>
   <trkpt lat="50.101209" lon="8.704366"><ele>98.25</ele></trkpt>
   <trkpt lat="50.101228" lon="8.704844"><ele>98.25</ele></trkpt>
   <trkpt lat="50.101243" lon="8.70503"><ele>98.25</ele></trkpt>
   <trkpt lat="50.101259" lon="8.705216"><ele>98.25</ele></trkpt>
   <trkpt lat="50.10132" lon="8.705709"><ele>98.25</ele></trkpt>
   <trkpt lat="50.101321" lon="8.705714"><ele>98.25</ele></trkpt>
   <trkpt lat="50.10141" lon="8.706221"><ele>98.25</ele></trkpt>
   <trkpt lat="50.101501" lon="8.706636"><ele>98.25</ele></trkpt>
   <trkpt lat="50.101601" lon="8.707009"><ele>98.25</ele></trkpt>
   <trkpt lat="50.101673" lon="8.707249"><ele>98.25</ele></trkpt>
   <trkpt lat="50.101795" lon="8.707596"><ele>98.25</ele></trkpt>
   <trkpt lat="50.101973" lon="8.70806"><ele>98.25</ele></trkpt>
   <trkpt lat="50.102444" lon="8.709016"><ele>98.25</ele></trkpt>
   <trkpt lat="50.103195" lon="8.710468"><ele>98.25</ele></trkpt>
   <trkpt lat="50.10344" lon="8.711024"><ele>98.25</ele></trkpt>
   <trkpt lat="50.10359" lon="8.711446"><ele>98.25</ele></trkpt>
   <trkpt lat="50.103659" lon="8.711639"><ele>98.25</ele></trkpt>
   <trkpt lat="50.103776" lon="8.712053"><ele>98.25</ele></trkpt>
   <trkpt lat="50.103839" lon="8.712275"><ele>98.25</ele></trkpt>
   <trkpt lat="50.103945" lon="8.71276"><ele>98.25</ele></trkpt>
   <trkpt lat="50.103988" lon="8.712957"><ele>98.25</ele></trkpt>
   <trkpt lat="50.104026" lon="8.713319"><ele>98.25</ele></trkpt>
   <trkpt lat="50.104127" lon="8.714288"><ele>98.25</ele></trkpt>
   <trkpt lat="50.104138" lon="8.714539"><ele>98.25</ele></trkpt>
   <trkpt lat="50.104139" lon="8.714602"><ele>98.5</ele></trkpt>
   <trkpt lat="50.104162" lon="8.715705"><ele>98.75</ele></trkpt>
   <trkpt lat="50.104189" lon="8.717894"><ele>100</ele></trkpt>
   <trkpt lat="50.104256" lon="8.71931"><ele>99</ele></trkpt>
   <trkpt lat="50.10454" lon="8.724281"><ele>99.5</ele></trkpt>
   <trkpt lat="50.104542" lon="8.724315"><ele>99.5</ele></trkpt>
   <trkpt lat="50.104704" lon="8.72722"><ele>97.75</ele></trkpt>
   <trkpt lat="50.104774" lon="8.728404"><ele>97.5</ele></trkpt>
   <trkpt lat="50.104777" lon="8.728467"><ele>97.5</ele></trkpt>
   <trkpt lat="50.10483" lon="8.729645"><ele>99</ele></trkpt>
   <trkpt lat="50.104897" lon="8.731597"><ele>99.5</ele></trkpt>
   <trkpt lat="50.104985" lon="8.734391"><ele>100.25</ele></trkpt>
   <trkpt lat="50.105063" lon="8.736653"><ele>100.75</ele></trkpt>
   <trkpt lat="50.105076" lon="8.736914"><ele>100.75</ele></trkpt>
   <trkpt lat="50.105218" lon="8.73952"><ele>101.5</ele></trkpt>
   <trkpt lat="50.105221" lon="8.739579"><ele>101.5</ele></trkpt>
   <trkpt lat="50.105294" lon="8.740858"><ele>101.75</ele></trkpt>
   <trkpt lat="50.105508" lon="8.743116"><ele>102.5</ele></trkpt>
   <trkpt lat="50.105559" lon="8.743687"><ele>102.5</ele></trkpt>
   <trkpt lat="50.105615" lon="8.74447"><ele>102.75</ele></trkpt>
   <trkpt lat="50.105623" lon="8.744596"><ele>102.75</ele></trkpt>
   <trkpt lat="50.105684" lon="8.745538"><ele>103</ele></trkpt>
   <trkpt lat="50.10574" lon="8.746574"><ele>103.5</ele></trkpt>
   <trkpt lat="50.105781" lon="8.747832"><ele>103.75</ele></trkpt>
   <trkpt lat="50.105819" lon="8.748629"><ele>104</ele></trkpt>
   <trkpt lat="50.105923" lon="8.750309"><ele>104.5</ele></trkpt>
   <trkpt lat="50.106006" lon="8.751694"><ele>104.75</ele></trkpt>
   <trkpt lat="50.10602" lon="8.751923"><ele>104.75</ele></trkpt>
   <trkpt lat="50.106169" lon="8.753482"><ele>105.25</ele></trkpt>
   <trkpt lat="50.106312" lon="8.754841"><ele>105.5</ele></trkpt>
   <trkpt lat="50.106338" lon="8.755166"><ele>105.75</ele></trkpt>
   <trkpt lat="50.106523" lon="8.757492"><ele>106.25</ele></trkpt>
   <trkpt lat="50.106549" lon="8.757937"><ele>106.5</ele></trkpt>
   <trkpt lat="50.106564" lon="8.758179"><ele>106.5</ele></trkpt>
   <trkpt lat="50.106574" lon="8.758557"><ele>106.5</ele></trkpt>
   <trkpt lat="50.106581" lon="8.758849"><ele>106.75</ele></trkpt>
   <trkpt lat="50.106554" lon="8.759566"><ele>106.75</ele></trkpt>
   <trkpt lat="50.106537" lon="8.759735"><ele>107</ele></trkpt>
   <trkpt lat="50.106484" lon="8.760262"><ele>107</ele></trkpt>
   <trkpt lat="50.106465" lon="8.760377"><ele>107</ele></trkpt>
   <trkpt lat="50.106398" lon="8.760781"><ele>107.25</ele></trkpt>
   <trkpt lat="50.10631" lon="8.761244"><ele>107.25</ele></trkpt>
   <trkpt lat="50.10617" lon="8.761898"><ele>107.5</ele></trkpt>
   <trkpt lat="50.105864" lon="8.763335"><ele>108</ele></trkpt>
   <trkpt lat="50.105675" lon="8.764228"><ele>108.25</ele></trkpt>
   <trkpt lat="50.10554" lon="8.764832"><ele>108.25</ele></trkpt>
   <trkpt lat="50.105359" lon="8.765677"><ele>108.5</ele></trkpt>
   <trkpt lat="50.105158" lon="8.766873"><ele>109</ele></trkpt>
   <trkpt lat="50.104996" lon="8.767534"><ele>109</ele></trkpt>
   <trkpt lat="50.104837" lon="8.768092"><ele>109.25</ele></trkpt>
   <trkpt lat="50.104727" lon="8.768409"><ele>109.25</ele></trkpt>
   <trkpt lat="50.104406" lon="8.769269"><ele>109.5</ele></trkpt>
   <trkpt lat="50.104305" lon="8.769558"><ele>109.75</ele></trkpt>
   <trkpt lat="50.104041" lon="8.770363"><ele>110</ele></trkpt>
   <trkpt lat="50.103479" lon="8.772156"><ele>110.5</ele></trkpt>
   <trkpt lat="50.10316" lon="8.773175"><ele>110.75</ele></trkpt>
   <trkpt lat="50.102958" lon="8.77382"><ele>111</ele></trkpt>
   <trkpt lat="50.102502" lon="8.775279"><ele>110</ele></trkpt>
   <trkpt lat="50.102356" lon="8.77579"><ele>109.75</ele></trkpt>
   <trkpt lat="50.102269" lon="8.776179"><ele>109.5</ele></trkpt>
   <trkpt lat="50.102177" lon="8.776738"><ele>109.25</ele></trkpt>
   <trkpt lat="50.102146" lon="8.777028"><ele>109</ele></trkpt>
   <trkpt lat="50.102138" lon="8.7772"><ele>109</ele></trkpt>
   <trkpt lat="50.102129" lon="8.777373"><ele>109</ele></trkpt>
   <trkpt lat="50.102133" lon="8.777613"><ele>108.75</ele></trkpt>
   <trkpt lat="50.102144" lon="8.777942"><ele>108.5</ele></trkpt>
   <trkpt lat="50.102178" lon="8.778426"><ele>108.25</ele></trkpt>
   <trkpt lat="50.102348" lon="8.779809"><ele>107.75</ele></trkpt>
   <trkpt lat="50.102388" lon="8.780172"><ele>107.75</ele></trkpt>
   <trkpt lat="50.102453" lon="8.780985"><ele>106.75</ele></trkpt>
   <trkpt lat="50.102468" lon="8.781182"><ele>106.5</ele></trkpt>
   <trkpt lat="50.102493" lon="8.781622"><ele>106</ele></trkpt>
   <trkpt lat="50.102496" lon="8.781684"><ele>106</ele></trkpt>
   <trkpt lat="50.102497" lon="8.781696"><ele>106</ele></trkpt>
   <trkpt lat="50.102509" lon="8.782044"><ele>106</ele></trkpt>
   <trkpt lat="50.102516" lon="8.782851"><ele>106</ele></trkpt>
   <trkpt lat="50.102538" lon="8.783487"><ele>105.75</ele></trkpt>
   <trkpt lat="50.102542" lon="8.783541"><ele>105.75</ele></trkpt>
   <trkpt lat="50.102542" lon="8.783549"><ele>105.75</ele></trkpt>
   <trkpt lat="50.102571" lon="8.783999"><ele>105.75</ele></trkpt>
   <trkpt lat="50.102633" lon="8.784794"><ele>106.25</ele></trkpt>
   <trkpt lat="50.102639" lon="8.784875"><ele>106.5</ele></trkpt>
   <trkpt lat="50.102687" lon="8.78548"><ele>106.5</ele></trkpt>
   <trkpt lat="50.102692" lon="8.785537"><ele>106.5</ele></trkpt>
   <trkpt lat="50.102713" lon="8.785793"><ele>106.5</ele></trkpt>
   <trkpt lat="50.102729" lon="8.786011"><ele>106.5</ele></trkpt>
   <trkpt lat="50.102766" lon="8.786466"><ele>106.5</ele></trkpt>
   <trkpt lat="50.102772" lon="8.786533"><ele>106.5</ele></trkpt>
   <trkpt lat="50.102773" lon="8.786541"><ele>106.5</ele></trkpt>
   <trkpt lat="50.102843" lon="8.787366"><ele>106.75</ele></trkpt>
   <trkpt lat="50.102887" lon="8.787758"><ele>106.75</ele></trkpt>
   <trkpt lat="50.102916" lon="8.788125"><ele>106.75</ele></trkpt>
   <trkpt lat="50.102932" lon="8.78845"><ele>107</ele></trkpt>
   <trkpt lat="50.102932" lon="8.788474"><ele>107</ele></trkpt>
   <trkpt lat="50.10294" lon="8.788759"><ele>107</ele></trkpt>
   <trkpt lat="50.102948" lon="8.789466"><ele>106.5</ele></trkpt>
   <trkpt lat="50.102927" lon="8.790585"><ele>106.5</ele></trkpt>
   <trkpt lat="50.102911" lon="8.791006"><ele>107.25</ele></trkpt>
   <trkpt lat="50.102909" lon="8.79107"><ele>107.25</ele></trkpt>
   <trkpt lat="50.10287" lon="8.791801"><ele>108.5</ele></trkpt>
   <trkpt lat="50.102833" lon="8.792308"><ele>109</ele></trkpt>
   <trkpt lat="50.102812" lon="8.792596"><ele>109.5</ele></trkpt>
   <trkpt lat="50.102715" lon="8.793552"><ele>112</ele></trkpt>
   <trkpt lat="50.102653" lon="8.794028"><ele>114.5</ele></trkpt>
   <trkpt lat="50.102574" lon="8.794515"><ele>117.25</ele></trkpt>
   <trkpt lat="50.102528" lon="8.794761"><ele>118.5</ele></trkpt>
   <trkpt lat="50.102373" lon="8.795475"><ele>121</ele></trkpt>
   <trkpt lat="50.102261" lon="8.79591"><ele>122.25</ele></trkpt>
   <trkpt lat="50.102128" lon="8.796375"><ele>123.75</ele></trkpt>
   <trkpt lat="50.102051" lon="8.796626"><ele>124.75</ele></trkpt>
   <trkpt lat="50.101763" lon="8.797418"><ele>125</ele></trkpt>
   <trkpt lat="50.10154" lon="8.797937"><ele>126</ele></trkpt>
   <trkpt lat="50.101339" lon="8.79836"><ele>128.25</ele></trkpt>
   <trkpt lat="50.101051" lon="8.79891"><ele>130.75</ele></trkpt>
   <trkpt lat="50.100823" lon="8.799288"><ele>131.5</ele></trkpt>
   <trkpt lat="50.100589" lon="8.799647"><ele>131.75</ele></trkpt>
   <trkpt lat="50.100255" lon="8.800102"><ele>134.25</ele></trkpt>
   <trkpt lat="50.099965" lon="8.800457"><ele>137</ele></trkpt>
   <trkpt lat="50.099622" lon="8.800825"><ele>137.25</ele></trkpt>
   <trkpt lat="50.09925" lon="8.801181"><ele>137.5</ele></trkpt>
   <trkpt lat="50.098152" lon="8.802119"><ele>137.75</ele></trkpt>
   <trkpt lat="50.09767" lon="8.802512"><ele>138.75</ele></trkpt>
   <trkpt lat="50.09672" lon="8.803311"><ele>132.25</ele></trkpt>
   <trkpt lat="50.095094" lon="8.804675"><ele>126.5</ele></trkpt>
   <trkpt lat="50.095011" lon="8.804745"><ele>126.25</ele></trkpt>
   <trkpt lat="50.093662" lon="8.805871"><ele>123.75</ele></trkpt>
   <trkpt lat="50.092639" lon="8.806726"><ele>120</ele></trkpt>
   <trkpt lat="50.092155" lon="8.807109"><ele>119.25</ele></trkpt>
   <trkpt lat="50.091557" lon="8.80758"><ele>118.75</ele></trkpt>
   <trkpt lat="50.091254" lon="8.807826"><ele>118.25</ele></trkpt>
   <trkpt lat="50.090484" lon="8.808463"><ele>117</ele></trkpt>
   <trkpt lat="50.089754" lon="8.809077"><ele>114.75</ele></trkpt>
   <trkpt lat="50.089532" lon="8.809263"><ele>114.25</ele></trkpt>
  </trkseg>
 </trk>
</gpx>