<?xml version="1.0" encoding="UTF-8"?>
<!-- track-length = 39871 filtered ascend = 347 plain-ascend = 172 cost=39871 energy=0.5kwh time=53m 10s -->
<gpx 
 xmlns="http://www.topografix.com/GPX/1/1" 
 xmlns:xsi="http://www.w3.org/2001/XMLSchema-instance" 
 xsi:schemaLocation="http://www.topografix.com/GPX/1/1 http://www.topografix.com/GPX/1/1/gpx.xsd" 
 version="1.1" 
 creator="BRouter-Web 0.18.1">
 <trk>
  <name>Reblausexpress</name>
  <trkseg>
   <trkpt lat="48.753406" lon="15.957028"><ele>244</ele></trkpt>
   <trkpt lat="48.753569" lon="15.957155"><ele>244</ele></trkpt>
   <trkpt lat="48.753754" lon="15.957296"><ele>244</ele></trkpt>
   <trkpt lat="48.756067" lon="15.959096"><ele>244</ele></trkpt>
   <trkpt lat="48.756891" lon="15.959735"><ele>243</ele></trkpt>
   <trkpt lat="48.756925" lon="15.959763"><ele>243</ele></trkpt>
   <trkpt lat="48.757402" lon="15.960132"><ele>243</ele></trkpt>
   <trkpt lat="48.757452" lon="15.960169"><ele>243</ele></trkpt>
   <trkpt lat="48.757506" lon="15.960213"><ele>243</ele></trkpt>
   <trkpt lat="48.757738" lon="15.960371"><ele>242.5</ele></trkpt>
   <trkpt lat="48.758103" lon="15.960609"><ele>241.75</ele></trkpt>
   <trkpt lat="48.758146" lon="15.960642"><ele>241.75</ele></trkpt>
   <trkpt lat="48.758262" lon="15.960731"><ele>241.75</ele></trkpt>
   <trkpt lat="48.758435" lon="15.960862"><ele>241.75</ele></trkpt>
   <trkpt lat="48.758567" lon="15.960967"><ele>241.5</ele></trkpt>
   <trkpt lat="48.75907" lon="15.961352"><ele>242</ele></trkpt>
   <trkpt lat="48.759073" lon="15.961354"><ele>242</ele></trkpt>
   <trkpt lat="48.759911" lon="15.962005"><ele>241.75</ele></trkpt>
   <trkpt lat="48.760933" lon="15.962808"><ele>241.5</ele></trkpt>
   <trkpt lat="48.760978" lon="15.962845"><ele>241</ele></trkpt>
   <trkpt lat="48.761318" lon="15.963137"><ele>241</ele></trkpt>
   <trkpt lat="48.76154" lon="15.963352"><ele>241</ele></trkpt>
   <trkpt lat="48.761665" lon="15.963481"><ele>241.5</ele></trkpt>
   <trkpt lat="48.761882" lon="15.963701"><ele>242.75</ele></trkpt>
   <trkpt lat="48.761928" lon="15.963752"><ele>243</ele></trkpt>
   <trkpt lat="48.763333" lon="15.965291"><ele>246.75</ele></trkpt>
   <trkpt lat="48.763485" lon="15.965453"><ele>245.75</ele></trkpt>
   <trkpt lat="48.763632" lon="15.965589"><ele>247.5</ele></trkpt>
   <trkpt lat="48.763721" lon="15.965656"><ele>246.75</ele></trkpt>
   <trkpt lat="48.76378" lon="15.965697"><ele>246.75</ele></trkpt>
   <trkpt lat="48.763811" lon="15.965718"><ele>246.75</ele></trkpt>
   <trkpt lat="48.763935" lon="15.965783"><ele>247.75</ele></trkpt>
   <trkpt lat="48.764035" lon="15.965824"><ele>248.75</ele></trkpt>
   <trkpt lat="48.76424" lon="15.965873"><ele>249.75</ele></trkpt>
   <trkpt lat="48.764325" lon="15.965883"><ele>249.5</ele></trkpt>
   <trkpt lat="48.764512" lon="15.965883"><ele>250.25</ele></trkpt>
   <trkpt lat="48.764711" lon="15.965845"><ele>251.75</ele></trkpt>
   <trkpt lat="48.76483" lon="15.965805"><ele>252.25</ele></trkpt>
   <trkpt lat="48.764998" lon="15.965719"><ele>252.5</ele></trkpt>
   <trkpt lat="48.765152" lon="15.965616"><ele>252.75</ele></trkpt>
   <trkpt lat="48.76537" lon="15.965419"><ele>254</ele></trkpt>
   <trkpt lat="48.765508" lon="15.965243"><ele>254.25</ele></trkpt>
   <trkpt lat="48.765535" lon="15.965201"><ele>254.5</ele></trkpt>
   <trkpt lat="48.765638" lon="15.965041"><ele>255.25</ele></trkpt>
   <trkpt lat="48.765773" lon="15.964783"><ele>255.25</ele></trkpt>
   <trkpt lat="48.765898" lon="15.964524"><ele>255.5</ele></trkpt>
   <trkpt lat="48.76603" lon="15.964279"><ele>255.75</ele></trkpt>
   <trkpt lat="48.766195" lon="15.964038"><ele>255.75</ele></trkpt>
   <trkpt lat="48.766318" lon="15.963898"><ele>256.25</ele></trkpt>
   <trkpt lat="48.76646" lon="15.963768"><ele>256.25</ele></trkpt>
   <trkpt lat="48.766572" lon="15.963684"><ele>257</ele></trkpt>
   <trkpt lat="48.766675" lon="15.963624"><ele>258</ele></trkpt>
   <trkpt lat="48.766816" lon="15.963552"><ele>258</ele></trkpt>
   <trkpt lat="48.767006" lon="15.963498"><ele>258.25</ele></trkpt>
   <trkpt lat="48.767138" lon="15.963481"><ele>258.75</ele></trkpt>
   <trkpt lat="48.767326" lon="15.963478"><ele>259.25</ele></trkpt>
   <trkpt lat="48.767444" lon="15.963497"><ele>259.75</ele></trkpt>
   <trkpt lat="48.767651" lon="15.963569"><ele>261</ele></trkpt>
   <trkpt lat="48.767777" lon="15.963626"><ele>262</ele></trkpt>
   <trkpt lat="48.767903" lon="15.963708"><ele>262.5</ele></trkpt>
   <trkpt lat="48.768008" lon="15.963791"><ele>262.75</ele></trkpt>
   <trkpt lat="48.768398" lon="15.964145"><ele>265.5</ele></trkpt>
   <trkpt lat="48.768546" lon="15.964268"><ele>267.5</ele></trkpt>
   <trkpt lat="48.768696" lon="15.964352"><ele>267.25</ele></trkpt>
   <trkpt lat="48.76885" lon="15.964429"><ele>265.5</ele></trkpt>
   <trkpt lat="48.768957" lon="15.964464"><ele>265.25</ele></trkpt>
   <trkpt lat="48.769251" lon="15.964514"><ele>266.25</ele></trkpt>
   <trkpt lat="48.769376" lon="15.964514"><ele>266.75</ele></trkpt>
   <trkpt lat="48.769455" lon="15.964504"><ele>267</ele></trkpt>
   <trkpt lat="48.769516" lon="15.964494"><ele>267</ele></trkpt>
   <trkpt lat="48.769609" lon="15.964476"><ele>267.5</ele></trkpt>
   <trkpt lat="48.769849" lon="15.964384"><ele>268</ele></trkpt>
   <trkpt lat="48.769956" lon="15.964331"><ele>268</ele></trkpt>
   <trkpt lat="48.770051" lon="15.964268"><ele>268</ele></trkpt>
   <trkpt lat="48.770145" lon="15.964197"><ele>268.25</ele></trkpt>
   <trkpt lat="48.770269" lon="15.964086"><ele>268.75</ele></trkpt>
   <trkpt lat="48.770434" lon="15.963915"><ele>269.5</ele></trkpt>
   <trkpt lat="48.770617" lon="15.963654"><ele>270</ele></trkpt>
   <trkpt lat="48.771924" lon="15.961586"><ele>275.25</ele></trkpt>
   <trkpt lat="48.771969" lon="15.961515"><ele>275.5</ele></trkpt>
   <trkpt lat="48.77202" lon="15.961432"><ele>276</ele></trkpt>
   <trkpt lat="48.772303" lon="15.960987"><ele>277</ele></trkpt>
   <trkpt lat="48.772621" lon="15.960483"><ele>278</ele></trkpt>
   <trkpt lat="48.772793" lon="15.960207"><ele>278.75</ele></trkpt>
   <trkpt lat="48.773322" lon="15.959359"><ele>280</ele></trkpt>
   <trkpt lat="48.773394" lon="15.959244"><ele>279.5</ele></trkpt>
   <trkpt lat="48.773443" lon="15.959174"><ele>279.5</ele></trkpt>
   <trkpt lat="48.773654" lon="15.958845"><ele>280.5</ele></trkpt>
   <trkpt lat="48.773684" lon="15.958797"><ele>280.25</ele></trkpt>
   <trkpt lat="48.773911" lon="15.958431"><ele>281.5</ele></trkpt>
   <trkpt lat="48.774054" lon="15.958176"><ele>282.25</ele></trkpt>
   <trkpt lat="48.774195" lon="15.95788"><ele>283</ele></trkpt>
   <trkpt lat="48.774267" lon="15.957685"><ele>282.75</ele></trkpt>
   <trkpt lat="48.774314" lon="15.957528"><ele>282.75</ele></trkpt>
   <trkpt lat="48.774362" lon="15.957354"><ele>283.5</ele></trkpt>
   <trkpt lat="48.774397" lon="15.957159"><ele>284.5</ele></trkpt>
   <trkpt lat="48.774444" lon="15.956803"><ele>286.75</ele></trkpt>
   <trkpt lat="48.774455" lon="15.956485"><ele>287.5</ele></trkpt>
   <trkpt lat="48.774441" lon="15.956151"><ele>288.75</ele></trkpt>
   <trkpt lat="48.774407" lon="15.955854"><ele>288.75</ele></trkpt>
   <trkpt lat="48.774368" lon="15.955661"><ele>289.5</ele></trkpt>
   <trkpt lat="48.774348" lon="15.955562"><ele>289.75</ele></trkpt>
   <trkpt lat="48.774331" lon="15.955505"><ele>290</ele></trkpt>
   <trkpt lat="48.774279" lon="15.955309"><ele>290.75</ele></trkpt>
   <trkpt lat="48.774211" lon="15.955098"><ele>291</ele></trkpt>
   <trkpt lat="48.774104" lon="15.95485"><ele>291.75</ele></trkpt>
   <trkpt lat="48.773949" lon="15.954557"><ele>292</ele></trkpt>
   <trkpt lat="48.773558" lon="15.953888"><ele>292.5</ele></trkpt>
   <trkpt lat="48.773467" lon="15.953695"><ele>292.5</ele></trkpt>
   <trkpt lat="48.773369" lon="15.95346"><ele>293</ele></trkpt>
   <trkpt lat="48.773302" lon="15.95324"><ele>293.5</ele></trkpt>
   <trkpt lat="48.773255" lon="15.953046"><ele>293.25</ele></trkpt>
   <trkpt lat="48.773219" lon="15.95285"><ele>293.75</ele></trkpt>
   <trkpt lat="48.773192" lon="15.952649"><ele>294.25</ele></trkpt>
   <trkpt lat="48.77318" lon="15.952473"><ele>294.75</ele></trkpt>
   <trkpt lat="48.773175" lon="15.952283"><ele>295.5</ele></trkpt>
   <trkpt lat="48.773179" lon="15.952173"><ele>296</ele></trkpt>
   <trkpt lat="48.773182" lon="15.952134"><ele>296.25</ele></trkpt>
   <trkpt lat="48.773193" lon="15.951953"><ele>297.25</ele></trkpt>
   <trkpt lat="48.773209" lon="15.951818"><ele>298.25</ele></trkpt>
   <trkpt lat="48.77324" lon="15.951627"><ele>299.5</ele></trkpt>
   <trkpt lat="48.773307" lon="15.951349"><ele>298.5</ele></trkpt>
   <trkpt lat="48.773356" lon="15.951195"><ele>299</ele></trkpt>
   <trkpt lat="48.773437" lon="15.950984"><ele>301.25</ele></trkpt>
   <trkpt lat="48.773527" lon="15.950783"><ele>301.75</ele></trkpt>
   <trkpt lat="48.773684" lon="15.950512"><ele>300.5</ele></trkpt>
   <trkpt lat="48.773838" lon="15.950281"><ele>300.5</ele></trkpt>
   <trkpt lat="48.774708" lon="15.948996"><ele>304</ele></trkpt>
   <trkpt lat="48.774792" lon="15.948858"><ele>304.5</ele></trkpt>
   <trkpt lat="48.774893" lon="15.948691"><ele>305</ele></trkpt>
   <trkpt lat="48.774979" lon="15.948519"><ele>305.25</ele></trkpt>
   <trkpt lat="48.775092" lon="15.948249"><ele>305</ele></trkpt>
   <trkpt lat="48.775145" lon="15.948066"><ele>304</ele></trkpt>
   <trkpt lat="48.775218" lon="15.947703"><ele>305</ele></trkpt>
   <trkpt lat="48.775245" lon="15.947547"><ele>305.5</ele></trkpt>
   <trkpt lat="48.775268" lon="15.947353"><ele>305.75</ele></trkpt>
   <trkpt lat="48.775285" lon="15.947136"><ele>306.25</ele></trkpt>
   <trkpt lat="48.775287" lon="15.946915"><ele>307</ele></trkpt>
   <trkpt lat="48.775276" lon="15.946614"><ele>307</ele></trkpt>
   <trkpt lat="48.775233" lon="15.946305"><ele>307.75</ele></trkpt>
   <trkpt lat="48.775172" lon="15.945965"><ele>307.75</ele></trkpt>
   <trkpt lat="48.775007" lon="15.945266"><ele>310</ele></trkpt>
   <trkpt lat="48.774948" lon="15.944908"><ele>311.25</ele></trkpt>
   <trkpt lat="48.77492" lon="15.944596"><ele>312</ele></trkpt>
   <trkpt lat="48.774919" lon="15.94426"><ele>313.5</ele></trkpt>
   <trkpt lat="48.774942" lon="15.943962"><ele>315.25</ele></trkpt>
   <trkpt lat="48.774975" lon="15.943747"><ele>315.25</ele></trkpt>
   <trkpt lat="48.775026" lon="15.943522"><ele>315.25</ele></trkpt>
   <trkpt lat="48.775083" lon="15.94333"><ele>314.75</ele></trkpt>
   <trkpt lat="48.775094" lon="15.943295"><ele>314.5</ele></trkpt>
   <trkpt lat="48.775119" lon="15.943227"><ele>314.25</ele></trkpt>
   <trkpt lat="48.775371" lon="15.94253"><ele>314.25</ele></trkpt>
   <trkpt lat="48.775836" lon="15.941246"><ele>319.5</ele></trkpt>
   <trkpt lat="48.775879" lon="15.941127"><ele>320.25</ele></trkpt>
   <trkpt lat="48.775897" lon="15.941078"><ele>320.5</ele></trkpt>
   <trkpt lat="48.776337" lon="15.939875"><ele>322.25</ele></trkpt>
   <trkpt lat="48.776517" lon="15.939527"><ele>323.25</ele></trkpt>
   <trkpt lat="48.776618" lon="15.939381"><ele>323.5</ele></trkpt>
   <trkpt lat="48.776728" lon="15.939228"><ele>323.5</ele></trkpt>
   <trkpt lat="48.777152" lon="15.9387"><ele>325</ele></trkpt>
   <trkpt lat="48.777275" lon="15.938525"><ele>325.25</ele></trkpt>
   <trkpt lat="48.777357" lon="15.938384"><ele>324.25</ele></trkpt>
   <trkpt lat="48.7774" lon="15.938294"><ele>323.5</ele></trkpt>
   <trkpt lat="48.777472" lon="15.938132"><ele>323.25</ele></trkpt>
   <trkpt lat="48.777544" lon="15.937947"><ele>321.75</ele></trkpt>
   <trkpt lat="48.777627" lon="15.937676"><ele>321</ele></trkpt>
   <trkpt lat="48.777684" lon="15.937407"><ele>324.5</ele></trkpt>
   <trkpt lat="48.777734" lon="15.937089"><ele>327.75</ele></trkpt>
   <trkpt lat="48.777926" lon="15.93537"><ele>333</ele></trkpt>
   <trkpt lat="48.777962" lon="15.935112"><ele>334.5</ele></trkpt>
   <trkpt lat="48.777998" lon="15.934903"><ele>334.5</ele></trkpt>
   <trkpt lat="48.77805" lon="15.934667"><ele>333.25</ele></trkpt>
   <trkpt lat="48.778103" lon="15.934486"><ele>335.25</ele></trkpt>
   <trkpt lat="48.778164" lon="15.934324"><ele>336.25</ele></trkpt>
   <trkpt lat="48.778239" lon="15.934149"><ele>336.75</ele></trkpt>
   <trkpt lat="48.778326" lon="15.933981"><ele>335.25</ele></trkpt>
   <trkpt lat="48.778407" lon="15.933846"><ele>335</ele></trkpt>
   <trkpt lat="48.778506" lon="15.933713"><ele>335.25</ele></trkpt>
   <trkpt lat="48.778617" lon="15.933581"><ele>335.75</ele></trkpt>
   <trkpt lat="48.779106" lon="15.93312"><ele>338</ele></trkpt>
   <trkpt lat="48.779216" lon="15.933002"><ele>338.75</ele></trkpt>
   <trkpt lat="48.779326" lon="15.932853"><ele>339.25</ele></trkpt>
   <trkpt lat="48.779456" lon="15.93266"><ele>339.25</ele></trkpt>
   <trkpt lat="48.77985" lon="15.931996"><ele>340.25</ele></trkpt>
   <trkpt lat="48.779972" lon="15.93177"><ele>340.25</ele></trkpt>
   <trkpt lat="48.78008" lon="15.931546"><ele>340.25</ele></trkpt>
   <trkpt lat="48.780181" lon="15.931286"><ele>340</ele></trkpt>
   <trkpt lat="48.780269" lon="15.931006"><ele>340.25</ele></trkpt>
   <trkpt lat="48.780335" lon="15.930741"><ele>341.5</ele></trkpt>
   <trkpt lat="48.780626" lon="15.929409"><ele>342</ele></trkpt>
   <trkpt lat="48.780685" lon="15.92921"><ele>340.75</ele></trkpt>
   <trkpt lat="48.780762" lon="15.928986"><ele>342.5</ele></trkpt>
   <trkpt lat="48.780821" lon="15.928839"><ele>344</ele></trkpt>
   <trkpt lat="48.780916" lon="15.928651"><ele>343.75</ele></trkpt>
   <trkpt lat="48.781016" lon="15.928483"><ele>344.5</ele></trkpt>
   <trkpt lat="48.781205" lon="15.928204"><ele>345.75</ele></trkpt>
   <trkpt lat="48.781514" lon="15.927774"><ele>347</ele></trkpt>
   <trkpt lat="48.781756" lon="15.927415"><ele>347.5</ele></trkpt>
   <trkpt lat="48.781915" lon="15.927208"><ele>348.5</ele></trkpt>
   <trkpt lat="48.782041" lon="15.927065"><ele>349</ele></trkpt>
   <trkpt lat="48.782168" lon="15.926944"><ele>350</ele></trkpt>
   <trkpt lat="48.782322" lon="15.926828"><ele>351.5</ele></trkpt>
   <trkpt lat="48.78248" lon="15.926745"><ele>353.25</ele></trkpt>
   <trkpt lat="48.782626" lon="15.926685"><ele>352.5</ele></trkpt>
   <trkpt lat="48.782748" lon="15.926655"><ele>352.25</ele></trkpt>
   <trkpt lat="48.782858" lon="15.926636"><ele>351</ele></trkpt>
   <trkpt lat="48.782969" lon="15.926628"><ele>349.5</ele></trkpt>
   <trkpt lat="48.783063" lon="15.926632"><ele>348.75</ele></trkpt>
   <trkpt lat="48.783504" lon="15.92664"><ele>354.25</ele></trkpt>
   <trkpt lat="48.783658" lon="15.926634"><ele>354.75</ele></trkpt>
   <trkpt lat="48.783784" lon="15.92662"><ele>355</ele></trkpt>
   <trkpt lat="48.783896" lon="15.926594"><ele>355.25</ele></trkpt>
   <trkpt lat="48.784116" lon="15.926509"><ele>358.25</ele></trkpt>
   <trkpt lat="48.784333" lon="15.926367"><ele>359</ele></trkpt>
   <trkpt lat="48.784437" lon="15.926282"><ele>360</ele></trkpt>
   <trkpt lat="48.784525" lon="15.926194"><ele>361</ele></trkpt>
   <trkpt lat="48.784645" lon="15.926054"><ele>360.75</ele></trkpt>
   <trkpt lat="48.784768" lon="15.925877"><ele>360.5</ele></trkpt>
   <trkpt lat="48.784884" lon="15.925666"><ele>360.5</ele></trkpt>
   <trkpt lat="48.784986" lon="15.925428"><ele>359.5</ele></trkpt>
   <trkpt lat="48.785073" lon="15.925178"><ele>356.75</ele></trkpt>
   <trkpt lat="48.785124" lon="15.924975"><ele>354.5</ele></trkpt>
   <trkpt lat="48.785166" lon="15.924765"><ele>355</ele></trkpt>
   <trkpt lat="48.785192" lon="15.924565"><ele>357.25</ele></trkpt>
   <trkpt lat="48.785206" lon="15.924336"><ele>360</ele></trkpt>
   <trkpt lat="48.785211" lon="15.924226"><ele>361</ele></trkpt>
   <trkpt lat="48.785219" lon="15.923982"><ele>363.5</ele></trkpt>
   <trkpt lat="48.78522" lon="15.923391"><ele>366</ele></trkpt>
   <trkpt lat="48.785233" lon="15.923076"><ele>366.25</ele></trkpt>
   <trkpt lat="48.785268" lon="15.92272"><ele>365.75</ele></trkpt>
   <trkpt lat="48.785296" lon="15.922537"><ele>365</ele></trkpt>
   <trkpt lat="48.785335" lon="15.922347"><ele>366</ele></trkpt>
   <trkpt lat="48.785473" lon="15.92179"><ele>367.25</ele></trkpt>
   <trkpt lat="48.785619" lon="15.921144"><ele>368.75</ele></trkpt>
   <trkpt lat="48.785787" lon="15.920361"><ele>370</ele></trkpt>
   <trkpt lat="48.785883" lon="15.919843"><ele>372.75</ele></trkpt>
   <trkpt lat="48.785911" lon="15.9196"><ele>373.5</ele></trkpt>
   <trkpt lat="48.785929" lon="15.919367"><ele>373</ele></trkpt>
   <trkpt lat="48.785925" lon="15.91904"><ele>372.25</ele></trkpt>
   <trkpt lat="48.785905" lon="15.918783"><ele>372.25</ele></trkpt>
   <trkpt lat="48.785868" lon="15.918529"><ele>372.25</ele></trkpt>
   <trkpt lat="48.785809" lon="15.91829"><ele>372.25</ele></trkpt>
   <trkpt lat="48.78574" lon="15.918086"><ele>370.75</ele></trkpt>
   <trkpt lat="48.785659" lon="15.917885"><ele>372.25</ele></trkpt>
   <trkpt lat="48.78559" lon="15.917733"><ele>373.5</ele></trkpt>
   <trkpt lat="48.785507" lon="15.917585"><ele>373.5</ele></trkpt>
   <trkpt lat="48.785419" lon="15.917456"><ele>373.5</ele></trkpt>
   <trkpt lat="48.785221" lon="15.917211"><ele>376.25</ele></trkpt>
   <trkpt lat="48.784795" lon="15.91678"><ele>378.25</ele></trkpt>
   <trkpt lat="48.784653" lon="15.916623"><ele>377.5</ele></trkpt>
   <trkpt lat="48.784538" lon="15.916469"><ele>377.75</ele></trkpt>
   <trkpt lat="48.784426" lon="15.916267"><ele>378.5</ele></trkpt>
   <trkpt lat="48.784251" lon="15.915919"><ele>379.75</ele></trkpt>
   <trkpt lat="48.784045" lon="15.915561"><ele>380</ele></trkpt>
   <trkpt lat="48.783963" lon="15.915437"><ele>380</ele></trkpt>
   <trkpt lat="48.78391" lon="15.915367"><ele>380.25</ele></trkpt>
   <trkpt lat="48.783776" lon="15.915231"><ele>380</ele></trkpt>
   <trkpt lat="48.783657" lon="15.915125"><ele>380</ele></trkpt>
   <trkpt lat="48.783558" lon="15.915055"><ele>380.25</ele></trkpt>
   <trkpt lat="48.78341" lon="15.914972"><ele>381</ele></trkpt>
   <trkpt lat="48.78329" lon="15.914919"><ele>381.25</ele></trkpt>
   <trkpt lat="48.783173" lon="15.914885"><ele>382.25</ele></trkpt>
   <trkpt lat="48.782874" lon="15.914829"><ele>381.5</ele></trkpt>
   <trkpt lat="48.782448" lon="15.914768"><ele>382.75</ele></trkpt>
   <trkpt lat="48.782321" lon="15.91473"><ele>384</ele></trkpt>
   <trkpt lat="48.782114" lon="15.914645"><ele>385.5</ele></trkpt>
   <trkpt lat="48.781932" lon="15.91454"><ele>386.5</ele></trkpt>
   <trkpt lat="48.781788" lon="15.914445"><ele>386.75</ele></trkpt>
   <trkpt lat="48.78164" lon="15.914318"><ele>386.75</ele></trkpt>
   <trkpt lat="48.781513" lon="15.914194"><ele>387.75</ele></trkpt>
   <trkpt lat="48.781327" lon="15.913978"><ele>388.25</ele></trkpt>
   <trkpt lat="48.781205" lon="15.913806"><ele>388.75</ele></trkpt>
   <trkpt lat="48.781038" lon="15.913521"><ele>390</ele></trkpt>
   <trkpt lat="48.780699" lon="15.91291"><ele>391</ele></trkpt>
   <trkpt lat="48.780432" lon="15.912534"><ele>392.25</ele></trkpt>
   <trkpt lat="48.780242" lon="15.912338"><ele>393.25</ele></trkpt>
   <trkpt lat="48.780037" lon="15.912199"><ele>393.5</ele></trkpt>
   <trkpt lat="48.779833" lon="15.912108"><ele>394.25</ele></trkpt>
   <trkpt lat="48.77971" lon="15.912071"><ele>394.5</ele></trkpt>
   <trkpt lat="48.779577" lon="15.912047"><ele>394.25</ele></trkpt>
   <trkpt lat="48.779446" lon="15.912041"><ele>393.75</ele></trkpt>
   <trkpt lat="48.779303" lon="15.912051"><ele>393.75</ele></trkpt>
   <trkpt lat="48.779167" lon="15.91208"><ele>393.5</ele></trkpt>
   <trkpt lat="48.778353" lon="15.91243"><ele>394.5</ele></trkpt>
   <trkpt lat="48.778189" lon="15.912466"><ele>396.25</ele></trkpt>
   <trkpt lat="48.777986" lon="15.912469"><ele>398.5</ele></trkpt>
   <trkpt lat="48.777845" lon="15.912449"><ele>399.75</ele></trkpt>
   <trkpt lat="48.777737" lon="15.912422"><ele>401</ele></trkpt>
   <trkpt lat="48.777444" lon="15.912284"><ele>401.75</ele></trkpt>
   <trkpt lat="48.777382" lon="15.912242"><ele>401.5</ele></trkpt>
   <trkpt lat="48.77735" lon="15.91222"><ele>401.25</ele></trkpt>
   <trkpt lat="48.777294" lon="15.912181"><ele>401.25</ele></trkpt>
   <trkpt lat="48.777144" lon="15.912044"><ele>401</ele></trkpt>
   <trkpt lat="48.777012" lon="15.911888"><ele>401.75</ele></trkpt>
   <trkpt lat="48.776878" lon="15.911701"><ele>403.25</ele></trkpt>
   <trkpt lat="48.776739" lon="15.91144"><ele>404.25</ele></trkpt>
   <trkpt lat="48.776653" lon="15.911232"><ele>404.5</ele></trkpt>
   <trkpt lat="48.776573" lon="15.910994"><ele>405.25</ele></trkpt>
   <trkpt lat="48.776513" lon="15.910765"><ele>405.25</ele></trkpt>
   <trkpt lat="48.776477" lon="15.910564"><ele>405.25</ele></trkpt>
   <trkpt lat="48.776447" lon="15.910311"><ele>405.25</ele></trkpt>
   <trkpt lat="48.776434" lon="15.910075"><ele>405.25</ele></trkpt>
   <trkpt lat="48.77644" lon="15.90986"><ele>405.25</ele></trkpt>
   <trkpt lat="48.776459" lon="15.909609"><ele>405.25</ele></trkpt>
   <trkpt lat="48.776486" lon="15.909386"><ele>405</ele></trkpt>
   <trkpt lat="48.776541" lon="15.909146"><ele>405</ele></trkpt>
   <trkpt lat="48.776595" lon="15.908942"><ele>405.25</ele></trkpt>
   <trkpt lat="48.776666" lon="15.908752"><ele>405.5</ele></trkpt>
   <trkpt lat="48.776785" lon="15.908487"><ele>405</ele></trkpt>
   <trkpt lat="48.776805" lon="15.90845"><ele>405</ele></trkpt>
   <trkpt lat="48.776928" lon="15.908231"><ele>406.25</ele></trkpt>
   <trkpt lat="48.777374" lon="15.90745"><ele>408</ele></trkpt>
   <trkpt lat="48.777847" lon="15.906613"><ele>411</ele></trkpt>
   <trkpt lat="48.778279" lon="15.905852"><ele>412.25</ele></trkpt>
   <trkpt lat="48.778548" lon="15.905378"><ele>413.5</ele></trkpt>
   <trkpt lat="48.778614" lon="15.905265"><ele>413.75</ele></trkpt>
   <trkpt lat="48.778673" lon="15.90516"><ele>413.75</ele></trkpt>
   <trkpt lat="48.778947" lon="15.904687"><ele>415</ele></trkpt>
   <trkpt lat="48.779165" lon="15.904376"><ele>415.75</ele></trkpt>
   <trkpt lat="48.779306" lon="15.904197"><ele>416.5</ele></trkpt>
   <trkpt lat="48.779347" lon="15.904149"><ele>416.5</ele></trkpt>
   <trkpt lat="48.779731" lon="15.903746"><ele>417.5</ele></trkpt>
   <trkpt lat="48.780055" lon="15.903383"><ele>417.75</ele></trkpt>
   <trkpt lat="48.781251" lon="15.902087"><ele>416.75</ele></trkpt>
   <trkpt lat="48.781335" lon="15.901994"><ele>416.75</ele></trkpt>
   <trkpt lat="48.781388" lon="15.901933"><ele>416.75</ele></trkpt>
   <trkpt lat="48.781683" lon="15.901658"><ele>416.75</ele></trkpt>
   <trkpt lat="48.781722" lon="15.901623"><ele>416.75</ele></trkpt>
   <trkpt lat="48.782616" lon="15.900893"><ele>418</ele></trkpt>
   <trkpt lat="48.782674" lon="15.900847"><ele>418.25</ele></trkpt>
   <trkpt lat="48.784174" lon="15.899643"><ele>423</ele></trkpt>
   <trkpt lat="48.78444" lon="15.899455"><ele>423</ele></trkpt>
   <trkpt lat="48.784574" lon="15.899374"><ele>423.25</ele></trkpt>
   <trkpt lat="48.784735" lon="15.899293"><ele>423.25</ele></trkpt>
   <trkpt lat="48.785119" lon="15.899133"><ele>423.25</ele></trkpt>
   <trkpt lat="48.785582" lon="15.898986"><ele>423.75</ele></trkpt>
   <trkpt lat="48.787761" lon="15.898331"><ele>421.75</ele></trkpt>
   <trkpt lat="48.787857" lon="15.898302"><ele>421.75</ele></trkpt>
   <trkpt lat="48.78792" lon="15.898278"><ele>421.75</ele></trkpt>
   <trkpt lat="48.789447" lon="15.897819"><ele>422.75</ele></trkpt>
   <trkpt lat="48.78974" lon="15.897714"><ele>422.75</ele></trkpt>
   <trkpt lat="48.790165" lon="15.897511"><ele>422.25</ele></trkpt>
   <trkpt lat="48.791789" lon="15.896682"><ele>421.75</ele></trkpt>
   <trkpt lat="48.792026" lon="15.896542"><ele>421.75</ele></trkpt>
   <trkpt lat="48.792167" lon="15.896439"><ele>421.75</ele></trkpt>
   <trkpt lat="48.792214" lon="15.896405"><ele>421.75</ele></trkpt>
   <trkpt lat="48.792258" lon="15.896363"><ele>421.75</ele></trkpt>
   <trkpt lat="48.792394" lon="15.896234"><ele>421.75</ele></trkpt>
   <trkpt lat="48.792572" lon="15.896014"><ele>422</ele></trkpt>
   <trkpt lat="48.792723" lon="15.895796"><ele>423</ele></trkpt>
   <trkpt lat="48.792891" lon="15.89551"><ele>423</ele></trkpt>
   <trkpt lat="48.793193" lon="15.894976"><ele>423</ele></trkpt>
   <trkpt lat="48.793745" lon="15.89401"><ele>422.75</ele></trkpt>
   <trkpt lat="48.793778" lon="15.893951"><ele>422.75</ele></trkpt>
   <trkpt lat="48.793895" lon="15.893743"><ele>422.75</ele></trkpt>
   <trkpt lat="48.793945" lon="15.893654"><ele>422.75</ele></trkpt>
   <trkpt lat="48.793975" lon="15.893599"><ele>422.5</ele></trkpt>
   <trkpt lat="48.794218" lon="15.893162"><ele>422</ele></trkpt>
   <trkpt lat="48.794455" lon="15.892744"><ele>422</ele></trkpt>
   <trkpt lat="48.794617" lon="15.892434"><ele>422.25</ele></trkpt>
   <trkpt lat="48.794707" lon="15.892233"><ele>422</ele></trkpt>
   <trkpt lat="48.794784" lon="15.892019"><ele>422.5</ele></trkpt>
   <trkpt lat="48.794843" lon="15.891808"><ele>422.5</ele></trkpt>
   <trkpt lat="48.794882" lon="15.891646"><ele>422.25</ele></trkpt>
   <trkpt lat="48.794915" lon="15.891472"><ele>422.25</ele></trkpt>
   <trkpt lat="48.794936" lon="15.891314"><ele>422</ele></trkpt>
   <trkpt lat="48.794954" lon="15.891119"><ele>422</ele></trkpt>
   <trkpt lat="48.794963" lon="15.890924"><ele>422</ele></trkpt>
   <trkpt lat="48.79496" lon="15.890707"><ele>422</ele></trkpt>
   <trkpt lat="48.79495" lon="15.890482"><ele>422</ele></trkpt>
   <trkpt lat="48.794889" lon="15.890035"><ele>422</ele></trkpt>
   <trkpt lat="48.794644" lon="15.888735"><ele>419.25</ele></trkpt>
   <trkpt lat="48.79447" lon="15.887814"><ele>418.75</ele></trkpt>
   <trkpt lat="48.794445" lon="15.887658"><ele>418.75</ele></trkpt>
   <trkpt lat="48.794432" lon="15.887589"><ele>419</ele></trkpt>
   <trkpt lat="48.79442" lon="15.887527"><ele>419</ele></trkpt>
   <trkpt lat="48.794213" lon="15.886443"><ele>418.5</ele></trkpt>
   <trkpt lat="48.794155" lon="15.88599"><ele>419</ele></trkpt>
   <trkpt lat="48.794123" lon="15.885642"><ele>419</ele></trkpt>
   <trkpt lat="48.794112" lon="15.885345"><ele>419</ele></trkpt>
   <trkpt lat="48.794113" lon="15.885023"><ele>419.25</ele></trkpt>
   <trkpt lat="48.794134" lon="15.884672"><ele>419</ele></trkpt>
   <trkpt lat="48.794164" lon="15.884368"><ele>419</ele></trkpt>
   <trkpt lat="48.794285" lon="15.883611"><ele>416.5</ele></trkpt>
   <trkpt lat="48.794309" lon="15.883474"><ele>416</ele></trkpt>
   <trkpt lat="48.794785" lon="15.880664"><ele>418.25</ele></trkpt>
   <trkpt lat="48.795017" lon="15.879291"><ele>419.5</ele></trkpt>
   <trkpt lat="48.795052" lon="15.879084"><ele>419.5</ele></trkpt>
   <trkpt lat="48.79507" lon="15.878981"><ele>419</ele></trkpt>
   <trkpt lat="48.795522" lon="15.87633"><ele>421</ele></trkpt>
   <trkpt lat="48.795593" lon="15.876"><ele>421.5</ele></trkpt>
   <trkpt lat="48.795678" lon="15.875681"><ele>421.5</ele></trkpt>
   <trkpt lat="48.795856" lon="15.875234"><ele>422</ele></trkpt>
   <trkpt lat="48.79598" lon="15.874983"><ele>423</ele></trkpt>
   <trkpt lat="48.796126" lon="15.874748"><ele>423</ele></trkpt>
   <trkpt lat="48.796266" lon="15.874556"><ele>423.75</ele></trkpt>
   <trkpt lat="48.796435" lon="15.874364"><ele>424.25</ele></trkpt>
   <trkpt lat="48.79661" lon="15.874202"><ele>423.5</ele></trkpt>
   <trkpt lat="48.796765" lon="15.874083"><ele>424.25</ele></trkpt>
   <trkpt lat="48.796948" lon="15.873966"><ele>424.75</ele></trkpt>
   <trkpt lat="48.798047" lon="15.873387"><ele>423.75</ele></trkpt>
   <trkpt lat="48.798318" lon="15.87323"><ele>423</ele></trkpt>
   <trkpt lat="48.798577" lon="15.873052"><ele>422</ele></trkpt>
   <trkpt lat="48.798872" lon="15.872823"><ele>421</ele></trkpt>
   <trkpt lat="48.799148" lon="15.87257"><ele>420.75</ele></trkpt>
   <trkpt lat="48.799371" lon="15.872333"><ele>419.75</ele></trkpt>
   <trkpt lat="48.799419" lon="15.872282"><ele>419.75</ele></trkpt>
   <trkpt lat="48.799465" lon="15.872234"><ele>419.75</ele></trkpt>
   <trkpt lat="48.79967" lon="15.871987"><ele>418.25</ele></trkpt>
   <trkpt lat="48.799873" lon="15.871719"><ele>417.75</ele></trkpt>
   <trkpt lat="48.800075" lon="15.871426"><ele>416.25</ele></trkpt>
   <trkpt lat="48.800309" lon="15.871044"><ele>416</ele></trkpt>
   <trkpt lat="48.800522" lon="15.870655"><ele>415.75</ele></trkpt>
   <trkpt lat="48.800694" lon="15.870304"><ele>415</ele></trkpt>
   <trkpt lat="48.800978" lon="15.869599"><ele>413.75</ele></trkpt>
   <trkpt lat="48.80119" lon="15.868947"><ele>413.25</ele></trkpt>
   <trkpt lat="48.801259" lon="15.868705"><ele>413.25</ele></trkpt>
   <trkpt lat="48.801289" lon="15.868599"><ele>413.25</ele></trkpt>
   <trkpt lat="48.801314" lon="15.868514"><ele>413.25</ele></trkpt>
   <trkpt lat="48.801344" lon="15.868414"><ele>413</ele></trkpt>
   <trkpt lat="48.801913" lon="15.866364"><ele>410</ele></trkpt>
   <trkpt lat="48.802084" lon="15.865404"><ele>408.75</ele></trkpt>
   <trkpt lat="48.802128" lon="15.865094"><ele>408.5</ele></trkpt>
   <trkpt lat="48.802186" lon="15.864526"><ele>408.25</ele></trkpt>
   <trkpt lat="48.802221" lon="15.864011"><ele>407</ele></trkpt>
   <trkpt lat="48.802236" lon="15.863545"><ele>406.75</ele></trkpt>
   <trkpt lat="48.802234" lon="15.863042"><ele>406.75</ele></trkpt>
   <trkpt lat="48.802234" lon="15.863004"><ele>406.5</ele></trkpt>
   <trkpt lat="48.802234" lon="15.862927"><ele>406.25</ele></trkpt>
   <trkpt lat="48.802234" lon="15.862889"><ele>406.25</ele></trkpt>
   <trkpt lat="48.802219" lon="15.861685"><ele>405</ele></trkpt>
   <trkpt lat="48.80222" lon="15.861374"><ele>405</ele></trkpt>
   <trkpt lat="48.802232" lon="15.861133"><ele>404.75</ele></trkpt>
   <trkpt lat="48.802259" lon="15.860852"><ele>403.75</ele></trkpt>
   <trkpt lat="48.802289" lon="15.860635"><ele>403.75</ele></trkpt>
   <trkpt lat="48.802347" lon="15.860335"><ele>403.5</ele></trkpt>
   <trkpt lat="48.8024" lon="15.860126"><ele>403.25</ele></trkpt>
   <trkpt lat="48.802457" lon="15.859944"><ele>403</ele></trkpt>
   <trkpt lat="48.802521" lon="15.859768"><ele>402.75</ele></trkpt>
   <trkpt lat="48.802604" lon="15.859559"><ele>402.75</ele></trkpt>
   <trkpt lat="48.80293" lon="15.858901"><ele>400.75</ele></trkpt>
   <trkpt lat="48.803145" lon="15.858486"><ele>400.5</ele></trkpt>
   <trkpt lat="48.803268" lon="15.858228"><ele>400.25</ele></trkpt>
   <trkpt lat="48.803342" lon="15.858056"><ele>399.75</ele></trkpt>
   <trkpt lat="48.803484" lon="15.857713"><ele>398.75</ele></trkpt>
   <trkpt lat="48.803571" lon="15.857451"><ele>398.25</ele></trkpt>
   <trkpt lat="48.803666" lon="15.857117"><ele>397.5</ele></trkpt>
   <trkpt lat="48.803756" lon="15.856772"><ele>396.75</ele></trkpt>
   <trkpt lat="48.803938" lon="15.856025"><ele>395.5</ele></trkpt>
   <trkpt lat="48.804136" lon="15.85525"><ele>395</ele></trkpt>
   <trkpt lat="48.804275" lon="15.854736"><ele>393.5</ele></trkpt>
   <trkpt lat="48.804701" lon="15.853337"><ele>391.75</ele></trkpt>
   <trkpt lat="48.804915" lon="15.852683"><ele>390.5</ele></trkpt>
   <trkpt lat="48.805034" lon="15.852304"><ele>390.5</ele></trkpt>
   <trkpt lat="48.805131" lon="15.851959"><ele>390.5</ele></trkpt>
   <trkpt lat="48.805179" lon="15.851753"><ele>390</ele></trkpt>
   <trkpt lat="48.805236" lon="15.851478"><ele>389.75</ele></trkpt>
   <trkpt lat="48.805289" lon="15.851115"><ele>389.75</ele></trkpt>
   <trkpt lat="48.805485" lon="15.849326"><ele>387.5</ele></trkpt>
   <trkpt lat="48.805524" lon="15.849012"><ele>387.5</ele></trkpt>
   <trkpt lat="48.805558" lon="15.848781"><ele>386.75</ele></trkpt>
   <trkpt lat="48.805648" lon="15.84834"><ele>386.5</ele></trkpt>
   <trkpt lat="48.805669" lon="15.848256"><ele>386.5</ele></trkpt>
   <trkpt lat="48.805812" lon="15.847764"><ele>386</ele></trkpt>
   <trkpt lat="48.805914" lon="15.847479"><ele>385.5</ele></trkpt>
   <trkpt lat="48.806216" lon="15.846718"><ele>385</ele></trkpt>
   <trkpt lat="48.806323" lon="15.846357"><ele>385</ele></trkpt>
   <trkpt lat="48.806337" lon="15.846285"><ele>385</ele></trkpt>
   <trkpt lat="48.806368" lon="15.846117"><ele>385</ele></trkpt>
   <trkpt lat="48.806408" lon="15.845792"><ele>384.75</ele></trkpt>
   <trkpt lat="48.806413" lon="15.845615"><ele>384.75</ele></trkpt>
   <trkpt lat="48.806413" lon="15.845456"><ele>384.75</ele></trkpt>
   <trkpt lat="48.806399" lon="15.845194"><ele>384.5</ele></trkpt>
   <trkpt lat="48.806367" lon="15.844957"><ele>383.75</ele></trkpt>
   <trkpt lat="48.806319" lon="15.844713"><ele>383.25</ele></trkpt>
   <trkpt lat="48.806253" lon="15.844478"><ele>383.75</ele></trkpt>
   <trkpt lat="48.806238" lon="15.844427"><ele>384</ele></trkpt>
   <trkpt lat="48.806029" lon="15.843784"><ele>384</ele></trkpt>
   <trkpt lat="48.805927" lon="15.843473"><ele>383.5</ele></trkpt>
   <trkpt lat="48.805722" lon="15.842848"><ele>383.25</ele></trkpt>
   <trkpt lat="48.805659" lon="15.842656"><ele>383.75</ele></trkpt>
   <trkpt lat="48.805496" lon="15.842162"><ele>384</ele></trkpt>
   <trkpt lat="48.804783" lon="15.839988"><ele>386.5</ele></trkpt>
   <trkpt lat="48.80473" lon="15.839824"><ele>386.75</ele></trkpt>
   <trkpt lat="48.804614" lon="15.839535"><ele>388</ele></trkpt>
   <trkpt lat="48.804535" lon="15.839365"><ele>388.25</ele></trkpt>
   <trkpt lat="48.804428" lon="15.839188"><ele>388</ele></trkpt>
   <trkpt lat="48.804271" lon="15.838978"><ele>389.5</ele></trkpt>
   <trkpt lat="48.804119" lon="15.838821"><ele>390</ele></trkpt>
   <trkpt lat="48.802289" lon="15.837156"><ele>396</ele></trkpt>
   <trkpt lat="48.802174" lon="15.837051"><ele>396</ele></trkpt>
   <trkpt lat="48.801278" lon="15.836239"><ele>395.25</ele></trkpt>
   <trkpt lat="48.801155" lon="15.836128"><ele>395</ele></trkpt>
   <trkpt lat="48.801" lon="15.835987"><ele>395.25</ele></trkpt>
   <trkpt lat="48.800941" lon="15.835934"><ele>395</ele></trkpt>
   <trkpt lat="48.799875" lon="15.834951"><ele>393.5</ele></trkpt>
   <trkpt lat="48.799853" lon="15.83493"><ele>393.5</ele></trkpt>
   <trkpt lat="48.799846" lon="15.834924"><ele>393.5</ele></trkpt>
   <trkpt lat="48.799648" lon="15.834727"><ele>394.5</ele></trkpt>
   <trkpt lat="48.799529" lon="15.834593"><ele>394.75</ele></trkpt>
   <trkpt lat="48.799312" lon="15.834327"><ele>395.5</ele></trkpt>
   <trkpt lat="48.7991" lon="15.834037"><ele>396</ele></trkpt>
   <trkpt lat="48.798861" lon="15.833644"><ele>396.75</ele></trkpt>
   <trkpt lat="48.798576" lon="15.833137"><ele>398.5</ele></trkpt>
   <trkpt lat="48.797882" lon="15.831903"><ele>401</ele></trkpt>
   <trkpt lat="48.7977" lon="15.831575"><ele>401.25</ele></trkpt>
   <trkpt lat="48.797479" lon="15.831182"><ele>401.75</ele></trkpt>
   <trkpt lat="48.797277" lon="15.830849"><ele>402</ele></trkpt>
   <trkpt lat="48.796257" lon="15.829316"><ele>400.5</ele></trkpt>
   <trkpt lat="48.796237" lon="15.829285"><ele>400.5</ele></trkpt>
   <trkpt lat="48.794803" lon="15.827143"><ele>404.5</ele></trkpt>
   <trkpt lat="48.793827" lon="15.825683"><ele>405</ele></trkpt>
   <trkpt lat="48.793654" lon="15.825424"><ele>405.75</ele></trkpt>
   <trkpt lat="48.792935" lon="15.824348"><ele>408</ele></trkpt>
   <trkpt lat="48.792619" lon="15.823864"><ele>408.25</ele></trkpt>
   <trkpt lat="48.792528" lon="15.823728"><ele>408</ele></trkpt>
   <trkpt lat="48.792471" lon="15.823636"><ele>407.75</ele></trkpt>
   <trkpt lat="48.792117" lon="15.823067"><ele>407.25</ele></trkpt>
   <trkpt lat="48.792097" lon="15.823036"><ele>407.25</ele></trkpt>
   <trkpt lat="48.791453" lon="15.822003"><ele>408.75</ele></trkpt>
   <trkpt lat="48.791308" lon="15.821771"><ele>409</ele></trkpt>
   <trkpt lat="48.791133" lon="15.821469"><ele>409.75</ele></trkpt>
   <trkpt lat="48.790985" lon="15.821178"><ele>410</ele></trkpt>
   <trkpt lat="48.790876" lon="15.820912"><ele>410</ele></trkpt>
   <trkpt lat="48.790787" lon="15.820605"><ele>410</ele></trkpt>
   <trkpt lat="48.790712" lon="15.820259"><ele>410</ele></trkpt>
   <trkpt lat="48.790615" lon="15.819684"><ele>410.75</ele></trkpt>
   <trkpt lat="48.790528" lon="15.819066"><ele>411</ele></trkpt>
   <trkpt lat="48.790481" lon="15.818748"><ele>411</ele></trkpt>
   <trkpt lat="48.790454" lon="15.818565"><ele>411</ele></trkpt>
   <trkpt lat="48.790102" lon="15.816187"><ele>413.25</ele></trkpt>
   <trkpt lat="48.790097" lon="15.816152"><ele>413.25</ele></trkpt>
   <trkpt lat="48.790089" lon="15.816103"><ele>413.25</ele></trkpt>
   <trkpt lat="48.789423" lon="15.81159"><ele>422</ele></trkpt>
   <trkpt lat="48.789352" lon="15.811177"><ele>422.5</ele></trkpt>
   <trkpt lat="48.789258" lon="15.810756"><ele>423.25</ele></trkpt>
   <trkpt lat="48.789164" lon="15.8104"><ele>423.5</ele></trkpt>
   <trkpt lat="48.78906" lon="15.81006"><ele>423.5</ele></trkpt>
   <trkpt lat="48.788821" lon="15.809342"><ele>424</ele></trkpt>
   <trkpt lat="48.788626" lon="15.808757"><ele>425</ele></trkpt>
   <trkpt lat="48.788281" lon="15.807727"><ele>426.75</ele></trkpt>
   <trkpt lat="48.788263" lon="15.807674"><ele>426.75</ele></trkpt>
   <trkpt lat="48.788255" lon="15.807648"><ele>426.75</ele></trkpt>
   <trkpt lat="48.788246" lon="15.807622"><ele>426.75</ele></trkpt>
   <trkpt lat="48.78817" lon="15.807357"><ele>427.75</ele></trkpt>
   <trkpt lat="48.78813" lon="15.807191"><ele>428.5</ele></trkpt>
   <trkpt lat="48.788102" lon="15.807083"><ele>428.75</ele></trkpt>
   <trkpt lat="48.788051" lon="15.806905"><ele>428.75</ele></trkpt>
   <trkpt lat="48.78776" lon="15.80603"><ele>429.75</ele></trkpt>
   <trkpt lat="48.787705" lon="15.805838"><ele>429.75</ele></trkpt>
   <trkpt lat="48.787637" lon="15.805568"><ele>430</ele></trkpt>
   <trkpt lat="48.787546" lon="15.805048"><ele>430</ele></trkpt>
   <trkpt lat="48.787514" lon="15.804774"><ele>430</ele></trkpt>
   <trkpt lat="48.787502" lon="15.804593"><ele>430</ele></trkpt>
   <trkpt lat="48.787475" lon="15.804096"><ele>430</ele></trkpt>
   <trkpt lat="48.787431" lon="15.803537"><ele>430</ele></trkpt>
   <trkpt lat="48.78743" lon="15.803529"><ele>430</ele></trkpt>
   <trkpt lat="48.787426" lon="15.803318"><ele>430</ele></trkpt>
   <trkpt lat="48.787433" lon="15.803107"><ele>430.75</ele></trkpt>
   <trkpt lat="48.787448" lon="15.802926"><ele>431.25</ele></trkpt>
   <trkpt lat="48.78749" lon="15.802648"><ele>431.75</ele></trkpt>
   <trkpt lat="48.787558" lon="15.802367"><ele>431.75</ele></trkpt>
   <trkpt lat="48.787603" lon="15.802213"><ele>432</ele></trkpt>
   <trkpt lat="48.787661" lon="15.802057"><ele>432.5</ele></trkpt>
   <trkpt lat="48.787745" lon="15.801858"><ele>433.5</ele></trkpt>
   <trkpt lat="48.787836" lon="15.801683"><ele>434.25</ele></trkpt>
   <trkpt lat="48.787987" lon="15.801459"><ele>434.25</ele></trkpt>
   <trkpt lat="48.788106" lon="15.801318"><ele>434.75</ele></trkpt>
   <trkpt lat="48.78821" lon="15.801208"><ele>435.25</ele></trkpt>
   <trkpt lat="48.788303" lon="15.80113"><ele>435.75</ele></trkpt>
   <trkpt lat="48.788532" lon="15.800975"><ele>436</ele></trkpt>
   <trkpt lat="48.789035" lon="15.800667"><ele>436.75</ele></trkpt>
   <trkpt lat="48.789095" lon="15.800631"><ele>436.5</ele></trkpt>
   <trkpt lat="48.789317" lon="15.800496"><ele>436.25</ele></trkpt>
   <trkpt lat="48.789444" lon="15.80042"><ele>436.25</ele></trkpt>
   <trkpt lat="48.78955" lon="15.800352"><ele>436</ele></trkpt>
   <trkpt lat="48.789623" lon="15.800309"><ele>435.5</ele></trkpt>
   <trkpt lat="48.78998" lon="15.800079"><ele>434.75</ele></trkpt>
   <trkpt lat="48.790187" lon="15.799916"><ele>433.75</ele></trkpt>
   <trkpt lat="48.790319" lon="15.799791"><ele>433.25</ele></trkpt>
   <trkpt lat="48.790519" lon="15.799571"><ele>432.25</ele></trkpt>
   <trkpt lat="48.790641" lon="15.799415"><ele>431.5</ele></trkpt>
   <trkpt lat="48.79085" lon="15.799092"><ele>431.5</ele></trkpt>
   <trkpt lat="48.790939" lon="15.798931"><ele>430.25</ele></trkpt>
   <trkpt lat="48.791033" lon="15.798741"><ele>430</ele></trkpt>
   <trkpt lat="48.7912" lon="15.798354"><ele>429.5</ele></trkpt>
   <trkpt lat="48.791829" lon="15.79669"><ele>426</ele></trkpt>
   <trkpt lat="48.792002" lon="15.796265"><ele>425.25</ele></trkpt>
   <trkpt lat="48.792074" lon="15.796102"><ele>424.5</ele></trkpt>
   <trkpt lat="48.792269" lon="15.795674"><ele>424.25</ele></trkpt>
   <trkpt lat="48.792439" lon="15.79534"><ele>423.75</ele></trkpt>
   <trkpt lat="48.792766" lon="15.794758"><ele>422.75</ele></trkpt>
   <trkpt lat="48.792996" lon="15.794395"><ele>421.5</ele></trkpt>
   <trkpt lat="48.793243" lon="15.794047"><ele>421.25</ele></trkpt>
   <trkpt lat="48.79345" lon="15.793777"><ele>421</ele></trkpt>
   <trkpt lat="48.794475" lon="15.79246"><ele>418.75</ele></trkpt>
   <trkpt lat="48.794751" lon="15.792093"><ele>418.5</ele></trkpt>
   <trkpt lat="48.79489" lon="15.791896"><ele>418.25</ele></trkpt>
   <trkpt lat="48.795005" lon="15.791716"><ele>417.75</ele></trkpt>
   <trkpt lat="48.795833" lon="15.790333"><ele>415.75</ele></trkpt>
   <trkpt lat="48.796011" lon="15.790087"><ele>415.25</ele></trkpt>
   <trkpt lat="48.796181" lon="15.789894"><ele>414.5</ele></trkpt>
   <trkpt lat="48.796281" lon="15.789801"><ele>414.25</ele></trkpt>
   <trkpt lat="48.796496" lon="15.789638"><ele>414</ele></trkpt>
   <trkpt lat="48.796731" lon="15.789484"><ele>414.5</ele></trkpt>
   <trkpt lat="48.796779" lon="15.789453"><ele>414.5</ele></trkpt>
   <trkpt lat="48.796992" lon="15.789316"><ele>414.5</ele></trkpt>
   <trkpt lat="48.797241" lon="15.789132"><ele>413.75</ele></trkpt>
   <trkpt lat="48.797357" lon="15.789029"><ele>413.25</ele></trkpt>
   <trkpt lat="48.797376" lon="15.78901"><ele>413</ele></trkpt>
   <trkpt lat="48.797458" lon="15.788922"><ele>413</ele></trkpt>
   <trkpt lat="48.797616" lon="15.788721"><ele>412</ele></trkpt>
   <trkpt lat="48.797759" lon="15.788489"><ele>412</ele></trkpt>
   <trkpt lat="48.797901" lon="15.788185"><ele>411.75</ele></trkpt>
   <trkpt lat="48.797968" lon="15.78801"><ele>411.5</ele></trkpt>
   <trkpt lat="48.798081" lon="15.787683"><ele>412.5</ele></trkpt>
   <trkpt lat="48.798377" lon="15.786788"><ele>411.5</ele></trkpt>
   <trkpt lat="48.798449" lon="15.786592"><ele>410.25</ele></trkpt>
   <trkpt lat="48.798508" lon="15.786433"><ele>408.75</ele></trkpt>
   <trkpt lat="48.798653" lon="15.786129"><ele>408.5</ele></trkpt>
   <trkpt lat="48.798722" lon="15.786007"><ele>408.5</ele></trkpt>
   <trkpt lat="48.798821" lon="15.78586"><ele>409.5</ele></trkpt>
   <trkpt lat="48.799025" lon="15.785597"><ele>411</ele></trkpt>
   <trkpt lat="48.799252" lon="15.785358"><ele>410.5</ele></trkpt>
   <trkpt lat="48.799466" lon="15.785178"><ele>409.75</ele></trkpt>
   <trkpt lat="48.799936" lon="15.784873"><ele>407.5</ele></trkpt>
   <trkpt lat="48.799951" lon="15.784864"><ele>407.5</ele></trkpt>
   <trkpt lat="48.800068" lon="15.78479"><ele>407.25</ele></trkpt>
   <trkpt lat="48.800727" lon="15.784378"><ele>406</ele></trkpt>
   <trkpt lat="48.800813" lon="15.784325"><ele>405.75</ele></trkpt>
   <trkpt lat="48.801432" lon="15.783925"><ele>405.25</ele></trkpt>
   <trkpt lat="48.801626" lon="15.783762"><ele>405</ele></trkpt>
   <trkpt lat="48.801816" lon="15.783568"><ele>405</ele></trkpt>
   <trkpt lat="48.801973" lon="15.783359"><ele>405.5</ele></trkpt>
   <trkpt lat="48.802007" lon="15.783308"><ele>405.5</ele></trkpt>
   <trkpt lat="48.802137" lon="15.783123"><ele>405.25</ele></trkpt>
   <trkpt lat="48.802256" lon="15.782904"><ele>405.25</ele></trkpt>
   <trkpt lat="48.802375" lon="15.782633"><ele>405.25</ele></trkpt>
   <trkpt lat="48.802465" lon="15.782389"><ele>405.5</ele></trkpt>
   <trkpt lat="48.802986" lon="15.780722"><ele>405.5</ele></trkpt>
   <trkpt lat="48.80307" lon="15.780407"><ele>406.75</ele></trkpt>
   <trkpt lat="48.803073" lon="15.780396"><ele>406.75</ele></trkpt>
   <trkpt lat="48.803084" lon="15.780352"><ele>406.75</ele></trkpt>
   <trkpt lat="48.803133" lon="15.780122"><ele>406.75</ele></trkpt>
   <trkpt lat="48.803177" lon="15.779785"><ele>407.5</ele></trkpt>
   <trkpt lat="48.80321" lon="15.779488"><ele>407.5</ele></trkpt>
   <trkpt lat="48.803218" lon="15.779266"><ele>407.75</ele></trkpt>
   <trkpt lat="48.803215" lon="15.779036"><ele>407.75</ele></trkpt>
   <trkpt lat="48.803138" lon="15.777632"><ele>406.25</ele></trkpt>
   <trkpt lat="48.803139" lon="15.777347"><ele>406.75</ele></trkpt>
   <trkpt lat="48.803156" lon="15.777091"><ele>407.25</ele></trkpt>
   <trkpt lat="48.803184" lon="15.776848"><ele>407.5</ele></trkpt>
   <trkpt lat="48.803228" lon="15.776612"><ele>408.25</ele></trkpt>
   <trkpt lat="48.803297" lon="15.776349"><ele>408.25</ele></trkpt>
   <trkpt lat="48.803384" lon="15.776081"><ele>408.5</ele></trkpt>
   <trkpt lat="48.803485" lon="15.77584"><ele>408.5</ele></trkpt>
   <trkpt lat="48.803604" lon="15.775613"><ele>407.5</ele></trkpt>
   <trkpt lat="48.803722" lon="15.775417"><ele>407.25</ele></trkpt>
   <trkpt lat="48.803749" lon="15.775372"><ele>407.25</ele></trkpt>
   <trkpt lat="48.804483" lon="15.774153"><ele>408.75</ele></trkpt>
   <trkpt lat="48.804794" lon="15.773621"><ele>409.75</ele></trkpt>
   <trkpt lat="48.805332" lon="15.772607"><ele>409.25</ele></trkpt>
   <trkpt lat="48.805387" lon="15.772504"><ele>409</ele></trkpt>
   <trkpt lat="48.805949" lon="15.771445"><ele>409.5</ele></trkpt>
   <trkpt lat="48.806009" lon="15.771332"><ele>409.5</ele></trkpt>
   <trkpt lat="48.806164" lon="15.770994"><ele>409.25</ele></trkpt>
   <trkpt lat="48.806258" lon="15.770756"><ele>408.5</ele></trkpt>
   <trkpt lat="48.80634" lon="15.770548"><ele>409</ele></trkpt>
   <trkpt lat="48.806402" lon="15.770364"><ele>409.5</ele></trkpt>
   <trkpt lat="48.806476" lon="15.770143"><ele>409.25</ele></trkpt>
   <trkpt lat="48.806595" lon="15.769716"><ele>409.5</ele></trkpt>
   <trkpt lat="48.806674" lon="15.769291"><ele>410.5</ele></trkpt>
   <trkpt lat="48.806724" lon="15.768878"><ele>410.5</ele></trkpt>
   <trkpt lat="48.806754" lon="15.768402"><ele>411</ele></trkpt>
   <trkpt lat="48.80677" lon="15.767903"><ele>411.25</ele></trkpt>
   <trkpt lat="48.806773" lon="15.767457"><ele>411.5</ele></trkpt>
   <trkpt lat="48.806748" lon="15.766844"><ele>411.25</ele></trkpt>
   <trkpt lat="48.806707" lon="15.766255"><ele>411.75</ele></trkpt>
   <trkpt lat="48.806467" lon="15.76318"><ele>413.25</ele></trkpt>
   <trkpt lat="48.806461" lon="15.763115"><ele>413.25</ele></trkpt>
   <trkpt lat="48.806344" lon="15.761612"><ele>413.75</ele></trkpt>
   <trkpt lat="48.806105" lon="15.758519"><ele>415.75</ele></trkpt>
   <trkpt lat="48.806096" lon="15.758409"><ele>415.75</ele></trkpt>
   <trkpt lat="48.805932" lon="15.756318"><ele>417</ele></trkpt>
   <trkpt lat="48.80587" lon="15.75552"><ele>416</ele></trkpt>
   <trkpt lat="48.805859" lon="15.755388"><ele>416.5</ele></trkpt>
   <trkpt lat="48.805819" lon="15.754859"><ele>418.5</ele></trkpt>
   <trkpt lat="48.805795" lon="15.754408"><ele>419.5</ele></trkpt>
   <trkpt lat="48.805795" lon="15.754137"><ele>420.25</ele></trkpt>
   <trkpt lat="48.805811" lon="15.753821"><ele>420.75</ele></trkpt>
   <trkpt lat="48.805866" lon="15.753411"><ele>422.25</ele></trkpt>
   <trkpt lat="48.805928" lon="15.7531"><ele>423.25</ele></trkpt>
   <trkpt lat="48.806008" lon="15.752826"><ele>424</ele></trkpt>
   <trkpt lat="48.806104" lon="15.752543"><ele>423.75</ele></trkpt>
   <trkpt lat="48.806239" lon="15.752236"><ele>424.5</ele></trkpt>
   <trkpt lat="48.806419" lon="15.751914"><ele>424.75</ele></trkpt>
   <trkpt lat="48.806603" lon="15.751637"><ele>424.5</ele></trkpt>
   <trkpt lat="48.806955" lon="15.751153"><ele>424.25</ele></trkpt>
   <trkpt lat="48.808166" lon="15.749415"><ele>426.5</ele></trkpt>
   <trkpt lat="48.808323" lon="15.749192"><ele>426.75</ele></trkpt>
   <trkpt lat="48.808379" lon="15.749121"><ele>426.75</ele></trkpt>
   <trkpt lat="48.808403" lon="15.749083"><ele>427</ele></trkpt>
   <trkpt lat="48.808449" lon="15.749013"><ele>427</ele></trkpt>
   <trkpt lat="48.80854" lon="15.748884"><ele>427.25</ele></trkpt>
   <trkpt lat="48.808577" lon="15.748832"><ele>427.5</ele></trkpt>
   <trkpt lat="48.810164" lon="15.746578"><ele>431.5</ele></trkpt>
   <trkpt lat="48.810331" lon="15.746335"><ele>432</ele></trkpt>
   <trkpt lat="48.810394" lon="15.746248"><ele>432.25</ele></trkpt>
   <trkpt lat="48.810592" lon="15.745966"><ele>432.5</ele></trkpt>
   <trkpt lat="48.811385" lon="15.744836"><ele>435</ele></trkpt>
   <trkpt lat="48.812664" lon="15.743018"><ele>439.5</ele></trkpt>
   <trkpt lat="48.812841" lon="15.742792"><ele>439.75</ele></trkpt>
   <trkpt lat="48.812907" lon="15.742717"><ele>440</ele></trkpt>
   <trkpt lat="48.812919" lon="15.742705"><ele>440</ele></trkpt>
   <trkpt lat="48.813089" lon="15.742542"><ele>439.25</ele></trkpt>
   <trkpt lat="48.813168" lon="15.742481"><ele>439.5</ele></trkpt>
   <trkpt lat="48.81332" lon="15.742387"><ele>439.25</ele></trkpt>
   <trkpt lat="48.813471" lon="15.742314"><ele>439.75</ele></trkpt>
   <trkpt lat="48.813614" lon="15.742269"><ele>440.5</ele></trkpt>
   <trkpt lat="48.813779" lon="15.742231"><ele>441.5</ele></trkpt>
   <trkpt lat="48.814492" lon="15.742143"><ele>444</ele></trkpt>
   <trkpt lat="48.815175" lon="15.742058"><ele>445</ele></trkpt>
   <trkpt lat="48.8155" lon="15.742018"><ele>446</ele></trkpt>
   <trkpt lat="48.815702" lon="15.742003"><ele>446.25</ele></trkpt>
   <trkpt lat="48.815917" lon="15.742013"><ele>446.5</ele></trkpt>
   <trkpt lat="48.816172" lon="15.74204"><ele>447</ele></trkpt>
   <trkpt lat="48.816407" lon="15.742081"><ele>447</ele></trkpt>
   <trkpt lat="48.816705" lon="15.742158"><ele>447.5</ele></trkpt>
   <trkpt lat="48.816848" lon="15.742216"><ele>448.25</ele></trkpt>
   <trkpt lat="48.817367" lon="15.742467"><ele>450.25</ele></trkpt>
   <trkpt lat="48.817768" lon="15.742711"><ele>451.75</ele></trkpt>
   <trkpt lat="48.817944" lon="15.742819"><ele>452.5</ele></trkpt>
   <trkpt lat="48.818118" lon="15.742914"><ele>453</ele></trkpt>
   <trkpt lat="48.818315" lon="15.743005"><ele>452.25</ele></trkpt>
   <trkpt lat="48.818515" lon="15.743074"><ele>452.5</ele></trkpt>
   <trkpt lat="48.818716" lon="15.743118"><ele>452</ele></trkpt>
   <trkpt lat="48.818919" lon="15.743141"><ele>451.5</ele></trkpt>
   <trkpt lat="48.819109" lon="15.743144"><ele>452.25</ele></trkpt>
   <trkpt lat="48.819301" lon="15.743126"><ele>453.5</ele></trkpt>
   <trkpt lat="48.819369" lon="15.743115"><ele>454</ele></trkpt>
   <trkpt lat="48.819418" lon="15.743107"><ele>454.5</ele></trkpt>
   <trkpt lat="48.819535" lon="15.743082"><ele>455.25</ele></trkpt>
   <trkpt lat="48.819664" lon="15.743038"><ele>455.75</ele></trkpt>
   <trkpt lat="48.819806" lon="15.742985"><ele>456.25</ele></trkpt>
   <trkpt lat="48.820078" lon="15.742855"><ele>456.5</ele></trkpt>
   <trkpt lat="48.820447" lon="15.74261"><ele>456.5</ele></trkpt>
   <trkpt lat="48.82071" lon="15.742414"><ele>456.5</ele></trkpt>
   <trkpt lat="48.820858" lon="15.742288"><ele>456.5</ele></trkpt>
   <trkpt lat="48.820984" lon="15.742157"><ele>456.5</ele></trkpt>
   <trkpt lat="48.821089" lon="15.742024"><ele>456.5</ele></trkpt>
   <trkpt lat="48.821305" lon="15.741707"><ele>456.25</ele></trkpt>
   <trkpt lat="48.821381" lon="15.741582"><ele>456</ele></trkpt>
   <trkpt lat="48.821577" lon="15.741256"><ele>455.5</ele></trkpt>
   <trkpt lat="48.821741" lon="15.74096"><ele>455.5</ele></trkpt>
   <trkpt lat="48.82186" lon="15.740717"><ele>455.5</ele></trkpt>
   <trkpt lat="48.821979" lon="15.740445"><ele>455.75</ele></trkpt>
   <trkpt lat="48.8221" lon="15.740105"><ele>455.75</ele></trkpt>
   <trkpt lat="48.822212" lon="15.739725"><ele>456</ele></trkpt>
   <trkpt lat="48.822291" lon="15.739372"><ele>456.5</ele></trkpt>
   <trkpt lat="48.822471" lon="15.738265"><ele>456.25</ele></trkpt>
   <trkpt lat="48.822484" lon="15.738184"><ele>456.5</ele></trkpt>
   <trkpt lat="48.822489" lon="15.738149"><ele>456.5</ele></trkpt>
   <trkpt lat="48.822564" lon="15.73768"><ele>456.75</ele></trkpt>
   <trkpt lat="48.822718" lon="15.736704"><ele>457</ele></trkpt>
   <trkpt lat="48.822733" lon="15.736605"><ele>457</ele></trkpt>
   <trkpt lat="48.82278" lon="15.736286"><ele>456.75</ele></trkpt>
   <trkpt lat="48.82282" lon="15.735927"><ele>456.75</ele></trkpt>
   <trkpt lat="48.822849" lon="15.735554"><ele>457.5</ele></trkpt>
   <trkpt lat="48.822954" lon="15.732724"><ele>457.25</ele></trkpt>
   <trkpt lat="48.822994" lon="15.731639"><ele>457</ele></trkpt>
   <trkpt lat="48.823008" lon="15.731243"><ele>457</ele></trkpt>
   <trkpt lat="48.823011" lon="15.731163"><ele>457</ele></trkpt>
   <trkpt lat="48.823036" lon="15.730476"><ele>457</ele></trkpt>
   <trkpt lat="48.823065" lon="15.729957"><ele>456</ele></trkpt>
   <trkpt lat="48.823115" lon="15.729467"><ele>456.5</ele></trkpt>
   <trkpt lat="48.823461" lon="15.727113"><ele>457</ele></trkpt>
   <trkpt lat="48.823475" lon="15.727021"><ele>456.75</ele></trkpt>
   <trkpt lat="48.823487" lon="15.726938"><ele>456.75</ele></trkpt>
   <trkpt lat="48.823777" lon="15.724996"><ele>458</ele></trkpt>
   <trkpt lat="48.823995" lon="15.723536"><ele>458</ele></trkpt>
   <trkpt lat="48.824078" lon="15.723037"><ele>457.5</ele></trkpt>
   <trkpt lat="48.824164" lon="15.722621"><ele>457</ele></trkpt>
   <trkpt lat="48.824246" lon="15.722249"><ele>457.25</ele></trkpt>
   <trkpt lat="48.824326" lon="15.721922"><ele>457.25</ele></trkpt>
   <trkpt lat="48.824439" lon="15.721474"><ele>457</ele></trkpt>
   <trkpt lat="48.824806" lon="15.720025"><ele>456.5</ele></trkpt>
   <trkpt lat="48.824863" lon="15.719788"><ele>457.25</ele></trkpt>
   <trkpt lat="48.824895" lon="15.719654"><ele>457.5</ele></trkpt>
   <trkpt lat="48.824901" lon="15.71963"><ele>457.75</ele></trkpt>
   <trkpt lat="48.825077" lon="15.718973"><ele>458</ele></trkpt>
   <trkpt lat="48.825124" lon="15.718784"><ele>458</ele></trkpt>
   <trkpt lat="48.825203" lon="15.718461"><ele>458</ele></trkpt>
   <trkpt lat="48.825226" lon="15.718376"><ele>458</ele></trkpt>
   <trkpt lat="48.825459" lon="15.717391"><ele>458</ele></trkpt>
   <trkpt lat="48.82548" lon="15.717305"><ele>458</ele></trkpt>
   <trkpt lat="48.825605" lon="15.71666"><ele>458</ele></trkpt>
   <trkpt lat="48.825661" lon="15.716337"><ele>458</ele></trkpt>
   <trkpt lat="48.82571" lon="15.716033"><ele>458</ele></trkpt>
   <trkpt lat="48.825736" lon="15.715747"><ele>458</ele></trkpt>
   <trkpt lat="48.825733" lon="15.715473"><ele>458</ele></trkpt>
   <trkpt lat="48.825708" lon="15.71522"><ele>458</ele></trkpt>
   <trkpt lat="48.825674" lon="15.714991"><ele>457.75</ele></trkpt>
   <trkpt lat="48.825632" lon="15.714792"><ele>457.25</ele></trkpt>
   <trkpt lat="48.825571" lon="15.71454"><ele>457.5</ele></trkpt>
   <trkpt lat="48.825491" lon="15.71433"><ele>457.5</ele></trkpt>
   <trkpt lat="48.825418" lon="15.714153"><ele>457.25</ele></trkpt>
   <trkpt lat="48.825333" lon="15.713993"><ele>457.25</ele></trkpt>
   <trkpt lat="48.825226" lon="15.713824"><ele>457</ele></trkpt>
   <trkpt lat="48.825113" lon="15.713671"><ele>457.5</ele></trkpt>
   <trkpt lat="48.825009" lon="15.713549"><ele>457.75</ele></trkpt>
   <trkpt lat="48.824334" lon="15.71278"><ele>458.25</ele></trkpt>
   <trkpt lat="48.823729" lon="15.71209"><ele>459.5</ele></trkpt>
   <trkpt lat="48.82357" lon="15.711909"><ele>460</ele></trkpt>
   <trkpt lat="48.821411" lon="15.709447"><ele>465</ele></trkpt>
   <trkpt lat="48.820915" lon="15.708882"><ele>465.5</ele></trkpt>
   <trkpt lat="48.820794" lon="15.708744"><ele>465.5</ele></trkpt>
   <trkpt lat="48.820721" lon="15.70866"><ele>465.5</ele></trkpt>
   <trkpt lat="48.820667" lon="15.708599"><ele>465.5</ele></trkpt>
   <trkpt lat="48.820627" lon="15.708554"><ele>465.5</ele></trkpt>
   <trkpt lat="48.820614" lon="15.708539"><ele>465.5</ele></trkpt>
   <trkpt lat="48.820612" lon="15.708536"><ele>465.5</ele></trkpt>
   <trkpt lat="48.818829" lon="15.706504"><ele>468.25</ele></trkpt>
   <trkpt lat="48.818381" lon="15.705978"><ele>468.75</ele></trkpt>
   <trkpt lat="48.817957" lon="15.70546"><ele>469</ele></trkpt>
   <trkpt lat="48.81792" lon="15.705415"><ele>469</ele></trkpt>
   <trkpt lat="48.817845" lon="15.705325"><ele>469.5</ele></trkpt>
   <trkpt lat="48.81782" lon="15.705293"><ele>469.75</ele></trkpt>
   <trkpt lat="48.817807" lon="15.705277"><ele>469.75</ele></trkpt>
   <trkpt lat="48.81778" lon="15.705243"><ele>469.75</ele></trkpt>
   <trkpt lat="48.817356" lon="15.704699"><ele>469.25</ele></trkpt>
   <trkpt lat="48.815555" lon="15.702397"><ele>471</ele></trkpt>
   <trkpt lat="48.815166" lon="15.701891"><ele>472</ele></trkpt>
   <trkpt lat="48.813763" lon="15.70001"><ele>473.75</ele></trkpt>
   <trkpt lat="48.813564" lon="15.699741"><ele>473.75</ele></trkpt>
   <trkpt lat="48.812969" lon="15.698901"><ele>474.5</ele></trkpt>
   <trkpt lat="48.812924" lon="15.698837"><ele>474.5</ele></trkpt>
   <trkpt lat="48.812058" lon="15.697543"><ele>475.25</ele></trkpt>
   <trkpt lat="48.811644" lon="15.696909"><ele>476</ele></trkpt>
   <trkpt lat="48.811625" lon="15.696878"><ele>476</ele></trkpt>
   <trkpt lat="48.810688" lon="15.695391"><ele>478.5</ele></trkpt>
   <trkpt lat="48.810649" lon="15.695329"><ele>478.75</ele></trkpt>
   <trkpt lat="48.8106" lon="15.695251"><ele>479</ele></trkpt>
   <trkpt lat="48.810562" lon="15.69519"><ele>479</ele></trkpt>
   <trkpt lat="48.809921" lon="15.694165"><ele>480</ele></trkpt>
   <trkpt lat="48.809692" lon="15.693767"><ele>480</ele></trkpt>
   <trkpt lat="48.80955" lon="15.693483"><ele>480</ele></trkpt>
   <trkpt lat="48.809428" lon="15.693215"><ele>480</ele></trkpt>
   <trkpt lat="48.80921" lon="15.692658"><ele>480</ele></trkpt>
   <trkpt lat="48.809056" lon="15.692157"><ele>480</ele></trkpt>
   <trkpt lat="48.809045" lon="15.692119"><ele>480</ele></trkpt>
   <trkpt lat="48.808909" lon="15.691561"><ele>480</ele></trkpt>
   <trkpt lat="48.808846" lon="15.691242"><ele>480</ele></trkpt>
   <trkpt lat="48.808792" lon="15.6909"><ele>480.25</ele></trkpt>
   <trkpt lat="48.808742" lon="15.690467"><ele>480</ele></trkpt>
   <trkpt lat="48.808709" lon="15.690029"><ele>480.5</ele></trkpt>
   <trkpt lat="48.808697" lon="15.689636"><ele>480.5</ele></trkpt>
   <trkpt lat="48.808699" lon="15.689322"><ele>480.5</ele></trkpt>
   <trkpt lat="48.808699" lon="15.689254"><ele>480.5</ele></trkpt>
   <trkpt lat="48.8087" lon="15.689215"><ele>480.5</ele></trkpt>
   <trkpt lat="48.8087" lon="15.68918"><ele>480.5</ele></trkpt>
   <trkpt lat="48.808701" lon="15.689145"><ele>480.5</ele></trkpt>
   <trkpt lat="48.808703" lon="15.689103"><ele>480.5</ele></trkpt>
   <trkpt lat="48.808743" lon="15.688517"><ele>479.75</ele></trkpt>
   <trkpt lat="48.808765" lon="15.688294"><ele>479.25</ele></trkpt>
   <trkpt lat="48.808816" lon="15.687918"><ele>479.5</ele></trkpt>
   <trkpt lat="48.80884" lon="15.687779"><ele>479.75</ele></trkpt>
   <trkpt lat="48.808847" lon="15.68774"><ele>480</ele></trkpt>
   <trkpt lat="48.808905" lon="15.687432"><ele>479.75</ele></trkpt>
   <trkpt lat="48.809023" lon="15.686942"><ele>479.5</ele></trkpt>
   <trkpt lat="48.809095" lon="15.686689"><ele>479.75</ele></trkpt>
   <trkpt lat="48.809131" lon="15.686575"><ele>480</ele></trkpt>
   <trkpt lat="48.80921" lon="15.686326"><ele>479.75</ele></trkpt>
   <trkpt lat="48.809359" lon="15.68593"><ele>480</ele></trkpt>
   <trkpt lat="48.80986" lon="15.684778"><ele>479.75</ele></trkpt>
   <trkpt lat="48.809966" lon="15.684526"><ele>479.75</ele></trkpt>
   <trkpt lat="48.810008" lon="15.684428"><ele>480</ele></trkpt>
   <trkpt lat="48.81004" lon="15.684355"><ele>480</ele></trkpt>
   <trkpt lat="48.810062" lon="15.684304"><ele>480</ele></trkpt>
   <trkpt lat="48.810083" lon="15.684255"><ele>480</ele></trkpt>
   <trkpt lat="48.81011" lon="15.684194"><ele>480</ele></trkpt>
   <trkpt lat="48.810124" lon="15.684161"><ele>480</ele></trkpt>
   <trkpt lat="48.810667" lon="15.682923"><ele>480.25</ele></trkpt>
   <trkpt lat="48.811473" lon="15.681073"><ele>480.5</ele></trkpt>
   <trkpt lat="48.811702" lon="15.680526"><ele>480.75</ele></trkpt>
   <trkpt lat="48.811762" lon="15.680351"><ele>481.25</ele></trkpt>
   <trkpt lat="48.811807" lon="15.6802"><ele>481.25</ele></trkpt>
   <trkpt lat="48.811851" lon="15.680022"><ele>481.25</ele></trkpt>
   <trkpt lat="48.811909" lon="15.679703"><ele>482</ele></trkpt>
   <trkpt lat="48.811938" lon="15.679382"><ele>482</ele></trkpt>
   <trkpt lat="48.811947" lon="15.679152"><ele>481.75</ele></trkpt>
   <trkpt lat="48.811946" lon="15.678937"><ele>481.75</ele></trkpt>
   <trkpt lat="48.811929" lon="15.678606"><ele>481</ele></trkpt>
   <trkpt lat="48.811886" lon="15.678279"><ele>481</ele></trkpt>
   <trkpt lat="48.811842" lon="15.678024"><ele>481</ele></trkpt>
   <trkpt lat="48.811786" lon="15.677793"><ele>480.75</ele></trkpt>
   <trkpt lat="48.81173" lon="15.677602"><ele>480.5</ele></trkpt>
   <trkpt lat="48.811647" lon="15.677387"><ele>480</ele></trkpt>
   <trkpt lat="48.811512" lon="15.67711"><ele>479.75</ele></trkpt>
   <trkpt lat="48.811345" lon="15.676847"><ele>478.75</ele></trkpt>
   <trkpt lat="48.811232" lon="15.67667"><ele>478.25</ele></trkpt>
   <trkpt lat="48.811211" lon="15.676638"><ele>478.25</ele></trkpt>
   <trkpt lat="48.811191" lon="15.676608"><ele>478.25</ele></trkpt>
   <trkpt lat="48.810999" lon="15.676326"><ele>477.25</ele></trkpt>
   <trkpt lat="48.810983" lon="15.676303"><ele>477</ele></trkpt>
   <trkpt lat="48.809402" lon="15.673988"><ele>471.75</ele></trkpt>
   <trkpt lat="48.80931" lon="15.673868"><ele>471.75</ele></trkpt>
   <trkpt lat="48.809292" lon="15.673844"><ele>471.75</ele></trkpt>
   <trkpt lat="48.809274" lon="15.673821"><ele>471.75</ele></trkpt>
   <trkpt lat="48.80911" lon="15.673621"><ele>471.25</ele></trkpt>
   <trkpt lat="48.808952" lon="15.673447"><ele>470.75</ele></trkpt>
   <trkpt lat="48.808746" lon="15.673246"><ele>469.5</ele></trkpt>
   <trkpt lat="48.808685" lon="15.673189"><ele>469.5</ele></trkpt>
   <trkpt lat="48.808521" lon="15.673036"><ele>470.5</ele></trkpt>
   <trkpt lat="48.80807" lon="15.672656"><ele>467.5</ele></trkpt>
   <trkpt lat="48.807828" lon="15.672438"><ele>465.25</ele></trkpt>
   <trkpt lat="48.807636" lon="15.672229"><ele>463</ele></trkpt>
   <trkpt lat="48.807589" lon="15.672171"><ele>463</ele></trkpt>
   <trkpt lat="48.807456" lon="15.671976"><ele>463.25</ele></trkpt>
   <trkpt lat="48.807368" lon="15.671816"><ele>462.5</ele></trkpt>
   <trkpt lat="48.807281" lon="15.671634"><ele>462.25</ele></trkpt>
   <trkpt lat="48.807199" lon="15.671404"><ele>462.5</ele></trkpt>
   <trkpt lat="48.807125" lon="15.671148"><ele>461.5</ele></trkpt>
   <trkpt lat="48.807075" lon="15.670868"><ele>461.25</ele></trkpt>
   <trkpt lat="48.807051" lon="15.670681"><ele>461.25</ele></trkpt>
   <trkpt lat="48.807038" lon="15.670445"><ele>461.25</ele></trkpt>
   <trkpt lat="48.807042" lon="15.670167"><ele>461</ele></trkpt>
   <trkpt lat="48.807063" lon="15.669947"><ele>461</ele></trkpt>
   <trkpt lat="48.807091" lon="15.669748"><ele>461</ele></trkpt>
   <trkpt lat="48.807185" lon="15.669232"><ele>460</ele></trkpt>
   <trkpt lat="48.807199" lon="15.669159"><ele>460</ele></trkpt>
   <trkpt lat="48.807231" lon="15.668993"><ele>460.5</ele></trkpt>
   <trkpt lat="48.807243" lon="15.668933"><ele>460.75</ele></trkpt>
   <trkpt lat="48.807282" lon="15.668731"><ele>461</ele></trkpt>
   <trkpt lat="48.807537" lon="15.667385"><ele>461</ele></trkpt>
   <trkpt lat="48.807636" lon="15.666862"><ele>460.75</ele></trkpt>
   <trkpt lat="48.807677" lon="15.666646"><ele>460.75</ele></trkpt>
   <trkpt lat="48.807927" lon="15.665329"><ele>460</ele></trkpt>
   <trkpt lat="48.807995" lon="15.664967"><ele>459.5</ele></trkpt>
   <trkpt lat="48.808014" lon="15.664865"><ele>459.5</ele></trkpt>
   <trkpt lat="48.808023" lon="15.664818"><ele>459.75</ele></trkpt>
   <trkpt lat="48.808036" lon="15.664751"><ele>459.75</ele></trkpt>
   <trkpt lat="48.808268" lon="15.663552"><ele>457.25</ele></trkpt>
   <trkpt lat="48.808399" lon="15.662973"><ele>456</ele></trkpt>
   <trkpt lat="48.808545" lon="15.662422"><ele>456.25</ele></trkpt>
   <trkpt lat="48.808836" lon="15.661485"><ele>456</ele></trkpt>
   <trkpt lat="48.808863" lon="15.661399"><ele>455.75</ele></trkpt>
   <trkpt lat="48.808869" lon="15.661383"><ele>455.75</ele></trkpt>
   <trkpt lat="48.808876" lon="15.66136"><ele>455.75</ele></trkpt>
   <trkpt lat="48.808902" lon="15.661279"><ele>455.5</ele></trkpt>
   <trkpt lat="48.809183" lon="15.660399"><ele>455</ele></trkpt>
   <trkpt lat="48.810032" lon="15.657746"><ele>455.25</ele></trkpt>
   <trkpt lat="48.810062" lon="15.657651"><ele>455.25</ele></trkpt>
   <trkpt lat="48.810089" lon="15.657567"><ele>455.25</ele></trkpt>
   <trkpt lat="48.810985" lon="15.654785"><ele>450.75</ele></trkpt>
   <trkpt lat="48.811109" lon="15.654352"><ele>448.75</ele></trkpt>
   <trkpt lat="48.811189" lon="15.65397"><ele>449</ele></trkpt>
   <trkpt lat="48.811209" lon="15.653751"><ele>449</ele></trkpt>
   <trkpt lat="48.811237" lon="15.653431"><ele>449</ele></trkpt>
   <trkpt lat="48.811249" lon="15.652966"><ele>448.25</ele></trkpt>
   <trkpt lat="48.811238" lon="15.65202"><ele>447.5</ele></trkpt>
   <trkpt lat="48.811237" lon="15.65191"><ele>447</ele></trkpt>
   <trkpt lat="48.811238" lon="15.651291"><ele>445.25</ele></trkpt>
   <trkpt lat="48.811252" lon="15.651096"><ele>444.25</ele></trkpt>
   <trkpt lat="48.811271" lon="15.650907"><ele>443.75</ele></trkpt>
   <trkpt lat="48.811301" lon="15.65072"><ele>443.25</ele></trkpt>
   <trkpt lat="48.811338" lon="15.650555"><ele>442.5</ele></trkpt>
   <trkpt lat="48.811371" lon="15.65042"><ele>442.25</ele></trkpt>
   <trkpt lat="48.811422" lon="15.650248"><ele>442</ele></trkpt>
   <trkpt lat="48.811463" lon="15.650123"><ele>441.75</ele></trkpt>
   <trkpt lat="48.81153" lon="15.649963"><ele>441.75</ele></trkpt>
   <trkpt lat="48.811626" lon="15.649769"><ele>441.75</ele></trkpt>
   <trkpt lat="48.811708" lon="15.649621"><ele>441</ele></trkpt>
   <trkpt lat="48.811789" lon="15.649501"><ele>440.25</ele></trkpt>
   <trkpt lat="48.811866" lon="15.649394"><ele>440</ele></trkpt>
   <trkpt lat="48.812001" lon="15.649236"><ele>438.75</ele></trkpt>
   <trkpt lat="48.812158" lon="15.649089"><ele>436.75</ele></trkpt>
   <trkpt lat="48.812419" lon="15.648893"><ele>436.5</ele></trkpt>
   <trkpt lat="48.812478" lon="15.648849"><ele>436</ele></trkpt>
   <trkpt lat="48.812731" lon="15.648657"><ele>437</ele></trkpt>
   <trkpt lat="48.812892" lon="15.648536"><ele>436.75</ele></trkpt>
   <trkpt lat="48.812981" lon="15.648468"><ele>436</ele></trkpt>
   <trkpt lat="48.813066" lon="15.648404"><ele>436</ele></trkpt>
   <trkpt lat="48.816911" lon="15.645501"><ele>451.5</ele></trkpt>
   <trkpt lat="48.81848" lon="15.644316"><ele>456.25</ele></trkpt>
   <trkpt lat="48.818541" lon="15.644269"><ele>456.25</ele></trkpt>
   <trkpt lat="48.818601" lon="15.644225"><ele>456</ele></trkpt>
   <trkpt lat="48.820261" lon="15.64296"><ele>460.75</ele></trkpt>
   <trkpt lat="48.820482" lon="15.642772"><ele>461.5</ele></trkpt>
   <trkpt lat="48.820657" lon="15.642609"><ele>461.75</ele></trkpt>
   <trkpt lat="48.820888" lon="15.642366"><ele>462.25</ele></trkpt>
   <trkpt lat="48.821053" lon="15.642176"><ele>462.25</ele></trkpt>
   <trkpt lat="48.821454" lon="15.641616"><ele>463.75</ele></trkpt>
   <trkpt lat="48.821646" lon="15.641287"><ele>464.75</ele></trkpt>
   <trkpt lat="48.823114" lon="15.63845"><ele>471.25</ele></trkpt>
   <trkpt lat="48.823138" lon="15.638403"><ele>471.25</ele></trkpt>
   <trkpt lat="48.823161" lon="15.638359"><ele>471.25</ele></trkpt>
   <trkpt lat="48.823848" lon="15.637032"><ele>473.75</ele></trkpt>
   <trkpt lat="48.82446" lon="15.635849"><ele>476.75</ele></trkpt>
   <trkpt lat="48.825334" lon="15.634161"><ele>479.75</ele></trkpt>
   <trkpt lat="48.825426" lon="15.633983"><ele>480</ele></trkpt>
   <trkpt lat="48.825679" lon="15.633491"><ele>481.5</ele></trkpt>
   <trkpt lat="48.825791" lon="15.633292"><ele>482.25</ele></trkpt>
   <trkpt lat="48.825898" lon="15.63312"><ele>482.5</ele></trkpt>
   <trkpt lat="48.826002" lon="15.632976"><ele>482.25</ele></trkpt>
   <trkpt lat="48.826121" lon="15.632825"><ele>482</ele></trkpt>
   <trkpt lat="48.826257" lon="15.632671"><ele>482</ele></trkpt>
   <trkpt lat="48.826431" lon="15.6325"><ele>482</ele></trkpt>
   <trkpt lat="48.82661" lon="15.632345"><ele>482</ele></trkpt>
   <trkpt lat="48.826658" lon="15.632304"><ele>482</ele></trkpt>
   <trkpt lat="48.826875" lon="15.632138"><ele>482.5</ele></trkpt>
   <trkpt lat="48.826953" lon="15.632076"><ele>482.25</ele></trkpt>
   <trkpt lat="48.828016" lon="15.63122"><ele>482.25</ele></trkpt>
   <trkpt lat="48.828704" lon="15.63066"><ele>481.75</ele></trkpt>
   <trkpt lat="48.830297" lon="15.629373"><ele>477.5</ele></trkpt>
   <trkpt lat="48.830717" lon="15.629018"><ele>476.5</ele></trkpt>
   <trkpt lat="48.830822" lon="15.628923"><ele>476</ele></trkpt>
   <trkpt lat="48.831366" lon="15.628374"><ele>474</ele></trkpt>
   <trkpt lat="48.831789" lon="15.627916"><ele>472.75</ele></trkpt>
   <trkpt lat="48.831901" lon="15.627798"><ele>472.25</ele></trkpt>
   <trkpt lat="48.831983" lon="15.62771"><ele>471.5</ele></trkpt>
   <trkpt lat="48.832543" lon="15.627105"><ele>470.5</ele></trkpt>
   <trkpt lat="48.832609" lon="15.627039"><ele>470.5</ele></trkpt>
   <trkpt lat="48.83272" lon="15.626914"><ele>470.5</ele></trkpt>
   <trkpt lat="48.832942" lon="15.626726"><ele>470.75</ele></trkpt>
   <trkpt lat="48.833058" lon="15.626648"><ele>470</ele></trkpt>
   <trkpt lat="48.833166" lon="15.626593"><ele>469.5</ele></trkpt>
   <trkpt lat="48.833238" lon="15.626557"><ele>469.25</ele></trkpt>
   <trkpt lat="48.83388" lon="15.626248"><ele>468</ele></trkpt>
   <trkpt lat="48.834078" lon="15.626155"><ele>468.5</ele></trkpt>
   <trkpt lat="48.834134" lon="15.626128"><ele>468.75</ele></trkpt>
   <trkpt lat="48.834213" lon="15.62609"><ele>469</ele></trkpt>
   <trkpt lat="48.834905" lon="15.625758"><ele>466.75</ele></trkpt>
   <trkpt lat="48.834947" lon="15.625738"><ele>466.75</ele></trkpt>
   <trkpt lat="48.836872" lon="15.624819"><ele>465.25</ele></trkpt>
   <trkpt lat="48.837197" lon="15.624665"><ele>463.25</ele></trkpt>
   <trkpt lat="48.837376" lon="15.6246"><ele>462.5</ele></trkpt>
   <trkpt lat="48.83753" lon="15.624563"><ele>461.75</ele></trkpt>
   <trkpt lat="48.837692" lon="15.624537"><ele>461.75</ele></trkpt>
   <trkpt lat="48.837809" lon="15.62454"><ele>461.5</ele></trkpt>
   <trkpt lat="48.837932" lon="15.624551"><ele>461.25</ele></trkpt>
   <trkpt lat="48.838131" lon="15.624606"><ele>461.25</ele></trkpt>
   <trkpt lat="48.838296" lon="15.624676"><ele>462.5</ele></trkpt>
   <trkpt lat="48.838477" lon="15.624778"><ele>462.5</ele></trkpt>
   <trkpt lat="48.83866" lon="15.624924"><ele>463</ele></trkpt>
   <trkpt lat="48.838775" lon="15.625037"><ele>463.25</ele></trkpt>
   <trkpt lat="48.838874" lon="15.625149"><ele>463.25</ele></trkpt>
   <trkpt lat="48.839" lon="15.62531"><ele>463.25</ele></trkpt>
   <trkpt lat="48.83974" lon="15.626391"><ele>462.75</ele></trkpt>
   <trkpt lat="48.839928" lon="15.626645"><ele>462.5</ele></trkpt>
   <trkpt lat="48.840031" lon="15.626771"><ele>462.5</ele></trkpt>
   <trkpt lat="48.840141" lon="15.626891"><ele>462.5</ele></trkpt>
   <trkpt lat="48.840286" lon="15.627015"><ele>462.75</ele></trkpt>
   <trkpt lat="48.840425" lon="15.6271"><ele>462.5</ele></trkpt>
   <trkpt lat="48.840561" lon="15.62717"><ele>463</ele></trkpt>
   <trkpt lat="48.840698" lon="15.627227"><ele>462.75</ele></trkpt>
   <trkpt lat="48.840851" lon="15.62727"><ele>463</ele></trkpt>
   <trkpt lat="48.840958" lon="15.627289"><ele>463</ele></trkpt>
   <trkpt lat="48.841121" lon="15.627291"><ele>463</ele></trkpt>
   <trkpt lat="48.841303" lon="15.627268"><ele>463</ele></trkpt>
   <trkpt lat="48.841823" lon="15.627177"><ele>462.5</ele></trkpt>
   <trkpt lat="48.843187" lon="15.626928"><ele>459</ele></trkpt>
   <trkpt lat="48.843851" lon="15.626805"><ele>457</ele></trkpt>
   <trkpt lat="48.844253" lon="15.626739"><ele>456.5</ele></trkpt>
   <trkpt lat="48.844439" lon="15.626721"><ele>456.5</ele></trkpt>
   <trkpt lat="48.844663" lon="15.626715"><ele>455.75</ele></trkpt>
   <trkpt lat="48.844875" lon="15.626731"><ele>455.5</ele></trkpt>
   <trkpt lat="48.845141" lon="15.626767"><ele>455.25</ele></trkpt>
   <trkpt lat="48.845425" lon="15.626834"><ele>455.75</ele></trkpt>
   <trkpt lat="48.84561" lon="15.626896"><ele>456</ele></trkpt>
   <trkpt lat="48.847297" lon="15.627504"><ele>453.75</ele></trkpt>
   <trkpt lat="48.847534" lon="15.627587"><ele>453.5</ele></trkpt>
   <trkpt lat="48.847798" lon="15.627701"><ele>452.75</ele></trkpt>
   <trkpt lat="48.84794" lon="15.627785"><ele>452.25</ele></trkpt>
   <trkpt lat="48.848115" lon="15.627912"><ele>451.5</ele></trkpt>
   <trkpt lat="48.848231" lon="15.628011"><ele>451.5</ele></trkpt>
   <trkpt lat="48.848273" lon="15.628054"><ele>451.75</ele></trkpt>
   <trkpt lat="48.848292" lon="15.628074"><ele>451.5</ele></trkpt>
   <trkpt lat="48.848396" lon="15.628181"><ele>451</ele></trkpt>
   <trkpt lat="48.848517" lon="15.628323"><ele>450.5</ele></trkpt>
   <trkpt lat="48.848644" lon="15.6285"><ele>450.75</ele></trkpt>
   <trkpt lat="48.848798" lon="15.62876"><ele>450.5</ele></trkpt>
   <trkpt lat="48.848926" lon="15.629013"><ele>451</ele></trkpt>
   <trkpt lat="48.849081" lon="15.629435"><ele>450.25</ele></trkpt>
   <trkpt lat="48.849095" lon="15.629482"><ele>450.5</ele></trkpt>
   <trkpt lat="48.849172" lon="15.629739"><ele>452.75</ele></trkpt>
   <trkpt lat="48.849257" lon="15.630058"><ele>451.5</ele></trkpt>
   <trkpt lat="48.849395" lon="15.630572"><ele>452.75</ele></trkpt>
   <trkpt lat="48.849766" lon="15.631973"><ele>452.75</ele></trkpt>
   <trkpt lat="48.84984" lon="15.632196"><ele>451.5</ele></trkpt>
   <trkpt lat="48.849916" lon="15.632376"><ele>451.5</ele></trkpt>
   <trkpt lat="48.849998" lon="15.632552"><ele>451.75</ele></trkpt>
   <trkpt lat="48.850144" lon="15.632792"><ele>452</ele></trkpt>
   <trkpt lat="48.850273" lon="15.632951"><ele>452.25</ele></trkpt>
   <trkpt lat="48.850383" lon="15.63307"><ele>452.5</ele></trkpt>
   <trkpt lat="48.850504" lon="15.633177"><ele>453.25</ele></trkpt>
   <trkpt lat="48.850624" lon="15.633262"><ele>453.5</ele></trkpt>
   <trkpt lat="48.850749" lon="15.633336"><ele>453.5</ele></trkpt>
   <trkpt lat="48.850867" lon="15.633388"><ele>454.25</ele></trkpt>
   <trkpt lat="48.85106" lon="15.633448"><ele>455</ele></trkpt>
   <trkpt lat="48.85129" lon="15.63346"><ele>454.75</ele></trkpt>
   <trkpt lat="48.851457" lon="15.633446"><ele>454</ele></trkpt>
   <trkpt lat="48.851676" lon="15.63338"><ele>453</ele></trkpt>
   <trkpt lat="48.852724" lon="15.632936"><ele>445.5</ele></trkpt>
   <trkpt lat="48.853082" lon="15.632772"><ele>446.75</ele></trkpt>
   <trkpt lat="48.853285" lon="15.632652"><ele>446.5</ele></trkpt>
   <trkpt lat="48.853439" lon="15.632541"><ele>446.25</ele></trkpt>
   <trkpt lat="48.853596" lon="15.632386"><ele>446.25</ele></trkpt>
   <trkpt lat="48.854085" lon="15.631782"><ele>443.75</ele></trkpt>
   <trkpt lat="48.854169" lon="15.631691"><ele>443.75</ele></trkpt>
   <trkpt lat="48.854243" lon="15.631626"><ele>443.25</ele></trkpt>
   <trkpt lat="48.854279" lon="15.631594"><ele>443</ele></trkpt>
   <trkpt lat="48.854381" lon="15.631519"><ele>442.5</ele></trkpt>
   <trkpt lat="48.854505" lon="15.631439"><ele>442.25</ele></trkpt>
   <trkpt lat="48.854617" lon="15.631382"><ele>442.25</ele></trkpt>
   <trkpt lat="48.854786" lon="15.631319"><ele>442</ele></trkpt>
   <trkpt lat="48.854919" lon="15.63128"><ele>441.5</ele></trkpt>
   <trkpt lat="48.855053" lon="15.631253"><ele>441.25</ele></trkpt>
   <trkpt lat="48.855166" lon="15.63124"><ele>440.75</ele></trkpt>
   <trkpt lat="48.858578" lon="15.630648"><ele>428.5</ele></trkpt>
   <trkpt lat="48.85874" lon="15.630617"><ele>428.75</ele></trkpt>
   <trkpt lat="48.858769" lon="15.630612"><ele>429</ele></trkpt>
   <trkpt lat="48.85924" lon="15.630534"><ele>428.75</ele></trkpt>
   <trkpt lat="48.860042" lon="15.630395"><ele>428</ele></trkpt>
   <trkpt lat="48.860405" lon="15.630322"><ele>426.75</ele></trkpt>
   <trkpt lat="48.860504" lon="15.630295"><ele>426.25</ele></trkpt>
   <trkpt lat="48.860644" lon="15.630241"><ele>425.25</ele></trkpt>
   <trkpt lat="48.860759" lon="15.630182"><ele>425</ele></trkpt>
   <trkpt lat="48.860901" lon="15.630086"><ele>424.5</ele></trkpt>
   <trkpt lat="48.861005" lon="15.630009"><ele>423.75</ele></trkpt>
   <trkpt lat="48.861051" lon="15.629969"><ele>423.25</ele></trkpt>
   <trkpt lat="48.861107" lon="15.629916"><ele>422.5</ele></trkpt>
   <trkpt lat="48.861862" lon="15.629113"><ele>416.5</ele></trkpt>
   <trkpt lat="48.86241" lon="15.628518"><ele>417.75</ele></trkpt>
   <trkpt lat="48.862456" lon="15.628469"><ele>418</ele></trkpt>
   <trkpt lat="48.862541" lon="15.628378"><ele>418.5</ele></trkpt>
   <trkpt lat="48.863012" lon="15.627872"><ele>417</ele></trkpt>
   <trkpt lat="48.863096" lon="15.627782"><ele>416.25</ele></trkpt>
   <trkpt lat="48.863117" lon="15.627759"><ele>415.75</ele></trkpt>
   <trkpt lat="48.863313" lon="15.627509"><ele>415</ele></trkpt>
   <trkpt lat="48.863388" lon="15.627395"><ele>414.75</ele></trkpt>
   <trkpt lat="48.863459" lon="15.627269"><ele>414.25</ele></trkpt>
   <trkpt lat="48.863523" lon="15.627151"><ele>414.25</ele></trkpt>
   <trkpt lat="48.863595" lon="15.626996"><ele>414.75</ele></trkpt>
   <trkpt lat="48.86365" lon="15.626846"><ele>414.25</ele></trkpt>
   <trkpt lat="48.863715" lon="15.626638"><ele>413.75</ele></trkpt>
   <trkpt lat="48.86386" lon="15.626018"><ele>414.25</ele></trkpt>
   <trkpt lat="48.864144" lon="15.624753"><ele>414.25</ele></trkpt>
   <trkpt lat="48.864212" lon="15.624457"><ele>416.25</ele></trkpt>
  </trkseg>
 </trk>
</gpx>