<?xml version="1.0" encoding="UTF-8"?>
<!-- track-length = 23516 filtered ascend = 59 plain-ascend = 8 cost=23516 energy=0.3kwh time=31m 21s -->
<gpx 
 xmlns="http://www.topografix.com/GPX/1/1" 
 xmlns:xsi="http://www.w3.org/2001/XMLSchema-instance" 
 xsi:schemaLocation="http://www.topografix.com/GPX/1/1 http://www.topografix.com/GPX/1/1/gpx.xsd" 
 version="1.1" 
 creator="BRouter-Web 0.18.1">
 <trk>
  <name>restrecke</name>
  <trkseg>
   <trkpt lat="51.126863" lon="13.573815"><ele>109</ele></trkpt>
   <trkpt lat="51.127349" lon="13.57344"><ele>109</ele></trkpt>
   <trkpt lat="51.127822" lon="13.57315"><ele>108.5</ele></trkpt>
   <trkpt lat="51.128401" lon="13.572842"><ele>107.25</ele></trkpt>
   <trkpt lat="51.128994" lon="13.572588"><ele>107.5</ele></trkpt>
   <trkpt lat="51.131989" lon="13.571477"><ele>109.25</ele></trkpt>
   <trkpt lat="51.135134" lon="13.570309"><ele>109.5</ele></trkpt>
   <trkpt lat="51.135161" lon="13.570301"><ele>109.5</ele></trkpt>
   <trkpt lat="51.135781" lon="13.57007"><ele>110.75</ele></trkpt>
   <trkpt lat="51.135957" lon="13.570007"><ele>111</ele></trkpt>
   <trkpt lat="51.136265" lon="13.569912"><ele>110.75</ele></trkpt>
   <trkpt lat="51.136459" lon="13.569873"><ele>110.75</ele></trkpt>
   <trkpt lat="51.136772" lon="13.569772"><ele>111</ele></trkpt>
   <trkpt lat="51.137439" lon="13.569526"><ele>112.25</ele></trkpt>
   <trkpt lat="51.138235" lon="13.569233"><ele>111</ele></trkpt>
   <trkpt lat="51.13832" lon="13.569202"><ele>111</ele></trkpt>
   <trkpt lat="51.138638" lon="13.569087"><ele>111.25</ele></trkpt>
   <trkpt lat="51.13943" lon="13.568791"><ele>111.75</ele></trkpt>
   <trkpt lat="51.140125" lon="13.568536"><ele>111.25</ele></trkpt>
   <trkpt lat="51.146935" lon="13.566027"><ele>111.25</ele></trkpt>
   <trkpt lat="51.147313" lon="13.565886"><ele>111</ele></trkpt>
   <trkpt lat="51.148984" lon="13.565267"><ele>113.25</ele></trkpt>
   <trkpt lat="51.150513" lon="13.564704"><ele>113.5</ele></trkpt>
   <trkpt lat="51.150649" lon="13.564654"><ele>113.5</ele></trkpt>
   <trkpt lat="51.150821" lon="13.564587"><ele>113.5</ele></trkpt>
   <trkpt lat="51.153345" lon="13.563653"><ele>116.75</ele></trkpt>
   <trkpt lat="51.153638" lon="13.563543"><ele>116.5</ele></trkpt>
   <trkpt lat="51.154297" lon="13.563302"><ele>116</ele></trkpt>
   <trkpt lat="51.155827" lon="13.562743"><ele>115.5</ele></trkpt>
   <trkpt lat="51.157153" lon="13.562252"><ele>117</ele></trkpt>
   <trkpt lat="51.158279" lon="13.561838"><ele>117.75</ele></trkpt>
   <trkpt lat="51.158386" lon="13.561798"><ele>118</ele></trkpt>
   <trkpt lat="51.159614" lon="13.561342"><ele>118.75</ele></trkpt>
   <trkpt lat="51.15989" lon="13.561241"><ele>119.25</ele></trkpt>
   <trkpt lat="51.15998" lon="13.561208"><ele>119.25</ele></trkpt>
   <trkpt lat="51.16025" lon="13.561108"><ele>119.5</ele></trkpt>
   <trkpt lat="51.161136" lon="13.560778"><ele>120.25</ele></trkpt>
   <trkpt lat="51.162046" lon="13.560445"><ele>120.5</ele></trkpt>
   <trkpt lat="51.162276" lon="13.56036"><ele>120.75</ele></trkpt>
   <trkpt lat="51.163195" lon="13.560021"><ele>121.75</ele></trkpt>
   <trkpt lat="51.164338" lon="13.559597"><ele>122.25</ele></trkpt>
   <trkpt lat="51.164632" lon="13.5595"><ele>122.75</ele></trkpt>
   <trkpt lat="51.164977" lon="13.559376"><ele>123</ele></trkpt>
   <trkpt lat="51.165485" lon="13.559226"><ele>124</ele></trkpt>
   <trkpt lat="51.165986" lon="13.559102"><ele>124.75</ele></trkpt>
   <trkpt lat="51.166162" lon="13.559074"><ele>124.5</ele></trkpt>
   <trkpt lat="51.166516" lon="13.559022"><ele>124</ele></trkpt>
   <trkpt lat="51.166879" lon="13.55899"><ele>123.75</ele></trkpt>
   <trkpt lat="51.167426" lon="13.558985"><ele>123.75</ele></trkpt>
   <trkpt lat="51.167723" lon="13.558998"><ele>124</ele></trkpt>
   <trkpt lat="51.168014" lon="13.559027"><ele>124.25</ele></trkpt>
   <trkpt lat="51.169173" lon="13.559222"><ele>125</ele></trkpt>
   <trkpt lat="51.169762" lon="13.559266"><ele>125.75</ele></trkpt>
   <trkpt lat="51.170212" lon="13.559344"><ele>126.25</ele></trkpt>
   <trkpt lat="51.171273" lon="13.559538"><ele>127.75</ele></trkpt>
   <trkpt lat="51.174162" lon="13.560062"><ele>129</ele></trkpt>
   <trkpt lat="51.174598" lon="13.560131"><ele>130.25</ele></trkpt>
   <trkpt lat="51.175289" lon="13.560222"><ele>131</ele></trkpt>
   <trkpt lat="51.175533" lon="13.560257"><ele>130.75</ele></trkpt>
   <trkpt lat="51.175949" lon="13.560315"><ele>130.75</ele></trkpt>
   <trkpt lat="51.176676" lon="13.560438"><ele>131.5</ele></trkpt>
   <trkpt lat="51.177353" lon="13.560574"><ele>132.25</ele></trkpt>
   <trkpt lat="51.178387" lon="13.560799"><ele>134</ele></trkpt>
   <trkpt lat="51.178958" lon="13.56093"><ele>135.75</ele></trkpt>
   <trkpt lat="51.179037" lon="13.560945"><ele>135.75</ele></trkpt>
   <trkpt lat="51.180037" lon="13.561131"><ele>136.75</ele></trkpt>
   <trkpt lat="51.181703" lon="13.561436"><ele>139.5</ele></trkpt>
   <trkpt lat="51.18225" lon="13.561509"><ele>138.5</ele></trkpt>
   <trkpt lat="51.18284" lon="13.561544"><ele>138.25</ele></trkpt>
   <trkpt lat="51.183356" lon="13.561538"><ele>138.75</ele></trkpt>
   <trkpt lat="51.183666" lon="13.561512"><ele>138.25</ele></trkpt>
   <trkpt lat="51.183972" lon="13.561471"><ele>137.75</ele></trkpt>
   <trkpt lat="51.184277" lon="13.561411"><ele>137.25</ele></trkpt>
   <trkpt lat="51.18478" lon="13.56128"><ele>136</ele></trkpt>
   <trkpt lat="51.185275" lon="13.561121"><ele>136</ele></trkpt>
   <trkpt lat="51.185681" lon="13.560954"><ele>136.75</ele></trkpt>
   <trkpt lat="51.186011" lon="13.560802"><ele>136.75</ele></trkpt>
   <trkpt lat="51.186489" lon="13.560538"><ele>136.75</ele></trkpt>
   <trkpt lat="51.186897" lon="13.560285"><ele>137</ele></trkpt>
   <trkpt lat="51.187184" lon="13.560083"><ele>137</ele></trkpt>
   <trkpt lat="51.187495" lon="13.559847"><ele>136.75</ele></trkpt>
   <trkpt lat="51.187573" lon="13.559785"><ele>136.75</ele></trkpt>
   <trkpt lat="51.187959" lon="13.559453"><ele>136.75</ele></trkpt>
   <trkpt lat="51.188395" lon="13.559039"><ele>137</ele></trkpt>
   <trkpt lat="51.188584" lon="13.558846"><ele>137</ele></trkpt>
   <trkpt lat="51.188768" lon="13.558642"><ele>137</ele></trkpt>
   <trkpt lat="51.189127" lon="13.558219"><ele>136.75</ele></trkpt>
   <trkpt lat="51.189471" lon="13.557782"><ele>137</ele></trkpt>
   <trkpt lat="51.189803" lon="13.557328"><ele>137.25</ele></trkpt>
   <trkpt lat="51.190085" lon="13.556905"><ele>137.25</ele></trkpt>
   <trkpt lat="51.19035" lon="13.556465"><ele>137.5</ele></trkpt>
   <trkpt lat="51.190548" lon="13.556127"><ele>138</ele></trkpt>
   <trkpt lat="51.190724" lon="13.555798"><ele>138.5</ele></trkpt>
   <trkpt lat="51.191052" lon="13.555149"><ele>139.5</ele></trkpt>
   <trkpt lat="51.191286" lon="13.554647"><ele>140.5</ele></trkpt>
   <trkpt lat="51.1915" lon="13.554133"><ele>141.5</ele></trkpt>
   <trkpt lat="51.19175" lon="13.553473"><ele>142.75</ele></trkpt>
   <trkpt lat="51.191986" lon="13.552792"><ele>144.5</ele></trkpt>
   <trkpt lat="51.192166" lon="13.552224"><ele>145.75</ele></trkpt>
   <trkpt lat="51.192328" lon="13.551644"><ele>146.75</ele></trkpt>
   <trkpt lat="51.192469" lon="13.551084"><ele>147.5</ele></trkpt>
   <trkpt lat="51.1926" lon="13.550489"><ele>148.5</ele></trkpt>
   <trkpt lat="51.192727" lon="13.549869"><ele>149.75</ele></trkpt>
   <trkpt lat="51.19283" lon="13.549221"><ele>151.5</ele></trkpt>
   <trkpt lat="51.193079" lon="13.547541"><ele>153.75</ele></trkpt>
   <trkpt lat="51.19364" lon="13.543583"><ele>159.25</ele></trkpt>
   <trkpt lat="51.194517" lon="13.537393"><ele>160.75</ele></trkpt>
   <trkpt lat="51.194809" lon="13.535432"><ele>161</ele></trkpt>
   <trkpt lat="51.194917" lon="13.534765"><ele>160.5</ele></trkpt>
   <trkpt lat="51.195087" lon="13.53386"><ele>160.25</ele></trkpt>
   <trkpt lat="51.195215" lon="13.533237"><ele>160.25</ele></trkpt>
   <trkpt lat="51.195364" lon="13.532639"><ele>158.75</ele></trkpt>
   <trkpt lat="51.195527" lon="13.532042"><ele>156.75</ele></trkpt>
   <trkpt lat="51.195666" lon="13.531579"><ele>155</ele></trkpt>
   <trkpt lat="51.19594" lon="13.530731"><ele>153.75</ele></trkpt>
   <trkpt lat="51.196244" lon="13.529929"><ele>151.75</ele></trkpt>
   <trkpt lat="51.196567" lon="13.529167"><ele>150</ele></trkpt>
   <trkpt lat="51.196972" lon="13.528334"><ele>149</ele></trkpt>
   <trkpt lat="51.19736" lon="13.527629"><ele>148.25</ele></trkpt>
   <trkpt lat="51.19743" lon="13.527513"><ele>148</ele></trkpt>
   <trkpt lat="51.197663" lon="13.527146"><ele>147.25</ele></trkpt>
   <trkpt lat="51.197962" lon="13.526697"><ele>146.25</ele></trkpt>
   <trkpt lat="51.198263" lon="13.526273"><ele>146</ele></trkpt>
   <trkpt lat="51.198593" lon="13.52585"><ele>145.5</ele></trkpt>
   <trkpt lat="51.198925" lon="13.525455"><ele>145.25</ele></trkpt>
   <trkpt lat="51.199263" lon="13.525091"><ele>144.75</ele></trkpt>
   <trkpt lat="51.199746" lon="13.524624"><ele>143.75</ele></trkpt>
   <trkpt lat="51.200148" lon="13.524275"><ele>143</ele></trkpt>
   <trkpt lat="51.200356" lon="13.524107"><ele>143</ele></trkpt>
   <trkpt lat="51.200932" lon="13.523703"><ele>143</ele></trkpt>
   <trkpt lat="51.201369" lon="13.523433"><ele>143</ele></trkpt>
   <trkpt lat="51.201698" lon="13.523251"><ele>142.75</ele></trkpt>
   <trkpt lat="51.202178" lon="13.523026"><ele>142.5</ele></trkpt>
   <trkpt lat="51.202682" lon="13.522836"><ele>142.5</ele></trkpt>
   <trkpt lat="51.20323" lon="13.52267"><ele>142.75</ele></trkpt>
   <trkpt lat="51.203833" lon="13.522552"><ele>142.75</ele></trkpt>
   <trkpt lat="51.204366" lon="13.522492"><ele>143</ele></trkpt>
   <trkpt lat="51.204915" lon="13.522481"><ele>143</ele></trkpt>
   <trkpt lat="51.205457" lon="13.52251"><ele>143</ele></trkpt>
   <trkpt lat="51.205992" lon="13.522588"><ele>142.75</ele></trkpt>
   <trkpt lat="51.206367" lon="13.522667"><ele>142.75</ele></trkpt>
   <trkpt lat="51.206717" lon="13.52276"><ele>142.5</ele></trkpt>
   <trkpt lat="51.207332" lon="13.522962"><ele>143</ele></trkpt>
   <trkpt lat="51.207755" lon="13.523133"><ele>143</ele></trkpt>
   <trkpt lat="51.208544" lon="13.523533"><ele>143</ele></trkpt>
   <trkpt lat="51.209756" lon="13.524245"><ele>142</ele></trkpt>
   <trkpt lat="51.213574" lon="13.526472"><ele>140.25</ele></trkpt>
   <trkpt lat="51.218192" lon="13.529186"><ele>139</ele></trkpt>
   <trkpt lat="51.221062" lon="13.530866"><ele>138</ele></trkpt>
   <trkpt lat="51.222371" lon="13.531628"><ele>138</ele></trkpt>
   <trkpt lat="51.224837" lon="13.533087"><ele>138</ele></trkpt>
   <trkpt lat="51.226038" lon="13.533788"><ele>136</ele></trkpt>
   <trkpt lat="51.226287" lon="13.533933"><ele>136</ele></trkpt>
   <trkpt lat="51.226742" lon="13.534206"><ele>136</ele></trkpt>
   <trkpt lat="51.228718" lon="13.535359"><ele>135.5</ele></trkpt>
   <trkpt lat="51.22965" lon="13.535861"><ele>135.5</ele></trkpt>
   <trkpt lat="51.230599" lon="13.536213"><ele>135.5</ele></trkpt>
   <trkpt lat="51.231024" lon="13.536329"><ele>135.5</ele></trkpt>
   <trkpt lat="51.231352" lon="13.536401"><ele>135.5</ele></trkpt>
   <trkpt lat="51.231781" lon="13.53645"><ele>135.75</ele></trkpt>
   <trkpt lat="51.232489" lon="13.536487"><ele>135.25</ele></trkpt>
   <trkpt lat="51.232662" lon="13.536487"><ele>135</ele></trkpt>
   <trkpt lat="51.233483" lon="13.536409"><ele>133.75</ele></trkpt>
   <trkpt lat="51.234033" lon="13.536295"><ele>132.75</ele></trkpt>
   <trkpt lat="51.234195" lon="13.536252"><ele>132.5</ele></trkpt>
   <trkpt lat="51.235073" lon="13.535965"><ele>134.75</ele></trkpt>
   <trkpt lat="51.235628" lon="13.535714"><ele>135.75</ele></trkpt>
   <trkpt lat="51.236192" lon="13.535404"><ele>135.5</ele></trkpt>
   <trkpt lat="51.236419" lon="13.535252"><ele>135.25</ele></trkpt>
   <trkpt lat="51.236776" lon="13.535004"><ele>134.75</ele></trkpt>
   <trkpt lat="51.237298" lon="13.534592"><ele>134.75</ele></trkpt>
   <trkpt lat="51.237799" lon="13.534144"><ele>133.5</ele></trkpt>
   <trkpt lat="51.238246" lon="13.533684"><ele>131.75</ele></trkpt>
   <trkpt lat="51.239006" lon="13.532765"><ele>132.5</ele></trkpt>
   <trkpt lat="51.239376" lon="13.532249"><ele>132.5</ele></trkpt>
   <trkpt lat="51.23979" lon="13.531585"><ele>132.25</ele></trkpt>
   <trkpt lat="51.240545" lon="13.530197"><ele>132.25</ele></trkpt>
   <trkpt lat="51.240859" lon="13.529555"><ele>132.5</ele></trkpt>
   <trkpt lat="51.24092" lon="13.529426"><ele>132.5</ele></trkpt>
   <trkpt lat="51.241605" lon="13.527972"><ele>134.75</ele></trkpt>
   <trkpt lat="51.244037" lon="13.522841"><ele>136</ele></trkpt>
   <trkpt lat="51.245293" lon="13.520179"><ele>140.25</ele></trkpt>
   <trkpt lat="51.245369" lon="13.520018"><ele>140.25</ele></trkpt>
   <trkpt lat="51.245885" lon="13.518939"><ele>143</ele></trkpt>
   <trkpt lat="51.245958" lon="13.518787"><ele>143</ele></trkpt>
   <trkpt lat="51.246118" lon="13.518444"><ele>143</ele></trkpt>
   <trkpt lat="51.24714" lon="13.516283"><ele>143.75</ele></trkpt>
   <trkpt lat="51.247758" lon="13.515008"><ele>144.25</ele></trkpt>
   <trkpt lat="51.248625" lon="13.513263"><ele>143.25</ele></trkpt>
   <trkpt lat="51.248806" lon="13.512902"><ele>142.75</ele></trkpt>
   <trkpt lat="51.249421" lon="13.511634"><ele>142.75</ele></trkpt>
   <trkpt lat="51.249946" lon="13.510518"><ele>143.5</ele></trkpt>
   <trkpt lat="51.250767" lon="13.508785"><ele>145</ele></trkpt>
   <trkpt lat="51.251403" lon="13.507338"><ele>146.75</ele></trkpt>
   <trkpt lat="51.25157" lon="13.506973"><ele>146.75</ele></trkpt>
   <trkpt lat="51.251775" lon="13.50654"><ele>147</ele></trkpt>
   <trkpt lat="51.252148" lon="13.505853"><ele>147.25</ele></trkpt>
   <trkpt lat="51.252302" lon="13.505529"><ele>147.25</ele></trkpt>
   <trkpt lat="51.253081" lon="13.503888"><ele>147</ele></trkpt>
   <trkpt lat="51.254575" lon="13.500721"><ele>148</ele></trkpt>
   <trkpt lat="51.256364" lon="13.496888"><ele>149</ele></trkpt>
   <trkpt lat="51.256789" lon="13.495948"><ele>148.5</ele></trkpt>
   <trkpt lat="51.256929" lon="13.495646"><ele>148.25</ele></trkpt>
   <trkpt lat="51.256954" lon="13.495592"><ele>148.25</ele></trkpt>
   <trkpt lat="51.257107" lon="13.495265"><ele>147.75</ele></trkpt>
   <trkpt lat="51.257925" lon="13.493524"><ele>147</ele></trkpt>
   <trkpt lat="51.258736" lon="13.491792"><ele>146.5</ele></trkpt>
   <trkpt lat="51.260249" lon="13.488592"><ele>142.5</ele></trkpt>
   <trkpt lat="51.261056" lon="13.486853"><ele>142.5</ele></trkpt>
   <trkpt lat="51.261306" lon="13.486331"><ele>142.25</ele></trkpt>
   <trkpt lat="51.263108" lon="13.482447"><ele>143</ele></trkpt>
   <trkpt lat="51.263517" lon="13.481502"><ele>142.75</ele></trkpt>
   <trkpt lat="51.264027" lon="13.480277"><ele>143</ele></trkpt>
   <trkpt lat="51.265929" lon="13.475578"><ele>144.75</ele></trkpt>
   <trkpt lat="51.269838" lon="13.465966"><ele>139</ele></trkpt>
   <trkpt lat="51.270223" lon="13.465019"><ele>137.25</ele></trkpt>
   <trkpt lat="51.271104" lon="13.462855"><ele>134.25</ele></trkpt>
   <trkpt lat="51.271847" lon="13.461026"><ele>132.25</ele></trkpt>
   <trkpt lat="51.272133" lon="13.460275"><ele>131.25</ele></trkpt>
   <trkpt lat="51.272268" lon="13.459915"><ele>130.75</ele></trkpt>
   <trkpt lat="51.272943" lon="13.458079"><ele>130.75</ele></trkpt>
   <trkpt lat="51.273381" lon="13.456992"><ele>131</ele></trkpt>
   <trkpt lat="51.273586" lon="13.456531"><ele>130.75</ele></trkpt>
   <trkpt lat="51.273776" lon="13.456074"><ele>130.25</ele></trkpt>
   <trkpt lat="51.274125" lon="13.455286"><ele>130</ele></trkpt>
   <trkpt lat="51.274461" lon="13.454481"><ele>129</ele></trkpt>
   <trkpt lat="51.27454" lon="13.454302"><ele>129</ele></trkpt>
   <trkpt lat="51.274658" lon="13.454013"><ele>129</ele></trkpt>
   <trkpt lat="51.274805" lon="13.453642"><ele>129</ele></trkpt>
   <trkpt lat="51.275791" lon="13.451315"><ele>127.5</ele></trkpt>
   <trkpt lat="51.276256" lon="13.45017"><ele>126.5</ele></trkpt>
   <trkpt lat="51.276316" lon="13.450021"><ele>126.5</ele></trkpt>
   <trkpt lat="51.276418" lon="13.449766"><ele>126.25</ele></trkpt>
   <trkpt lat="51.276449" lon="13.449684"><ele>126.25</ele></trkpt>
   <trkpt lat="51.276943" lon="13.448509"><ele>125.25</ele></trkpt>
   <trkpt lat="51.278061" lon="13.445772"><ele>124.75</ele></trkpt>
   <trkpt lat="51.278108" lon="13.445657"><ele>124.75</ele></trkpt>
   <trkpt lat="51.279336" lon="13.442638"><ele>122.75</ele></trkpt>
   <trkpt lat="51.279478" lon="13.442289"><ele>122.5</ele></trkpt>
   <trkpt lat="51.27959" lon="13.442011"><ele>122.25</ele></trkpt>
   <trkpt lat="51.279787" lon="13.441528"><ele>122</ele></trkpt>
   <trkpt lat="51.282152" lon="13.435666"><ele>119</ele></trkpt>
   <trkpt lat="51.284465" lon="13.429935"><ele>117.75</ele></trkpt>
   <trkpt lat="51.284575" lon="13.429659"><ele>117.5</ele></trkpt>
   <trkpt lat="51.284649" lon="13.429483"><ele>117.25</ele></trkpt>
   <trkpt lat="51.284682" lon="13.429403"><ele>117.25</ele></trkpt>
   <trkpt lat="51.285804" lon="13.426627"><ele>116.5</ele></trkpt>
  </trkseg>
 </trk>
</gpx>