<?xml version="1.0" encoding="UTF-8"?>
<!-- track-length = 61824 filtered ascend = 40 plain-ascend = -30 cost=61824 energy=0.7kwh time=1h 22m 25s -->
<gpx 
 xmlns="http://www.topografix.com/GPX/1/1" 
 xmlns:xsi="http://www.w3.org/2001/XMLSchema-instance" 
 xsi:schemaLocation="http://www.topografix.com/GPX/1/1 http://www.topografix.com/GPX/1/1/gpx.xsd" 
 version="1.1" 
 creator="BRouter-Web 0.18.1">
 <trk>
  <name>Ringsted - Kopenhagen</name>
  <trkseg>
   <trkpt lat="55.43784" lon="11.785674"><ele>35.75</ele></trkpt>
   <trkpt lat="55.437859" lon="11.786122"><ele>36</ele></trkpt>
   <trkpt lat="55.437931" lon="11.787772"><ele>36.5</ele></trkpt>
   <trkpt lat="55.438" lon="11.788892"><ele>36.75</ele></trkpt>
   <trkpt lat="55.438042" lon="11.789441"><ele>37</ele></trkpt>
   <trkpt lat="55.438124" lon="11.790465"><ele>38</ele></trkpt>
   <trkpt lat="55.438216" lon="11.791831"><ele>40</ele></trkpt>
   <trkpt lat="55.438271" lon="11.793107"><ele>40.25</ele></trkpt>
   <trkpt lat="55.438332" lon="11.794558"><ele>40.25</ele></trkpt>
   <trkpt lat="55.438456" lon="11.797368"><ele>43.25</ele></trkpt>
   <trkpt lat="55.438802" lon="11.804328"><ele>46.5</ele></trkpt>
   <trkpt lat="55.43882" lon="11.804698"><ele>46.25</ele></trkpt>
   <trkpt lat="55.438853" lon="11.805228"><ele>46.25</ele></trkpt>
   <trkpt lat="55.43895" lon="11.806493"><ele>45.75</ele></trkpt>
   <trkpt lat="55.439005" lon="11.807381"><ele>45.75</ele></trkpt>
   <trkpt lat="55.439031" lon="11.807911"><ele>45.25</ele></trkpt>
   <trkpt lat="55.439086" lon="11.809101"><ele>45</ele></trkpt>
   <trkpt lat="55.439159" lon="11.810676"><ele>44</ele></trkpt>
   <trkpt lat="55.439298" lon="11.813636"><ele>41.25</ele></trkpt>
   <trkpt lat="55.43946" lon="11.818344"><ele>42</ele></trkpt>
   <trkpt lat="55.439495" lon="11.8192"><ele>42</ele></trkpt>
   <trkpt lat="55.439542" lon="11.820063"><ele>42.75</ele></trkpt>
   <trkpt lat="55.439642" lon="11.821439"><ele>43.75</ele></trkpt>
   <trkpt lat="55.439746" lon="11.822593"><ele>44.25</ele></trkpt>
   <trkpt lat="55.439901" lon="11.823957"><ele>43.75</ele></trkpt>
   <trkpt lat="55.44007" lon="11.825277"><ele>42</ele></trkpt>
   <trkpt lat="55.440108" lon="11.825546"><ele>42</ele></trkpt>
   <trkpt lat="55.440228" lon="11.826384"><ele>41.5</ele></trkpt>
   <trkpt lat="55.440885" lon="11.830803"><ele>42</ele></trkpt>
   <trkpt lat="55.442789" lon="11.843742"><ele>40.25</ele></trkpt>
   <trkpt lat="55.445616" lon="11.86294"><ele>36.25</ele></trkpt>
   <trkpt lat="55.448505" lon="11.882616"><ele>33.75</ele></trkpt>
   <trkpt lat="55.448826" lon="11.884915"><ele>31.25</ele></trkpt>
   <trkpt lat="55.449244" lon="11.888163"><ele>27.25</ele></trkpt>
   <trkpt lat="55.449634" lon="11.890903"><ele>27.25</ele></trkpt>
   <trkpt lat="55.449879" lon="11.892462"><ele>25.5</ele></trkpt>
   <trkpt lat="55.450144" lon="11.894057"><ele>25.5</ele></trkpt>
   <trkpt lat="55.450237" lon="11.894591"><ele>25.5</ele></trkpt>
   <trkpt lat="55.450393" lon="11.895459"><ele>25.75</ele></trkpt>
   <trkpt lat="55.450773" lon="11.897456"><ele>27</ele></trkpt>
   <trkpt lat="55.451026" lon="11.898694"><ele>27.75</ele></trkpt>
   <trkpt lat="55.451294" lon="11.89994"><ele>27.25</ele></trkpt>
   <trkpt lat="55.451553" lon="11.901091"><ele>26.75</ele></trkpt>
   <trkpt lat="55.451826" lon="11.902236"><ele>26.5</ele></trkpt>
   <trkpt lat="55.452136" lon="11.903497"><ele>25.5</ele></trkpt>
   <trkpt lat="55.452392" lon="11.90447"><ele>25.5</ele></trkpt>
   <trkpt lat="55.452657" lon="11.905444"><ele>26.5</ele></trkpt>
   <trkpt lat="55.453173" lon="11.907251"><ele>30</ele></trkpt>
   <trkpt lat="55.454928" lon="11.913052"><ele>34.5</ele></trkpt>
   <trkpt lat="55.455321" lon="11.91439"><ele>35.25</ele></trkpt>
   <trkpt lat="55.455786" lon="11.916038"><ele>36.25</ele></trkpt>
   <trkpt lat="55.456123" lon="11.917379"><ele>35.75</ele></trkpt>
   <trkpt lat="55.456329" lon="11.91825"><ele>36</ele></trkpt>
   <trkpt lat="55.456717" lon="11.920003"><ele>33.75</ele></trkpt>
   <trkpt lat="55.456906" lon="11.920901"><ele>32.75</ele></trkpt>
   <trkpt lat="55.457085" lon="11.921798"><ele>32.5</ele></trkpt>
   <trkpt lat="55.457253" lon="11.922687"><ele>32.5</ele></trkpt>
   <trkpt lat="55.457411" lon="11.923608"><ele>32</ele></trkpt>
   <trkpt lat="55.45765" lon="11.925072"><ele>32.5</ele></trkpt>
   <trkpt lat="55.457868" lon="11.926582"><ele>31.5</ele></trkpt>
   <trkpt lat="55.458065" lon="11.928076"><ele>30.75</ele></trkpt>
   <trkpt lat="55.458238" lon="11.929601"><ele>30.5</ele></trkpt>
   <trkpt lat="55.45838" lon="11.931069"><ele>30.5</ele></trkpt>
   <trkpt lat="55.458502" lon="11.93254"><ele>29.75</ele></trkpt>
   <trkpt lat="55.458603" lon="11.934053"><ele>29.5</ele></trkpt>
   <trkpt lat="55.45868" lon="11.935643"><ele>29.5</ele></trkpt>
   <trkpt lat="55.458714" lon="11.93657"><ele>29</ele></trkpt>
   <trkpt lat="55.458741" lon="11.937515"><ele>28.75</ele></trkpt>
   <trkpt lat="55.458758" lon="11.93844"><ele>28.5</ele></trkpt>
   <trkpt lat="55.458768" lon="11.939431"><ele>28.5</ele></trkpt>
   <trkpt lat="55.458763" lon="11.940568"><ele>28</ele></trkpt>
   <trkpt lat="55.458749" lon="11.941689"><ele>26.25</ele></trkpt>
   <trkpt lat="55.458706" lon="11.943348"><ele>26</ele></trkpt>
   <trkpt lat="55.458637" lon="11.945119"><ele>27.5</ele></trkpt>
   <trkpt lat="55.458448" lon="11.949417"><ele>29.75</ele></trkpt>
   <trkpt lat="55.458234" lon="11.953964"><ele>28.75</ele></trkpt>
   <trkpt lat="55.457836" lon="11.962695"><ele>27.5</ele></trkpt>
   <trkpt lat="55.457768" lon="11.96442"><ele>26.5</ele></trkpt>
   <trkpt lat="55.457718" lon="11.966132"><ele>26</ele></trkpt>
   <trkpt lat="55.457713" lon="11.966365"><ele>26</ele></trkpt>
   <trkpt lat="55.457699" lon="11.967355"><ele>26</ele></trkpt>
   <trkpt lat="55.457701" lon="11.968956"><ele>26.75</ele></trkpt>
   <trkpt lat="55.457727" lon="11.970557"><ele>27.25</ele></trkpt>
   <trkpt lat="55.457776" lon="11.972114"><ele>28.25</ele></trkpt>
   <trkpt lat="55.45785" lon="11.973666"><ele>27</ele></trkpt>
   <trkpt lat="55.458044" lon="11.976659"><ele>26.5</ele></trkpt>
   <trkpt lat="55.458226" lon="11.979298"><ele>27.5</ele></trkpt>
   <trkpt lat="55.458325" lon="11.981027"><ele>29</ele></trkpt>
   <trkpt lat="55.458399" lon="11.98258"><ele>29.75</ele></trkpt>
   <trkpt lat="55.458468" lon="11.984833"><ele>30</ele></trkpt>
   <trkpt lat="55.458571" lon="11.989448"><ele>29</ele></trkpt>
   <trkpt lat="55.458613" lon="11.990572"><ele>29.25</ele></trkpt>
   <trkpt lat="55.458666" lon="11.991674"><ele>28.25</ele></trkpt>
   <trkpt lat="55.45874" lon="11.992839"><ele>28.25</ele></trkpt>
   <trkpt lat="55.458821" lon="11.993963"><ele>28</ele></trkpt>
   <trkpt lat="55.459025" lon="11.996221"><ele>27.75</ele></trkpt>
   <trkpt lat="55.459254" lon="11.998458"><ele>27</ele></trkpt>
   <trkpt lat="55.459474" lon="12.000695"><ele>27.75</ele></trkpt>
   <trkpt lat="55.459759" lon="12.00334"><ele>27</ele></trkpt>
   <trkpt lat="55.459927" lon="12.004687"><ele>24</ele></trkpt>
   <trkpt lat="55.460102" lon="12.005892"><ele>22.75</ele></trkpt>
   <trkpt lat="55.460338" lon="12.007376"><ele>22.75</ele></trkpt>
   <trkpt lat="55.460559" lon="12.008627"><ele>21.5</ele></trkpt>
   <trkpt lat="55.46075" lon="12.009654"><ele>22.5</ele></trkpt>
   <trkpt lat="55.460785" lon="12.009847"><ele>22.75</ele></trkpt>
   <trkpt lat="55.461579" lon="12.01407"><ele>25</ele></trkpt>
   <trkpt lat="55.461907" lon="12.015963"><ele>26.25</ele></trkpt>
   <trkpt lat="55.462668" lon="12.020073"><ele>22.5</ele></trkpt>
   <trkpt lat="55.462929" lon="12.021552"><ele>20.5</ele></trkpt>
   <trkpt lat="55.463317" lon="12.023878"><ele>21.5</ele></trkpt>
   <trkpt lat="55.463485" lon="12.02501"><ele>24</ele></trkpt>
   <trkpt lat="55.463649" lon="12.026238"><ele>24.25</ele></trkpt>
   <trkpt lat="55.463679" lon="12.026481"><ele>24.75</ele></trkpt>
   <trkpt lat="55.463841" lon="12.02776"><ele>27.5</ele></trkpt>
   <trkpt lat="55.463989" lon="12.029069"><ele>29</ele></trkpt>
   <trkpt lat="55.464282" lon="12.031786"><ele>29.25</ele></trkpt>
   <trkpt lat="55.46484" lon="12.037081"><ele>30.25</ele></trkpt>
   <trkpt lat="55.465338" lon="12.041768"><ele>33</ele></trkpt>
   <trkpt lat="55.465614" lon="12.044236"><ele>32.75</ele></trkpt>
   <trkpt lat="55.465808" lon="12.045794"><ele>33.75</ele></trkpt>
   <trkpt lat="55.46601" lon="12.047283"><ele>34.25</ele></trkpt>
   <trkpt lat="55.466238" lon="12.048836"><ele>33.5</ele></trkpt>
   <trkpt lat="55.46647" lon="12.050332"><ele>33.25</ele></trkpt>
   <trkpt lat="55.46687" lon="12.052691"><ele>32.5</ele></trkpt>
   <trkpt lat="55.467301" lon="12.055016"><ele>31</ele></trkpt>
   <trkpt lat="55.467755" lon="12.057303"><ele>30</ele></trkpt>
   <trkpt lat="55.468259" lon="12.059632"><ele>28.25</ele></trkpt>
   <trkpt lat="55.468726" lon="12.061691"><ele>28</ele></trkpt>
   <trkpt lat="55.469216" lon="12.06376"><ele>27.75</ele></trkpt>
   <trkpt lat="55.470104" lon="12.067521"><ele>24.75</ele></trkpt>
   <trkpt lat="55.470551" lon="12.069384"><ele>21.5</ele></trkpt>
   <trkpt lat="55.471127" lon="12.071735"><ele>20.5</ele></trkpt>
   <trkpt lat="55.471354" lon="12.072583"><ele>21</ele></trkpt>
   <trkpt lat="55.471741" lon="12.073946"><ele>22.75</ele></trkpt>
   <trkpt lat="55.472147" lon="12.075281"><ele>25.5</ele></trkpt>
   <trkpt lat="55.47257" lon="12.076603"><ele>24.75</ele></trkpt>
   <trkpt lat="55.472845" lon="12.077404"><ele>24</ele></trkpt>
   <trkpt lat="55.47319" lon="12.07836"><ele>23.75</ele></trkpt>
   <trkpt lat="55.473494" lon="12.079179"><ele>23.5</ele></trkpt>
   <trkpt lat="55.474073" lon="12.0807"><ele>22</ele></trkpt>
   <trkpt lat="55.474662" lon="12.082204"><ele>22.25</ele></trkpt>
   <trkpt lat="55.475396" lon="12.08413"><ele>20</ele></trkpt>
   <trkpt lat="55.475748" lon="12.085101"><ele>18.25</ele></trkpt>
   <trkpt lat="55.476098" lon="12.086105"><ele>18</ele></trkpt>
   <trkpt lat="55.47641" lon="12.087056"><ele>17.5</ele></trkpt>
   <trkpt lat="55.476723" lon="12.088046"><ele>16</ele></trkpt>
   <trkpt lat="55.477012" lon="12.089023"><ele>14.25</ele></trkpt>
   <trkpt lat="55.477306" lon="12.090052"><ele>13.75</ele></trkpt>
   <trkpt lat="55.477574" lon="12.091046"><ele>15.5</ele></trkpt>
   <trkpt lat="55.47783" lon="12.092042"><ele>17.25</ele></trkpt>
   <trkpt lat="55.478135" lon="12.093313"><ele>18.75</ele></trkpt>
   <trkpt lat="55.478298" lon="12.094059"><ele>19</ele></trkpt>
   <trkpt lat="55.478582" lon="12.095411"><ele>18.25</ele></trkpt>
   <trkpt lat="55.478849" lon="12.096782"><ele>16.5</ele></trkpt>
   <trkpt lat="55.479087" lon="12.098125"><ele>15.75</ele></trkpt>
   <trkpt lat="55.479313" lon="12.099577"><ele>15.25</ele></trkpt>
   <trkpt lat="55.479394" lon="12.100133"><ele>15</ele></trkpt>
   <trkpt lat="55.479478" lon="12.100738"><ele>14.25</ele></trkpt>
   <trkpt lat="55.479667" lon="12.102217"><ele>12.5</ele></trkpt>
   <trkpt lat="55.479791" lon="12.103348"><ele>11.25</ele></trkpt>
   <trkpt lat="55.479901" lon="12.104468"><ele>11.25</ele></trkpt>
   <trkpt lat="55.480017" lon="12.105848"><ele>12</ele></trkpt>
   <trkpt lat="55.48011" lon="12.107209"><ele>13.5</ele></trkpt>
   <trkpt lat="55.480173" lon="12.10837"><ele>13.75</ele></trkpt>
   <trkpt lat="55.480222" lon="12.109556"><ele>14</ele></trkpt>
   <trkpt lat="55.480271" lon="12.111266"><ele>15.75</ele></trkpt>
   <trkpt lat="55.480296" lon="12.113001"><ele>16.25</ele></trkpt>
   <trkpt lat="55.480457" lon="12.126503"><ele>13</ele></trkpt>
   <trkpt lat="55.480482" lon="12.128495"><ele>12.5</ele></trkpt>
   <trkpt lat="55.480604" lon="12.138596"><ele>8</ele></trkpt>
   <trkpt lat="55.480652" lon="12.14028"><ele>6.25</ele></trkpt>
   <trkpt lat="55.480673" lon="12.140868"><ele>6</ele></trkpt>
   <trkpt lat="55.480735" lon="12.142002"><ele>6.75</ele></trkpt>
   <trkpt lat="55.480814" lon="12.143082"><ele>6.25</ele></trkpt>
   <trkpt lat="55.480975" lon="12.144742"><ele>5.25</ele></trkpt>
   <trkpt lat="55.481083" lon="12.145608"><ele>5.25</ele></trkpt>
   <trkpt lat="55.481199" lon="12.146468"><ele>6</ele></trkpt>
   <trkpt lat="55.481345" lon="12.147423"><ele>6.5</ele></trkpt>
   <trkpt lat="55.481512" lon="12.148382"><ele>6.75</ele></trkpt>
   <trkpt lat="55.481763" lon="12.149678"><ele>7.5</ele></trkpt>
   <trkpt lat="55.481912" lon="12.150374"><ele>8</ele></trkpt>
   <trkpt lat="55.482073" lon="12.151062"><ele>7.5</ele></trkpt>
   <trkpt lat="55.482286" lon="12.151908"><ele>5.75</ele></trkpt>
   <trkpt lat="55.482506" lon="12.152748"><ele>4.5</ele></trkpt>
   <trkpt lat="55.482929" lon="12.15417"><ele>2.25</ele></trkpt>
   <trkpt lat="55.483155" lon="12.154893"><ele>2.5</ele></trkpt>
   <trkpt lat="55.483485" lon="12.155852"><ele>3.5</ele></trkpt>
   <trkpt lat="55.483849" lon="12.156831"><ele>5.5</ele></trkpt>
   <trkpt lat="55.484175" lon="12.157637"><ele>7</ele></trkpt>
   <trkpt lat="55.484519" lon="12.158445"><ele>6.75</ele></trkpt>
   <trkpt lat="55.484864" lon="12.159217"><ele>6.75</ele></trkpt>
   <trkpt lat="55.485133" lon="12.159785"><ele>6.75</ele></trkpt>
   <trkpt lat="55.485243" lon="12.160022"><ele>6.5</ele></trkpt>
   <trkpt lat="55.485562" lon="12.160658"><ele>6.25</ele></trkpt>
   <trkpt lat="55.485866" lon="12.161237"><ele>5.5</ele></trkpt>
   <trkpt lat="55.486479" lon="12.162311"><ele>5</ele></trkpt>
   <trkpt lat="55.486626" lon="12.162554"><ele>4.75</ele></trkpt>
   <trkpt lat="55.486993" lon="12.163127"><ele>3.5</ele></trkpt>
   <trkpt lat="55.487413" lon="12.163783"><ele>3.5</ele></trkpt>
   <trkpt lat="55.487655" lon="12.164126"><ele>3.5</ele></trkpt>
   <trkpt lat="55.48848" lon="12.165201"><ele>6</ele></trkpt>
   <trkpt lat="55.488526" lon="12.165259"><ele>6</ele></trkpt>
   <trkpt lat="55.489095" lon="12.165954"><ele>6.75</ele></trkpt>
   <trkpt lat="55.489695" lon="12.166611"><ele>7.25</ele></trkpt>
   <trkpt lat="55.490305" lon="12.167232"><ele>7.5</ele></trkpt>
   <trkpt lat="55.491381" lon="12.168233"><ele>6.25</ele></trkpt>
   <trkpt lat="55.491843" lon="12.168637"><ele>6.25</ele></trkpt>
   <trkpt lat="55.492465" lon="12.169127"><ele>6.75</ele></trkpt>
   <trkpt lat="55.493105" lon="12.169569"><ele>6</ele></trkpt>
   <trkpt lat="55.493316" lon="12.16971"><ele>5.5</ele></trkpt>
   <trkpt lat="55.494158" lon="12.170209"><ele>4</ele></trkpt>
   <trkpt lat="55.495013" lon="12.170645"><ele>3</ele></trkpt>
   <trkpt lat="55.495876" lon="12.171061"><ele>4.25</ele></trkpt>
   <trkpt lat="55.498147" lon="12.172053"><ele>5</ele></trkpt>
   <trkpt lat="55.498471" lon="12.172198"><ele>5</ele></trkpt>
   <trkpt lat="55.499559" lon="12.172685"><ele>4.75</ele></trkpt>
   <trkpt lat="55.501647" lon="12.17362"><ele>6.5</ele></trkpt>
   <trkpt lat="55.502377" lon="12.173947"><ele>6.25</ele></trkpt>
   <trkpt lat="55.504235" lon="12.174779"><ele>6.25</ele></trkpt>
   <trkpt lat="55.505209" lon="12.175214"><ele>5.75</ele></trkpt>
   <trkpt lat="55.506096" lon="12.17563"><ele>5.5</ele></trkpt>
   <trkpt lat="55.506484" lon="12.175826"><ele>4.25</ele></trkpt>
   <trkpt lat="55.506833" lon="12.17601"><ele>3.75</ele></trkpt>
   <trkpt lat="55.507559" lon="12.17642"><ele>3.75</ele></trkpt>
   <trkpt lat="55.50854" lon="12.177031"><ele>2.5</ele></trkpt>
   <trkpt lat="55.510126" lon="12.178078"><ele>1.75</ele></trkpt>
   <trkpt lat="55.510324" lon="12.17821"><ele>1.5</ele></trkpt>
   <trkpt lat="55.510476" lon="12.178312"><ele>1.25</ele></trkpt>
   <trkpt lat="55.512217" lon="12.179476"><ele>1.25</ele></trkpt>
   <trkpt lat="55.512288" lon="12.179524"><ele>1.25</ele></trkpt>
   <trkpt lat="55.513157" lon="12.180127"><ele>0.25</ele></trkpt>
   <trkpt lat="55.515139" lon="12.181531"><ele>0</ele></trkpt>
   <trkpt lat="55.515324" lon="12.181657"><ele>-0.25</ele></trkpt>
   <trkpt lat="55.515966" lon="12.182051"><ele>-0.25</ele></trkpt>
   <trkpt lat="55.516142" lon="12.182171"><ele>0</ele></trkpt>
   <trkpt lat="55.522883" lon="12.186958"><ele>2.75</ele></trkpt>
   <trkpt lat="55.523036" lon="12.187063"><ele>2.75</ele></trkpt>
   <trkpt lat="55.526517" lon="12.189535"><ele>10</ele></trkpt>
   <trkpt lat="55.527903" lon="12.190594"><ele>14</ele></trkpt>
   <trkpt lat="55.530038" lon="12.19212"><ele>13</ele></trkpt>
   <trkpt lat="55.530913" lon="12.192782"><ele>13.5</ele></trkpt>
   <trkpt lat="55.531597" lon="12.193335"><ele>12</ele></trkpt>
   <trkpt lat="55.532317" lon="12.193965"><ele>11</ele></trkpt>
   <trkpt lat="55.533051" lon="12.194653"><ele>9</ele></trkpt>
   <trkpt lat="55.533423" lon="12.19502"><ele>7.75</ele></trkpt>
   <trkpt lat="55.533788" lon="12.195395"><ele>6.5</ele></trkpt>
   <trkpt lat="55.534149" lon="12.19578"><ele>6</ele></trkpt>
   <trkpt lat="55.534677" lon="12.196365"><ele>5.5</ele></trkpt>
   <trkpt lat="55.535194" lon="12.196969"><ele>4.25</ele></trkpt>
   <trkpt lat="55.535526" lon="12.197372"><ele>4</ele></trkpt>
   <trkpt lat="55.536074" lon="12.198069"><ele>4.75</ele></trkpt>
   <trkpt lat="55.536704" lon="12.198912"><ele>7</ele></trkpt>
   <trkpt lat="55.537325" lon="12.199798"><ele>6</ele></trkpt>
   <trkpt lat="55.537957" lon="12.20076"><ele>6</ele></trkpt>
   <trkpt lat="55.538266" lon="12.20125"><ele>6</ele></trkpt>
   <trkpt lat="55.538872" lon="12.202256"><ele>4.75</ele></trkpt>
   <trkpt lat="55.539164" lon="12.202768"><ele>3.5</ele></trkpt>
   <trkpt lat="55.539745" lon="12.203827"><ele>3.5</ele></trkpt>
   <trkpt lat="55.540346" lon="12.204985"><ele>3</ele></trkpt>
   <trkpt lat="55.541838" lon="12.207927"><ele>3.75</ele></trkpt>
   <trkpt lat="55.542142" lon="12.208511"><ele>4</ele></trkpt>
   <trkpt lat="55.542435" lon="12.209053"><ele>4</ele></trkpt>
   <trkpt lat="55.543012" lon="12.210079"><ele>4.25</ele></trkpt>
   <trkpt lat="55.543497" lon="12.210892"><ele>4</ele></trkpt>
   <trkpt lat="55.543946" lon="12.211613"><ele>4</ele></trkpt>
   <trkpt lat="55.544568" lon="12.212554"><ele>3.5</ele></trkpt>
   <trkpt lat="55.544962" lon="12.21313"><ele>3.25</ele></trkpt>
   <trkpt lat="55.545364" lon="12.213689"><ele>3</ele></trkpt>
   <trkpt lat="55.546258" lon="12.214874"><ele>3</ele></trkpt>
   <trkpt lat="55.546414" lon="12.215076"><ele>3</ele></trkpt>
   <trkpt lat="55.54816" lon="12.217317"><ele>4.25</ele></trkpt>
   <trkpt lat="55.549474" lon="12.218989"><ele>7</ele></trkpt>
   <trkpt lat="55.550184" lon="12.219857"><ele>8.25</ele></trkpt>
   <trkpt lat="55.550891" lon="12.220673"><ele>8</ele></trkpt>
   <trkpt lat="55.55125" lon="12.221069"><ele>7</ele></trkpt>
   <trkpt lat="55.551978" lon="12.221835"><ele>6.5</ele></trkpt>
   <trkpt lat="55.552345" lon="12.222201"><ele>5.75</ele></trkpt>
   <trkpt lat="55.553092" lon="12.222911"><ele>4</ele></trkpt>
   <trkpt lat="55.553466" lon="12.223249"><ele>3.5</ele></trkpt>
   <trkpt lat="55.553841" lon="12.223577"><ele>4.5</ele></trkpt>
   <trkpt lat="55.554495" lon="12.22412"><ele>5.75</ele></trkpt>
   <trkpt lat="55.555268" lon="12.224716"><ele>6</ele></trkpt>
   <trkpt lat="55.555628" lon="12.22498"><ele>5.25</ele></trkpt>
   <trkpt lat="55.556364" lon="12.22549"><ele>4.5</ele></trkpt>
   <trkpt lat="55.557589" lon="12.226295"><ele>6.75</ele></trkpt>
   <trkpt lat="55.558196" lon="12.226686"><ele>7.75</ele></trkpt>
   <trkpt lat="55.559014" lon="12.227229"><ele>9.25</ele></trkpt>
   <trkpt lat="55.55935" lon="12.227463"><ele>10</ele></trkpt>
   <trkpt lat="55.559962" lon="12.227911"><ele>10</ele></trkpt>
   <trkpt lat="55.560272" lon="12.228149"><ele>10.75</ele></trkpt>
   <trkpt lat="55.560895" lon="12.228652"><ele>11.5</ele></trkpt>
   <trkpt lat="55.561252" lon="12.228956"><ele>11.75</ele></trkpt>
   <trkpt lat="55.561837" lon="12.229478"><ele>11.25</ele></trkpt>
   <trkpt lat="55.562705" lon="12.230312"><ele>12</ele></trkpt>
   <trkpt lat="55.563357" lon="12.230991"><ele>10.75</ele></trkpt>
   <trkpt lat="55.563441" lon="12.23108"><ele>10.75</ele></trkpt>
   <trkpt lat="55.563531" lon="12.231178"><ele>10.75</ele></trkpt>
   <trkpt lat="55.563707" lon="12.231372"><ele>10.75</ele></trkpt>
   <trkpt lat="55.564422" lon="12.23219"><ele>12.75</ele></trkpt>
   <trkpt lat="55.564754" lon="12.23259"><ele>14</ele></trkpt>
   <trkpt lat="55.565431" lon="12.233446"><ele>15.25</ele></trkpt>
   <trkpt lat="55.566135" lon="12.234384"><ele>15.75</ele></trkpt>
   <trkpt lat="55.56848" lon="12.237596"><ele>13.75</ele></trkpt>
   <trkpt lat="55.568539" lon="12.237675"><ele>14</ele></trkpt>
   <trkpt lat="55.569316" lon="12.238743"><ele>14.25</ele></trkpt>
   <trkpt lat="55.570106" lon="12.239852"><ele>15.75</ele></trkpt>
   <trkpt lat="55.570167" lon="12.23994"><ele>16</ele></trkpt>
   <trkpt lat="55.570697" lon="12.24071"><ele>16.75</ele></trkpt>
   <trkpt lat="55.571038" lon="12.241219"><ele>17</ele></trkpt>
   <trkpt lat="55.571695" lon="12.24223"><ele>17.25</ele></trkpt>
   <trkpt lat="55.572593" lon="12.243672"><ele>17.75</ele></trkpt>
   <trkpt lat="55.575197" lon="12.247924"><ele>10.75</ele></trkpt>
   <trkpt lat="55.575251" lon="12.248009"><ele>10.5</ele></trkpt>
   <trkpt lat="55.576484" lon="12.250008"><ele>9.5</ele></trkpt>
   <trkpt lat="55.577123" lon="12.25101"><ele>9.5</ele></trkpt>
   <trkpt lat="55.577909" lon="12.252191"><ele>8</ele></trkpt>
   <trkpt lat="55.577956" lon="12.252258"><ele>8</ele></trkpt>
   <trkpt lat="55.578738" lon="12.253378"><ele>9.25</ele></trkpt>
   <trkpt lat="55.579695" lon="12.25468"><ele>10</ele></trkpt>
   <trkpt lat="55.580041" lon="12.255134"><ele>9.75</ele></trkpt>
   <trkpt lat="55.580762" lon="12.256053"><ele>9</ele></trkpt>
   <trkpt lat="55.582172" lon="12.257818"><ele>10.25</ele></trkpt>
   <trkpt lat="55.583206" lon="12.259131"><ele>10.75</ele></trkpt>
   <trkpt lat="55.583916" lon="12.260071"><ele>9.75</ele></trkpt>
   <trkpt lat="55.584292" lon="12.260589"><ele>9.25</ele></trkpt>
   <trkpt lat="55.585005" lon="12.261608"><ele>9</ele></trkpt>
   <trkpt lat="55.585059" lon="12.261686"><ele>9</ele></trkpt>
   <trkpt lat="55.585779" lon="12.262775"><ele>8.5</ele></trkpt>
   <trkpt lat="55.586316" lon="12.263618"><ele>8.25</ele></trkpt>
   <trkpt lat="55.587468" lon="12.265483"><ele>7.75</ele></trkpt>
   <trkpt lat="55.589116" lon="12.268187"><ele>6.75</ele></trkpt>
   <trkpt lat="55.589608" lon="12.268962"><ele>8</ele></trkpt>
   <trkpt lat="55.590081" lon="12.269679"><ele>8</ele></trkpt>
   <trkpt lat="55.590727" lon="12.270596"><ele>6.25</ele></trkpt>
   <trkpt lat="55.591055" lon="12.271041"><ele>6</ele></trkpt>
   <trkpt lat="55.591708" lon="12.271894"><ele>7</ele></trkpt>
   <trkpt lat="55.592756" lon="12.27321"><ele>6.75</ele></trkpt>
   <trkpt lat="55.594107" lon="12.274887"><ele>7</ele></trkpt>
   <trkpt lat="55.597477" lon="12.279081"><ele>6</ele></trkpt>
   <trkpt lat="55.598901" lon="12.280856"><ele>4.25</ele></trkpt>
   <trkpt lat="55.598996" lon="12.280973"><ele>4.25</ele></trkpt>
   <trkpt lat="55.599227" lon="12.28126"><ele>4.5</ele></trkpt>
   <trkpt lat="55.599958" lon="12.282187"><ele>5.75</ele></trkpt>
   <trkpt lat="55.600298" lon="12.282635"><ele>6</ele></trkpt>
   <trkpt lat="55.600949" lon="12.283526"><ele>6</ele></trkpt>
   <trkpt lat="55.601565" lon="12.284424"><ele>5.75</ele></trkpt>
   <trkpt lat="55.60217" lon="12.285362"><ele>3.5</ele></trkpt>
   <trkpt lat="55.602243" lon="12.28548"><ele>3.25</ele></trkpt>
   <trkpt lat="55.602767" lon="12.286343"><ele>3.25</ele></trkpt>
   <trkpt lat="55.60307" lon="12.286865"><ele>3.5</ele></trkpt>
   <trkpt lat="55.603627" lon="12.287867"><ele>3.75</ele></trkpt>
   <trkpt lat="55.604086" lon="12.288733"><ele>3</ele></trkpt>
   <trkpt lat="55.605577" lon="12.291676"><ele>4.5</ele></trkpt>
   <trkpt lat="55.605668" lon="12.29186"><ele>4.75</ele></trkpt>
   <trkpt lat="55.606425" lon="12.293357"><ele>5</ele></trkpt>
   <trkpt lat="55.606604" lon="12.293705"><ele>5</ele></trkpt>
   <trkpt lat="55.607469" lon="12.295323"><ele>3</ele></trkpt>
   <trkpt lat="55.610524" lon="12.30138"><ele>5.25</ele></trkpt>
   <trkpt lat="55.610567" lon="12.301468"><ele>5.25</ele></trkpt>
   <trkpt lat="55.613191" lon="12.306663"><ele>3.75</ele></trkpt>
   <trkpt lat="55.6133" lon="12.306878"><ele>3.75</ele></trkpt>
   <trkpt lat="55.614101" lon="12.30842"><ele>5.75</ele></trkpt>
   <trkpt lat="55.614347" lon="12.308876"><ele>6.25</ele></trkpt>
   <trkpt lat="55.614929" lon="12.309914"><ele>7</ele></trkpt>
   <trkpt lat="55.615519" lon="12.3109"><ele>6.75</ele></trkpt>
   <trkpt lat="55.616114" lon="12.31184"><ele>6.25</ele></trkpt>
   <trkpt lat="55.616423" lon="12.312305"><ele>6.5</ele></trkpt>
   <trkpt lat="55.617048" lon="12.313206"><ele>7.25</ele></trkpt>
   <trkpt lat="55.617668" lon="12.314047"><ele>8</ele></trkpt>
   <trkpt lat="55.617801" lon="12.314219"><ele>7.75</ele></trkpt>
   <trkpt lat="55.618279" lon="12.314827"><ele>7</ele></trkpt>
   <trkpt lat="55.618915" lon="12.315597"><ele>7</ele></trkpt>
   <trkpt lat="55.619263" lon="12.315996"><ele>7</ele></trkpt>
   <trkpt lat="55.61995" lon="12.316746"><ele>6</ele></trkpt>
   <trkpt lat="55.620697" lon="12.317515"><ele>6.75</ele></trkpt>
   <trkpt lat="55.622502" lon="12.31927"><ele>6.75</ele></trkpt>
   <trkpt lat="55.622607" lon="12.319373"><ele>6.75</ele></trkpt>
   <trkpt lat="55.623081" lon="12.319831"><ele>6</ele></trkpt>
   <trkpt lat="55.623655" lon="12.320385"><ele>5.5</ele></trkpt>
   <trkpt lat="55.625681" lon="12.322349"><ele>7</ele></trkpt>
   <trkpt lat="55.62643" lon="12.3231"><ele>7</ele></trkpt>
   <trkpt lat="55.626807" lon="12.323494"><ele>7</ele></trkpt>
   <trkpt lat="55.627179" lon="12.323891"><ele>7.5</ele></trkpt>
   <trkpt lat="55.627865" lon="12.324651"><ele>7</ele></trkpt>
   <trkpt lat="55.628542" lon="12.325439"><ele>7</ele></trkpt>
   <trkpt lat="55.629299" lon="12.326364"><ele>7.25</ele></trkpt>
   <trkpt lat="55.629407" lon="12.326501"><ele>7.5</ele></trkpt>
   <trkpt lat="55.629913" lon="12.327149"><ele>8.25</ele></trkpt>
   <trkpt lat="55.630457" lon="12.327873"><ele>7</ele></trkpt>
   <trkpt lat="55.631025" lon="12.32866"><ele>5.5</ele></trkpt>
   <trkpt lat="55.631745" lon="12.329705"><ele>5.25</ele></trkpt>
   <trkpt lat="55.632229" lon="12.330436"><ele>5.25</ele></trkpt>
   <trkpt lat="55.632587" lon="12.330994"><ele>5.25</ele></trkpt>
   <trkpt lat="55.63296" lon="12.331588"><ele>5.25</ele></trkpt>
   <trkpt lat="55.633579" lon="12.332615"><ele>5</ele></trkpt>
   <trkpt lat="55.634269" lon="12.333812"><ele>5</ele></trkpt>
   <trkpt lat="55.634629" lon="12.334463"><ele>5</ele></trkpt>
   <trkpt lat="55.635153" lon="12.335446"><ele>5</ele></trkpt>
   <trkpt lat="55.635478" lon="12.336082"><ele>5</ele></trkpt>
   <trkpt lat="55.63596" lon="12.337073"><ele>4.5</ele></trkpt>
   <trkpt lat="55.636422" lon="12.338077"><ele>4.25</ele></trkpt>
   <trkpt lat="55.636646" lon="12.338583"><ele>4</ele></trkpt>
   <trkpt lat="55.636864" lon="12.3391"><ele>3.25</ele></trkpt>
   <trkpt lat="55.637108" lon="12.339691"><ele>3</ele></trkpt>
   <trkpt lat="55.637579" lon="12.340901"><ele>0.75</ele></trkpt>
   <trkpt lat="55.638031" lon="12.342147"><ele>0.5</ele></trkpt>
   <trkpt lat="55.638249" lon="12.342783"><ele>0.75</ele></trkpt>
   <trkpt lat="55.638456" lon="12.343415"><ele>1</ele></trkpt>
   <trkpt lat="55.638857" lon="12.344709"><ele>0.75</ele></trkpt>
   <trkpt lat="55.639049" lon="12.345372"><ele>0.75</ele></trkpt>
   <trkpt lat="55.639238" lon="12.346048"><ele>0.5</ele></trkpt>
   <trkpt lat="55.639585" lon="12.347378"><ele>0</ele></trkpt>
   <trkpt lat="55.639744" lon="12.348029"><ele>0.25</ele></trkpt>
   <trkpt lat="55.640049" lon="12.349375"><ele>0.75</ele></trkpt>
   <trkpt lat="55.640176" lon="12.349973"><ele>0.5</ele></trkpt>
   <trkpt lat="55.64038" lon="12.350998"><ele>3.25</ele></trkpt>
   <trkpt lat="55.640436" lon="12.351304"><ele>3.75</ele></trkpt>
   <trkpt lat="55.640663" lon="12.352576"><ele>5.25</ele></trkpt>
   <trkpt lat="55.640895" lon="12.354042"><ele>6</ele></trkpt>
   <trkpt lat="55.641004" lon="12.354785"><ele>5.5</ele></trkpt>
   <trkpt lat="55.641107" lon="12.355559"><ele>5.5</ele></trkpt>
   <trkpt lat="55.641279" lon="12.356986"><ele>7</ele></trkpt>
   <trkpt lat="55.641419" lon="12.358348"><ele>7.5</ele></trkpt>
   <trkpt lat="55.641541" lon="12.359786"><ele>7.75</ele></trkpt>
   <trkpt lat="55.641647" lon="12.361353"><ele>7.75</ele></trkpt>
   <trkpt lat="55.641722" lon="12.362924"><ele>6</ele></trkpt>
   <trkpt lat="55.641773" lon="12.364512"><ele>6.5</ele></trkpt>
   <trkpt lat="55.641941" lon="12.372002"><ele>6.75</ele></trkpt>
   <trkpt lat="55.641953" lon="12.372566"><ele>6.25</ele></trkpt>
   <trkpt lat="55.642" lon="12.374917"><ele>4</ele></trkpt>
   <trkpt lat="55.642014" lon="12.376366"><ele>5.5</ele></trkpt>
   <trkpt lat="55.642004" lon="12.378678"><ele>5</ele></trkpt>
   <trkpt lat="55.641974" lon="12.38032"><ele>6</ele></trkpt>
   <trkpt lat="55.641953" lon="12.381134"><ele>5.75</ele></trkpt>
   <trkpt lat="55.641895" lon="12.382735"><ele>6</ele></trkpt>
   <trkpt lat="55.641825" lon="12.384243"><ele>7.75</ele></trkpt>
   <trkpt lat="55.641737" lon="12.385775"><ele>8</ele></trkpt>
   <trkpt lat="55.641682" lon="12.386585"><ele>7</ele></trkpt>
   <trkpt lat="55.641558" lon="12.388242"><ele>8</ele></trkpt>
   <trkpt lat="55.641417" lon="12.389869"><ele>8.25</ele></trkpt>
   <trkpt lat="55.641343" lon="12.390629"><ele>8.75</ele></trkpt>
   <trkpt lat="55.64132" lon="12.390856"><ele>9</ele></trkpt>
   <trkpt lat="55.641173" lon="12.392245"><ele>9.25</ele></trkpt>
   <trkpt lat="55.641083" lon="12.393036"><ele>9.25</ele></trkpt>
   <trkpt lat="55.640892" lon="12.394591"><ele>9.5</ele></trkpt>
   <trkpt lat="55.640258" lon="12.399285"><ele>10.25</ele></trkpt>
   <trkpt lat="55.640077" lon="12.400792"><ele>10.75</ele></trkpt>
   <trkpt lat="55.639962" lon="12.401881"><ele>10.5</ele></trkpt>
   <trkpt lat="55.639864" lon="12.402952"><ele>9.25</ele></trkpt>
   <trkpt lat="55.639812" lon="12.403587"><ele>9</ele></trkpt>
   <trkpt lat="55.639707" lon="12.405047"><ele>9</ele></trkpt>
   <trkpt lat="55.639317" lon="12.411343"><ele>10</ele></trkpt>
   <trkpt lat="55.639245" lon="12.412728"><ele>9</ele></trkpt>
   <trkpt lat="55.639219" lon="12.413406"><ele>7.75</ele></trkpt>
   <trkpt lat="55.639205" lon="12.414026"><ele>7.75</ele></trkpt>
   <trkpt lat="55.6392" lon="12.415288"><ele>8</ele></trkpt>
   <trkpt lat="55.639211" lon="12.415923"><ele>7.75</ele></trkpt>
   <trkpt lat="55.639224" lon="12.416326"><ele>7.25</ele></trkpt>
   <trkpt lat="55.639266" lon="12.417303"><ele>7</ele></trkpt>
   <trkpt lat="55.639329" lon="12.418253"><ele>6.75</ele></trkpt>
   <trkpt lat="55.639362" lon="12.418673"><ele>6.75</ele></trkpt>
   <trkpt lat="55.639456" lon="12.419646"><ele>6.5</ele></trkpt>
   <trkpt lat="55.639586" lon="12.420719"><ele>7.25</ele></trkpt>
   <trkpt lat="55.639678" lon="12.421382"><ele>8.25</ele></trkpt>
   <trkpt lat="55.639782" lon="12.422043"><ele>9</ele></trkpt>
   <trkpt lat="55.639866" lon="12.422529"><ele>9.25</ele></trkpt>
   <trkpt lat="55.640029" lon="12.423403"><ele>9</ele></trkpt>
   <trkpt lat="55.640226" lon="12.424331"><ele>10.25</ele></trkpt>
   <trkpt lat="55.640391" lon="12.425031"><ele>11.5</ele></trkpt>
   <trkpt lat="55.640522" lon="12.425557"><ele>11</ele></trkpt>
   <trkpt lat="55.640729" lon="12.426324"><ele>10.75</ele></trkpt>
   <trkpt lat="55.640884" lon="12.426861"><ele>11</ele></trkpt>
   <trkpt lat="55.641042" lon="12.427379"><ele>12</ele></trkpt>
   <trkpt lat="55.641341" lon="12.428283"><ele>14.5</ele></trkpt>
   <trkpt lat="55.641491" lon="12.428712"><ele>15.25</ele></trkpt>
   <trkpt lat="55.641862" lon="12.429686"><ele>14.5</ele></trkpt>
   <trkpt lat="55.642091" lon="12.430248"><ele>12.25</ele></trkpt>
   <trkpt lat="55.642327" lon="12.430794"><ele>10.25</ele></trkpt>
   <trkpt lat="55.642738" lon="12.43168"><ele>9</ele></trkpt>
   <trkpt lat="55.642981" lon="12.432171"><ele>9</ele></trkpt>
   <trkpt lat="55.643791" lon="12.433753"><ele>8</ele></trkpt>
   <trkpt lat="55.644406" lon="12.434989"><ele>8.75</ele></trkpt>
   <trkpt lat="55.644637" lon="12.435479"><ele>9.25</ele></trkpt>
   <trkpt lat="55.644862" lon="12.435983"><ele>9.25</ele></trkpt>
   <trkpt lat="55.645056" lon="12.436439"><ele>8.5</ele></trkpt>
   <trkpt lat="55.645326" lon="12.437115"><ele>8.5</ele></trkpt>
   <trkpt lat="55.645616" lon="12.437869"><ele>8.75</ele></trkpt>
   <trkpt lat="55.645828" lon="12.438473"><ele>8.75</ele></trkpt>
   <trkpt lat="55.646055" lon="12.439162"><ele>9</ele></trkpt>
   <trkpt lat="55.646291" lon="12.439952"><ele>9.25</ele></trkpt>
   <trkpt lat="55.646526" lon="12.440818"><ele>9.5</ele></trkpt>
   <trkpt lat="55.646735" lon="12.441637"><ele>9.5</ele></trkpt>
   <trkpt lat="55.646977" lon="12.442707"><ele>9</ele></trkpt>
   <trkpt lat="55.647101" lon="12.443315"><ele>9.25</ele></trkpt>
   <trkpt lat="55.647304" lon="12.444422"><ele>9.75</ele></trkpt>
   <trkpt lat="55.647439" lon="12.445285"><ele>10.75</ele></trkpt>
   <trkpt lat="55.647609" lon="12.44649"><ele>9.75</ele></trkpt>
   <trkpt lat="55.647787" lon="12.44789"><ele>9</ele></trkpt>
   <trkpt lat="55.648171" lon="12.451024"><ele>6.5</ele></trkpt>
   <trkpt lat="55.648352" lon="12.452507"><ele>6</ele></trkpt>
   <trkpt lat="55.648554" lon="12.45402"><ele>7.25</ele></trkpt>
   <trkpt lat="55.648663" lon="12.454748"><ele>7</ele></trkpt>
   <trkpt lat="55.64878" lon="12.455475"><ele>7.75</ele></trkpt>
   <trkpt lat="55.648904" lon="12.456199"><ele>8.75</ele></trkpt>
   <trkpt lat="55.649115" lon="12.457361"><ele>9.75</ele></trkpt>
   <trkpt lat="55.649299" lon="12.458343"><ele>11</ele></trkpt>
   <trkpt lat="55.649411" lon="12.458951"><ele>11</ele></trkpt>
   <trkpt lat="55.649657" lon="12.460348"><ele>10</ele></trkpt>
   <trkpt lat="55.650314" lon="12.464269"><ele>9</ele></trkpt>
   <trkpt lat="55.651066" lon="12.4685"><ele>5.75</ele></trkpt>
   <trkpt lat="55.651394" lon="12.470385"><ele>5.5</ele></trkpt>
   <trkpt lat="55.651536" lon="12.471189"><ele>5.5</ele></trkpt>
   <trkpt lat="55.651821" lon="12.472954"><ele>5.25</ele></trkpt>
   <trkpt lat="55.652055" lon="12.47475"><ele>5.25</ele></trkpt>
   <trkpt lat="55.652229" lon="12.476533"><ele>5</ele></trkpt>
   <trkpt lat="55.652479" lon="12.479089"><ele>5</ele></trkpt>
   <trkpt lat="55.652571" lon="12.48006"><ele>5</ele></trkpt>
   <trkpt lat="55.652622" lon="12.480509"><ele>5.5</ele></trkpt>
   <trkpt lat="55.652738" lon="12.481411"><ele>6</ele></trkpt>
   <trkpt lat="55.6528" lon="12.481841"><ele>6.25</ele></trkpt>
   <trkpt lat="55.652867" lon="12.482266"><ele>6</ele></trkpt>
   <trkpt lat="55.653026" lon="12.483134"><ele>5.25</ele></trkpt>
   <trkpt lat="55.653211" lon="12.483973"><ele>4.25</ele></trkpt>
   <trkpt lat="55.653268" lon="12.4842"><ele>4</ele></trkpt>
   <trkpt lat="55.653331" lon="12.484444"><ele>4</ele></trkpt>
   <trkpt lat="55.653522" lon="12.485124"><ele>4.5</ele></trkpt>
   <trkpt lat="55.653698" lon="12.485687"><ele>5.25</ele></trkpt>
   <trkpt lat="55.653893" lon="12.486246"><ele>5.5</ele></trkpt>
   <trkpt lat="55.654014" lon="12.486559"><ele>5.5</ele></trkpt>
   <trkpt lat="55.654178" lon="12.486954"><ele>5.5</ele></trkpt>
   <trkpt lat="55.654608" lon="12.487916"><ele>5.5</ele></trkpt>
   <trkpt lat="55.654874" lon="12.488428"><ele>5.75</ele></trkpt>
   <trkpt lat="55.655184" lon="12.488994"><ele>5.75</ele></trkpt>
   <trkpt lat="55.655434" lon="12.489419"><ele>5.75</ele></trkpt>
   <trkpt lat="55.655709" lon="12.489869"><ele>5.75</ele></trkpt>
   <trkpt lat="55.656067" lon="12.490431"><ele>6</ele></trkpt>
   <trkpt lat="55.656442" lon="12.491017"><ele>6</ele></trkpt>
   <trkpt lat="55.656717" lon="12.491505"><ele>6.25</ele></trkpt>
   <trkpt lat="55.657031" lon="12.492089"><ele>6.25</ele></trkpt>
   <trkpt lat="55.65723" lon="12.492531"><ele>6.25</ele></trkpt>
   <trkpt lat="55.657533" lon="12.493269"><ele>6.25</ele></trkpt>
   <trkpt lat="55.657764" lon="12.49395"><ele>6.5</ele></trkpt>
   <trkpt lat="55.657943" lon="12.494595"><ele>6.5</ele></trkpt>
   <trkpt lat="55.6581" lon="12.495335"><ele>6.75</ele></trkpt>
   <trkpt lat="55.658206" lon="12.495902"><ele>6.75</ele></trkpt>
   <trkpt lat="55.658297" lon="12.496495"><ele>6</ele></trkpt>
   <trkpt lat="55.658369" lon="12.497108"><ele>6</ele></trkpt>
   <trkpt lat="55.658418" lon="12.497681"><ele>6.25</ele></trkpt>
   <trkpt lat="55.658444" lon="12.498173"><ele>6.75</ele></trkpt>
   <trkpt lat="55.658457" lon="12.498729"><ele>7</ele></trkpt>
   <trkpt lat="55.658456" lon="12.499187"><ele>6.75</ele></trkpt>
   <trkpt lat="55.658435" lon="12.499855"><ele>6.25</ele></trkpt>
   <trkpt lat="55.658404" lon="12.500341"><ele>6</ele></trkpt>
   <trkpt lat="55.658374" lon="12.50068"><ele>6</ele></trkpt>
   <trkpt lat="55.658336" lon="12.501067"><ele>6</ele></trkpt>
   <trkpt lat="55.658277" lon="12.501559"><ele>6</ele></trkpt>
   <trkpt lat="55.658233" lon="12.501839"><ele>5.75</ele></trkpt>
   <trkpt lat="55.658023" lon="12.502856"><ele>5.25</ele></trkpt>
   <trkpt lat="55.657863" lon="12.503491"><ele>4.25</ele></trkpt>
   <trkpt lat="55.657734" lon="12.503946"><ele>4.25</ele></trkpt>
   <trkpt lat="55.657472" lon="12.504781"><ele>4.75</ele></trkpt>
   <trkpt lat="55.657273" lon="12.50537"><ele>5.75</ele></trkpt>
   <trkpt lat="55.657067" lon="12.505947"><ele>6.5</ele></trkpt>
   <trkpt lat="55.656732" lon="12.506846"><ele>7</ele></trkpt>
   <trkpt lat="55.656612" lon="12.507156"><ele>6.75</ele></trkpt>
   <trkpt lat="55.656216" lon="12.508188"><ele>6.25</ele></trkpt>
   <trkpt lat="55.655868" lon="12.509056"><ele>5</ele></trkpt>
   <trkpt lat="55.655443" lon="12.510068"><ele>4.5</ele></trkpt>
   <trkpt lat="55.655135" lon="12.510831"><ele>5.75</ele></trkpt>
   <trkpt lat="55.654868" lon="12.511478"><ele>6.5</ele></trkpt>
   <trkpt lat="55.654751" lon="12.511736"><ele>6.5</ele></trkpt>
   <trkpt lat="55.654615" lon="12.512032"><ele>6.5</ele></trkpt>
   <trkpt lat="55.65429" lon="12.512688"><ele>5.75</ele></trkpt>
   <trkpt lat="55.654041" lon="12.513146"><ele>5</ele></trkpt>
   <trkpt lat="55.65342" lon="12.514233"><ele>4</ele></trkpt>
   <trkpt lat="55.653034" lon="12.514961"><ele>4.75</ele></trkpt>
   <trkpt lat="55.652763" lon="12.515528"><ele>5</ele></trkpt>
   <trkpt lat="55.652581" lon="12.515943"><ele>5</ele></trkpt>
   <trkpt lat="55.652481" lon="12.51618"><ele>4.75</ele></trkpt>
   <trkpt lat="55.652207" lon="12.516914"><ele>4.25</ele></trkpt>
   <trkpt lat="55.652084" lon="12.517281"><ele>4.25</ele></trkpt>
   <trkpt lat="55.651886" lon="12.517938"><ele>4.5</ele></trkpt>
   <trkpt lat="55.651763" lon="12.518407"><ele>4.75</ele></trkpt>
   <trkpt lat="55.651661" lon="12.518832"><ele>5.5</ele></trkpt>
   <trkpt lat="55.651526" lon="12.519493"><ele>5.75</ele></trkpt>
   <trkpt lat="55.651424" lon="12.520085"><ele>6</ele></trkpt>
   <trkpt lat="55.651323" lon="12.520797"><ele>5.75</ele></trkpt>
   <trkpt lat="55.65126" lon="12.521381"><ele>5.5</ele></trkpt>
   <trkpt lat="55.651205" lon="12.522087"><ele>5.25</ele></trkpt>
   <trkpt lat="55.651176" lon="12.522747"><ele>5.25</ele></trkpt>
   <trkpt lat="55.651168" lon="12.52329"><ele>5.25</ele></trkpt>
   <trkpt lat="55.651177" lon="12.523919"><ele>4.5</ele></trkpt>
   <trkpt lat="55.651193" lon="12.524312"><ele>4</ele></trkpt>
   <trkpt lat="55.651249" lon="12.525109"><ele>3</ele></trkpt>
   <trkpt lat="55.651362" lon="12.526391"><ele>2.25</ele></trkpt>
   <trkpt lat="55.651448" lon="12.527238"><ele>2.5</ele></trkpt>
   <trkpt lat="55.651496" lon="12.527628"><ele>2.75</ele></trkpt>
   <trkpt lat="55.651552" lon="12.528018"><ele>3.25</ele></trkpt>
   <trkpt lat="55.651636" lon="12.528507"><ele>3.75</ele></trkpt>
   <trkpt lat="55.651771" lon="12.529165"><ele>4</ele></trkpt>
   <trkpt lat="55.651929" lon="12.529819"><ele>4.5</ele></trkpt>
   <trkpt lat="55.652202" lon="12.530832"><ele>5.25</ele></trkpt>
   <trkpt lat="55.652328" lon="12.531349"><ele>5.25</ele></trkpt>
   <trkpt lat="55.652436" lon="12.531845"><ele>5.25</ele></trkpt>
   <trkpt lat="55.652533" lon="12.532234"><ele>4.5</ele></trkpt>
   <trkpt lat="55.6526" lon="12.532477"><ele>4.25</ele></trkpt>
   <trkpt lat="55.652722" lon="12.532972"><ele>3.25</ele></trkpt>
   <trkpt lat="55.652842" lon="12.533522"><ele>2.75</ele></trkpt>
   <trkpt lat="55.65298" lon="12.534049"><ele>3</ele></trkpt>
   <trkpt lat="55.653219" lon="12.53487"><ele>3.75</ele></trkpt>
   <trkpt lat="55.653335" lon="12.535225"><ele>3.75</ele></trkpt>
   <trkpt lat="55.653469" lon="12.5356"><ele>4</ele></trkpt>
   <trkpt lat="55.65368" lon="12.53612"><ele>3.5</ele></trkpt>
   <trkpt lat="55.653902" lon="12.536595"><ele>3</ele></trkpt>
   <trkpt lat="55.654123" lon="12.537012"><ele>3</ele></trkpt>
   <trkpt lat="55.654357" lon="12.537404"><ele>2.75</ele></trkpt>
   <trkpt lat="55.654594" lon="12.537757"><ele>2</ele></trkpt>
   <trkpt lat="55.654863" lon="12.538113"><ele>1.5</ele></trkpt>
   <trkpt lat="55.655104" lon="12.53841"><ele>1</ele></trkpt>
   <trkpt lat="55.655181" lon="12.538512"><ele>1</ele></trkpt>
   <trkpt lat="55.655533" lon="12.538934"><ele>2.75</ele></trkpt>
   <trkpt lat="55.655868" lon="12.539281"><ele>3.75</ele></trkpt>
   <trkpt lat="55.656071" lon="12.539459"><ele>3.75</ele></trkpt>
   <trkpt lat="55.656339" lon="12.539644"><ele>4</ele></trkpt>
   <trkpt lat="55.656511" lon="12.53974"><ele>4</ele></trkpt>
   <trkpt lat="55.65844" lon="12.540818"><ele>6</ele></trkpt>
   <trkpt lat="55.658614" lon="12.540919"><ele>5.75</ele></trkpt>
   <trkpt lat="55.658815" lon="12.541051"><ele>5.5</ele></trkpt>
   <trkpt lat="55.659105" lon="12.541275"><ele>5.25</ele></trkpt>
   <trkpt lat="55.659411" lon="12.541518"><ele>5.25</ele></trkpt>
   <trkpt lat="55.659655" lon="12.541708"><ele>5.5</ele></trkpt>
   <trkpt lat="55.660095" lon="12.541959"><ele>5.5</ele></trkpt>
   <trkpt lat="55.660174" lon="12.542007"><ele>5.25</ele></trkpt>
   <trkpt lat="55.660396" lon="12.542169"><ele>5</ele></trkpt>
   <trkpt lat="55.660619" lon="12.542388"><ele>5</ele></trkpt>
   <trkpt lat="55.660797" lon="12.542622"><ele>4.75</ele></trkpt>
   <trkpt lat="55.661003" lon="12.542977"><ele>4.25</ele></trkpt>
   <trkpt lat="55.661177" lon="12.543359"><ele>4</ele></trkpt>
   <trkpt lat="55.661343" lon="12.543781"><ele>4</ele></trkpt>
   <trkpt lat="55.661501" lon="12.544294"><ele>3.75</ele></trkpt>
   <trkpt lat="55.661565" lon="12.544548"><ele>3.75</ele></trkpt>
   <trkpt lat="55.661716" lon="12.545267"><ele>3.5</ele></trkpt>
   <trkpt lat="55.661788" lon="12.545559"><ele>3.25</ele></trkpt>
   <trkpt lat="55.66193" lon="12.546077"><ele>3</ele></trkpt>
   <trkpt lat="55.661968" lon="12.546232"><ele>2.75</ele></trkpt>
   <trkpt lat="55.662043" lon="12.5466"><ele>2.5</ele></trkpt>
   <trkpt lat="55.662074" lon="12.546772"><ele>2.25</ele></trkpt>
   <trkpt lat="55.662168" lon="12.547249"><ele>2.5</ele></trkpt>
   <trkpt lat="55.662383" lon="12.548108"><ele>3.25</ele></trkpt>
   <trkpt lat="55.66248" lon="12.548545"><ele>3.75</ele></trkpt>
   <trkpt lat="55.662526" lon="12.548781"><ele>3.75</ele></trkpt>
   <trkpt lat="55.662759" lon="12.550039"><ele>3.25</ele></trkpt>
   <trkpt lat="55.662926" lon="12.550871"><ele>3</ele></trkpt>
   <trkpt lat="55.663082" lon="12.551596"><ele>3</ele></trkpt>
   <trkpt lat="55.663423" lon="12.553082"><ele>3.75</ele></trkpt>
   <trkpt lat="55.663494" lon="12.553448"><ele>4</ele></trkpt>
   <trkpt lat="55.663565" lon="12.553881"><ele>3.75</ele></trkpt>
   <trkpt lat="55.663617" lon="12.554322"><ele>3.75</ele></trkpt>
   <trkpt lat="55.663653" lon="12.554786"><ele>3.5</ele></trkpt>
   <trkpt lat="55.663704" lon="12.555682"><ele>3</ele></trkpt>
   <trkpt lat="55.663737" lon="12.556154"><ele>2.5</ele></trkpt>
   <trkpt lat="55.663775" lon="12.556533"><ele>2</ele></trkpt>
   <trkpt lat="55.663841" lon="12.557011"><ele>2</ele></trkpt>
   <trkpt lat="55.66392" lon="12.557446"><ele>2</ele></trkpt>
   <trkpt lat="55.664048" lon="12.558001"><ele>1.25</ele></trkpt>
   <trkpt lat="55.664148" lon="12.55836"><ele>1</ele></trkpt>
   <trkpt lat="55.664212" lon="12.558562"><ele>1</ele></trkpt>
   <trkpt lat="55.66435" lon="12.558943"><ele>1.25</ele></trkpt>
   <trkpt lat="55.664626" lon="12.559576"><ele>1</ele></trkpt>
   <trkpt lat="55.664869" lon="12.560116"><ele>0</ele></trkpt>
   <trkpt lat="55.666238" lon="12.563151"><ele>0.5</ele></trkpt>
   <trkpt lat="55.66656" lon="12.563874"><ele>0</ele></trkpt>
   <trkpt lat="55.666671" lon="12.564121"><ele>0</ele></trkpt>
   <trkpt lat="55.666783" lon="12.564345"><ele>0.25</ele></trkpt>
   <trkpt lat="55.666785" lon="12.56435"><ele>0.25</ele></trkpt>
   <trkpt lat="55.666884" lon="12.564526"><ele>0.25</ele></trkpt>
   <trkpt lat="55.667056" lon="12.564793"><ele>0.5</ele></trkpt>
   <trkpt lat="55.667382" lon="12.565252"><ele>0.25</ele></trkpt>
   <trkpt lat="55.667734" lon="12.565721"><ele>0.75</ele></trkpt>
   <trkpt lat="55.667844" lon="12.565843"><ele>1</ele></trkpt>
   <trkpt lat="55.66806" lon="12.566032"><ele>1</ele></trkpt>
   <trkpt lat="55.668184" lon="12.566123"><ele>1</ele></trkpt>
   <trkpt lat="55.668317" lon="12.5662"><ele>1</ele></trkpt>
   <trkpt lat="55.668439" lon="12.566251"><ele>1</ele></trkpt>
   <trkpt lat="55.668639" lon="12.566307"><ele>1.5</ele></trkpt>
   <trkpt lat="55.668915" lon="12.566337"><ele>1.75</ele></trkpt>
   <trkpt lat="55.669137" lon="12.566378"><ele>2.25</ele></trkpt>
   <trkpt lat="55.669481" lon="12.566434"><ele>2.5</ele></trkpt>
   <trkpt lat="55.669682" lon="12.566464"><ele>2.75</ele></trkpt>
   <trkpt lat="55.66979" lon="12.566468"><ele>2.75</ele></trkpt>
   <trkpt lat="55.670072" lon="12.56645"><ele>3.25</ele></trkpt>
   <trkpt lat="55.670176" lon="12.566442"><ele>3.5</ele></trkpt>
   <trkpt lat="55.670512" lon="12.56638"><ele>4.5</ele></trkpt>
   <trkpt lat="55.670898" lon="12.566274"><ele>5.25</ele></trkpt>
   <trkpt lat="55.671123" lon="12.566175"><ele>4.75</ele></trkpt>
   <trkpt lat="55.671228" lon="12.566116"><ele>4.5</ele></trkpt>
   <trkpt lat="55.671376" lon="12.566019"><ele>4.25</ele></trkpt>
   <trkpt lat="55.671564" lon="12.56588"><ele>4</ele></trkpt>
   <trkpt lat="55.671686" lon="12.565773"/>
   <trkpt lat="55.672347" lon="12.565064"/>
   <trkpt lat="55.672668" lon="12.564717"/>
   <trkpt lat="55.672812" lon="12.56456"/>
  </trkseg>
 </trk>
</gpx>