<?xml version="1.0" encoding="UTF-8"?>
<!-- track-length = 78163 filtered ascend = 96 plain-ascend = 5 cost=78163 energy=1.0kwh time=1h 44m 12s -->
<gpx 
 xmlns="http://www.topografix.com/GPX/1/1" 
 xmlns:xsi="http://www.w3.org/2001/XMLSchema-instance" 
 xsi:schemaLocation="http://www.topografix.com/GPX/1/1 http://www.topografix.com/GPX/1/1/gpx.xsd" 
 version="1.1" 
 creator="BRouter-Web 0.18.1">
 <trk>
  <name>röderaull</name>
  <trkseg>
   <trkpt lat="51.284384" lon="13.430135"><ele>117.75</ele></trkpt>
   <trkpt lat="51.284465" lon="13.429935"><ele>117.75</ele></trkpt>
   <trkpt lat="51.284575" lon="13.429659"><ele>117.5</ele></trkpt>
   <trkpt lat="51.284649" lon="13.429483"><ele>117.25</ele></trkpt>
   <trkpt lat="51.284682" lon="13.429403"><ele>117.25</ele></trkpt>
   <trkpt lat="51.286224" lon="13.425592"><ele>116.5</ele></trkpt>
   <trkpt lat="51.286946" lon="13.423808"><ele>115.5</ele></trkpt>
   <trkpt lat="51.287282" lon="13.422978"><ele>115</ele></trkpt>
   <trkpt lat="51.287387" lon="13.422715"><ele>115</ele></trkpt>
   <trkpt lat="51.288445" lon="13.42013"><ele>114</ele></trkpt>
   <trkpt lat="51.28892" lon="13.418997"><ele>114</ele></trkpt>
   <trkpt lat="51.289332" lon="13.418046"><ele>114</ele></trkpt>
   <trkpt lat="51.290224" lon="13.415871"><ele>115.75</ele></trkpt>
   <trkpt lat="51.290878" lon="13.414233"><ele>115</ele></trkpt>
   <trkpt lat="51.291548" lon="13.412586"><ele>113</ele></trkpt>
   <trkpt lat="51.292116" lon="13.411232"><ele>111.5</ele></trkpt>
   <trkpt lat="51.292403" lon="13.410589"><ele>110.5</ele></trkpt>
   <trkpt lat="51.292763" lon="13.409811"><ele>109</ele></trkpt>
   <trkpt lat="51.293269" lon="13.408779"><ele>107.75</ele></trkpt>
   <trkpt lat="51.293564" lon="13.408213"><ele>108.5</ele></trkpt>
   <trkpt lat="51.293675" lon="13.408"><ele>108.75</ele></trkpt>
   <trkpt lat="51.294275" lon="13.4069"><ele>109.5</ele></trkpt>
   <trkpt lat="51.294534" lon="13.406413"><ele>110.75</ele></trkpt>
   <trkpt lat="51.294784" lon="13.405957"><ele>111</ele></trkpt>
   <trkpt lat="51.295266" lon="13.40507"><ele>112.75</ele></trkpt>
   <trkpt lat="51.295672" lon="13.404316"><ele>112.5</ele></trkpt>
   <trkpt lat="51.296302" lon="13.40315"><ele>112.5</ele></trkpt>
   <trkpt lat="51.297229" lon="13.401482"><ele>109</ele></trkpt>
   <trkpt lat="51.297599" lon="13.400825"><ele>107.5</ele></trkpt>
   <trkpt lat="51.297816" lon="13.400435"><ele>106</ele></trkpt>
   <trkpt lat="51.297914" lon="13.400276"><ele>105.5</ele></trkpt>
   <trkpt lat="51.302952" lon="13.391405"><ele>100.75</ele></trkpt>
   <trkpt lat="51.302988" lon="13.391344"><ele>100.75</ele></trkpt>
   <trkpt lat="51.303137" lon="13.391084"><ele>100.75</ele></trkpt>
   <trkpt lat="51.303238" lon="13.390904"><ele>100.75</ele></trkpt>
   <trkpt lat="51.307069" lon="13.384141"><ele>100</ele></trkpt>
   <trkpt lat="51.307186" lon="13.383933"><ele>100</ele></trkpt>
   <trkpt lat="51.307355" lon="13.383635"><ele>100.5</ele></trkpt>
   <trkpt lat="51.308958" lon="13.380811"><ele>99</ele></trkpt>
   <trkpt lat="51.311379" lon="13.376547"><ele>100.5</ele></trkpt>
   <trkpt lat="51.312888" lon="13.373869"><ele>100</ele></trkpt>
   <trkpt lat="51.316032" lon="13.368342"><ele>99.75</ele></trkpt>
   <trkpt lat="51.317056" lon="13.366527"><ele>98.75</ele></trkpt>
   <trkpt lat="51.317389" lon="13.36596"><ele>98</ele></trkpt>
   <trkpt lat="51.317626" lon="13.365537"><ele>97.5</ele></trkpt>
   <trkpt lat="51.317712" lon="13.365391"><ele>97.25</ele></trkpt>
   <trkpt lat="51.317804" lon="13.365226"><ele>97.25</ele></trkpt>
   <trkpt lat="51.31786" lon="13.365126"><ele>97</ele></trkpt>
   <trkpt lat="51.317978" lon="13.364913"><ele>97</ele></trkpt>
   <trkpt lat="51.318054" lon="13.364783"><ele>97</ele></trkpt>
   <trkpt lat="51.318093" lon="13.364714"><ele>97</ele></trkpt>
   <trkpt lat="51.318835" lon="13.36341"><ele>98</ele></trkpt>
   <trkpt lat="51.321046" lon="13.359505"><ele>97.25</ele></trkpt>
   <trkpt lat="51.321063" lon="13.359475"><ele>97.25</ele></trkpt>
   <trkpt lat="51.321817" lon="13.358148"><ele>97</ele></trkpt>
   <trkpt lat="51.322013" lon="13.357804"><ele>97.5</ele></trkpt>
   <trkpt lat="51.322368" lon="13.35715"><ele>98</ele></trkpt>
   <trkpt lat="51.322377" lon="13.357132"><ele>98</ele></trkpt>
   <trkpt lat="51.322953" lon="13.355988"><ele>98.25</ele></trkpt>
   <trkpt lat="51.323143" lon="13.355584"><ele>98</ele></trkpt>
   <trkpt lat="51.323339" lon="13.355168"><ele>98</ele></trkpt>
   <trkpt lat="51.323736" lon="13.354244"><ele>98.25</ele></trkpt>
   <trkpt lat="51.324052" lon="13.353467"><ele>98</ele></trkpt>
   <trkpt lat="51.324233" lon="13.352998"><ele>98</ele></trkpt>
   <trkpt lat="51.324576" lon="13.352031"><ele>98</ele></trkpt>
   <trkpt lat="51.32462" lon="13.351906"><ele>98</ele></trkpt>
   <trkpt lat="51.324739" lon="13.351571"><ele>97.75</ele></trkpt>
   <trkpt lat="51.3249" lon="13.351069"><ele>97.75</ele></trkpt>
   <trkpt lat="51.325033" lon="13.350653"><ele>97.75</ele></trkpt>
   <trkpt lat="51.325474" lon="13.349118"><ele>98.25</ele></trkpt>
   <trkpt lat="51.325676" lon="13.348329"><ele>98.75</ele></trkpt>
   <trkpt lat="51.325862" lon="13.347535"><ele>98</ele></trkpt>
   <trkpt lat="51.326077" lon="13.346562"><ele>98</ele></trkpt>
   <trkpt lat="51.326313" lon="13.34536"><ele>98.25</ele></trkpt>
   <trkpt lat="51.326474" lon="13.344419"><ele>97.25</ele></trkpt>
   <trkpt lat="51.326569" lon="13.343792"><ele>96.75</ele></trkpt>
   <trkpt lat="51.32662" lon="13.34345"><ele>96.75</ele></trkpt>
   <trkpt lat="51.326745" lon="13.342487"><ele>94.25</ele></trkpt>
   <trkpt lat="51.326852" lon="13.341537"><ele>93.25</ele></trkpt>
   <trkpt lat="51.326898" lon="13.341124"><ele>94.5</ele></trkpt>
   <trkpt lat="51.327035" lon="13.339373"><ele>97</ele></trkpt>
   <trkpt lat="51.327085" lon="13.338411"><ele>98.25</ele></trkpt>
   <trkpt lat="51.327104" lon="13.337928"><ele>98</ele></trkpt>
   <trkpt lat="51.327124" lon="13.337314"><ele>97.75</ele></trkpt>
   <trkpt lat="51.32713" lon="13.336636"><ele>97.5</ele></trkpt>
   <trkpt lat="51.327124" lon="13.336162"><ele>97.5</ele></trkpt>
   <trkpt lat="51.327106" lon="13.335737"><ele>97.5</ele></trkpt>
   <trkpt lat="51.327078" lon="13.335086"><ele>97.25</ele></trkpt>
   <trkpt lat="51.327013" lon="13.334204"><ele>97</ele></trkpt>
   <trkpt lat="51.326901" lon="13.33293"><ele>97.25</ele></trkpt>
   <trkpt lat="51.32687" lon="13.332591"><ele>97.5</ele></trkpt>
   <trkpt lat="51.326802" lon="13.332171"><ele>97.75</ele></trkpt>
   <trkpt lat="51.326738" lon="13.331619"><ele>98</ele></trkpt>
   <trkpt lat="51.326715" lon="13.331355"><ele>97.5</ele></trkpt>
   <trkpt lat="51.326611" lon="13.330164"><ele>97</ele></trkpt>
   <trkpt lat="51.326603" lon="13.330091"><ele>97</ele></trkpt>
   <trkpt lat="51.326592" lon="13.329981"><ele>97</ele></trkpt>
   <trkpt lat="51.326542" lon="13.329402"><ele>97</ele></trkpt>
   <trkpt lat="51.326413" lon="13.328242"><ele>97.25</ele></trkpt>
   <trkpt lat="51.326302" lon="13.327467"><ele>97.5</ele></trkpt>
   <trkpt lat="51.326233" lon="13.327045"><ele>97.25</ele></trkpt>
   <trkpt lat="51.326112" lon="13.326392"><ele>97.5</ele></trkpt>
   <trkpt lat="51.325939" lon="13.325542"><ele>98</ele></trkpt>
   <trkpt lat="51.325687" lon="13.324463"><ele>98.25</ele></trkpt>
   <trkpt lat="51.325564" lon="13.32397"><ele>98.5</ele></trkpt>
   <trkpt lat="51.325453" lon="13.323577"><ele>98</ele></trkpt>
   <trkpt lat="51.325191" lon="13.322649"><ele>98</ele></trkpt>
   <trkpt lat="51.32493" lon="13.321818"><ele>97.75</ele></trkpt>
   <trkpt lat="51.324575" lon="13.32077"><ele>98.25</ele></trkpt>
   <trkpt lat="51.324342" lon="13.320138"><ele>98</ele></trkpt>
   <trkpt lat="51.324033" lon="13.319339"><ele>98.5</ele></trkpt>
   <trkpt lat="51.324007" lon="13.319273"><ele>98.5</ele></trkpt>
   <trkpt lat="51.323472" lon="13.317931"><ele>97.25</ele></trkpt>
   <trkpt lat="51.323364" lon="13.317659"><ele>97</ele></trkpt>
   <trkpt lat="51.323035" lon="13.316879"><ele>96.5</ele></trkpt>
   <trkpt lat="51.322838" lon="13.316452"><ele>96.5</ele></trkpt>
   <trkpt lat="51.322662" lon="13.316062"><ele>96.75</ele></trkpt>
   <trkpt lat="51.321884" lon="13.314457"><ele>94.75</ele></trkpt>
   <trkpt lat="51.321512" lon="13.313689"><ele>94</ele></trkpt>
   <trkpt lat="51.321238" lon="13.313118"><ele>93.75</ele></trkpt>
   <trkpt lat="51.320762" lon="13.312133"><ele>93.75</ele></trkpt>
   <trkpt lat="51.320706" lon="13.312006"><ele>93.75</ele></trkpt>
   <trkpt lat="51.320503" lon="13.311586"><ele>93.5</ele></trkpt>
   <trkpt lat="51.319564" lon="13.309641"><ele>93.25</ele></trkpt>
   <trkpt lat="51.319189" lon="13.30886"><ele>93.75</ele></trkpt>
   <trkpt lat="51.319025" lon="13.308525"><ele>93.75</ele></trkpt>
   <trkpt lat="51.318823" lon="13.308111"><ele>93.5</ele></trkpt>
   <trkpt lat="51.318472" lon="13.307381"><ele>93.75</ele></trkpt>
   <trkpt lat="51.318425" lon="13.30728"><ele>93.75</ele></trkpt>
   <trkpt lat="51.317815" lon="13.306035"><ele>93.75</ele></trkpt>
   <trkpt lat="51.317397" lon="13.305161"><ele>93.75</ele></trkpt>
   <trkpt lat="51.317042" lon="13.304421"><ele>94</ele></trkpt>
   <trkpt lat="51.316244" lon="13.302774"><ele>94.25</ele></trkpt>
   <trkpt lat="51.315649" lon="13.301562"><ele>93.75</ele></trkpt>
   <trkpt lat="51.315369" lon="13.301035"><ele>94</ele></trkpt>
   <trkpt lat="51.315124" lon="13.300606"><ele>94.5</ele></trkpt>
   <trkpt lat="51.314174" lon="13.299046"><ele>97.75</ele></trkpt>
   <trkpt lat="51.313815" lon="13.298451"><ele>98.5</ele></trkpt>
   <trkpt lat="51.313396" lon="13.297711"><ele>99</ele></trkpt>
   <trkpt lat="51.313135" lon="13.297215"><ele>98.5</ele></trkpt>
   <trkpt lat="51.312948" lon="13.296836"><ele>98.5</ele></trkpt>
   <trkpt lat="51.312682" lon="13.296302"><ele>98.75</ele></trkpt>
   <trkpt lat="51.312094" lon="13.295127"><ele>99.25</ele></trkpt>
   <trkpt lat="51.311301" lon="13.293539"><ele>100</ele></trkpt>
   <trkpt lat="51.311237" lon="13.293411"><ele>100</ele></trkpt>
   <trkpt lat="51.31122" lon="13.293377"><ele>100</ele></trkpt>
   <trkpt lat="51.311206" lon="13.293349"><ele>100</ele></trkpt>
   <trkpt lat="51.311046" lon="13.292988"><ele>100</ele></trkpt>
   <trkpt lat="51.311017" lon="13.292912"><ele>100</ele></trkpt>
   <trkpt lat="51.310911" lon="13.292665"><ele>100.25</ele></trkpt>
   <trkpt lat="51.310837" lon="13.292513"><ele>100.75</ele></trkpt>
   <trkpt lat="51.310689" lon="13.292129"><ele>101.75</ele></trkpt>
   <trkpt lat="51.310615" lon="13.291908"><ele>102.25</ele></trkpt>
   <trkpt lat="51.31055" lon="13.291696"><ele>102.5</ele></trkpt>
   <trkpt lat="51.310434" lon="13.291237"><ele>102.75</ele></trkpt>
   <trkpt lat="51.310345" lon="13.290804"><ele>102.75</ele></trkpt>
   <trkpt lat="51.310317" lon="13.290637"><ele>102.75</ele></trkpt>
   <trkpt lat="51.310245" lon="13.290107"><ele>102.25</ele></trkpt>
   <trkpt lat="51.310227" lon="13.289949"><ele>102.25</ele></trkpt>
   <trkpt lat="51.310182" lon="13.289579"><ele>102.5</ele></trkpt>
   <trkpt lat="51.310154" lon="13.289395"><ele>102.75</ele></trkpt>
   <trkpt lat="51.309881" lon="13.287751"><ele>104.5</ele></trkpt>
   <trkpt lat="51.309872" lon="13.287694"><ele>104.5</ele></trkpt>
   <trkpt lat="51.309817" lon="13.287381"><ele>104.5</ele></trkpt>
   <trkpt lat="51.309809" lon="13.287331"><ele>104.5</ele></trkpt>
   <trkpt lat="51.309798" lon="13.287269"><ele>104.5</ele></trkpt>
   <trkpt lat="51.309763" lon="13.287094"><ele>104.5</ele></trkpt>
   <trkpt lat="51.30962" lon="13.286303"><ele>104.75</ele></trkpt>
   <trkpt lat="51.309551" lon="13.285904"><ele>105</ele></trkpt>
   <trkpt lat="51.309463" lon="13.285381"><ele>105</ele></trkpt>
   <trkpt lat="51.309384" lon="13.284916"><ele>104.75</ele></trkpt>
   <trkpt lat="51.309346" lon="13.284648"><ele>104.5</ele></trkpt>
   <trkpt lat="51.309318" lon="13.284353"><ele>104.25</ele></trkpt>
   <trkpt lat="51.309287" lon="13.283883"><ele>104</ele></trkpt>
   <trkpt lat="51.309274" lon="13.283611"><ele>104</ele></trkpt>
   <trkpt lat="51.309245" lon="13.282558"><ele>104.75</ele></trkpt>
   <trkpt lat="51.309246" lon="13.281606"><ele>105</ele></trkpt>
   <trkpt lat="51.30928" lon="13.280749"><ele>105.75</ele></trkpt>
   <trkpt lat="51.30932" lon="13.280117"><ele>105.75</ele></trkpt>
   <trkpt lat="51.309388" lon="13.279379"><ele>105.75</ele></trkpt>
   <trkpt lat="51.309483" lon="13.278599"><ele>106</ele></trkpt>
   <trkpt lat="51.309607" lon="13.277827"><ele>105.5</ele></trkpt>
   <trkpt lat="51.309676" lon="13.277454"><ele>105.25</ele></trkpt>
   <trkpt lat="51.309752" lon="13.27709"><ele>105.25</ele></trkpt>
   <trkpt lat="51.30986" lon="13.276622"><ele>105</ele></trkpt>
   <trkpt lat="51.310025" lon="13.275995"><ele>104.75</ele></trkpt>
   <trkpt lat="51.310179" lon="13.275453"><ele>104.75</ele></trkpt>
   <trkpt lat="51.310337" lon="13.274886"><ele>105</ele></trkpt>
   <trkpt lat="51.310488" lon="13.274254"><ele>105.25</ele></trkpt>
   <trkpt lat="51.310564" lon="13.27396"><ele>105.25</ele></trkpt>
   <trkpt lat="51.31058" lon="13.273906"><ele>105.25</ele></trkpt>
   <trkpt lat="51.310874" lon="13.27291"><ele>104.75</ele></trkpt>
   <trkpt lat="51.310911" lon="13.272787"><ele>104.75</ele></trkpt>
   <trkpt lat="51.310953" lon="13.272626"><ele>104.75</ele></trkpt>
   <trkpt lat="51.311098" lon="13.271978"><ele>104.5</ele></trkpt>
   <trkpt lat="51.311242" lon="13.271308"><ele>104.75</ele></trkpt>
   <trkpt lat="51.311342" lon="13.270909"><ele>105.25</ele></trkpt>
   <trkpt lat="51.311443" lon="13.270523"><ele>105.25</ele></trkpt>
   <trkpt lat="51.311539" lon="13.270098"><ele>105</ele></trkpt>
   <trkpt lat="51.311677" lon="13.269358"><ele>104</ele></trkpt>
   <trkpt lat="51.311718" lon="13.269171"><ele>104</ele></trkpt>
   <trkpt lat="51.31176" lon="13.268978"><ele>104</ele></trkpt>
   <trkpt lat="51.311765" lon="13.268958"><ele>104</ele></trkpt>
   <trkpt lat="51.311855" lon="13.268554"><ele>104</ele></trkpt>
   <trkpt lat="51.312049" lon="13.267562"><ele>105.25</ele></trkpt>
   <trkpt lat="51.3123" lon="13.266113"><ele>106</ele></trkpt>
   <trkpt lat="51.312301" lon="13.266104"><ele>106</ele></trkpt>
   <trkpt lat="51.312418" lon="13.265345"><ele>106</ele></trkpt>
   <trkpt lat="51.312476" lon="13.264931"><ele>105.75</ele></trkpt>
   <trkpt lat="51.312532" lon="13.264507"><ele>106</ele></trkpt>
   <trkpt lat="51.31258" lon="13.264116"><ele>106</ele></trkpt>
   <trkpt lat="51.312604" lon="13.26389"><ele>106</ele></trkpt>
   <trkpt lat="51.312652" lon="13.263467"><ele>106.25</ele></trkpt>
   <trkpt lat="51.312732" lon="13.262612"><ele>107.25</ele></trkpt>
   <trkpt lat="51.312794" lon="13.261809"><ele>107.5</ele></trkpt>
   <trkpt lat="51.312848" lon="13.260858"><ele>106.75</ele></trkpt>
   <trkpt lat="51.312874" lon="13.260266"><ele>106</ele></trkpt>
   <trkpt lat="51.312897" lon="13.259645"><ele>106</ele></trkpt>
   <trkpt lat="51.312916" lon="13.258853"><ele>106.5</ele></trkpt>
   <trkpt lat="51.312925" lon="13.257994"><ele>107.25</ele></trkpt>
   <trkpt lat="51.312909" lon="13.256858"><ele>108.25</ele></trkpt>
   <trkpt lat="51.31289" lon="13.256116"><ele>108.25</ele></trkpt>
   <trkpt lat="51.31286" lon="13.255514"><ele>107.5</ele></trkpt>
   <trkpt lat="51.31279" lon="13.254279"><ele>105.75</ele></trkpt>
   <trkpt lat="51.312718" lon="13.253411"><ele>105.5</ele></trkpt>
   <trkpt lat="51.312586" lon="13.25217"><ele>104.25</ele></trkpt>
   <trkpt lat="51.312583" lon="13.252142"><ele>104.25</ele></trkpt>
   <trkpt lat="51.312268" lon="13.249659"><ele>103.75</ele></trkpt>
   <trkpt lat="51.312201" lon="13.24915"><ele>103.25</ele></trkpt>
   <trkpt lat="51.312172" lon="13.248945"><ele>103</ele></trkpt>
   <trkpt lat="51.312086" lon="13.248287"><ele>102.75</ele></trkpt>
   <trkpt lat="51.310766" lon="13.238088"><ele>103.75</ele></trkpt>
   <trkpt lat="51.310434" lon="13.235527"><ele>102.75</ele></trkpt>
   <trkpt lat="51.310203" lon="13.233752"><ele>103.75</ele></trkpt>
   <trkpt lat="51.309798" lon="13.230632"><ele>105</ele></trkpt>
   <trkpt lat="51.309423" lon="13.227743"><ele>108.5</ele></trkpt>
   <trkpt lat="51.308969" lon="13.224267"><ele>113.5</ele></trkpt>
   <trkpt lat="51.308073" lon="13.217372"><ele>109</ele></trkpt>
   <trkpt lat="51.308053" lon="13.217209"><ele>109</ele></trkpt>
   <trkpt lat="51.308031" lon="13.217045"><ele>109</ele></trkpt>
   <trkpt lat="51.305926" lon="13.200848"><ele>115.75</ele></trkpt>
   <trkpt lat="51.305714" lon="13.199208"><ele>114.25</ele></trkpt>
   <trkpt lat="51.305529" lon="13.197805"><ele>114.25</ele></trkpt>
   <trkpt lat="51.305134" lon="13.194753"><ele>112.75</ele></trkpt>
   <trkpt lat="51.304792" lon="13.192123"><ele>113.75</ele></trkpt>
   <trkpt lat="51.304456" lon="13.189557"><ele>114.25</ele></trkpt>
   <trkpt lat="51.304247" lon="13.187941"><ele>114.75</ele></trkpt>
   <trkpt lat="51.304054" lon="13.186451"><ele>114.75</ele></trkpt>
   <trkpt lat="51.303677" lon="13.183577"><ele>113.5</ele></trkpt>
   <trkpt lat="51.303283" lon="13.180551"><ele>113</ele></trkpt>
   <trkpt lat="51.302933" lon="13.177864"><ele>115.5</ele></trkpt>
   <trkpt lat="51.302768" lon="13.176522"><ele>115.75</ele></trkpt>
   <trkpt lat="51.302689" lon="13.175813"><ele>114.75</ele></trkpt>
   <trkpt lat="51.302624" lon="13.175204"><ele>114.75</ele></trkpt>
   <trkpt lat="51.302449" lon="13.173293"><ele>115</ele></trkpt>
   <trkpt lat="51.302304" lon="13.171341"><ele>112.75</ele></trkpt>
   <trkpt lat="51.302188" lon="13.16944"><ele>112</ele></trkpt>
   <trkpt lat="51.302134" lon="13.168407"><ele>112.5</ele></trkpt>
   <trkpt lat="51.302058" lon="13.166372"><ele>110.75</ele></trkpt>
   <trkpt lat="51.302052" lon="13.166169"><ele>111</ele></trkpt>
   <trkpt lat="51.302031" lon="13.165541"><ele>111.5</ele></trkpt>
   <trkpt lat="51.302008" lon="13.164458"><ele>112.5</ele></trkpt>
   <trkpt lat="51.302002" lon="13.163593"><ele>113.25</ele></trkpt>
   <trkpt lat="51.302007" lon="13.162801"><ele>113</ele></trkpt>
   <trkpt lat="51.302003" lon="13.161941"><ele>113</ele></trkpt>
   <trkpt lat="51.30201" lon="13.161071"><ele>113.5</ele></trkpt>
   <trkpt lat="51.302099" lon="13.158129"><ele>115</ele></trkpt>
   <trkpt lat="51.302142" lon="13.157142"><ele>115.75</ele></trkpt>
   <trkpt lat="51.302252" lon="13.155094"><ele>119.25</ele></trkpt>
   <trkpt lat="51.302321" lon="13.154102"><ele>121.5</ele></trkpt>
   <trkpt lat="51.302469" lon="13.152286"><ele>124</ele></trkpt>
   <trkpt lat="51.302657" lon="13.150301"><ele>126</ele></trkpt>
   <trkpt lat="51.302894" lon="13.148263"><ele>120.5</ele></trkpt>
   <trkpt lat="51.303022" lon="13.14725"><ele>118.75</ele></trkpt>
   <trkpt lat="51.303161" lon="13.146251"><ele>118.75</ele></trkpt>
   <trkpt lat="51.303414" lon="13.144561"><ele>120.75</ele></trkpt>
   <trkpt lat="51.303696" lon="13.142863"><ele>120.75</ele></trkpt>
   <trkpt lat="51.303857" lon="13.141972"><ele>120.5</ele></trkpt>
   <trkpt lat="51.304043" lon="13.140967"><ele>119</ele></trkpt>
   <trkpt lat="51.304233" lon="13.13999"><ele>117.5</ele></trkpt>
   <trkpt lat="51.304432" lon="13.139018"><ele>118</ele></trkpt>
   <trkpt lat="51.30484" lon="13.137193"><ele>120.5</ele></trkpt>
   <trkpt lat="51.305085" lon="13.136192"><ele>120.75</ele></trkpt>
   <trkpt lat="51.305297" lon="13.135294"><ele>119.5</ele></trkpt>
   <trkpt lat="51.305812" lon="13.133335"><ele>116</ele></trkpt>
   <trkpt lat="51.306074" lon="13.132376"><ele>117.25</ele></trkpt>
   <trkpt lat="51.306181" lon="13.132004"><ele>117.5</ele></trkpt>
   <trkpt lat="51.306232" lon="13.131823"><ele>117.75</ele></trkpt>
   <trkpt lat="51.306415" lon="13.131176"><ele>119</ele></trkpt>
   <trkpt lat="51.306833" lon="13.129728"><ele>122</ele></trkpt>
   <trkpt lat="51.307045" lon="13.129038"><ele>122.75</ele></trkpt>
   <trkpt lat="51.308175" lon="13.125657"><ele>120.25</ele></trkpt>
   <trkpt lat="51.308439" lon="13.124862"><ele>119.5</ele></trkpt>
   <trkpt lat="51.308981" lon="13.123234"><ele>118.75</ele></trkpt>
   <trkpt lat="51.309244" lon="13.122423"><ele>119.5</ele></trkpt>
   <trkpt lat="51.309504" lon="13.121604"><ele>119.75</ele></trkpt>
   <trkpt lat="51.309747" lon="13.120776"><ele>121</ele></trkpt>
   <trkpt lat="51.309901" lon="13.120219"><ele>121</ele></trkpt>
   <trkpt lat="51.309948" lon="13.120038"><ele>121</ele></trkpt>
   <trkpt lat="51.309977" lon="13.11993"><ele>121.25</ele></trkpt>
   <trkpt lat="51.310174" lon="13.119146"><ele>123</ele></trkpt>
   <trkpt lat="51.310502" lon="13.117682"><ele>124.75</ele></trkpt>
   <trkpt lat="51.310614" lon="13.117129"><ele>125</ele></trkpt>
   <trkpt lat="51.310791" lon="13.116148"><ele>123.75</ele></trkpt>
   <trkpt lat="51.311003" lon="13.114807"><ele>122.25</ele></trkpt>
   <trkpt lat="51.311114" lon="13.113972"><ele>121.25</ele></trkpt>
   <trkpt lat="51.311186" lon="13.113346"><ele>121.75</ele></trkpt>
   <trkpt lat="51.311244" lon="13.112801"><ele>122.25</ele></trkpt>
   <trkpt lat="51.311261" lon="13.11264"><ele>122.5</ele></trkpt>
   <trkpt lat="51.311284" lon="13.11242"><ele>122.5</ele></trkpt>
   <trkpt lat="51.311432" lon="13.111138"><ele>124.25</ele></trkpt>
   <trkpt lat="51.311485" lon="13.110399"><ele>124.25</ele></trkpt>
   <trkpt lat="51.311598" lon="13.107808"><ele>123.5</ele></trkpt>
   <trkpt lat="51.311673" lon="13.106864"><ele>124.75</ele></trkpt>
   <trkpt lat="51.311701" lon="13.106562"><ele>125</ele></trkpt>
   <trkpt lat="51.311734" lon="13.106218"><ele>125.25</ele></trkpt>
   <trkpt lat="51.311759" lon="13.105811"><ele>125.75</ele></trkpt>
   <trkpt lat="51.311782" lon="13.105367"><ele>126.25</ele></trkpt>
   <trkpt lat="51.311894" lon="13.102685"><ele>128.5</ele></trkpt>
   <trkpt lat="51.311932" lon="13.101978"><ele>128.75</ele></trkpt>
   <trkpt lat="51.311959" lon="13.101565"><ele>129</ele></trkpt>
   <trkpt lat="51.312018" lon="13.100855"><ele>129.5</ele></trkpt>
   <trkpt lat="51.312053" lon="13.100518"><ele>130</ele></trkpt>
   <trkpt lat="51.312123" lon="13.099896"><ele>130.75</ele></trkpt>
   <trkpt lat="51.312218" lon="13.099165"><ele>131.25</ele></trkpt>
   <trkpt lat="51.312349" lon="13.098329"><ele>131</ele></trkpt>
   <trkpt lat="51.312505" lon="13.097466"><ele>132</ele></trkpt>
   <trkpt lat="51.312678" lon="13.096629"><ele>134</ele></trkpt>
   <trkpt lat="51.31279" lon="13.096133"><ele>135.75</ele></trkpt>
   <trkpt lat="51.31305" lon="13.095073"><ele>136.5</ele></trkpt>
   <trkpt lat="51.313237" lon="13.09432"><ele>135.5</ele></trkpt>
   <trkpt lat="51.313469" lon="13.093401"><ele>135</ele></trkpt>
   <trkpt lat="51.313564" lon="13.093062"><ele>135.5</ele></trkpt>
   <trkpt lat="51.313658" lon="13.092758"><ele>135.75</ele></trkpt>
   <trkpt lat="51.314143" lon="13.091352"><ele>135.75</ele></trkpt>
   <trkpt lat="51.314344" lon="13.090792"><ele>136.75</ele></trkpt>
   <trkpt lat="51.314584" lon="13.090082"><ele>136.75</ele></trkpt>
   <trkpt lat="51.314731" lon="13.089604"><ele>137</ele></trkpt>
   <trkpt lat="51.314955" lon="13.088943"><ele>137</ele></trkpt>
   <trkpt lat="51.314977" lon="13.088877"><ele>137</ele></trkpt>
   <trkpt lat="51.3168" lon="13.083762"><ele>131</ele></trkpt>
   <trkpt lat="51.317298" lon="13.082381"><ele>128</ele></trkpt>
   <trkpt lat="51.317372" lon="13.082177"><ele>128</ele></trkpt>
   <trkpt lat="51.317508" lon="13.081776"><ele>128</ele></trkpt>
   <trkpt lat="51.319846" lon="13.075119"><ele>131.25</ele></trkpt>
   <trkpt lat="51.320798" lon="13.072436"><ele>130</ele></trkpt>
   <trkpt lat="51.321211" lon="13.071291"><ele>129.25</ele></trkpt>
   <trkpt lat="51.32226" lon="13.068331"><ele>129.25</ele></trkpt>
   <trkpt lat="51.322284" lon="13.068262"><ele>129</ele></trkpt>
   <trkpt lat="51.322632" lon="13.067281"><ele>128.5</ele></trkpt>
   <trkpt lat="51.323999" lon="13.063414"><ele>127.75</ele></trkpt>
   <trkpt lat="51.325629" lon="13.058838"><ele>128.75</ele></trkpt>
   <trkpt lat="51.326454" lon="13.056467"><ele>129.75</ele></trkpt>
   <trkpt lat="51.326952" lon="13.055076"><ele>128.5</ele></trkpt>
   <trkpt lat="51.327014" lon="13.054906"><ele>128.5</ele></trkpt>
   <trkpt lat="51.327159" lon="13.054486"><ele>129.25</ele></trkpt>
   <trkpt lat="51.32829" lon="13.051314"><ele>132.75</ele></trkpt>
   <trkpt lat="51.329696" lon="13.047335"><ele>131.75</ele></trkpt>
   <trkpt lat="51.329752" lon="13.04718"><ele>131.5</ele></trkpt>
   <trkpt lat="51.330301" lon="13.045657"><ele>129.5</ele></trkpt>
   <trkpt lat="51.33037" lon="13.045464"><ele>129.5</ele></trkpt>
   <trkpt lat="51.330559" lon="13.044911"><ele>130.5</ele></trkpt>
   <trkpt lat="51.331244" lon="13.042964"><ele>134.75</ele></trkpt>
   <trkpt lat="51.332345" lon="13.03982"><ele>138</ele></trkpt>
   <trkpt lat="51.333361" lon="13.036994"><ele>139.75</ele></trkpt>
   <trkpt lat="51.333888" lon="13.03549"><ele>139</ele></trkpt>
   <trkpt lat="51.334347" lon="13.034214"><ele>138.5</ele></trkpt>
   <trkpt lat="51.335192" lon="13.031814"><ele>137.75</ele></trkpt>
   <trkpt lat="51.335446" lon="13.031097"><ele>138</ele></trkpt>
   <trkpt lat="51.336498" lon="13.028132"><ele>140</ele></trkpt>
   <trkpt lat="51.337719" lon="13.024635"><ele>142.25</ele></trkpt>
   <trkpt lat="51.338769" lon="13.021599"><ele>144</ele></trkpt>
   <trkpt lat="51.340683" lon="13.016199"><ele>148.75</ele></trkpt>
   <trkpt lat="51.342134" lon="13.012104"><ele>147.25</ele></trkpt>
   <trkpt lat="51.343021" lon="13.009602"><ele>146.75</ele></trkpt>
   <trkpt lat="51.343959" lon="13.007032"><ele>144.75</ele></trkpt>
   <trkpt lat="51.345598" lon="13.002396"><ele>146.25</ele></trkpt>
   <trkpt lat="51.347293" lon="12.997609"><ele>147.5</ele></trkpt>
   <trkpt lat="51.348933" lon="12.992953"><ele>149</ele></trkpt>
   <trkpt lat="51.349371" lon="12.991638"><ele>151</ele></trkpt>
   <trkpt lat="51.34963" lon="12.990784"><ele>151.5</ele></trkpt>
   <trkpt lat="51.349812" lon="12.99015"><ele>151.75</ele></trkpt>
   <trkpt lat="51.35001" lon="12.989391"><ele>151.25</ele></trkpt>
   <trkpt lat="51.350121" lon="12.988938"><ele>151.25</ele></trkpt>
   <trkpt lat="51.350318" lon="12.988079"><ele>151.75</ele></trkpt>
   <trkpt lat="51.350445" lon="12.987447"><ele>152.5</ele></trkpt>
   <trkpt lat="51.35055" lon="12.986883"><ele>152.5</ele></trkpt>
   <trkpt lat="51.350784" lon="12.985492"><ele>153.5</ele></trkpt>
   <trkpt lat="51.350869" lon="12.984907"><ele>153.75</ele></trkpt>
   <trkpt lat="51.350985" lon="12.984024"><ele>151.75</ele></trkpt>
   <trkpt lat="51.351065" lon="12.983337"><ele>151</ele></trkpt>
   <trkpt lat="51.351142" lon="12.982604"><ele>150</ele></trkpt>
   <trkpt lat="51.351185" lon="12.982145"><ele>150</ele></trkpt>
   <trkpt lat="51.351323" lon="12.980489"><ele>150.5</ele></trkpt>
   <trkpt lat="51.351656" lon="12.976264"><ele>152.25</ele></trkpt>
   <trkpt lat="51.35207" lon="12.971051"><ele>154.75</ele></trkpt>
   <trkpt lat="51.353232" lon="12.956872"><ele>153.25</ele></trkpt>
   <trkpt lat="51.353964" lon="12.947842"><ele>152</ele></trkpt>
   <trkpt lat="51.354097" lon="12.94578"><ele>151</ele></trkpt>
   <trkpt lat="51.354153" lon="12.944341"><ele>151.75</ele></trkpt>
   <trkpt lat="51.354172" lon="12.943602"><ele>151.75</ele></trkpt>
   <trkpt lat="51.35418" lon="12.942802"><ele>151.75</ele></trkpt>
   <trkpt lat="51.354182" lon="12.942544"><ele>151.75</ele></trkpt>
   <trkpt lat="51.354177" lon="12.940997"><ele>152</ele></trkpt>
   <trkpt lat="51.354102" lon="12.938047"><ele>151.25</ele></trkpt>
   <trkpt lat="51.353708" lon="12.929773"><ele>152.75</ele></trkpt>
   <trkpt lat="51.353371" lon="12.922209"><ele>151.75</ele></trkpt>
   <trkpt lat="51.353312" lon="12.92059"><ele>151</ele></trkpt>
   <trkpt lat="51.352915" lon="12.911418"><ele>154.5</ele></trkpt>
   <trkpt lat="51.352699" lon="12.907055"><ele>153.5</ele></trkpt>
   <trkpt lat="51.352267" lon="12.897462"><ele>157.25</ele></trkpt>
   <trkpt lat="51.352033" lon="12.892201"><ele>153</ele></trkpt>
   <trkpt lat="51.352032" lon="12.892188"><ele>153</ele></trkpt>
   <trkpt lat="51.351775" lon="12.886437"><ele>158.5</ele></trkpt>
   <trkpt lat="51.351763" lon="12.885366"><ele>158</ele></trkpt>
   <trkpt lat="51.351691" lon="12.883758"><ele>156.5</ele></trkpt>
   <trkpt lat="51.351496" lon="12.879389"><ele>154</ele></trkpt>
   <trkpt lat="51.351152" lon="12.871767"><ele>151.25</ele></trkpt>
   <trkpt lat="51.350961" lon="12.867581"><ele>152</ele></trkpt>
   <trkpt lat="51.350928" lon="12.866811"><ele>152.75</ele></trkpt>
   <trkpt lat="51.350872" lon="12.86569"><ele>150.75</ele></trkpt>
   <trkpt lat="51.35079" lon="12.864622"><ele>149.5</ele></trkpt>
   <trkpt lat="51.350538" lon="12.859114"><ele>149.5</ele></trkpt>
   <trkpt lat="51.350327" lon="12.854338"><ele>151.25</ele></trkpt>
   <trkpt lat="51.349851" lon="12.843771"><ele>150</ele></trkpt>
   <trkpt lat="51.34945" lon="12.834892"><ele>154.75</ele></trkpt>
   <trkpt lat="51.349408" lon="12.833967"><ele>155.5</ele></trkpt>
   <trkpt lat="51.349365" lon="12.833002"><ele>156</ele></trkpt>
   <trkpt lat="51.349182" lon="12.828779"><ele>156</ele></trkpt>
   <trkpt lat="51.349167" lon="12.827051"><ele>156</ele></trkpt>
   <trkpt lat="51.349195" lon="12.825398"><ele>156</ele></trkpt>
   <trkpt lat="51.349256" lon="12.824009"><ele>156</ele></trkpt>
   <trkpt lat="51.349335" lon="12.822621"><ele>155.25</ele></trkpt>
   <trkpt lat="51.349432" lon="12.821471"><ele>155.25</ele></trkpt>
   <trkpt lat="51.349541" lon="12.820322"><ele>155.5</ele></trkpt>
   <trkpt lat="51.349741" lon="12.818564"><ele>155.25</ele></trkpt>
   <trkpt lat="51.349949" lon="12.816717"><ele>154.75</ele></trkpt>
   <trkpt lat="51.350476" lon="12.812404"><ele>153</ele></trkpt>
   <trkpt lat="51.351013" lon="12.807941"><ele>153.5</ele></trkpt>
   <trkpt lat="51.351106" lon="12.807165"><ele>152.5</ele></trkpt>
   <trkpt lat="51.352427" lon="12.796302"><ele>144</ele></trkpt>
   <trkpt lat="51.352927" lon="12.792093"><ele>140</ele></trkpt>
   <trkpt lat="51.353021" lon="12.791174"><ele>140</ele></trkpt>
   <trkpt lat="51.353122" lon="12.789824"><ele>139.5</ele></trkpt>
   <trkpt lat="51.353144" lon="12.789022"><ele>137.75</ele></trkpt>
   <trkpt lat="51.353138" lon="12.788232"><ele>136.75</ele></trkpt>
   <trkpt lat="51.353088" lon="12.78687"><ele>134.5</ele></trkpt>
   <trkpt lat="51.353009" lon="12.785406"><ele>133.25</ele></trkpt>
   <trkpt lat="51.35298" lon="12.78491"><ele>133.25</ele></trkpt>
   <trkpt lat="51.352967" lon="12.784693"><ele>133.25</ele></trkpt>
   <trkpt lat="51.352936" lon="12.784023"><ele>134</ele></trkpt>
   <trkpt lat="51.352886" lon="12.782944"><ele>134.5</ele></trkpt>
   <trkpt lat="51.352854" lon="12.781963"><ele>134.75</ele></trkpt>
   <trkpt lat="51.352886" lon="12.780819"><ele>135.75</ele></trkpt>
   <trkpt lat="51.352913" lon="12.780373"><ele>136.5</ele></trkpt>
   <trkpt lat="51.352947" lon="12.779906"><ele>137</ele></trkpt>
   <trkpt lat="51.353033" lon="12.778977"><ele>137.5</ele></trkpt>
   <trkpt lat="51.35306" lon="12.77878"><ele>137.75</ele></trkpt>
   <trkpt lat="51.353145" lon="12.778143"><ele>138.25</ele></trkpt>
   <trkpt lat="51.353446" lon="12.776522"><ele>139.25</ele></trkpt>
   <trkpt lat="51.353644" lon="12.775772"><ele>140</ele></trkpt>
   <trkpt lat="51.353849" lon="12.775052"><ele>140</ele></trkpt>
   <trkpt lat="51.354157" lon="12.774055"><ele>140</ele></trkpt>
   <trkpt lat="51.35442" lon="12.773258"><ele>139.5</ele></trkpt>
   <trkpt lat="51.354881" lon="12.771946"><ele>139</ele></trkpt>
   <trkpt lat="51.355441" lon="12.770276"><ele>138</ele></trkpt>
   <trkpt lat="51.357164" lon="12.765226"><ele>133</ele></trkpt>
   <trkpt lat="51.357863" lon="12.763177"><ele>131.25</ele></trkpt>
   <trkpt lat="51.35866" lon="12.76084"><ele>130.25</ele></trkpt>
   <trkpt lat="51.360987" lon="12.754047"><ele>127</ele></trkpt>
   <trkpt lat="51.362061" lon="12.750902"><ele>126</ele></trkpt>
   <trkpt lat="51.362286" lon="12.750234"><ele>125.75</ele></trkpt>
   <trkpt lat="51.362559" lon="12.749426"><ele>125.25</ele></trkpt>
   <trkpt lat="51.363503" lon="12.746129"><ele>125.25</ele></trkpt>
   <trkpt lat="51.363688" lon="12.745334"><ele>125</ele></trkpt>
   <trkpt lat="51.363757" lon="12.745027"><ele>124.75</ele></trkpt>
   <trkpt lat="51.363813" lon="12.744731"><ele>124.5</ele></trkpt>
   <trkpt lat="51.363961" lon="12.743864"><ele>124</ele></trkpt>
   <trkpt lat="51.364039" lon="12.743346"><ele>124</ele></trkpt>
   <trkpt lat="51.364078" lon="12.74299"><ele>124</ele></trkpt>
   <trkpt lat="51.364102" lon="12.742701"><ele>124</ele></trkpt>
   <trkpt lat="51.364149" lon="12.74185"><ele>124</ele></trkpt>
   <trkpt lat="51.364154" lon="12.741733"><ele>124</ele></trkpt>
   <trkpt lat="51.3642" lon="12.740932"><ele>123</ele></trkpt>
   <trkpt lat="51.364243" lon="12.740026"><ele>123</ele></trkpt>
   <trkpt lat="51.364249" lon="12.739579"><ele>123</ele></trkpt>
   <trkpt lat="51.364232" lon="12.738752"><ele>123</ele></trkpt>
   <trkpt lat="51.36419" lon="12.737996"><ele>123.25</ele></trkpt>
   <trkpt lat="51.364172" lon="12.737515"><ele>123.75</ele></trkpt>
   <trkpt lat="51.364164" lon="12.737108"><ele>124</ele></trkpt>
   <trkpt lat="51.364141" lon="12.736564"><ele>123.75</ele></trkpt>
   <trkpt lat="51.364085" lon="12.735947"><ele>122.25</ele></trkpt>
   <trkpt lat="51.363991" lon="12.734965"><ele>120.75</ele></trkpt>
   <trkpt lat="51.363953" lon="12.734743"><ele>120.5</ele></trkpt>
   <trkpt lat="51.36385" lon="12.734158"><ele>120.5</ele></trkpt>
   <trkpt lat="51.363694" lon="12.733415"><ele>120.25</ele></trkpt>
   <trkpt lat="51.363501" lon="12.732602"><ele>119.5</ele></trkpt>
   <trkpt lat="51.363327" lon="12.731961"><ele>119</ele></trkpt>
   <trkpt lat="51.363249" lon="12.731703"><ele>119</ele></trkpt>
   <trkpt lat="51.363099" lon="12.73121"><ele>119</ele></trkpt>
   <trkpt lat="51.362849" lon="12.730497"><ele>118.75</ele></trkpt>
   <trkpt lat="51.3626" lon="12.729855"><ele>117.75</ele></trkpt>
   <trkpt lat="51.362346" lon="12.729277"><ele>116.25</ele></trkpt>
   <trkpt lat="51.361907" lon="12.728328"><ele>115.25</ele></trkpt>
   <trkpt lat="51.361581" lon="12.727677"><ele>115</ele></trkpt>
   <trkpt lat="51.361234" lon="12.726971"><ele>115.25</ele></trkpt>
   <trkpt lat="51.361149" lon="12.726812"><ele>115.5</ele></trkpt>
   <trkpt lat="51.360702" lon="12.725794"><ele>112.5</ele></trkpt>
   <trkpt lat="51.360579" lon="12.72555"><ele>112.25</ele></trkpt>
   <trkpt lat="51.359434" lon="12.72325"><ele>112.25</ele></trkpt>
   <trkpt lat="51.359421" lon="12.723223"><ele>112.25</ele></trkpt>
   <trkpt lat="51.35892" lon="12.722113"><ele>112.25</ele></trkpt>
   <trkpt lat="51.358478" lon="12.720996"><ele>112</ele></trkpt>
   <trkpt lat="51.358323" lon="12.720552"><ele>112</ele></trkpt>
   <trkpt lat="51.35801" lon="12.719577"><ele>112.25</ele></trkpt>
   <trkpt lat="51.357794" lon="12.71881"><ele>112.5</ele></trkpt>
   <trkpt lat="51.357569" lon="12.717874"><ele>113.25</ele></trkpt>
   <trkpt lat="51.357365" lon="12.716975"><ele>113.5</ele></trkpt>
   <trkpt lat="51.357172" lon="12.715901"><ele>113</ele></trkpt>
   <trkpt lat="51.357095" lon="12.715452"><ele>113</ele></trkpt>
   <trkpt lat="51.357038" lon="12.715119"><ele>113.25</ele></trkpt>
   <trkpt lat="51.356457" lon="12.711565"><ele>113</ele></trkpt>
   <trkpt lat="51.356328" lon="12.710787"><ele>113</ele></trkpt>
   <trkpt lat="51.356281" lon="12.710497"><ele>113</ele></trkpt>
   <trkpt lat="51.356255" lon="12.710341"><ele>113</ele></trkpt>
   <trkpt lat="51.356217" lon="12.71011"><ele>113</ele></trkpt>
   <trkpt lat="51.355869" lon="12.708004"><ele>115.25</ele></trkpt>
   <trkpt lat="51.355557" lon="12.706098"><ele>117.25</ele></trkpt>
   <trkpt lat="51.35551" lon="12.705804"><ele>117.5</ele></trkpt>
   <trkpt lat="51.355267" lon="12.704188"><ele>118.5</ele></trkpt>
   <trkpt lat="51.355254" lon="12.704085"><ele>118.75</ele></trkpt>
   <trkpt lat="51.355159" lon="12.703318"><ele>119</ele></trkpt>
   <trkpt lat="51.35507" lon="12.702334"><ele>119.75</ele></trkpt>
   <trkpt lat="51.355008" lon="12.701431"><ele>120.25</ele></trkpt>
   <trkpt lat="51.354972" lon="12.70051"><ele>120.75</ele></trkpt>
   <trkpt lat="51.354961" lon="12.699584"><ele>121.75</ele></trkpt>
   <trkpt lat="51.354972" lon="12.698642"><ele>124</ele></trkpt>
   <trkpt lat="51.355008" lon="12.697703"><ele>122.5</ele></trkpt>
   <trkpt lat="51.355058" lon="12.696788"><ele>120</ele></trkpt>
   <trkpt lat="51.355267" lon="12.693271"><ele>120.75</ele></trkpt>
   <trkpt lat="51.355621" lon="12.687089"><ele>120</ele></trkpt>
   <trkpt lat="51.355797" lon="12.684108"><ele>120</ele></trkpt>
   <trkpt lat="51.355951" lon="12.681089"><ele>119.5</ele></trkpt>
   <trkpt lat="51.355959" lon="12.680892"><ele>119.5</ele></trkpt>
   <trkpt lat="51.356009" lon="12.679799"><ele>119.5</ele></trkpt>
   <trkpt lat="51.356071" lon="12.678658"><ele>120.25</ele></trkpt>
   <trkpt lat="51.356115" lon="12.677662"><ele>120.5</ele></trkpt>
   <trkpt lat="51.356126" lon="12.677431"><ele>120.5</ele></trkpt>
   <trkpt lat="51.356329" lon="12.67335"><ele>123.75</ele></trkpt>
   <trkpt lat="51.35641" lon="12.671539"><ele>124.5</ele></trkpt>
   <trkpt lat="51.356527" lon="12.66916"><ele>124.25</ele></trkpt>
   <trkpt lat="51.356676" lon="12.666452"><ele>131.5</ele></trkpt>
   <trkpt lat="51.356757" lon="12.664805"><ele>133.75</ele></trkpt>
   <trkpt lat="51.356766" lon="12.664603"><ele>133.75</ele></trkpt>
   <trkpt lat="51.356928" lon="12.661332"><ele>136.75</ele></trkpt>
   <trkpt lat="51.356995" lon="12.659955"><ele>138.75</ele></trkpt>
   <trkpt lat="51.357022" lon="12.659356"><ele>138.75</ele></trkpt>
   <trkpt lat="51.357071" lon="12.658405"><ele>138</ele></trkpt>
   <trkpt lat="51.357206" lon="12.655617"><ele>131.75</ele></trkpt>
   <trkpt lat="51.357258" lon="12.654596"><ele>131.25</ele></trkpt>
   <trkpt lat="51.357346" lon="12.652489"><ele>133</ele></trkpt>
   <trkpt lat="51.357397" lon="12.650392"><ele>135.25</ele></trkpt>
   <trkpt lat="51.357406" lon="12.64935"><ele>136.5</ele></trkpt>
   <trkpt lat="51.357446" lon="12.647253"><ele>136.75</ele></trkpt>
   <trkpt lat="51.357465" lon="12.6462"><ele>137.5</ele></trkpt>
   <trkpt lat="51.357487" lon="12.645329"><ele>138.5</ele></trkpt>
   <trkpt lat="51.357582" lon="12.64044"><ele>144</ele></trkpt>
   <trkpt lat="51.357595" lon="12.639491"><ele>145.25</ele></trkpt>
   <trkpt lat="51.357598" lon="12.638928"><ele>145.5</ele></trkpt>
   <trkpt lat="51.357592" lon="12.638177"><ele>146</ele></trkpt>
   <trkpt lat="51.357597" lon="12.637493"><ele>147.75</ele></trkpt>
   <trkpt lat="51.35764" lon="12.63466"><ele>152.75</ele></trkpt>
   <trkpt lat="51.357651" lon="12.633638"><ele>152.25</ele></trkpt>
   <trkpt lat="51.35765" lon="12.633072"><ele>152</ele></trkpt>
   <trkpt lat="51.357647" lon="12.632566"><ele>151.5</ele></trkpt>
   <trkpt lat="51.357624" lon="12.629454"><ele>150</ele></trkpt>
   <trkpt lat="51.357612" lon="12.627747"><ele>150.5</ele></trkpt>
   <trkpt lat="51.357603" lon="12.626298"><ele>151.25</ele></trkpt>
   <trkpt lat="51.357595" lon="12.625648"><ele>152</ele></trkpt>
   <trkpt lat="51.357582" lon="12.623475"><ele>153.75</ele></trkpt>
   <trkpt lat="51.357558" lon="12.620529"><ele>151</ele></trkpt>
   <trkpt lat="51.357542" lon="12.618518"><ele>154.5</ele></trkpt>
   <trkpt lat="51.357541" lon="12.618292"><ele>154.75</ele></trkpt>
   <trkpt lat="51.357529" lon="12.616467"><ele>154.75</ele></trkpt>
   <trkpt lat="51.357523" lon="12.615527"><ele>154</ele></trkpt>
   <trkpt lat="51.357522" lon="12.615449"><ele>154</ele></trkpt>
   <trkpt lat="51.357496" lon="12.612383"><ele>152</ele></trkpt>
   <trkpt lat="51.357476" lon="12.609403"><ele>150.25</ele></trkpt>
   <trkpt lat="51.357462" lon="12.607775"><ele>149.25</ele></trkpt>
   <trkpt lat="51.357452" lon="12.60667"><ele>149</ele></trkpt>
   <trkpt lat="51.357444" lon="12.605627"><ele>149</ele></trkpt>
   <trkpt lat="51.357419" lon="12.604541"><ele>148.5</ele></trkpt>
   <trkpt lat="51.357377" lon="12.603475"><ele>147.25</ele></trkpt>
   <trkpt lat="51.357317" lon="12.602457"><ele>146.75</ele></trkpt>
   <trkpt lat="51.357276" lon="12.601926"><ele>146.75</ele></trkpt>
   <trkpt lat="51.357174" lon="12.600901"><ele>146</ele></trkpt>
   <trkpt lat="51.357114" lon="12.600414"><ele>146</ele></trkpt>
   <trkpt lat="51.356982" lon="12.599455"><ele>145.75</ele></trkpt>
   <trkpt lat="51.356853" lon="12.598647"><ele>145.75</ele></trkpt>
   <trkpt lat="51.356761" lon="12.598121"><ele>145.75</ele></trkpt>
   <trkpt lat="51.356727" lon="12.597954"><ele>145.5</ele></trkpt>
   <trkpt lat="51.35662" lon="12.597407"><ele>144.75</ele></trkpt>
   <trkpt lat="51.356475" lon="12.596729"><ele>144.5</ele></trkpt>
   <trkpt lat="51.356363" lon="12.59625"><ele>144.25</ele></trkpt>
   <trkpt lat="51.356051" lon="12.595018"><ele>144.25</ele></trkpt>
   <trkpt lat="51.355785" lon="12.594051"><ele>143.75</ele></trkpt>
   <trkpt lat="51.355571" lon="12.593298"><ele>143.5</ele></trkpt>
   <trkpt lat="51.355267" lon="12.592246"><ele>143.25</ele></trkpt>
   <trkpt lat="51.354759" lon="12.590493"><ele>141</ele></trkpt>
   <trkpt lat="51.35454" lon="12.589742"><ele>140.5</ele></trkpt>
   <trkpt lat="51.353955" lon="12.587716"><ele>141.25</ele></trkpt>
   <trkpt lat="51.353784" lon="12.587122"><ele>141.75</ele></trkpt>
   <trkpt lat="51.352553" lon="12.582893"><ele>138.5</ele></trkpt>
   <trkpt lat="51.352261" lon="12.581827"><ele>137.25</ele></trkpt>
   <trkpt lat="51.352153" lon="12.581411"><ele>136.75</ele></trkpt>
   <trkpt lat="51.351787" lon="12.579917"><ele>135.75</ele></trkpt>
   <trkpt lat="51.351568" lon="12.578922"><ele>134.5</ele></trkpt>
   <trkpt lat="51.351256" lon="12.577305"><ele>132.25</ele></trkpt>
   <trkpt lat="51.351201" lon="12.576988"><ele>132</ele></trkpt>
   <trkpt lat="51.351042" lon="12.576037"><ele>132</ele></trkpt>
   <trkpt lat="51.350732" lon="12.573994"><ele>130.75</ele></trkpt>
   <trkpt lat="51.350421" lon="12.571964"><ele>131</ele></trkpt>
   <trkpt lat="51.350308" lon="12.571225"><ele>130.25</ele></trkpt>
   <trkpt lat="51.350266" lon="12.570944"><ele>130</ele></trkpt>
   <trkpt lat="51.350122" lon="12.569981"><ele>129.75</ele></trkpt>
   <trkpt lat="51.349899" lon="12.568645"><ele>128</ele></trkpt>
   <trkpt lat="51.349888" lon="12.568567"><ele>127.75</ele></trkpt>
   <trkpt lat="51.349845" lon="12.568259"><ele>127.5</ele></trkpt>
   <trkpt lat="51.349707" lon="12.567344"><ele>126.5</ele></trkpt>
   <trkpt lat="51.349406" lon="12.56528"><ele>126.75</ele></trkpt>
   <trkpt lat="51.34892" lon="12.562131"><ele>126.5</ele></trkpt>
   <trkpt lat="51.348487" lon="12.55923"><ele>127.75</ele></trkpt>
   <trkpt lat="51.348478" lon="12.559172"><ele>127.75</ele></trkpt>
   <trkpt lat="51.34845" lon="12.558984"><ele>127.75</ele></trkpt>
   <trkpt lat="51.348129" lon="12.556916"><ele>125.5</ele></trkpt>
   <trkpt lat="51.347856" lon="12.555068"><ele>125</ele></trkpt>
   <trkpt lat="51.347664" lon="12.553803"><ele>125.25</ele></trkpt>
   <trkpt lat="51.347235" lon="12.550971"><ele>125.75</ele></trkpt>
   <trkpt lat="51.346767" lon="12.547908"><ele>126.5</ele></trkpt>
   <trkpt lat="51.346734" lon="12.547695"><ele>126.5</ele></trkpt>
   <trkpt lat="51.346704" lon="12.547495"><ele>126.75</ele></trkpt>
   <trkpt lat="51.346542" lon="12.546436"><ele>126.75</ele></trkpt>
   <trkpt lat="51.34646" lon="12.546014"><ele>127.25</ele></trkpt>
   <trkpt lat="51.346243" lon="12.544827"><ele>126.75</ele></trkpt>
   <trkpt lat="51.346078" lon="12.543775"><ele>126.5</ele></trkpt>
   <trkpt lat="51.346073" lon="12.543738"><ele>126.5</ele></trkpt>
   <trkpt lat="51.345848" lon="12.542252"><ele>126</ele></trkpt>
   <trkpt lat="51.345789" lon="12.541855"><ele>125.75</ele></trkpt>
   <trkpt lat="51.345447" lon="12.539618"><ele>126</ele></trkpt>
   <trkpt lat="51.345213" lon="12.538072"><ele>126.5</ele></trkpt>
   <trkpt lat="51.345095" lon="12.537248"><ele>127</ele></trkpt>
   <trkpt lat="51.344867" lon="12.535667"><ele>127</ele></trkpt>
   <trkpt lat="51.3447" lon="12.534369"><ele>127.75</ele></trkpt>
   <trkpt lat="51.344642" lon="12.533938"><ele>128</ele></trkpt>
   <trkpt lat="51.344437" lon="12.532597"><ele>127.75</ele></trkpt>
   <trkpt lat="51.344343" lon="12.531972"><ele>127.5</ele></trkpt>
   <trkpt lat="51.344193" lon="12.530723"><ele>127.75</ele></trkpt>
   <trkpt lat="51.343875" lon="12.528603"><ele>124.5</ele></trkpt>
   <trkpt lat="51.343763" lon="12.527742"><ele>123.5</ele></trkpt>
   <trkpt lat="51.34372" lon="12.527409"><ele>123.25</ele></trkpt>
   <trkpt lat="51.343672" lon="12.527028"><ele>123</ele></trkpt>
   <trkpt lat="51.343572" lon="12.526062"><ele>123.5</ele></trkpt>
   <trkpt lat="51.343555" lon="12.525849"><ele>123.5</ele></trkpt>
   <trkpt lat="51.343497" lon="12.525031"><ele>123.75</ele></trkpt>
   <trkpt lat="51.343447" lon="12.523997"><ele>123</ele></trkpt>
   <trkpt lat="51.343424" lon="12.522988"><ele>123</ele></trkpt>
   <trkpt lat="51.343419" lon="12.521841"><ele>123</ele></trkpt>
   <trkpt lat="51.343426" lon="12.521147"><ele>123.75</ele></trkpt>
   <trkpt lat="51.343468" lon="12.517532"><ele>123</ele></trkpt>
   <trkpt lat="51.343489" lon="12.515901"><ele>122.75</ele></trkpt>
   <trkpt lat="51.343571" lon="12.509163"><ele>127</ele></trkpt>
   <trkpt lat="51.343584" lon="12.508282"><ele>127.75</ele></trkpt>
   <trkpt lat="51.343591" lon="12.507578"><ele>127.5</ele></trkpt>
   <trkpt lat="51.343597" lon="12.507082"><ele>127.75</ele></trkpt>
   <trkpt lat="51.343607" lon="12.506163"><ele>127.75</ele></trkpt>
   <trkpt lat="51.343679" lon="12.500167"><ele>129.25</ele></trkpt>
   <trkpt lat="51.34369" lon="12.499292"><ele>128.5</ele></trkpt>
   <trkpt lat="51.343731" lon="12.495819"><ele>129.25</ele></trkpt>
   <trkpt lat="51.343742" lon="12.494946"><ele>129.5</ele></trkpt>
   <trkpt lat="51.343745" lon="12.49464"><ele>129.5</ele></trkpt>
   <trkpt lat="51.343757" lon="12.493657"><ele>130</ele></trkpt>
   <trkpt lat="51.343773" lon="12.492043"><ele>129.25</ele></trkpt>
   <trkpt lat="51.343799" lon="12.490058"><ele>129.25</ele></trkpt>
   <trkpt lat="51.343811" lon="12.488913"><ele>130.25</ele></trkpt>
   <trkpt lat="51.343824" lon="12.487557"><ele>130.5</ele></trkpt>
   <trkpt lat="51.343843" lon="12.486004"><ele>130</ele></trkpt>
   <trkpt lat="51.343872" lon="12.483575"><ele>129.5</ele></trkpt>
   <trkpt lat="51.343893" lon="12.48173"><ele>129</ele></trkpt>
   <trkpt lat="51.343901" lon="12.481059"><ele>129</ele></trkpt>
   <trkpt lat="51.343906" lon="12.4806"><ele>129.25</ele></trkpt>
   <trkpt lat="51.343914" lon="12.479947"><ele>129.5</ele></trkpt>
   <trkpt lat="51.343941" lon="12.477668"><ele>130.5</ele></trkpt>
   <trkpt lat="51.343945" lon="12.477384"><ele>130.5</ele></trkpt>
   <trkpt lat="51.34396" lon="12.475911"><ele>129.5</ele></trkpt>
   <trkpt lat="51.343972" lon="12.474905"><ele>129.25</ele></trkpt>
   <trkpt lat="51.343999" lon="12.472557"><ele>128.5</ele></trkpt>
   <trkpt lat="51.344073" lon="12.466035"><ele>127.75</ele></trkpt>
   <trkpt lat="51.344107" lon="12.463087"><ele>128</ele></trkpt>
   <trkpt lat="51.344125" lon="12.461439"><ele>128.25</ele></trkpt>
   <trkpt lat="51.344209" lon="12.453901"><ele>129</ele></trkpt>
   <trkpt lat="51.344259" lon="12.449515"><ele>129.5</ele></trkpt>
   <trkpt lat="51.34426" lon="12.44935"><ele>129.5</ele></trkpt>
   <trkpt lat="51.344307" lon="12.445512"><ele>127</ele></trkpt>
   <trkpt lat="51.344308" lon="12.445269"><ele>127</ele></trkpt>
   <trkpt lat="51.344313" lon="12.444922"><ele>127</ele></trkpt>
   <trkpt lat="51.344322" lon="12.444209"><ele>127.75</ele></trkpt>
   <trkpt lat="51.344343" lon="12.442558"><ele>126</ele></trkpt>
   <trkpt lat="51.344429" lon="12.436815"><ele>126.25</ele></trkpt>
   <trkpt lat="51.344433" lon="12.436542"><ele>126</ele></trkpt>
   <trkpt lat="51.344436" lon="12.436415"><ele>125.75</ele></trkpt>
   <trkpt lat="51.34444" lon="12.436212"><ele>125.5</ele></trkpt>
   <trkpt lat="51.344445" lon="12.435925"><ele>125</ele></trkpt>
   <trkpt lat="51.344476" lon="12.433991"><ele>122.25</ele></trkpt>
   <trkpt lat="51.344482" lon="12.433655"><ele>122</ele></trkpt>
   <trkpt lat="51.344483" lon="12.433609"><ele>122</ele></trkpt>
   <trkpt lat="51.344493" lon="12.432935"><ele>121.5</ele></trkpt>
   <trkpt lat="51.344495" lon="12.432798"><ele>121.25</ele></trkpt>
   <trkpt lat="51.344502" lon="12.432369"><ele>121</ele></trkpt>
   <trkpt lat="51.344532" lon="12.430459"><ele>120.5</ele></trkpt>
   <trkpt lat="51.344559" lon="12.429632"><ele>120.25</ele></trkpt>
   <trkpt lat="51.344602" lon="12.428868"><ele>119.75</ele></trkpt>
   <trkpt lat="51.344639" lon="12.428406"><ele>119.25</ele></trkpt>
   <trkpt lat="51.344665" lon="12.428119"><ele>119.25</ele></trkpt>
   <trkpt lat="51.344767" lon="12.427203"><ele>119.25</ele></trkpt>
   <trkpt lat="51.344802" lon="12.426922"><ele>119</ele></trkpt>
   <trkpt lat="51.344833" lon="12.426722"><ele>119</ele></trkpt>
   <trkpt lat="51.344857" lon="12.42657"><ele>119.25</ele></trkpt>
   <trkpt lat="51.344885" lon="12.426376"><ele>119.25</ele></trkpt>
   <trkpt lat="51.345009" lon="12.425642"><ele>120</ele></trkpt>
   <trkpt lat="51.345157" lon="12.42488"><ele>120</ele></trkpt>
   <trkpt lat="51.345281" lon="12.424328"><ele>120</ele></trkpt>
   <trkpt lat="51.34546" lon="12.423597"><ele>120</ele></trkpt>
   <trkpt lat="51.345493" lon="12.423462"><ele>120</ele></trkpt>
   <trkpt lat="51.34562" lon="12.423011"><ele>120.25</ele></trkpt>
   <trkpt lat="51.34581" lon="12.422371"><ele>121</ele></trkpt>
   <trkpt lat="51.346154" lon="12.421297"><ele>122.25</ele></trkpt>
   <trkpt lat="51.346221" lon="12.421105"><ele>122.25</ele></trkpt>
   <trkpt lat="51.346372" lon="12.420648"><ele>122.25</ele></trkpt>
   <trkpt lat="51.346951" lon="12.418874"><ele>121.75</ele></trkpt>
   <trkpt lat="51.347122" lon="12.418368"><ele>120.75</ele></trkpt>
   <trkpt lat="51.347189" lon="12.418163"><ele>120</ele></trkpt>
   <trkpt lat="51.347257" lon="12.417954"><ele>119.25</ele></trkpt>
   <trkpt lat="51.34793" lon="12.415902"><ele>114.75</ele></trkpt>
   <trkpt lat="51.348134" lon="12.415253"><ele>114.5</ele></trkpt>
   <trkpt lat="51.348526" lon="12.413899"><ele>114</ele></trkpt>
   <trkpt lat="51.348671" lon="12.413375"><ele>114</ele></trkpt>
   <trkpt lat="51.34914" lon="12.411617"><ele>111.75</ele></trkpt>
   <trkpt lat="51.349321" lon="12.410869"><ele>111.75</ele></trkpt>
   <trkpt lat="51.349442" lon="12.410341"><ele>112.25</ele></trkpt>
   <trkpt lat="51.349553" lon="12.409813"><ele>112.5</ele></trkpt>
   <trkpt lat="51.349564" lon="12.409753"><ele>112.5</ele></trkpt>
   <trkpt lat="51.349712" lon="12.408955"><ele>111.75</ele></trkpt>
   <trkpt lat="51.349823" lon="12.408245"><ele>111</ele></trkpt>
   <trkpt lat="51.349924" lon="12.407482"><ele>112</ele></trkpt>
   <trkpt lat="51.349999" lon="12.406822"><ele>112.75</ele></trkpt>
   <trkpt lat="51.350054" lon="12.406211"><ele>112.75</ele></trkpt>
   <trkpt lat="51.350099" lon="12.405572"><ele>112.5</ele></trkpt>
   <trkpt lat="51.350145" lon="12.404738"><ele>112.25</ele></trkpt>
   <trkpt lat="51.350187" lon="12.403905"><ele>112.25</ele></trkpt>
   <trkpt lat="51.350195" lon="12.403761"><ele>112.25</ele></trkpt>
   <trkpt lat="51.350207" lon="12.40336"><ele>112</ele></trkpt>
   <trkpt lat="51.35021" lon="12.402868"><ele>111.25</ele></trkpt>
   <trkpt lat="51.350222" lon="12.402433"><ele>110.75</ele></trkpt>
   <trkpt lat="51.350233" lon="12.402228"><ele>110.5</ele></trkpt>
   <trkpt lat="51.350317" lon="12.40055"><ele>109.75</ele></trkpt>
   <trkpt lat="51.350427" lon="12.39841"><ele>110</ele></trkpt>
   <trkpt lat="51.350503" lon="12.396886"><ele>109.5</ele></trkpt>
   <trkpt lat="51.350559" lon="12.395773"><ele>111</ele></trkpt>
   <trkpt lat="51.35058" lon="12.395215"><ele>111.5</ele></trkpt>
   <trkpt lat="51.350652" lon="12.394598"><ele>111.5</ele></trkpt>
   <trkpt lat="51.350687" lon="12.394312"><ele>111.25</ele></trkpt>
   <trkpt lat="51.350717" lon="12.39407"><ele>111</ele></trkpt>
   <trkpt lat="51.350735" lon="12.393949"><ele>111</ele></trkpt>
   <trkpt lat="51.350737" lon="12.39393"><ele>111</ele></trkpt>
   <trkpt lat="51.350757" lon="12.393776"><ele>111</ele></trkpt>
   <trkpt lat="51.35077" lon="12.393676"><ele>111</ele></trkpt>
   <trkpt lat="51.350808" lon="12.393367"><ele>111</ele></trkpt>
   <trkpt lat="51.350887" lon="12.392746"><ele>110.25</ele></trkpt>
   <trkpt lat="51.350916" lon="12.392514"><ele>110</ele></trkpt>
   <trkpt lat="51.350975" lon="12.392009"><ele>110</ele></trkpt>
   <trkpt lat="51.351028" lon="12.391537"><ele>109.75</ele></trkpt>
   <trkpt lat="51.351144" lon="12.390658"><ele>109.5</ele></trkpt>
   <trkpt lat="51.351213" lon="12.389874"><ele>109.5</ele></trkpt>
   <trkpt lat="51.351217" lon="12.38962"><ele>109.75</ele></trkpt>
   <trkpt lat="51.351205" lon="12.389356"><ele>109.75</ele></trkpt>
   <trkpt lat="51.351184" lon="12.389154"><ele>110</ele></trkpt>
   <trkpt lat="51.351151" lon="12.38892"><ele>110</ele></trkpt>
   <trkpt lat="51.351087" lon="12.388584"><ele>110</ele></trkpt>
   <trkpt lat="51.351015" lon="12.388305"><ele>110</ele></trkpt>
   <trkpt lat="51.350932" lon="12.388067"><ele>110.25</ele></trkpt>
   <trkpt lat="51.350861" lon="12.387896"><ele>110.5</ele></trkpt>
   <trkpt lat="51.350777" lon="12.387729"><ele>110.5</ele></trkpt>
   <trkpt lat="51.350629" lon="12.387483"><ele>110.75</ele></trkpt>
   <trkpt lat="51.350504" lon="12.387313"><ele>110.5</ele></trkpt>
   <trkpt lat="51.35017" lon="12.386866"><ele>110</ele></trkpt>
   <trkpt lat="51.349885" lon="12.386562"><ele>110</ele></trkpt>
   <trkpt lat="51.349439" lon="12.386083"><ele>110.25</ele></trkpt>
   <trkpt lat="51.348346" lon="12.384916"><ele>110</ele></trkpt>
   <trkpt lat="51.348308" lon="12.384877"><ele>110</ele></trkpt>
   <trkpt lat="51.348272" lon="12.384841"><ele>110</ele></trkpt>
   <trkpt lat="51.346923" lon="12.383397"><ele>110.5</ele></trkpt>
   <trkpt lat="51.346721" lon="12.383184"><ele>111.25</ele></trkpt>
   <trkpt lat="51.346531" lon="12.382983"><ele>112.25</ele></trkpt>
   <trkpt lat="51.345729" lon="12.38214"><ele>117.75</ele></trkpt>
   <trkpt lat="51.345064" lon="12.381445"><ele>122.5</ele></trkpt>
   <trkpt lat="51.345003" lon="12.381382"><ele>122.75</ele></trkpt>
  </trkseg>
 </trk>
</gpx>