<?xml version="1.0" encoding="UTF-8"?>
<!-- track-length = 119273 filtered ascend = 123 plain-ascend = 37 cost=119273 energy=1.5kwh time=2h 39m 2s -->
<gpx 
 xmlns="http://www.topografix.com/GPX/1/1" 
 xmlns:xsi="http://www.w3.org/2001/XMLSchema-instance" 
 xsi:schemaLocation="http://www.topografix.com/GPX/1/1 http://www.topografix.com/GPX/1/1/gpx.xsd" 
 version="1.1" 
 creator="BRouter-Web 0.18.1">
 <trk>
  <name>Rødbyhavn -&gt; Ringsted</name>
  <trkseg>
   <trkpt lat="54.653559" lon="11.351565"><ele>1.5</ele></trkpt>
   <trkpt lat="54.654231" lon="11.353055"><ele>0</ele></trkpt>
   <trkpt lat="54.654301" lon="11.35323"><ele>-0.25</ele></trkpt>
   <trkpt lat="54.654534" lon="11.353781"><ele>-0.25</ele></trkpt>
   <trkpt lat="54.654603" lon="11.353941"><ele>-0.25</ele></trkpt>
   <trkpt lat="54.65488" lon="11.354433"><ele>-0.25</ele></trkpt>
   <trkpt lat="54.654884" lon="11.354442"><ele>-0.25</ele></trkpt>
   <trkpt lat="54.655129" lon="11.354997"><ele>0</ele></trkpt>
   <trkpt lat="54.655423" lon="11.355561"><ele>-0.5</ele></trkpt>
   <trkpt lat="54.656323" lon="11.357603"><ele>-0.75</ele></trkpt>
   <trkpt lat="54.656808" lon="11.358703"><ele>-0.75</ele></trkpt>
   <trkpt lat="54.657021" lon="11.359289"><ele>-0.25</ele></trkpt>
   <trkpt lat="54.657336" lon="11.360017"><ele>0</ele></trkpt>
   <trkpt lat="54.657482" lon="11.360453"><ele>0</ele></trkpt>
   <trkpt lat="54.657611" lon="11.360794"><ele>0</ele></trkpt>
   <trkpt lat="54.657797" lon="11.361351"><ele>0.5</ele></trkpt>
   <trkpt lat="54.658011" lon="11.361971"><ele>1</ele></trkpt>
   <trkpt lat="54.658195" lon="11.362502"><ele>0.75</ele></trkpt>
   <trkpt lat="54.658212" lon="11.362554"><ele>1.75</ele></trkpt>
   <trkpt lat="54.658195" lon="11.362502"><ele>0.75</ele></trkpt>
   <trkpt lat="54.658318" lon="11.362794"><ele>0.75</ele></trkpt>
   <trkpt lat="54.658441" lon="11.363039"><ele>1.25</ele></trkpt>
   <trkpt lat="54.658621" lon="11.363334"><ele>2</ele></trkpt>
   <trkpt lat="54.659323" lon="11.364942"><ele>-0.25</ele></trkpt>
   <trkpt lat="54.660234" lon="11.367029"><ele>-0.25</ele></trkpt>
   <trkpt lat="54.660721" lon="11.368115"><ele>0</ele></trkpt>
   <trkpt lat="54.661273" lon="11.369408"><ele>-0.5</ele></trkpt>
   <trkpt lat="54.661616" lon="11.37027"><ele>-1</ele></trkpt>
   <trkpt lat="54.662594" lon="11.37311"><ele>0</ele></trkpt>
   <trkpt lat="54.662986" lon="11.374245"><ele>0</ele></trkpt>
   <trkpt lat="54.663192" lon="11.374811"><ele>0.5</ele></trkpt>
   <trkpt lat="54.663375" lon="11.375258"><ele>0.75</ele></trkpt>
   <trkpt lat="54.663613" lon="11.375814"><ele>0.5</ele></trkpt>
   <trkpt lat="54.663702" lon="11.376038"><ele>0.5</ele></trkpt>
   <trkpt lat="54.663825" lon="11.376396"><ele>0.5</ele></trkpt>
   <trkpt lat="54.66394" lon="11.376678"><ele>0.5</ele></trkpt>
   <trkpt lat="54.663995" lon="11.376807"><ele>0.25</ele></trkpt>
   <trkpt lat="54.664169" lon="11.377296"><ele>0</ele></trkpt>
   <trkpt lat="54.66424" lon="11.377475"><ele>0</ele></trkpt>
   <trkpt lat="54.66555" lon="11.380436"><ele>-0.5</ele></trkpt>
   <trkpt lat="54.666011" lon="11.381482"><ele>0</ele></trkpt>
   <trkpt lat="54.666028" lon="11.381523"><ele>0</ele></trkpt>
   <trkpt lat="54.666187" lon="11.381909"><ele>0</ele></trkpt>
   <trkpt lat="54.666273" lon="11.382112"><ele>0</ele></trkpt>
   <trkpt lat="54.668554" lon="11.387426"><ele>2</ele></trkpt>
   <trkpt lat="54.669923" lon="11.391149"><ele>2</ele></trkpt>
   <trkpt lat="54.671275" lon="11.395311"><ele>1</ele></trkpt>
   <trkpt lat="54.67172" lon="11.396768"><ele>0</ele></trkpt>
   <trkpt lat="54.672948" lon="11.401004"><ele>0</ele></trkpt>
   <trkpt lat="54.673911" lon="11.404621"><ele>-1</ele></trkpt>
   <trkpt lat="54.676779" lon="11.415813"><ele>0.75</ele></trkpt>
   <trkpt lat="54.677285" lon="11.4178"><ele>0</ele></trkpt>
   <trkpt lat="54.679047" lon="11.424606"><ele>2.5</ele></trkpt>
   <trkpt lat="54.679391" lon="11.425987"><ele>2.25</ele></trkpt>
   <trkpt lat="54.679922" lon="11.427873"><ele>1.25</ele></trkpt>
   <trkpt lat="54.68075" lon="11.431102"><ele>0.5</ele></trkpt>
   <trkpt lat="54.683377" lon="11.441342"><ele>-0.25</ele></trkpt>
   <trkpt lat="54.683868" lon="11.443441"><ele>0.5</ele></trkpt>
   <trkpt lat="54.685467" lon="11.449747"><ele>1.5</ele></trkpt>
   <trkpt lat="54.686072" lon="11.452402"><ele>2.5</ele></trkpt>
   <trkpt lat="54.686357" lon="11.453765"><ele>3.25</ele></trkpt>
   <trkpt lat="54.686581" lon="11.454914"><ele>2.25</ele></trkpt>
   <trkpt lat="54.687006" lon="11.457237"><ele>1</ele></trkpt>
   <trkpt lat="54.687241" lon="11.458642"><ele>0</ele></trkpt>
   <trkpt lat="54.687424" lon="11.459806"><ele>0</ele></trkpt>
   <trkpt lat="54.687735" lon="11.461968"><ele>0.25</ele></trkpt>
   <trkpt lat="54.68802" lon="11.464261"><ele>0.75</ele></trkpt>
   <trkpt lat="54.688257" lon="11.466377"><ele>0.5</ele></trkpt>
   <trkpt lat="54.688444" lon="11.468544"><ele>0.25</ele></trkpt>
   <trkpt lat="54.690775" lon="11.494325"><ele>4.75</ele></trkpt>
   <trkpt lat="54.693707" lon="11.526885"><ele>5</ele></trkpt>
   <trkpt lat="54.693741" lon="11.527249"><ele>5.25</ele></trkpt>
   <trkpt lat="54.694634" lon="11.537047"><ele>7</ele></trkpt>
   <trkpt lat="54.695075" lon="11.541161"><ele>7.5</ele></trkpt>
   <trkpt lat="54.695593" lon="11.545402"><ele>8</ele></trkpt>
   <trkpt lat="54.696183" lon="11.54961"><ele>8.5</ele></trkpt>
   <trkpt lat="54.696238" lon="11.549988"><ele>8.5</ele></trkpt>
   <trkpt lat="54.696802" lon="11.55358"><ele>9</ele></trkpt>
   <trkpt lat="54.697426" lon="11.557175"><ele>10.75</ele></trkpt>
   <trkpt lat="54.698628" lon="11.563345"><ele>11.25</ele></trkpt>
   <trkpt lat="54.699316" lon="11.566562"><ele>12.25</ele></trkpt>
   <trkpt lat="54.699433" lon="11.56709"><ele>12.25</ele></trkpt>
   <trkpt lat="54.700288" lon="11.570616"><ele>13</ele></trkpt>
   <trkpt lat="54.701133" lon="11.574174"><ele>12.25</ele></trkpt>
   <trkpt lat="54.70244" lon="11.579554"><ele>14.5</ele></trkpt>
   <trkpt lat="54.703227" lon="11.58312"><ele>13.25</ele></trkpt>
   <trkpt lat="54.703308" lon="11.583512"><ele>13</ele></trkpt>
   <trkpt lat="54.703629" lon="11.585025"><ele>12</ele></trkpt>
   <trkpt lat="54.704178" lon="11.587685"><ele>12</ele></trkpt>
   <trkpt lat="54.704678" lon="11.590366"><ele>15.5</ele></trkpt>
   <trkpt lat="54.705691" lon="11.596173"><ele>14</ele></trkpt>
   <trkpt lat="54.706483" lon="11.600476"><ele>15.5</ele></trkpt>
   <trkpt lat="54.706709" lon="11.601667"><ele>15</ele></trkpt>
   <trkpt lat="54.707449" lon="11.605293"><ele>14.25</ele></trkpt>
   <trkpt lat="54.708242" lon="11.608862"><ele>15</ele></trkpt>
   <trkpt lat="54.709192" lon="11.612873"><ele>14.5</ele></trkpt>
   <trkpt lat="54.709995" lon="11.616024"><ele>15.75</ele></trkpt>
   <trkpt lat="54.710423" lon="11.617625"><ele>16</ele></trkpt>
   <trkpt lat="54.711418" lon="11.62115"><ele>10</ele></trkpt>
   <trkpt lat="54.712002" lon="11.623157"><ele>8.5</ele></trkpt>
   <trkpt lat="54.713455" lon="11.62782"><ele>9.25</ele></trkpt>
   <trkpt lat="54.716068" lon="11.635755"><ele>9.75</ele></trkpt>
   <trkpt lat="54.716944" lon="11.638507"><ele>10.5</ele></trkpt>
   <trkpt lat="54.717776" lon="11.64132"><ele>9.5</ele></trkpt>
   <trkpt lat="54.718623" lon="11.644386"><ele>9</ele></trkpt>
   <trkpt lat="54.719436" lon="11.64747"><ele>11.5</ele></trkpt>
   <trkpt lat="54.720969" lon="11.65371"><ele>18</ele></trkpt>
   <trkpt lat="54.721944" lon="11.65823"><ele>15.5</ele></trkpt>
   <trkpt lat="54.722937" lon="11.663358"><ele>14.25</ele></trkpt>
   <trkpt lat="54.724253" lon="11.670843"><ele>15.75</ele></trkpt>
   <trkpt lat="54.725608" lon="11.678312"><ele>10.25</ele></trkpt>
   <trkpt lat="54.727" lon="11.685766"><ele>10</ele></trkpt>
   <trkpt lat="54.730293" lon="11.703542"><ele>10.5</ele></trkpt>
   <trkpt lat="54.736098" lon="11.734795"><ele>10.75</ele></trkpt>
   <trkpt lat="54.737132" lon="11.739799"><ele>6</ele></trkpt>
   <trkpt lat="54.739942" lon="11.75308"><ele>7.25</ele></trkpt>
   <trkpt lat="54.740839" lon="11.757195"><ele>6.25</ele></trkpt>
   <trkpt lat="54.741901" lon="11.762287"><ele>6</ele></trkpt>
   <trkpt lat="54.741973" lon="11.762648"><ele>5.75</ele></trkpt>
   <trkpt lat="54.744156" lon="11.772864"><ele>5</ele></trkpt>
   <trkpt lat="54.745862" lon="11.780982"><ele>6.5</ele></trkpt>
   <trkpt lat="54.745929" lon="11.781301"><ele>6</ele></trkpt>
   <trkpt lat="54.746696" lon="11.784892"><ele>5.5</ele></trkpt>
   <trkpt lat="54.74868" lon="11.794349"><ele>3.75</ele></trkpt>
   <trkpt lat="54.748726" lon="11.794587"><ele>4.25</ele></trkpt>
   <trkpt lat="54.749355" lon="11.797851"><ele>9.25</ele></trkpt>
   <trkpt lat="54.749943" lon="11.801172"><ele>9.75</ele></trkpt>
   <trkpt lat="54.750808" lon="11.806726"><ele>5.75</ele></trkpt>
   <trkpt lat="54.751193" lon="11.809505"><ele>4</ele></trkpt>
   <trkpt lat="54.751543" lon="11.812323"><ele>3.75</ele></trkpt>
   <trkpt lat="54.751817" lon="11.814715"><ele>5.75</ele></trkpt>
   <trkpt lat="54.752069" lon="11.817161"><ele>5.25</ele></trkpt>
   <trkpt lat="54.752258" lon="11.819192"><ele>6.5</ele></trkpt>
   <trkpt lat="54.752428" lon="11.821259"><ele>7.25</ele></trkpt>
   <trkpt lat="54.752591" lon="11.823384"><ele>6</ele></trkpt>
   <trkpt lat="54.752734" lon="11.825527"><ele>6</ele></trkpt>
   <trkpt lat="54.752843" lon="11.827764"><ele>6.5</ele></trkpt>
   <trkpt lat="54.752965" lon="11.830008"><ele>4.75</ele></trkpt>
   <trkpt lat="54.753095" lon="11.833573"><ele>3</ele></trkpt>
   <trkpt lat="54.753299" lon="11.837781"><ele>2.75</ele></trkpt>
   <trkpt lat="54.753447" lon="11.839719"><ele>1.25</ele></trkpt>
   <trkpt lat="54.753616" lon="11.841664"><ele>0.25</ele></trkpt>
   <trkpt lat="54.753801" lon="11.843352"><ele>1.75</ele></trkpt>
   <trkpt lat="54.754014" lon="11.845034"><ele>1</ele></trkpt>
   <trkpt lat="54.754151" lon="11.846046"><ele>0.75</ele></trkpt>
   <trkpt lat="54.754172" lon="11.846203"><ele>1</ele></trkpt>
   <trkpt lat="54.754323" lon="11.847217"><ele>1.25</ele></trkpt>
   <trkpt lat="54.754677" lon="11.849364"><ele>0.25</ele></trkpt>
   <trkpt lat="54.755049" lon="11.851457"><ele>0</ele></trkpt>
   <trkpt lat="54.755404" lon="11.853212"><ele>1.25</ele></trkpt>
   <trkpt lat="54.755781" lon="11.854936"><ele>0.75</ele></trkpt>
   <trkpt lat="54.756327" lon="11.857118"><ele>0.5</ele></trkpt>
   <trkpt lat="54.756921" lon="11.85939"><ele>0.25</ele></trkpt>
   <trkpt lat="54.758087" lon="11.863828"><ele>0</ele></trkpt>
   <trkpt lat="54.758693" lon="11.866115"><ele>0</ele></trkpt>
   <trkpt lat="54.758791" lon="11.866482"><ele>0</ele></trkpt>
   <trkpt lat="54.758817" lon="11.866587"><ele>0</ele></trkpt>
   <trkpt lat="54.758921" lon="11.866945"><ele>0</ele></trkpt>
   <trkpt lat="54.759085" lon="11.867462"><ele>0</ele></trkpt>
   <trkpt lat="54.75926" lon="11.867972"><ele>0</ele></trkpt>
   <trkpt lat="54.75965" lon="11.868912"><ele>0</ele></trkpt>
   <trkpt lat="54.759788" lon="11.869212"><ele>0</ele></trkpt>
   <trkpt lat="54.759996" lon="11.869633"><ele>0</ele></trkpt>
   <trkpt lat="54.760244" lon="11.870105"><ele>0.5</ele></trkpt>
   <trkpt lat="54.760595" lon="11.870668"><ele>0</ele></trkpt>
   <trkpt lat="54.760941" lon="11.871158"><ele>-0.25</ele></trkpt>
   <trkpt lat="54.76123" lon="11.871539"><ele>0</ele></trkpt>
   <trkpt lat="54.761889" lon="11.872299"><ele>1.75</ele></trkpt>
   <trkpt lat="54.762401" lon="11.872855"><ele>3.25</ele></trkpt>
   <trkpt lat="54.762995" lon="11.873602"><ele>4.5</ele></trkpt>
   <trkpt lat="54.763597" lon="11.87426"><ele>5.25</ele></trkpt>
   <trkpt lat="54.763914" lon="11.8746"><ele>5.5</ele></trkpt>
   <trkpt lat="54.764547" lon="11.875284"><ele>6.25</ele></trkpt>
   <trkpt lat="54.765636" lon="11.87653"><ele>5.25</ele></trkpt>
   <trkpt lat="54.766296" lon="11.877296"><ele>4.5</ele></trkpt>
   <trkpt lat="54.766858" lon="11.877919"><ele>3.25</ele></trkpt>
   <trkpt lat="54.766883" lon="11.877946"><ele>2.75</ele></trkpt>
   <trkpt lat="54.767151" lon="11.878228"><ele>2.75</ele></trkpt>
   <trkpt lat="54.767469" lon="11.878551"><ele>3</ele></trkpt>
   <trkpt lat="54.768432" lon="11.879461"><ele>3.25</ele></trkpt>
   <trkpt lat="54.768498" lon="11.879521"><ele>3.25</ele></trkpt>
   <trkpt lat="54.769115" lon="11.880062"><ele>4</ele></trkpt>
   <trkpt lat="54.769491" lon="11.880411"><ele>3</ele></trkpt>
   <trkpt lat="54.76976" lon="11.880647"><ele>2.5</ele></trkpt>
   <trkpt lat="54.770054" lon="11.88099"><ele>2</ele></trkpt>
   <trkpt lat="54.770277" lon="11.881191"><ele>2.25</ele></trkpt>
   <trkpt lat="54.770842" lon="11.881594"><ele>2.75</ele></trkpt>
   <trkpt lat="54.771783" lon="11.882355"><ele>4.5</ele></trkpt>
   <trkpt lat="54.772582" lon="11.882941"><ele>4.75</ele></trkpt>
   <trkpt lat="54.773441" lon="11.883456"><ele>3.25</ele></trkpt>
   <trkpt lat="54.774274" lon="11.883853"><ele>3.25</ele></trkpt>
   <trkpt lat="54.774571" lon="11.883994"><ele>3.5</ele></trkpt>
   <trkpt lat="54.775525" lon="11.884331"><ele>4.25</ele></trkpt>
   <trkpt lat="54.77653" lon="11.884549"><ele>2.75</ele></trkpt>
   <trkpt lat="54.778194" lon="11.884804"><ele>1.75</ele></trkpt>
   <trkpt lat="54.779004" lon="11.88493"><ele>4.25</ele></trkpt>
   <trkpt lat="54.779108" lon="11.884946"><ele>4.5</ele></trkpt>
   <trkpt lat="54.779595" lon="11.885016"><ele>4.25</ele></trkpt>
   <trkpt lat="54.781635" lon="11.885333"><ele>2</ele></trkpt>
   <trkpt lat="54.782792" lon="11.885505"><ele>1.5</ele></trkpt>
   <trkpt lat="54.78299" lon="11.88553"><ele>1.25</ele></trkpt>
   <trkpt lat="54.783272" lon="11.885565"><ele>1</ele></trkpt>
   <trkpt lat="54.783375" lon="11.88558"><ele>1</ele></trkpt>
   <trkpt lat="54.787028" lon="11.88615"><ele>5</ele></trkpt>
   <trkpt lat="54.789065" lon="11.886446"><ele>13.5</ele></trkpt>
   <trkpt lat="54.790477" lon="11.886638"><ele>9</ele></trkpt>
   <trkpt lat="54.790603" lon="11.886654"><ele>8.25</ele></trkpt>
   <trkpt lat="54.794239" lon="11.88721"><ele>8</ele></trkpt>
   <trkpt lat="54.795401" lon="11.887396"><ele>8.25</ele></trkpt>
   <trkpt lat="54.800916" lon="11.888202"><ele>7.75</ele></trkpt>
   <trkpt lat="54.803007" lon="11.888522"><ele>10</ele></trkpt>
   <trkpt lat="54.803224" lon="11.888553"><ele>10</ele></trkpt>
   <trkpt lat="54.803762" lon="11.888608"><ele>10</ele></trkpt>
   <trkpt lat="54.804635" lon="11.888668"><ele>10</ele></trkpt>
   <trkpt lat="54.805296" lon="11.888662"><ele>10</ele></trkpt>
   <trkpt lat="54.806035" lon="11.888598"><ele>9.75</ele></trkpt>
   <trkpt lat="54.806818" lon="11.888474"><ele>9.25</ele></trkpt>
   <trkpt lat="54.807551" lon="11.888279"><ele>10</ele></trkpt>
   <trkpt lat="54.808187" lon="11.888069"><ele>10.25</ele></trkpt>
   <trkpt lat="54.808867" lon="11.887823"><ele>11.5</ele></trkpt>
   <trkpt lat="54.810437" lon="11.887183"><ele>13.75</ele></trkpt>
   <trkpt lat="54.811535" lon="11.886755"><ele>14</ele></trkpt>
   <trkpt lat="54.812563" lon="11.886417"><ele>13.75</ele></trkpt>
   <trkpt lat="54.813209" lon="11.886266"><ele>14.25</ele></trkpt>
   <trkpt lat="54.813892" lon="11.886159"><ele>14.25</ele></trkpt>
   <trkpt lat="54.815697" lon="11.885917"><ele>13</ele></trkpt>
   <trkpt lat="54.823234" lon="11.885039"><ele>16.5</ele></trkpt>
   <trkpt lat="54.823337" lon="11.885028"><ele>17</ele></trkpt>
   <trkpt lat="54.82465" lon="11.884872"><ele>21.5</ele></trkpt>
   <trkpt lat="54.828174" lon="11.884531"><ele>12.5</ele></trkpt>
   <trkpt lat="54.84251" lon="11.882848"><ele>5.5</ele></trkpt>
   <trkpt lat="54.843511" lon="11.882668"><ele>4.75</ele></trkpt>
   <trkpt lat="54.845245" lon="11.88247"><ele>4.5</ele></trkpt>
   <trkpt lat="54.84568" lon="11.882442"><ele>4</ele></trkpt>
   <trkpt lat="54.846045" lon="11.88243"><ele>4</ele></trkpt>
   <trkpt lat="54.846454" lon="11.882435"><ele>4</ele></trkpt>
   <trkpt lat="54.846839" lon="11.882456"><ele>4.25</ele></trkpt>
   <trkpt lat="54.847244" lon="11.882492"><ele>5.25</ele></trkpt>
   <trkpt lat="54.847702" lon="11.882551"><ele>5.5</ele></trkpt>
   <trkpt lat="54.848042" lon="11.882607"><ele>5</ele></trkpt>
   <trkpt lat="54.848576" lon="11.882726"><ele>5</ele></trkpt>
   <trkpt lat="54.848983" lon="11.882839"><ele>5.25</ele></trkpt>
   <trkpt lat="54.849387" lon="11.882964"><ele>5</ele></trkpt>
   <trkpt lat="54.849787" lon="11.883106"><ele>4.25</ele></trkpt>
   <trkpt lat="54.850187" lon="11.883265"><ele>3.75</ele></trkpt>
   <trkpt lat="54.850343" lon="11.88333"><ele>3.5</ele></trkpt>
   <trkpt lat="54.851193" lon="11.883725"><ele>3.25</ele></trkpt>
   <trkpt lat="54.852614" lon="11.884394"><ele>6.5</ele></trkpt>
   <trkpt lat="54.853409" lon="11.8847"><ele>9</ele></trkpt>
   <trkpt lat="54.853936" lon="11.88487"><ele>9.75</ele></trkpt>
   <trkpt lat="54.854463" lon="11.88501"><ele>10.25</ele></trkpt>
   <trkpt lat="54.85491" lon="11.88511"><ele>10.75</ele></trkpt>
   <trkpt lat="54.855538" lon="11.885227"><ele>11</ele></trkpt>
   <trkpt lat="54.856068" lon="11.885306"><ele>10.25</ele></trkpt>
   <trkpt lat="54.856661" lon="11.885374"><ele>9</ele></trkpt>
   <trkpt lat="54.857058" lon="11.885406"><ele>9</ele></trkpt>
   <trkpt lat="54.861175" lon="11.885479"><ele>12</ele></trkpt>
   <trkpt lat="54.861967" lon="11.885513"><ele>12</ele></trkpt>
   <trkpt lat="54.865031" lon="11.885534"><ele>12</ele></trkpt>
   <trkpt lat="54.866124" lon="11.885612"><ele>12.25</ele></trkpt>
   <trkpt lat="54.871179" lon="11.885639"><ele>14</ele></trkpt>
   <trkpt lat="54.871828" lon="11.885653"><ele>14.25</ele></trkpt>
   <trkpt lat="54.872458" lon="11.885656"><ele>15</ele></trkpt>
   <trkpt lat="54.885918" lon="11.885722"><ele>27</ele></trkpt>
   <trkpt lat="54.886066" lon="11.885718"><ele>27.5</ele></trkpt>
   <trkpt lat="54.888696" lon="11.885754"><ele>31.5</ele></trkpt>
   <trkpt lat="54.894433" lon="11.88578"><ele>29</ele></trkpt>
   <trkpt lat="54.897098" lon="11.885789"><ele>29.5</ele></trkpt>
   <trkpt lat="54.898898" lon="11.885802"><ele>26.25</ele></trkpt>
   <trkpt lat="54.899164" lon="11.885802"><ele>26</ele></trkpt>
   <trkpt lat="54.902" lon="11.885814"><ele>26.5</ele></trkpt>
   <trkpt lat="54.904127" lon="11.885803"><ele>28.75</ele></trkpt>
   <trkpt lat="54.90526" lon="11.885766"><ele>27</ele></trkpt>
   <trkpt lat="54.91011" lon="11.885784"><ele>23.75</ele></trkpt>
   <trkpt lat="54.910712" lon="11.885742"><ele>23</ele></trkpt>
   <trkpt lat="54.911241" lon="11.885679"><ele>22</ele></trkpt>
   <trkpt lat="54.911789" lon="11.885583"><ele>20.75</ele></trkpt>
   <trkpt lat="54.912238" lon="11.885485"><ele>21</ele></trkpt>
   <trkpt lat="54.912673" lon="11.885364"><ele>20.75</ele></trkpt>
   <trkpt lat="54.91304" lon="11.885248"><ele>21</ele></trkpt>
   <trkpt lat="54.913577" lon="11.885051"><ele>20.5</ele></trkpt>
   <trkpt lat="54.91426" lon="11.884762"><ele>20</ele></trkpt>
   <trkpt lat="54.915099" lon="11.884329"><ele>18.75</ele></trkpt>
   <trkpt lat="54.915725" lon="11.883949"><ele>17.25</ele></trkpt>
   <trkpt lat="54.916446" lon="11.883448"><ele>15.5</ele></trkpt>
   <trkpt lat="54.917059" lon="11.882972"><ele>14.75</ele></trkpt>
   <trkpt lat="54.917449" lon="11.882648"><ele>14.75</ele></trkpt>
   <trkpt lat="54.917902" lon="11.882235"><ele>14</ele></trkpt>
   <trkpt lat="54.91848" lon="11.88167"><ele>13.75</ele></trkpt>
   <trkpt lat="54.921175" lon="11.878894"><ele>14.25</ele></trkpt>
   <trkpt lat="54.921312" lon="11.878757"><ele>14.75</ele></trkpt>
   <trkpt lat="54.923162" lon="11.87685"><ele>16</ele></trkpt>
   <trkpt lat="54.924032" lon="11.876015"><ele>16.5</ele></trkpt>
   <trkpt lat="54.924526" lon="11.875592"><ele>17</ele></trkpt>
   <trkpt lat="54.924934" lon="11.875259"><ele>17</ele></trkpt>
   <trkpt lat="54.925442" lon="11.874879"><ele>17.75</ele></trkpt>
   <trkpt lat="54.925796" lon="11.874629"><ele>18</ele></trkpt>
   <trkpt lat="54.926379" lon="11.874256"><ele>17</ele></trkpt>
   <trkpt lat="54.927157" lon="11.873827"><ele>14.25</ele></trkpt>
   <trkpt lat="54.92869" lon="11.873108"><ele>10.75</ele></trkpt>
   <trkpt lat="54.929845" lon="11.872501"><ele>9</ele></trkpt>
   <trkpt lat="54.930356" lon="11.872244"><ele>9</ele></trkpt>
   <trkpt lat="54.935118" lon="11.869912"><ele>6.5</ele></trkpt>
   <trkpt lat="54.936307" lon="11.86934"><ele>4.5</ele></trkpt>
   <trkpt lat="54.937782" lon="11.86869"><ele>3</ele></trkpt>
   <trkpt lat="54.94023" lon="11.867653"><ele>3.75</ele></trkpt>
   <trkpt lat="54.940465" lon="11.867553"><ele>3.25</ele></trkpt>
   <trkpt lat="54.94244" lon="11.866725"><ele>3</ele></trkpt>
   <trkpt lat="54.944346" lon="11.865908"><ele>1.75</ele></trkpt>
   <trkpt lat="54.947104" lon="11.864919"><ele>2.25</ele></trkpt>
   <trkpt lat="54.948602" lon="11.864479"><ele>0.25</ele></trkpt>
   <trkpt lat="54.950108" lon="11.864092"><ele>-1</ele></trkpt>
   <trkpt lat="54.95029" lon="11.864047"><ele>-1</ele></trkpt>
   <trkpt lat="54.951762" lon="11.863784"><ele>-0.75</ele></trkpt>
   <trkpt lat="54.953239" lon="11.863558"><ele>-0.75</ele></trkpt>
   <trkpt lat="54.955358" lon="11.863306"><ele>-0.75</ele></trkpt>
   <trkpt lat="54.956391" lon="11.863277"><ele>-0.75</ele></trkpt>
   <trkpt lat="54.958215" lon="11.863284"><ele>-0.5</ele></trkpt>
   <trkpt lat="54.959195" lon="11.863317"><ele>-0.5</ele></trkpt>
   <trkpt lat="54.96017" lon="11.863389"><ele>-0.5</ele></trkpt>
   <trkpt lat="54.962121" lon="11.863623"><ele>-0.5</ele></trkpt>
   <trkpt lat="54.963504" lon="11.863865"><ele>-0.5</ele></trkpt>
   <trkpt lat="54.964885" lon="11.864158"><ele>-0.25</ele></trkpt>
   <trkpt lat="54.966338" lon="11.864546"><ele>-0.25</ele></trkpt>
   <trkpt lat="54.967789" lon="11.864999"><ele>-0.25</ele></trkpt>
   <trkpt lat="54.969253" lon="11.865518"><ele>-0.25</ele></trkpt>
   <trkpt lat="54.970716" lon="11.86613"><ele>-0.25</ele></trkpt>
   <trkpt lat="54.973511" lon="11.867417"><ele>0</ele></trkpt>
   <trkpt lat="54.97644" lon="11.869219"><ele>0</ele></trkpt>
   <trkpt lat="54.977891" lon="11.870221"><ele>0</ele></trkpt>
   <trkpt lat="54.97934" lon="11.871281"><ele>0</ele></trkpt>
   <trkpt lat="54.980627" lon="11.872304"><ele>0</ele></trkpt>
   <trkpt lat="54.981903" lon="11.873378"><ele>0</ele></trkpt>
   <trkpt lat="54.983114" lon="11.874474"><ele>0</ele></trkpt>
   <trkpt lat="54.984324" lon="11.875628"><ele>0.25</ele></trkpt>
   <trkpt lat="54.986007" lon="11.877349"><ele>0.25</ele></trkpt>
   <trkpt lat="54.987668" lon="11.879171"><ele>0.25</ele></trkpt>
   <trkpt lat="54.98813" lon="11.879723"><ele>0.25</ele></trkpt>
   <trkpt lat="54.990021" lon="11.881939"><ele>0.5</ele></trkpt>
   <trkpt lat="54.992313" lon="11.884779"><ele>0.5</ele></trkpt>
   <trkpt lat="54.993404" lon="11.886077"><ele>0.75</ele></trkpt>
   <trkpt lat="54.994877" lon="11.887856"><ele>0.25</ele></trkpt>
   <trkpt lat="54.995724" lon="11.888879"><ele>0.25</ele></trkpt>
   <trkpt lat="54.996323" lon="11.889582"><ele>0</ele></trkpt>
   <trkpt lat="54.99756" lon="11.890891"><ele>0</ele></trkpt>
   <trkpt lat="54.999085" lon="11.89243"><ele>0</ele></trkpt>
   <trkpt lat="54.999964" lon="11.89326"><ele>0.75</ele></trkpt>
   <trkpt lat="55.000432" lon="11.893616"><ele>0.75</ele></trkpt>
   <trkpt lat="55.000619" lon="11.893749"><ele>0.5</ele></trkpt>
   <trkpt lat="55.000971" lon="11.894004"><ele>0</ele></trkpt>
   <trkpt lat="55.001299" lon="11.894197"><ele>-0.5</ele></trkpt>
   <trkpt lat="55.001729" lon="11.894435"><ele>-0.5</ele></trkpt>
   <trkpt lat="55.003126" lon="11.895156"><ele>1</ele></trkpt>
   <trkpt lat="55.00443" lon="11.895841"><ele>0.5</ele></trkpt>
   <trkpt lat="55.005196" lon="11.896195"><ele>0</ele></trkpt>
   <trkpt lat="55.006417" lon="11.896663"><ele>0.75</ele></trkpt>
   <trkpt lat="55.006792" lon="11.896794"><ele>1</ele></trkpt>
   <trkpt lat="55.007432" lon="11.897053"><ele>1.75</ele></trkpt>
   <trkpt lat="55.008212" lon="11.897327"><ele>0.75</ele></trkpt>
   <trkpt lat="55.008839" lon="11.897606"><ele>1.25</ele></trkpt>
   <trkpt lat="55.009136" lon="11.89775"><ele>1.75</ele></trkpt>
   <trkpt lat="55.009626" lon="11.898007"><ele>2.5</ele></trkpt>
   <trkpt lat="55.010125" lon="11.898284"><ele>2.75</ele></trkpt>
   <trkpt lat="55.011786" lon="11.899318"><ele>2.75</ele></trkpt>
   <trkpt lat="55.012629" lon="11.899844"><ele>6.75</ele></trkpt>
   <trkpt lat="55.0131" lon="11.900129"><ele>7.5</ele></trkpt>
   <trkpt lat="55.013682" lon="11.900462"><ele>7.5</ele></trkpt>
   <trkpt lat="55.015558" lon="11.901516"><ele>8</ele></trkpt>
   <trkpt lat="55.016262" lon="11.901909"><ele>8</ele></trkpt>
   <trkpt lat="55.016945" lon="11.902267"><ele>8.5</ele></trkpt>
   <trkpt lat="55.017468" lon="11.902487"><ele>9.75</ele></trkpt>
   <trkpt lat="55.017872" lon="11.902621"><ele>9.75</ele></trkpt>
   <trkpt lat="55.018422" lon="11.90275"><ele>9.75</ele></trkpt>
   <trkpt lat="55.018722" lon="11.902805"><ele>9.25</ele></trkpt>
   <trkpt lat="55.018965" lon="11.90283"><ele>8.75</ele></trkpt>
   <trkpt lat="55.019434" lon="11.90286"><ele>8.5</ele></trkpt>
   <trkpt lat="55.019877" lon="11.902848"><ele>8.5</ele></trkpt>
   <trkpt lat="55.02024" lon="11.902812"><ele>8</ele></trkpt>
   <trkpt lat="55.020444" lon="11.902783"><ele>7.75</ele></trkpt>
   <trkpt lat="55.020893" lon="11.90269"><ele>6.75</ele></trkpt>
   <trkpt lat="55.021349" lon="11.902563"><ele>6.25</ele></trkpt>
   <trkpt lat="55.021839" lon="11.90238"><ele>6.25</ele></trkpt>
   <trkpt lat="55.022276" lon="11.902174"><ele>7.25</ele></trkpt>
   <trkpt lat="55.022768" lon="11.901902"><ele>8.5</ele></trkpt>
   <trkpt lat="55.023157" lon="11.90165"><ele>9.5</ele></trkpt>
   <trkpt lat="55.023563" lon="11.901353"><ele>9.5</ele></trkpt>
   <trkpt lat="55.023852" lon="11.90112"><ele>9.5</ele></trkpt>
   <trkpt lat="55.024216" lon="11.900794"><ele>10</ele></trkpt>
   <trkpt lat="55.024644" lon="11.900367"><ele>10</ele></trkpt>
   <trkpt lat="55.025118" lon="11.899854"><ele>9.5</ele></trkpt>
   <trkpt lat="55.025637" lon="11.899273"><ele>8.75</ele></trkpt>
   <trkpt lat="55.025972" lon="11.898899"><ele>9</ele></trkpt>
   <trkpt lat="55.026793" lon="11.8979"><ele>8.25</ele></trkpt>
   <trkpt lat="55.02727" lon="11.897366"><ele>6.75</ele></trkpt>
   <trkpt lat="55.027373" lon="11.897249"><ele>6.75</ele></trkpt>
   <trkpt lat="55.040993" lon="11.881973"><ele>9</ele></trkpt>
   <trkpt lat="55.042987" lon="11.879747"><ele>6.5</ele></trkpt>
   <trkpt lat="55.043555" lon="11.879156"><ele>4.5</ele></trkpt>
   <trkpt lat="55.044392" lon="11.878333"><ele>4.5</ele></trkpt>
   <trkpt lat="55.044952" lon="11.877814"><ele>5.25</ele></trkpt>
   <trkpt lat="55.045677" lon="11.877192"><ele>5.75</ele></trkpt>
   <trkpt lat="55.046388" lon="11.876619"><ele>6.5</ele></trkpt>
   <trkpt lat="55.047167" lon="11.876049"><ele>6</ele></trkpt>
   <trkpt lat="55.047702" lon="11.875677"><ele>5.5</ele></trkpt>
   <trkpt lat="55.048402" lon="11.875222"><ele>3.75</ele></trkpt>
   <trkpt lat="55.048955" lon="11.874887"><ele>2.5</ele></trkpt>
   <trkpt lat="55.049456" lon="11.874606"><ele>1.75</ele></trkpt>
   <trkpt lat="55.049989" lon="11.874326"><ele>1.75</ele></trkpt>
   <trkpt lat="55.050474" lon="11.874089"><ele>1.25</ele></trkpt>
   <trkpt lat="55.051207" lon="11.873762"><ele>1.25</ele></trkpt>
   <trkpt lat="55.051968" lon="11.873452"><ele>2</ele></trkpt>
   <trkpt lat="55.052562" lon="11.873247"><ele>1.75</ele></trkpt>
   <trkpt lat="55.053227" lon="11.873038"><ele>1.5</ele></trkpt>
   <trkpt lat="55.054231" lon="11.872776"><ele>2.25</ele></trkpt>
   <trkpt lat="55.054851" lon="11.87265"><ele>3</ele></trkpt>
   <trkpt lat="55.055352" lon="11.872561"><ele>3</ele></trkpt>
   <trkpt lat="55.055871" lon="11.872486"><ele>3</ele></trkpt>
   <trkpt lat="55.056556" lon="11.87241"><ele>3</ele></trkpt>
   <trkpt lat="55.057227" lon="11.87238"><ele>2.25</ele></trkpt>
   <trkpt lat="55.057951" lon="11.872366"><ele>2</ele></trkpt>
   <trkpt lat="55.058094" lon="11.872366"><ele>2</ele></trkpt>
   <trkpt lat="55.058972" lon="11.872402"><ele>2</ele></trkpt>
   <trkpt lat="55.0666" lon="11.873103"><ele>5.25</ele></trkpt>
   <trkpt lat="55.069462" lon="11.87343"><ele>3.25</ele></trkpt>
   <trkpt lat="55.087844" lon="11.875228"><ele>3</ele></trkpt>
   <trkpt lat="55.09458" lon="11.875893"><ele>1</ele></trkpt>
   <trkpt lat="55.095595" lon="11.875972"><ele>1</ele></trkpt>
   <trkpt lat="55.096401" lon="11.875986"><ele>1</ele></trkpt>
   <trkpt lat="55.097341" lon="11.875948"><ele>1.75</ele></trkpt>
   <trkpt lat="55.097811" lon="11.875912"><ele>1.75</ele></trkpt>
   <trkpt lat="55.098724" lon="11.875799"><ele>1.5</ele></trkpt>
   <trkpt lat="55.099846" lon="11.875592"><ele>1.75</ele></trkpt>
   <trkpt lat="55.1005" lon="11.875429"><ele>1.25</ele></trkpt>
   <trkpt lat="55.101163" lon="11.875237"><ele>1.5</ele></trkpt>
   <trkpt lat="55.101698" lon="11.875067"><ele>2.75</ele></trkpt>
   <trkpt lat="55.102102" lon="11.87492"><ele>3</ele></trkpt>
   <trkpt lat="55.102692" lon="11.874689"><ele>3.5</ele></trkpt>
   <trkpt lat="55.10347" lon="11.874359"><ele>4.75</ele></trkpt>
   <trkpt lat="55.104299" lon="11.873943"><ele>6</ele></trkpt>
   <trkpt lat="55.105086" lon="11.873502"><ele>6</ele></trkpt>
   <trkpt lat="55.105669" lon="11.87314"><ele>6.75</ele></trkpt>
   <trkpt lat="55.107165" lon="11.872096"><ele>7.75</ele></trkpt>
   <trkpt lat="55.107872" lon="11.871541"><ele>8.5</ele></trkpt>
   <trkpt lat="55.108335" lon="11.871157"><ele>9.25</ele></trkpt>
   <trkpt lat="55.109151" lon="11.870429"><ele>8</ele></trkpt>
   <trkpt lat="55.109663" lon="11.869949"><ele>6.75</ele></trkpt>
   <trkpt lat="55.11028" lon="11.869373"><ele>4.75</ele></trkpt>
   <trkpt lat="55.112381" lon="11.867551"><ele>5</ele></trkpt>
   <trkpt lat="55.117772" lon="11.862836"><ele>2.75</ele></trkpt>
   <trkpt lat="55.117913" lon="11.862719"><ele>2.75</ele></trkpt>
   <trkpt lat="55.118574" lon="11.862166"><ele>3</ele></trkpt>
   <trkpt lat="55.11958" lon="11.861313"><ele>4</ele></trkpt>
   <trkpt lat="55.124243" lon="11.857192"><ele>2.25</ele></trkpt>
   <trkpt lat="55.124372" lon="11.857079"><ele>2</ele></trkpt>
   <trkpt lat="55.124982" lon="11.856553"><ele>1.5</ele></trkpt>
   <trkpt lat="55.125604" lon="11.85604"><ele>1.75</ele></trkpt>
   <trkpt lat="55.126843" lon="11.855154"><ele>2.25</ele></trkpt>
   <trkpt lat="55.127326" lon="11.854865"><ele>2.5</ele></trkpt>
   <trkpt lat="55.127688" lon="11.854665"><ele>2.25</ele></trkpt>
   <trkpt lat="55.128433" lon="11.854305"><ele>1.5</ele></trkpt>
   <trkpt lat="55.128719" lon="11.854191"><ele>2.25</ele></trkpt>
   <trkpt lat="55.129335" lon="11.853971"><ele>4</ele></trkpt>
   <trkpt lat="55.130286" lon="11.853705"><ele>5.25</ele></trkpt>
   <trkpt lat="55.130569" lon="11.85365"><ele>5.75</ele></trkpt>
   <trkpt lat="55.131295" lon="11.853533"><ele>7.25</ele></trkpt>
   <trkpt lat="55.13161" lon="11.853494"><ele>8</ele></trkpt>
   <trkpt lat="55.132371" lon="11.85344"><ele>8</ele></trkpt>
   <trkpt lat="55.132762" lon="11.853453"><ele>7.75</ele></trkpt>
   <trkpt lat="55.132893" lon="11.853456"><ele>7.5</ele></trkpt>
   <trkpt lat="55.133679" lon="11.853524"><ele>8.25</ele></trkpt>
   <trkpt lat="55.134487" lon="11.853646"><ele>10.5</ele></trkpt>
   <trkpt lat="55.135288" lon="11.853818"><ele>12.25</ele></trkpt>
   <trkpt lat="55.148124" lon="11.856828"><ele>13.75</ele></trkpt>
   <trkpt lat="55.150182" lon="11.857269"><ele>13</ele></trkpt>
   <trkpt lat="55.151179" lon="11.857376"><ele>10.25</ele></trkpt>
   <trkpt lat="55.151654" lon="11.857405"><ele>9.75</ele></trkpt>
   <trkpt lat="55.152171" lon="11.857412"><ele>10.25</ele></trkpt>
   <trkpt lat="55.152663" lon="11.857404"><ele>10.5</ele></trkpt>
   <trkpt lat="55.153234" lon="11.857368"><ele>10.5</ele></trkpt>
   <trkpt lat="55.153838" lon="11.857302"><ele>11</ele></trkpt>
   <trkpt lat="55.154515" lon="11.857192"><ele>11.75</ele></trkpt>
   <trkpt lat="55.155343" lon="11.857003"><ele>12.25</ele></trkpt>
   <trkpt lat="55.155895" lon="11.856852"><ele>12</ele></trkpt>
   <trkpt lat="55.157009" lon="11.856488"><ele>13.25</ele></trkpt>
   <trkpt lat="55.157544" lon="11.856279"><ele>13.5</ele></trkpt>
   <trkpt lat="55.158075" lon="11.856047"><ele>12.75</ele></trkpt>
   <trkpt lat="55.158836" lon="11.855657"><ele>11.25</ele></trkpt>
   <trkpt lat="55.162863" lon="11.853012"><ele>10</ele></trkpt>
   <trkpt lat="55.164806" lon="11.851831"><ele>11</ele></trkpt>
   <trkpt lat="55.180745" lon="11.841581"><ele>8.75</ele></trkpt>
   <trkpt lat="55.1817" lon="11.840962"><ele>12.5</ele></trkpt>
   <trkpt lat="55.182625" lon="11.840341"><ele>11.25</ele></trkpt>
   <trkpt lat="55.183072" lon="11.840003"><ele>9.25</ele></trkpt>
   <trkpt lat="55.183526" lon="11.839638"><ele>8.5</ele></trkpt>
   <trkpt lat="55.183965" lon="11.839247"><ele>8</ele></trkpt>
   <trkpt lat="55.184543" lon="11.838697"><ele>8</ele></trkpt>
   <trkpt lat="55.185168" lon="11.838043"><ele>8</ele></trkpt>
   <trkpt lat="55.185615" lon="11.837523"><ele>8.5</ele></trkpt>
   <trkpt lat="55.18617" lon="11.836845"><ele>8</ele></trkpt>
   <trkpt lat="55.18683" lon="11.835952"><ele>5.75</ele></trkpt>
   <trkpt lat="55.18729" lon="11.835272"><ele>4.25</ele></trkpt>
   <trkpt lat="55.187367" lon="11.83515"><ele>4</ele></trkpt>
   <trkpt lat="55.187924" lon="11.834259"><ele>4.25</ele></trkpt>
   <trkpt lat="55.18852" lon="11.833189"><ele>5.5</ele></trkpt>
   <trkpt lat="55.188792" lon="11.832662"><ele>6</ele></trkpt>
   <trkpt lat="55.189053" lon="11.832129"><ele>5.5</ele></trkpt>
   <trkpt lat="55.189383" lon="11.831426"><ele>4.5</ele></trkpt>
   <trkpt lat="55.189764" lon="11.83057"><ele>3.75</ele></trkpt>
   <trkpt lat="55.194295" lon="11.82022"><ele>6.25</ele></trkpt>
   <trkpt lat="55.200282" lon="11.806532"><ele>7.5</ele></trkpt>
   <trkpt lat="55.200596" lon="11.805812"><ele>8</ele></trkpt>
   <trkpt lat="55.200759" lon="11.80544"><ele>8</ele></trkpt>
   <trkpt lat="55.202503" lon="11.801468"><ele>13.75</ele></trkpt>
   <trkpt lat="55.202819" lon="11.800768"><ele>13.25</ele></trkpt>
   <trkpt lat="55.20313" lon="11.800113"><ele>13.5</ele></trkpt>
   <trkpt lat="55.203376" lon="11.799629"><ele>13.5</ele></trkpt>
   <trkpt lat="55.203698" lon="11.799024"><ele>13.75</ele></trkpt>
   <trkpt lat="55.203967" lon="11.798555"><ele>14.5</ele></trkpt>
   <trkpt lat="55.204205" lon="11.798166"><ele>15</ele></trkpt>
   <trkpt lat="55.204663" lon="11.797455"><ele>16</ele></trkpt>
   <trkpt lat="55.205266" lon="11.79661"><ele>16.5</ele></trkpt>
   <trkpt lat="55.205636" lon="11.79614"><ele>16.5</ele></trkpt>
   <trkpt lat="55.206004" lon="11.795698"><ele>16.75</ele></trkpt>
   <trkpt lat="55.206476" lon="11.795178"><ele>16.25</ele></trkpt>
   <trkpt lat="55.206909" lon="11.794746"><ele>16.25</ele></trkpt>
   <trkpt lat="55.207376" lon="11.794314"><ele>16.25</ele></trkpt>
   <trkpt lat="55.20789" lon="11.793882"><ele>15.25</ele></trkpt>
   <trkpt lat="55.208228" lon="11.793623"><ele>14.5</ele></trkpt>
   <trkpt lat="55.208536" lon="11.793398"><ele>13.75</ele></trkpt>
   <trkpt lat="55.208982" lon="11.793102"><ele>12.75</ele></trkpt>
   <trkpt lat="55.209492" lon="11.792801"><ele>12.75</ele></trkpt>
   <trkpt lat="55.209899" lon="11.792597"><ele>13.75</ele></trkpt>
   <trkpt lat="55.210364" lon="11.792382"><ele>14.25</ele></trkpt>
   <trkpt lat="55.210728" lon="11.792235"><ele>14.75</ele></trkpt>
   <trkpt lat="55.211236" lon="11.792056"><ele>15.5</ele></trkpt>
   <trkpt lat="55.211787" lon="11.791909"><ele>15.75</ele></trkpt>
   <trkpt lat="55.2122" lon="11.791816"><ele>15</ele></trkpt>
   <trkpt lat="55.212617" lon="11.791751"><ele>15</ele></trkpt>
   <trkpt lat="55.21306" lon="11.791698"><ele>16.75</ele></trkpt>
   <trkpt lat="55.214003" lon="11.791604"><ele>18</ele></trkpt>
   <trkpt lat="55.214492" lon="11.791531"><ele>18.5</ele></trkpt>
   <trkpt lat="55.21492" lon="11.791449"><ele>19</ele></trkpt>
   <trkpt lat="55.215487" lon="11.791274"><ele>20</ele></trkpt>
   <trkpt lat="55.216122" lon="11.791028"><ele>17.75</ele></trkpt>
   <trkpt lat="55.216457" lon="11.790868"><ele>15.75</ele></trkpt>
   <trkpt lat="55.217017" lon="11.790553"><ele>16.25</ele></trkpt>
   <trkpt lat="55.217802" lon="11.790018"><ele>18.25</ele></trkpt>
   <trkpt lat="55.218295" lon="11.789615"><ele>18.75</ele></trkpt>
   <trkpt lat="55.218736" lon="11.789203"><ele>18.25</ele></trkpt>
   <trkpt lat="55.219352" lon="11.78857"><ele>16.25</ele></trkpt>
   <trkpt lat="55.219933" lon="11.78788"><ele>16.25</ele></trkpt>
   <trkpt lat="55.220527" lon="11.787073"><ele>17</ele></trkpt>
   <trkpt lat="55.220837" lon="11.786586"><ele>17.25</ele></trkpt>
   <trkpt lat="55.22115" lon="11.786069"><ele>20</ele></trkpt>
   <trkpt lat="55.221583" lon="11.785302"><ele>23</ele></trkpt>
   <trkpt lat="55.22194" lon="11.784584"><ele>23.75</ele></trkpt>
   <trkpt lat="55.222379" lon="11.783607"><ele>22.75</ele></trkpt>
   <trkpt lat="55.222743" lon="11.782668"><ele>22.75</ele></trkpt>
   <trkpt lat="55.223169" lon="11.78147"><ele>23</ele></trkpt>
   <trkpt lat="55.224121" lon="11.778748"><ele>22.25</ele></trkpt>
   <trkpt lat="55.224252" lon="11.778396"><ele>21.75</ele></trkpt>
   <trkpt lat="55.224477" lon="11.777834"><ele>21.75</ele></trkpt>
   <trkpt lat="55.2246" lon="11.777499"><ele>21.25</ele></trkpt>
   <trkpt lat="55.224728" lon="11.777132"><ele>20.75</ele></trkpt>
   <trkpt lat="55.22484" lon="11.776828"><ele>20.25</ele></trkpt>
   <trkpt lat="55.225195" lon="11.77596"><ele>20</ele></trkpt>
   <trkpt lat="55.225737" lon="11.774621"><ele>18</ele></trkpt>
   <trkpt lat="55.225839" lon="11.774394"><ele>17.5</ele></trkpt>
   <trkpt lat="55.22616" lon="11.773731"><ele>17.5</ele></trkpt>
   <trkpt lat="55.226448" lon="11.773204"><ele>17</ele></trkpt>
   <trkpt lat="55.226768" lon="11.772672"><ele>17.5</ele></trkpt>
   <trkpt lat="55.227089" lon="11.77217"><ele>17.25</ele></trkpt>
   <trkpt lat="55.227267" lon="11.771914"><ele>16.75</ele></trkpt>
   <trkpt lat="55.227474" lon="11.771654"><ele>16</ele></trkpt>
   <trkpt lat="55.227673" lon="11.771383"><ele>16</ele></trkpt>
   <trkpt lat="55.227866" lon="11.771092"><ele>15.75</ele></trkpt>
   <trkpt lat="55.22804" lon="11.770871"><ele>15.25</ele></trkpt>
   <trkpt lat="55.228286" lon="11.770604"><ele>14.75</ele></trkpt>
   <trkpt lat="55.22871" lon="11.770112"><ele>14.5</ele></trkpt>
   <trkpt lat="55.229008" lon="11.769733"><ele>14.5</ele></trkpt>
   <trkpt lat="55.229156" lon="11.769577"><ele>14.25</ele></trkpt>
   <trkpt lat="55.229482" lon="11.769249"><ele>13.5</ele></trkpt>
   <trkpt lat="55.230351" lon="11.768379"><ele>12.5</ele></trkpt>
   <trkpt lat="55.230368" lon="11.768364"><ele>12.5</ele></trkpt>
   <trkpt lat="55.231433" lon="11.76729"><ele>13.25</ele></trkpt>
   <trkpt lat="55.232188" lon="11.766531"><ele>12.5</ele></trkpt>
   <trkpt lat="55.233641" lon="11.765001"><ele>12.25</ele></trkpt>
   <trkpt lat="55.234048" lon="11.764602"><ele>12.75</ele></trkpt>
   <trkpt lat="55.234464" lon="11.76422"><ele>13.25</ele></trkpt>
   <trkpt lat="55.234644" lon="11.764061"><ele>13.25</ele></trkpt>
   <trkpt lat="55.234977" lon="11.763811"><ele>13.5</ele></trkpt>
   <trkpt lat="55.235618" lon="11.76341"><ele>12.25</ele></trkpt>
   <trkpt lat="55.235854" lon="11.763249"><ele>12</ele></trkpt>
   <trkpt lat="55.236033" lon="11.76312"><ele>12</ele></trkpt>
   <trkpt lat="55.236456" lon="11.762837"><ele>12</ele></trkpt>
   <trkpt lat="55.236897" lon="11.762569"><ele>12.25</ele></trkpt>
   <trkpt lat="55.237368" lon="11.762311"><ele>12.75</ele></trkpt>
   <trkpt lat="55.237715" lon="11.76214"><ele>12.5</ele></trkpt>
   <trkpt lat="55.238049" lon="11.761992"><ele>12.25</ele></trkpt>
   <trkpt lat="55.238698" lon="11.761742"><ele>12</ele></trkpt>
   <trkpt lat="55.239863" lon="11.761394"><ele>12</ele></trkpt>
   <trkpt lat="55.244502" lon="11.760084"><ele>20.75</ele></trkpt>
   <trkpt lat="55.246892" lon="11.759398"><ele>10</ele></trkpt>
   <trkpt lat="55.247078" lon="11.75934"><ele>9.75</ele></trkpt>
   <trkpt lat="55.247529" lon="11.759188"><ele>9</ele></trkpt>
   <trkpt lat="55.247878" lon="11.759054"><ele>9.25</ele></trkpt>
   <trkpt lat="55.248456" lon="11.758797"><ele>9.25</ele></trkpt>
   <trkpt lat="55.2489" lon="11.758574"><ele>9.5</ele></trkpt>
   <trkpt lat="55.249269" lon="11.758362"><ele>10</ele></trkpt>
   <trkpt lat="55.249637" lon="11.758137"><ele>10</ele></trkpt>
   <trkpt lat="55.250306" lon="11.757708"><ele>9.25</ele></trkpt>
   <trkpt lat="55.254348" lon="11.755061"><ele>9.25</ele></trkpt>
   <trkpt lat="55.255108" lon="11.754581"><ele>8.5</ele></trkpt>
   <trkpt lat="55.255465" lon="11.754373"><ele>8</ele></trkpt>
   <trkpt lat="55.255825" lon="11.75418"><ele>8</ele></trkpt>
   <trkpt lat="55.256183" lon="11.754005"><ele>7.75</ele></trkpt>
   <trkpt lat="55.256538" lon="11.753849"><ele>7.75</ele></trkpt>
   <trkpt lat="55.256907" lon="11.753701"><ele>7.75</ele></trkpt>
   <trkpt lat="55.257274" lon="11.753574"><ele>7.25</ele></trkpt>
   <trkpt lat="55.257628" lon="11.753466"><ele>7.25</ele></trkpt>
   <trkpt lat="55.257985" lon="11.753374"><ele>7.5</ele></trkpt>
   <trkpt lat="55.258412" lon="11.753281"><ele>8</ele></trkpt>
   <trkpt lat="55.258843" lon="11.753205"><ele>8.75</ele></trkpt>
   <trkpt lat="55.260119" lon="11.753012"><ele>8.75</ele></trkpt>
   <trkpt lat="55.260882" lon="11.752875"><ele>8.5</ele></trkpt>
   <trkpt lat="55.261527" lon="11.75272"><ele>9</ele></trkpt>
   <trkpt lat="55.261839" lon="11.752628"><ele>8.75</ele></trkpt>
   <trkpt lat="55.262557" lon="11.75238"><ele>6.5</ele></trkpt>
   <trkpt lat="55.262785" lon="11.752286"><ele>6.5</ele></trkpt>
   <trkpt lat="55.263366" lon="11.752029"><ele>7</ele></trkpt>
   <trkpt lat="55.26369" lon="11.751867"><ele>7</ele></trkpt>
   <trkpt lat="55.264204" lon="11.751592"><ele>7</ele></trkpt>
   <trkpt lat="55.264359" lon="11.751504"><ele>7</ele></trkpt>
   <trkpt lat="55.273143" lon="11.746362"><ele>13.75</ele></trkpt>
   <trkpt lat="55.275349" lon="11.745079"><ele>14.25</ele></trkpt>
   <trkpt lat="55.275865" lon="11.744792"><ele>14</ele></trkpt>
   <trkpt lat="55.276731" lon="11.744339"><ele>12.5</ele></trkpt>
   <trkpt lat="55.277468" lon="11.743994"><ele>10.5</ele></trkpt>
   <trkpt lat="55.277856" lon="11.743832"><ele>10</ele></trkpt>
   <trkpt lat="55.278253" lon="11.74368"><ele>9.75</ele></trkpt>
   <trkpt lat="55.278648" lon="11.743546"><ele>9.75</ele></trkpt>
   <trkpt lat="55.279029" lon="11.743431"><ele>9.75</ele></trkpt>
   <trkpt lat="55.279413" lon="11.743334"><ele>9.5</ele></trkpt>
   <trkpt lat="55.279808" lon="11.74325"><ele>9.5</ele></trkpt>
   <trkpt lat="55.280198" lon="11.743181"><ele>9.5</ele></trkpt>
   <trkpt lat="55.280593" lon="11.743127"><ele>10.25</ele></trkpt>
   <trkpt lat="55.280986" lon="11.743092"><ele>10.5</ele></trkpt>
   <trkpt lat="55.281397" lon="11.743072"><ele>10.5</ele></trkpt>
   <trkpt lat="55.281806" lon="11.743068"><ele>10</ele></trkpt>
   <trkpt lat="55.282619" lon="11.743092"><ele>7.75</ele></trkpt>
   <trkpt lat="55.313714" lon="11.744625"><ele>29</ele></trkpt>
   <trkpt lat="55.314572" lon="11.744651"><ele>28.5</ele></trkpt>
   <trkpt lat="55.314955" lon="11.744647"><ele>29</ele></trkpt>
   <trkpt lat="55.315336" lon="11.744628"><ele>28.5</ele></trkpt>
   <trkpt lat="55.315719" lon="11.744595"><ele>28</ele></trkpt>
   <trkpt lat="55.316102" lon="11.744546"><ele>27.25</ele></trkpt>
   <trkpt lat="55.316483" lon="11.744481"><ele>26</ele></trkpt>
   <trkpt lat="55.316863" lon="11.744402"><ele>25</ele></trkpt>
   <trkpt lat="55.317235" lon="11.74431"><ele>23.75</ele></trkpt>
   <trkpt lat="55.317606" lon="11.744202"><ele>23.25</ele></trkpt>
   <trkpt lat="55.317982" lon="11.744079"><ele>24.5</ele></trkpt>
   <trkpt lat="55.318358" lon="11.743941"><ele>25.5</ele></trkpt>
   <trkpt lat="55.318755" lon="11.743782"><ele>25.75</ele></trkpt>
   <trkpt lat="55.31915" lon="11.743614"><ele>25.75</ele></trkpt>
   <trkpt lat="55.319845" lon="11.743297"><ele>29.75</ele></trkpt>
   <trkpt lat="55.320637" lon="11.742903"><ele>31.5</ele></trkpt>
   <trkpt lat="55.321339" lon="11.742507"><ele>30.25</ele></trkpt>
   <trkpt lat="55.321689" lon="11.742293"><ele>29.75</ele></trkpt>
   <trkpt lat="55.322371" lon="11.741844"><ele>27.25</ele></trkpt>
   <trkpt lat="55.322778" lon="11.741554"><ele>26</ele></trkpt>
   <trkpt lat="55.323187" lon="11.741246"><ele>25.25</ele></trkpt>
   <trkpt lat="55.323589" lon="11.740927"><ele>25</ele></trkpt>
   <trkpt lat="55.323987" lon="11.740593"><ele>25</ele></trkpt>
   <trkpt lat="55.324383" lon="11.740245"><ele>25</ele></trkpt>
   <trkpt lat="55.324775" lon="11.739886"><ele>25</ele></trkpt>
   <trkpt lat="55.325154" lon="11.739517"><ele>25.5</ele></trkpt>
   <trkpt lat="55.325531" lon="11.739135"><ele>26</ele></trkpt>
   <trkpt lat="55.325909" lon="11.738734"><ele>26</ele></trkpt>
   <trkpt lat="55.326283" lon="11.73832"><ele>26.5</ele></trkpt>
   <trkpt lat="55.326653" lon="11.737893"><ele>26.75</ele></trkpt>
   <trkpt lat="55.327017" lon="11.737454"><ele>26.5</ele></trkpt>
   <trkpt lat="55.327377" lon="11.737002"><ele>26</ele></trkpt>
   <trkpt lat="55.327732" lon="11.736536"><ele>26</ele></trkpt>
   <trkpt lat="55.328077" lon="11.736067"><ele>26.25</ele></trkpt>
   <trkpt lat="55.328416" lon="11.735583"><ele>27</ele></trkpt>
   <trkpt lat="55.328751" lon="11.735088"><ele>27.75</ele></trkpt>
   <trkpt lat="55.32908" lon="11.734582"><ele>29.75</ele></trkpt>
   <trkpt lat="55.329566" lon="11.733797"><ele>30.25</ele></trkpt>
   <trkpt lat="55.330039" lon="11.732988"><ele>29.5</ele></trkpt>
   <trkpt lat="55.330324" lon="11.732475"><ele>29</ele></trkpt>
   <trkpt lat="55.330628" lon="11.731907"><ele>27.75</ele></trkpt>
   <trkpt lat="55.330921" lon="11.731337"><ele>28</ele></trkpt>
   <trkpt lat="55.331209" lon="11.730753"><ele>29.5</ele></trkpt>
   <trkpt lat="55.331773" lon="11.729554"><ele>31.25</ele></trkpt>
   <trkpt lat="55.33873" lon="11.714332"><ele>17.25</ele></trkpt>
   <trkpt lat="55.341471" lon="11.708328"><ele>18.75</ele></trkpt>
   <trkpt lat="55.341927" lon="11.707352"><ele>19</ele></trkpt>
   <trkpt lat="55.342167" lon="11.706861"><ele>19</ele></trkpt>
   <trkpt lat="55.342413" lon="11.706383"><ele>18.75</ele></trkpt>
   <trkpt lat="55.342922" lon="11.705454"><ele>19.5</ele></trkpt>
   <trkpt lat="55.343177" lon="11.705021"><ele>20.5</ele></trkpt>
   <trkpt lat="55.343436" lon="11.704606"><ele>20.25</ele></trkpt>
   <trkpt lat="55.343679" lon="11.704233"><ele>20.25</ele></trkpt>
   <trkpt lat="55.343924" lon="11.703874"><ele>21</ele></trkpt>
   <trkpt lat="55.344139" lon="11.703566"><ele>21.75</ele></trkpt>
   <trkpt lat="55.344357" lon="11.70327"><ele>22.25</ele></trkpt>
   <trkpt lat="55.344952" lon="11.702514"><ele>22.75</ele></trkpt>
   <trkpt lat="55.345258" lon="11.702152"><ele>23.25</ele></trkpt>
   <trkpt lat="55.345569" lon="11.701811"><ele>23.5</ele></trkpt>
   <trkpt lat="55.345885" lon="11.701481"><ele>24.25</ele></trkpt>
   <trkpt lat="55.346206" lon="11.701166"><ele>25</ele></trkpt>
   <trkpt lat="55.346533" lon="11.700865"><ele>25.75</ele></trkpt>
   <trkpt lat="55.346864" lon="11.700579"><ele>26.25</ele></trkpt>
   <trkpt lat="55.347577" lon="11.700006"><ele>28</ele></trkpt>
   <trkpt lat="55.349769" lon="11.698426"><ele>26.25</ele></trkpt>
   <trkpt lat="55.34994" lon="11.698304"><ele>26.5</ele></trkpt>
   <trkpt lat="55.351961" lon="11.696837"><ele>27.75</ele></trkpt>
   <trkpt lat="55.352403" lon="11.696521"><ele>27.5</ele></trkpt>
   <trkpt lat="55.352991" lon="11.696108"><ele>28.25</ele></trkpt>
   <trkpt lat="55.353691" lon="11.695658"><ele>29.25</ele></trkpt>
   <trkpt lat="55.354009" lon="11.695474"><ele>29.5</ele></trkpt>
   <trkpt lat="55.354697" lon="11.695111"><ele>29.25</ele></trkpt>
   <trkpt lat="55.354942" lon="11.694994"><ele>29</ele></trkpt>
   <trkpt lat="55.355487" lon="11.694762"><ele>28</ele></trkpt>
   <trkpt lat="55.355789" lon="11.694647"><ele>27.5</ele></trkpt>
   <trkpt lat="55.356217" lon="11.694501"><ele>26.75</ele></trkpt>
   <trkpt lat="55.356647" lon="11.694368"><ele>26</ele></trkpt>
   <trkpt lat="55.356793" lon="11.694328"><ele>26</ele></trkpt>
   <trkpt lat="55.357285" lon="11.694218"><ele>26.75</ele></trkpt>
   <trkpt lat="55.357685" lon="11.694145"><ele>27.5</ele></trkpt>
   <trkpt lat="55.35808" lon="11.694089"><ele>29</ele></trkpt>
   <trkpt lat="55.35848" lon="11.694047"><ele>30.25</ele></trkpt>
   <trkpt lat="55.358877" lon="11.69402"><ele>31</ele></trkpt>
   <trkpt lat="55.359271" lon="11.694012"><ele>32</ele></trkpt>
   <trkpt lat="55.359672" lon="11.694017"><ele>33</ele></trkpt>
   <trkpt lat="55.360457" lon="11.694079"><ele>33.25</ele></trkpt>
   <trkpt lat="55.360855" lon="11.694136"><ele>32.75</ele></trkpt>
   <trkpt lat="55.361253" lon="11.694208"><ele>33</ele></trkpt>
   <trkpt lat="55.361649" lon="11.694294"><ele>33</ele></trkpt>
   <trkpt lat="55.362043" lon="11.694397"><ele>33.5</ele></trkpt>
   <trkpt lat="55.36244" lon="11.694517"><ele>33.75</ele></trkpt>
   <trkpt lat="55.362827" lon="11.694649"><ele>34.5</ele></trkpt>
   <trkpt lat="55.363179" lon="11.694785"><ele>35.25</ele></trkpt>
   <trkpt lat="55.363528" lon="11.694933"><ele>36</ele></trkpt>
   <trkpt lat="55.363877" lon="11.695095"><ele>36.5</ele></trkpt>
   <trkpt lat="55.364603" lon="11.695474"><ele>38.5</ele></trkpt>
   <trkpt lat="55.364982" lon="11.695697"><ele>39.75</ele></trkpt>
   <trkpt lat="55.365612" lon="11.696106"><ele>42.25</ele></trkpt>
   <trkpt lat="55.366189" lon="11.696524"><ele>43.5</ele></trkpt>
   <trkpt lat="55.366678" lon="11.696914"><ele>42.75</ele></trkpt>
   <trkpt lat="55.36716" lon="11.697328"><ele>41.75</ele></trkpt>
   <trkpt lat="55.367712" lon="11.697845"><ele>40.5</ele></trkpt>
   <trkpt lat="55.368339" lon="11.698487"><ele>39.75</ele></trkpt>
   <trkpt lat="55.36868" lon="11.698866"><ele>40.75</ele></trkpt>
   <trkpt lat="55.369018" lon="11.699259"><ele>42.25</ele></trkpt>
   <trkpt lat="55.369329" lon="11.699639"><ele>43</ele></trkpt>
   <trkpt lat="55.369644" lon="11.700041"><ele>43.5</ele></trkpt>
   <trkpt lat="55.369963" lon="11.700469"><ele>43.25</ele></trkpt>
   <trkpt lat="55.370275" lon="11.700911"><ele>42.25</ele></trkpt>
   <trkpt lat="55.370732" lon="11.701593"><ele>40.25</ele></trkpt>
   <trkpt lat="55.371241" lon="11.702411"><ele>34.75</ele></trkpt>
   <trkpt lat="55.371825" lon="11.7034"><ele>28.5</ele></trkpt>
   <trkpt lat="55.374053" lon="11.707245"><ele>23.75</ele></trkpt>
   <trkpt lat="55.374291" lon="11.707646"><ele>24.25</ele></trkpt>
   <trkpt lat="55.374762" lon="11.708388"><ele>27</ele></trkpt>
   <trkpt lat="55.374964" lon="11.708728"><ele>27.75</ele></trkpt>
   <trkpt lat="55.380594" lon="11.718454"><ele>40.75</ele></trkpt>
   <trkpt lat="55.382159" lon="11.721156"><ele>35.75</ele></trkpt>
   <trkpt lat="55.38281" lon="11.722278"><ele>32.25</ele></trkpt>
   <trkpt lat="55.383265" lon="11.723015"><ele>29.75</ele></trkpt>
   <trkpt lat="55.383615" lon="11.723623"><ele>27.75</ele></trkpt>
   <trkpt lat="55.38485" lon="11.725812"><ele>23.25</ele></trkpt>
   <trkpt lat="55.385417" lon="11.726787"><ele>21.75</ele></trkpt>
   <trkpt lat="55.387703" lon="11.730732"><ele>20</ele></trkpt>
   <trkpt lat="55.388196" lon="11.731539"><ele>21.5</ele></trkpt>
   <trkpt lat="55.388555" lon="11.732095"><ele>22</ele></trkpt>
   <trkpt lat="55.389114" lon="11.73291"><ele>22.25</ele></trkpt>
   <trkpt lat="55.389668" lon="11.733661"><ele>23.75</ele></trkpt>
   <trkpt lat="55.390089" lon="11.734198"><ele>25</ele></trkpt>
   <trkpt lat="55.390317" lon="11.734481"><ele>25.75</ele></trkpt>
   <trkpt lat="55.390796" lon="11.735048"><ele>27</ele></trkpt>
   <trkpt lat="55.391273" lon="11.735582"><ele>27.5</ele></trkpt>
   <trkpt lat="55.391523" lon="11.73585"><ele>28</ele></trkpt>
   <trkpt lat="55.392233" lon="11.736566"><ele>29.75</ele></trkpt>
   <trkpt lat="55.392478" lon="11.7368"><ele>30</ele></trkpt>
   <trkpt lat="55.392716" lon="11.737021"><ele>29.25</ele></trkpt>
   <trkpt lat="55.393188" lon="11.737435"><ele>28.25</ele></trkpt>
   <trkpt lat="55.393687" lon="11.737848"><ele>28</ele></trkpt>
   <trkpt lat="55.394082" lon="11.738156"><ele>27.25</ele></trkpt>
   <trkpt lat="55.394485" lon="11.738451"><ele>27.5</ele></trkpt>
   <trkpt lat="55.39489" lon="11.738733"><ele>28.25</ele></trkpt>
   <trkpt lat="55.395295" lon="11.738999"><ele>28.5</ele></trkpt>
   <trkpt lat="55.395705" lon="11.739252"><ele>28</ele></trkpt>
   <trkpt lat="55.39632" lon="11.7396"><ele>25</ele></trkpt>
   <trkpt lat="55.397993" lon="11.740455"><ele>17.5</ele></trkpt>
   <trkpt lat="55.39904" lon="11.741031"><ele>13.75</ele></trkpt>
   <trkpt lat="55.399475" lon="11.741283"><ele>14.25</ele></trkpt>
   <trkpt lat="55.405904" lon="11.744986"><ele>22.75</ele></trkpt>
   <trkpt lat="55.406466" lon="11.74532"><ele>21.75</ele></trkpt>
   <trkpt lat="55.407015" lon="11.74566"><ele>21.25</ele></trkpt>
   <trkpt lat="55.407544" lon="11.746006"><ele>21</ele></trkpt>
   <trkpt lat="55.408726" lon="11.746827"><ele>21.5</ele></trkpt>
   <trkpt lat="55.41008" lon="11.747784"><ele>22.25</ele></trkpt>
   <trkpt lat="55.411412" lon="11.748739"><ele>20</ele></trkpt>
   <trkpt lat="55.411604" lon="11.748885"><ele>19.25</ele></trkpt>
   <trkpt lat="55.412868" lon="11.749879"><ele>18.25</ele></trkpt>
   <trkpt lat="55.418054" lon="11.754019"><ele>20</ele></trkpt>
   <trkpt lat="55.418539" lon="11.754392"><ele>22</ele></trkpt>
   <trkpt lat="55.419031" lon="11.754754"><ele>24</ele></trkpt>
   <trkpt lat="55.41952" lon="11.755085"><ele>25</ele></trkpt>
   <trkpt lat="55.420243" lon="11.755524"><ele>26</ele></trkpt>
   <trkpt lat="55.420969" lon="11.755933"><ele>28.5</ele></trkpt>
   <trkpt lat="55.427499" lon="11.759548"><ele>26.5</ele></trkpt>
   <trkpt lat="55.428075" lon="11.759868"><ele>25.75</ele></trkpt>
   <trkpt lat="55.428368" lon="11.760042"><ele>26</ele></trkpt>
   <trkpt lat="55.428931" lon="11.7604"><ele>26.5</ele></trkpt>
   <trkpt lat="55.429253" lon="11.76059"><ele>27</ele></trkpt>
   <trkpt lat="55.430229" lon="11.761143"><ele>29.75</ele></trkpt>
   <trkpt lat="55.430861" lon="11.761552"><ele>31.75</ele></trkpt>
   <trkpt lat="55.431105" lon="11.761732"><ele>32.5</ele></trkpt>
   <trkpt lat="55.431343" lon="11.761922"><ele>33</ele></trkpt>
   <trkpt lat="55.43171" lon="11.762234"><ele>34</ele></trkpt>
   <trkpt lat="55.432067" lon="11.762573"><ele>35.75</ele></trkpt>
   <trkpt lat="55.432351" lon="11.762862"><ele>37</ele></trkpt>
   <trkpt lat="55.432633" lon="11.76317"><ele>37</ele></trkpt>
   <trkpt lat="55.43289" lon="11.763471"><ele>36.75</ele></trkpt>
   <trkpt lat="55.43339" lon="11.764109"><ele>37</ele></trkpt>
   <trkpt lat="55.433626" lon="11.764443"><ele>37</ele></trkpt>
   <trkpt lat="55.4339" lon="11.764853"><ele>36.75</ele></trkpt>
   <trkpt lat="55.434167" lon="11.765283"><ele>36.5</ele></trkpt>
   <trkpt lat="55.43439" lon="11.765661"><ele>35.75</ele></trkpt>
   <trkpt lat="55.434607" lon="11.766051"><ele>35</ele></trkpt>
   <trkpt lat="55.43484" lon="11.766499"><ele>34</ele></trkpt>
   <trkpt lat="55.435236" lon="11.76733"><ele>32</ele></trkpt>
   <trkpt lat="55.435543" lon="11.76805"><ele>30.25</ele></trkpt>
   <trkpt lat="55.435744" lon="11.768564"><ele>29.75</ele></trkpt>
   <trkpt lat="55.436012" lon="11.769306"><ele>30</ele></trkpt>
   <trkpt lat="55.436155" lon="11.769736"><ele>29.75</ele></trkpt>
   <trkpt lat="55.436288" lon="11.770165"><ele>29.75</ele></trkpt>
   <trkpt lat="55.436424" lon="11.770632"><ele>30</ele></trkpt>
   <trkpt lat="55.436551" lon="11.771102"><ele>30</ele></trkpt>
   <trkpt lat="55.436678" lon="11.771607"><ele>30</ele></trkpt>
   <trkpt lat="55.4368" lon="11.772128"><ele>29.75</ele></trkpt>
   <trkpt lat="55.436937" lon="11.772772"><ele>29.5</ele></trkpt>
   <trkpt lat="55.43706" lon="11.773429"><ele>29.25</ele></trkpt>
   <trkpt lat="55.437173" lon="11.774117"><ele>29.25</ele></trkpt>
   <trkpt lat="55.437268" lon="11.774784"><ele>29</ele></trkpt>
   <trkpt lat="55.437314" lon="11.775154"><ele>28.75</ele></trkpt>
   <trkpt lat="55.43738" lon="11.775777"><ele>28.25</ele></trkpt>
   <trkpt lat="55.437454" lon="11.776641"><ele>27.5</ele></trkpt>
   <trkpt lat="55.437522" lon="11.77783"><ele>27.5</ele></trkpt>
   <trkpt lat="55.437549" lon="11.778426"><ele>26.75</ele></trkpt>
   <trkpt lat="55.437598" lon="11.779401"><ele>28.75</ele></trkpt>
   <trkpt lat="55.437686" lon="11.781245"><ele>31.75</ele></trkpt>
   <trkpt lat="55.437706" lon="11.781829"><ele>32.75</ele></trkpt>
   <trkpt lat="55.437741" lon="11.78322"><ele>34.75</ele></trkpt>
   <trkpt lat="55.43776" lon="11.783709"><ele>35</ele></trkpt>
   <trkpt lat="55.437859" lon="11.786122"><ele>36</ele></trkpt>
   <trkpt lat="55.437928" lon="11.78772"><ele>36.5</ele></trkpt>
  </trkseg>
 </trk>
</gpx>