<?xml version="1.0" encoding="UTF-8"?>
<!-- track-length = 74030 filtered ascend = 148 plain-ascend = -89 cost=74030 energy=0.9kwh time=1h 38m 42s -->
<gpx 
 xmlns="http://www.topografix.com/GPX/1/1" 
 xmlns:xsi="http://www.w3.org/2001/XMLSchema-instance" 
 xsi:schemaLocation="http://www.topografix.com/GPX/1/1 http://www.topografix.com/GPX/1/1/gpx.xsd" 
 version="1.1" 
 creator="BRouter-Web 0.18.1">
 <trk>
  <name>seenlandbahn</name>
  <trkseg>
   <trkpt lat="51.114268" lon="13.788722"><ele>193.75</ele></trkpt>
   <trkpt lat="51.114341" lon="13.788776"><ele>193.75</ele></trkpt>
   <trkpt lat="51.11469" lon="13.789061"><ele>193.5</ele></trkpt>
   <trkpt lat="51.114836" lon="13.789187"><ele>193.25</ele></trkpt>
   <trkpt lat="51.115039" lon="13.789366"><ele>192.75</ele></trkpt>
   <trkpt lat="51.115647" lon="13.789976"><ele>194.25</ele></trkpt>
   <trkpt lat="51.115682" lon="13.790012"><ele>194.25</ele></trkpt>
   <trkpt lat="51.115708" lon="13.790038"><ele>194.5</ele></trkpt>
   <trkpt lat="51.116566" lon="13.790855"><ele>198.5</ele></trkpt>
   <trkpt lat="51.116678" lon="13.790975"><ele>198.25</ele></trkpt>
   <trkpt lat="51.116921" lon="13.791244"><ele>197.5</ele></trkpt>
   <trkpt lat="51.117221" lon="13.791611"><ele>195.5</ele></trkpt>
   <trkpt lat="51.117364" lon="13.791763"><ele>195</ele></trkpt>
   <trkpt lat="51.120447" lon="13.794983"><ele>195.75</ele></trkpt>
   <trkpt lat="51.12062" lon="13.795165"><ele>196.5</ele></trkpt>
   <trkpt lat="51.121619" lon="13.79621"><ele>198.5</ele></trkpt>
   <trkpt lat="51.122141" lon="13.796754"><ele>198.25</ele></trkpt>
   <trkpt lat="51.122313" lon="13.796942"><ele>198</ele></trkpt>
   <trkpt lat="51.12273" lon="13.797447"><ele>197.25</ele></trkpt>
   <trkpt lat="51.123613" lon="13.798367"><ele>198.25</ele></trkpt>
   <trkpt lat="51.123693" lon="13.79845"><ele>198.75</ele></trkpt>
   <trkpt lat="51.124253" lon="13.799038"><ele>201</ele></trkpt>
   <trkpt lat="51.124736" lon="13.799568"><ele>202.5</ele></trkpt>
   <trkpt lat="51.125206" lon="13.800145"><ele>203.25</ele></trkpt>
   <trkpt lat="51.1254" lon="13.800423"><ele>203.75</ele></trkpt>
   <trkpt lat="51.12571" lon="13.800931"><ele>204.25</ele></trkpt>
   <trkpt lat="51.125738" lon="13.800971"><ele>204.25</ele></trkpt>
   <trkpt lat="51.125825" lon="13.801111"><ele>204.25</ele></trkpt>
   <trkpt lat="51.126028" lon="13.801442"><ele>203.75</ele></trkpt>
   <trkpt lat="51.126287" lon="13.80189"><ele>203</ele></trkpt>
   <trkpt lat="51.126568" lon="13.802409"><ele>203</ele></trkpt>
   <trkpt lat="51.12671" lon="13.802701"><ele>203.5</ele></trkpt>
   <trkpt lat="51.127062" lon="13.803472"><ele>206</ele></trkpt>
   <trkpt lat="51.127327" lon="13.804131"><ele>206.75</ele></trkpt>
   <trkpt lat="51.127478" lon="13.804544"><ele>207.25</ele></trkpt>
   <trkpt lat="51.127616" lon="13.804952"><ele>207.25</ele></trkpt>
   <trkpt lat="51.127624" lon="13.804977"><ele>207.25</ele></trkpt>
   <trkpt lat="51.12773" lon="13.805306"><ele>207.25</ele></trkpt>
   <trkpt lat="51.127968" lon="13.806142"><ele>208.25</ele></trkpt>
   <trkpt lat="51.128054" lon="13.806474"><ele>209</ele></trkpt>
   <trkpt lat="51.12818" lon="13.807034"><ele>209.25</ele></trkpt>
   <trkpt lat="51.128268" lon="13.807447"><ele>209</ele></trkpt>
   <trkpt lat="51.128303" lon="13.80761"><ele>209</ele></trkpt>
   <trkpt lat="51.128405" lon="13.808169"><ele>209.5</ele></trkpt>
   <trkpt lat="51.128519" lon="13.808863"><ele>209.75</ele></trkpt>
   <trkpt lat="51.1287" lon="13.809959"><ele>209</ele></trkpt>
   <trkpt lat="51.128721" lon="13.810088"><ele>209.25</ele></trkpt>
   <trkpt lat="51.128974" lon="13.811649"><ele>214.5</ele></trkpt>
   <trkpt lat="51.129381" lon="13.814356"><ele>216</ele></trkpt>
   <trkpt lat="51.129634" lon="13.816007"><ele>214.75</ele></trkpt>
   <trkpt lat="51.129705" lon="13.816532"><ele>215</ele></trkpt>
   <trkpt lat="51.129767" lon="13.817046"><ele>215</ele></trkpt>
   <trkpt lat="51.129819" lon="13.817613"><ele>215.5</ele></trkpt>
   <trkpt lat="51.129855" lon="13.818201"><ele>216.5</ele></trkpt>
   <trkpt lat="51.12988" lon="13.818733"><ele>217.25</ele></trkpt>
   <trkpt lat="51.129899" lon="13.819307"><ele>218</ele></trkpt>
   <trkpt lat="51.129897" lon="13.820031"><ele>218.75</ele></trkpt>
   <trkpt lat="51.129891" lon="13.820452"><ele>218.25</ele></trkpt>
   <trkpt lat="51.129837" lon="13.82153"><ele>216.5</ele></trkpt>
   <trkpt lat="51.12979" lon="13.822051"><ele>216.5</ele></trkpt>
   <trkpt lat="51.129713" lon="13.822751"><ele>216.75</ele></trkpt>
   <trkpt lat="51.129691" lon="13.822933"><ele>216.75</ele></trkpt>
   <trkpt lat="51.129607" lon="13.823516"><ele>217.5</ele></trkpt>
   <trkpt lat="51.129261" lon="13.825696"><ele>220.75</ele></trkpt>
   <trkpt lat="51.128831" lon="13.828372"><ele>220.75</ele></trkpt>
   <trkpt lat="51.128783" lon="13.828672"><ele>220.5</ele></trkpt>
   <trkpt lat="51.128396" lon="13.831078"><ele>220.25</ele></trkpt>
   <trkpt lat="51.127936" lon="13.833939"><ele>224</ele></trkpt>
   <trkpt lat="51.127485" lon="13.836706"><ele>224.75</ele></trkpt>
   <trkpt lat="51.126716" lon="13.841474"><ele>223.75</ele></trkpt>
   <trkpt lat="51.126595" lon="13.842254"><ele>222.75</ele></trkpt>
   <trkpt lat="51.12653" lon="13.84267"><ele>221.75</ele></trkpt>
   <trkpt lat="51.126515" lon="13.842765"><ele>221.25</ele></trkpt>
   <trkpt lat="51.126452" lon="13.843158"><ele>220.25</ele></trkpt>
   <trkpt lat="51.126166" lon="13.844951"><ele>217.25</ele></trkpt>
   <trkpt lat="51.126155" lon="13.845023"><ele>217.25</ele></trkpt>
   <trkpt lat="51.125983" lon="13.846129"><ele>220</ele></trkpt>
   <trkpt lat="51.125947" lon="13.846361"><ele>221</ele></trkpt>
   <trkpt lat="51.125706" lon="13.847832"><ele>223</ele></trkpt>
   <trkpt lat="51.125258" lon="13.850582"><ele>228</ele></trkpt>
   <trkpt lat="51.124813" lon="13.853314"><ele>229</ele></trkpt>
   <trkpt lat="51.124363" lon="13.856078"><ele>230.25</ele></trkpt>
   <trkpt lat="51.123636" lon="13.860554"><ele>233.75</ele></trkpt>
   <trkpt lat="51.123635" lon="13.860562"><ele>233.75</ele></trkpt>
   <trkpt lat="51.123633" lon="13.86057"><ele>233.75</ele></trkpt>
   <trkpt lat="51.123614" lon="13.860692"><ele>233.75</ele></trkpt>
   <trkpt lat="51.123613" lon="13.860697"><ele>233.75</ele></trkpt>
   <trkpt lat="51.123613" lon="13.860701"><ele>233.75</ele></trkpt>
   <trkpt lat="51.123467" lon="13.861598"><ele>235.25</ele></trkpt>
   <trkpt lat="51.122997" lon="13.864484"><ele>240</ele></trkpt>
   <trkpt lat="51.122564" lon="13.867144"><ele>244.75</ele></trkpt>
   <trkpt lat="51.122105" lon="13.869965"><ele>252.25</ele></trkpt>
   <trkpt lat="51.121667" lon="13.87266"><ele>254</ele></trkpt>
   <trkpt lat="51.121222" lon="13.875391"><ele>257</ele></trkpt>
   <trkpt lat="51.120758" lon="13.878244"><ele>256.5</ele></trkpt>
   <trkpt lat="51.120106" lon="13.882319"><ele>254</ele></trkpt>
   <trkpt lat="51.119932" lon="13.883271"><ele>251.25</ele></trkpt>
   <trkpt lat="51.11984" lon="13.883679"><ele>250.75</ele></trkpt>
   <trkpt lat="51.119739" lon="13.884101"><ele>249.75</ele></trkpt>
   <trkpt lat="51.119613" lon="13.884582"><ele>247.75</ele></trkpt>
   <trkpt lat="51.119476" lon="13.885049"><ele>245.5</ele></trkpt>
   <trkpt lat="51.119362" lon="13.885418"><ele>245.75</ele></trkpt>
   <trkpt lat="51.119244" lon="13.885773"><ele>246</ele></trkpt>
   <trkpt lat="51.11903" lon="13.886359"><ele>247.25</ele></trkpt>
   <trkpt lat="51.118827" lon="13.88688"><ele>247.25</ele></trkpt>
   <trkpt lat="51.118485" lon="13.887658"><ele>245.25</ele></trkpt>
   <trkpt lat="51.11828" lon="13.888083"><ele>244.5</ele></trkpt>
   <trkpt lat="51.118009" lon="13.888595"><ele>244.25</ele></trkpt>
   <trkpt lat="51.117043" lon="13.890404"><ele>245.75</ele></trkpt>
   <trkpt lat="51.116851" lon="13.890794"><ele>245.75</ele></trkpt>
   <trkpt lat="51.116797" lon="13.890902"><ele>245.5</ele></trkpt>
   <trkpt lat="51.116546" lon="13.891431"><ele>245</ele></trkpt>
   <trkpt lat="51.116327" lon="13.891913"><ele>245.75</ele></trkpt>
   <trkpt lat="51.116099" lon="13.892449"><ele>247</ele></trkpt>
   <trkpt lat="51.115829" lon="13.89314"><ele>247.75</ele></trkpt>
   <trkpt lat="51.115547" lon="13.893911"><ele>247.5</ele></trkpt>
   <trkpt lat="51.115256" lon="13.894768"><ele>245.5</ele></trkpt>
   <trkpt lat="51.115126" lon="13.895191"><ele>243.5</ele></trkpt>
   <trkpt lat="51.115008" lon="13.895616"><ele>242</ele></trkpt>
   <trkpt lat="51.114797" lon="13.89638"><ele>241</ele></trkpt>
   <trkpt lat="51.114502" lon="13.897572"><ele>240</ele></trkpt>
   <trkpt lat="51.114336" lon="13.898322"><ele>240.75</ele></trkpt>
   <trkpt lat="51.114261" lon="13.898688"><ele>241.25</ele></trkpt>
   <trkpt lat="51.113824" lon="13.901074"><ele>241.75</ele></trkpt>
   <trkpt lat="51.113739" lon="13.901543"><ele>241.25</ele></trkpt>
   <trkpt lat="51.113638" lon="13.902105"><ele>241</ele></trkpt>
   <trkpt lat="51.113332" lon="13.903828"><ele>240.25</ele></trkpt>
   <trkpt lat="51.113247" lon="13.904295"><ele>239.75</ele></trkpt>
   <trkpt lat="51.113234" lon="13.904368"><ele>239.5</ele></trkpt>
   <trkpt lat="51.112835" lon="13.906577"><ele>237</ele></trkpt>
   <trkpt lat="51.112641" lon="13.90765"><ele>235.75</ele></trkpt>
   <trkpt lat="51.112623" lon="13.907748"><ele>235.75</ele></trkpt>
   <trkpt lat="51.112544" lon="13.908179"><ele>235</ele></trkpt>
   <trkpt lat="51.112336" lon="13.9093"><ele>234.5</ele></trkpt>
   <trkpt lat="51.112196" lon="13.910034"><ele>234</ele></trkpt>
   <trkpt lat="51.112183" lon="13.910102"><ele>234</ele></trkpt>
   <trkpt lat="51.112122" lon="13.910402"><ele>234.75</ele></trkpt>
   <trkpt lat="51.112061" lon="13.910702"><ele>235.5</ele></trkpt>
   <trkpt lat="51.1118" lon="13.911793"><ele>239</ele></trkpt>
   <trkpt lat="51.111746" lon="13.912065"><ele>239.25</ele></trkpt>
   <trkpt lat="51.111726" lon="13.912169"><ele>239.5</ele></trkpt>
   <trkpt lat="51.111557" lon="13.913043"><ele>240.75</ele></trkpt>
   <trkpt lat="51.111194" lon="13.915073"><ele>242.5</ele></trkpt>
   <trkpt lat="51.110782" lon="13.91732"><ele>242</ele></trkpt>
   <trkpt lat="51.110634" lon="13.918008"><ele>244</ele></trkpt>
   <trkpt lat="51.110569" lon="13.918266"><ele>244.75</ele></trkpt>
   <trkpt lat="51.110303" lon="13.919221"><ele>245.5</ele></trkpt>
   <trkpt lat="51.110092" lon="13.91998"><ele>245</ele></trkpt>
   <trkpt lat="51.109812" lon="13.921108"><ele>245</ele></trkpt>
   <trkpt lat="51.109675" lon="13.921503"><ele>244.75</ele></trkpt>
   <trkpt lat="51.109175" lon="13.922816"><ele>243</ele></trkpt>
   <trkpt lat="51.108874" lon="13.923557"><ele>241.5</ele></trkpt>
   <trkpt lat="51.108596" lon="13.924359"><ele>240.5</ele></trkpt>
   <trkpt lat="51.108378" lon="13.92489"><ele>240.75</ele></trkpt>
   <trkpt lat="51.108251" lon="13.925195"><ele>240.75</ele></trkpt>
   <trkpt lat="51.108177" lon="13.92538"><ele>241</ele></trkpt>
   <trkpt lat="51.106928" lon="13.928512"><ele>245.5</ele></trkpt>
   <trkpt lat="51.106658" lon="13.929256"><ele>245.75</ele></trkpt>
   <trkpt lat="51.106502" lon="13.929733"><ele>245</ele></trkpt>
   <trkpt lat="51.106418" lon="13.930015"><ele>244.75</ele></trkpt>
   <trkpt lat="51.10621" lon="13.93075"><ele>244.5</ele></trkpt>
   <trkpt lat="51.106104" lon="13.931154"><ele>244.5</ele></trkpt>
   <trkpt lat="51.105989" lon="13.931669"><ele>244.25</ele></trkpt>
   <trkpt lat="51.105921" lon="13.932003"><ele>244.5</ele></trkpt>
   <trkpt lat="51.105777" lon="13.93278"><ele>244.75</ele></trkpt>
   <trkpt lat="51.105728" lon="13.933109"><ele>244.75</ele></trkpt>
   <trkpt lat="51.105655" lon="13.933618"><ele>244.5</ele></trkpt>
   <trkpt lat="51.105607" lon="13.934016"><ele>244.25</ele></trkpt>
   <trkpt lat="51.105553" lon="13.934516"><ele>244</ele></trkpt>
   <trkpt lat="51.105501" lon="13.935175"><ele>244.25</ele></trkpt>
   <trkpt lat="51.105482" lon="13.935502"><ele>244.75</ele></trkpt>
   <trkpt lat="51.10545" lon="13.936307"><ele>245.75</ele></trkpt>
   <trkpt lat="51.105401" lon="13.938669"><ele>251</ele></trkpt>
   <trkpt lat="51.105383" lon="13.939169"><ele>252.25</ele></trkpt>
   <trkpt lat="51.105352" lon="13.939643"><ele>253.5</ele></trkpt>
   <trkpt lat="51.105323" lon="13.939952"><ele>254.25</ele></trkpt>
   <trkpt lat="51.105265" lon="13.940515"><ele>255.5</ele></trkpt>
   <trkpt lat="51.105184" lon="13.941165"><ele>256.25</ele></trkpt>
   <trkpt lat="51.105086" lon="13.941838"><ele>256</ele></trkpt>
   <trkpt lat="51.104937" lon="13.942782"><ele>254.5</ele></trkpt>
   <trkpt lat="51.104887" lon="13.943111"><ele>254.25</ele></trkpt>
   <trkpt lat="51.104775" lon="13.943855"><ele>255</ele></trkpt>
   <trkpt lat="51.104771" lon="13.943884"><ele>255</ele></trkpt>
   <trkpt lat="51.104594" lon="13.945024"><ele>255</ele></trkpt>
   <trkpt lat="51.104458" lon="13.945898"><ele>253.5</ele></trkpt>
   <trkpt lat="51.104326" lon="13.946685"><ele>252</ele></trkpt>
   <trkpt lat="51.104276" lon="13.947"><ele>252</ele></trkpt>
   <trkpt lat="51.104188" lon="13.947485"><ele>252</ele></trkpt>
   <trkpt lat="51.104099" lon="13.947917"><ele>252.25</ele></trkpt>
   <trkpt lat="51.103941" lon="13.948621"><ele>252.75</ele></trkpt>
   <trkpt lat="51.103737" lon="13.949381"><ele>252.5</ele></trkpt>
   <trkpt lat="51.103434" lon="13.950349"><ele>252.25</ele></trkpt>
   <trkpt lat="51.102905" lon="13.951933"><ele>250.75</ele></trkpt>
   <trkpt lat="51.102723" lon="13.952473"><ele>250.25</ele></trkpt>
   <trkpt lat="51.102646" lon="13.952706"><ele>250.25</ele></trkpt>
   <trkpt lat="51.102066" lon="13.954466"><ele>250</ele></trkpt>
   <trkpt lat="51.101656" lon="13.955712"><ele>250.75</ele></trkpt>
   <trkpt lat="51.101229" lon="13.95701"><ele>250.5</ele></trkpt>
   <trkpt lat="51.101119" lon="13.95735"><ele>251</ele></trkpt>
   <trkpt lat="51.101009" lon="13.957689"><ele>251.5</ele></trkpt>
   <trkpt lat="51.100415" lon="13.959478"><ele>255</ele></trkpt>
   <trkpt lat="51.100306" lon="13.959804"><ele>256</ele></trkpt>
   <trkpt lat="51.099942" lon="13.960921"><ele>256.75</ele></trkpt>
   <trkpt lat="51.099646" lon="13.961875"><ele>256</ele></trkpt>
   <trkpt lat="51.099484" lon="13.962488"><ele>256</ele></trkpt>
   <trkpt lat="51.09939" lon="13.962884"><ele>256</ele></trkpt>
   <trkpt lat="51.099275" lon="13.96345"><ele>256</ele></trkpt>
   <trkpt lat="51.099203" lon="13.963875"><ele>256</ele></trkpt>
   <trkpt lat="51.099138" lon="13.964379"><ele>256.25</ele></trkpt>
   <trkpt lat="51.099103" lon="13.964736"><ele>256.5</ele></trkpt>
   <trkpt lat="51.099074" lon="13.965219"><ele>257.25</ele></trkpt>
   <trkpt lat="51.099066" lon="13.965676"><ele>257.75</ele></trkpt>
   <trkpt lat="51.099071" lon="13.966103"><ele>258.25</ele></trkpt>
   <trkpt lat="51.099097" lon="13.966576"><ele>258.75</ele></trkpt>
   <trkpt lat="51.099144" lon="13.96708"><ele>257.75</ele></trkpt>
   <trkpt lat="51.09919" lon="13.967436"><ele>257</ele></trkpt>
   <trkpt lat="51.099236" lon="13.967731"><ele>255.75</ele></trkpt>
   <trkpt lat="51.099301" lon="13.968097"><ele>254.25</ele></trkpt>
   <trkpt lat="51.099381" lon="13.968462"><ele>253</ele></trkpt>
   <trkpt lat="51.099479" lon="13.968831"><ele>252.5</ele></trkpt>
   <trkpt lat="51.099604" lon="13.969236"><ele>251.75</ele></trkpt>
   <trkpt lat="51.099724" lon="13.969578"><ele>251.75</ele></trkpt>
   <trkpt lat="51.099857" lon="13.969911"><ele>251.75</ele></trkpt>
   <trkpt lat="51.100054" lon="13.970345"><ele>251.75</ele></trkpt>
   <trkpt lat="51.100259" lon="13.97074"><ele>251.5</ele></trkpt>
   <trkpt lat="51.100467" lon="13.971076"><ele>251.25</ele></trkpt>
   <trkpt lat="51.100693" lon="13.971405"><ele>251.5</ele></trkpt>
   <trkpt lat="51.100942" lon="13.971717"><ele>251.75</ele></trkpt>
   <trkpt lat="51.101195" lon="13.972012"><ele>251.5</ele></trkpt>
   <trkpt lat="51.101653" lon="13.972484"><ele>251</ele></trkpt>
   <trkpt lat="51.101732" lon="13.972575"><ele>250.75</ele></trkpt>
   <trkpt lat="51.101813" lon="13.972676"><ele>250.75</ele></trkpt>
   <trkpt lat="51.105326" lon="13.976435"><ele>254.75</ele></trkpt>
   <trkpt lat="51.106212" lon="13.977367"><ele>254.25</ele></trkpt>
   <trkpt lat="51.10676" lon="13.977983"><ele>254.75</ele></trkpt>
   <trkpt lat="51.107214" lon="13.978544"><ele>254.5</ele></trkpt>
   <trkpt lat="51.107431" lon="13.978836"><ele>254</ele></trkpt>
   <trkpt lat="51.107855" lon="13.979446"><ele>254.75</ele></trkpt>
   <trkpt lat="51.109314" lon="13.981597"><ele>256.25</ele></trkpt>
   <trkpt lat="51.110854" lon="13.983899"><ele>264</ele></trkpt>
   <trkpt lat="51.112282" lon="13.986055"><ele>270.75</ele></trkpt>
   <trkpt lat="51.112739" lon="13.986655"><ele>271</ele></trkpt>
   <trkpt lat="51.113212" lon="13.987239"><ele>273.5</ele></trkpt>
   <trkpt lat="51.113565" lon="13.987615"><ele>274.5</ele></trkpt>
   <trkpt lat="51.113951" lon="13.987992"><ele>275</ele></trkpt>
   <trkpt lat="51.114315" lon="13.988335"><ele>274.5</ele></trkpt>
   <trkpt lat="51.114783" lon="13.988713"><ele>273.75</ele></trkpt>
   <trkpt lat="51.115349" lon="13.989102"><ele>271.5</ele></trkpt>
   <trkpt lat="51.115918" lon="13.989441"><ele>266.75</ele></trkpt>
   <trkpt lat="51.11625" lon="13.989614"><ele>265.25</ele></trkpt>
   <trkpt lat="51.116583" lon="13.989775"><ele>264.25</ele></trkpt>
   <trkpt lat="51.116925" lon="13.989921"><ele>263.25</ele></trkpt>
   <trkpt lat="51.117286" lon="13.990054"><ele>261.25</ele></trkpt>
   <trkpt lat="51.117636" lon="13.990152"><ele>260.25</ele></trkpt>
   <trkpt lat="51.117733" lon="13.990182"><ele>260.25</ele></trkpt>
   <trkpt lat="51.118474" lon="13.990326"><ele>260</ele></trkpt>
   <trkpt lat="51.119025" lon="13.990389"><ele>260</ele></trkpt>
   <trkpt lat="51.119309" lon="13.990403"><ele>261.25</ele></trkpt>
   <trkpt lat="51.119593" lon="13.990398"><ele>264.25</ele></trkpt>
   <trkpt lat="51.121303" lon="13.990321"><ele>273.5</ele></trkpt>
   <trkpt lat="51.123889" lon="13.99018"><ele>266.5</ele></trkpt>
   <trkpt lat="51.126545" lon="13.990062"><ele>268.75</ele></trkpt>
   <trkpt lat="51.131156" lon="13.98985"><ele>276</ele></trkpt>
   <trkpt lat="51.131672" lon="13.98982"><ele>275</ele></trkpt>
   <trkpt lat="51.132187" lon="13.989819"><ele>275.75</ele></trkpt>
   <trkpt lat="51.132701" lon="13.989853"><ele>276</ele></trkpt>
   <trkpt lat="51.13315" lon="13.989907"><ele>276</ele></trkpt>
   <trkpt lat="51.134498" lon="13.990162"><ele>271</ele></trkpt>
   <trkpt lat="51.135072" lon="13.990263"><ele>267.75</ele></trkpt>
   <trkpt lat="51.135512" lon="13.990329"><ele>266.75</ele></trkpt>
   <trkpt lat="51.135763" lon="13.990367"><ele>266</ele></trkpt>
   <trkpt lat="51.136074" lon="13.990429"><ele>265.25</ele></trkpt>
   <trkpt lat="51.136367" lon="13.990514"><ele>264.5</ele></trkpt>
   <trkpt lat="51.13684" lon="13.990679"><ele>264.25</ele></trkpt>
   <trkpt lat="51.137117" lon="13.990832"><ele>265</ele></trkpt>
   <trkpt lat="51.137422" lon="13.991025"><ele>265.25</ele></trkpt>
   <trkpt lat="51.137828" lon="13.991342"><ele>266.5</ele></trkpt>
   <trkpt lat="51.137957" lon="13.991454"><ele>266.75</ele></trkpt>
   <trkpt lat="51.13822" lon="13.991701"><ele>267.25</ele></trkpt>
   <trkpt lat="51.138368" lon="13.991854"><ele>267.75</ele></trkpt>
   <trkpt lat="51.138528" lon="13.992029"><ele>268.25</ele></trkpt>
   <trkpt lat="51.138765" lon="13.992309"><ele>269</ele></trkpt>
   <trkpt lat="51.139029" lon="13.992671"><ele>270</ele></trkpt>
   <trkpt lat="51.139272" lon="13.993044"><ele>270.5</ele></trkpt>
   <trkpt lat="51.139441" lon="13.993335"><ele>270.5</ele></trkpt>
   <trkpt lat="51.139772" lon="13.993961"><ele>271</ele></trkpt>
   <trkpt lat="51.141454" lon="13.99743"><ele>277.5</ele></trkpt>
   <trkpt lat="51.141723" lon="13.997955"><ele>278.5</ele></trkpt>
   <trkpt lat="51.142905" lon="14.000355"><ele>274</ele></trkpt>
   <trkpt lat="51.143687" lon="14.001978"><ele>270.75</ele></trkpt>
   <trkpt lat="51.143873" lon="14.002405"><ele>270.25</ele></trkpt>
   <trkpt lat="51.144085" lon="14.002927"><ele>270.25</ele></trkpt>
   <trkpt lat="51.144203" lon="14.003287"><ele>270.75</ele></trkpt>
   <trkpt lat="51.14425" lon="14.003437"><ele>270.75</ele></trkpt>
   <trkpt lat="51.14435" lon="14.003781"><ele>270.75</ele></trkpt>
   <trkpt lat="51.144448" lon="14.004147"><ele>270.75</ele></trkpt>
   <trkpt lat="51.144535" lon="14.004509"><ele>271.25</ele></trkpt>
   <trkpt lat="51.144577" lon="14.004692"><ele>271.5</ele></trkpt>
   <trkpt lat="51.144675" lon="14.005244"><ele>272.25</ele></trkpt>
   <trkpt lat="51.144762" lon="14.005811"><ele>273</ele></trkpt>
   <trkpt lat="51.145137" lon="14.008437"><ele>278.5</ele></trkpt>
   <trkpt lat="51.145616" lon="14.011851"><ele>279.5</ele></trkpt>
   <trkpt lat="51.145686" lon="14.012292"><ele>280.75</ele></trkpt>
   <trkpt lat="51.145767" lon="14.012711"><ele>282.25</ele></trkpt>
   <trkpt lat="51.145881" lon="14.013142"><ele>284.5</ele></trkpt>
   <trkpt lat="51.145988" lon="14.013491"><ele>285.5</ele></trkpt>
   <trkpt lat="51.146176" lon="14.014006"><ele>285.5</ele></trkpt>
   <trkpt lat="51.146311" lon="14.014308"><ele>285</ele></trkpt>
   <trkpt lat="51.146494" lon="14.014648"><ele>283.75</ele></trkpt>
   <trkpt lat="51.146693" lon="14.014964"><ele>282</ele></trkpt>
   <trkpt lat="51.14711" lon="14.015544"><ele>280.5</ele></trkpt>
   <trkpt lat="51.147658" lon="14.016298"><ele>279.5</ele></trkpt>
   <trkpt lat="51.148092" lon="14.016875"><ele>279.75</ele></trkpt>
   <trkpt lat="51.148269" lon="14.017094"><ele>280.25</ele></trkpt>
   <trkpt lat="51.148438" lon="14.017289"><ele>280.5</ele></trkpt>
   <trkpt lat="51.148613" lon="14.017484"><ele>280.5</ele></trkpt>
   <trkpt lat="51.148908" lon="14.017786"><ele>280.75</ele></trkpt>
   <trkpt lat="51.14905" lon="14.017918"><ele>280.5</ele></trkpt>
   <trkpt lat="51.1492" lon="14.018043"><ele>280.5</ele></trkpt>
   <trkpt lat="51.149378" lon="14.018173"><ele>280</ele></trkpt>
   <trkpt lat="51.149652" lon="14.018345"><ele>279</ele></trkpt>
   <trkpt lat="51.149793" lon="14.018419"><ele>278.5</ele></trkpt>
   <trkpt lat="51.150053" lon="14.018546"><ele>277.5</ele></trkpt>
   <trkpt lat="51.150458" lon="14.018699"><ele>277.25</ele></trkpt>
   <trkpt lat="51.150685" lon="14.018765"><ele>277</ele></trkpt>
   <trkpt lat="51.150917" lon="14.018809"><ele>276.75</ele></trkpt>
   <trkpt lat="51.151149" lon="14.018831"><ele>277</ele></trkpt>
   <trkpt lat="51.151429" lon="14.018836"><ele>277</ele></trkpt>
   <trkpt lat="51.151972" lon="14.018797"><ele>277.5</ele></trkpt>
   <trkpt lat="51.152222" lon="14.018765"><ele>278</ele></trkpt>
   <trkpt lat="51.152431" lon="14.018727"><ele>278.25</ele></trkpt>
   <trkpt lat="51.15265" lon="14.018665"><ele>279</ele></trkpt>
   <trkpt lat="51.153116" lon="14.018486"><ele>280.5</ele></trkpt>
   <trkpt lat="51.153269" lon="14.018416"><ele>281</ele></trkpt>
   <trkpt lat="51.153481" lon="14.018286"><ele>281.5</ele></trkpt>
   <trkpt lat="51.153663" lon="14.018166"><ele>282</ele></trkpt>
   <trkpt lat="51.153854" lon="14.018026"><ele>282.5</ele></trkpt>
   <trkpt lat="51.154338" lon="14.017591"><ele>284.25</ele></trkpt>
   <trkpt lat="51.154478" lon="14.017453"><ele>285</ele></trkpt>
   <trkpt lat="51.154971" lon="14.016953"><ele>288</ele></trkpt>
   <trkpt lat="51.155643" lon="14.016248"><ele>292.75</ele></trkpt>
   <trkpt lat="51.156065" lon="14.015792"><ele>292.75</ele></trkpt>
   <trkpt lat="51.156254" lon="14.015617"><ele>292.25</ele></trkpt>
   <trkpt lat="51.156793" lon="14.015174"><ele>291.25</ele></trkpt>
   <trkpt lat="51.15708" lon="14.015009"><ele>291</ele></trkpt>
   <trkpt lat="51.15739" lon="14.014886"><ele>290.5</ele></trkpt>
   <trkpt lat="51.157616" lon="14.014815"><ele>290.75</ele></trkpt>
   <trkpt lat="51.158292" lon="14.0147"><ele>292</ele></trkpt>
   <trkpt lat="51.158657" lon="14.014702"><ele>292.25</ele></trkpt>
   <trkpt lat="51.158927" lon="14.014738"><ele>292.25</ele></trkpt>
   <trkpt lat="51.159259" lon="14.014818"><ele>292.25</ele></trkpt>
   <trkpt lat="51.159488" lon="14.014889"><ele>292.25</ele></trkpt>
   <trkpt lat="51.159858" lon="14.015038"><ele>292</ele></trkpt>
   <trkpt lat="51.16033" lon="14.015251"><ele>293.75</ele></trkpt>
   <trkpt lat="51.161601" lon="14.015871"><ele>296.75</ele></trkpt>
   <trkpt lat="51.161966" lon="14.016011"><ele>297.25</ele></trkpt>
   <trkpt lat="51.162327" lon="14.016125"><ele>297.5</ele></trkpt>
   <trkpt lat="51.162698" lon="14.016198"><ele>296</ele></trkpt>
   <trkpt lat="51.163063" lon="14.016251"><ele>293</ele></trkpt>
   <trkpt lat="51.163511" lon="14.016265"><ele>290.25</ele></trkpt>
   <trkpt lat="51.163806" lon="14.016251"><ele>289.5</ele></trkpt>
   <trkpt lat="51.164097" lon="14.016219"><ele>288.75</ele></trkpt>
   <trkpt lat="51.164388" lon="14.016164"><ele>288.25</ele></trkpt>
   <trkpt lat="51.164954" lon="14.016005"><ele>288</ele></trkpt>
   <trkpt lat="51.165559" lon="14.015743"><ele>287.75</ele></trkpt>
   <trkpt lat="51.165865" lon="14.015574"><ele>286.75</ele></trkpt>
   <trkpt lat="51.166153" lon="14.015394"><ele>285</ele></trkpt>
   <trkpt lat="51.166573" lon="14.015084"><ele>281.75</ele></trkpt>
   <trkpt lat="51.166875" lon="14.014818"><ele>281</ele></trkpt>
   <trkpt lat="51.167174" lon="14.014511"><ele>281.25</ele></trkpt>
   <trkpt lat="51.168844" lon="14.012704"><ele>274.75</ele></trkpt>
   <trkpt lat="51.170536" lon="14.010816"><ele>281</ele></trkpt>
   <trkpt lat="51.171083" lon="14.010265"><ele>279.5</ele></trkpt>
   <trkpt lat="51.171808" lon="14.009616"><ele>273.75</ele></trkpt>
   <trkpt lat="51.172279" lon="14.00925"><ele>271.75</ele></trkpt>
   <trkpt lat="51.172538" lon="14.009076"><ele>271</ele></trkpt>
   <trkpt lat="51.172813" lon="14.008893"><ele>271</ele></trkpt>
   <trkpt lat="51.173415" lon="14.008559"><ele>270.75</ele></trkpt>
   <trkpt lat="51.173662" lon="14.008435"><ele>270.5</ele></trkpt>
   <trkpt lat="51.17418" lon="14.00821"><ele>270.25</ele></trkpt>
   <trkpt lat="51.17438" lon="14.008135"><ele>270</ele></trkpt>
   <trkpt lat="51.174738" lon="14.008018"><ele>269.75</ele></trkpt>
   <trkpt lat="51.175104" lon="14.007919"><ele>269.5</ele></trkpt>
   <trkpt lat="51.175413" lon="14.007852"><ele>270.25</ele></trkpt>
   <trkpt lat="51.175855" lon="14.007779"><ele>271</ele></trkpt>
   <trkpt lat="51.176538" lon="14.007718"><ele>271.5</ele></trkpt>
   <trkpt lat="51.177063" lon="14.007705"><ele>272</ele></trkpt>
   <trkpt lat="51.179721" lon="14.007578"><ele>272.5</ele></trkpt>
   <trkpt lat="51.180893" lon="14.007531"><ele>272</ele></trkpt>
   <trkpt lat="51.181597" lon="14.007507"><ele>272.75</ele></trkpt>
   <trkpt lat="51.18177" lon="14.007514"><ele>273</ele></trkpt>
   <trkpt lat="51.181998" lon="14.00755"><ele>273.25</ele></trkpt>
   <trkpt lat="51.182212" lon="14.007623"><ele>273.5</ele></trkpt>
   <trkpt lat="51.182423" lon="14.007717"><ele>273.5</ele></trkpt>
   <trkpt lat="51.182897" lon="14.007983"><ele>271.75</ele></trkpt>
   <trkpt lat="51.183154" lon="14.008216"><ele>270.75</ele></trkpt>
   <trkpt lat="51.183566" lon="14.008663"><ele>268.75</ele></trkpt>
   <trkpt lat="51.183897" lon="14.009179"><ele>267.25</ele></trkpt>
   <trkpt lat="51.184344" lon="14.009955"><ele>266.25</ele></trkpt>
   <trkpt lat="51.184587" lon="14.010395"><ele>266.5</ele></trkpt>
   <trkpt lat="51.184747" lon="14.01072"><ele>266.5</ele></trkpt>
   <trkpt lat="51.184909" lon="14.011012"><ele>267</ele></trkpt>
   <trkpt lat="51.185079" lon="14.011292"><ele>267.5</ele></trkpt>
   <trkpt lat="51.185244" lon="14.011524"><ele>267.75</ele></trkpt>
   <trkpt lat="51.185417" lon="14.011736"><ele>268.25</ele></trkpt>
   <trkpt lat="51.18557" lon="14.011904"><ele>269</ele></trkpt>
   <trkpt lat="51.185804" lon="14.01212"><ele>270</ele></trkpt>
   <trkpt lat="51.186137" lon="14.012374"><ele>271</ele></trkpt>
   <trkpt lat="51.186822" lon="14.012855"><ele>271.25</ele></trkpt>
   <trkpt lat="51.187264" lon="14.01317"><ele>270.5</ele></trkpt>
   <trkpt lat="51.187468" lon="14.013316"><ele>270</ele></trkpt>
   <trkpt lat="51.187515" lon="14.013351"><ele>270</ele></trkpt>
   <trkpt lat="51.18774" lon="14.013515"><ele>270</ele></trkpt>
   <trkpt lat="51.188175" lon="14.013832"><ele>269.25</ele></trkpt>
   <trkpt lat="51.188824" lon="14.014288"><ele>269</ele></trkpt>
   <trkpt lat="51.190152" lon="14.015248"><ele>269.75</ele></trkpt>
   <trkpt lat="51.190537" lon="14.015524"><ele>270.5</ele></trkpt>
   <trkpt lat="51.191078" lon="14.015916"><ele>271.5</ele></trkpt>
   <trkpt lat="51.192021" lon="14.016563"><ele>272.5</ele></trkpt>
   <trkpt lat="51.192145" lon="14.016634"><ele>272.25</ele></trkpt>
   <trkpt lat="51.19245" lon="14.016783"><ele>272</ele></trkpt>
   <trkpt lat="51.192801" lon="14.01693"><ele>272.25</ele></trkpt>
   <trkpt lat="51.193384" lon="14.017106"><ele>272.75</ele></trkpt>
   <trkpt lat="51.193976" lon="14.01722"><ele>271.25</ele></trkpt>
   <trkpt lat="51.19413" lon="14.017254"><ele>271</ele></trkpt>
   <trkpt lat="51.194575" lon="14.017318"><ele>271.25</ele></trkpt>
   <trkpt lat="51.195274" lon="14.017445"><ele>273.25</ele></trkpt>
   <trkpt lat="51.195538" lon="14.017501"><ele>274.5</ele></trkpt>
   <trkpt lat="51.195653" lon="14.01754"><ele>275</ele></trkpt>
   <trkpt lat="51.196124" lon="14.017713"><ele>275.75</ele></trkpt>
   <trkpt lat="51.196773" lon="14.018015"><ele>274.5</ele></trkpt>
   <trkpt lat="51.197385" lon="14.018315"><ele>270.5</ele></trkpt>
   <trkpt lat="51.201043" lon="14.020133"><ele>271</ele></trkpt>
   <trkpt lat="51.20285" lon="14.021053"><ele>272.5</ele></trkpt>
   <trkpt lat="51.20369" lon="14.021429"><ele>271.5</ele></trkpt>
   <trkpt lat="51.208765" lon="14.023948"><ele>258.25</ele></trkpt>
   <trkpt lat="51.209418" lon="14.024325"><ele>257.75</ele></trkpt>
   <trkpt lat="51.209655" lon="14.024483"><ele>257.25</ele></trkpt>
   <trkpt lat="51.209928" lon="14.024695"><ele>256.75</ele></trkpt>
   <trkpt lat="51.210493" lon="14.025213"><ele>255.5</ele></trkpt>
   <trkpt lat="51.210886" lon="14.025622"><ele>255.25</ele></trkpt>
   <trkpt lat="51.211276" lon="14.026107"><ele>254.25</ele></trkpt>
   <trkpt lat="51.211466" lon="14.026384"><ele>253.5</ele></trkpt>
   <trkpt lat="51.211759" lon="14.02684"><ele>252.75</ele></trkpt>
   <trkpt lat="51.211918" lon="14.0271"><ele>252.25</ele></trkpt>
   <trkpt lat="51.212083" lon="14.027406"><ele>252</ele></trkpt>
   <trkpt lat="51.212269" lon="14.02777"><ele>251.25</ele></trkpt>
   <trkpt lat="51.213638" lon="14.030792"><ele>248.75</ele></trkpt>
   <trkpt lat="51.213867" lon="14.03125"><ele>248.25</ele></trkpt>
   <trkpt lat="51.214101" lon="14.031708"><ele>247.75</ele></trkpt>
   <trkpt lat="51.214412" lon="14.032241"><ele>246.5</ele></trkpt>
   <trkpt lat="51.214588" lon="14.032519"><ele>245.75</ele></trkpt>
   <trkpt lat="51.214769" lon="14.032778"><ele>245.25</ele></trkpt>
   <trkpt lat="51.214849" lon="14.032894"><ele>245</ele></trkpt>
   <trkpt lat="51.215011" lon="14.033152"><ele>244.25</ele></trkpt>
   <trkpt lat="51.215135" lon="14.033322"><ele>243.5</ele></trkpt>
   <trkpt lat="51.215194" lon="14.033398"><ele>243.5</ele></trkpt>
   <trkpt lat="51.215511" lon="14.03379"><ele>243</ele></trkpt>
   <trkpt lat="51.215782" lon="14.034099"><ele>242.75</ele></trkpt>
   <trkpt lat="51.216006" lon="14.034345"><ele>243</ele></trkpt>
   <trkpt lat="51.216309" lon="14.034623"><ele>243.5</ele></trkpt>
   <trkpt lat="51.216407" lon="14.034713"><ele>243.5</ele></trkpt>
   <trkpt lat="51.216765" lon="14.035023"><ele>243.75</ele></trkpt>
   <trkpt lat="51.217024" lon="14.035223"><ele>243.5</ele></trkpt>
   <trkpt lat="51.217343" lon="14.035464"><ele>243</ele></trkpt>
   <trkpt lat="51.218335" lon="14.036176"><ele>242</ele></trkpt>
   <trkpt lat="51.21899" lon="14.036684"><ele>242.25</ele></trkpt>
   <trkpt lat="51.219236" lon="14.036885"><ele>242.25</ele></trkpt>
   <trkpt lat="51.219987" lon="14.037573"><ele>242</ele></trkpt>
   <trkpt lat="51.221708" lon="14.03921"><ele>241.75</ele></trkpt>
   <trkpt lat="51.224456" lon="14.041802"><ele>236.5</ele></trkpt>
   <trkpt lat="51.226204" lon="14.043454"><ele>238.5</ele></trkpt>
   <trkpt lat="51.228647" lon="14.045763"><ele>236</ele></trkpt>
   <trkpt lat="51.23141" lon="14.048374"><ele>229</ele></trkpt>
   <trkpt lat="51.231475" lon="14.048434"><ele>228.75</ele></trkpt>
   <trkpt lat="51.231544" lon="14.048504"><ele>228.5</ele></trkpt>
   <trkpt lat="51.232402" lon="14.04931"><ele>228.25</ele></trkpt>
   <trkpt lat="51.234803" lon="14.051578"><ele>238</ele></trkpt>
   <trkpt lat="51.235047" lon="14.051813"><ele>238</ele></trkpt>
   <trkpt lat="51.235279" lon="14.052052"><ele>237.75</ele></trkpt>
   <trkpt lat="51.235505" lon="14.052294"><ele>237.5</ele></trkpt>
   <trkpt lat="51.235659" lon="14.052474"><ele>237.25</ele></trkpt>
   <trkpt lat="51.235866" lon="14.052733"><ele>237</ele></trkpt>
   <trkpt lat="51.236028" lon="14.052968"><ele>236.75</ele></trkpt>
   <trkpt lat="51.23621" lon="14.053256"><ele>236.5</ele></trkpt>
   <trkpt lat="51.236377" lon="14.053563"><ele>236.25</ele></trkpt>
   <trkpt lat="51.236526" lon="14.053859"><ele>236</ele></trkpt>
   <trkpt lat="51.236703" lon="14.054266"><ele>236</ele></trkpt>
   <trkpt lat="51.236898" lon="14.054796"><ele>236.25</ele></trkpt>
   <trkpt lat="51.236964" lon="14.055011"><ele>236.5</ele></trkpt>
   <trkpt lat="51.23711" lon="14.055483"><ele>237</ele></trkpt>
   <trkpt lat="51.237423" lon="14.056592"><ele>238</ele></trkpt>
   <trkpt lat="51.237587" lon="14.057132"><ele>238.25</ele></trkpt>
   <trkpt lat="51.237747" lon="14.057581"><ele>238.75</ele></trkpt>
   <trkpt lat="51.237968" lon="14.058097"><ele>240.25</ele></trkpt>
   <trkpt lat="51.238237" lon="14.058613"><ele>242.25</ele></trkpt>
   <trkpt lat="51.23856" lon="14.059114"><ele>243.75</ele></trkpt>
   <trkpt lat="51.238814" lon="14.059461"><ele>245</ele></trkpt>
   <trkpt lat="51.239089" lon="14.059782"><ele>245.75</ele></trkpt>
   <trkpt lat="51.24016" lon="14.060848"><ele>244.5</ele></trkpt>
   <trkpt lat="51.242888" lon="14.063508"><ele>242.75</ele></trkpt>
   <trkpt lat="51.243665" lon="14.064269"><ele>242.25</ele></trkpt>
   <trkpt lat="51.24412" lon="14.064698"><ele>240.5</ele></trkpt>
   <trkpt lat="51.244719" lon="14.065213"><ele>237</ele></trkpt>
   <trkpt lat="51.245003" lon="14.065407"><ele>235.75</ele></trkpt>
   <trkpt lat="51.245383" lon="14.065624"><ele>234.5</ele></trkpt>
   <trkpt lat="51.24565" lon="14.065757"><ele>233.25</ele></trkpt>
   <trkpt lat="51.245988" lon="14.065882"><ele>231.5</ele></trkpt>
   <trkpt lat="51.24625" lon="14.065957"><ele>231</ele></trkpt>
   <trkpt lat="51.246453" lon="14.066"><ele>230.5</ele></trkpt>
   <trkpt lat="51.246781" lon="14.066047"><ele>229.75</ele></trkpt>
   <trkpt lat="51.247011" lon="14.066062"><ele>229.25</ele></trkpt>
   <trkpt lat="51.247151" lon="14.066063"><ele>229</ele></trkpt>
   <trkpt lat="51.247464" lon="14.066036"><ele>228.5</ele></trkpt>
   <trkpt lat="51.247701" lon="14.065999"><ele>228</ele></trkpt>
   <trkpt lat="51.248163" lon="14.065892"><ele>227.25</ele></trkpt>
   <trkpt lat="51.249175" lon="14.065544"><ele>224.25</ele></trkpt>
   <trkpt lat="51.249993" lon="14.065277"><ele>224</ele></trkpt>
   <trkpt lat="51.251163" lon="14.064874"><ele>222.5</ele></trkpt>
   <trkpt lat="51.252144" lon="14.064522"><ele>221.25</ele></trkpt>
   <trkpt lat="51.252603" lon="14.064382"><ele>221</ele></trkpt>
   <trkpt lat="51.252975" lon="14.06429"><ele>220.75</ele></trkpt>
   <trkpt lat="51.253332" lon="14.064239"><ele>220.5</ele></trkpt>
   <trkpt lat="51.253754" lon="14.064229"><ele>220.75</ele></trkpt>
   <trkpt lat="51.254031" lon="14.064246"><ele>220.75</ele></trkpt>
   <trkpt lat="51.254286" lon="14.06428"><ele>220.5</ele></trkpt>
   <trkpt lat="51.254546" lon="14.064329"><ele>220</ele></trkpt>
   <trkpt lat="51.255025" lon="14.064475"><ele>219</ele></trkpt>
   <trkpt lat="51.255249" lon="14.064565"><ele>218.5</ele></trkpt>
   <trkpt lat="51.255772" lon="14.064831"><ele>216.5</ele></trkpt>
   <trkpt lat="51.256147" lon="14.065065"><ele>215.75</ele></trkpt>
   <trkpt lat="51.256425" lon="14.065256"><ele>215.5</ele></trkpt>
   <trkpt lat="51.256752" lon="14.065529"><ele>215.25</ele></trkpt>
   <trkpt lat="51.256936" lon="14.0657"><ele>215</ele></trkpt>
   <trkpt lat="51.25727" lon="14.066036"><ele>214.75</ele></trkpt>
   <trkpt lat="51.257359" lon="14.066139"><ele>214.75</ele></trkpt>
   <trkpt lat="51.257677" lon="14.066541"><ele>214</ele></trkpt>
   <trkpt lat="51.258" lon="14.066998"><ele>212.25</ele></trkpt>
   <trkpt lat="51.258049" lon="14.067073"><ele>212</ele></trkpt>
   <trkpt lat="51.258189" lon="14.067289"><ele>211.25</ele></trkpt>
   <trkpt lat="51.258422" lon="14.06768"><ele>211</ele></trkpt>
   <trkpt lat="51.258632" lon="14.068096"><ele>211.25</ele></trkpt>
   <trkpt lat="51.258841" lon="14.068529"><ele>211</ele></trkpt>
   <trkpt lat="51.259025" lon="14.068997"><ele>210.75</ele></trkpt>
   <trkpt lat="51.259198" lon="14.06947"><ele>210.75</ele></trkpt>
   <trkpt lat="51.259382" lon="14.070026"><ele>209.25</ele></trkpt>
   <trkpt lat="51.259539" lon="14.070598"><ele>207.5</ele></trkpt>
   <trkpt lat="51.259626" lon="14.070967"><ele>206.5</ele></trkpt>
   <trkpt lat="51.259861" lon="14.072106"><ele>206.5</ele></trkpt>
   <trkpt lat="51.259905" lon="14.072325"><ele>206.75</ele></trkpt>
   <trkpt lat="51.26093" lon="14.077568"><ele>214.75</ele></trkpt>
   <trkpt lat="51.261499" lon="14.080558"><ele>205.5</ele></trkpt>
   <trkpt lat="51.261545" lon="14.080803"><ele>205</ele></trkpt>
   <trkpt lat="51.261702" lon="14.081634"><ele>202.75</ele></trkpt>
   <trkpt lat="51.261941" lon="14.082839"><ele>198.75</ele></trkpt>
   <trkpt lat="51.262113" lon="14.083749"><ele>197.25</ele></trkpt>
   <trkpt lat="51.262503" lon="14.085747"><ele>196</ele></trkpt>
   <trkpt lat="51.262621" lon="14.086307"><ele>196.25</ele></trkpt>
   <trkpt lat="51.262728" lon="14.086741"><ele>197</ele></trkpt>
   <trkpt lat="51.262895" lon="14.087318"><ele>198</ele></trkpt>
   <trkpt lat="51.262986" lon="14.087592"><ele>198.25</ele></trkpt>
   <trkpt lat="51.263115" lon="14.08795"><ele>198.75</ele></trkpt>
   <trkpt lat="51.263205" lon="14.088177"><ele>199</ele></trkpt>
   <trkpt lat="51.2633" lon="14.088398"><ele>199.5</ele></trkpt>
   <trkpt lat="51.263546" lon="14.08891"><ele>201</ele></trkpt>
   <trkpt lat="51.263948" lon="14.089599"><ele>201.75</ele></trkpt>
   <trkpt lat="51.264119" lon="14.089861"><ele>201.25</ele></trkpt>
   <trkpt lat="51.264304" lon="14.090101"><ele>200.75</ele></trkpt>
   <trkpt lat="51.264661" lon="14.090529"><ele>199.5</ele></trkpt>
   <trkpt lat="51.264894" lon="14.090771"><ele>198.25</ele></trkpt>
   <trkpt lat="51.265159" lon="14.091013"><ele>196.5</ele></trkpt>
   <trkpt lat="51.265391" lon="14.091199"><ele>195</ele></trkpt>
   <trkpt lat="51.265504" lon="14.091284"><ele>194.25</ele></trkpt>
   <trkpt lat="51.265841" lon="14.091511"><ele>192.25</ele></trkpt>
   <trkpt lat="51.266181" lon="14.091706"><ele>191.25</ele></trkpt>
   <trkpt lat="51.266636" lon="14.091947"><ele>191.5</ele></trkpt>
   <trkpt lat="51.267132" lon="14.09219"><ele>193.75</ele></trkpt>
   <trkpt lat="51.267349" lon="14.092279"><ele>195</ele></trkpt>
   <trkpt lat="51.267665" lon="14.092368"><ele>196.5</ele></trkpt>
   <trkpt lat="51.267935" lon="14.092403"><ele>197.5</ele></trkpt>
   <trkpt lat="51.268144" lon="14.092409"><ele>198</ele></trkpt>
   <trkpt lat="51.268464" lon="14.092386"><ele>199.25</ele></trkpt>
   <trkpt lat="51.268772" lon="14.092316"><ele>200.25</ele></trkpt>
   <trkpt lat="51.269085" lon="14.092197"><ele>201.5</ele></trkpt>
   <trkpt lat="51.270022" lon="14.091758"><ele>201</ele></trkpt>
   <trkpt lat="51.270259" lon="14.091676"><ele>202</ele></trkpt>
   <trkpt lat="51.270493" lon="14.091612"><ele>203.25</ele></trkpt>
   <trkpt lat="51.270771" lon="14.091563"><ele>203.25</ele></trkpt>
   <trkpt lat="51.271031" lon="14.091516"><ele>203.25</ele></trkpt>
   <trkpt lat="51.271294" lon="14.091528"><ele>203.25</ele></trkpt>
   <trkpt lat="51.27146" lon="14.09155"><ele>202.75</ele></trkpt>
   <trkpt lat="51.271579" lon="14.091566"><ele>202.25</ele></trkpt>
   <trkpt lat="51.271817" lon="14.091626"><ele>201.75</ele></trkpt>
   <trkpt lat="51.271974" lon="14.09167"><ele>201.75</ele></trkpt>
   <trkpt lat="51.272037" lon="14.091688"><ele>201.5</ele></trkpt>
   <trkpt lat="51.272278" lon="14.091754"><ele>200.75</ele></trkpt>
   <trkpt lat="51.272886" lon="14.09192"><ele>198.25</ele></trkpt>
   <trkpt lat="51.273873" lon="14.092169"><ele>194.5</ele></trkpt>
   <trkpt lat="51.274408" lon="14.092315"><ele>193.75</ele></trkpt>
   <trkpt lat="51.275141" lon="14.092516"><ele>192.75</ele></trkpt>
   <trkpt lat="51.277028" lon="14.09301"><ele>192.5</ele></trkpt>
   <trkpt lat="51.277472" lon="14.093097"><ele>194.25</ele></trkpt>
   <trkpt lat="51.277744" lon="14.093134"><ele>194.25</ele></trkpt>
   <trkpt lat="51.278092" lon="14.093159"><ele>194.25</ele></trkpt>
   <trkpt lat="51.278393" lon="14.093165"><ele>194</ele></trkpt>
   <trkpt lat="51.278819" lon="14.093136"><ele>194</ele></trkpt>
   <trkpt lat="51.279015" lon="14.093106"><ele>194.25</ele></trkpt>
   <trkpt lat="51.279278" lon="14.093051"><ele>194.25</ele></trkpt>
   <trkpt lat="51.279437" lon="14.093004"><ele>194.75</ele></trkpt>
   <trkpt lat="51.279765" lon="14.092878"><ele>195.5</ele></trkpt>
   <trkpt lat="51.280125" lon="14.092684"><ele>196.25</ele></trkpt>
   <trkpt lat="51.280301" lon="14.092569"><ele>195.75</ele></trkpt>
   <trkpt lat="51.280474" lon="14.092448"><ele>195.25</ele></trkpt>
   <trkpt lat="51.280704" lon="14.092251"><ele>194.5</ele></trkpt>
   <trkpt lat="51.280934" lon="14.092037"><ele>193.75</ele></trkpt>
   <trkpt lat="51.281148" lon="14.091807"><ele>193</ele></trkpt>
   <trkpt lat="51.281364" lon="14.09156"><ele>192.5</ele></trkpt>
   <trkpt lat="51.281521" lon="14.091342"><ele>192.5</ele></trkpt>
   <trkpt lat="51.281832" lon="14.090861"><ele>192.5</ele></trkpt>
   <trkpt lat="51.281986" lon="14.09058"><ele>192.5</ele></trkpt>
   <trkpt lat="51.282213" lon="14.090134"><ele>192</ele></trkpt>
   <trkpt lat="51.282365" lon="14.089744"><ele>191.75</ele></trkpt>
   <trkpt lat="51.282516" lon="14.089355"><ele>191.25</ele></trkpt>
   <trkpt lat="51.282615" lon="14.089021"><ele>190.75</ele></trkpt>
   <trkpt lat="51.282706" lon="14.088687"><ele>190</ele></trkpt>
   <trkpt lat="51.28283" lon="14.088147"><ele>188.5</ele></trkpt>
   <trkpt lat="51.282919" lon="14.087588"><ele>186.5</ele></trkpt>
   <trkpt lat="51.282991" lon="14.086959"><ele>185</ele></trkpt>
   <trkpt lat="51.283021" lon="14.086336"><ele>185</ele></trkpt>
   <trkpt lat="51.283026" lon="14.086175"><ele>185</ele></trkpt>
   <trkpt lat="51.283033" lon="14.085989"><ele>185.25</ele></trkpt>
   <trkpt lat="51.283026" lon="14.085546"><ele>185.5</ele></trkpt>
   <trkpt lat="51.282999" lon="14.085108"><ele>185.75</ele></trkpt>
   <trkpt lat="51.282953" lon="14.084589"><ele>186</ele></trkpt>
   <trkpt lat="51.282904" lon="14.084191"><ele>186.5</ele></trkpt>
   <trkpt lat="51.282762" lon="14.083251"><ele>188.75</ele></trkpt>
   <trkpt lat="51.282635" lon="14.082248"><ele>189.25</ele></trkpt>
   <trkpt lat="51.28259" lon="14.081393"><ele>188.75</ele></trkpt>
   <trkpt lat="51.282592" lon="14.08088"><ele>187</ele></trkpt>
   <trkpt lat="51.282618" lon="14.08034"><ele>185.5</ele></trkpt>
   <trkpt lat="51.282724" lon="14.07953"><ele>183.5</ele></trkpt>
   <trkpt lat="51.282764" lon="14.079307"><ele>183.25</ele></trkpt>
   <trkpt lat="51.282984" lon="14.07844"><ele>182</ele></trkpt>
   <trkpt lat="51.283323" lon="14.077518"><ele>185.75</ele></trkpt>
   <trkpt lat="51.283416" lon="14.07733"><ele>186.5</ele></trkpt>
   <trkpt lat="51.283759" lon="14.076692"><ele>188.25</ele></trkpt>
   <trkpt lat="51.284135" lon="14.076119"><ele>189</ele></trkpt>
   <trkpt lat="51.284671" lon="14.075588"><ele>187.75</ele></trkpt>
   <trkpt lat="51.285237" lon="14.075196"><ele>184.25</ele></trkpt>
   <trkpt lat="51.285476" lon="14.075059"><ele>182.25</ele></trkpt>
   <trkpt lat="51.285635" lon="14.074981"><ele>180.75</ele></trkpt>
   <trkpt lat="51.285701" lon="14.074956"><ele>180</ele></trkpt>
   <trkpt lat="51.285867" lon="14.074913"><ele>178.25</ele></trkpt>
   <trkpt lat="51.286392" lon="14.074803"><ele>173.5</ele></trkpt>
   <trkpt lat="51.286907" lon="14.074816"><ele>171.75</ele></trkpt>
   <trkpt lat="51.287798" lon="14.07508"><ele>173</ele></trkpt>
   <trkpt lat="51.288585" lon="14.075493"><ele>173.25</ele></trkpt>
   <trkpt lat="51.289111" lon="14.075791"><ele>173</ele></trkpt>
   <trkpt lat="51.289277" lon="14.075889"><ele>172.75</ele></trkpt>
   <trkpt lat="51.289396" lon="14.07595"><ele>172.75</ele></trkpt>
   <trkpt lat="51.289657" lon="14.076085"><ele>172.5</ele></trkpt>
   <trkpt lat="51.290544" lon="14.076599"><ele>174.5</ele></trkpt>
   <trkpt lat="51.291459" lon="14.077465"><ele>177.25</ele></trkpt>
   <trkpt lat="51.293542" lon="14.079731"><ele>181.75</ele></trkpt>
   <trkpt lat="51.294507" lon="14.080341"><ele>179.5</ele></trkpt>
   <trkpt lat="51.295129" lon="14.080623"><ele>179.75</ele></trkpt>
   <trkpt lat="51.295734" lon="14.080802"><ele>180.75</ele></trkpt>
   <trkpt lat="51.295968" lon="14.080853"><ele>180.75</ele></trkpt>
   <trkpt lat="51.296227" lon="14.080894"><ele>180.75</ele></trkpt>
   <trkpt lat="51.296389" lon="14.080897"><ele>180.75</ele></trkpt>
   <trkpt lat="51.296807" lon="14.080892"><ele>180.5</ele></trkpt>
   <trkpt lat="51.297109" lon="14.080854"><ele>179.75</ele></trkpt>
   <trkpt lat="51.297289" lon="14.080821"><ele>179.5</ele></trkpt>
   <trkpt lat="51.297482" lon="14.080774"><ele>179</ele></trkpt>
   <trkpt lat="51.297912" lon="14.08064"><ele>177.75</ele></trkpt>
   <trkpt lat="51.298276" lon="14.08049"><ele>176.5</ele></trkpt>
   <trkpt lat="51.298429" lon="14.080415"><ele>176.25</ele></trkpt>
   <trkpt lat="51.298725" lon="14.080252"><ele>176.5</ele></trkpt>
   <trkpt lat="51.298997" lon="14.080075"><ele>176.75</ele></trkpt>
   <trkpt lat="51.299195" lon="14.079934"><ele>177.25</ele></trkpt>
   <trkpt lat="51.299399" lon="14.079773"><ele>178.25</ele></trkpt>
   <trkpt lat="51.299616" lon="14.079586"><ele>179.25</ele></trkpt>
   <trkpt lat="51.299822" lon="14.079391"><ele>180</ele></trkpt>
   <trkpt lat="51.300043" lon="14.07916"><ele>180.75</ele></trkpt>
   <trkpt lat="51.300235" lon="14.078943"><ele>181.25</ele></trkpt>
   <trkpt lat="51.300571" lon="14.07852"><ele>181.5</ele></trkpt>
   <trkpt lat="51.300766" lon="14.07825"><ele>181.5</ele></trkpt>
   <trkpt lat="51.300979" lon="14.077924"><ele>182.5</ele></trkpt>
   <trkpt lat="51.303017" lon="14.07459"><ele>183.5</ele></trkpt>
   <trkpt lat="51.303349" lon="14.074029"><ele>184.25</ele></trkpt>
   <trkpt lat="51.30393" lon="14.073083"><ele>181.25</ele></trkpt>
   <trkpt lat="51.304489" lon="14.072287"><ele>179.75</ele></trkpt>
   <trkpt lat="51.304735" lon="14.071977"><ele>179.5</ele></trkpt>
   <trkpt lat="51.305062" lon="14.071585"><ele>178.75</ele></trkpt>
   <trkpt lat="51.305925" lon="14.070805"><ele>178</ele></trkpt>
   <trkpt lat="51.306412" lon="14.070435"><ele>178</ele></trkpt>
   <trkpt lat="51.306989" lon="14.07004"><ele>177.75</ele></trkpt>
   <trkpt lat="51.307806" lon="14.069655"><ele>178.25</ele></trkpt>
   <trkpt lat="51.308648" lon="14.069391"><ele>178.25</ele></trkpt>
   <trkpt lat="51.30969" lon="14.069261"><ele>178</ele></trkpt>
   <trkpt lat="51.310735" lon="14.069215"><ele>176.25</ele></trkpt>
   <trkpt lat="51.312849" lon="14.069815"><ele>169.5</ele></trkpt>
   <trkpt lat="51.314535" lon="14.070434"><ele>167.5</ele></trkpt>
   <trkpt lat="51.316009" lon="14.070949"><ele>169</ele></trkpt>
   <trkpt lat="51.316509" lon="14.071076"><ele>169.25</ele></trkpt>
   <trkpt lat="51.317311" lon="14.071198"><ele>170.5</ele></trkpt>
   <trkpt lat="51.31809" lon="14.071229"><ele>171.5</ele></trkpt>
   <trkpt lat="51.319338" lon="14.071089"><ele>174</ele></trkpt>
   <trkpt lat="51.320517" lon="14.070739"><ele>170.75</ele></trkpt>
   <trkpt lat="51.323249" lon="14.069454"><ele>158.75</ele></trkpt>
   <trkpt lat="51.326689" lon="14.067828"><ele>154</ele></trkpt>
   <trkpt lat="51.327516" lon="14.067459"><ele>154.75</ele></trkpt>
   <trkpt lat="51.328681" lon="14.066909"><ele>154.5</ele></trkpt>
   <trkpt lat="51.329921" lon="14.066319"><ele>153</ele></trkpt>
   <trkpt lat="51.332164" lon="14.065258"><ele>149.5</ele></trkpt>
   <trkpt lat="51.333212" lon="14.064763"><ele>148.75</ele></trkpt>
   <trkpt lat="51.335567" lon="14.063649"><ele>148.25</ele></trkpt>
   <trkpt lat="51.336026" lon="14.063442"><ele>149.25</ele></trkpt>
   <trkpt lat="51.33907" lon="14.061961"><ele>149.25</ele></trkpt>
   <trkpt lat="51.348393" lon="14.057615"><ele>144.75</ele></trkpt>
   <trkpt lat="51.348812" lon="14.057426"><ele>144.25</ele></trkpt>
   <trkpt lat="51.349782" lon="14.056963"><ele>144</ele></trkpt>
   <trkpt lat="51.350486" lon="14.056636"><ele>144</ele></trkpt>
   <trkpt lat="51.351853" lon="14.056069"><ele>145</ele></trkpt>
   <trkpt lat="51.352345" lon="14.055865"><ele>146.5</ele></trkpt>
   <trkpt lat="51.3525" lon="14.0558"><ele>146.75</ele></trkpt>
   <trkpt lat="51.352908" lon="14.055638"><ele>146.75</ele></trkpt>
   <trkpt lat="51.353699" lon="14.055241"><ele>146</ele></trkpt>
   <trkpt lat="51.354114" lon="14.055069"><ele>146</ele></trkpt>
   <trkpt lat="51.355476" lon="14.054516"><ele>145</ele></trkpt>
   <trkpt lat="51.360471" lon="14.052486"><ele>148.75</ele></trkpt>
   <trkpt lat="51.362212" lon="14.051775"><ele>148.25</ele></trkpt>
   <trkpt lat="51.362754" lon="14.051553"><ele>148.5</ele></trkpt>
   <trkpt lat="51.363116" lon="14.051409"><ele>149.25</ele></trkpt>
   <trkpt lat="51.36319" lon="14.051377"><ele>149.25</ele></trkpt>
   <trkpt lat="51.363263" lon="14.051349"><ele>149.5</ele></trkpt>
   <trkpt lat="51.363411" lon="14.051292"><ele>149.5</ele></trkpt>
   <trkpt lat="51.363573" lon="14.05124"><ele>150</ele></trkpt>
   <trkpt lat="51.363763" lon="14.051193"><ele>150.25</ele></trkpt>
   <trkpt lat="51.364122" lon="14.051069"><ele>151</ele></trkpt>
   <trkpt lat="51.364194" lon="14.05104"><ele>151.25</ele></trkpt>
   <trkpt lat="51.364268" lon="14.05101"><ele>151.25</ele></trkpt>
   <trkpt lat="51.364567" lon="14.050883"><ele>151.5</ele></trkpt>
   <trkpt lat="51.364658" lon="14.050844"><ele>151.5</ele></trkpt>
   <trkpt lat="51.36519" lon="14.050618"><ele>152</ele></trkpt>
   <trkpt lat="51.366428" lon="14.050103"><ele>151.75</ele></trkpt>
   <trkpt lat="51.366615" lon="14.050027"><ele>151.75</ele></trkpt>
   <trkpt lat="51.368177" lon="14.049394"><ele>153.5</ele></trkpt>
   <trkpt lat="51.36998" lon="14.048657"><ele>150.25</ele></trkpt>
   <trkpt lat="51.371655" lon="14.047972"><ele>146.25</ele></trkpt>
   <trkpt lat="51.371681" lon="14.04796"><ele>146</ele></trkpt>
   <trkpt lat="51.372127" lon="14.047785"><ele>144.25</ele></trkpt>
   <trkpt lat="51.372546" lon="14.047618"><ele>142.5</ele></trkpt>
   <trkpt lat="51.374382" lon="14.046883"><ele>140.75</ele></trkpt>
   <trkpt lat="51.375458" lon="14.04648"><ele>141.5</ele></trkpt>
   <trkpt lat="51.380733" lon="14.04429"><ele>136.75</ele></trkpt>
   <trkpt lat="51.381529" lon="14.04396"><ele>136</ele></trkpt>
   <trkpt lat="51.382227" lon="14.04367"><ele>135.25</ele></trkpt>
   <trkpt lat="51.382442" lon="14.043581"><ele>135</ele></trkpt>
   <trkpt lat="51.38559" lon="14.042273"><ele>134.5</ele></trkpt>
   <trkpt lat="51.387068" lon="14.041659"><ele>136</ele></trkpt>
   <trkpt lat="51.387324" lon="14.041552"><ele>135.75</ele></trkpt>
   <trkpt lat="51.388221" lon="14.041177"><ele>136.25</ele></trkpt>
   <trkpt lat="51.389055" lon="14.040834"><ele>137.5</ele></trkpt>
   <trkpt lat="51.38971" lon="14.040565"><ele>136.25</ele></trkpt>
   <trkpt lat="51.391039" lon="14.040049"><ele>135</ele></trkpt>
   <trkpt lat="51.391294" lon="14.039936"><ele>135.5</ele></trkpt>
   <trkpt lat="51.391676" lon="14.039776"><ele>135.75</ele></trkpt>
   <trkpt lat="51.392121" lon="14.039595"><ele>135</ele></trkpt>
   <trkpt lat="51.394559" lon="14.038593"><ele>135.75</ele></trkpt>
   <trkpt lat="51.395265" lon="14.038313"><ele>137.25</ele></trkpt>
   <trkpt lat="51.395475" lon="14.038227"><ele>137.25</ele></trkpt>
   <trkpt lat="51.39605" lon="14.03799"><ele>137</ele></trkpt>
   <trkpt lat="51.396459" lon="14.037822"><ele>136</ele></trkpt>
   <trkpt lat="51.397788" lon="14.037276"><ele>135.25</ele></trkpt>
   <trkpt lat="51.398219" lon="14.037101"><ele>134.5</ele></trkpt>
   <trkpt lat="51.398804" lon="14.036864"><ele>135.75</ele></trkpt>
   <trkpt lat="51.39952" lon="14.036574"><ele>137.5</ele></trkpt>
   <trkpt lat="51.401269" lon="14.035865"><ele>141</ele></trkpt>
   <trkpt lat="51.402527" lon="14.035356"><ele>142.25</ele></trkpt>
   <trkpt lat="51.402557" lon="14.035355"><ele>142.25</ele></trkpt>
   <trkpt lat="51.403006" lon="14.035157"><ele>142</ele></trkpt>
   <trkpt lat="51.404671" lon="14.034468"><ele>145.25</ele></trkpt>
   <trkpt lat="51.406492" lon="14.033724"><ele>144.25</ele></trkpt>
   <trkpt lat="51.408237" lon="14.033017"><ele>145.5</ele></trkpt>
   <trkpt lat="51.408663" lon="14.032844"><ele>146</ele></trkpt>
   <trkpt lat="51.410869" lon="14.031963"><ele>148</ele></trkpt>
   <trkpt lat="51.415755" lon="14.029967"><ele>150.75</ele></trkpt>
   <trkpt lat="51.42928" lon="14.024428"><ele>147.25</ele></trkpt>
   <trkpt lat="51.43261" lon="14.023065"><ele>140</ele></trkpt>
   <trkpt lat="51.433009" lon="14.022902"><ele>140.75</ele></trkpt>
   <trkpt lat="51.433309" lon="14.022811"><ele>140.75</ele></trkpt>
   <trkpt lat="51.433317" lon="14.022809"><ele>140.75</ele></trkpt>
   <trkpt lat="51.433586" lon="14.022754"><ele>140.75</ele></trkpt>
   <trkpt lat="51.434109" lon="14.022712"><ele>140.5</ele></trkpt>
   <trkpt lat="51.434661" lon="14.022745"><ele>137.75</ele></trkpt>
   <trkpt lat="51.435141" lon="14.022845"><ele>135</ele></trkpt>
   <trkpt lat="51.43579" lon="14.022981"><ele>131.75</ele></trkpt>
   <trkpt lat="51.436178" lon="14.02318"><ele>134</ele></trkpt>
   <trkpt lat="51.436675" lon="14.023457"><ele>138</ele></trkpt>
   <trkpt lat="51.437553" lon="14.024103"><ele>141.5</ele></trkpt>
   <trkpt lat="51.438217" lon="14.024659"><ele>137.75</ele></trkpt>
   <trkpt lat="51.441098" lon="14.027056"><ele>133.75</ele></trkpt>
   <trkpt lat="51.443923" lon="14.02938"><ele>136.25</ele></trkpt>
   <trkpt lat="51.444385" lon="14.029744"><ele>134.5</ele></trkpt>
   <trkpt lat="51.44495" lon="14.030166"><ele>131.75</ele></trkpt>
   <trkpt lat="51.446128" lon="14.030978"><ele>127.75</ele></trkpt>
   <trkpt lat="51.446888" lon="14.031488"><ele>126.75</ele></trkpt>
   <trkpt lat="51.44768" lon="14.031958"><ele>127.25</ele></trkpt>
   <trkpt lat="51.448069" lon="14.032189"><ele>124.5</ele></trkpt>
   <trkpt lat="51.448111" lon="14.03221"><ele>124.25</ele></trkpt>
   <trkpt lat="51.448482" lon="14.032396"><ele>122.75</ele></trkpt>
   <trkpt lat="51.448693" lon="14.032479"><ele>122.5</ele></trkpt>
   <trkpt lat="51.448903" lon="14.032546"><ele>122.25</ele></trkpt>
   <trkpt lat="51.449072" lon="14.032586"><ele>122</ele></trkpt>
   <trkpt lat="51.449426" lon="14.032632"><ele>121.5</ele></trkpt>
   <trkpt lat="51.449602" lon="14.032634"><ele>121.5</ele></trkpt>
   <trkpt lat="51.449969" lon="14.032599"><ele>121.5</ele></trkpt>
   <trkpt lat="51.45015" lon="14.032565"><ele>121</ele></trkpt>
   <trkpt lat="51.45033" lon="14.032514"><ele>120.75</ele></trkpt>
   <trkpt lat="51.450627" lon="14.032401"><ele>120</ele></trkpt>
   <trkpt lat="51.450918" lon="14.032255"><ele>119.5</ele></trkpt>
   <trkpt lat="51.451251" lon="14.032034"><ele>119.25</ele></trkpt>
   <trkpt lat="51.451412" lon="14.031907"><ele>118.75</ele></trkpt>
   <trkpt lat="51.451697" lon="14.031638"><ele>117.75</ele></trkpt>
   <trkpt lat="51.451825" lon="14.031502"><ele>117.25</ele></trkpt>
   <trkpt lat="51.452059" lon="14.031227"><ele>116.5</ele></trkpt>
   <trkpt lat="51.45223" lon="14.030989"><ele>115.75</ele></trkpt>
   <trkpt lat="51.452391" lon="14.030744"><ele>115</ele></trkpt>
   <trkpt lat="51.452542" lon="14.030491"><ele>114.5</ele></trkpt>
   <trkpt lat="51.452686" lon="14.030222"><ele>114.25</ele></trkpt>
   <trkpt lat="51.452787" lon="14.030012"><ele>114</ele></trkpt>
   <trkpt lat="51.452924" lon="14.029688"><ele>114.25</ele></trkpt>
   <trkpt lat="51.45301" lon="14.029467"><ele>114.5</ele></trkpt>
   <trkpt lat="51.453057" lon="14.029348"><ele>114.75</ele></trkpt>
   <trkpt lat="51.453202" lon="14.028894"><ele>115</ele></trkpt>
   <trkpt lat="51.453333" lon="14.028405"><ele>115</ele></trkpt>
   <trkpt lat="51.453395" lon="14.028121"><ele>114.5</ele></trkpt>
   <trkpt lat="51.453447" lon="14.027844"><ele>114.25</ele></trkpt>
   <trkpt lat="51.453502" lon="14.027505"><ele>114</ele></trkpt>
   <trkpt lat="51.453545" lon="14.027157"><ele>114</ele></trkpt>
   <trkpt lat="51.453546" lon="14.027147"><ele>114</ele></trkpt>
   <trkpt lat="51.453667" lon="14.025941"><ele>114.5</ele></trkpt>
   <trkpt lat="51.453688" lon="14.025716"><ele>114.5</ele></trkpt>
   <trkpt lat="51.453712" lon="14.025467"><ele>114.5</ele></trkpt>
   <trkpt lat="51.453739" lon="14.025177"><ele>114.5</ele></trkpt>
   <trkpt lat="51.453815" lon="14.024386"><ele>114.25</ele></trkpt>
   <trkpt lat="51.453827" lon="14.024262"><ele>114</ele></trkpt>
   <trkpt lat="51.453858" lon="14.023935"><ele>114</ele></trkpt>
   <trkpt lat="51.454108" lon="14.02124"><ele>113</ele></trkpt>
   <trkpt lat="51.454305" lon="14.019071"><ele>111.5</ele></trkpt>
   <trkpt lat="51.454315" lon="14.018964"><ele>111.5</ele></trkpt>
   <trkpt lat="51.45435" lon="14.01859"><ele>111.5</ele></trkpt>
   <trkpt lat="51.454689" lon="14.015042"><ele>111.5</ele></trkpt>
   <trkpt lat="51.454797" lon="14.013864"><ele>111.5</ele></trkpt>
   <trkpt lat="51.455116" lon="14.010492"><ele>109.25</ele></trkpt>
   <trkpt lat="51.455168" lon="14.00994"><ele>109.5</ele></trkpt>
   <trkpt lat="51.455351" lon="14.008"><ele>110</ele></trkpt>
   <trkpt lat="51.455422" lon="14.007254"><ele>111</ele></trkpt>
   <trkpt lat="51.455481" lon="14.006632"><ele>111.5</ele></trkpt>
   <trkpt lat="51.455486" lon="14.006575"><ele>111.5</ele></trkpt>
   <trkpt lat="51.455495" lon="14.006468"><ele>111.5</ele></trkpt>
   <trkpt lat="51.455538" lon="14.006099"><ele>111.25</ele></trkpt>
   <trkpt lat="51.455641" lon="14.005377"><ele>110.75</ele></trkpt>
   <trkpt lat="51.455699" lon="14.004893"><ele>110.25</ele></trkpt>
   <trkpt lat="51.455715" lon="14.00472"><ele>110</ele></trkpt>
   <trkpt lat="51.455767" lon="14.004268"><ele>109.25</ele></trkpt>
   <trkpt lat="51.455833" lon="14.003811"><ele>109</ele></trkpt>
   <trkpt lat="51.455886" lon="14.003358"><ele>109.25</ele></trkpt>
   <trkpt lat="51.45589" lon="14.003311"><ele>109.25</ele></trkpt>
   <trkpt lat="51.455913" lon="14.00304"><ele>109.25</ele></trkpt>
   <trkpt lat="51.455943" lon="14.002683"><ele>109</ele></trkpt>
   <trkpt lat="51.455979" lon="14.002322"><ele>109</ele></trkpt>
   <trkpt lat="51.456046" lon="14.001806"><ele>109.75</ele></trkpt>
   <trkpt lat="51.456105" lon="14.001287"><ele>109.75</ele></trkpt>
   <trkpt lat="51.456109" lon="14.001244"><ele>109.75</ele></trkpt>
   <trkpt lat="51.456115" lon="14.001193"><ele>109.75</ele></trkpt>
   <trkpt lat="51.456256" lon="13.99982"><ele>110.75</ele></trkpt>
   <trkpt lat="51.456275" lon="13.999639"><ele>110.75</ele></trkpt>
   <trkpt lat="51.456503" lon="13.997426"><ele>110.5</ele></trkpt>
   <trkpt lat="51.456598" lon="13.996724"><ele>110.75</ele></trkpt>
   <trkpt lat="51.456724" lon="13.99606"><ele>111.75</ele></trkpt>
   <trkpt lat="51.456914" lon="13.995295"><ele>112.5</ele></trkpt>
   <trkpt lat="51.45715" lon="13.994534"><ele>112.5</ele></trkpt>
   <trkpt lat="51.457588" lon="13.993323"><ele>110.25</ele></trkpt>
   <trkpt lat="51.458212" lon="13.991991"><ele>110</ele></trkpt>
   <trkpt lat="51.458924" lon="13.990864"><ele>110.25</ele></trkpt>
   <trkpt lat="51.459522" lon="13.990084"><ele>108.5</ele></trkpt>
   <trkpt lat="51.460419" lon="13.989149"><ele>108.75</ele></trkpt>
   <trkpt lat="51.461039" lon="13.988636"><ele>109.75</ele></trkpt>
   <trkpt lat="51.461281" lon="13.988479"><ele>110</ele></trkpt>
   <trkpt lat="51.461797" lon="13.988177"><ele>111</ele></trkpt>
   <trkpt lat="51.462427" lon="13.987887"><ele>111.5</ele></trkpt>
   <trkpt lat="51.462902" lon="13.98772"><ele>110.75</ele></trkpt>
   <trkpt lat="51.463447" lon="13.987577"><ele>109.75</ele></trkpt>
   <trkpt lat="51.464211" lon="13.987344"><ele>107.5</ele></trkpt>
   <trkpt lat="51.464667" lon="13.987137"><ele>106</ele></trkpt>
   <trkpt lat="51.464942" lon="13.986996"><ele>105.25</ele></trkpt>
   <trkpt lat="51.46508" lon="13.986921"><ele>105.25</ele></trkpt>
   <trkpt lat="51.465923" lon="13.98638"><ele>105</ele></trkpt>
   <trkpt lat="51.466526" lon="13.985886"><ele>104.25</ele></trkpt>
   <trkpt lat="51.46712" lon="13.985357"><ele>104.75</ele></trkpt>
   <trkpt lat="51.467642" lon="13.984829"><ele>105.25</ele></trkpt>
   <trkpt lat="51.467765" lon="13.984693"><ele>105.5</ele></trkpt>
   <trkpt lat="51.467916" lon="13.984519"><ele>106</ele></trkpt>
   <trkpt lat="51.468156" lon="13.984237"><ele>107.25</ele></trkpt>
   <trkpt lat="51.468779" lon="13.983449"><ele>109</ele></trkpt>
   <trkpt lat="51.469157" lon="13.982901"><ele>106.25</ele></trkpt>
   <trkpt lat="51.469549" lon="13.982287"><ele>104.75</ele></trkpt>
   <trkpt lat="51.46982" lon="13.981828"><ele>103.75</ele></trkpt>
   <trkpt lat="51.471061" lon="13.979473"><ele>109.5</ele></trkpt>
   <trkpt lat="51.472044" lon="13.977579"><ele>110</ele></trkpt>
   <trkpt lat="51.474942" lon="13.971933"><ele>108.75</ele></trkpt>
   <trkpt lat="51.477067" lon="13.96788"><ele>105.75</ele></trkpt>
   <trkpt lat="51.478404" lon="13.965277"><ele>101.5</ele></trkpt>
   <trkpt lat="51.482201" lon="13.957938"><ele>98.25</ele></trkpt>
   <trkpt lat="51.48317" lon="13.956109"><ele>98.5</ele></trkpt>
   <trkpt lat="51.483447" lon="13.955587"><ele>99</ele></trkpt>
   <trkpt lat="51.483731" lon="13.95501"><ele>99</ele></trkpt>
   <trkpt lat="51.484492" lon="13.953533"><ele>100.25</ele></trkpt>
   <trkpt lat="51.484704" lon="13.953142"><ele>100.25</ele></trkpt>
   <trkpt lat="51.485432" lon="13.951702"><ele>99</ele></trkpt>
   <trkpt lat="51.486381" lon="13.949896"><ele>98.75</ele></trkpt>
   <trkpt lat="51.486453" lon="13.949761"><ele>98.75</ele></trkpt>
   <trkpt lat="51.486578" lon="13.949531"><ele>98.75</ele></trkpt>
   <trkpt lat="51.487421" lon="13.947827"><ele>98</ele></trkpt>
   <trkpt lat="51.48827" lon="13.946269"><ele>98.75</ele></trkpt>
   <trkpt lat="51.488661" lon="13.945497"><ele>98.5</ele></trkpt>
   <trkpt lat="51.489221" lon="13.944391"><ele>99.5</ele></trkpt>
   <trkpt lat="51.489954" lon="13.943294"><ele>101</ele></trkpt>
   <trkpt lat="51.490392" lon="13.9427"><ele>105.25</ele></trkpt>
   <trkpt lat="51.490999" lon="13.941953"><ele>109.25</ele></trkpt>
   <trkpt lat="51.491748" lon="13.941264"><ele>113.25</ele></trkpt>
   <trkpt lat="51.492112" lon="13.940994"><ele>114.5</ele></trkpt>
   <trkpt lat="51.492521" lon="13.940706"><ele>114.75</ele></trkpt>
   <trkpt lat="51.492874" lon="13.940458"><ele>113.25</ele></trkpt>
   <trkpt lat="51.49305" lon="13.940359"><ele>112.5</ele></trkpt>
   <trkpt lat="51.493244" lon="13.94025"><ele>111.75</ele></trkpt>
   <trkpt lat="51.493761" lon="13.940019"><ele>111</ele></trkpt>
   <trkpt lat="51.494224" lon="13.939857"><ele>110.25</ele></trkpt>
   <trkpt lat="51.494844" lon="13.939718"><ele>106.75</ele></trkpt>
   <trkpt lat="51.495461" lon="13.939678"><ele>105</ele></trkpt>
   <trkpt lat="51.496643" lon="13.939707"><ele>107.25</ele></trkpt>
   <trkpt lat="51.497352" lon="13.939863"><ele>109.75</ele></trkpt>
   <trkpt lat="51.498022" lon="13.940084"><ele>110</ele></trkpt>
   <trkpt lat="51.498361" lon="13.940224"><ele>110</ele></trkpt>
   <trkpt lat="51.498676" lon="13.94037"><ele>109.5</ele></trkpt>
   <trkpt lat="51.499219" lon="13.940696"><ele>108.5</ele></trkpt>
   <trkpt lat="51.499794" lon="13.941089"><ele>106.5</ele></trkpt>
   <trkpt lat="51.500168" lon="13.941401"><ele>106</ele></trkpt>
   <trkpt lat="51.500542" lon="13.941747"><ele>106</ele></trkpt>
   <trkpt lat="51.500994" lon="13.942219"><ele>107</ele></trkpt>
   <trkpt lat="51.501421" lon="13.942718"><ele>106.5</ele></trkpt>
   <trkpt lat="51.501939" lon="13.943438"><ele>105</ele></trkpt>
   <trkpt lat="51.502253" lon="13.943927"><ele>104.75</ele></trkpt>
   <trkpt lat="51.502461" lon="13.944265"><ele>104.25</ele></trkpt>
   <trkpt lat="51.503149" lon="13.945518"><ele>103.25</ele></trkpt>
   <trkpt lat="51.504343" lon="13.947734"><ele>104.25</ele></trkpt>
   <trkpt lat="51.504578" lon="13.948191"><ele>103.75</ele></trkpt>
   <trkpt lat="51.50467" lon="13.94837"><ele>103</ele></trkpt>
   <trkpt lat="51.504998" lon="13.949062"><ele>102</ele></trkpt>
   <trkpt lat="51.505276" lon="13.949688"><ele>102</ele></trkpt>
   <trkpt lat="51.505595" lon="13.950465"><ele>101.75</ele></trkpt>
   <trkpt lat="51.506705" lon="13.953393"><ele>104</ele></trkpt>
   <trkpt lat="51.506961" lon="13.954073"><ele>104</ele></trkpt>
   <trkpt lat="51.507329" lon="13.955036"><ele>103.25</ele></trkpt>
   <trkpt lat="51.507595" lon="13.955686"><ele>103</ele></trkpt>
   <trkpt lat="51.507838" lon="13.956255"><ele>103</ele></trkpt>
   <trkpt lat="51.508106" lon="13.956927"><ele>103</ele></trkpt>
   <trkpt lat="51.508166" lon="13.957083"><ele>103</ele></trkpt>
   <trkpt lat="51.508337" lon="13.957498"><ele>103</ele></trkpt>
   <trkpt lat="51.508485" lon="13.957827"><ele>103.25</ele></trkpt>
   <trkpt lat="51.508647" lon="13.95823"><ele>103.25</ele></trkpt>
   <trkpt lat="51.50914" lon="13.959536"><ele>103.5</ele></trkpt>
   <trkpt lat="51.510688" lon="13.963631"><ele>102.75</ele></trkpt>
   <trkpt lat="51.513677" lon="13.971541"><ele>100.75</ele></trkpt>
   <trkpt lat="51.515424" lon="13.97618"><ele>101.75</ele></trkpt>
   <trkpt lat="51.51547" lon="13.976304"><ele>101.75</ele></trkpt>
   <trkpt lat="51.518665" lon="13.984766"><ele>103.5</ele></trkpt>
   <trkpt lat="51.519908" lon="13.988052"><ele>104</ele></trkpt>
   <trkpt lat="51.520044" lon="13.988412"><ele>104</ele></trkpt>
   <trkpt lat="51.520226" lon="13.988894"><ele>104.25</ele></trkpt>
   <trkpt lat="51.521898" lon="13.99327"><ele>102</ele></trkpt>
   <trkpt lat="51.52255" lon="13.994921"><ele>102.75</ele></trkpt>
   <trkpt lat="51.522801" lon="13.99553"><ele>103.25</ele></trkpt>
   <trkpt lat="51.523087" lon="13.996176"><ele>103.5</ele></trkpt>
   <trkpt lat="51.523225" lon="13.996455"><ele>103.75</ele></trkpt>
   <trkpt lat="51.523433" lon="13.996878"><ele>104</ele></trkpt>
   <trkpt lat="51.523938" lon="13.997817"><ele>105</ele></trkpt>
   <trkpt lat="51.524024" lon="13.997976"><ele>105.25</ele></trkpt>
   <trkpt lat="51.524581" lon="13.999041"><ele>105</ele></trkpt>
   <trkpt lat="51.524738" lon="13.999377"><ele>104.5</ele></trkpt>
   <trkpt lat="51.524909" lon="13.999766"><ele>104</ele></trkpt>
   <trkpt lat="51.525101" lon="14.000156"><ele>104</ele></trkpt>
   <trkpt lat="51.525183" lon="14.000311"><ele>104</ele></trkpt>
   <trkpt lat="51.525455" lon="14.000814"><ele>104.5</ele></trkpt>
   <trkpt lat="51.526271" lon="14.002309"><ele>104.25</ele></trkpt>
   <trkpt lat="51.526448" lon="14.002636"><ele>104</ele></trkpt>
   <trkpt lat="51.526714" lon="14.003122"><ele>104</ele></trkpt>
   <trkpt lat="51.526972" lon="14.003593"><ele>104.5</ele></trkpt>
   <trkpt lat="51.527298" lon="14.004258"><ele>105.25</ele></trkpt>
   <trkpt lat="51.527781" lon="14.005234"><ele>104.25</ele></trkpt>
  </trkseg>
 </trk>
</gpx>