<?xml version="1.0" encoding="UTF-8"?>
<!-- track-length = 20360 filtered ascend = 12 plain-ascend = -12 cost=20360 energy=0.2kwh time=27m 9s -->
<gpx 
 xmlns="http://www.topografix.com/GPX/1/1" 
 xmlns:xsi="http://www.w3.org/2001/XMLSchema-instance" 
 xsi:schemaLocation="http://www.topografix.com/GPX/1/1 http://www.topografix.com/GPX/1/1/gpx.xsd" 
 version="1.1" 
 creator="BRouter-Web 0.18.1">
 <trk>
  <name>SFS - Stendal - SFS</name>
  <trkseg>
   <trkpt lat="52.5669" lon="11.663313"><ele>47.25</ele></trkpt>
   <trkpt lat="52.56722" lon="11.664608"><ele>49</ele></trkpt>
   <trkpt lat="52.567835" lon="11.667212"><ele>49.25</ele></trkpt>
   <trkpt lat="52.568037" lon="11.668108"><ele>50.25</ele></trkpt>
   <trkpt lat="52.56859" lon="11.670676"><ele>51.25</ele></trkpt>
   <trkpt lat="52.568705" lon="11.671247"><ele>51.5</ele></trkpt>
   <trkpt lat="52.569194" lon="11.673662"><ele>51</ele></trkpt>
   <trkpt lat="52.569658" lon="11.675985"><ele>52.25</ele></trkpt>
   <trkpt lat="52.570311" lon="11.679302"><ele>52.5</ele></trkpt>
   <trkpt lat="52.570755" lon="11.681617"><ele>52</ele></trkpt>
   <trkpt lat="52.571361" lon="11.684858"><ele>52.75</ele></trkpt>
   <trkpt lat="52.571483" lon="11.685552"><ele>52.25</ele></trkpt>
   <trkpt lat="52.571782" lon="11.68731"><ele>51</ele></trkpt>
   <trkpt lat="52.572266" lon="11.690217"><ele>48.25</ele></trkpt>
   <trkpt lat="52.572755" lon="11.693162"><ele>48.5</ele></trkpt>
   <trkpt lat="52.572825" lon="11.693569"><ele>48.5</ele></trkpt>
   <trkpt lat="52.573184" lon="11.695712"><ele>45.25</ele></trkpt>
   <trkpt lat="52.573933" lon="11.700013"><ele>42.25</ele></trkpt>
   <trkpt lat="52.57418" lon="11.701513"><ele>43.75</ele></trkpt>
   <trkpt lat="52.575276" lon="11.707646"><ele>43.25</ele></trkpt>
   <trkpt lat="52.57529" lon="11.707748"><ele>43.25</ele></trkpt>
   <trkpt lat="52.575374" lon="11.70825"><ele>43.75</ele></trkpt>
   <trkpt lat="52.575451" lon="11.708708"><ele>43.5</ele></trkpt>
   <trkpt lat="52.575587" lon="11.70954"><ele>42.75</ele></trkpt>
   <trkpt lat="52.575958" lon="11.711771"><ele>40.25</ele></trkpt>
   <trkpt lat="52.576419" lon="11.714554"><ele>39.75</ele></trkpt>
   <trkpt lat="52.576439" lon="11.714662"><ele>39.5</ele></trkpt>
   <trkpt lat="52.576649" lon="11.715929"><ele>37</ele></trkpt>
   <trkpt lat="52.576952" lon="11.717755"><ele>37</ele></trkpt>
   <trkpt lat="52.577381" lon="11.72033"><ele>37</ele></trkpt>
   <trkpt lat="52.577936" lon="11.723884"><ele>35.5</ele></trkpt>
   <trkpt lat="52.578301" lon="11.726361"><ele>35.5</ele></trkpt>
   <trkpt lat="52.578599" lon="11.728402"><ele>35.75</ele></trkpt>
   <trkpt lat="52.578756" lon="11.729469"><ele>35</ele></trkpt>
   <trkpt lat="52.579109" lon="11.731886"><ele>35</ele></trkpt>
   <trkpt lat="52.579127" lon="11.732001"><ele>35</ele></trkpt>
   <trkpt lat="52.579628" lon="11.735421"><ele>35.25</ele></trkpt>
   <trkpt lat="52.58002" lon="11.73809"><ele>34.5</ele></trkpt>
   <trkpt lat="52.580404" lon="11.740734"><ele>34.25</ele></trkpt>
   <trkpt lat="52.580872" lon="11.743905"><ele>34</ele></trkpt>
   <trkpt lat="52.581205" lon="11.74619"><ele>34.75</ele></trkpt>
   <trkpt lat="52.58126" lon="11.746579"><ele>34.75</ele></trkpt>
   <trkpt lat="52.58138" lon="11.747356"><ele>34.5</ele></trkpt>
   <trkpt lat="52.581445" lon="11.747802"><ele>34.5</ele></trkpt>
   <trkpt lat="52.58166" lon="11.749273"><ele>34.75</ele></trkpt>
   <trkpt lat="52.582052" lon="11.75198"><ele>34</ele></trkpt>
   <trkpt lat="52.582849" lon="11.757408"><ele>33</ele></trkpt>
   <trkpt lat="52.582898" lon="11.757757"><ele>32.75</ele></trkpt>
   <trkpt lat="52.585463" lon="11.775221"><ele>30.25</ele></trkpt>
   <trkpt lat="52.587112" lon="11.78654"><ele>31.75</ele></trkpt>
   <trkpt lat="52.587191" lon="11.787134"><ele>31.5</ele></trkpt>
   <trkpt lat="52.587477" lon="11.789571"><ele>31.5</ele></trkpt>
   <trkpt lat="52.588405" lon="11.79776"><ele>32.5</ele></trkpt>
   <trkpt lat="52.589094" lon="11.803882"><ele>30.75</ele></trkpt>
   <trkpt lat="52.589133" lon="11.804241"><ele>30.75</ele></trkpt>
   <trkpt lat="52.58916" lon="11.804483"><ele>30.5</ele></trkpt>
   <trkpt lat="52.590045" lon="11.812297"><ele>32</ele></trkpt>
   <trkpt lat="52.590112" lon="11.812877"><ele>31.5</ele></trkpt>
   <trkpt lat="52.590247" lon="11.813895"><ele>31.75</ele></trkpt>
   <trkpt lat="52.590466" lon="11.815341"><ele>32.25</ele></trkpt>
   <trkpt lat="52.59086" lon="11.81793"><ele>34.5</ele></trkpt>
   <trkpt lat="52.59113" lon="11.81972"><ele>35</ele></trkpt>
   <trkpt lat="52.591155" lon="11.819878"><ele>35.25</ele></trkpt>
   <trkpt lat="52.591337" lon="11.821069"><ele>35.5</ele></trkpt>
   <trkpt lat="52.591373" lon="11.8213"><ele>35.5</ele></trkpt>
   <trkpt lat="52.591869" lon="11.824649"><ele>36.5</ele></trkpt>
   <trkpt lat="52.591947" lon="11.825251"><ele>36.5</ele></trkpt>
   <trkpt lat="52.591982" lon="11.825576"><ele>36.25</ele></trkpt>
   <trkpt lat="52.592048" lon="11.826201"><ele>36</ele></trkpt>
   <trkpt lat="52.592482" lon="11.83104"><ele>32.25</ele></trkpt>
   <trkpt lat="52.592732" lon="11.833962"><ele>32.75</ele></trkpt>
   <trkpt lat="52.592755" lon="11.834215"><ele>32.5</ele></trkpt>
   <trkpt lat="52.593009" lon="11.837114"><ele>32.5</ele></trkpt>
   <trkpt lat="52.593143" lon="11.83864"><ele>32.75</ele></trkpt>
   <trkpt lat="52.593307" lon="11.840494"><ele>32.75</ele></trkpt>
   <trkpt lat="52.593569" lon="11.843319"><ele>30.5</ele></trkpt>
   <trkpt lat="52.593714" lon="11.844759"><ele>30.75</ele></trkpt>
   <trkpt lat="52.593811" lon="11.845731"><ele>31.5</ele></trkpt>
   <trkpt lat="52.593831" lon="11.84594"><ele>31.5</ele></trkpt>
   <trkpt lat="52.593933" lon="11.84694"><ele>32.25</ele></trkpt>
   <trkpt lat="52.594026" lon="11.847848"><ele>31.5</ele></trkpt>
   <trkpt lat="52.594253" lon="11.849788"><ele>31</ele></trkpt>
   <trkpt lat="52.594556" lon="11.852446"><ele>31</ele></trkpt>
   <trkpt lat="52.594559" lon="11.852472"><ele>31</ele></trkpt>
   <trkpt lat="52.59457" lon="11.852566"><ele>31</ele></trkpt>
   <trkpt lat="52.594576" lon="11.85263"><ele>31</ele></trkpt>
   <trkpt lat="52.594797" lon="11.854691"><ele>32</ele></trkpt>
   <trkpt lat="52.594857" lon="11.855217"><ele>32.25</ele></trkpt>
   <trkpt lat="52.594979" lon="11.856262"><ele>32.25</ele></trkpt>
   <trkpt lat="52.595038" lon="11.856743"><ele>32</ele></trkpt>
   <trkpt lat="52.595062" lon="11.856969"><ele>32</ele></trkpt>
   <trkpt lat="52.59507" lon="11.857049"><ele>32</ele></trkpt>
   <trkpt lat="52.595158" lon="11.857876"><ele>32.25</ele></trkpt>
   <trkpt lat="52.595227" lon="11.858759"><ele>31.75</ele></trkpt>
   <trkpt lat="52.595245" lon="11.859108"><ele>31.5</ele></trkpt>
   <trkpt lat="52.595288" lon="11.85987"><ele>30.75</ele></trkpt>
   <trkpt lat="52.595356" lon="11.861352"><ele>32</ele></trkpt>
   <trkpt lat="52.595389" lon="11.861897"><ele>32.25</ele></trkpt>
   <trkpt lat="52.595452" lon="11.862499"><ele>31.75</ele></trkpt>
   <trkpt lat="52.595546" lon="11.86436"><ele>31</ele></trkpt>
   <trkpt lat="52.595656" lon="11.866599"><ele>32</ele></trkpt>
   <trkpt lat="52.595751" lon="11.868591"><ele>31.75</ele></trkpt>
   <trkpt lat="52.595782" lon="11.869622"><ele>31.25</ele></trkpt>
   <trkpt lat="52.595817" lon="11.871691"><ele>31</ele></trkpt>
   <trkpt lat="52.595842" lon="11.873662"><ele>29.75</ele></trkpt>
   <trkpt lat="52.595847" lon="11.874197"><ele>30</ele></trkpt>
   <trkpt lat="52.595864" lon="11.875053"><ele>31</ele></trkpt>
   <trkpt lat="52.595851" lon="11.876369"><ele>33.25</ele></trkpt>
   <trkpt lat="52.59587" lon="11.877815"><ele>32.75</ele></trkpt>
   <trkpt lat="52.595892" lon="11.8794"><ele>30.5</ele></trkpt>
   <trkpt lat="52.595896" lon="11.880337"><ele>29.25</ele></trkpt>
   <trkpt lat="52.595899" lon="11.881256"><ele>30.5</ele></trkpt>
   <trkpt lat="52.595899" lon="11.881271"><ele>30.5</ele></trkpt>
   <trkpt lat="52.595899" lon="11.881291"><ele>30.5</ele></trkpt>
   <trkpt lat="52.595904" lon="11.882838"><ele>30.5</ele></trkpt>
   <trkpt lat="52.595916" lon="11.886211"><ele>29.25</ele></trkpt>
   <trkpt lat="52.595926" lon="11.888852"><ele>29.5</ele></trkpt>
   <trkpt lat="52.595935" lon="11.891669"><ele>27.75</ele></trkpt>
   <trkpt lat="52.59595" lon="11.894753"><ele>28</ele></trkpt>
   <trkpt lat="52.595959" lon="11.896933"><ele>29.5</ele></trkpt>
   <trkpt lat="52.595963" lon="11.897839"><ele>29.25</ele></trkpt>
   <trkpt lat="52.595964" lon="11.898066"><ele>29</ele></trkpt>
   <trkpt lat="52.595973" lon="11.900793"><ele>28</ele></trkpt>
   <trkpt lat="52.595984" lon="11.903469"><ele>30.75</ele></trkpt>
   <trkpt lat="52.595987" lon="11.904794"><ele>32.5</ele></trkpt>
   <trkpt lat="52.595993" lon="11.906119"><ele>32.75</ele></trkpt>
   <trkpt lat="52.596004" lon="11.909409"><ele>30.75</ele></trkpt>
   <trkpt lat="52.596014" lon="11.912529"><ele>30.5</ele></trkpt>
   <trkpt lat="52.596014" lon="11.91268"><ele>30.75</ele></trkpt>
   <trkpt lat="52.596025" lon="11.914828"><ele>30</ele></trkpt>
   <trkpt lat="52.596025" lon="11.915075"><ele>30</ele></trkpt>
   <trkpt lat="52.596026" lon="11.915562"><ele>30</ele></trkpt>
   <trkpt lat="52.596022" lon="11.916707"><ele>29.75</ele></trkpt>
   <trkpt lat="52.595997" lon="11.917702"><ele>30</ele></trkpt>
   <trkpt lat="52.595996" lon="11.917732"><ele>30</ele></trkpt>
   <trkpt lat="52.595981" lon="11.918165"><ele>30.5</ele></trkpt>
   <trkpt lat="52.595936" lon="11.918952"><ele>32.25</ele></trkpt>
   <trkpt lat="52.595868" lon="11.919695"><ele>34.25</ele></trkpt>
   <trkpt lat="52.595772" lon="11.920507"><ele>34.5</ele></trkpt>
   <trkpt lat="52.595599" lon="11.921622"><ele>32.75</ele></trkpt>
   <trkpt lat="52.595205" lon="11.923668"><ele>32</ele></trkpt>
   <trkpt lat="52.595091" lon="11.92426"><ele>31.75</ele></trkpt>
   <trkpt lat="52.594572" lon="11.926971"><ele>30.5</ele></trkpt>
   <trkpt lat="52.594083" lon="11.929524"><ele>33</ele></trkpt>
   <trkpt lat="52.594057" lon="11.929662"><ele>33</ele></trkpt>
   <trkpt lat="52.593789" lon="11.931085"><ele>32.5</ele></trkpt>
   <trkpt lat="52.593703" lon="11.931576"><ele>33</ele></trkpt>
   <trkpt lat="52.593642" lon="11.932002"><ele>33.25</ele></trkpt>
   <trkpt lat="52.593603" lon="11.932284"><ele>33.25</ele></trkpt>
   <trkpt lat="52.593516" lon="11.933247"><ele>34</ele></trkpt>
   <trkpt lat="52.59349" lon="11.933772"><ele>34.5</ele></trkpt>
   <trkpt lat="52.593477" lon="11.93422"><ele>35</ele></trkpt>
   <trkpt lat="52.593474" lon="11.934513"><ele>35</ele></trkpt>
   <trkpt lat="52.593486" lon="11.935216"><ele>35</ele></trkpt>
   <trkpt lat="52.593532" lon="11.93599"><ele>33.75</ele></trkpt>
   <trkpt lat="52.593564" lon="11.936399"><ele>33</ele></trkpt>
   <trkpt lat="52.593644" lon="11.937097"><ele>31.75</ele></trkpt>
   <trkpt lat="52.593713" lon="11.937545"><ele>31.5</ele></trkpt>
   <trkpt lat="52.593761" lon="11.93784"><ele>31.25</ele></trkpt>
   <trkpt lat="52.593817" lon="11.938156"><ele>31.5</ele></trkpt>
   <trkpt lat="52.593935" lon="11.938679"><ele>32</ele></trkpt>
   <trkpt lat="52.594038" lon="11.939137"><ele>32.5</ele></trkpt>
   <trkpt lat="52.594109" lon="11.939394"><ele>33.5</ele></trkpt>
   <trkpt lat="52.594205" lon="11.939741"><ele>33.5</ele></trkpt>
   <trkpt lat="52.594386" lon="11.940306"><ele>34.75</ele></trkpt>
   <trkpt lat="52.594664" lon="11.941058"><ele>36.25</ele></trkpt>
   <trkpt lat="52.594844" lon="11.941465"><ele>36.75</ele></trkpt>
   <trkpt lat="52.595184" lon="11.942196"><ele>36.25</ele></trkpt>
   <trkpt lat="52.5956" lon="11.943041"><ele>36.25</ele></trkpt>
   <trkpt lat="52.595695" lon="11.943231"><ele>36.75</ele></trkpt>
   <trkpt lat="52.595854" lon="11.943576"><ele>37.25</ele></trkpt>
   <trkpt lat="52.596226" lon="11.94445"><ele>37.25</ele></trkpt>
   <trkpt lat="52.596471" lon="11.945097"><ele>37.25</ele></trkpt>
   <trkpt lat="52.596723" lon="11.945857"><ele>35.5</ele></trkpt>
   <trkpt lat="52.596737" lon="11.945895"><ele>35.5</ele></trkpt>
   <trkpt lat="52.596874" lon="11.946345"><ele>33.75</ele></trkpt>
   <trkpt lat="52.597092" lon="11.947145"><ele>32</ele></trkpt>
   <trkpt lat="52.597408" lon="11.948382"><ele>31.75</ele></trkpt>
   <trkpt lat="52.597412" lon="11.948394"><ele>31.75</ele></trkpt>
   <trkpt lat="52.597977" lon="11.950777"><ele>29.75</ele></trkpt>
   <trkpt lat="52.598419" lon="11.952712"><ele>31</ele></trkpt>
   <trkpt lat="52.598645" lon="11.953768"><ele>31.25</ele></trkpt>
   <trkpt lat="52.598898" lon="11.955017"><ele>32.5</ele></trkpt>
  </trkseg>
 </trk>
</gpx>