<?xml version="1.0" encoding="UTF-8"?>
<!-- track-length = 75790 filtered ascend = 83 plain-ascend = 31 cost=75790 energy=0.9kwh time=1h 41m 4s -->
<gpx 
 xmlns="http://www.topografix.com/GPX/1/1" 
 xmlns:xsi="http://www.w3.org/2001/XMLSchema-instance" 
 xsi:schemaLocation="http://www.topografix.com/GPX/1/1 http://www.topografix.com/GPX/1/1/gpx.xsd" 
 version="1.1" 
 creator="BRouter-Web 0.18.1">
 <trk>
  <name>Stendal - Wolfsburg (Lehrter Bahn)</name>
  <trkseg>
   <trkpt lat="52.594772" lon="11.854458"><ele>31.75</ele></trkpt>
   <trkpt lat="52.594576" lon="11.85263"><ele>31</ele></trkpt>
   <trkpt lat="52.59457" lon="11.852566"><ele>31</ele></trkpt>
   <trkpt lat="52.594559" lon="11.852472"><ele>31</ele></trkpt>
   <trkpt lat="52.594556" lon="11.852446"><ele>31</ele></trkpt>
   <trkpt lat="52.594253" lon="11.849788"><ele>31</ele></trkpt>
   <trkpt lat="52.594026" lon="11.847848"><ele>31.5</ele></trkpt>
   <trkpt lat="52.593933" lon="11.84694"><ele>32.25</ele></trkpt>
   <trkpt lat="52.593831" lon="11.84594"><ele>31.5</ele></trkpt>
   <trkpt lat="52.593811" lon="11.845731"><ele>31.5</ele></trkpt>
   <trkpt lat="52.59375" lon="11.844764"><ele>30.75</ele></trkpt>
   <trkpt lat="52.593729" lon="11.84435"><ele>30.75</ele></trkpt>
   <trkpt lat="52.593679" lon="11.843594"><ele>30.75</ele></trkpt>
   <trkpt lat="52.593629" lon="11.843071"><ele>31</ele></trkpt>
   <trkpt lat="52.593537" lon="11.842073"><ele>31.75</ele></trkpt>
   <trkpt lat="52.593529" lon="11.841988"><ele>31.75</ele></trkpt>
   <trkpt lat="52.593254" lon="11.838913"><ele>32.75</ele></trkpt>
   <trkpt lat="52.593125" lon="11.837464"><ele>32.25</ele></trkpt>
   <trkpt lat="52.59304" lon="11.836585"><ele>32.5</ele></trkpt>
   <trkpt lat="52.592978" lon="11.835914"><ele>31.75</ele></trkpt>
   <trkpt lat="52.592902" lon="11.835319"><ele>31.5</ele></trkpt>
   <trkpt lat="52.592801" lon="11.834637"><ele>32</ele></trkpt>
   <trkpt lat="52.592755" lon="11.834215"><ele>32.5</ele></trkpt>
   <trkpt lat="52.592732" lon="11.833962"><ele>32.75</ele></trkpt>
   <trkpt lat="52.592482" lon="11.83104"><ele>32.25</ele></trkpt>
   <trkpt lat="52.592048" lon="11.826201"><ele>36</ele></trkpt>
   <trkpt lat="52.591982" lon="11.825576"><ele>36.25</ele></trkpt>
   <trkpt lat="52.591947" lon="11.825251"><ele>36.5</ele></trkpt>
   <trkpt lat="52.591869" lon="11.824649"><ele>36.5</ele></trkpt>
   <trkpt lat="52.591373" lon="11.8213"><ele>35.5</ele></trkpt>
   <trkpt lat="52.591337" lon="11.821069"><ele>35.5</ele></trkpt>
   <trkpt lat="52.591155" lon="11.819878"><ele>35.25</ele></trkpt>
   <trkpt lat="52.59113" lon="11.81972"><ele>35</ele></trkpt>
   <trkpt lat="52.59086" lon="11.81793"><ele>34.5</ele></trkpt>
   <trkpt lat="52.590466" lon="11.815341"><ele>32.25</ele></trkpt>
   <trkpt lat="52.590247" lon="11.813895"><ele>31.75</ele></trkpt>
   <trkpt lat="52.590112" lon="11.812877"><ele>31.5</ele></trkpt>
   <trkpt lat="52.590045" lon="11.812297"><ele>32</ele></trkpt>
   <trkpt lat="52.58916" lon="11.804483"><ele>30.5</ele></trkpt>
   <trkpt lat="52.589133" lon="11.804241"><ele>30.75</ele></trkpt>
   <trkpt lat="52.589094" lon="11.803882"><ele>30.75</ele></trkpt>
   <trkpt lat="52.588405" lon="11.79776"><ele>32.5</ele></trkpt>
   <trkpt lat="52.587477" lon="11.789571"><ele>31.5</ele></trkpt>
   <trkpt lat="52.587191" lon="11.787134"><ele>31.5</ele></trkpt>
   <trkpt lat="52.587112" lon="11.78654"><ele>31.75</ele></trkpt>
   <trkpt lat="52.585463" lon="11.775221"><ele>30.25</ele></trkpt>
   <trkpt lat="52.582898" lon="11.757757"><ele>32.75</ele></trkpt>
   <trkpt lat="52.582849" lon="11.757408"><ele>33</ele></trkpt>
   <trkpt lat="52.582052" lon="11.75198"><ele>34</ele></trkpt>
   <trkpt lat="52.58166" lon="11.749273"><ele>34.75</ele></trkpt>
   <trkpt lat="52.581445" lon="11.747802"><ele>34.5</ele></trkpt>
   <trkpt lat="52.58138" lon="11.747356"><ele>34.5</ele></trkpt>
   <trkpt lat="52.58126" lon="11.746579"><ele>34.75</ele></trkpt>
   <trkpt lat="52.581205" lon="11.74619"><ele>34.75</ele></trkpt>
   <trkpt lat="52.580872" lon="11.743905"><ele>34</ele></trkpt>
   <trkpt lat="52.580404" lon="11.740734"><ele>34.25</ele></trkpt>
   <trkpt lat="52.58002" lon="11.73809"><ele>34.5</ele></trkpt>
   <trkpt lat="52.579628" lon="11.735421"><ele>35.25</ele></trkpt>
   <trkpt lat="52.579127" lon="11.732001"><ele>35</ele></trkpt>
   <trkpt lat="52.579109" lon="11.731886"><ele>35</ele></trkpt>
   <trkpt lat="52.578756" lon="11.729469"><ele>35</ele></trkpt>
   <trkpt lat="52.578599" lon="11.728402"><ele>35.75</ele></trkpt>
   <trkpt lat="52.578301" lon="11.726361"><ele>35.5</ele></trkpt>
   <trkpt lat="52.577936" lon="11.723884"><ele>35.5</ele></trkpt>
   <trkpt lat="52.577381" lon="11.72033"><ele>37</ele></trkpt>
   <trkpt lat="52.576952" lon="11.717755"><ele>37</ele></trkpt>
   <trkpt lat="52.576439" lon="11.714662"><ele>39.5</ele></trkpt>
   <trkpt lat="52.576419" lon="11.714554"><ele>39.75</ele></trkpt>
   <trkpt lat="52.575958" lon="11.711771"><ele>40.25</ele></trkpt>
   <trkpt lat="52.575587" lon="11.70954"><ele>42.75</ele></trkpt>
   <trkpt lat="52.575451" lon="11.708708"><ele>43.5</ele></trkpt>
   <trkpt lat="52.575374" lon="11.70825"><ele>43.75</ele></trkpt>
   <trkpt lat="52.57529" lon="11.707748"><ele>43.25</ele></trkpt>
   <trkpt lat="52.575276" lon="11.707646"><ele>43.25</ele></trkpt>
   <trkpt lat="52.575095" lon="11.706536"><ele>42.5</ele></trkpt>
   <trkpt lat="52.574765" lon="11.704583"><ele>42.75</ele></trkpt>
   <trkpt lat="52.574184" lon="11.701069"><ele>43.25</ele></trkpt>
   <trkpt lat="52.574148" lon="11.700849"><ele>43</ele></trkpt>
   <trkpt lat="52.573716" lon="11.698194"><ele>44</ele></trkpt>
   <trkpt lat="52.573234" lon="11.695287"><ele>45.25</ele></trkpt>
   <trkpt lat="52.573171" lon="11.694904"><ele>45.75</ele></trkpt>
   <trkpt lat="52.573034" lon="11.694069"><ele>47.75</ele></trkpt>
   <trkpt lat="52.572752" lon="11.692393"><ele>48.25</ele></trkpt>
   <trkpt lat="52.572266" lon="11.689489"><ele>49.25</ele></trkpt>
   <trkpt lat="52.572081" lon="11.688383"><ele>51.25</ele></trkpt>
   <trkpt lat="52.571887" lon="11.687223"><ele>51.25</ele></trkpt>
   <trkpt lat="52.571759" lon="11.686453"><ele>51.25</ele></trkpt>
   <trkpt lat="52.571737" lon="11.686319"><ele>51.5</ele></trkpt>
   <trkpt lat="52.571492" lon="11.684841"><ele>52.5</ele></trkpt>
   <trkpt lat="52.571303" lon="11.683655"><ele>53</ele></trkpt>
   <trkpt lat="52.570701" lon="11.679878"><ele>51.25</ele></trkpt>
   <trkpt lat="52.570697" lon="11.679852"><ele>51.25</ele></trkpt>
   <trkpt lat="52.570693" lon="11.679825"><ele>51.5</ele></trkpt>
   <trkpt lat="52.570186" lon="11.676821"><ele>51.5</ele></trkpt>
   <trkpt lat="52.570062" lon="11.676218"><ele>51.5</ele></trkpt>
   <trkpt lat="52.569959" lon="11.675786"><ele>52</ele></trkpt>
   <trkpt lat="52.569794" lon="11.675006"><ele>52.5</ele></trkpt>
   <trkpt lat="52.569593" lon="11.674155"><ele>52</ele></trkpt>
   <trkpt lat="52.569203" lon="11.67238"><ele>51</ele></trkpt>
   <trkpt lat="52.569106" lon="11.671941"><ele>51</ele></trkpt>
   <trkpt lat="52.568945" lon="11.671197"><ele>50.75</ele></trkpt>
   <trkpt lat="52.56874" lon="11.670267"><ele>51</ele></trkpt>
   <trkpt lat="52.567945" lon="11.666534"><ele>49.25</ele></trkpt>
   <trkpt lat="52.566903" lon="11.661791"><ele>45</ele></trkpt>
   <trkpt lat="52.566673" lon="11.660804"><ele>44.75</ele></trkpt>
   <trkpt lat="52.566469" lon="11.659842"><ele>44.5</ele></trkpt>
   <trkpt lat="52.566315" lon="11.659207"><ele>43.75</ele></trkpt>
   <trkpt lat="52.566267" lon="11.659028"><ele>43.75</ele></trkpt>
   <trkpt lat="52.565372" lon="11.655865"><ele>45</ele></trkpt>
   <trkpt lat="52.565249" lon="11.655431"><ele>45.25</ele></trkpt>
   <trkpt lat="52.56504" lon="11.654719"><ele>45.5</ele></trkpt>
   <trkpt lat="52.563868" lon="11.650485"><ele>44.25</ele></trkpt>
   <trkpt lat="52.563631" lon="11.649628"><ele>45</ele></trkpt>
   <trkpt lat="52.563131" lon="11.647745"><ele>46</ele></trkpt>
   <trkpt lat="52.562516" lon="11.645301"><ele>46.75</ele></trkpt>
   <trkpt lat="52.561692" lon="11.642024"><ele>49.5</ele></trkpt>
   <trkpt lat="52.561656" lon="11.64188"><ele>49.5</ele></trkpt>
   <trkpt lat="52.561061" lon="11.639521"><ele>49.5</ele></trkpt>
   <trkpt lat="52.560854" lon="11.638703"><ele>50.5</ele></trkpt>
   <trkpt lat="52.560435" lon="11.637102"><ele>54.25</ele></trkpt>
   <trkpt lat="52.560274" lon="11.636486"><ele>54.75</ele></trkpt>
   <trkpt lat="52.560216" lon="11.636258"><ele>54.5</ele></trkpt>
   <trkpt lat="52.559624" lon="11.634196"><ele>54.75</ele></trkpt>
   <trkpt lat="52.559294" lon="11.633073"><ele>55.25</ele></trkpt>
   <trkpt lat="52.558919" lon="11.631889"><ele>55</ele></trkpt>
   <trkpt lat="52.558505" lon="11.630624"><ele>54.75</ele></trkpt>
   <trkpt lat="52.557899" lon="11.62888"><ele>54.5</ele></trkpt>
   <trkpt lat="52.557636" lon="11.628158"><ele>55.75</ele></trkpt>
   <trkpt lat="52.557084" lon="11.626702"><ele>57.25</ele></trkpt>
   <trkpt lat="52.556662" lon="11.625617"><ele>58</ele></trkpt>
   <trkpt lat="52.555971" lon="11.623947"><ele>59.75</ele></trkpt>
   <trkpt lat="52.555033" lon="11.621781"><ele>58.75</ele></trkpt>
   <trkpt lat="52.554053" lon="11.619546"><ele>60.25</ele></trkpt>
   <trkpt lat="52.553577" lon="11.618525"><ele>61</ele></trkpt>
   <trkpt lat="52.552707" lon="11.616554"><ele>64</ele></trkpt>
   <trkpt lat="52.551806" lon="11.614514"><ele>66.5</ele></trkpt>
   <trkpt lat="52.550872" lon="11.61238"><ele>70</ele></trkpt>
   <trkpt lat="52.550794" lon="11.612199"><ele>70</ele></trkpt>
   <trkpt lat="52.550258" lon="11.610921"><ele>74.25</ele></trkpt>
   <trkpt lat="52.549668" lon="11.609462"><ele>77.25</ele></trkpt>
   <trkpt lat="52.549096" lon="11.607997"><ele>76</ele></trkpt>
   <trkpt lat="52.54882" lon="11.607271"><ele>78.25</ele></trkpt>
   <trkpt lat="52.548317" lon="11.605894"><ele>76.75</ele></trkpt>
   <trkpt lat="52.547781" lon="11.60438"><ele>78.5</ele></trkpt>
   <trkpt lat="52.546991" lon="11.60206"><ele>79.25</ele></trkpt>
   <trkpt lat="52.546189" lon="11.599708"><ele>80.5</ele></trkpt>
   <trkpt lat="52.546147" lon="11.59958"><ele>80.5</ele></trkpt>
   <trkpt lat="52.545262" lon="11.596975"><ele>75.25</ele></trkpt>
   <trkpt lat="52.545181" lon="11.596737"><ele>74.5</ele></trkpt>
   <trkpt lat="52.545149" lon="11.596643"><ele>74.25</ele></trkpt>
   <trkpt lat="52.544818" lon="11.59568"><ele>77.25</ele></trkpt>
   <trkpt lat="52.544381" lon="11.59439"><ele>80.25</ele></trkpt>
   <trkpt lat="52.543578" lon="11.592028"><ele>82.25</ele></trkpt>
   <trkpt lat="52.543552" lon="11.591951"><ele>82.25</ele></trkpt>
   <trkpt lat="52.542541" lon="11.588982"><ele>82.25</ele></trkpt>
   <trkpt lat="52.541743" lon="11.586637"><ele>77</ele></trkpt>
   <trkpt lat="52.541532" lon="11.586012"><ele>76.5</ele></trkpt>
   <trkpt lat="52.540923" lon="11.584229"><ele>77</ele></trkpt>
   <trkpt lat="52.540431" lon="11.582774"><ele>79</ele></trkpt>
   <trkpt lat="52.540376" lon="11.582614"><ele>79</ele></trkpt>
   <trkpt lat="52.539978" lon="11.581448"><ele>79</ele></trkpt>
   <trkpt lat="52.539299" lon="11.579454"><ele>81.5</ele></trkpt>
   <trkpt lat="52.539219" lon="11.579218"><ele>81.25</ele></trkpt>
   <trkpt lat="52.538139" lon="11.576047"><ele>81.75</ele></trkpt>
   <trkpt lat="52.537377" lon="11.573806"><ele>78.25</ele></trkpt>
   <trkpt lat="52.536426" lon="11.570985"><ele>82.5</ele></trkpt>
   <trkpt lat="52.535677" lon="11.568786"><ele>82</ele></trkpt>
   <trkpt lat="52.534669" lon="11.565826"><ele>87</ele></trkpt>
   <trkpt lat="52.534035" lon="11.563957"><ele>85.25</ele></trkpt>
   <trkpt lat="52.533869" lon="11.56347"><ele>86</ele></trkpt>
   <trkpt lat="52.532905" lon="11.560482"><ele>85</ele></trkpt>
   <trkpt lat="52.532213" lon="11.558096"><ele>87</ele></trkpt>
   <trkpt lat="52.531942" lon="11.557101"><ele>87</ele></trkpt>
   <trkpt lat="52.53157" lon="11.555671"><ele>85</ele></trkpt>
   <trkpt lat="52.531142" lon="11.553902"><ele>83.75</ele></trkpt>
   <trkpt lat="52.530786" lon="11.55237"><ele>77.75</ele></trkpt>
   <trkpt lat="52.530263" lon="11.550023"><ele>76.5</ele></trkpt>
   <trkpt lat="52.529713" lon="11.547528"><ele>78.25</ele></trkpt>
   <trkpt lat="52.528945" lon="11.544084"><ele>76.25</ele></trkpt>
   <trkpt lat="52.528422" lon="11.541727"><ele>74</ele></trkpt>
   <trkpt lat="52.528405" lon="11.541647"><ele>73.75</ele></trkpt>
   <trkpt lat="52.52786" lon="11.539194"><ele>74.25</ele></trkpt>
   <trkpt lat="52.527386" lon="11.537088"><ele>73</ele></trkpt>
   <trkpt lat="52.527109" lon="11.535837"><ele>74.75</ele></trkpt>
   <trkpt lat="52.526529" lon="11.533225"><ele>77.5</ele></trkpt>
   <trkpt lat="52.525969" lon="11.530701"><ele>78</ele></trkpt>
   <trkpt lat="52.525262" lon="11.527515"><ele>73</ele></trkpt>
   <trkpt lat="52.524682" lon="11.524895"><ele>75.5</ele></trkpt>
   <trkpt lat="52.524103" lon="11.52229"><ele>70.75</ele></trkpt>
   <trkpt lat="52.52352" lon="11.519668"><ele>65</ele></trkpt>
   <trkpt lat="52.5228" lon="11.516443"><ele>62.25</ele></trkpt>
   <trkpt lat="52.522665" lon="11.515835"><ele>62.25</ele></trkpt>
   <trkpt lat="52.522237" lon="11.5139"><ele>64.25</ele></trkpt>
   <trkpt lat="52.521929" lon="11.512512"><ele>64</ele></trkpt>
   <trkpt lat="52.521673" lon="11.511288"><ele>62.5</ele></trkpt>
   <trkpt lat="52.52148" lon="11.510359"><ele>63</ele></trkpt>
   <trkpt lat="52.521153" lon="11.508625"><ele>62</ele></trkpt>
   <trkpt lat="52.520651" lon="11.505633"><ele>63.25</ele></trkpt>
   <trkpt lat="52.520586" lon="11.505153"><ele>62.75</ele></trkpt>
   <trkpt lat="52.520441" lon="11.504075"><ele>61.25</ele></trkpt>
   <trkpt lat="52.520256" lon="11.502708"><ele>60.5</ele></trkpt>
   <trkpt lat="52.520117" lon="11.501495"><ele>60.75</ele></trkpt>
   <trkpt lat="52.520048" lon="11.50085"><ele>60.75</ele></trkpt>
   <trkpt lat="52.519963" lon="11.499948"><ele>61</ele></trkpt>
   <trkpt lat="52.519771" lon="11.497702"><ele>61.25</ele></trkpt>
   <trkpt lat="52.519735" lon="11.497233"><ele>61.5</ele></trkpt>
   <trkpt lat="52.519715" lon="11.496787"><ele>61.75</ele></trkpt>
   <trkpt lat="52.519658" lon="11.495833"><ele>61.5</ele></trkpt>
   <trkpt lat="52.51957" lon="11.494059"><ele>61.25</ele></trkpt>
   <trkpt lat="52.519543" lon="11.493645"><ele>61.25</ele></trkpt>
   <trkpt lat="52.51954" lon="11.493565"><ele>61</ele></trkpt>
   <trkpt lat="52.519498" lon="11.492521"><ele>61.25</ele></trkpt>
   <trkpt lat="52.519468" lon="11.491648"><ele>61.5</ele></trkpt>
   <trkpt lat="52.519452" lon="11.491182"><ele>62</ele></trkpt>
   <trkpt lat="52.519445" lon="11.490948"><ele>62.5</ele></trkpt>
   <trkpt lat="52.519421" lon="11.490272"><ele>63.25</ele></trkpt>
   <trkpt lat="52.519304" lon="11.486839"><ele>62</ele></trkpt>
   <trkpt lat="52.519229" lon="11.484308"><ele>63.5</ele></trkpt>
   <trkpt lat="52.51918" lon="11.48284"><ele>64.25</ele></trkpt>
   <trkpt lat="52.519124" lon="11.481127"><ele>65.25</ele></trkpt>
   <trkpt lat="52.519077" lon="11.479546"><ele>64.25</ele></trkpt>
   <trkpt lat="52.519059" lon="11.478566"><ele>62.25</ele></trkpt>
   <trkpt lat="52.519055" lon="11.478312"><ele>61.75</ele></trkpt>
   <trkpt lat="52.519049" lon="11.477384"><ele>58.5</ele></trkpt>
   <trkpt lat="52.519067" lon="11.475424"><ele>56.75</ele></trkpt>
   <trkpt lat="52.519078" lon="11.474894"><ele>56.75</ele></trkpt>
   <trkpt lat="52.519096" lon="11.474316"><ele>57.75</ele></trkpt>
   <trkpt lat="52.519119" lon="11.473488"><ele>59</ele></trkpt>
   <trkpt lat="52.519162" lon="11.472473"><ele>60</ele></trkpt>
   <trkpt lat="52.519214" lon="11.471414"><ele>60.25</ele></trkpt>
   <trkpt lat="52.51935" lon="11.469277"><ele>62.75</ele></trkpt>
   <trkpt lat="52.519459" lon="11.467921"><ele>62.75</ele></trkpt>
   <trkpt lat="52.519583" lon="11.466571"><ele>61.5</ele></trkpt>
   <trkpt lat="52.51971" lon="11.465358"><ele>61</ele></trkpt>
   <trkpt lat="52.519964" lon="11.46325"><ele>56</ele></trkpt>
   <trkpt lat="52.520289" lon="11.460513"><ele>55</ele></trkpt>
   <trkpt lat="52.520448" lon="11.459178"><ele>53.75</ele></trkpt>
   <trkpt lat="52.520604" lon="11.457883"><ele>53.75</ele></trkpt>
   <trkpt lat="52.520826" lon="11.456034"><ele>53.75</ele></trkpt>
   <trkpt lat="52.521" lon="11.454517"><ele>53.25</ele></trkpt>
   <trkpt lat="52.521315" lon="11.451911"><ele>51.5</ele></trkpt>
   <trkpt lat="52.521545" lon="11.450093"><ele>52.75</ele></trkpt>
   <trkpt lat="52.52177" lon="11.447997"><ele>53.25</ele></trkpt>
   <trkpt lat="52.521832" lon="11.447325"><ele>53.75</ele></trkpt>
   <trkpt lat="52.521894" lon="11.44653"><ele>53</ele></trkpt>
   <trkpt lat="52.521974" lon="11.445228"><ele>50.75</ele></trkpt>
   <trkpt lat="52.522012" lon="11.444225"><ele>51.5</ele></trkpt>
   <trkpt lat="52.522026" lon="11.443715"><ele>51.5</ele></trkpt>
   <trkpt lat="52.52204" lon="11.44251"><ele>52.5</ele></trkpt>
   <trkpt lat="52.522028" lon="11.441288"><ele>53.5</ele></trkpt>
   <trkpt lat="52.522012" lon="11.44072"><ele>53.75</ele></trkpt>
   <trkpt lat="52.521965" lon="11.43954"><ele>53.5</ele></trkpt>
   <trkpt lat="52.521931" lon="11.43895"><ele>53.25</ele></trkpt>
   <trkpt lat="52.521865" lon="11.438014"><ele>53</ele></trkpt>
   <trkpt lat="52.52181" lon="11.437334"><ele>51.75</ele></trkpt>
   <trkpt lat="52.521583" lon="11.434657"><ele>50.5</ele></trkpt>
   <trkpt lat="52.521359" lon="11.431898"><ele>47</ele></trkpt>
   <trkpt lat="52.52105" lon="11.428222"><ele>46.25</ele></trkpt>
   <trkpt lat="52.521008" lon="11.42772"><ele>45.75</ele></trkpt>
   <trkpt lat="52.520826" lon="11.425562"><ele>46.25</ele></trkpt>
   <trkpt lat="52.520613" lon="11.423058"><ele>45.25</ele></trkpt>
   <trkpt lat="52.520302" lon="11.419401"><ele>47</ele></trkpt>
   <trkpt lat="52.520067" lon="11.41664"><ele>46.75</ele></trkpt>
   <trkpt lat="52.519962" lon="11.415407"><ele>45.25</ele></trkpt>
   <trkpt lat="52.519823" lon="11.413954"><ele>44.75</ele></trkpt>
   <trkpt lat="52.519807" lon="11.4138"><ele>44.75</ele></trkpt>
   <trkpt lat="52.519737" lon="11.413146"><ele>45</ele></trkpt>
   <trkpt lat="52.519475" lon="11.411122"><ele>45.75</ele></trkpt>
   <trkpt lat="52.519239" lon="11.409482"><ele>46</ele></trkpt>
   <trkpt lat="52.518952" lon="11.407758"><ele>46.75</ele></trkpt>
   <trkpt lat="52.518888" lon="11.407352"><ele>46.75</ele></trkpt>
   <trkpt lat="52.518435" lon="11.404574"><ele>46.5</ele></trkpt>
   <trkpt lat="52.518176" lon="11.402985"><ele>47.25</ele></trkpt>
   <trkpt lat="52.518023" lon="11.402045"><ele>48.25</ele></trkpt>
   <trkpt lat="52.517696" lon="11.400046"><ele>45.5</ele></trkpt>
   <trkpt lat="52.516533" lon="11.392925"><ele>43.5</ele></trkpt>
   <trkpt lat="52.516353" lon="11.391823"><ele>43.25</ele></trkpt>
   <trkpt lat="52.516251" lon="11.391214"><ele>43</ele></trkpt>
   <trkpt lat="52.51624" lon="11.391146"><ele>43</ele></trkpt>
   <trkpt lat="52.516236" lon="11.391128"><ele>43</ele></trkpt>
   <trkpt lat="52.516152" lon="11.39064"><ele>43</ele></trkpt>
   <trkpt lat="52.515754" lon="11.388325"><ele>43.75</ele></trkpt>
   <trkpt lat="52.515448" lon="11.386545"><ele>43.5</ele></trkpt>
   <trkpt lat="52.515295" lon="11.385595"><ele>44</ele></trkpt>
   <trkpt lat="52.515124" lon="11.384524"><ele>43.25</ele></trkpt>
   <trkpt lat="52.514839" lon="11.382641"><ele>44.5</ele></trkpt>
   <trkpt lat="52.51434" lon="11.3796"><ele>44.75</ele></trkpt>
   <trkpt lat="52.51395" lon="11.377229"><ele>44</ele></trkpt>
   <trkpt lat="52.513877" lon="11.376795"><ele>44.5</ele></trkpt>
   <trkpt lat="52.51382" lon="11.37646"><ele>45</ele></trkpt>
   <trkpt lat="52.513398" lon="11.373893"><ele>45.5</ele></trkpt>
   <trkpt lat="52.513078" lon="11.37193"><ele>44.5</ele></trkpt>
   <trkpt lat="52.512958" lon="11.371199"><ele>44.5</ele></trkpt>
   <trkpt lat="52.512515" lon="11.368511"><ele>45</ele></trkpt>
   <trkpt lat="52.512077" lon="11.365865"><ele>46.75</ele></trkpt>
   <trkpt lat="52.511534" lon="11.362586"><ele>48</ele></trkpt>
   <trkpt lat="52.511086" lon="11.359901"><ele>47.5</ele></trkpt>
   <trkpt lat="52.510647" lon="11.357214"><ele>48.25</ele></trkpt>
   <trkpt lat="52.51021" lon="11.354584"><ele>49.25</ele></trkpt>
   <trkpt lat="52.509669" lon="11.351273"><ele>55.25</ele></trkpt>
   <trkpt lat="52.509244" lon="11.348674"><ele>57</ele></trkpt>
   <trkpt lat="52.508949" lon="11.346868"><ele>54.25</ele></trkpt>
   <trkpt lat="52.508831" lon="11.345978"><ele>53.25</ele></trkpt>
   <trkpt lat="52.508704" lon="11.345052"><ele>52.5</ele></trkpt>
   <trkpt lat="52.508481" lon="11.343234"><ele>50.25</ele></trkpt>
   <trkpt lat="52.508389" lon="11.342357"><ele>51.25</ele></trkpt>
   <trkpt lat="52.508291" lon="11.34142"><ele>52.5</ele></trkpt>
   <trkpt lat="52.508146" lon="11.339697"><ele>54.25</ele></trkpt>
   <trkpt lat="52.508076" lon="11.338799"><ele>52.25</ele></trkpt>
   <trkpt lat="52.507973" lon="11.337207"><ele>51</ele></trkpt>
   <trkpt lat="52.507747" lon="11.333655"><ele>52.5</ele></trkpt>
   <trkpt lat="52.507573" lon="11.330878"><ele>54.25</ele></trkpt>
   <trkpt lat="52.507405" lon="11.328197"><ele>54.75</ele></trkpt>
   <trkpt lat="52.50729" lon="11.326625"><ele>54.75</ele></trkpt>
   <trkpt lat="52.507122" lon="11.324789"><ele>55</ele></trkpt>
   <trkpt lat="52.507047" lon="11.324038"><ele>54.5</ele></trkpt>
   <trkpt lat="52.506822" lon="11.322091"><ele>55.5</ele></trkpt>
   <trkpt lat="52.506742" lon="11.321468"><ele>55.75</ele></trkpt>
   <trkpt lat="52.50653" lon="11.31999"><ele>56.25</ele></trkpt>
   <trkpt lat="52.506476" lon="11.319617"><ele>55.75</ele></trkpt>
   <trkpt lat="52.506208" lon="11.317915"><ele>56</ele></trkpt>
   <trkpt lat="52.505925" lon="11.316349"><ele>56.25</ele></trkpt>
   <trkpt lat="52.505755" lon="11.315457"><ele>56.25</ele></trkpt>
   <trkpt lat="52.505428" lon="11.313868"><ele>56.75</ele></trkpt>
   <trkpt lat="52.505249" lon="11.313041"><ele>57</ele></trkpt>
   <trkpt lat="52.504976" lon="11.31184"><ele>57</ele></trkpt>
   <trkpt lat="52.50468" lon="11.310622"><ele>56.75</ele></trkpt>
   <trkpt lat="52.504073" lon="11.308325"><ele>59</ele></trkpt>
   <trkpt lat="52.503393" lon="11.305883"><ele>61.5</ele></trkpt>
   <trkpt lat="52.503377" lon="11.305821"><ele>61.25</ele></trkpt>
   <trkpt lat="52.502686" lon="11.30334"><ele>59</ele></trkpt>
   <trkpt lat="52.502518" lon="11.302737"><ele>59.5</ele></trkpt>
   <trkpt lat="52.502234" lon="11.301744"><ele>60.5</ele></trkpt>
   <trkpt lat="52.502071" lon="11.30118"><ele>60.5</ele></trkpt>
   <trkpt lat="52.501628" lon="11.299582"><ele>60.5</ele></trkpt>
   <trkpt lat="52.50136" lon="11.298578"><ele>60.5</ele></trkpt>
   <trkpt lat="52.501178" lon="11.297898"><ele>60.5</ele></trkpt>
   <trkpt lat="52.500745" lon="11.296207"><ele>60.5</ele></trkpt>
   <trkpt lat="52.500508" lon="11.295213"><ele>60</ele></trkpt>
   <trkpt lat="52.500338" lon="11.294468"><ele>59.25</ele></trkpt>
   <trkpt lat="52.500126" lon="11.293482"><ele>59</ele></trkpt>
   <trkpt lat="52.499881" lon="11.292301"><ele>59.75</ele></trkpt>
   <trkpt lat="52.499799" lon="11.291874"><ele>59.75</ele></trkpt>
   <trkpt lat="52.499582" lon="11.290721"><ele>60.5</ele></trkpt>
   <trkpt lat="52.499064" lon="11.287875"><ele>61.25</ele></trkpt>
   <trkpt lat="52.498858" lon="11.286712"><ele>60.5</ele></trkpt>
   <trkpt lat="52.498854" lon="11.286689"><ele>60.5</ele></trkpt>
   <trkpt lat="52.49825" lon="11.2833"><ele>61.75</ele></trkpt>
   <trkpt lat="52.498144" lon="11.28271"><ele>62.25</ele></trkpt>
   <trkpt lat="52.497795" lon="11.280756"><ele>63</ele></trkpt>
   <trkpt lat="52.497242" lon="11.277659"><ele>63</ele></trkpt>
   <trkpt lat="52.496787" lon="11.275112"><ele>62.25</ele></trkpt>
   <trkpt lat="52.496308" lon="11.272434"><ele>61.25</ele></trkpt>
   <trkpt lat="52.495832" lon="11.269769"><ele>62.5</ele></trkpt>
   <trkpt lat="52.495623" lon="11.268594"><ele>61</ele></trkpt>
   <trkpt lat="52.495209" lon="11.26628"><ele>62.25</ele></trkpt>
   <trkpt lat="52.494779" lon="11.263882"><ele>62.75</ele></trkpt>
   <trkpt lat="52.494302" lon="11.261215"><ele>65.5</ele></trkpt>
   <trkpt lat="52.493824" lon="11.258541"><ele>64.25</ele></trkpt>
   <trkpt lat="52.493189" lon="11.25499"><ele>66.75</ele></trkpt>
   <trkpt lat="52.492755" lon="11.25257"><ele>65.5</ele></trkpt>
   <trkpt lat="52.492303" lon="11.250031"><ele>63.5</ele></trkpt>
   <trkpt lat="52.49192" lon="11.24787"><ele>61.25</ele></trkpt>
   <trkpt lat="52.4917" lon="11.246648"><ele>59</ele></trkpt>
   <trkpt lat="52.491421" lon="11.245105"><ele>58.5</ele></trkpt>
   <trkpt lat="52.491244" lon="11.244107"><ele>59</ele></trkpt>
   <trkpt lat="52.49094" lon="11.242437"><ele>58</ele></trkpt>
   <trkpt lat="52.49079" lon="11.241569"><ele>57</ele></trkpt>
   <trkpt lat="52.490206" lon="11.238309"><ele>59.75</ele></trkpt>
   <trkpt lat="52.489739" lon="11.235674"><ele>59</ele></trkpt>
   <trkpt lat="52.489733" lon="11.235642"><ele>59</ele></trkpt>
   <trkpt lat="52.48942" lon="11.233874"><ele>59.25</ele></trkpt>
   <trkpt lat="52.489283" lon="11.23301"><ele>58.75</ele></trkpt>
   <trkpt lat="52.488944" lon="11.230862"><ele>58.25</ele></trkpt>
   <trkpt lat="52.488845" lon="11.230242"><ele>58.25</ele></trkpt>
   <trkpt lat="52.488393" lon="11.227569"><ele>58</ele></trkpt>
   <trkpt lat="52.488371" lon="11.227444"><ele>57.75</ele></trkpt>
   <trkpt lat="52.488073" lon="11.225779"><ele>57.25</ele></trkpt>
   <trkpt lat="52.487801" lon="11.22428"><ele>57</ele></trkpt>
   <trkpt lat="52.487367" lon="11.221861"><ele>57</ele></trkpt>
   <trkpt lat="52.487286" lon="11.221409"><ele>56.75</ele></trkpt>
   <trkpt lat="52.487119" lon="11.220472"><ele>56.5</ele></trkpt>
   <trkpt lat="52.486763" lon="11.218582"><ele>57.5</ele></trkpt>
   <trkpt lat="52.486323" lon="11.216322"><ele>57</ele></trkpt>
   <trkpt lat="52.486069" lon="11.215039"><ele>57.25</ele></trkpt>
   <trkpt lat="52.486018" lon="11.214783"><ele>57</ele></trkpt>
   <trkpt lat="52.4856" lon="11.212756"><ele>56.5</ele></trkpt>
   <trkpt lat="52.485152" lon="11.210669"><ele>56.75</ele></trkpt>
   <trkpt lat="52.484434" lon="11.20745"><ele>57.5</ele></trkpt>
   <trkpt lat="52.484053" lon="11.205749"><ele>57.25</ele></trkpt>
   <trkpt lat="52.483889" lon="11.205016"><ele>57.5</ele></trkpt>
   <trkpt lat="52.483813" lon="11.204675"><ele>58</ele></trkpt>
   <trkpt lat="52.483749" lon="11.204393"><ele>59.25</ele></trkpt>
   <trkpt lat="52.483565" lon="11.203573"><ele>59.25</ele></trkpt>
   <trkpt lat="52.483139" lon="11.201681"><ele>58</ele></trkpt>
   <trkpt lat="52.482744" lon="11.199905"><ele>56.25</ele></trkpt>
   <trkpt lat="52.482566" lon="11.199121"><ele>55</ele></trkpt>
   <trkpt lat="52.482552" lon="11.199064"><ele>55</ele></trkpt>
   <trkpt lat="52.482168" lon="11.197413"><ele>56</ele></trkpt>
   <trkpt lat="52.481915" lon="11.196408"><ele>56.5</ele></trkpt>
   <trkpt lat="52.481698" lon="11.195554"><ele>56.75</ele></trkpt>
   <trkpt lat="52.48152" lon="11.194845"><ele>56.5</ele></trkpt>
   <trkpt lat="52.481287" lon="11.193868"><ele>56.5</ele></trkpt>
   <trkpt lat="52.48061" lon="11.190898"><ele>56.5</ele></trkpt>
   <trkpt lat="52.479911" lon="11.187802"><ele>59.25</ele></trkpt>
   <trkpt lat="52.479431" lon="11.185668"><ele>58.75</ele></trkpt>
   <trkpt lat="52.478716" lon="11.182487"><ele>59.25</ele></trkpt>
   <trkpt lat="52.478353" lon="11.180888"><ele>59.75</ele></trkpt>
   <trkpt lat="52.478034" lon="11.179482"><ele>59.5</ele></trkpt>
   <trkpt lat="52.477578" lon="11.177452"><ele>57.75</ele></trkpt>
   <trkpt lat="52.476861" lon="11.174261"><ele>55.5</ele></trkpt>
   <trkpt lat="52.47616" lon="11.171131"><ele>55.5</ele></trkpt>
   <trkpt lat="52.475684" lon="11.169006"><ele>58.25</ele></trkpt>
   <trkpt lat="52.475535" lon="11.168339"><ele>59.5</ele></trkpt>
   <trkpt lat="52.475015" lon="11.165839"><ele>60</ele></trkpt>
   <trkpt lat="52.474594" lon="11.163696"><ele>60.5</ele></trkpt>
   <trkpt lat="52.474022" lon="11.160732"><ele>57.25</ele></trkpt>
   <trkpt lat="52.473489" lon="11.157987"><ele>57.5</ele></trkpt>
   <trkpt lat="52.472966" lon="11.155258"><ele>56.75</ele></trkpt>
   <trkpt lat="52.472437" lon="11.152498"><ele>57.75</ele></trkpt>
   <trkpt lat="52.472422" lon="11.152434"><ele>57.75</ele></trkpt>
   <trkpt lat="52.472257" lon="11.151632"><ele>57.75</ele></trkpt>
   <trkpt lat="52.471835" lon="11.149373"><ele>59.75</ele></trkpt>
   <trkpt lat="52.471207" lon="11.146115"><ele>60.75</ele></trkpt>
   <trkpt lat="52.470637" lon="11.143171"><ele>57.75</ele></trkpt>
   <trkpt lat="52.470605" lon="11.143004"><ele>57.5</ele></trkpt>
   <trkpt lat="52.470223" lon="11.141006"><ele>56.5</ele></trkpt>
   <trkpt lat="52.469598" lon="11.137744"><ele>55.25</ele></trkpt>
   <trkpt lat="52.469189" lon="11.135605"><ele>56</ele></trkpt>
   <trkpt lat="52.468654" lon="11.132841"><ele>56.25</ele></trkpt>
   <trkpt lat="52.468581" lon="11.132456"><ele>56.25</ele></trkpt>
   <trkpt lat="52.467997" lon="11.129406"><ele>56.75</ele></trkpt>
   <trkpt lat="52.46794" lon="11.129108"><ele>57</ele></trkpt>
   <trkpt lat="52.467208" lon="11.125356"><ele>55.5</ele></trkpt>
   <trkpt lat="52.467007" lon="11.124309"><ele>56.25</ele></trkpt>
   <trkpt lat="52.466423" lon="11.121287"><ele>57.5</ele></trkpt>
   <trkpt lat="52.466286" lon="11.120568"><ele>58</ele></trkpt>
   <trkpt lat="52.466194" lon="11.120082"><ele>58</ele></trkpt>
   <trkpt lat="52.465781" lon="11.117936"><ele>56</ele></trkpt>
   <trkpt lat="52.46541" lon="11.116009"><ele>56</ele></trkpt>
   <trkpt lat="52.465367" lon="11.115786"><ele>56</ele></trkpt>
   <trkpt lat="52.464912" lon="11.113414"><ele>56</ele></trkpt>
   <trkpt lat="52.464742" lon="11.112542"><ele>56.25</ele></trkpt>
   <trkpt lat="52.464364" lon="11.110586"><ele>56</ele></trkpt>
   <trkpt lat="52.464228" lon="11.109885"><ele>55.75</ele></trkpt>
   <trkpt lat="52.464165" lon="11.109559"><ele>56</ele></trkpt>
   <trkpt lat="52.46369" lon="11.107084"><ele>56</ele></trkpt>
   <trkpt lat="52.463379" lon="11.105477"><ele>57.25</ele></trkpt>
   <trkpt lat="52.463258" lon="11.104859"><ele>57.75</ele></trkpt>
   <trkpt lat="52.463177" lon="11.104431"><ele>57.75</ele></trkpt>
   <trkpt lat="52.463144" lon="11.104258"><ele>57.5</ele></trkpt>
   <trkpt lat="52.462618" lon="11.101489"><ele>56.5</ele></trkpt>
   <trkpt lat="52.462436" lon="11.100459"><ele>56</ele></trkpt>
   <trkpt lat="52.462135" lon="11.09868"><ele>57</ele></trkpt>
   <trkpt lat="52.461667" lon="11.095816"><ele>56.75</ele></trkpt>
   <trkpt lat="52.461298" lon="11.093737"><ele>56.25</ele></trkpt>
   <trkpt lat="52.461159" lon="11.092984"><ele>57</ele></trkpt>
   <trkpt lat="52.460913" lon="11.091721"><ele>57.75</ele></trkpt>
   <trkpt lat="52.460819" lon="11.091225"><ele>57.5</ele></trkpt>
   <trkpt lat="52.460646" lon="11.090326"><ele>57.5</ele></trkpt>
   <trkpt lat="52.460611" lon="11.090146"><ele>57.75</ele></trkpt>
   <trkpt lat="52.460078" lon="11.087383"><ele>56.75</ele></trkpt>
   <trkpt lat="52.459537" lon="11.084578"><ele>57.75</ele></trkpt>
   <trkpt lat="52.458994" lon="11.081761"><ele>58</ele></trkpt>
   <trkpt lat="52.458847" lon="11.081007"><ele>58.25</ele></trkpt>
   <trkpt lat="52.458712" lon="11.080308"><ele>58.5</ele></trkpt>
   <trkpt lat="52.458453" lon="11.078957"><ele>58.5</ele></trkpt>
   <trkpt lat="52.458385" lon="11.07861"><ele>58.75</ele></trkpt>
   <trkpt lat="52.458342" lon="11.078387"><ele>58.75</ele></trkpt>
   <trkpt lat="52.457912" lon="11.076156"><ele>59.5</ele></trkpt>
   <trkpt lat="52.457777" lon="11.075456"><ele>59.5</ele></trkpt>
   <trkpt lat="52.457473" lon="11.073881"><ele>54.5</ele></trkpt>
   <trkpt lat="52.457445" lon="11.073737"><ele>54</ele></trkpt>
   <trkpt lat="52.457105" lon="11.071978"><ele>56.5</ele></trkpt>
   <trkpt lat="52.456987" lon="11.071362"><ele>57.5</ele></trkpt>
   <trkpt lat="52.456946" lon="11.071153"><ele>57.75</ele></trkpt>
   <trkpt lat="52.45683" lon="11.070547"><ele>58.5</ele></trkpt>
   <trkpt lat="52.456288" lon="11.06774"><ele>57.75</ele></trkpt>
   <trkpt lat="52.455746" lon="11.064934"><ele>57</ele></trkpt>
   <trkpt lat="52.455205" lon="11.062126"><ele>58</ele></trkpt>
   <trkpt lat="52.45507" lon="11.061427"><ele>58.5</ele></trkpt>
   <trkpt lat="52.45466" lon="11.059338"><ele>56.5</ele></trkpt>
   <trkpt lat="52.454558" lon="11.05884"><ele>56.25</ele></trkpt>
   <trkpt lat="52.454088" lon="11.056646"><ele>57</ele></trkpt>
   <trkpt lat="52.453878" lon="11.055712"><ele>57</ele></trkpt>
   <trkpt lat="52.453773" lon="11.055242"><ele>57</ele></trkpt>
   <trkpt lat="52.453447" lon="11.053785"><ele>57</ele></trkpt>
   <trkpt lat="52.453056" lon="11.052023"><ele>56</ele></trkpt>
   <trkpt lat="52.452845" lon="11.051028"><ele>55.75</ele></trkpt>
   <trkpt lat="52.452659" lon="11.050124"><ele>55</ele></trkpt>
   <trkpt lat="52.452404" lon="11.048837"><ele>56</ele></trkpt>
   <trkpt lat="52.44882" lon="11.030334"><ele>57.25</ele></trkpt>
   <trkpt lat="52.44689" lon="11.020373"><ele>59</ele></trkpt>
   <trkpt lat="52.446444" lon="11.018098"><ele>60.5</ele></trkpt>
   <trkpt lat="52.445906" lon="11.015324"><ele>60.5</ele></trkpt>
   <trkpt lat="52.445815" lon="11.014878"><ele>60.75</ele></trkpt>
   <trkpt lat="52.445653" lon="11.014107"><ele>60</ele></trkpt>
   <trkpt lat="52.444887" lon="11.010632"><ele>59.5</ele></trkpt>
   <trkpt lat="52.444859" lon="11.010495"><ele>59.25</ele></trkpt>
   <trkpt lat="52.4448" lon="11.010197"><ele>59</ele></trkpt>
   <trkpt lat="52.444754" lon="11.009907"><ele>59</ele></trkpt>
   <trkpt lat="52.444647" lon="11.009334"><ele>59.75</ele></trkpt>
   <trkpt lat="52.444439" lon="11.008395"><ele>60.75</ele></trkpt>
   <trkpt lat="52.444114" lon="11.00692"><ele>61.75</ele></trkpt>
   <trkpt lat="52.443996" lon="11.006441"><ele>61.25</ele></trkpt>
   <trkpt lat="52.443915" lon="11.006159"><ele>60.75</ele></trkpt>
   <trkpt lat="52.443819" lon="11.00579"><ele>60.5</ele></trkpt>
   <trkpt lat="52.443159" lon="11.002799"><ele>60</ele></trkpt>
   <trkpt lat="52.442865" lon="11.001405"><ele>59.75</ele></trkpt>
   <trkpt lat="52.442097" lon="10.997628"><ele>61</ele></trkpt>
   <trkpt lat="52.441861" lon="10.99647"><ele>61</ele></trkpt>
   <trkpt lat="52.441712" lon="10.995741"><ele>61</ele></trkpt>
   <trkpt lat="52.441706" lon="10.995714"><ele>60.75</ele></trkpt>
   <trkpt lat="52.441148" lon="10.992967"><ele>60</ele></trkpt>
   <trkpt lat="52.440283" lon="10.988726"><ele>60.25</ele></trkpt>
   <trkpt lat="52.4399" lon="10.986865"><ele>60</ele></trkpt>
   <trkpt lat="52.43952" lon="10.985114"><ele>62</ele></trkpt>
   <trkpt lat="52.439252" lon="10.983899"><ele>61.5</ele></trkpt>
   <trkpt lat="52.43903" lon="10.982893"><ele>60</ele></trkpt>
   <trkpt lat="52.438685" lon="10.981332"><ele>60</ele></trkpt>
   <trkpt lat="52.438398" lon="10.980123"><ele>60</ele></trkpt>
   <trkpt lat="52.438263" lon="10.97958"><ele>61</ele></trkpt>
   <trkpt lat="52.437778" lon="10.977688"><ele>61.5</ele></trkpt>
   <trkpt lat="52.437087" lon="10.974991"><ele>60.5</ele></trkpt>
   <trkpt lat="52.436836" lon="10.973945"><ele>60.75</ele></trkpt>
   <trkpt lat="52.436484" lon="10.972379"><ele>59.75</ele></trkpt>
   <trkpt lat="52.436286" lon="10.971439"><ele>59.5</ele></trkpt>
   <trkpt lat="52.436255" lon="10.971281"><ele>59.5</ele></trkpt>
   <trkpt lat="52.436205" lon="10.971032"><ele>59.75</ele></trkpt>
   <trkpt lat="52.436137" lon="10.970647"><ele>60.25</ele></trkpt>
   <trkpt lat="52.436065" lon="10.970179"><ele>60.25</ele></trkpt>
   <trkpt lat="52.43592" lon="10.969137"><ele>60</ele></trkpt>
   <trkpt lat="52.435848" lon="10.968658"><ele>60</ele></trkpt>
   <trkpt lat="52.435734" lon="10.967972"><ele>60</ele></trkpt>
   <trkpt lat="52.435583" lon="10.967152"><ele>60</ele></trkpt>
   <trkpt lat="52.435571" lon="10.967096"><ele>60</ele></trkpt>
   <trkpt lat="52.435563" lon="10.967056"><ele>60</ele></trkpt>
   <trkpt lat="52.435437" lon="10.966439"><ele>59.75</ele></trkpt>
   <trkpt lat="52.435237" lon="10.965385"><ele>60.25</ele></trkpt>
   <trkpt lat="52.435209" lon="10.965231"><ele>60.25</ele></trkpt>
   <trkpt lat="52.434948" lon="10.96383"><ele>60</ele></trkpt>
   <trkpt lat="52.434748" lon="10.962855"><ele>59.75</ele></trkpt>
   <trkpt lat="52.434591" lon="10.962088"><ele>59.75</ele></trkpt>
   <trkpt lat="52.434579" lon="10.962028"><ele>60</ele></trkpt>
   <trkpt lat="52.434506" lon="10.961659"><ele>60</ele></trkpt>
   <trkpt lat="52.434149" lon="10.959871"><ele>60</ele></trkpt>
   <trkpt lat="52.434042" lon="10.959294"><ele>60.75</ele></trkpt>
   <trkpt lat="52.433927" lon="10.958691"><ele>61.5</ele></trkpt>
   <trkpt lat="52.433814" lon="10.958087"><ele>61.25</ele></trkpt>
   <trkpt lat="52.433558" lon="10.956595"><ele>59</ele></trkpt>
   <trkpt lat="52.433457" lon="10.955933"><ele>59.5</ele></trkpt>
   <trkpt lat="52.433268" lon="10.9547"><ele>60</ele></trkpt>
   <trkpt lat="52.433057" lon="10.953125"><ele>59.75</ele></trkpt>
   <trkpt lat="52.432907" lon="10.951924"><ele>59.5</ele></trkpt>
   <trkpt lat="52.432741" lon="10.950371"><ele>59</ele></trkpt>
   <trkpt lat="52.432562" lon="10.948373"><ele>57</ele></trkpt>
   <trkpt lat="52.432521" lon="10.947825"><ele>58</ele></trkpt>
   <trkpt lat="52.432451" lon="10.94686"><ele>59.5</ele></trkpt>
   <trkpt lat="52.432374" lon="10.945559"><ele>58.5</ele></trkpt>
   <trkpt lat="52.43235" lon="10.945054"><ele>58</ele></trkpt>
   <trkpt lat="52.432348" lon="10.945003"><ele>58</ele></trkpt>
   <trkpt lat="52.432308" lon="10.944112"><ele>57</ele></trkpt>
   <trkpt lat="52.432258" lon="10.942761"><ele>57.25</ele></trkpt>
   <trkpt lat="52.432246" lon="10.942115"><ele>57.25</ele></trkpt>
   <trkpt lat="52.432186" lon="10.938427"><ele>58</ele></trkpt>
   <trkpt lat="52.432186" lon="10.938392"><ele>58</ele></trkpt>
   <trkpt lat="52.43217" lon="10.937347"><ele>59</ele></trkpt>
   <trkpt lat="52.432167" lon="10.93706"><ele>59</ele></trkpt>
   <trkpt lat="52.432164" lon="10.936823"><ele>59.25</ele></trkpt>
   <trkpt lat="52.432118" lon="10.933237"><ele>64.25</ele></trkpt>
   <trkpt lat="52.432072" lon="10.929581"><ele>62.25</ele></trkpt>
   <trkpt lat="52.432037" lon="10.926866"><ele>61.5</ele></trkpt>
   <trkpt lat="52.432005" lon="10.924375"><ele>61.75</ele></trkpt>
   <trkpt lat="52.432005" lon="10.924315"><ele>62</ele></trkpt>
   <trkpt lat="52.431961" lon="10.920866"><ele>62.5</ele></trkpt>
   <trkpt lat="52.43196" lon="10.920807"><ele>62.5</ele></trkpt>
   <trkpt lat="52.431944" lon="10.919603"><ele>62.25</ele></trkpt>
   <trkpt lat="52.431926" lon="10.918192"><ele>62</ele></trkpt>
   <trkpt lat="52.431893" lon="10.91555"><ele>63.25</ele></trkpt>
   <trkpt lat="52.431848" lon="10.912012"><ele>59.75</ele></trkpt>
   <trkpt lat="52.431827" lon="10.910395"><ele>58</ele></trkpt>
   <trkpt lat="52.431816" lon="10.909496"><ele>57.75</ele></trkpt>
   <trkpt lat="52.431777" lon="10.90679"><ele>58</ele></trkpt>
   <trkpt lat="52.431747" lon="10.904961"><ele>56.75</ele></trkpt>
   <trkpt lat="52.431718" lon="10.903196"><ele>56.25</ele></trkpt>
   <trkpt lat="52.431676" lon="10.900548"><ele>61.5</ele></trkpt>
   <trkpt lat="52.431635" lon="10.898032"><ele>63</ele></trkpt>
   <trkpt lat="52.431596" lon="10.895627"><ele>64.5</ele></trkpt>
   <trkpt lat="52.43157" lon="10.894403"><ele>65</ele></trkpt>
   <trkpt lat="52.431518" lon="10.891853"><ele>65.75</ele></trkpt>
   <trkpt lat="52.431464" lon="10.889187"><ele>64.5</ele></trkpt>
   <trkpt lat="52.43143" lon="10.887554"><ele>64.25</ele></trkpt>
   <trkpt lat="52.431395" lon="10.885651"><ele>64.5</ele></trkpt>
   <trkpt lat="52.431362" lon="10.883152"><ele>64</ele></trkpt>
   <trkpt lat="52.431326" lon="10.880421"><ele>62</ele></trkpt>
   <trkpt lat="52.431314" lon="10.879523"><ele>60</ele></trkpt>
   <trkpt lat="52.431278" lon="10.876787"><ele>57.25</ele></trkpt>
   <trkpt lat="52.431242" lon="10.874064"><ele>58.25</ele></trkpt>
   <trkpt lat="52.431234" lon="10.873506"><ele>58.25</ele></trkpt>
   <trkpt lat="52.431203" lon="10.871161"><ele>59.25</ele></trkpt>
   <trkpt lat="52.43119" lon="10.870394"><ele>58.75</ele></trkpt>
   <trkpt lat="52.431186" lon="10.870026"><ele>58.5</ele></trkpt>
   <trkpt lat="52.43117" lon="10.869563"><ele>58.25</ele></trkpt>
   <trkpt lat="52.431166" lon="10.869441"><ele>58.25</ele></trkpt>
   <trkpt lat="52.431146" lon="10.868041"><ele>58.5</ele></trkpt>
   <trkpt lat="52.431141" lon="10.867712"><ele>59</ele></trkpt>
   <trkpt lat="52.431094" lon="10.864446"><ele>57.5</ele></trkpt>
   <trkpt lat="52.431071" lon="10.86283"><ele>57.25</ele></trkpt>
   <trkpt lat="52.431061" lon="10.862149"><ele>57.5</ele></trkpt>
   <trkpt lat="52.431025" lon="10.859676"><ele>58.75</ele></trkpt>
   <trkpt lat="52.430984" lon="10.856458"><ele>59</ele></trkpt>
   <trkpt lat="52.430962" lon="10.85504"><ele>59</ele></trkpt>
   <trkpt lat="52.430938" lon="10.853324"><ele>59.75</ele></trkpt>
   <trkpt lat="52.430925" lon="10.852404"><ele>59</ele></trkpt>
   <trkpt lat="52.430901" lon="10.850749"><ele>59</ele></trkpt>
   <trkpt lat="52.430862" lon="10.848074"><ele>57.75</ele></trkpt>
   <trkpt lat="52.430859" lon="10.847836"><ele>57.75</ele></trkpt>
   <trkpt lat="52.430855" lon="10.847612"><ele>57.75</ele></trkpt>
   <trkpt lat="52.430854" lon="10.84749"><ele>57.75</ele></trkpt>
   <trkpt lat="52.430846" lon="10.84691"><ele>57.75</ele></trkpt>
   <trkpt lat="52.430825" lon="10.845255"><ele>58.75</ele></trkpt>
   <trkpt lat="52.430823" lon="10.845138"><ele>58.75</ele></trkpt>
   <trkpt lat="52.430822" lon="10.84508"><ele>58.75</ele></trkpt>
   <trkpt lat="52.430759" lon="10.840766"><ele>60.75</ele></trkpt>
   <trkpt lat="52.430736" lon="10.839145"><ele>63</ele></trkpt>
   <trkpt lat="52.430685" lon="10.835624"><ele>60.75</ele></trkpt>
   <trkpt lat="52.43065" lon="10.833206"><ele>59</ele></trkpt>
   <trkpt lat="52.430615" lon="10.830835"><ele>57.25</ele></trkpt>
   <trkpt lat="52.4306" lon="10.829761"><ele>57</ele></trkpt>
   <trkpt lat="52.430564" lon="10.82722"><ele>58</ele></trkpt>
   <trkpt lat="52.430525" lon="10.824493"><ele>56</ele></trkpt>
   <trkpt lat="52.430487" lon="10.821886"><ele>57</ele></trkpt>
   <trkpt lat="52.430478" lon="10.821264"><ele>57.5</ele></trkpt>
   <trkpt lat="52.43044" lon="10.818622"><ele>60</ele></trkpt>
   <trkpt lat="52.430388" lon="10.815071"><ele>58.25</ele></trkpt>
   <trkpt lat="52.430387" lon="10.815044"><ele>58.25</ele></trkpt>
   <trkpt lat="52.430351" lon="10.812509"><ele>57</ele></trkpt>
   <trkpt lat="52.430342" lon="10.811836"><ele>57</ele></trkpt>
   <trkpt lat="52.430305" lon="10.809206"><ele>57.25</ele></trkpt>
   <trkpt lat="52.430279" lon="10.807331"><ele>56.25</ele></trkpt>
   <trkpt lat="52.430279" lon="10.807275"><ele>56.25</ele></trkpt>
   <trkpt lat="52.430256" lon="10.806585"><ele>56.25</ele></trkpt>
   <trkpt lat="52.430223" lon="10.805886"><ele>56.5</ele></trkpt>
   <trkpt lat="52.4302" lon="10.805086"><ele>56.75</ele></trkpt>
   <trkpt lat="52.430193" lon="10.804782"><ele>56.5</ele></trkpt>
   <trkpt lat="52.43019" lon="10.804525"><ele>56.25</ele></trkpt>
   <trkpt lat="52.430171" lon="10.803103"><ele>56.25</ele></trkpt>
   <trkpt lat="52.430134" lon="10.800615"><ele>58</ele></trkpt>
   <trkpt lat="52.430132" lon="10.800494"><ele>58.25</ele></trkpt>
   <trkpt lat="52.430107" lon="10.799521"><ele>58.75</ele></trkpt>
   <trkpt lat="52.430083" lon="10.798871"><ele>58.75</ele></trkpt>
   <trkpt lat="52.43004" lon="10.797988"><ele>58.75</ele></trkpt>
   <trkpt lat="52.429876" lon="10.795367"><ele>59</ele></trkpt>
   <trkpt lat="52.429743" lon="10.793348"><ele>60.25</ele></trkpt>
   <trkpt lat="52.429738" lon="10.79327"><ele>60.25</ele></trkpt>
   <trkpt lat="52.429717" lon="10.792793"><ele>60.5</ele></trkpt>
   <trkpt lat="52.429722" lon="10.791264"><ele>60.75</ele></trkpt>
   <trkpt lat="52.429705" lon="10.790884"><ele>60.75</ele></trkpt>
   <trkpt lat="52.429692" lon="10.790703"><ele>60.75</ele></trkpt>
   <trkpt lat="52.429624" lon="10.789647"><ele>60</ele></trkpt>
   <trkpt lat="52.429619" lon="10.789562"><ele>60</ele></trkpt>
   <trkpt lat="52.429406" lon="10.786301"><ele>57.75</ele></trkpt>
   <trkpt lat="52.429403" lon="10.786266"><ele>57.75</ele></trkpt>
   <trkpt lat="52.429317" lon="10.784951"><ele>56.5</ele></trkpt>
  </trkseg>
 </trk>
</gpx>