<?xml version="1.0" encoding="UTF-8"?>
<!-- track-length = 36170 filtered ascend = 43 plain-ascend = -2 cost=36170 energy=0.4kwh time=48m 14s -->
<gpx 
 xmlns="http://www.topografix.com/GPX/1/1" 
 xmlns:xsi="http://www.w3.org/2001/XMLSchema-instance" 
 xsi:schemaLocation="http://www.topografix.com/GPX/1/1 http://www.topografix.com/GPX/1/1/gpx.xsd" 
 version="1.1" 
 creator="BRouter-Web 0.18.1">
 <trk>
  <name>Stendal - Rathenow (Lehrter Bahn)</name>
  <trkseg>
   <trkpt lat="52.594605" lon="11.852902"><ele>31</ele></trkpt>
   <trkpt lat="52.594797" lon="11.854691"><ele>32</ele></trkpt>
   <trkpt lat="52.594979" lon="11.856262"><ele>32.25</ele></trkpt>
   <trkpt lat="52.595038" lon="11.856743"><ele>32</ele></trkpt>
   <trkpt lat="52.595062" lon="11.856969"><ele>32</ele></trkpt>
   <trkpt lat="52.59507" lon="11.857049"><ele>32</ele></trkpt>
   <trkpt lat="52.595158" lon="11.857876"><ele>32.25</ele></trkpt>
   <trkpt lat="52.595227" lon="11.858759"><ele>31.75</ele></trkpt>
   <trkpt lat="52.595245" lon="11.859108"><ele>31.5</ele></trkpt>
   <trkpt lat="52.595288" lon="11.85987"><ele>30.75</ele></trkpt>
   <trkpt lat="52.595356" lon="11.861352"><ele>32</ele></trkpt>
   <trkpt lat="52.595389" lon="11.861897"><ele>32.25</ele></trkpt>
   <trkpt lat="52.595452" lon="11.862499"><ele>31.75</ele></trkpt>
   <trkpt lat="52.595546" lon="11.86436"><ele>31</ele></trkpt>
   <trkpt lat="52.595656" lon="11.866599"><ele>32</ele></trkpt>
   <trkpt lat="52.595751" lon="11.868591"><ele>31.75</ele></trkpt>
   <trkpt lat="52.595782" lon="11.869622"><ele>31.25</ele></trkpt>
   <trkpt lat="52.595817" lon="11.871691"><ele>31</ele></trkpt>
   <trkpt lat="52.595842" lon="11.873662"><ele>29.75</ele></trkpt>
   <trkpt lat="52.595847" lon="11.874197"><ele>30</ele></trkpt>
   <trkpt lat="52.595864" lon="11.875053"><ele>31</ele></trkpt>
   <trkpt lat="52.595851" lon="11.876369"><ele>33.25</ele></trkpt>
   <trkpt lat="52.59587" lon="11.877815"><ele>32.75</ele></trkpt>
   <trkpt lat="52.595892" lon="11.8794"><ele>30.5</ele></trkpt>
   <trkpt lat="52.595896" lon="11.880337"><ele>29.25</ele></trkpt>
   <trkpt lat="52.595899" lon="11.881256"><ele>30.5</ele></trkpt>
   <trkpt lat="52.595899" lon="11.881271"><ele>30.5</ele></trkpt>
   <trkpt lat="52.595899" lon="11.881291"><ele>30.5</ele></trkpt>
   <trkpt lat="52.595904" lon="11.882838"><ele>30.5</ele></trkpt>
   <trkpt lat="52.595916" lon="11.886211"><ele>29.25</ele></trkpt>
   <trkpt lat="52.595926" lon="11.888852"><ele>29.5</ele></trkpt>
   <trkpt lat="52.595935" lon="11.891669"><ele>27.75</ele></trkpt>
   <trkpt lat="52.595938" lon="11.892442"><ele>28</ele></trkpt>
   <trkpt lat="52.59595" lon="11.894753"><ele>28</ele></trkpt>
   <trkpt lat="52.595959" lon="11.896933"><ele>29.5</ele></trkpt>
   <trkpt lat="52.595963" lon="11.897839"><ele>29.25</ele></trkpt>
   <trkpt lat="52.595964" lon="11.898066"><ele>29</ele></trkpt>
   <trkpt lat="52.595973" lon="11.900793"><ele>28</ele></trkpt>
   <trkpt lat="52.595984" lon="11.903469"><ele>30.75</ele></trkpt>
   <trkpt lat="52.595987" lon="11.904794"><ele>32.5</ele></trkpt>
   <trkpt lat="52.595993" lon="11.906119"><ele>32.75</ele></trkpt>
   <trkpt lat="52.596004" lon="11.909409"><ele>30.75</ele></trkpt>
   <trkpt lat="52.596014" lon="11.912529"><ele>30.5</ele></trkpt>
   <trkpt lat="52.596014" lon="11.91268"><ele>30.75</ele></trkpt>
   <trkpt lat="52.596025" lon="11.914828"><ele>30</ele></trkpt>
   <trkpt lat="52.596025" lon="11.915075"><ele>30</ele></trkpt>
   <trkpt lat="52.596026" lon="11.915562"><ele>30</ele></trkpt>
   <trkpt lat="52.596038" lon="11.918435"><ele>30.75</ele></trkpt>
   <trkpt lat="52.596083" lon="11.932562"><ele>30.75</ele></trkpt>
   <trkpt lat="52.596133" lon="11.935158"><ele>32</ele></trkpt>
   <trkpt lat="52.596146" lon="11.938491"><ele>34.25</ele></trkpt>
   <trkpt lat="52.596155" lon="11.940656"><ele>34.25</ele></trkpt>
   <trkpt lat="52.59617" lon="11.94144"><ele>34</ele></trkpt>
   <trkpt lat="52.596189" lon="11.942062"><ele>34.25</ele></trkpt>
   <trkpt lat="52.596206" lon="11.942624"><ele>35</ele></trkpt>
   <trkpt lat="52.596215" lon="11.942754"><ele>34.75</ele></trkpt>
   <trkpt lat="52.596295" lon="11.944171"><ele>33.5</ele></trkpt>
   <trkpt lat="52.596395" lon="11.945257"><ele>32.5</ele></trkpt>
   <trkpt lat="52.596646" lon="11.94774"><ele>32.5</ele></trkpt>
   <trkpt lat="52.59679" lon="11.949152"><ele>30.75</ele></trkpt>
   <trkpt lat="52.597184" lon="11.953001"><ele>30.75</ele></trkpt>
   <trkpt lat="52.597195" lon="11.953114"><ele>30.5</ele></trkpt>
   <trkpt lat="52.597694" lon="11.958025"><ele>33.5</ele></trkpt>
   <trkpt lat="52.597838" lon="11.959425"><ele>34.5</ele></trkpt>
   <trkpt lat="52.598734" lon="11.968207"><ele>36.25</ele></trkpt>
   <trkpt lat="52.598959" lon="11.970361"><ele>35.5</ele></trkpt>
   <trkpt lat="52.599089" lon="11.97159"><ele>36.75</ele></trkpt>
   <trkpt lat="52.599778" lon="11.97839"><ele>36.75</ele></trkpt>
   <trkpt lat="52.599893" lon="11.97991"><ele>36.5</ele></trkpt>
   <trkpt lat="52.599954" lon="11.981444"><ele>37.5</ele></trkpt>
   <trkpt lat="52.599976" lon="11.982675"><ele>37.5</ele></trkpt>
   <trkpt lat="52.599966" lon="11.984066"><ele>36.75</ele></trkpt>
   <trkpt lat="52.599908" lon="11.985643"><ele>36.75</ele></trkpt>
   <trkpt lat="52.599891" lon="11.985936"><ele>36.5</ele></trkpt>
   <trkpt lat="52.599809" lon="11.987011"><ele>35.75</ele></trkpt>
   <trkpt lat="52.599653" lon="11.988586"><ele>36</ele></trkpt>
   <trkpt lat="52.599551" lon="11.989392"><ele>36</ele></trkpt>
   <trkpt lat="52.599405" lon="11.990379"><ele>36.25</ele></trkpt>
   <trkpt lat="52.599297" lon="11.991037"><ele>37</ele></trkpt>
   <trkpt lat="52.599225" lon="11.991438"><ele>37.5</ele></trkpt>
   <trkpt lat="52.598676" lon="11.994263"><ele>37.75</ele></trkpt>
   <trkpt lat="52.598479" lon="11.99526"><ele>37.25</ele></trkpt>
   <trkpt lat="52.597593" lon="11.999738"><ele>35.75</ele></trkpt>
   <trkpt lat="52.597263" lon="12.001446"><ele>35.25</ele></trkpt>
   <trkpt lat="52.596146" lon="12.007125"><ele>33.5</ele></trkpt>
   <trkpt lat="52.595916" lon="12.008328"><ele>33.5</ele></trkpt>
   <trkpt lat="52.595365" lon="12.011408"><ele>33</ele></trkpt>
   <trkpt lat="52.595277" lon="12.011899"><ele>32.75</ele></trkpt>
   <trkpt lat="52.594911" lon="12.013807"><ele>33.5</ele></trkpt>
   <trkpt lat="52.594523" lon="12.015767"><ele>30.75</ele></trkpt>
   <trkpt lat="52.594295" lon="12.016933"><ele>30.75</ele></trkpt>
   <trkpt lat="52.593836" lon="12.019282"><ele>30.75</ele></trkpt>
   <trkpt lat="52.593299" lon="12.021984"><ele>30.75</ele></trkpt>
   <trkpt lat="52.593189" lon="12.022539"><ele>30.5</ele></trkpt>
   <trkpt lat="52.592259" lon="12.027261"><ele>30.25</ele></trkpt>
   <trkpt lat="52.591998" lon="12.028672"><ele>29.75</ele></trkpt>
   <trkpt lat="52.591804" lon="12.029823"><ele>29.75</ele></trkpt>
   <trkpt lat="52.591654" lon="12.030866"><ele>30</ele></trkpt>
   <trkpt lat="52.591482" lon="12.032195"><ele>30.75</ele></trkpt>
   <trkpt lat="52.591333" lon="12.03353"><ele>32</ele></trkpt>
   <trkpt lat="52.591312" lon="12.03376"><ele>31.75</ele></trkpt>
   <trkpt lat="52.591243" lon="12.034503"><ele>31.25</ele></trkpt>
   <trkpt lat="52.591202" lon="12.035584"><ele>31</ele></trkpt>
   <trkpt lat="52.591187" lon="12.035964"><ele>31</ele></trkpt>
   <trkpt lat="52.591147" lon="12.036678"><ele>31</ele></trkpt>
   <trkpt lat="52.591105" lon="12.037446"><ele>31</ele></trkpt>
   <trkpt lat="52.591013" lon="12.038957"><ele>31.5</ele></trkpt>
   <trkpt lat="52.590762" lon="12.043416"><ele>29.75</ele></trkpt>
   <trkpt lat="52.590467" lon="12.048305"><ele>29.5</ele></trkpt>
   <trkpt lat="52.590415" lon="12.049164"><ele>29.25</ele></trkpt>
   <trkpt lat="52.590388" lon="12.04963"><ele>29</ele></trkpt>
   <trkpt lat="52.590355" lon="12.050028"><ele>29</ele></trkpt>
   <trkpt lat="52.590298" lon="12.05057"><ele>28.75</ele></trkpt>
   <trkpt lat="52.590251" lon="12.051108"><ele>29.25</ele></trkpt>
   <trkpt lat="52.590204" lon="12.052125"><ele>30</ele></trkpt>
   <trkpt lat="52.59016" lon="12.053559"><ele>29</ele></trkpt>
   <trkpt lat="52.590158" lon="12.053626"><ele>29</ele></trkpt>
   <trkpt lat="52.590155" lon="12.053801"><ele>29</ele></trkpt>
   <trkpt lat="52.590153" lon="12.053917"><ele>29</ele></trkpt>
   <trkpt lat="52.590145" lon="12.05512"><ele>29</ele></trkpt>
   <trkpt lat="52.590164" lon="12.056508"><ele>28.25</ele></trkpt>
   <trkpt lat="52.590196" lon="12.058779"><ele>29</ele></trkpt>
   <trkpt lat="52.590196" lon="12.059347"><ele>29.25</ele></trkpt>
   <trkpt lat="52.590201" lon="12.060354"><ele>30</ele></trkpt>
   <trkpt lat="52.590207" lon="12.0632"><ele>29</ele></trkpt>
   <trkpt lat="52.590213" lon="12.066152"><ele>28.5</ele></trkpt>
   <trkpt lat="52.590218" lon="12.069085"><ele>28</ele></trkpt>
   <trkpt lat="52.590225" lon="12.072057"><ele>30.25</ele></trkpt>
   <trkpt lat="52.590229" lon="12.074086"><ele>29</ele></trkpt>
   <trkpt lat="52.590231" lon="12.074732"><ele>29</ele></trkpt>
   <trkpt lat="52.590237" lon="12.077706"><ele>27.25</ele></trkpt>
   <trkpt lat="52.590247" lon="12.081243"><ele>28</ele></trkpt>
   <trkpt lat="52.590255" lon="12.083896"><ele>28</ele></trkpt>
   <trkpt lat="52.590266" lon="12.086558"><ele>27.5</ele></trkpt>
   <trkpt lat="52.590265" lon="12.08866"><ele>29</ele></trkpt>
   <trkpt lat="52.590264" lon="12.08888"><ele>29</ele></trkpt>
   <trkpt lat="52.590266" lon="12.08995"><ele>28</ele></trkpt>
   <trkpt lat="52.590276" lon="12.092692"><ele>28.25</ele></trkpt>
   <trkpt lat="52.590279" lon="12.094647"><ele>28</ele></trkpt>
   <trkpt lat="52.590279" lon="12.094858"><ele>28</ele></trkpt>
   <trkpt lat="52.59028" lon="12.095489"><ele>28.25</ele></trkpt>
   <trkpt lat="52.590287" lon="12.098271"><ele>27.75</ele></trkpt>
   <trkpt lat="52.590296" lon="12.101883"><ele>27</ele></trkpt>
   <trkpt lat="52.590305" lon="12.104402"><ele>28</ele></trkpt>
   <trkpt lat="52.590308" lon="12.105104"><ele>28</ele></trkpt>
   <trkpt lat="52.590309" lon="12.105302"><ele>28</ele></trkpt>
   <trkpt lat="52.590312" lon="12.107148"><ele>27.5</ele></trkpt>
   <trkpt lat="52.590312" lon="12.107286"><ele>27.5</ele></trkpt>
   <trkpt lat="52.590316" lon="12.110147"><ele>27</ele></trkpt>
   <trkpt lat="52.590321" lon="12.113034"><ele>28</ele></trkpt>
   <trkpt lat="52.590328" lon="12.11436"><ele>29</ele></trkpt>
   <trkpt lat="52.590328" lon="12.114624"><ele>29.25</ele></trkpt>
   <trkpt lat="52.590332" lon="12.116423"><ele>31.25</ele></trkpt>
   <trkpt lat="52.590337" lon="12.119038"><ele>32.5</ele></trkpt>
   <trkpt lat="52.590342" lon="12.121998"><ele>32.5</ele></trkpt>
   <trkpt lat="52.590346" lon="12.124245"><ele>33.5</ele></trkpt>
   <trkpt lat="52.590348" lon="12.124957"><ele>34.5</ele></trkpt>
   <trkpt lat="52.590349" lon="12.125595"><ele>34.5</ele></trkpt>
   <trkpt lat="52.59035" lon="12.12646"><ele>34.5</ele></trkpt>
   <trkpt lat="52.59035" lon="12.126487"><ele>34.5</ele></trkpt>
   <trkpt lat="52.59035" lon="12.126548"><ele>34.5</ele></trkpt>
   <trkpt lat="52.590306" lon="12.12772"><ele>33.75</ele></trkpt>
   <trkpt lat="52.590308" lon="12.128477"><ele>33.25</ele></trkpt>
   <trkpt lat="52.590311" lon="12.131269"><ele>36.25</ele></trkpt>
   <trkpt lat="52.590331" lon="12.142532"><ele>38</ele></trkpt>
   <trkpt lat="52.590338" lon="12.146249"><ele>39.75</ele></trkpt>
   <trkpt lat="52.590343" lon="12.146825"><ele>40</ele></trkpt>
   <trkpt lat="52.590386" lon="12.148102"><ele>41</ele></trkpt>
   <trkpt lat="52.590387" lon="12.148237"><ele>41.25</ele></trkpt>
   <trkpt lat="52.590387" lon="12.1485"><ele>41.5</ele></trkpt>
   <trkpt lat="52.590388" lon="12.148737"><ele>41.75</ele></trkpt>
   <trkpt lat="52.59039" lon="12.150022"><ele>43.75</ele></trkpt>
   <trkpt lat="52.590393" lon="12.151444"><ele>43.5</ele></trkpt>
   <trkpt lat="52.590398" lon="12.15374"><ele>45.5</ele></trkpt>
   <trkpt lat="52.5904" lon="12.155024"><ele>46</ele></trkpt>
   <trkpt lat="52.590405" lon="12.157527"><ele>45</ele></trkpt>
   <trkpt lat="52.590411" lon="12.160265"><ele>43</ele></trkpt>
   <trkpt lat="52.590418" lon="12.163994"><ele>46.75</ele></trkpt>
   <trkpt lat="52.590422" lon="12.166768"><ele>46.25</ele></trkpt>
   <trkpt lat="52.590427" lon="12.168441"><ele>46.25</ele></trkpt>
   <trkpt lat="52.590429" lon="12.169471"><ele>46.5</ele></trkpt>
   <trkpt lat="52.590428" lon="12.171086"><ele>46.25</ele></trkpt>
   <trkpt lat="52.590434" lon="12.17198"><ele>46.5</ele></trkpt>
   <trkpt lat="52.590438" lon="12.174765"><ele>48.75</ele></trkpt>
   <trkpt lat="52.590444" lon="12.178483"><ele>47.75</ele></trkpt>
   <trkpt lat="52.590449" lon="12.181278"><ele>45.5</ele></trkpt>
   <trkpt lat="52.590453" lon="12.183788"><ele>43.25</ele></trkpt>
   <trkpt lat="52.590459" lon="12.187415"><ele>43.75</ele></trkpt>
   <trkpt lat="52.590464" lon="12.1902"><ele>41</ele></trkpt>
   <trkpt lat="52.590468" lon="12.19299"><ele>43</ele></trkpt>
   <trkpt lat="52.590473" lon="12.195731"><ele>40.25</ele></trkpt>
   <trkpt lat="52.590476" lon="12.197261"><ele>41.25</ele></trkpt>
   <trkpt lat="52.590479" lon="12.199129"><ele>43.5</ele></trkpt>
   <trkpt lat="52.590483" lon="12.201655"><ele>43</ele></trkpt>
   <trkpt lat="52.590489" lon="12.205112"><ele>38.75</ele></trkpt>
   <trkpt lat="52.590494" lon="12.207782"><ele>33.75</ele></trkpt>
   <trkpt lat="52.590497" lon="12.210279"><ele>32.75</ele></trkpt>
   <trkpt lat="52.590488" lon="12.212017"><ele>31.5</ele></trkpt>
   <trkpt lat="52.590485" lon="12.212776"><ele>31.25</ele></trkpt>
   <trkpt lat="52.590467" lon="12.213848"><ele>31</ele></trkpt>
   <trkpt lat="52.590432" lon="12.216447"><ele>31.5</ele></trkpt>
   <trkpt lat="52.590432" lon="12.216512"><ele>31.75</ele></trkpt>
   <trkpt lat="52.590431" lon="12.216798"><ele>32</ele></trkpt>
   <trkpt lat="52.590421" lon="12.218644"><ele>33</ele></trkpt>
   <trkpt lat="52.590427" lon="12.219384"><ele>33.5</ele></trkpt>
   <trkpt lat="52.590445" lon="12.22061"><ele>33</ele></trkpt>
   <trkpt lat="52.590474" lon="12.222481"><ele>32.75</ele></trkpt>
   <trkpt lat="52.590476" lon="12.224169"><ele>34</ele></trkpt>
   <trkpt lat="52.590463" lon="12.225267"><ele>33.5</ele></trkpt>
   <trkpt lat="52.590446" lon="12.226229"><ele>33.25</ele></trkpt>
   <trkpt lat="52.590437" lon="12.227148"><ele>33</ele></trkpt>
   <trkpt lat="52.590439" lon="12.22814"><ele>33.25</ele></trkpt>
   <trkpt lat="52.590444" lon="12.231126"><ele>33</ele></trkpt>
   <trkpt lat="52.590444" lon="12.231281"><ele>33</ele></trkpt>
   <trkpt lat="52.590444" lon="12.231671"><ele>33</ele></trkpt>
   <trkpt lat="52.590446" lon="12.232318"><ele>33</ele></trkpt>
   <trkpt lat="52.590463" lon="12.234494"><ele>33.25</ele></trkpt>
   <trkpt lat="52.590467" lon="12.234895"><ele>33</ele></trkpt>
   <trkpt lat="52.590468" lon="12.234937"><ele>33</ele></trkpt>
   <trkpt lat="52.590478" lon="12.235554"><ele>32.5</ele></trkpt>
   <trkpt lat="52.590515" lon="12.237446"><ele>31</ele></trkpt>
   <trkpt lat="52.590532" lon="12.2387"><ele>30.25</ele></trkpt>
   <trkpt lat="52.590537" lon="12.240044"><ele>29.5</ele></trkpt>
   <trkpt lat="52.590544" lon="12.240515"><ele>29.5</ele></trkpt>
   <trkpt lat="52.590545" lon="12.242994"><ele>30.25</ele></trkpt>
   <trkpt lat="52.590544" lon="12.246132"><ele>32</ele></trkpt>
   <trkpt lat="52.590547" lon="12.249166"><ele>36.5</ele></trkpt>
   <trkpt lat="52.590547" lon="12.250779"><ele>37.25</ele></trkpt>
   <trkpt lat="52.590544" lon="12.251521"><ele>37.5</ele></trkpt>
   <trkpt lat="52.590544" lon="12.2544"><ele>38.25</ele></trkpt>
   <trkpt lat="52.590544" lon="12.254554"><ele>38.5</ele></trkpt>
   <trkpt lat="52.590562" lon="12.260876"><ele>34.5</ele></trkpt>
   <trkpt lat="52.590564" lon="12.26413"><ele>30</ele></trkpt>
   <trkpt lat="52.59058" lon="12.266773"><ele>29</ele></trkpt>
   <trkpt lat="52.590632" lon="12.269531"><ele>30.25</ele></trkpt>
   <trkpt lat="52.590689" lon="12.272626"><ele>28.75</ele></trkpt>
   <trkpt lat="52.590745" lon="12.275531"><ele>27.75</ele></trkpt>
   <trkpt lat="52.590796" lon="12.27848"><ele>28</ele></trkpt>
   <trkpt lat="52.590904" lon="12.284261"><ele>26.75</ele></trkpt>
   <trkpt lat="52.590953" lon="12.286918"><ele>25.75</ele></trkpt>
   <trkpt lat="52.591015" lon="12.29035"><ele>26.75</ele></trkpt>
   <trkpt lat="52.59112" lon="12.295999"><ele>29.5</ele></trkpt>
   <trkpt lat="52.591184" lon="12.299543"><ele>28.75</ele></trkpt>
   <trkpt lat="52.591231" lon="12.3022"><ele>29</ele></trkpt>
   <trkpt lat="52.591277" lon="12.304757"><ele>30.5</ele></trkpt>
   <trkpt lat="52.59133" lon="12.307699"><ele>32.75</ele></trkpt>
   <trkpt lat="52.59136" lon="12.309561"><ele>35</ele></trkpt>
   <trkpt lat="52.591411" lon="12.311081"><ele>35.5</ele></trkpt>
   <trkpt lat="52.591476" lon="12.312383"><ele>34.75</ele></trkpt>
   <trkpt lat="52.591599" lon="12.314028"><ele>34</ele></trkpt>
   <trkpt lat="52.591671" lon="12.314839"><ele>33</ele></trkpt>
   <trkpt lat="52.591798" lon="12.315998"><ele>33.25</ele></trkpt>
   <trkpt lat="52.591909" lon="12.316925"><ele>32.75</ele></trkpt>
   <trkpt lat="52.592166" lon="12.3187"><ele>32.5</ele></trkpt>
   <trkpt lat="52.592349" lon="12.319787"><ele>32</ele></trkpt>
   <trkpt lat="52.59261" lon="12.321203"><ele>30</ele></trkpt>
   <trkpt lat="52.592842" lon="12.322425"><ele>25.5</ele></trkpt>
   <trkpt lat="52.592875" lon="12.322598"><ele>25.5</ele></trkpt>
   <trkpt lat="52.592899" lon="12.322726"><ele>24.75</ele></trkpt>
   <trkpt lat="52.593478" lon="12.325791"><ele>24.75</ele></trkpt>
   <trkpt lat="52.593543" lon="12.326133"><ele>26.25</ele></trkpt>
   <trkpt lat="52.593937" lon="12.328234"><ele>29.25</ele></trkpt>
   <trkpt lat="52.594187" lon="12.329495"><ele>29.5</ele></trkpt>
   <trkpt lat="52.594516" lon="12.331049"><ele>29.5</ele></trkpt>
   <trkpt lat="52.595108" lon="12.333818"><ele>30.25</ele></trkpt>
   <trkpt lat="52.595886" lon="12.337257"><ele>29</ele></trkpt>
   <trkpt lat="52.595904" lon="12.337338"><ele>29</ele></trkpt>
   <trkpt lat="52.596353" lon="12.33941"><ele>28.5</ele></trkpt>
   <trkpt lat="52.596744" lon="12.341238"><ele>28.5</ele></trkpt>
   <trkpt lat="52.596982" lon="12.342333"><ele>28</ele></trkpt>
   <trkpt lat="52.597177" lon="12.343227"><ele>28</ele></trkpt>
   <trkpt lat="52.597196" lon="12.343315"><ele>28</ele></trkpt>
   <trkpt lat="52.597208" lon="12.343374"><ele>28</ele></trkpt>
   <trkpt lat="52.597211" lon="12.343386"><ele>28</ele></trkpt>
   <trkpt lat="52.597228" lon="12.343464"><ele>28</ele></trkpt>
   <trkpt lat="52.597317" lon="12.34392"><ele>28</ele></trkpt>
   <trkpt lat="52.597495" lon="12.344928"><ele>27.75</ele></trkpt>
   <trkpt lat="52.597528" lon="12.345081"><ele>28</ele></trkpt>
   <trkpt lat="52.597568" lon="12.34527"><ele>28</ele></trkpt>
   <trkpt lat="52.597813" lon="12.346399"><ele>28.25</ele></trkpt>
   <trkpt lat="52.597978" lon="12.347156"><ele>28.5</ele></trkpt>
   <trkpt lat="52.598239" lon="12.348447"><ele>27.75</ele></trkpt>
   <trkpt lat="52.598506" lon="12.349832"><ele>27.5</ele></trkpt>
   <trkpt lat="52.598654" lon="12.350561"><ele>27.75</ele></trkpt>
   <trkpt lat="52.59892" lon="12.35178"><ele>28.5</ele></trkpt>
   <trkpt lat="52.599136" lon="12.352715"><ele>28.5</ele></trkpt>
   <trkpt lat="52.599675" lon="12.354991"><ele>28.5</ele></trkpt>
   <trkpt lat="52.599964" lon="12.356217"><ele>28.25</ele></trkpt>
   <trkpt lat="52.599988" lon="12.356315"><ele>28.25</ele></trkpt>
   <trkpt lat="52.600084" lon="12.356735"><ele>28</ele></trkpt>
   <trkpt lat="52.600135" lon="12.356957"><ele>28</ele></trkpt>
   <trkpt lat="52.600251" lon="12.357465"><ele>27.75</ele></trkpt>
   <trkpt lat="52.600534" lon="12.358889"><ele>28</ele></trkpt>
   <trkpt lat="52.600776" lon="12.360358"><ele>28</ele></trkpt>
   <trkpt lat="52.60083" lon="12.360734"><ele>28</ele></trkpt>
   <trkpt lat="52.600915" lon="12.36135"><ele>28.5</ele></trkpt>
   <trkpt lat="52.601039" lon="12.362359"><ele>29</ele></trkpt>
   <trkpt lat="52.601167" lon="12.363537"><ele>30.75</ele></trkpt>
   <trkpt lat="52.601179" lon="12.363651"><ele>31</ele></trkpt>
   <trkpt lat="52.601205" lon="12.36389"><ele>31.25</ele></trkpt>
   <trkpt lat="52.601273" lon="12.364596"><ele>31.75</ele></trkpt>
   <trkpt lat="52.601376" lon="12.36571"><ele>32</ele></trkpt>
   <trkpt lat="52.601442" lon="12.366564"><ele>31</ele></trkpt>
   <trkpt lat="52.601497" lon="12.367432"><ele>30.75</ele></trkpt>
   <trkpt lat="52.601542" lon="12.368402"><ele>30.5</ele></trkpt>
   <trkpt lat="52.601584" lon="12.369635"><ele>29</ele></trkpt>
   <trkpt lat="52.601605" lon="12.370657"><ele>28</ele></trkpt>
   <trkpt lat="52.601616" lon="12.372045"><ele>26</ele></trkpt>
   <trkpt lat="52.60165" lon="12.372682"><ele>26.25</ele></trkpt>
   <trkpt lat="52.601666" lon="12.373335"><ele>27</ele></trkpt>
   <trkpt lat="52.601665" lon="12.373447"><ele>27</ele></trkpt>
   <trkpt lat="52.601666" lon="12.373522"><ele>27</ele></trkpt>
   <trkpt lat="52.601668" lon="12.373615"><ele>27</ele></trkpt>
   <trkpt lat="52.60167" lon="12.373639"><ele>27</ele></trkpt>
   <trkpt lat="52.601691" lon="12.374675"><ele>27</ele></trkpt>
   <trkpt lat="52.601735" lon="12.375762"><ele>27</ele></trkpt>
   <trkpt lat="52.601772" lon="12.37712"><ele>28</ele></trkpt>
   <trkpt lat="52.601776" lon="12.377632"><ele>28</ele></trkpt>
   <trkpt lat="52.601777" lon="12.378005"><ele>28</ele></trkpt>
   <trkpt lat="52.601788" lon="12.379305"><ele>27.75</ele></trkpt>
   <trkpt lat="52.601797" lon="12.380786"><ele>27.5</ele></trkpt>
  </trkseg>
 </trk>
</gpx>