<?xml version="1.0" encoding="UTF-8"?>
<!-- track-length = 33828 filtered ascend = 162 plain-ascend = 31 cost=33828 energy=0.4kwh time=45m 5s -->
<gpx 
 xmlns="http://www.topografix.com/GPX/1/1" 
 xmlns:xsi="http://www.w3.org/2001/XMLSchema-instance" 
 xsi:schemaLocation="http://www.topografix.com/GPX/1/1 http://www.topografix.com/GPX/1/1/gpx.xsd" 
 version="1.1" 
 creator="BRouter-Web 0.18.1">
 <trk>
  <name>Stolberg - Aaachen via Herzogenrath2</name>
  <trkseg>
   <trkpt lat="50.794756" lon="6.218205"><ele>174.5</ele></trkpt>
   <trkpt lat="50.794547" lon="6.217691"><ele>175.75</ele></trkpt>
   <trkpt lat="50.794379" lon="6.217241"><ele>175.75</ele></trkpt>
   <trkpt lat="50.794283" lon="6.216964"><ele>175.25</ele></trkpt>
   <trkpt lat="50.794113" lon="6.216429"><ele>175</ele></trkpt>
   <trkpt lat="50.794112" lon="6.216426"><ele>175</ele></trkpt>
   <trkpt lat="50.79411" lon="6.21642"><ele>175</ele></trkpt>
   <trkpt lat="50.79406" lon="6.21625"><ele>175.75</ele></trkpt>
   <trkpt lat="50.793793" lon="6.215272"><ele>176.75</ele></trkpt>
   <trkpt lat="50.793521" lon="6.214182"><ele>174.75</ele></trkpt>
   <trkpt lat="50.793502" lon="6.2141"><ele>174.5</ele></trkpt>
   <trkpt lat="50.793232" lon="6.213031"><ele>172.25</ele></trkpt>
   <trkpt lat="50.793113" lon="6.212512"><ele>172.25</ele></trkpt>
   <trkpt lat="50.793061" lon="6.212257"><ele>172.5</ele></trkpt>
   <trkpt lat="50.793011" lon="6.212026"><ele>172.5</ele></trkpt>
   <trkpt lat="50.792901" lon="6.21153"><ele>172.25</ele></trkpt>
   <trkpt lat="50.792813" lon="6.211098"><ele>171.5</ele></trkpt>
   <trkpt lat="50.79275" lon="6.210748"><ele>171</ele></trkpt>
   <trkpt lat="50.792325" lon="6.207534"><ele>174</ele></trkpt>
   <trkpt lat="50.792318" lon="6.207486"><ele>174</ele></trkpt>
   <trkpt lat="50.792304" lon="6.207372"><ele>174</ele></trkpt>
   <trkpt lat="50.792031" lon="6.205268"><ele>173</ele></trkpt>
   <trkpt lat="50.791955" lon="6.204726"><ele>172.75</ele></trkpt>
   <trkpt lat="50.79187" lon="6.204198"><ele>172.5</ele></trkpt>
   <trkpt lat="50.791815" lon="6.203933"><ele>172.25</ele></trkpt>
   <trkpt lat="50.791724" lon="6.203627"><ele>172</ele></trkpt>
   <trkpt lat="50.791615" lon="6.203318"><ele>172</ele></trkpt>
   <trkpt lat="50.79121" lon="6.202276"><ele>176</ele></trkpt>
   <trkpt lat="50.791152" lon="6.202149"><ele>176.75</ele></trkpt>
   <trkpt lat="50.79109" lon="6.201962"><ele>177.5</ele></trkpt>
   <trkpt lat="50.791044" lon="6.201853"><ele>178</ele></trkpt>
   <trkpt lat="50.790963" lon="6.201625"><ele>179</ele></trkpt>
   <trkpt lat="50.790888" lon="6.20139"><ele>180.25</ele></trkpt>
   <trkpt lat="50.790807" lon="6.201038"><ele>181.75</ele></trkpt>
   <trkpt lat="50.790753" lon="6.200673"><ele>182.75</ele></trkpt>
   <trkpt lat="50.790729" lon="6.20032"><ele>183.5</ele></trkpt>
   <trkpt lat="50.790736" lon="6.199943"><ele>183.75</ele></trkpt>
   <trkpt lat="50.790779" lon="6.199528"><ele>182.75</ele></trkpt>
   <trkpt lat="50.790882" lon="6.199093"><ele>182</ele></trkpt>
   <trkpt lat="50.790973" lon="6.198824"><ele>182</ele></trkpt>
   <trkpt lat="50.791078" lon="6.19857"><ele>182.25</ele></trkpt>
   <trkpt lat="50.791339" lon="6.198042"><ele>184.5</ele></trkpt>
   <trkpt lat="50.791673" lon="6.197447"><ele>187</ele></trkpt>
   <trkpt lat="50.791914" lon="6.197095"><ele>187</ele></trkpt>
   <trkpt lat="50.791964" lon="6.197018"><ele>186.75</ele></trkpt>
   <trkpt lat="50.792379" lon="6.196415"><ele>185</ele></trkpt>
   <trkpt lat="50.793099" lon="6.195368"><ele>183</ele></trkpt>
   <trkpt lat="50.793523" lon="6.194754"><ele>183</ele></trkpt>
   <trkpt lat="50.79364" lon="6.194574"><ele>183.5</ele></trkpt>
   <trkpt lat="50.793869" lon="6.194242"><ele>184.75</ele></trkpt>
   <trkpt lat="50.793966" lon="6.194102"><ele>185</ele></trkpt>
   <trkpt lat="50.794091" lon="6.193921"><ele>185.5</ele></trkpt>
   <trkpt lat="50.794748" lon="6.19297"><ele>185.5</ele></trkpt>
   <trkpt lat="50.795308" lon="6.192267"><ele>186.25</ele></trkpt>
   <trkpt lat="50.795662" lon="6.19192"><ele>185</ele></trkpt>
   <trkpt lat="50.795958" lon="6.191652"><ele>183.25</ele></trkpt>
   <trkpt lat="50.796322" lon="6.191421"><ele>181.75</ele></trkpt>
   <trkpt lat="50.796396" lon="6.191389"><ele>181.5</ele></trkpt>
   <trkpt lat="50.796668" lon="6.191272"><ele>180.25</ele></trkpt>
   <trkpt lat="50.796949" lon="6.19121"><ele>179.25</ele></trkpt>
   <trkpt lat="50.7972" lon="6.191154"><ele>178.25</ele></trkpt>
   <trkpt lat="50.797391" lon="6.191132"><ele>177.5</ele></trkpt>
   <trkpt lat="50.798791" lon="6.191081"><ele>180.5</ele></trkpt>
   <trkpt lat="50.799923" lon="6.19104"><ele>182.25</ele></trkpt>
   <trkpt lat="50.800581" lon="6.190995"><ele>182.75</ele></trkpt>
   <trkpt lat="50.801162" lon="6.19097"><ele>184</ele></trkpt>
   <trkpt lat="50.804823" lon="6.190813"><ele>188</ele></trkpt>
   <trkpt lat="50.80648" lon="6.190734"><ele>192.5</ele></trkpt>
   <trkpt lat="50.807304" lon="6.190703"><ele>193.5</ele></trkpt>
   <trkpt lat="50.808489" lon="6.190654"><ele>199.75</ele></trkpt>
   <trkpt lat="50.812719" lon="6.190479"><ele>191.5</ele></trkpt>
   <trkpt lat="50.812892" lon="6.190472"><ele>191.25</ele></trkpt>
   <trkpt lat="50.81395" lon="6.190521"><ele>189.5</ele></trkpt>
   <trkpt lat="50.814275" lon="6.190559"><ele>189.25</ele></trkpt>
   <trkpt lat="50.815015" lon="6.190679"><ele>188.75</ele></trkpt>
   <trkpt lat="50.816392" lon="6.190995"><ele>189.75</ele></trkpt>
   <trkpt lat="50.818419" lon="6.191464"><ele>191.75</ele></trkpt>
   <trkpt lat="50.819362" lon="6.191684"><ele>195.25</ele></trkpt>
   <trkpt lat="50.82001" lon="6.191836"><ele>196.75</ele></trkpt>
   <trkpt lat="50.820774" lon="6.192014"><ele>196</ele></trkpt>
   <trkpt lat="50.822285" lon="6.192367"><ele>194.25</ele></trkpt>
   <trkpt lat="50.823852" lon="6.192731"><ele>191.5</ele></trkpt>
   <trkpt lat="50.824314" lon="6.192843"><ele>192</ele></trkpt>
   <trkpt lat="50.824439" lon="6.192871"><ele>192.25</ele></trkpt>
   <trkpt lat="50.8245" lon="6.192882"><ele>192.5</ele></trkpt>
   <trkpt lat="50.82492" lon="6.192982"><ele>193.25</ele></trkpt>
   <trkpt lat="50.825237" lon="6.193073"><ele>193.5</ele></trkpt>
   <trkpt lat="50.825421" lon="6.193135"><ele>193.75</ele></trkpt>
   <trkpt lat="50.825705" lon="6.193247"><ele>193.75</ele></trkpt>
   <trkpt lat="50.826009" lon="6.193392"><ele>193</ele></trkpt>
   <trkpt lat="50.826521" lon="6.19368"><ele>190.5</ele></trkpt>
   <trkpt lat="50.827041" lon="6.194034"><ele>189.5</ele></trkpt>
   <trkpt lat="50.827533" lon="6.194434"><ele>189.25</ele></trkpt>
   <trkpt lat="50.827912" lon="6.19479"><ele>189.5</ele></trkpt>
   <trkpt lat="50.827967" lon="6.194841"><ele>189.75</ele></trkpt>
   <trkpt lat="50.829103" lon="6.19597"><ele>186.25</ele></trkpt>
   <trkpt lat="50.829466" lon="6.196322"><ele>186.25</ele></trkpt>
   <trkpt lat="50.831939" lon="6.19877"><ele>185</ele></trkpt>
   <trkpt lat="50.832155" lon="6.198984"><ele>185</ele></trkpt>
   <trkpt lat="50.832424" lon="6.199266"><ele>185</ele></trkpt>
   <trkpt lat="50.832545" lon="6.199383"><ele>185</ele></trkpt>
   <trkpt lat="50.833792" lon="6.200543"><ele>184.5</ele></trkpt>
   <trkpt lat="50.83427" lon="6.201015"><ele>185</ele></trkpt>
   <trkpt lat="50.834564" lon="6.201302"><ele>185</ele></trkpt>
   <trkpt lat="50.834736" lon="6.201468"><ele>185</ele></trkpt>
   <trkpt lat="50.835961" lon="6.20269"><ele>184</ele></trkpt>
   <trkpt lat="50.836753" lon="6.203513"><ele>183.75</ele></trkpt>
   <trkpt lat="50.8375" lon="6.204286"><ele>184.25</ele></trkpt>
   <trkpt lat="50.837872" lon="6.204658"><ele>184.25</ele></trkpt>
   <trkpt lat="50.8382" lon="6.204966"><ele>184.25</ele></trkpt>
   <trkpt lat="50.838469" lon="6.205191"><ele>184</ele></trkpt>
   <trkpt lat="50.838952" lon="6.205555"><ele>184</ele></trkpt>
   <trkpt lat="50.839157" lon="6.205692"><ele>184</ele></trkpt>
   <trkpt lat="50.839539" lon="6.205925"><ele>183.5</ele></trkpt>
   <trkpt lat="50.839793" lon="6.206073"><ele>183.5</ele></trkpt>
   <trkpt lat="50.840279" lon="6.206276"><ele>183.25</ele></trkpt>
   <trkpt lat="50.840738" lon="6.206448"><ele>183.5</ele></trkpt>
   <trkpt lat="50.841249" lon="6.206562"><ele>183.25</ele></trkpt>
   <trkpt lat="50.841566" lon="6.20662"><ele>183</ele></trkpt>
   <trkpt lat="50.841954" lon="6.206658"><ele>182.75</ele></trkpt>
   <trkpt lat="50.842343" lon="6.206691"><ele>183</ele></trkpt>
   <trkpt lat="50.842689" lon="6.206674"><ele>182.75</ele></trkpt>
   <trkpt lat="50.84282" lon="6.206667"><ele>182.5</ele></trkpt>
   <trkpt lat="50.843394" lon="6.206594"><ele>181.75</ele></trkpt>
   <trkpt lat="50.84391" lon="6.206475"><ele>181.75</ele></trkpt>
   <trkpt lat="50.844191" lon="6.206368"><ele>181.5</ele></trkpt>
   <trkpt lat="50.844236" lon="6.206351"><ele>181.5</ele></trkpt>
   <trkpt lat="50.84436" lon="6.206308"><ele>181.25</ele></trkpt>
   <trkpt lat="50.844896" lon="6.206067"><ele>181</ele></trkpt>
   <trkpt lat="50.845497" lon="6.205772"><ele>181</ele></trkpt>
   <trkpt lat="50.846189" lon="6.205431"><ele>181</ele></trkpt>
   <trkpt lat="50.847427" lon="6.20479"><ele>179.25</ele></trkpt>
   <trkpt lat="50.847972" lon="6.204457"><ele>178.75</ele></trkpt>
   <trkpt lat="50.848644" lon="6.203936"><ele>178</ele></trkpt>
   <trkpt lat="50.849503" lon="6.203192"><ele>177.75</ele></trkpt>
   <trkpt lat="50.849996" lon="6.202731"><ele>177.75</ele></trkpt>
   <trkpt lat="50.851124" lon="6.2016"><ele>179.25</ele></trkpt>
   <trkpt lat="50.852005" lon="6.200718"><ele>179.25</ele></trkpt>
   <trkpt lat="50.852036" lon="6.200699"><ele>179.25</ele></trkpt>
   <trkpt lat="50.852545" lon="6.200194"><ele>180</ele></trkpt>
   <trkpt lat="50.852594" lon="6.200145"><ele>180</ele></trkpt>
   <trkpt lat="50.852977" lon="6.199762"><ele>180.25</ele></trkpt>
   <trkpt lat="50.853054" lon="6.199687"><ele>180.25</ele></trkpt>
   <trkpt lat="50.853124" lon="6.199626"><ele>180.25</ele></trkpt>
   <trkpt lat="50.853527" lon="6.199229"><ele>179.75</ele></trkpt>
   <trkpt lat="50.854965" lon="6.197796"><ele>179.25</ele></trkpt>
   <trkpt lat="50.854977" lon="6.197783"><ele>179.25</ele></trkpt>
   <trkpt lat="50.85499" lon="6.19777"><ele>179.25</ele></trkpt>
   <trkpt lat="50.855946" lon="6.196812"><ele>180</ele></trkpt>
   <trkpt lat="50.856089" lon="6.196669"><ele>180</ele></trkpt>
   <trkpt lat="50.857366" lon="6.195419"><ele>178</ele></trkpt>
   <trkpt lat="50.858142" lon="6.19464"><ele>177</ele></trkpt>
   <trkpt lat="50.858783" lon="6.193914"><ele>177</ele></trkpt>
   <trkpt lat="50.859432" lon="6.193023"><ele>176.5</ele></trkpt>
   <trkpt lat="50.859488" lon="6.192931"><ele>176.5</ele></trkpt>
   <trkpt lat="50.859631" lon="6.192697"><ele>176.5</ele></trkpt>
   <trkpt lat="50.859801" lon="6.192419"><ele>176.75</ele></trkpt>
   <trkpt lat="50.861018" lon="6.190211"><ele>176.5</ele></trkpt>
   <trkpt lat="50.861585" lon="6.189183"><ele>176.75</ele></trkpt>
   <trkpt lat="50.861644" lon="6.189079"><ele>176.75</ele></trkpt>
   <trkpt lat="50.861979" lon="6.188452"><ele>176</ele></trkpt>
   <trkpt lat="50.862334" lon="6.187811"><ele>174.75</ele></trkpt>
   <trkpt lat="50.862378" lon="6.187729"><ele>174.5</ele></trkpt>
   <trkpt lat="50.8625" lon="6.187511"><ele>174</ele></trkpt>
   <trkpt lat="50.863321" lon="6.186007"><ele>170.25</ele></trkpt>
   <trkpt lat="50.863367" lon="6.185922"><ele>170</ele></trkpt>
   <trkpt lat="50.864553" lon="6.183757"><ele>169</ele></trkpt>
   <trkpt lat="50.864624" lon="6.183604"><ele>169</ele></trkpt>
   <trkpt lat="50.864827" lon="6.183196"><ele>169.25</ele></trkpt>
   <trkpt lat="50.865008" lon="6.182778"><ele>168.5</ele></trkpt>
   <trkpt lat="50.865178" lon="6.182343"><ele>167.5</ele></trkpt>
   <trkpt lat="50.865246" lon="6.182161"><ele>167.25</ele></trkpt>
   <trkpt lat="50.865457" lon="6.181494"><ele>166.75</ele></trkpt>
   <trkpt lat="50.865695" lon="6.180638"><ele>166</ele></trkpt>
   <trkpt lat="50.865808" lon="6.180077"><ele>166</ele></trkpt>
   <trkpt lat="50.86586" lon="6.179767"><ele>165.5</ele></trkpt>
   <trkpt lat="50.86592" lon="6.179405"><ele>165.25</ele></trkpt>
   <trkpt lat="50.866041" lon="6.1785"><ele>165</ele></trkpt>
   <trkpt lat="50.866351" lon="6.176177"><ele>164.5</ele></trkpt>
   <trkpt lat="50.866363" lon="6.176092"><ele>164.5</ele></trkpt>
   <trkpt lat="50.866914" lon="6.171916"><ele>164.75</ele></trkpt>
   <trkpt lat="50.867094" lon="6.170569"><ele>167.75</ele></trkpt>
   <trkpt lat="50.867242" lon="6.169425"><ele>169.25</ele></trkpt>
   <trkpt lat="50.867281" lon="6.169127"><ele>169.5</ele></trkpt>
   <trkpt lat="50.867284" lon="6.169092"><ele>169.75</ele></trkpt>
   <trkpt lat="50.867426" lon="6.168053"><ele>169.5</ele></trkpt>
   <trkpt lat="50.86751" lon="6.16738"><ele>168.75</ele></trkpt>
   <trkpt lat="50.867623" lon="6.166538"><ele>167.5</ele></trkpt>
   <trkpt lat="50.86764" lon="6.166397"><ele>167.5</ele></trkpt>
   <trkpt lat="50.86765" lon="6.166308"><ele>167.25</ele></trkpt>
   <trkpt lat="50.867765" lon="6.16549"><ele>166.5</ele></trkpt>
   <trkpt lat="50.867831" lon="6.165101"><ele>166.5</ele></trkpt>
   <trkpt lat="50.867897" lon="6.164766"><ele>166.25</ele></trkpt>
   <trkpt lat="50.868148" lon="6.163616"><ele>164.75</ele></trkpt>
   <trkpt lat="50.86831" lon="6.163008"><ele>163.25</ele></trkpt>
   <trkpt lat="50.868356" lon="6.162846"><ele>162.75</ele></trkpt>
   <trkpt lat="50.868374" lon="6.162788"><ele>162.5</ele></trkpt>
   <trkpt lat="50.868392" lon="6.162729"><ele>162.25</ele></trkpt>
   <trkpt lat="50.868684" lon="6.161806"><ele>161</ele></trkpt>
   <trkpt lat="50.868832" lon="6.161385"><ele>161</ele></trkpt>
   <trkpt lat="50.868932" lon="6.161097"><ele>161</ele></trkpt>
   <trkpt lat="50.869078" lon="6.160661"><ele>161</ele></trkpt>
   <trkpt lat="50.869469" lon="6.159595"><ele>161.25</ele></trkpt>
   <trkpt lat="50.869668" lon="6.159017"><ele>162</ele></trkpt>
   <trkpt lat="50.869845" lon="6.1585"><ele>162.75</ele></trkpt>
   <trkpt lat="50.869864" lon="6.158445"><ele>162.75</ele></trkpt>
   <trkpt lat="50.870091" lon="6.157803"><ele>162.25</ele></trkpt>
   <trkpt lat="50.870131" lon="6.157688"><ele>162</ele></trkpt>
   <trkpt lat="50.870222" lon="6.157428"><ele>162</ele></trkpt>
   <trkpt lat="50.870248" lon="6.157353"><ele>162</ele></trkpt>
   <trkpt lat="50.870277" lon="6.157274"><ele>162</ele></trkpt>
   <trkpt lat="50.870404" lon="6.156916"><ele>162</ele></trkpt>
   <trkpt lat="50.870419" lon="6.156875"><ele>162</ele></trkpt>
   <trkpt lat="50.870575" lon="6.156428"><ele>161.5</ele></trkpt>
   <trkpt lat="50.871015" lon="6.155173"><ele>161</ele></trkpt>
   <trkpt lat="50.87141" lon="6.15405"><ele>161.25</ele></trkpt>
   <trkpt lat="50.871427" lon="6.153995"><ele>161.25</ele></trkpt>
   <trkpt lat="50.87175" lon="6.153076"><ele>161</ele></trkpt>
   <trkpt lat="50.871924" lon="6.152537"><ele>161.25</ele></trkpt>
   <trkpt lat="50.872257" lon="6.151362"><ele>161</ele></trkpt>
   <trkpt lat="50.872546" lon="6.15017"><ele>160.75</ele></trkpt>
   <trkpt lat="50.872679" lon="6.149557"><ele>162.5</ele></trkpt>
   <trkpt lat="50.872791" lon="6.149086"><ele>163.75</ele></trkpt>
   <trkpt lat="50.873049" lon="6.147916"><ele>166</ele></trkpt>
   <trkpt lat="50.873061" lon="6.147863"><ele>166.25</ele></trkpt>
   <trkpt lat="50.873189" lon="6.147313"><ele>167.25</ele></trkpt>
   <trkpt lat="50.873393" lon="6.146593"><ele>166.75</ele></trkpt>
   <trkpt lat="50.873587" lon="6.146057"><ele>168.25</ele></trkpt>
   <trkpt lat="50.873812" lon="6.145614"><ele>167.5</ele></trkpt>
   <trkpt lat="50.874032" lon="6.14526"><ele>165.5</ele></trkpt>
   <trkpt lat="50.874442" lon="6.14473"><ele>162.25</ele></trkpt>
   <trkpt lat="50.874862" lon="6.144273"><ele>157.75</ele></trkpt>
   <trkpt lat="50.875224" lon="6.143814"><ele>155.25</ele></trkpt>
   <trkpt lat="50.875443" lon="6.143508"><ele>155.25</ele></trkpt>
   <trkpt lat="50.875582" lon="6.143295"><ele>155.25</ele></trkpt>
   <trkpt lat="50.875813" lon="6.142885"><ele>154.75</ele></trkpt>
   <trkpt lat="50.876055" lon="6.142354"><ele>153.75</ele></trkpt>
   <trkpt lat="50.876214" lon="6.141906"><ele>153.25</ele></trkpt>
   <trkpt lat="50.876297" lon="6.141636"><ele>153</ele></trkpt>
   <trkpt lat="50.876365" lon="6.141384"><ele>153</ele></trkpt>
   <trkpt lat="50.876555" lon="6.140589"><ele>153.5</ele></trkpt>
   <trkpt lat="50.876687" lon="6.140019"><ele>154</ele></trkpt>
   <trkpt lat="50.87672" lon="6.139868"><ele>153.75</ele></trkpt>
   <trkpt lat="50.876738" lon="6.13978"><ele>153.5</ele></trkpt>
   <trkpt lat="50.876855" lon="6.139207"><ele>152.75</ele></trkpt>
   <trkpt lat="50.876902" lon="6.138924"><ele>152.75</ele></trkpt>
   <trkpt lat="50.876969" lon="6.138459"><ele>152.75</ele></trkpt>
   <trkpt lat="50.877034" lon="6.137731"><ele>152</ele></trkpt>
   <trkpt lat="50.877073" lon="6.137201"><ele>151.5</ele></trkpt>
   <trkpt lat="50.87708" lon="6.137063"><ele>151.25</ele></trkpt>
   <trkpt lat="50.877328" lon="6.133021"><ele>149</ele></trkpt>
   <trkpt lat="50.877369" lon="6.132522"><ele>148.25</ele></trkpt>
   <trkpt lat="50.877418" lon="6.132108"><ele>147.75</ele></trkpt>
   <trkpt lat="50.877492" lon="6.131673"><ele>147</ele></trkpt>
   <trkpt lat="50.877555" lon="6.131386"><ele>147.5</ele></trkpt>
   <trkpt lat="50.877693" lon="6.130874"><ele>148.25</ele></trkpt>
   <trkpt lat="50.877865" lon="6.130383"><ele>148.25</ele></trkpt>
   <trkpt lat="50.877972" lon="6.130116"><ele>148</ele></trkpt>
   <trkpt lat="50.878142" lon="6.129746"><ele>149</ele></trkpt>
   <trkpt lat="50.878236" lon="6.129573"><ele>149.75</ele></trkpt>
   <trkpt lat="50.878358" lon="6.129358"><ele>150.75</ele></trkpt>
   <trkpt lat="50.878655" lon="6.128932"><ele>151.5</ele></trkpt>
   <trkpt lat="50.878957" lon="6.128587"><ele>150.25</ele></trkpt>
   <trkpt lat="50.879104" lon="6.128417"><ele>149.5</ele></trkpt>
   <trkpt lat="50.879486" lon="6.127991"><ele>149</ele></trkpt>
   <trkpt lat="50.880897" lon="6.126389"><ele>146.25</ele></trkpt>
   <trkpt lat="50.881566" lon="6.125639"><ele>145.25</ele></trkpt>
   <trkpt lat="50.882456" lon="6.124619"><ele>144.75</ele></trkpt>
   <trkpt lat="50.883138" lon="6.12386"><ele>144.5</ele></trkpt>
   <trkpt lat="50.883477" lon="6.123479"><ele>144.75</ele></trkpt>
   <trkpt lat="50.883655" lon="6.123275"><ele>145</ele></trkpt>
   <trkpt lat="50.88517" lon="6.121561"><ele>149.5</ele></trkpt>
   <trkpt lat="50.885393" lon="6.121305"><ele>149.5</ele></trkpt>
   <trkpt lat="50.886445" lon="6.120121"><ele>150.75</ele></trkpt>
   <trkpt lat="50.886517" lon="6.120048"><ele>150.75</ele></trkpt>
   <trkpt lat="50.886571" lon="6.119981"><ele>151</ele></trkpt>
   <trkpt lat="50.886675" lon="6.11986"><ele>151</ele></trkpt>
   <trkpt lat="50.886716" lon="6.119813"><ele>151</ele></trkpt>
   <trkpt lat="50.886804" lon="6.119717"><ele>151</ele></trkpt>
   <trkpt lat="50.886877" lon="6.119635"><ele>151</ele></trkpt>
   <trkpt lat="50.88691" lon="6.119596"><ele>151</ele></trkpt>
   <trkpt lat="50.887177" lon="6.119283"><ele>151</ele></trkpt>
   <trkpt lat="50.887348" lon="6.119051"><ele>151</ele></trkpt>
   <trkpt lat="50.887379" lon="6.119014"><ele>151</ele></trkpt>
   <trkpt lat="50.887601" lon="6.118648"><ele>151</ele></trkpt>
   <trkpt lat="50.88771" lon="6.118429"><ele>151</ele></trkpt>
   <trkpt lat="50.88789" lon="6.118037"><ele>151</ele></trkpt>
   <trkpt lat="50.888027" lon="6.117696"><ele>151.25</ele></trkpt>
   <trkpt lat="50.888119" lon="6.117454"><ele>151.25</ele></trkpt>
   <trkpt lat="50.888174" lon="6.117301"><ele>151</ele></trkpt>
   <trkpt lat="50.888281" lon="6.116934"><ele>151</ele></trkpt>
   <trkpt lat="50.888387" lon="6.116484"><ele>150.5</ele></trkpt>
   <trkpt lat="50.888486" lon="6.115874"><ele>149.75</ele></trkpt>
   <trkpt lat="50.888546" lon="6.115028"><ele>149.5</ele></trkpt>
   <trkpt lat="50.888527" lon="6.114302"><ele>148.75</ele></trkpt>
   <trkpt lat="50.888488" lon="6.113835"><ele>148.25</ele></trkpt>
   <trkpt lat="50.88844" lon="6.113488"><ele>148</ele></trkpt>
   <trkpt lat="50.888413" lon="6.113297"><ele>148</ele></trkpt>
   <trkpt lat="50.888203" lon="6.112102"><ele>149.75</ele></trkpt>
   <trkpt lat="50.888104" lon="6.11156"><ele>149.75</ele></trkpt>
   <trkpt lat="50.887933" lon="6.110659"><ele>147.75</ele></trkpt>
   <trkpt lat="50.887715" lon="6.10941"><ele>144.75</ele></trkpt>
   <trkpt lat="50.88744" lon="6.107839"><ele>142.5</ele></trkpt>
   <trkpt lat="50.887202" lon="6.106693"><ele>142.25</ele></trkpt>
   <trkpt lat="50.886972" lon="6.105747"><ele>142.25</ele></trkpt>
   <trkpt lat="50.886917" lon="6.105586"><ele>142</ele></trkpt>
   <trkpt lat="50.886674" lon="6.104805"><ele>141.5</ele></trkpt>
   <trkpt lat="50.886476" lon="6.10417"><ele>141.5</ele></trkpt>
   <trkpt lat="50.886373" lon="6.103847"><ele>141</ele></trkpt>
   <trkpt lat="50.886126" lon="6.103074"><ele>139.75</ele></trkpt>
   <trkpt lat="50.88581" lon="6.102083"><ele>137.25</ele></trkpt>
   <trkpt lat="50.885692" lon="6.101723"><ele>136.5</ele></trkpt>
   <trkpt lat="50.885655" lon="6.101603"><ele>136.5</ele></trkpt>
   <trkpt lat="50.885552" lon="6.101285"><ele>136.25</ele></trkpt>
   <trkpt lat="50.885304" lon="6.100507"><ele>135.5</ele></trkpt>
   <trkpt lat="50.885135" lon="6.100049"><ele>134.75</ele></trkpt>
   <trkpt lat="50.885021" lon="6.099769"><ele>134.25</ele></trkpt>
   <trkpt lat="50.884842" lon="6.099401"><ele>134</ele></trkpt>
   <trkpt lat="50.884683" lon="6.099131"><ele>133.75</ele></trkpt>
   <trkpt lat="50.884494" lon="6.09883"><ele>133.25</ele></trkpt>
   <trkpt lat="50.884196" lon="6.098452"><ele>132</ele></trkpt>
   <trkpt lat="50.883667" lon="6.097814"><ele>131.25</ele></trkpt>
   <trkpt lat="50.883523" lon="6.097649"><ele>130.75</ele></trkpt>
   <trkpt lat="50.883141" lon="6.09714"><ele>129.25</ele></trkpt>
   <trkpt lat="50.882927" lon="6.096717"><ele>127.5</ele></trkpt>
   <trkpt lat="50.882755" lon="6.096306"><ele>126.5</ele></trkpt>
   <trkpt lat="50.882558" lon="6.095757"><ele>124.5</ele></trkpt>
   <trkpt lat="50.881838" lon="6.093594"><ele>121.5</ele></trkpt>
   <trkpt lat="50.881555" lon="6.092917"><ele>121.25</ele></trkpt>
   <trkpt lat="50.881247" lon="6.09235"><ele>121.5</ele></trkpt>
   <trkpt lat="50.881075" lon="6.092112"><ele>120.75</ele></trkpt>
   <trkpt lat="50.880877" lon="6.09188"><ele>120.25</ele></trkpt>
   <trkpt lat="50.880689" lon="6.091703"><ele>119.75</ele></trkpt>
   <trkpt lat="50.880476" lon="6.091535"><ele>119.75</ele></trkpt>
   <trkpt lat="50.880325" lon="6.09144"><ele>120.5</ele></trkpt>
   <trkpt lat="50.880132" lon="6.091351"><ele>121.25</ele></trkpt>
   <trkpt lat="50.880067" lon="6.091322"><ele>121.5</ele></trkpt>
   <trkpt lat="50.879896" lon="6.091266"><ele>121</ele></trkpt>
   <trkpt lat="50.879748" lon="6.09123"><ele>120</ele></trkpt>
   <trkpt lat="50.879599" lon="6.091206"><ele>119.25</ele></trkpt>
   <trkpt lat="50.879426" lon="6.091195"><ele>118.5</ele></trkpt>
   <trkpt lat="50.879298" lon="6.091203"><ele>118</ele></trkpt>
   <trkpt lat="50.87903" lon="6.091246"><ele>116.75</ele></trkpt>
   <trkpt lat="50.878771" lon="6.091331"><ele>115.25</ele></trkpt>
   <trkpt lat="50.878628" lon="6.091397"><ele>114.5</ele></trkpt>
   <trkpt lat="50.878465" lon="6.091471"><ele>113.25</ele></trkpt>
   <trkpt lat="50.878085" lon="6.091725"><ele>112.25</ele></trkpt>
   <trkpt lat="50.877878" lon="6.091892"><ele>112.5</ele></trkpt>
   <trkpt lat="50.877726" lon="6.092033"><ele>112.75</ele></trkpt>
   <trkpt lat="50.877212" lon="6.092551"><ele>113</ele></trkpt>
   <trkpt lat="50.877155" lon="6.092603"><ele>113</ele></trkpt>
   <trkpt lat="50.876991" lon="6.092746"><ele>112.25</ele></trkpt>
   <trkpt lat="50.876855" lon="6.092852"><ele>111.5</ele></trkpt>
   <trkpt lat="50.876532" lon="6.093094"><ele>110.25</ele></trkpt>
   <trkpt lat="50.876155" lon="6.093352"><ele>111</ele></trkpt>
   <trkpt lat="50.875944" lon="6.093524"><ele>111.25</ele></trkpt>
   <trkpt lat="50.875685" lon="6.093715"><ele>111.25</ele></trkpt>
   <trkpt lat="50.875426" lon="6.093886"><ele>111.5</ele></trkpt>
   <trkpt lat="50.875134" lon="6.09405"><ele>111.75</ele></trkpt>
   <trkpt lat="50.874958" lon="6.094133"><ele>111.75</ele></trkpt>
   <trkpt lat="50.87468" lon="6.094248"><ele>111.75</ele></trkpt>
   <trkpt lat="50.874396" lon="6.094332"><ele>111.5</ele></trkpt>
   <trkpt lat="50.874212" lon="6.094369"><ele>111.25</ele></trkpt>
   <trkpt lat="50.874002" lon="6.094398"><ele>111</ele></trkpt>
   <trkpt lat="50.873354" lon="6.094447"><ele>111</ele></trkpt>
   <trkpt lat="50.872375" lon="6.094494"><ele>109.75</ele></trkpt>
   <trkpt lat="50.871969" lon="6.094474"><ele>110</ele></trkpt>
   <trkpt lat="50.871837" lon="6.094454"><ele>110.25</ele></trkpt>
   <trkpt lat="50.871563" lon="6.094413"><ele>110.25</ele></trkpt>
   <trkpt lat="50.871198" lon="6.094338"><ele>110.25</ele></trkpt>
   <trkpt lat="50.869991" lon="6.094058"><ele>108.5</ele></trkpt>
   <trkpt lat="50.869633" lon="6.093946"><ele>108</ele></trkpt>
   <trkpt lat="50.869514" lon="6.093899"><ele>107.75</ele></trkpt>
   <trkpt lat="50.86862" lon="6.093496"><ele>106.25</ele></trkpt>
   <trkpt lat="50.868183" lon="6.093306"><ele>106</ele></trkpt>
   <trkpt lat="50.868143" lon="6.093284"><ele>106</ele></trkpt>
   <trkpt lat="50.868127" lon="6.093276"><ele>106</ele></trkpt>
   <trkpt lat="50.8677" lon="6.093055"><ele>106.75</ele></trkpt>
   <trkpt lat="50.867631" lon="6.093023"><ele>107</ele></trkpt>
   <trkpt lat="50.867196" lon="6.092831"><ele>108</ele></trkpt>
   <trkpt lat="50.866874" lon="6.092682"><ele>109</ele></trkpt>
   <trkpt lat="50.866575" lon="6.092531"><ele>110</ele></trkpt>
   <trkpt lat="50.866548" lon="6.092516"><ele>110</ele></trkpt>
   <trkpt lat="50.865898" lon="6.092191"><ele>111.25</ele></trkpt>
   <trkpt lat="50.865583" lon="6.092022"><ele>111.25</ele></trkpt>
   <trkpt lat="50.864665" lon="6.091532"><ele>112.75</ele></trkpt>
   <trkpt lat="50.864004" lon="6.091191"><ele>116.25</ele></trkpt>
   <trkpt lat="50.863706" lon="6.091037"><ele>128.25</ele></trkpt>
   <trkpt lat="50.859656" lon="6.088937"><ele>128.25</ele></trkpt>
   <trkpt lat="50.85768" lon="6.087915"><ele>137</ele></trkpt>
   <trkpt lat="50.854852" lon="6.086452"><ele>128.25</ele></trkpt>
   <trkpt lat="50.854414" lon="6.086226"><ele>128</ele></trkpt>
   <trkpt lat="50.846654" lon="6.082191"><ele>142.75</ele></trkpt>
   <trkpt lat="50.846077" lon="6.081893"><ele>144.25</ele></trkpt>
   <trkpt lat="50.84604" lon="6.081874"><ele>144.25</ele></trkpt>
   <trkpt lat="50.84418" lon="6.080911"><ele>149.75</ele></trkpt>
   <trkpt lat="50.844103" lon="6.08087"><ele>149.75</ele></trkpt>
   <trkpt lat="50.843579" lon="6.080593"><ele>150.75</ele></trkpt>
   <trkpt lat="50.842102" lon="6.079827"><ele>154.75</ele></trkpt>
   <trkpt lat="50.841509" lon="6.079511"><ele>158.25</ele></trkpt>
   <trkpt lat="50.837989" lon="6.077691"><ele>170.5</ele></trkpt>
   <trkpt lat="50.837841" lon="6.077616"><ele>171</ele></trkpt>
   <trkpt lat="50.836005" lon="6.076661"><ele>171</ele></trkpt>
   <trkpt lat="50.834892" lon="6.076105"><ele>170</ele></trkpt>
   <trkpt lat="50.834354" lon="6.07582"><ele>169.75</ele></trkpt>
   <trkpt lat="50.833705" lon="6.075491"><ele>170.5</ele></trkpt>
   <trkpt lat="50.833206" lon="6.075217"><ele>170.75</ele></trkpt>
   <trkpt lat="50.832628" lon="6.07491"><ele>168.75</ele></trkpt>
   <trkpt lat="50.832448" lon="6.074815"><ele>168.25</ele></trkpt>
   <trkpt lat="50.832063" lon="6.074623"><ele>167.25</ele></trkpt>
   <trkpt lat="50.832029" lon="6.074608"><ele>167.25</ele></trkpt>
   <trkpt lat="50.831595" lon="6.07438"><ele>166</ele></trkpt>
   <trkpt lat="50.831132" lon="6.074147"><ele>164.75</ele></trkpt>
   <trkpt lat="50.830421" lon="6.073776"><ele>163.75</ele></trkpt>
   <trkpt lat="50.830353" lon="6.073745"><ele>163.75</ele></trkpt>
   <trkpt lat="50.829717" lon="6.073416"><ele>165</ele></trkpt>
   <trkpt lat="50.82922" lon="6.073162"><ele>166.5</ele></trkpt>
   <trkpt lat="50.828564" lon="6.072822"><ele>168.25</ele></trkpt>
   <trkpt lat="50.827864" lon="6.07244"><ele>168.25</ele></trkpt>
   <trkpt lat="50.82753" lon="6.07223"><ele>168</ele></trkpt>
   <trkpt lat="50.827291" lon="6.072069"><ele>169.25</ele></trkpt>
   <trkpt lat="50.826998" lon="6.071854"><ele>171</ele></trkpt>
   <trkpt lat="50.826593" lon="6.071529"><ele>173.25</ele></trkpt>
   <trkpt lat="50.825896" lon="6.070926"><ele>175.5</ele></trkpt>
   <trkpt lat="50.824901" lon="6.070058"><ele>171.5</ele></trkpt>
   <trkpt lat="50.824378" lon="6.069605"><ele>171.5</ele></trkpt>
   <trkpt lat="50.824354" lon="6.069586"><ele>171.5</ele></trkpt>
   <trkpt lat="50.824014" lon="6.069282"><ele>171.5</ele></trkpt>
   <trkpt lat="50.823985" lon="6.069256"><ele>171.5</ele></trkpt>
   <trkpt lat="50.822702" lon="6.068134"><ele>172</ele></trkpt>
   <trkpt lat="50.822446" lon="6.067907"><ele>172.5</ele></trkpt>
   <trkpt lat="50.821665" lon="6.067237"><ele>173</ele></trkpt>
   <trkpt lat="50.821265" lon="6.066882"><ele>173.25</ele></trkpt>
   <trkpt lat="50.819406" lon="6.065266"><ele>172</ele></trkpt>
   <trkpt lat="50.818135" lon="6.06415"><ele>172.5</ele></trkpt>
   <trkpt lat="50.817893" lon="6.063938"><ele>173.5</ele></trkpt>
   <trkpt lat="50.81769" lon="6.063762"><ele>174.25</ele></trkpt>
   <trkpt lat="50.817554" lon="6.063631"><ele>174.75</ele></trkpt>
   <trkpt lat="50.815833" lon="6.062107"><ele>178</ele></trkpt>
   <trkpt lat="50.814658" lon="6.061159"><ele>179</ele></trkpt>
   <trkpt lat="50.814019" lon="6.060723"><ele>180.5</ele></trkpt>
   <trkpt lat="50.813744" lon="6.060562"><ele>181.5</ele></trkpt>
   <trkpt lat="50.813052" lon="6.060219"><ele>182.75</ele></trkpt>
   <trkpt lat="50.812815" lon="6.06012"><ele>182.25</ele></trkpt>
   <trkpt lat="50.812373" lon="6.059958"><ele>182.25</ele></trkpt>
   <trkpt lat="50.812036" lon="6.059863"><ele>182.75</ele></trkpt>
   <trkpt lat="50.81161" lon="6.059769"><ele>183.75</ele></trkpt>
   <trkpt lat="50.810952" lon="6.059677"><ele>186</ele></trkpt>
   <trkpt lat="50.810546" lon="6.059663"><ele>187</ele></trkpt>
   <trkpt lat="50.810088" lon="6.059673"><ele>188</ele></trkpt>
   <trkpt lat="50.809695" lon="6.059709"><ele>188.75</ele></trkpt>
   <trkpt lat="50.809508" lon="6.059738"><ele>189</ele></trkpt>
   <trkpt lat="50.809486" lon="6.05974"><ele>189</ele></trkpt>
   <trkpt lat="50.809476" lon="6.059741"><ele>189</ele></trkpt>
   <trkpt lat="50.80924" lon="6.059772"><ele>189.25</ele></trkpt>
   <trkpt lat="50.809025" lon="6.059806"><ele>189.25</ele></trkpt>
   <trkpt lat="50.808754" lon="6.059863"><ele>188.75</ele></trkpt>
   <trkpt lat="50.808272" lon="6.059992"><ele>188</ele></trkpt>
   <trkpt lat="50.807748" lon="6.060185"><ele>189.75</ele></trkpt>
   <trkpt lat="50.806023" lon="6.061134"><ele>190.25</ele></trkpt>
   <trkpt lat="50.805802" lon="6.061259"><ele>190.5</ele></trkpt>
   <trkpt lat="50.804718" lon="6.061886"><ele>193.25</ele></trkpt>
   <trkpt lat="50.804278" lon="6.062115"><ele>193.25</ele></trkpt>
   <trkpt lat="50.803937" lon="6.062247"><ele>192.25</ele></trkpt>
   <trkpt lat="50.803519" lon="6.062346"><ele>190.75</ele></trkpt>
   <trkpt lat="50.803267" lon="6.062375"><ele>189.5</ele></trkpt>
   <trkpt lat="50.802976" lon="6.062367"><ele>187.5</ele></trkpt>
   <trkpt lat="50.802587" lon="6.062311"><ele>185</ele></trkpt>
   <trkpt lat="50.802433" lon="6.062273"><ele>184.5</ele></trkpt>
   <trkpt lat="50.802202" lon="6.062197"><ele>184.5</ele></trkpt>
   <trkpt lat="50.801942" lon="6.062084"><ele>184.75</ele></trkpt>
   <trkpt lat="50.801666" lon="6.061926"><ele>185.25</ele></trkpt>
   <trkpt lat="50.801516" lon="6.061826"><ele>184.75</ele></trkpt>
   <trkpt lat="50.80127" lon="6.06164"><ele>184</ele></trkpt>
   <trkpt lat="50.801037" lon="6.061447"><ele>183.5</ele></trkpt>
   <trkpt lat="50.800847" lon="6.061283"><ele>183.25</ele></trkpt>
   <trkpt lat="50.800678" lon="6.061135"><ele>183.5</ele></trkpt>
   <trkpt lat="50.800639" lon="6.061101"><ele>183.5</ele></trkpt>
   <trkpt lat="50.800146" lon="6.060667"><ele>183.5</ele></trkpt>
   <trkpt lat="50.799961" lon="6.060501"><ele>183.5</ele></trkpt>
   <trkpt lat="50.798988" lon="6.059639"><ele>180.75</ele></trkpt>
   <trkpt lat="50.798322" lon="6.059048"><ele>179</ele></trkpt>
   <trkpt lat="50.797935" lon="6.05871"><ele>178.5</ele></trkpt>
   <trkpt lat="50.797739" lon="6.058535"><ele>178.5</ele></trkpt>
   <trkpt lat="50.796497" lon="6.057431"><ele>175.25</ele></trkpt>
   <trkpt lat="50.795906" lon="6.056905"><ele>175</ele></trkpt>
   <trkpt lat="50.795895" lon="6.056895"><ele>175</ele></trkpt>
   <trkpt lat="50.795596" lon="6.05663"><ele>175.5</ele></trkpt>
   <trkpt lat="50.794871" lon="6.055978"><ele>177.25</ele></trkpt>
   <trkpt lat="50.794328" lon="6.055497"><ele>178.75</ele></trkpt>
   <trkpt lat="50.794267" lon="6.055443"><ele>178.75</ele></trkpt>
   <trkpt lat="50.794256" lon="6.055434"><ele>179</ele></trkpt>
   <trkpt lat="50.79425" lon="6.055428"><ele>179</ele></trkpt>
   <trkpt lat="50.793808" lon="6.055035"><ele>183.75</ele></trkpt>
   <trkpt lat="50.79297" lon="6.054308"><ele>184.25</ele></trkpt>
   <trkpt lat="50.792674" lon="6.054075"><ele>185</ele></trkpt>
   <trkpt lat="50.792611" lon="6.054037"><ele>185.25</ele></trkpt>
   <trkpt lat="50.792407" lon="6.053906"><ele>186.5</ele></trkpt>
   <trkpt lat="50.792214" lon="6.053803"><ele>187.5</ele></trkpt>
   <trkpt lat="50.791991" lon="6.0537"><ele>189</ele></trkpt>
   <trkpt lat="50.791764" lon="6.053616"><ele>190.5</ele></trkpt>
   <trkpt lat="50.791513" lon="6.053553"><ele>191.25</ele></trkpt>
   <trkpt lat="50.791289" lon="6.053501"><ele>191.25</ele></trkpt>
   <trkpt lat="50.791087" lon="6.053478"><ele>191.25</ele></trkpt>
   <trkpt lat="50.790621" lon="6.053486"><ele>190.5</ele></trkpt>
   <trkpt lat="50.790332" lon="6.053522"><ele>189.75</ele></trkpt>
   <trkpt lat="50.790023" lon="6.053596"><ele>189.25</ele></trkpt>
   <trkpt lat="50.78967" lon="6.053732"><ele>190</ele></trkpt>
   <trkpt lat="50.789399" lon="6.053856"><ele>190.5</ele></trkpt>
   <trkpt lat="50.789118" lon="6.054016"><ele>191</ele></trkpt>
   <trkpt lat="50.788859" lon="6.054185"><ele>191</ele></trkpt>
   <trkpt lat="50.78879" lon="6.054229"><ele>191</ele></trkpt>
   <trkpt lat="50.788787" lon="6.054232"><ele>191</ele></trkpt>
   <trkpt lat="50.788502" lon="6.054451"><ele>191.25</ele></trkpt>
   <trkpt lat="50.788093" lon="6.054801"><ele>192.75</ele></trkpt>
   <trkpt lat="50.787908" lon="6.054986"><ele>194</ele></trkpt>
   <trkpt lat="50.787568" lon="6.055326"><ele>195.25</ele></trkpt>
   <trkpt lat="50.787444" lon="6.055463"><ele>195.5</ele></trkpt>
   <trkpt lat="50.787403" lon="6.055505"><ele>195.75</ele></trkpt>
   <trkpt lat="50.787346" lon="6.055564"><ele>196</ele></trkpt>
   <trkpt lat="50.787017" lon="6.055982"><ele>196</ele></trkpt>
   <trkpt lat="50.786899" lon="6.056145"><ele>195.75</ele></trkpt>
   <trkpt lat="50.786612" lon="6.05658"><ele>194.5</ele></trkpt>
   <trkpt lat="50.786554" lon="6.056671"><ele>194.5</ele></trkpt>
   <trkpt lat="50.786537" lon="6.056698"><ele>194.5</ele></trkpt>
   <trkpt lat="50.786223" lon="6.05717"><ele>194.5</ele></trkpt>
   <trkpt lat="50.785843" lon="6.057655"><ele>193.25</ele></trkpt>
   <trkpt lat="50.785342" lon="6.058344"><ele>194</ele></trkpt>
   <trkpt lat="50.785165" lon="6.05863"><ele>194.5</ele></trkpt>
   <trkpt lat="50.78492" lon="6.059048"><ele>195.25</ele></trkpt>
   <trkpt lat="50.784518" lon="6.059734"><ele>195.5</ele></trkpt>
   <trkpt lat="50.784447" lon="6.059859"><ele>195.5</ele></trkpt>
   <trkpt lat="50.784082" lon="6.060453"><ele>196.25</ele></trkpt>
   <trkpt lat="50.783878" lon="6.060843"><ele>197</ele></trkpt>
   <trkpt lat="50.783811" lon="6.060996"><ele>196.75</ele></trkpt>
   <trkpt lat="50.783672" lon="6.061353"><ele>196</ele></trkpt>
   <trkpt lat="50.783664" lon="6.061375"><ele>196</ele></trkpt>
   <trkpt lat="50.783617" lon="6.061506"><ele>195.5</ele></trkpt>
   <trkpt lat="50.78316" lon="6.06281"><ele>194.75</ele></trkpt>
   <trkpt lat="50.782875" lon="6.063621"><ele>195.25</ele></trkpt>
   <trkpt lat="50.782088" lon="6.065864"><ele>196.75</ele></trkpt>
   <trkpt lat="50.781383" lon="6.067863"><ele>193.5</ele></trkpt>
   <trkpt lat="50.781248" lon="6.068245"><ele>192.75</ele></trkpt>
   <trkpt lat="50.780951" lon="6.069094"><ele>192.75</ele></trkpt>
   <trkpt lat="50.780867" lon="6.069326"><ele>194</ele></trkpt>
   <trkpt lat="50.780479" lon="6.070416"><ele>194</ele></trkpt>
   <trkpt lat="50.78045" lon="6.070491"><ele>194</ele></trkpt>
   <trkpt lat="50.780266" lon="6.070943"><ele>194.5</ele></trkpt>
   <trkpt lat="50.780101" lon="6.07132"><ele>194.25</ele></trkpt>
   <trkpt lat="50.780086" lon="6.071352"><ele>194.25</ele></trkpt>
   <trkpt lat="50.779927" lon="6.071674"><ele>194.5</ele></trkpt>
   <trkpt lat="50.779687" lon="6.072122"><ele>196.25</ele></trkpt>
   <trkpt lat="50.779441" lon="6.072542"><ele>197</ele></trkpt>
   <trkpt lat="50.779116" lon="6.073039"><ele>196.5</ele></trkpt>
   <trkpt lat="50.778798" lon="6.07349"><ele>196.5</ele></trkpt>
   <trkpt lat="50.778778" lon="6.073518"><ele>196.5</ele></trkpt>
   <trkpt lat="50.778705" lon="6.073615"><ele>196.5</ele></trkpt>
   <trkpt lat="50.778653" lon="6.073684"><ele>196.5</ele></trkpt>
   <trkpt lat="50.778554" lon="6.073808"><ele>196.25</ele></trkpt>
   <trkpt lat="50.778333" lon="6.074061"><ele>195.5</ele></trkpt>
   <trkpt lat="50.778168" lon="6.074227"><ele>195.25</ele></trkpt>
   <trkpt lat="50.778107" lon="6.074282"><ele>195</ele></trkpt>
   <trkpt lat="50.7779" lon="6.07444"><ele>194.75</ele></trkpt>
   <trkpt lat="50.777611" lon="6.074636"><ele>193.5</ele></trkpt>
   <trkpt lat="50.777401" lon="6.074741"><ele>192.5</ele></trkpt>
   <trkpt lat="50.777277" lon="6.074789"><ele>192</ele></trkpt>
   <trkpt lat="50.777257" lon="6.074795"><ele>192</ele></trkpt>
   <trkpt lat="50.777052" lon="6.074847"><ele>191.25</ele></trkpt>
   <trkpt lat="50.776758" lon="6.074878"><ele>190.75</ele></trkpt>
   <trkpt lat="50.776625" lon="6.074874"><ele>190.75</ele></trkpt>
   <trkpt lat="50.776481" lon="6.074857"><ele>190.75</ele></trkpt>
   <trkpt lat="50.776312" lon="6.074822"><ele>190.75</ele></trkpt>
   <trkpt lat="50.776234" lon="6.0748"><ele>190.75</ele></trkpt>
   <trkpt lat="50.775944" lon="6.074689"><ele>191</ele></trkpt>
   <trkpt lat="50.775497" lon="6.074421"><ele>191.75</ele></trkpt>
   <trkpt lat="50.775341" lon="6.074324"><ele>191.75</ele></trkpt>
   <trkpt lat="50.775193" lon="6.074227"><ele>192</ele></trkpt>
   <trkpt lat="50.774759" lon="6.073957"><ele>192</ele></trkpt>
   <trkpt lat="50.774579" lon="6.073849"><ele>191.75</ele></trkpt>
   <trkpt lat="50.774484" lon="6.073793"><ele>191.5</ele></trkpt>
   <trkpt lat="50.774145" lon="6.073616"><ele>190.75</ele></trkpt>
   <trkpt lat="50.773898" lon="6.07351"><ele>189.75</ele></trkpt>
   <trkpt lat="50.773658" lon="6.07342"><ele>188.75</ele></trkpt>
   <trkpt lat="50.773428" lon="6.073349"><ele>187.5</ele></trkpt>
   <trkpt lat="50.773232" lon="6.073303"><ele>187</ele></trkpt>
   <trkpt lat="50.773082" lon="6.073274"><ele>187.25</ele></trkpt>
   <trkpt lat="50.772948" lon="6.07325"><ele>187.5</ele></trkpt>
   <trkpt lat="50.772693" lon="6.07322"><ele>187.75</ele></trkpt>
   <trkpt lat="50.772436" lon="6.073203"><ele>188</ele></trkpt>
   <trkpt lat="50.772141" lon="6.073202"><ele>188.25</ele></trkpt>
   <trkpt lat="50.771902" lon="6.073212"><ele>188.5</ele></trkpt>
   <trkpt lat="50.7715" lon="6.073255"><ele>188.75</ele></trkpt>
   <trkpt lat="50.771476" lon="6.073258"><ele>188.75</ele></trkpt>
   <trkpt lat="50.771012" lon="6.073346"><ele>189</ele></trkpt>
   <trkpt lat="50.770863" lon="6.073384"><ele>189</ele></trkpt>
   <trkpt lat="50.77074" lon="6.073414"><ele>189.25</ele></trkpt>
   <trkpt lat="50.770557" lon="6.073471"><ele>190</ele></trkpt>
   <trkpt lat="50.77031" lon="6.073556"><ele>190.75</ele></trkpt>
   <trkpt lat="50.770036" lon="6.073666"><ele>192</ele></trkpt>
   <trkpt lat="50.769765" lon="6.073788"><ele>194.25</ele></trkpt>
   <trkpt lat="50.769525" lon="6.073902"><ele>196.25</ele></trkpt>
   <trkpt lat="50.769341" lon="6.074006"><ele>197.75</ele></trkpt>
   <trkpt lat="50.7693" lon="6.074028"><ele>198</ele></trkpt>
   <trkpt lat="50.768937" lon="6.074244"><ele>199.75</ele></trkpt>
   <trkpt lat="50.768903" lon="6.074267"><ele>199.75</ele></trkpt>
   <trkpt lat="50.768669" lon="6.074428"><ele>200</ele></trkpt>
   <trkpt lat="50.768309" lon="6.074686"><ele>200</ele></trkpt>
   <trkpt lat="50.767727" lon="6.075147"><ele>200</ele></trkpt>
   <trkpt lat="50.767652" lon="6.07522"><ele>200</ele></trkpt>
   <trkpt lat="50.767607" lon="6.075265"><ele>200</ele></trkpt>
   <trkpt lat="50.767288" lon="6.075566"><ele>200</ele></trkpt>
   <trkpt lat="50.766928" lon="6.07599"><ele>198.75</ele></trkpt>
   <trkpt lat="50.766804" lon="6.076166"><ele>197.75</ele></trkpt>
   <trkpt lat="50.766785" lon="6.076194"><ele>197.75</ele></trkpt>
   <trkpt lat="50.766597" lon="6.076461"><ele>196</ele></trkpt>
   <trkpt lat="50.766359" lon="6.076897"><ele>193.5</ele></trkpt>
   <trkpt lat="50.766274" lon="6.077052"><ele>192.5</ele></trkpt>
   <trkpt lat="50.766073" lon="6.077475"><ele>189.75</ele></trkpt>
   <trkpt lat="50.76582" lon="6.078125"><ele>185</ele></trkpt>
   <trkpt lat="50.765696" lon="6.078498"><ele>183.5</ele></trkpt>
   <trkpt lat="50.765562" lon="6.078944"><ele>182.75</ele></trkpt>
   <trkpt lat="50.765418" lon="6.079546"><ele>182.25</ele></trkpt>
   <trkpt lat="50.765381" lon="6.079749"><ele>182</ele></trkpt>
   <trkpt lat="50.765316" lon="6.080103"><ele>182</ele></trkpt>
   <trkpt lat="50.765242" lon="6.080617"><ele>182</ele></trkpt>
   <trkpt lat="50.765225" lon="6.080739"><ele>182</ele></trkpt>
   <trkpt lat="50.765214" lon="6.080819"><ele>182</ele></trkpt>
   <trkpt lat="50.765145" lon="6.081327"><ele>182</ele></trkpt>
   <trkpt lat="50.765116" lon="6.081559"><ele>182</ele></trkpt>
   <trkpt lat="50.765104" lon="6.081672"><ele>182</ele></trkpt>
   <trkpt lat="50.765009" lon="6.082392"><ele>182.75</ele></trkpt>
   <trkpt lat="50.764971" lon="6.082755"><ele>183.25</ele></trkpt>
   <trkpt lat="50.764969" lon="6.082782"><ele>183.25</ele></trkpt>
   <trkpt lat="50.764959" lon="6.082902"><ele>183.5</ele></trkpt>
   <trkpt lat="50.764949" lon="6.083023"><ele>183.5</ele></trkpt>
   <trkpt lat="50.764935" lon="6.083179"><ele>183.75</ele></trkpt>
   <trkpt lat="50.764855" lon="6.083687"><ele>184.5</ele></trkpt>
   <trkpt lat="50.764712" lon="6.084625"><ele>186.5</ele></trkpt>
   <trkpt lat="50.764696" lon="6.084803"><ele>187</ele></trkpt>
   <trkpt lat="50.764688" lon="6.084985"><ele>187.25</ele></trkpt>
   <trkpt lat="50.764689" lon="6.085142"><ele>187.5</ele></trkpt>
   <trkpt lat="50.76471" lon="6.08545"><ele>188</ele></trkpt>
   <trkpt lat="50.76473" lon="6.085599"><ele>188.25</ele></trkpt>
   <trkpt lat="50.764783" lon="6.085874"><ele>188.25</ele></trkpt>
   <trkpt lat="50.764869" lon="6.086174"><ele>188.25</ele></trkpt>
   <trkpt lat="50.764889" lon="6.086227"><ele>188</ele></trkpt>
   <trkpt lat="50.764922" lon="6.086314"><ele>188</ele></trkpt>
   <trkpt lat="50.765023" lon="6.086541"><ele>187.75</ele></trkpt>
   <trkpt lat="50.765162" lon="6.086783"><ele>188</ele></trkpt>
   <trkpt lat="50.765187" lon="6.086822"><ele>188.25</ele></trkpt>
   <trkpt lat="50.765436" lon="6.087178"><ele>189.25</ele></trkpt>
   <trkpt lat="50.765752" lon="6.087613"><ele>190</ele></trkpt>
   <trkpt lat="50.765962" lon="6.087842"><ele>190.25</ele></trkpt>
   <trkpt lat="50.766301" lon="6.088219"><ele>190.25</ele></trkpt>
   <trkpt lat="50.76648" lon="6.088458"><ele>189.75</ele></trkpt>
   <trkpt lat="50.766618" lon="6.088666"><ele>189.5</ele></trkpt>
   <trkpt lat="50.76669" lon="6.088795"><ele>189.5</ele></trkpt>
   <trkpt lat="50.767072" lon="6.089545"><ele>190.25</ele></trkpt>
   <trkpt lat="50.767235" lon="6.089921"><ele>190</ele></trkpt>
   <trkpt lat="50.767322" lon="6.09017"><ele>189.75</ele></trkpt>
   <trkpt lat="50.767328" lon="6.090189"><ele>189.75</ele></trkpt>
   <trkpt lat="50.767345" lon="6.090242"><ele>189.75</ele></trkpt>
   <trkpt lat="50.767435" lon="6.090573"><ele>189.75</ele></trkpt>
   <trkpt lat="50.767726" lon="6.092041"><ele>191</ele></trkpt>
   <trkpt lat="50.767769" lon="6.092336"><ele>190.25</ele></trkpt>
   <trkpt lat="50.767782" lon="6.092501"><ele>189.75</ele></trkpt>
   <trkpt lat="50.767784" lon="6.092642"><ele>189</ele></trkpt>
  </trkseg>
 </trk>
</gpx>