<?xml version="1.0" encoding="UTF-8"?>
<!-- track-length = 50987 filtered ascend = 50 plain-ascend = -1 cost=50987 energy=0.6kwh time=1h 7m 59s -->
<gpx 
 xmlns="http://www.topografix.com/GPX/1/1" 
 xmlns:xsi="http://www.w3.org/2001/XMLSchema-instance" 
 xsi:schemaLocation="http://www.topografix.com/GPX/1/1 http://www.topografix.com/GPX/1/1/gpx.xsd" 
 version="1.1" 
 creator="BRouter-Web 0.18.1">
 <trk>
  <name>Stralsund -&gt; Binz</name>
  <trkseg>
   <trkpt lat="54.308185" lon="13.077826"><ele>8</ele></trkpt>
   <trkpt lat="54.307934" lon="13.078134"><ele>7.5</ele></trkpt>
   <trkpt lat="54.307651" lon="13.078432"><ele>6.5</ele></trkpt>
   <trkpt lat="54.307427" lon="13.07864"><ele>5.75</ele></trkpt>
   <trkpt lat="54.307022" lon="13.078984"><ele>5.25</ele></trkpt>
   <trkpt lat="54.306314" lon="13.079604"><ele>5</ele></trkpt>
   <trkpt lat="54.305974" lon="13.079913"><ele>5.5</ele></trkpt>
   <trkpt lat="54.305065" lon="13.080694"><ele>6</ele></trkpt>
   <trkpt lat="54.304965" lon="13.080779"><ele>6</ele></trkpt>
   <trkpt lat="54.304462" lon="13.081225"><ele>6.25</ele></trkpt>
   <trkpt lat="54.304257" lon="13.081403"><ele>6.5</ele></trkpt>
   <trkpt lat="54.303637" lon="13.081951"><ele>5.75</ele></trkpt>
   <trkpt lat="54.302617" lon="13.082841"><ele>5</ele></trkpt>
   <trkpt lat="54.302296" lon="13.083202"><ele>5</ele></trkpt>
   <trkpt lat="54.302091" lon="13.08338"><ele>4.75</ele></trkpt>
   <trkpt lat="54.301528" lon="13.083875"><ele>4.5</ele></trkpt>
   <trkpt lat="54.301513" lon="13.083889"><ele>4.5</ele></trkpt>
   <trkpt lat="54.301455" lon="13.083942"><ele>4.5</ele></trkpt>
   <trkpt lat="54.301422" lon="13.083969"><ele>4.75</ele></trkpt>
   <trkpt lat="54.301228" lon="13.084151"><ele>5</ele></trkpt>
   <trkpt lat="54.300906" lon="13.0845"><ele>5.75</ele></trkpt>
   <trkpt lat="54.30056" lon="13.084889"><ele>6.25</ele></trkpt>
   <trkpt lat="54.300146" lon="13.085323"><ele>6.75</ele></trkpt>
   <trkpt lat="54.299631" lon="13.085865"><ele>6.5</ele></trkpt>
   <trkpt lat="54.299408" lon="13.086067"><ele>6.5</ele></trkpt>
   <trkpt lat="54.299281" lon="13.086175"><ele>6.5</ele></trkpt>
   <trkpt lat="54.29894" lon="13.086421"><ele>7</ele></trkpt>
   <trkpt lat="54.298495" lon="13.086707"><ele>7.75</ele></trkpt>
   <trkpt lat="54.297651" lon="13.087227"><ele>8.5</ele></trkpt>
   <trkpt lat="54.296287" lon="13.088073"><ele>9.75</ele></trkpt>
   <trkpt lat="54.295716" lon="13.088442"><ele>11</ele></trkpt>
   <trkpt lat="54.295454" lon="13.088601"><ele>11.25</ele></trkpt>
   <trkpt lat="54.295159" lon="13.088815"><ele>11.75</ele></trkpt>
   <trkpt lat="54.294863" lon="13.089102"><ele>11.75</ele></trkpt>
   <trkpt lat="54.294572" lon="13.089441"><ele>11.25</ele></trkpt>
   <trkpt lat="54.294315" lon="13.089817"><ele>10.5</ele></trkpt>
   <trkpt lat="54.294196" lon="13.090028"><ele>10</ele></trkpt>
   <trkpt lat="54.294081" lon="13.090232"><ele>10.25</ele></trkpt>
   <trkpt lat="54.293861" lon="13.090716"><ele>10.25</ele></trkpt>
   <trkpt lat="54.293686" lon="13.091214"><ele>10</ele></trkpt>
   <trkpt lat="54.293545" lon="13.091709"><ele>9</ele></trkpt>
   <trkpt lat="54.293443" lon="13.092162"><ele>9</ele></trkpt>
   <trkpt lat="54.293346" lon="13.092669"><ele>8.75</ele></trkpt>
   <trkpt lat="54.293284" lon="13.093202"><ele>8.25</ele></trkpt>
   <trkpt lat="54.293251" lon="13.093843"><ele>7.75</ele></trkpt>
   <trkpt lat="54.293255" lon="13.094005"><ele>7.5</ele></trkpt>
   <trkpt lat="54.293267" lon="13.094427"><ele>6.5</ele></trkpt>
   <trkpt lat="54.29331" lon="13.095021"><ele>5</ele></trkpt>
   <trkpt lat="54.293385" lon="13.09563"><ele>4.75</ele></trkpt>
   <trkpt lat="54.293497" lon="13.096193"><ele>4.25</ele></trkpt>
   <trkpt lat="54.293654" lon="13.096779"><ele>3.5</ele></trkpt>
   <trkpt lat="54.293865" lon="13.097365"><ele>3.25</ele></trkpt>
   <trkpt lat="54.294069" lon="13.097816"><ele>3</ele></trkpt>
   <trkpt lat="54.294297" lon="13.098236"><ele>2.75</ele></trkpt>
   <trkpt lat="54.294583" lon="13.098649"><ele>3</ele></trkpt>
   <trkpt lat="54.294874" lon="13.09899"><ele>3</ele></trkpt>
   <trkpt lat="54.295188" lon="13.099285"><ele>1.75</ele></trkpt>
   <trkpt lat="54.295534" lon="13.09952"><ele>0</ele></trkpt>
   <trkpt lat="54.295762" lon="13.099675"><ele>-1.25</ele></trkpt>
   <trkpt lat="54.297087" lon="13.100534"><ele>2</ele></trkpt>
   <trkpt lat="54.297265" lon="13.100646"><ele>2</ele></trkpt>
   <trkpt lat="54.298714" lon="13.101573"><ele>0.75</ele></trkpt>
   <trkpt lat="54.298769" lon="13.101608"><ele>0.75</ele></trkpt>
   <trkpt lat="54.298822" lon="13.101643"><ele>0.75</ele></trkpt>
   <trkpt lat="54.29921" lon="13.101908"><ele>0.75</ele></trkpt>
   <trkpt lat="54.299456" lon="13.102099"><ele>0.25</ele></trkpt>
   <trkpt lat="54.299785" lon="13.102327"><ele>-0.25</ele></trkpt>
   <trkpt lat="54.299981" lon="13.102457"><ele>-0.75</ele></trkpt>
   <trkpt lat="54.300612" lon="13.10286"><ele>0.25</ele></trkpt>
   <trkpt lat="54.300995" lon="13.103119"><ele>1.25</ele></trkpt>
   <trkpt lat="54.30108" lon="13.103178"><ele>1.25</ele></trkpt>
   <trkpt lat="54.301477" lon="13.103489"><ele>1.25</ele></trkpt>
   <trkpt lat="54.301658" lon="13.103631"><ele>1.25</ele></trkpt>
   <trkpt lat="54.302028" lon="13.103971"><ele>1.5</ele></trkpt>
   <trkpt lat="54.302446" lon="13.104377"><ele>2.5</ele></trkpt>
   <trkpt lat="54.303405" lon="13.105363"><ele>1.5</ele></trkpt>
   <trkpt lat="54.303881" lon="13.105807"><ele>1</ele></trkpt>
   <trkpt lat="54.304008" lon="13.105937"><ele>0.75</ele></trkpt>
   <trkpt lat="54.30426" lon="13.106175"><ele>0.5</ele></trkpt>
   <trkpt lat="54.304743" lon="13.106745"><ele>2</ele></trkpt>
   <trkpt lat="54.305154" lon="13.107256"><ele>2.75</ele></trkpt>
   <trkpt lat="54.305347" lon="13.107539"><ele>2.5</ele></trkpt>
   <trkpt lat="54.305737" lon="13.108135"><ele>2.5</ele></trkpt>
   <trkpt lat="54.305932" lon="13.108434"><ele>2.75</ele></trkpt>
   <trkpt lat="54.306208" lon="13.108913"><ele>2.5</ele></trkpt>
   <trkpt lat="54.306473" lon="13.10942"><ele>2.5</ele></trkpt>
   <trkpt lat="54.306568" lon="13.109609"><ele>2.5</ele></trkpt>
   <trkpt lat="54.306952" lon="13.110415"><ele>2.5</ele></trkpt>
   <trkpt lat="54.307184" lon="13.110938"><ele>2.5</ele></trkpt>
   <trkpt lat="54.307493" lon="13.11167"><ele>2.25</ele></trkpt>
   <trkpt lat="54.307641" lon="13.112023"><ele>2.25</ele></trkpt>
   <trkpt lat="54.307927" lon="13.112704"><ele>2.25</ele></trkpt>
   <trkpt lat="54.308436" lon="13.113904"><ele>2</ele></trkpt>
   <trkpt lat="54.308715" lon="13.11448"><ele>2.25</ele></trkpt>
   <trkpt lat="54.308898" lon="13.114857"><ele>3</ele></trkpt>
   <trkpt lat="54.309168" lon="13.115379"><ele>6.25</ele></trkpt>
   <trkpt lat="54.309261" lon="13.115537"><ele>6.75</ele></trkpt>
   <trkpt lat="54.309926" lon="13.11679"><ele>10.5</ele></trkpt>
   <trkpt lat="54.310024" lon="13.116976"><ele>10.5</ele></trkpt>
   <trkpt lat="54.311084" lon="13.118937"><ele>5.25</ele></trkpt>
   <trkpt lat="54.312283" lon="13.121144"><ele>5</ele></trkpt>
   <trkpt lat="54.313443" lon="13.1233"><ele>5</ele></trkpt>
   <trkpt lat="54.313899" lon="13.124176"><ele>5</ele></trkpt>
   <trkpt lat="54.314603" lon="13.125459"><ele>5</ele></trkpt>
   <trkpt lat="54.314931" lon="13.126079"><ele>4.75</ele></trkpt>
   <trkpt lat="54.314992" lon="13.126185"><ele>4.75</ele></trkpt>
   <trkpt lat="54.315406" lon="13.126921"><ele>4.75</ele></trkpt>
   <trkpt lat="54.316038" lon="13.128091"><ele>4.75</ele></trkpt>
   <trkpt lat="54.317025" lon="13.129942"><ele>4.75</ele></trkpt>
   <trkpt lat="54.317872" lon="13.131526"><ele>4.75</ele></trkpt>
   <trkpt lat="54.318009" lon="13.131769"><ele>4.75</ele></trkpt>
   <trkpt lat="54.31879" lon="13.133273"><ele>4.5</ele></trkpt>
   <trkpt lat="54.319063" lon="13.133781"><ele>4.5</ele></trkpt>
   <trkpt lat="54.319398" lon="13.134411"><ele>4.5</ele></trkpt>
   <trkpt lat="54.320718" lon="13.136862"><ele>4.5</ele></trkpt>
   <trkpt lat="54.320829" lon="13.137069"><ele>4.5</ele></trkpt>
   <trkpt lat="54.320868" lon="13.137141"><ele>4.5</ele></trkpt>
   <trkpt lat="54.32089" lon="13.137182"><ele>4.5</ele></trkpt>
   <trkpt lat="54.321263" lon="13.137908"><ele>4.5</ele></trkpt>
   <trkpt lat="54.321741" lon="13.138878"><ele>4.5</ele></trkpt>
   <trkpt lat="54.322126" lon="13.13967"><ele>4.5</ele></trkpt>
   <trkpt lat="54.322609" lon="13.140545"><ele>4</ele></trkpt>
   <trkpt lat="54.322702" lon="13.140721"><ele>4</ele></trkpt>
   <trkpt lat="54.322981" lon="13.141232"><ele>4.25</ele></trkpt>
   <trkpt lat="54.323025" lon="13.141312"><ele>4.25</ele></trkpt>
   <trkpt lat="54.323586" lon="13.142285"><ele>5</ele></trkpt>
   <trkpt lat="54.324023" lon="13.142987"><ele>5.25</ele></trkpt>
   <trkpt lat="54.324462" lon="13.143618"><ele>6.25</ele></trkpt>
   <trkpt lat="54.324879" lon="13.144235"><ele>6.75</ele></trkpt>
   <trkpt lat="54.325229" lon="13.1447"><ele>5.75</ele></trkpt>
   <trkpt lat="54.325689" lon="13.145281"><ele>4</ele></trkpt>
   <trkpt lat="54.32717" lon="13.147124"><ele>4.5</ele></trkpt>
   <trkpt lat="54.327561" lon="13.147616"><ele>5</ele></trkpt>
   <trkpt lat="54.327681" lon="13.147766"><ele>5.25</ele></trkpt>
   <trkpt lat="54.328358" lon="13.148618"><ele>6</ele></trkpt>
   <trkpt lat="54.328696" lon="13.149015"><ele>6.25</ele></trkpt>
   <trkpt lat="54.329011" lon="13.149395"><ele>6.5</ele></trkpt>
   <trkpt lat="54.329184" lon="13.149621"><ele>6.25</ele></trkpt>
   <trkpt lat="54.329535" lon="13.150102"><ele>5.75</ele></trkpt>
   <trkpt lat="54.329874" lon="13.150608"><ele>5.25</ele></trkpt>
   <trkpt lat="54.330185" lon="13.151119"><ele>4.5</ele></trkpt>
   <trkpt lat="54.330492" lon="13.151685"><ele>4</ele></trkpt>
   <trkpt lat="54.330824" lon="13.152338"><ele>4</ele></trkpt>
   <trkpt lat="54.331155" lon="13.153054"><ele>3.75</ele></trkpt>
   <trkpt lat="54.331259" lon="13.153309"><ele>3.75</ele></trkpt>
   <trkpt lat="54.331488" lon="13.153856"><ele>3.25</ele></trkpt>
   <trkpt lat="54.332145" lon="13.15538"><ele>2.5</ele></trkpt>
   <trkpt lat="54.333182" lon="13.157794"><ele>4.5</ele></trkpt>
   <trkpt lat="54.333793" lon="13.159228"><ele>4.75</ele></trkpt>
   <trkpt lat="54.334079" lon="13.159836"><ele>4.75</ele></trkpt>
   <trkpt lat="54.334399" lon="13.160407"><ele>5</ele></trkpt>
   <trkpt lat="54.334726" lon="13.160909"><ele>5</ele></trkpt>
   <trkpt lat="54.335088" lon="13.161362"><ele>5.5</ele></trkpt>
   <trkpt lat="54.335561" lon="13.161905"><ele>6.25</ele></trkpt>
   <trkpt lat="54.335675" lon="13.162039"><ele>6.25</ele></trkpt>
   <trkpt lat="54.33594" lon="13.162345"><ele>6.5</ele></trkpt>
   <trkpt lat="54.337269" lon="13.163837"><ele>4.75</ele></trkpt>
   <trkpt lat="54.338725" lon="13.165473"><ele>4.5</ele></trkpt>
   <trkpt lat="54.340613" lon="13.167602"><ele>4</ele></trkpt>
   <trkpt lat="54.342035" lon="13.169196"><ele>4.25</ele></trkpt>
   <trkpt lat="54.342531" lon="13.169741"><ele>4.75</ele></trkpt>
   <trkpt lat="54.343376" lon="13.17069"><ele>3.75</ele></trkpt>
   <trkpt lat="54.344042" lon="13.171443"><ele>3</ele></trkpt>
   <trkpt lat="54.344781" lon="13.172264"><ele>3</ele></trkpt>
   <trkpt lat="54.345037" lon="13.172573"><ele>3</ele></trkpt>
   <trkpt lat="54.346106" lon="13.173761"><ele>4</ele></trkpt>
   <trkpt lat="54.346514" lon="13.174226"><ele>4.75</ele></trkpt>
   <trkpt lat="54.346849" lon="13.174697"><ele>5.25</ele></trkpt>
   <trkpt lat="54.346991" lon="13.174947"><ele>5.5</ele></trkpt>
   <trkpt lat="54.347378" lon="13.175678"><ele>5</ele></trkpt>
   <trkpt lat="54.347603" lon="13.176194"><ele>5</ele></trkpt>
   <trkpt lat="54.347941" lon="13.17734"><ele>5.5</ele></trkpt>
   <trkpt lat="54.348431" lon="13.17928"><ele>6</ele></trkpt>
   <trkpt lat="54.348647" lon="13.18015"><ele>6.5</ele></trkpt>
   <trkpt lat="54.348884" lon="13.181093"><ele>6.25</ele></trkpt>
   <trkpt lat="54.349102" lon="13.181907"><ele>6</ele></trkpt>
   <trkpt lat="54.349996" lon="13.18531"><ele>7</ele></trkpt>
   <trkpt lat="54.35026" lon="13.186411"><ele>7.25</ele></trkpt>
   <trkpt lat="54.350659" lon="13.187955"><ele>7</ele></trkpt>
   <trkpt lat="54.35134" lon="13.190619"><ele>7</ele></trkpt>
   <trkpt lat="54.351672" lon="13.191899"><ele>7</ele></trkpt>
   <trkpt lat="54.351851" lon="13.192601"><ele>6.75</ele></trkpt>
   <trkpt lat="54.352019" lon="13.193292"><ele>6</ele></trkpt>
   <trkpt lat="54.352184" lon="13.194095"><ele>6</ele></trkpt>
   <trkpt lat="54.352349" lon="13.195066"><ele>4.75</ele></trkpt>
   <trkpt lat="54.352464" lon="13.195944"><ele>4.75</ele></trkpt>
   <trkpt lat="54.35254" lon="13.196748"><ele>4</ele></trkpt>
   <trkpt lat="54.35258" lon="13.197338"><ele>4</ele></trkpt>
   <trkpt lat="54.352668" lon="13.199682"><ele>3.75</ele></trkpt>
   <trkpt lat="54.352773" lon="13.202326"><ele>3.5</ele></trkpt>
   <trkpt lat="54.352823" lon="13.203207"><ele>3.5</ele></trkpt>
   <trkpt lat="54.352888" lon="13.204072"><ele>3.25</ele></trkpt>
   <trkpt lat="54.352997" lon="13.204954"><ele>2.75</ele></trkpt>
   <trkpt lat="54.353335" lon="13.20724"><ele>3</ele></trkpt>
   <trkpt lat="54.35342" lon="13.207793"><ele>3.5</ele></trkpt>
   <trkpt lat="54.353547" lon="13.208648"><ele>4</ele></trkpt>
   <trkpt lat="54.353985" lon="13.211518"><ele>3.25</ele></trkpt>
   <trkpt lat="54.35426" lon="13.213356"><ele>3.5</ele></trkpt>
   <trkpt lat="54.35437" lon="13.214182"><ele>3.25</ele></trkpt>
   <trkpt lat="54.35444" lon="13.214948"><ele>2.5</ele></trkpt>
   <trkpt lat="54.35448" lon="13.215712"><ele>2.5</ele></trkpt>
   <trkpt lat="54.354494" lon="13.217374"><ele>3.5</ele></trkpt>
   <trkpt lat="54.354492" lon="13.219946"><ele>3.75</ele></trkpt>
   <trkpt lat="54.354506" lon="13.223258"><ele>2.75</ele></trkpt>
   <trkpt lat="54.354504" lon="13.223822"><ele>3</ele></trkpt>
   <trkpt lat="54.354494" lon="13.22708"><ele>3</ele></trkpt>
   <trkpt lat="54.354493" lon="13.229993"><ele>2.5</ele></trkpt>
   <trkpt lat="54.354499" lon="13.232877"><ele>2.25</ele></trkpt>
   <trkpt lat="54.354502" lon="13.235806"><ele>4</ele></trkpt>
   <trkpt lat="54.354498" lon="13.238497"><ele>7.25</ele></trkpt>
   <trkpt lat="54.354488" lon="13.242364"><ele>14.75</ele></trkpt>
   <trkpt lat="54.354481" lon="13.245274"><ele>15.25</ele></trkpt>
   <trkpt lat="54.35449" lon="13.248176"><ele>11.75</ele></trkpt>
   <trkpt lat="54.354487" lon="13.251046"><ele>11.25</ele></trkpt>
   <trkpt lat="54.354492" lon="13.253913"><ele>9.5</ele></trkpt>
   <trkpt lat="54.354487" lon="13.256931"><ele>9.5</ele></trkpt>
   <trkpt lat="54.354493" lon="13.26031"><ele>8.5</ele></trkpt>
   <trkpt lat="54.354496" lon="13.263191"><ele>5.75</ele></trkpt>
   <trkpt lat="54.354492" lon="13.264812"><ele>5.25</ele></trkpt>
   <trkpt lat="54.354497" lon="13.267047"><ele>6.5</ele></trkpt>
   <trkpt lat="54.354499" lon="13.269907"><ele>8.5</ele></trkpt>
   <trkpt lat="54.354492" lon="13.272844"><ele>6.75</ele></trkpt>
   <trkpt lat="54.354484" lon="13.275626"><ele>4.5</ele></trkpt>
   <trkpt lat="54.354483" lon="13.276185"><ele>4</ele></trkpt>
   <trkpt lat="54.354483" lon="13.278285"><ele>3.25</ele></trkpt>
   <trkpt lat="54.354478" lon="13.279288"><ele>2.75</ele></trkpt>
   <trkpt lat="54.354467" lon="13.279937"><ele>2</ele></trkpt>
   <trkpt lat="54.354445" lon="13.280354"><ele>2</ele></trkpt>
   <trkpt lat="54.354392" lon="13.2811"><ele>1.75</ele></trkpt>
   <trkpt lat="54.354376" lon="13.281333"><ele>1.75</ele></trkpt>
   <trkpt lat="54.354354" lon="13.281952"><ele>1.75</ele></trkpt>
   <trkpt lat="54.354263" lon="13.283448"><ele>2.75</ele></trkpt>
   <trkpt lat="54.354225" lon="13.284032"><ele>2.75</ele></trkpt>
   <trkpt lat="54.354167" lon="13.284811"><ele>3.75</ele></trkpt>
   <trkpt lat="54.354127" lon="13.285516"><ele>3.75</ele></trkpt>
   <trkpt lat="54.3541" lon="13.286332"><ele>4.5</ele></trkpt>
   <trkpt lat="54.354089" lon="13.287834"><ele>3.75</ele></trkpt>
   <trkpt lat="54.354085" lon="13.289228"><ele>3.25</ele></trkpt>
   <trkpt lat="54.354101" lon="13.290683"><ele>4</ele></trkpt>
   <trkpt lat="54.354138" lon="13.291038"><ele>4.25</ele></trkpt>
   <trkpt lat="54.354203" lon="13.291563"><ele>4.75</ele></trkpt>
   <trkpt lat="54.354273" lon="13.292018"><ele>5.25</ele></trkpt>
   <trkpt lat="54.354373" lon="13.29249"><ele>5.75</ele></trkpt>
   <trkpt lat="54.354438" lon="13.292804"><ele>6</ele></trkpt>
   <trkpt lat="54.354484" lon="13.292987"><ele>6</ele></trkpt>
   <trkpt lat="54.354511" lon="13.293096"><ele>6</ele></trkpt>
   <trkpt lat="54.354723" lon="13.293771"><ele>5.25</ele></trkpt>
   <trkpt lat="54.354856" lon="13.294135"><ele>5</ele></trkpt>
   <trkpt lat="54.355032" lon="13.294571"><ele>5.5</ele></trkpt>
   <trkpt lat="54.355564" lon="13.295816"><ele>6.5</ele></trkpt>
   <trkpt lat="54.355777" lon="13.296235"><ele>6</ele></trkpt>
   <trkpt lat="54.355854" lon="13.296391"><ele>5.5</ele></trkpt>
   <trkpt lat="54.35605" lon="13.296799"><ele>5.25</ele></trkpt>
   <trkpt lat="54.356417" lon="13.29755"><ele>5.5</ele></trkpt>
   <trkpt lat="54.357033" lon="13.298905"><ele>6.25</ele></trkpt>
   <trkpt lat="54.357768" lon="13.300544"><ele>8.5</ele></trkpt>
   <trkpt lat="54.358064" lon="13.301214"><ele>7.5</ele></trkpt>
   <trkpt lat="54.359077" lon="13.303453"><ele>5.25</ele></trkpt>
   <trkpt lat="54.36012" lon="13.305734"><ele>7.25</ele></trkpt>
   <trkpt lat="54.360214" lon="13.305954"><ele>7.25</ele></trkpt>
   <trkpt lat="54.361468" lon="13.308735"><ele>8</ele></trkpt>
   <trkpt lat="54.361506" lon="13.308817"><ele>8</ele></trkpt>
   <trkpt lat="54.361855" lon="13.309592"><ele>7.25</ele></trkpt>
   <trkpt lat="54.362322" lon="13.310663"><ele>5.5</ele></trkpt>
   <trkpt lat="54.363468" lon="13.313171"><ele>5</ele></trkpt>
   <trkpt lat="54.364747" lon="13.316019"><ele>7</ele></trkpt>
   <trkpt lat="54.365631" lon="13.317983"><ele>7</ele></trkpt>
   <trkpt lat="54.365671" lon="13.318064"><ele>7</ele></trkpt>
   <trkpt lat="54.365798" lon="13.31834"><ele>7</ele></trkpt>
   <trkpt lat="54.366023" lon="13.318843"><ele>6.75</ele></trkpt>
   <trkpt lat="54.366813" lon="13.320626"><ele>6</ele></trkpt>
   <trkpt lat="54.367278" lon="13.321633"><ele>6.75</ele></trkpt>
   <trkpt lat="54.367706" lon="13.322681"><ele>6.75</ele></trkpt>
   <trkpt lat="54.367873" lon="13.323171"><ele>7.25</ele></trkpt>
   <trkpt lat="54.368023" lon="13.323746"><ele>7</ele></trkpt>
   <trkpt lat="54.368112" lon="13.32416"><ele>7</ele></trkpt>
   <trkpt lat="54.368179" lon="13.324509"><ele>7.25</ele></trkpt>
   <trkpt lat="54.368231" lon="13.324869"><ele>7.5</ele></trkpt>
   <trkpt lat="54.368362" lon="13.326032"><ele>7.5</ele></trkpt>
   <trkpt lat="54.368587" lon="13.328433"><ele>6.25</ele></trkpt>
   <trkpt lat="54.368611" lon="13.328706"><ele>6</ele></trkpt>
   <trkpt lat="54.368938" lon="13.332265"><ele>5.5</ele></trkpt>
   <trkpt lat="54.369177" lon="13.334842"><ele>4</ele></trkpt>
   <trkpt lat="54.369273" lon="13.335866"><ele>2.75</ele></trkpt>
   <trkpt lat="54.369414" lon="13.336939"><ele>1.5</ele></trkpt>
   <trkpt lat="54.369499" lon="13.337471"><ele>1.5</ele></trkpt>
   <trkpt lat="54.369659" lon="13.338292"><ele>2.75</ele></trkpt>
   <trkpt lat="54.369831" lon="13.339075"><ele>3</ele></trkpt>
   <trkpt lat="54.370049" lon="13.339893"><ele>3.75</ele></trkpt>
   <trkpt lat="54.370296" lon="13.340641"><ele>4</ele></trkpt>
   <trkpt lat="54.370554" lon="13.341298"><ele>4</ele></trkpt>
   <trkpt lat="54.370814" lon="13.341937"><ele>4.75</ele></trkpt>
   <trkpt lat="54.371181" lon="13.342706"><ele>5.5</ele></trkpt>
   <trkpt lat="54.371521" lon="13.343331"><ele>5.75</ele></trkpt>
   <trkpt lat="54.37191" lon="13.343979"><ele>6.5</ele></trkpt>
   <trkpt lat="54.372304" lon="13.344543"><ele>7.75</ele></trkpt>
   <trkpt lat="54.372723" lon="13.345077"><ele>9.75</ele></trkpt>
   <trkpt lat="54.373075" lon="13.345499"><ele>11.25</ele></trkpt>
   <trkpt lat="54.373398" lon="13.34582"><ele>11.75</ele></trkpt>
   <trkpt lat="54.373797" lon="13.346172"><ele>10.5</ele></trkpt>
   <trkpt lat="54.374246" lon="13.34653"><ele>9</ele></trkpt>
   <trkpt lat="54.374738" lon="13.346858"><ele>9</ele></trkpt>
   <trkpt lat="54.376139" lon="13.347662"><ele>12.25</ele></trkpt>
   <trkpt lat="54.376546" lon="13.347917"><ele>12.25</ele></trkpt>
   <trkpt lat="54.376942" lon="13.348215"><ele>11.25</ele></trkpt>
   <trkpt lat="54.377339" lon="13.348595"><ele>10</ele></trkpt>
   <trkpt lat="54.3777" lon="13.349002"><ele>9.75</ele></trkpt>
   <trkpt lat="54.37805" lon="13.349501"><ele>9.25</ele></trkpt>
   <trkpt lat="54.378372" lon="13.350032"><ele>8</ele></trkpt>
   <trkpt lat="54.378655" lon="13.350601"><ele>9.75</ele></trkpt>
   <trkpt lat="54.378907" lon="13.351198"><ele>11.25</ele></trkpt>
   <trkpt lat="54.379131" lon="13.351861"><ele>11.75</ele></trkpt>
   <trkpt lat="54.37935" lon="13.352589"><ele>12.5</ele></trkpt>
   <trkpt lat="54.379822" lon="13.354244"><ele>14.75</ele></trkpt>
   <trkpt lat="54.380547" lon="13.3568"><ele>17.75</ele></trkpt>
   <trkpt lat="54.380799" lon="13.357542"><ele>16.75</ele></trkpt>
   <trkpt lat="54.381046" lon="13.35821"><ele>15.75</ele></trkpt>
   <trkpt lat="54.381369" lon="13.358985"><ele>17.25</ele></trkpt>
   <trkpt lat="54.381723" lon="13.359721"><ele>18.75</ele></trkpt>
   <trkpt lat="54.38285" lon="13.361869"><ele>23</ele></trkpt>
   <trkpt lat="54.383963" lon="13.364043"><ele>18</ele></trkpt>
   <trkpt lat="54.38513" lon="13.366209"><ele>15.25</ele></trkpt>
   <trkpt lat="54.386541" lon="13.368885"><ele>15</ele></trkpt>
   <trkpt lat="54.387578" lon="13.370854"><ele>15</ele></trkpt>
   <trkpt lat="54.388449" lon="13.372535"><ele>17.25</ele></trkpt>
   <trkpt lat="54.388961" lon="13.373505"><ele>19.5</ele></trkpt>
   <trkpt lat="54.389458" lon="13.374445"><ele>19.75</ele></trkpt>
   <trkpt lat="54.390051" lon="13.375562"><ele>19</ele></trkpt>
   <trkpt lat="54.391135" lon="13.377609"><ele>20.5</ele></trkpt>
   <trkpt lat="54.392467" lon="13.380174"><ele>26</ele></trkpt>
   <trkpt lat="54.392525" lon="13.380283"><ele>26.25</ele></trkpt>
   <trkpt lat="54.393527" lon="13.382157"><ele>29.25</ele></trkpt>
   <trkpt lat="54.394934" lon="13.384874"><ele>34</ele></trkpt>
   <trkpt lat="54.396082" lon="13.38703"><ele>33</ele></trkpt>
   <trkpt lat="54.397205" lon="13.389158"><ele>28.5</ele></trkpt>
   <trkpt lat="54.398632" lon="13.391843"><ele>24.25</ele></trkpt>
   <trkpt lat="54.399612" lon="13.393735"><ele>24.75</ele></trkpt>
   <trkpt lat="54.399957" lon="13.394283"><ele>24</ele></trkpt>
   <trkpt lat="54.400803" lon="13.395445"><ele>25</ele></trkpt>
   <trkpt lat="54.401237" lon="13.39594"><ele>25</ele></trkpt>
   <trkpt lat="54.401694" lon="13.396408"><ele>25.5</ele></trkpt>
   <trkpt lat="54.402693" lon="13.397326"><ele>27</ele></trkpt>
   <trkpt lat="54.404121" lon="13.398626"><ele>24.25</ele></trkpt>
   <trkpt lat="54.405901" lon="13.400268"><ele>23.25</ele></trkpt>
   <trkpt lat="54.407364" lon="13.4016"><ele>23</ele></trkpt>
   <trkpt lat="54.40817" lon="13.402353"><ele>21.25</ele></trkpt>
   <trkpt lat="54.408858" lon="13.402999"><ele>21.25</ele></trkpt>
   <trkpt lat="54.41066" lon="13.404643"><ele>20.25</ele></trkpt>
   <trkpt lat="54.412065" lon="13.405925"><ele>20.5</ele></trkpt>
   <trkpt lat="54.413707" lon="13.407434"><ele>21.75</ele></trkpt>
   <trkpt lat="54.413977" lon="13.407677"><ele>22</ele></trkpt>
   <trkpt lat="54.414399" lon="13.408071"><ele>22.75</ele></trkpt>
   <trkpt lat="54.414973" lon="13.408633"><ele>24</ele></trkpt>
   <trkpt lat="54.415376" lon="13.409064"><ele>23.75</ele></trkpt>
   <trkpt lat="54.415634" lon="13.409385"><ele>23.75</ele></trkpt>
   <trkpt lat="54.415726" lon="13.409502"><ele>23.75</ele></trkpt>
   <trkpt lat="54.415959" lon="13.409832"><ele>24.25</ele></trkpt>
   <trkpt lat="54.415991" lon="13.409878"><ele>24.5</ele></trkpt>
   <trkpt lat="54.416049" lon="13.409962"><ele>24.75</ele></trkpt>
   <trkpt lat="54.416378" lon="13.410473"><ele>25.75</ele></trkpt>
   <trkpt lat="54.41663" lon="13.410889"><ele>26</ele></trkpt>
   <trkpt lat="54.417245" lon="13.411919"><ele>25.75</ele></trkpt>
   <trkpt lat="54.417611" lon="13.412571"><ele>25</ele></trkpt>
   <trkpt lat="54.418991" lon="13.415081"><ele>24</ele></trkpt>
   <trkpt lat="54.420024" lon="13.416958"><ele>26.25</ele></trkpt>
   <trkpt lat="54.420388" lon="13.417621"><ele>27</ele></trkpt>
   <trkpt lat="54.420789" lon="13.418346"><ele>26.75</ele></trkpt>
   <trkpt lat="54.421143" lon="13.418987"><ele>26.75</ele></trkpt>
   <trkpt lat="54.422252" lon="13.421035"><ele>24</ele></trkpt>
   <trkpt lat="54.422738" lon="13.421874"><ele>23.5</ele></trkpt>
   <trkpt lat="54.422942" lon="13.4222"><ele>23.25</ele></trkpt>
   <trkpt lat="54.423285" lon="13.42267"><ele>23.25</ele></trkpt>
   <trkpt lat="54.423599" lon="13.422977"><ele>22.75</ele></trkpt>
   <trkpt lat="54.423841" lon="13.423197"><ele>22.5</ele></trkpt>
   <trkpt lat="54.4241" lon="13.423382"><ele>22.25</ele></trkpt>
   <trkpt lat="54.424228" lon="13.423462"><ele>22.25</ele></trkpt>
   <trkpt lat="54.424411" lon="13.423564"><ele>22.25</ele></trkpt>
   <trkpt lat="54.424587" lon="13.423663"><ele>22.5</ele></trkpt>
   <trkpt lat="54.424946" lon="13.423806"><ele>22.75</ele></trkpt>
   <trkpt lat="54.425813" lon="13.424113"><ele>26.5</ele></trkpt>
   <trkpt lat="54.426269" lon="13.424263"><ele>26</ele></trkpt>
   <trkpt lat="54.427246" lon="13.424616"><ele>24.25</ele></trkpt>
   <trkpt lat="54.428124" lon="13.424908"><ele>26.75</ele></trkpt>
   <trkpt lat="54.428626" lon="13.425095"><ele>27.5</ele></trkpt>
   <trkpt lat="54.429541" lon="13.425475"><ele>26</ele></trkpt>
   <trkpt lat="54.429774" lon="13.425604"><ele>25.5</ele></trkpt>
   <trkpt lat="54.429936" lon="13.425711"><ele>25</ele></trkpt>
   <trkpt lat="54.430072" lon="13.425802"><ele>25.25</ele></trkpt>
   <trkpt lat="54.430526" lon="13.426204"><ele>26.5</ele></trkpt>
   <trkpt lat="54.430776" lon="13.426494"><ele>27</ele></trkpt>
   <trkpt lat="54.43098" lon="13.426766"><ele>27</ele></trkpt>
   <trkpt lat="54.431297" lon="13.427223"><ele>26.75</ele></trkpt>
   <trkpt lat="54.43139" lon="13.427389"><ele>26.75</ele></trkpt>
   <trkpt lat="54.431709" lon="13.428012"><ele>26</ele></trkpt>
   <trkpt lat="54.431824" lon="13.428292"><ele>24.75</ele></trkpt>
   <trkpt lat="54.432085" lon="13.428898"><ele>23.25</ele></trkpt>
   <trkpt lat="54.432294" lon="13.429406"><ele>22.25</ele></trkpt>
   <trkpt lat="54.432454" lon="13.429821"><ele>21.75</ele></trkpt>
   <trkpt lat="54.433377" lon="13.432096"><ele>21.25</ele></trkpt>
   <trkpt lat="54.433389" lon="13.432128"><ele>21.25</ele></trkpt>
   <trkpt lat="54.433656" lon="13.43279"><ele>20.25</ele></trkpt>
   <trkpt lat="54.434033" lon="13.433714"><ele>17.75</ele></trkpt>
   <trkpt lat="54.434078" lon="13.433825"><ele>17.5</ele></trkpt>
   <trkpt lat="54.434153" lon="13.434004"><ele>17</ele></trkpt>
   <trkpt lat="54.434236" lon="13.434219"><ele>16.75</ele></trkpt>
   <trkpt lat="54.434489" lon="13.434848"><ele>16.75</ele></trkpt>
   <trkpt lat="54.435375" lon="13.436963"><ele>17.25</ele></trkpt>
   <trkpt lat="54.435478" lon="13.43718"><ele>17.5</ele></trkpt>
   <trkpt lat="54.436173" lon="13.438295"><ele>17.25</ele></trkpt>
   <trkpt lat="54.436589" lon="13.438807"><ele>18.25</ele></trkpt>
   <trkpt lat="54.436947" lon="13.439092"><ele>19.25</ele></trkpt>
   <trkpt lat="54.437065" lon="13.43918"><ele>19.25</ele></trkpt>
   <trkpt lat="54.437956" lon="13.439683"><ele>18</ele></trkpt>
   <trkpt lat="54.438643" lon="13.439888"><ele>15.25</ele></trkpt>
   <trkpt lat="54.439523" lon="13.440151"><ele>11.75</ele></trkpt>
   <trkpt lat="54.439907" lon="13.440261"><ele>11.5</ele></trkpt>
   <trkpt lat="54.439971" lon="13.440279"><ele>11.5</ele></trkpt>
   <trkpt lat="54.440055" lon="13.440305"><ele>11.5</ele></trkpt>
   <trkpt lat="54.44022" lon="13.440355"><ele>12</ele></trkpt>
   <trkpt lat="54.441742" lon="13.440802"><ele>17</ele></trkpt>
   <trkpt lat="54.442198" lon="13.440995"><ele>16.75</ele></trkpt>
   <trkpt lat="54.442544" lon="13.441187"><ele>15.75</ele></trkpt>
   <trkpt lat="54.442784" lon="13.441351"><ele>14.25</ele></trkpt>
   <trkpt lat="54.443027" lon="13.441546"><ele>12.5</ele></trkpt>
   <trkpt lat="54.443268" lon="13.441763"><ele>11.25</ele></trkpt>
   <trkpt lat="54.443594" lon="13.442133"><ele>11.25</ele></trkpt>
   <trkpt lat="54.443651" lon="13.442205"><ele>11.25</ele></trkpt>
   <trkpt lat="54.443942" lon="13.442607"><ele>11.5</ele></trkpt>
   <trkpt lat="54.444223" lon="13.44306"><ele>11.25</ele></trkpt>
   <trkpt lat="54.44479" lon="13.444181"><ele>11.5</ele></trkpt>
   <trkpt lat="54.44602" lon="13.446732"><ele>9.25</ele></trkpt>
   <trkpt lat="54.446721" lon="13.448209"><ele>8.5</ele></trkpt>
   <trkpt lat="54.447061" lon="13.448913"><ele>8.25</ele></trkpt>
   <trkpt lat="54.448203" lon="13.451315"><ele>11.25</ele></trkpt>
   <trkpt lat="54.448444" lon="13.451788"><ele>11</ele></trkpt>
   <trkpt lat="54.448803" lon="13.452471"><ele>9.25</ele></trkpt>
   <trkpt lat="54.449561" lon="13.453688"><ele>4.75</ele></trkpt>
   <trkpt lat="54.45081" lon="13.455707"><ele>0.75</ele></trkpt>
   <trkpt lat="54.451834" lon="13.457343"><ele>2.75</ele></trkpt>
   <trkpt lat="54.452211" lon="13.458011"><ele>3.25</ele></trkpt>
   <trkpt lat="54.452486" lon="13.458606"><ele>2.5</ele></trkpt>
   <trkpt lat="54.452713" lon="13.45919"><ele>2.25</ele></trkpt>
   <trkpt lat="54.452846" lon="13.459621"><ele>2</ele></trkpt>
   <trkpt lat="54.452933" lon="13.459936"><ele>1.5</ele></trkpt>
   <trkpt lat="54.45306" lon="13.460442"><ele>1</ele></trkpt>
   <trkpt lat="54.45374" lon="13.463738"><ele>2</ele></trkpt>
   <trkpt lat="54.453903" lon="13.46454"><ele>3.5</ele></trkpt>
   <trkpt lat="54.454035" lon="13.465088"><ele>4.25</ele></trkpt>
   <trkpt lat="54.454229" lon="13.465754"><ele>5.75</ele></trkpt>
   <trkpt lat="54.454504" lon="13.466482"><ele>8.25</ele></trkpt>
   <trkpt lat="54.454724" lon="13.466976"><ele>9</ele></trkpt>
   <trkpt lat="54.455167" lon="13.467741"><ele>8.5</ele></trkpt>
   <trkpt lat="54.45548" lon="13.468182"><ele>7</ele></trkpt>
   <trkpt lat="54.455651" lon="13.468383"><ele>6</ele></trkpt>
   <trkpt lat="54.45581" lon="13.468573"><ele>6.25</ele></trkpt>
   <trkpt lat="54.456248" lon="13.468981"><ele>5.5</ele></trkpt>
   <trkpt lat="54.45732" lon="13.469811"><ele>3.75</ele></trkpt>
   <trkpt lat="54.458371" lon="13.470614"><ele>7.75</ele></trkpt>
   <trkpt lat="54.458877" lon="13.47099"><ele>5.5</ele></trkpt>
   <trkpt lat="54.460094" lon="13.471922"><ele>1.5</ele></trkpt>
   <trkpt lat="54.460383" lon="13.472157"><ele>2.5</ele></trkpt>
   <trkpt lat="54.460771" lon="13.472449"><ele>3</ele></trkpt>
   <trkpt lat="54.461447" lon="13.47303"><ele>4</ele></trkpt>
   <trkpt lat="54.462311" lon="13.473909"><ele>7.25</ele></trkpt>
   <trkpt lat="54.462719" lon="13.474336"><ele>7.75</ele></trkpt>
   <trkpt lat="54.46347" lon="13.475229"><ele>6</ele></trkpt>
   <trkpt lat="54.463697" lon="13.475509"><ele>6.25</ele></trkpt>
   <trkpt lat="54.465044" lon="13.477133"><ele>1.75</ele></trkpt>
   <trkpt lat="54.465564" lon="13.477753"><ele>4</ele></trkpt>
   <trkpt lat="54.46594" lon="13.47812"><ele>4</ele></trkpt>
   <trkpt lat="54.466219" lon="13.478336"><ele>4.5</ele></trkpt>
   <trkpt lat="54.46662" lon="13.478616"><ele>6.5</ele></trkpt>
   <trkpt lat="54.468198" lon="13.479364"><ele>7</ele></trkpt>
   <trkpt lat="54.468826" lon="13.479647"><ele>5</ele></trkpt>
   <trkpt lat="54.470342" lon="13.480383"><ele>5</ele></trkpt>
   <trkpt lat="54.471376" lon="13.480928"><ele>8.75</ele></trkpt>
   <trkpt lat="54.471802" lon="13.481219"><ele>9.25</ele></trkpt>
   <trkpt lat="54.472393" lon="13.481645"><ele>10</ele></trkpt>
   <trkpt lat="54.472906" lon="13.482072"><ele>13.75</ele></trkpt>
   <trkpt lat="54.473401" lon="13.482534"><ele>14</ele></trkpt>
   <trkpt lat="54.473735" lon="13.482869"><ele>11.75</ele></trkpt>
   <trkpt lat="54.474004" lon="13.483155"><ele>9.5</ele></trkpt>
   <trkpt lat="54.474336" lon="13.48353"><ele>10</ele></trkpt>
   <trkpt lat="54.474663" lon="13.483921"><ele>12.25</ele></trkpt>
   <trkpt lat="54.474993" lon="13.484363"><ele>12.25</ele></trkpt>
   <trkpt lat="54.47525" lon="13.484704"><ele>11.75</ele></trkpt>
   <trkpt lat="54.475855" lon="13.4856"><ele>12.25</ele></trkpt>
   <trkpt lat="54.476184" lon="13.486141"><ele>10.75</ele></trkpt>
   <trkpt lat="54.476193" lon="13.486156"><ele>10.75</ele></trkpt>
   <trkpt lat="54.476245" lon="13.486242"><ele>10.5</ele></trkpt>
   <trkpt lat="54.476601" lon="13.486897"><ele>8.75</ele></trkpt>
   <trkpt lat="54.476921" lon="13.487555"><ele>7.25</ele></trkpt>
   <trkpt lat="54.477228" lon="13.488265"><ele>4.75</ele></trkpt>
   <trkpt lat="54.477483" lon="13.488934"><ele>3.5</ele></trkpt>
   <trkpt lat="54.477736" lon="13.489689"><ele>2.25</ele></trkpt>
   <trkpt lat="54.477958" lon="13.490439"><ele>1.5</ele></trkpt>
   <trkpt lat="54.478139" lon="13.491173"><ele>0.75</ele></trkpt>
   <trkpt lat="54.478315" lon="13.491974"><ele>0</ele></trkpt>
   <trkpt lat="54.47845" lon="13.492731"><ele>0</ele></trkpt>
   <trkpt lat="54.478707" lon="13.494499"><ele>-0.75</ele></trkpt>
   <trkpt lat="54.47904" lon="13.496822"><ele>-3</ele></trkpt>
   <trkpt lat="54.479156" lon="13.497632"><ele>-3</ele></trkpt>
   <trkpt lat="54.479158" lon="13.49765"><ele>-2.75</ele></trkpt>
   <trkpt lat="54.479178" lon="13.497792"><ele>-2.75</ele></trkpt>
   <trkpt lat="54.479512" lon="13.500087"><ele>-2.25</ele></trkpt>
   <trkpt lat="54.479523" lon="13.500153"><ele>-2.25</ele></trkpt>
   <trkpt lat="54.4797" lon="13.501196"><ele>-2</ele></trkpt>
   <trkpt lat="54.47978" lon="13.501712"><ele>-1.75</ele></trkpt>
   <trkpt lat="54.479827" lon="13.502036"><ele>-2</ele></trkpt>
   <trkpt lat="54.479854" lon="13.502228"><ele>-2</ele></trkpt>
   <trkpt lat="54.479965" lon="13.503006"><ele>-1.5</ele></trkpt>
   <trkpt lat="54.480003" lon="13.503267"><ele>-1.25</ele></trkpt>
   <trkpt lat="54.480031" lon="13.503459"><ele>-1.25</ele></trkpt>
   <trkpt lat="54.480074" lon="13.503778"><ele>-1</ele></trkpt>
   <trkpt lat="54.480214" lon="13.504739"><ele>-0.5</ele></trkpt>
   <trkpt lat="54.480417" lon="13.506227"><ele>0</ele></trkpt>
   <trkpt lat="54.480438" lon="13.506383"><ele>0.25</ele></trkpt>
   <trkpt lat="54.480461" lon="13.506556"><ele>0.25</ele></trkpt>
   <trkpt lat="54.48047" lon="13.506616"><ele>0.5</ele></trkpt>
   <trkpt lat="54.480555" lon="13.50716"><ele>0.25</ele></trkpt>
   <trkpt lat="54.480664" lon="13.507707"><ele>0</ele></trkpt>
   <trkpt lat="54.480789" lon="13.508383"><ele>-0.75</ele></trkpt>
   <trkpt lat="54.480828" lon="13.50862"><ele>-0.75</ele></trkpt>
   <trkpt lat="54.48095" lon="13.509716"><ele>-0.25</ele></trkpt>
   <trkpt lat="54.480997" lon="13.510321"><ele>0</ele></trkpt>
   <trkpt lat="54.481017" lon="13.510665"><ele>0</ele></trkpt>
   <trkpt lat="54.481039" lon="13.51141"><ele>0</ele></trkpt>
   <trkpt lat="54.48104" lon="13.511769"><ele>0.25</ele></trkpt>
   <trkpt lat="54.481039" lon="13.512008"><ele>0.5</ele></trkpt>
   <trkpt lat="54.481038" lon="13.512458"><ele>3.25</ele></trkpt>
   <trkpt lat="54.481036" lon="13.514372"><ele>3.25</ele></trkpt>
   <trkpt lat="54.481029" lon="13.514838"><ele>3.5</ele></trkpt>
   <trkpt lat="54.481025" lon="13.515087"><ele>3.75</ele></trkpt>
   <trkpt lat="54.480893" lon="13.517144"><ele>4.75</ele></trkpt>
   <trkpt lat="54.480869" lon="13.517484"><ele>4.75</ele></trkpt>
   <trkpt lat="54.480844" lon="13.517837"><ele>5</ele></trkpt>
   <trkpt lat="54.480807" lon="13.518827"><ele>5</ele></trkpt>
   <trkpt lat="54.480807" lon="13.518994"><ele>4.75</ele></trkpt>
   <trkpt lat="54.480796" lon="13.519396"><ele>4.25</ele></trkpt>
   <trkpt lat="54.480778" lon="13.519661"><ele>3.75</ele></trkpt>
   <trkpt lat="54.480765" lon="13.51998"><ele>3.25</ele></trkpt>
   <trkpt lat="54.480764" lon="13.520661"><ele>2.75</ele></trkpt>
   <trkpt lat="54.480764" lon="13.520786"><ele>2.5</ele></trkpt>
   <trkpt lat="54.48076" lon="13.521477"><ele>1.75</ele></trkpt>
   <trkpt lat="54.480752" lon="13.523193"><ele>-0.75</ele></trkpt>
   <trkpt lat="54.480746" lon="13.523927"><ele>-0.5</ele></trkpt>
   <trkpt lat="54.480724" lon="13.524591"><ele>0</ele></trkpt>
   <trkpt lat="54.480662" lon="13.525512"><ele>2</ele></trkpt>
   <trkpt lat="54.480647" lon="13.525707"><ele>2.5</ele></trkpt>
   <trkpt lat="54.480599" lon="13.526257"><ele>4</ele></trkpt>
   <trkpt lat="54.480587" lon="13.526403"><ele>4.5</ele></trkpt>
   <trkpt lat="54.480485" lon="13.527293"><ele>8.25</ele></trkpt>
   <trkpt lat="54.480343" lon="13.528247"><ele>11.75</ele></trkpt>
   <trkpt lat="54.479139" lon="13.534603"><ele>11</ele></trkpt>
   <trkpt lat="54.4787" lon="13.536785"><ele>9.25</ele></trkpt>
   <trkpt lat="54.478042" lon="13.540008"><ele>7.5</ele></trkpt>
   <trkpt lat="54.477777" lon="13.542291"><ele>5</ele></trkpt>
   <trkpt lat="54.477194" lon="13.552849"><ele>10.5</ele></trkpt>
   <trkpt lat="54.476936" lon="13.554975"><ele>8.25</ele></trkpt>
   <trkpt lat="54.476282" lon="13.559456"><ele>11.25</ele></trkpt>
   <trkpt lat="54.476071" lon="13.560452"><ele>9.25</ele></trkpt>
   <trkpt lat="54.475836" lon="13.561384"><ele>6.25</ele></trkpt>
   <trkpt lat="54.475653" lon="13.561939"><ele>5.75</ele></trkpt>
   <trkpt lat="54.475389" lon="13.562613"><ele>6</ele></trkpt>
   <trkpt lat="54.475066" lon="13.563212"><ele>6</ele></trkpt>
   <trkpt lat="54.474621" lon="13.563887"><ele>8</ele></trkpt>
   <trkpt lat="54.47438" lon="13.564199"><ele>8.5</ele></trkpt>
   <trkpt lat="54.473965" lon="13.564622"><ele>8.5</ele></trkpt>
   <trkpt lat="54.473467" lon="13.565031"><ele>8.75</ele></trkpt>
   <trkpt lat="54.472804" lon="13.565385"><ele>9.5</ele></trkpt>
   <trkpt lat="54.472341" lon="13.565487"><ele>10</ele></trkpt>
   <trkpt lat="54.471899" lon="13.565539"><ele>10</ele></trkpt>
   <trkpt lat="54.469323" lon="13.565373"><ele>12</ele></trkpt>
   <trkpt lat="54.463611" lon="13.564909"><ele>8.5</ele></trkpt>
   <trkpt lat="54.462714" lon="13.564687"><ele>8</ele></trkpt>
   <trkpt lat="54.45979" lon="13.563285"><ele>8</ele></trkpt>
   <trkpt lat="54.457674" lon="13.56227"><ele>6.25</ele></trkpt>
   <trkpt lat="54.455283" lon="13.561118"><ele>6</ele></trkpt>
   <trkpt lat="54.454567" lon="13.560882"><ele>7</ele></trkpt>
   <trkpt lat="54.453804" lon="13.560688"><ele>8.5</ele></trkpt>
   <trkpt lat="54.453708" lon="13.560672"><ele>8.75</ele></trkpt>
   <trkpt lat="54.45304" lon="13.560581"><ele>9.25</ele></trkpt>
   <trkpt lat="54.452072" lon="13.560631"><ele>9</ele></trkpt>
   <trkpt lat="54.451079" lon="13.560878"><ele>8</ele></trkpt>
   <trkpt lat="54.449669" lon="13.561613"><ele>6.75</ele></trkpt>
   <trkpt lat="54.447544" lon="13.562731"><ele>7.25</ele></trkpt>
   <trkpt lat="54.445563" lon="13.563763"><ele>7.75</ele></trkpt>
   <trkpt lat="54.444253" lon="13.564443"><ele>8</ele></trkpt>
   <trkpt lat="54.443967" lon="13.56459"><ele>7.25</ele></trkpt>
   <trkpt lat="54.443905" lon="13.564622"><ele>7.25</ele></trkpt>
   <trkpt lat="54.443511" lon="13.564832"><ele>7</ele></trkpt>
   <trkpt lat="54.442758" lon="13.565218"><ele>5.5</ele></trkpt>
   <trkpt lat="54.442573" lon="13.565327"><ele>5</ele></trkpt>
   <trkpt lat="54.44253" lon="13.565352"><ele>5</ele></trkpt>
   <trkpt lat="54.44249" lon="13.565374"><ele>4.75</ele></trkpt>
   <trkpt lat="54.441601" lon="13.565858"><ele>3</ele></trkpt>
   <trkpt lat="54.441176" lon="13.566165"><ele>4.25</ele></trkpt>
   <trkpt lat="54.440115" lon="13.566932"><ele>5</ele></trkpt>
   <trkpt lat="54.437463" lon="13.568961"><ele>8.5</ele></trkpt>
   <trkpt lat="54.436616" lon="13.569602"><ele>9</ele></trkpt>
   <trkpt lat="54.435272" lon="13.570619"><ele>7.75</ele></trkpt>
   <trkpt lat="54.429112" lon="13.575284"><ele>8.25</ele></trkpt>
   <trkpt lat="54.428627" lon="13.575671"><ele>9.5</ele></trkpt>
   <trkpt lat="54.427739" lon="13.57644"><ele>9.5</ele></trkpt>
   <trkpt lat="54.424783" lon="13.579488"><ele>7.75</ele></trkpt>
   <trkpt lat="54.418168" lon="13.586452"><ele>15</ele></trkpt>
   <trkpt lat="54.414984" lon="13.589787"><ele>8</ele></trkpt>
   <trkpt lat="54.411808" lon="13.59312"><ele>8.5</ele></trkpt>
   <trkpt lat="54.409172" lon="13.595879"><ele>3</ele></trkpt>
   <trkpt lat="54.409128" lon="13.595924"><ele>3</ele></trkpt>
   <trkpt lat="54.408705" lon="13.596442"><ele>3.75</ele></trkpt>
   <trkpt lat="54.408254" lon="13.596921"><ele>3.75</ele></trkpt>
   <trkpt lat="54.408118" lon="13.597064"><ele>3.5</ele></trkpt>
   <trkpt lat="54.407611" lon="13.597595"><ele>3</ele></trkpt>
   <trkpt lat="54.405621" lon="13.599669"><ele>4</ele></trkpt>
   <trkpt lat="54.404827" lon="13.600499"><ele>3.75</ele></trkpt>
   <trkpt lat="54.404772" lon="13.600556"><ele>3.75</ele></trkpt>
  </trkseg>
 </trk>
</gpx>