<?xml version="1.0" encoding="UTF-8"?>
<!-- track-length = 78719 filtered ascend = 177 plain-ascend = -13 cost=78719 energy=1.0kwh time=1h 44m 58s -->
<gpx 
 xmlns="http://www.topografix.com/GPX/1/1" 
 xmlns:xsi="http://www.w3.org/2001/XMLSchema-instance" 
 xsi:schemaLocation="http://www.topografix.com/GPX/1/1 http://www.topografix.com/GPX/1/1/gpx.xsd" 
 version="1.1" 
 creator="BRouter-Web 0.18.1">
 <trk>
  <name>Södertälje - Eskilstuna</name>
  <trkseg>
   <trkpt lat="59.162605" lon="17.64643"><ele>34.75</ele></trkpt>
   <trkpt lat="59.162276" lon="17.645517"><ele>34.75</ele></trkpt>
   <trkpt lat="59.162106" lon="17.64506"><ele>34.75</ele></trkpt>
   <trkpt lat="59.162053" lon="17.644912"><ele>35</ele></trkpt>
   <trkpt lat="59.161851" lon="17.644361"><ele>36.5</ele></trkpt>
   <trkpt lat="59.161385" lon="17.643125"><ele>37</ele></trkpt>
   <trkpt lat="59.160722" lon="17.641326"><ele>37.75</ele></trkpt>
   <trkpt lat="59.16022" lon="17.639987"><ele>38.5</ele></trkpt>
   <trkpt lat="59.15957" lon="17.638241"><ele>39.5</ele></trkpt>
   <trkpt lat="59.159299" lon="17.637509"><ele>39.5</ele></trkpt>
   <trkpt lat="59.158622" lon="17.635688"><ele>40.5</ele></trkpt>
   <trkpt lat="59.158187" lon="17.634325"><ele>34.75</ele></trkpt>
   <trkpt lat="59.15797" lon="17.633596"><ele>33.5</ele></trkpt>
   <trkpt lat="59.157674" lon="17.632528"><ele>32.5</ele></trkpt>
   <trkpt lat="59.157476" lon="17.631737"><ele>31.75</ele></trkpt>
   <trkpt lat="59.157311" lon="17.630992"><ele>32.25</ele></trkpt>
   <trkpt lat="59.157046" lon="17.62975"><ele>32.75</ele></trkpt>
   <trkpt lat="59.156884" lon="17.628867"><ele>35</ele></trkpt>
   <trkpt lat="59.156695" lon="17.627684"><ele>37.75</ele></trkpt>
   <trkpt lat="59.156419" lon="17.625812"><ele>44.75</ele></trkpt>
   <trkpt lat="59.156225" lon="17.624377"><ele>50.75</ele></trkpt>
   <trkpt lat="59.156133" lon="17.623631"><ele>48.5</ele></trkpt>
   <trkpt lat="59.156035" lon="17.622783"><ele>46.25</ele></trkpt>
   <trkpt lat="59.15593" lon="17.622024"><ele>44.25</ele></trkpt>
   <trkpt lat="59.155832" lon="17.62136"><ele>44.25</ele></trkpt>
   <trkpt lat="59.155595" lon="17.619651"><ele>43.5</ele></trkpt>
   <trkpt lat="59.155404" lon="17.618176"><ele>42.25</ele></trkpt>
   <trkpt lat="59.155224" lon="17.616682"><ele>42</ele></trkpt>
   <trkpt lat="59.155169" lon="17.61616"><ele>43.5</ele></trkpt>
   <trkpt lat="59.155139" lon="17.615884"><ele>44.25</ele></trkpt>
   <trkpt lat="59.154983" lon="17.614282"><ele>46.5</ele></trkpt>
   <trkpt lat="59.15488" lon="17.61323"><ele>46.75</ele></trkpt>
   <trkpt lat="59.153957" lon="17.603078"><ele>46</ele></trkpt>
   <trkpt lat="59.153761" lon="17.600731"><ele>49</ele></trkpt>
   <trkpt lat="59.153596" lon="17.598435"><ele>43.5</ele></trkpt>
   <trkpt lat="59.153505" lon="17.597061"><ele>40.25</ele></trkpt>
   <trkpt lat="59.153455" lon="17.595479"><ele>43.5</ele></trkpt>
   <trkpt lat="59.153444" lon="17.594567"><ele>45</ele></trkpt>
   <trkpt lat="59.153453" lon="17.593537"><ele>45</ele></trkpt>
   <trkpt lat="59.153483" lon="17.592121"><ele>45.25</ele></trkpt>
   <trkpt lat="59.153521" lon="17.591107"><ele>47</ele></trkpt>
   <trkpt lat="59.153557" lon="17.590399"><ele>49</ele></trkpt>
   <trkpt lat="59.153686" lon="17.588709"><ele>51.25</ele></trkpt>
   <trkpt lat="59.153807" lon="17.587375"><ele>49.5</ele></trkpt>
   <trkpt lat="59.153989" lon="17.585737"><ele>44.5</ele></trkpt>
   <trkpt lat="59.154239" lon="17.583935"><ele>38.75</ele></trkpt>
   <trkpt lat="59.154498" lon="17.582438"><ele>39.5</ele></trkpt>
   <trkpt lat="59.15491" lon="17.580432"><ele>41.75</ele></trkpt>
   <trkpt lat="59.155004" lon="17.580015"><ele>41</ele></trkpt>
   <trkpt lat="59.155155" lon="17.579353"><ele>40.75</ele></trkpt>
   <trkpt lat="59.155483" lon="17.578061"><ele>40</ele></trkpt>
   <trkpt lat="59.155914" lon="17.576543"><ele>41.25</ele></trkpt>
   <trkpt lat="59.156277" lon="17.57533"><ele>45.75</ele></trkpt>
   <trkpt lat="59.156954" lon="17.573211"><ele>41.5</ele></trkpt>
   <trkpt lat="59.158032" lon="17.569714"><ele>45</ele></trkpt>
   <trkpt lat="59.158321" lon="17.568705"><ele>46.75</ele></trkpt>
   <trkpt lat="59.15864" lon="17.56745"><ele>50</ele></trkpt>
   <trkpt lat="59.158813" lon="17.566736"><ele>51.5</ele></trkpt>
   <trkpt lat="59.159256" lon="17.56465"><ele>50.5</ele></trkpt>
   <trkpt lat="59.159558" lon="17.562885"><ele>52</ele></trkpt>
   <trkpt lat="59.159734" lon="17.56178"><ele>52</ele></trkpt>
   <trkpt lat="59.15991" lon="17.560353"><ele>46.75</ele></trkpt>
   <trkpt lat="59.160075" lon="17.558745"><ele>43.5</ele></trkpt>
   <trkpt lat="59.160108" lon="17.558422"><ele>42.75</ele></trkpt>
   <trkpt lat="59.160963" lon="17.549633"><ele>54</ele></trkpt>
   <trkpt lat="59.161118" lon="17.54802"><ele>53.5</ele></trkpt>
   <trkpt lat="59.161162" lon="17.547579"><ele>50.25</ele></trkpt>
   <trkpt lat="59.161607" lon="17.542913"><ele>46.75</ele></trkpt>
   <trkpt lat="59.162143" lon="17.537398"><ele>48.25</ele></trkpt>
   <trkpt lat="59.162389" lon="17.535513"><ele>48.25</ele></trkpt>
   <trkpt lat="59.162444" lon="17.535083"><ele>47.5</ele></trkpt>
   <trkpt lat="59.16277" lon="17.532871"><ele>50.25</ele></trkpt>
   <trkpt lat="59.162979" lon="17.531605"><ele>51</ele></trkpt>
   <trkpt lat="59.163166" lon="17.530564"><ele>49.5</ele></trkpt>
   <trkpt lat="59.163436" lon="17.529191"><ele>46.75</ele></trkpt>
   <trkpt lat="59.163694" lon="17.527925"><ele>46.75</ele></trkpt>
   <trkpt lat="59.163955" lon="17.526734"><ele>47.5</ele></trkpt>
   <trkpt lat="59.164762" lon="17.523428"><ele>44.5</ele></trkpt>
   <trkpt lat="59.166851" lon="17.516478"><ele>40</ele></trkpt>
   <trkpt lat="59.16725" lon="17.515151"><ele>39.75</ele></trkpt>
   <trkpt lat="59.167274" lon="17.515069"><ele>39.75</ele></trkpt>
   <trkpt lat="59.171783" lon="17.499937"><ele>52.75</ele></trkpt>
   <trkpt lat="59.171956" lon="17.499361"><ele>52.25</ele></trkpt>
   <trkpt lat="59.173382" lon="17.494574"><ele>43.5</ele></trkpt>
   <trkpt lat="59.174315" lon="17.490623"><ele>39</ele></trkpt>
   <trkpt lat="59.174569" lon="17.489431"><ele>39.5</ele></trkpt>
   <trkpt lat="59.174812" lon="17.488215"><ele>39</ele></trkpt>
   <trkpt lat="59.17522" lon="17.486053"><ele>38</ele></trkpt>
   <trkpt lat="59.175521" lon="17.484076"><ele>39.25</ele></trkpt>
   <trkpt lat="59.175868" lon="17.48163"><ele>40.25</ele></trkpt>
   <trkpt lat="59.17617" lon="17.478733"><ele>42.5</ele></trkpt>
   <trkpt lat="59.176409" lon="17.475666"><ele>43.75</ele></trkpt>
   <trkpt lat="59.176562" lon="17.472813"><ele>42</ele></trkpt>
   <trkpt lat="59.176642" lon="17.469918"><ele>39.75</ele></trkpt>
   <trkpt lat="59.176651" lon="17.468503"><ele>36.25</ele></trkpt>
   <trkpt lat="59.176627" lon="17.466824"><ele>37.75</ele></trkpt>
   <trkpt lat="59.176564" lon="17.464286"><ele>42.25</ele></trkpt>
   <trkpt lat="59.176262" lon="17.458814"><ele>40.25</ele></trkpt>
   <trkpt lat="59.176068" lon="17.455556"><ele>40.5</ele></trkpt>
   <trkpt lat="59.175906" lon="17.452829"><ele>41</ele></trkpt>
   <trkpt lat="59.175831" lon="17.451099"><ele>40.25</ele></trkpt>
   <trkpt lat="59.175776" lon="17.450199"><ele>40</ele></trkpt>
   <trkpt lat="59.175703" lon="17.448959"><ele>40</ele></trkpt>
   <trkpt lat="59.175653" lon="17.447982"><ele>40</ele></trkpt>
   <trkpt lat="59.175622" lon="17.4472"><ele>40.75</ele></trkpt>
   <trkpt lat="59.175611" lon="17.446531"><ele>40.75</ele></trkpt>
   <trkpt lat="59.175612" lon="17.445961"><ele>39.5</ele></trkpt>
   <trkpt lat="59.175629" lon="17.445043"><ele>38</ele></trkpt>
   <trkpt lat="59.175662" lon="17.444305"><ele>37.75</ele></trkpt>
   <trkpt lat="59.175705" lon="17.443587"><ele>37.75</ele></trkpt>
   <trkpt lat="59.175773" lon="17.442818"><ele>37.75</ele></trkpt>
   <trkpt lat="59.175834" lon="17.442227"><ele>38</ele></trkpt>
   <trkpt lat="59.175916" lon="17.441543"><ele>38</ele></trkpt>
   <trkpt lat="59.175984" lon="17.441058"><ele>38</ele></trkpt>
   <trkpt lat="59.176114" lon="17.440256"><ele>38.25</ele></trkpt>
   <trkpt lat="59.176246" lon="17.439538"><ele>38.5</ele></trkpt>
   <trkpt lat="59.176415" lon="17.438724"><ele>37.75</ele></trkpt>
   <trkpt lat="59.176496" lon="17.438379"><ele>37.25</ele></trkpt>
   <trkpt lat="59.176608" lon="17.43792"><ele>37.5</ele></trkpt>
   <trkpt lat="59.176759" lon="17.437347"><ele>38.25</ele></trkpt>
   <trkpt lat="59.176918" lon="17.43679"><ele>39</ele></trkpt>
   <trkpt lat="59.177103" lon="17.4362"><ele>40.5</ele></trkpt>
   <trkpt lat="59.177267" lon="17.435705"><ele>41.25</ele></trkpt>
   <trkpt lat="59.177471" lon="17.435142"><ele>41</ele></trkpt>
   <trkpt lat="59.177677" lon="17.434606"><ele>41.5</ele></trkpt>
   <trkpt lat="59.177909" lon="17.43405"><ele>41.5</ele></trkpt>
   <trkpt lat="59.178136" lon="17.433531"><ele>40.75</ele></trkpt>
   <trkpt lat="59.17889" lon="17.431879"><ele>39.5</ele></trkpt>
   <trkpt lat="59.179484" lon="17.430578"><ele>39.5</ele></trkpt>
   <trkpt lat="59.179589" lon="17.430346"><ele>39.75</ele></trkpt>
   <trkpt lat="59.180784" lon="17.427718"><ele>39.75</ele></trkpt>
   <trkpt lat="59.181091" lon="17.426939"><ele>40</ele></trkpt>
   <trkpt lat="59.181683" lon="17.425634"><ele>44.5</ele></trkpt>
   <trkpt lat="59.18205" lon="17.424786"><ele>45.75</ele></trkpt>
   <trkpt lat="59.182381" lon="17.423973"><ele>46.25</ele></trkpt>
   <trkpt lat="59.182699" lon="17.423146"><ele>47</ele></trkpt>
   <trkpt lat="59.182968" lon="17.422397"><ele>46</ele></trkpt>
   <trkpt lat="59.183492" lon="17.420813"><ele>43.5</ele></trkpt>
   <trkpt lat="59.183833" lon="17.419687"><ele>43.25</ele></trkpt>
   <trkpt lat="59.184011" lon="17.419027"><ele>43.5</ele></trkpt>
   <trkpt lat="59.184297" lon="17.41789"><ele>44.75</ele></trkpt>
   <trkpt lat="59.184696" lon="17.416162"><ele>46</ele></trkpt>
   <trkpt lat="59.185074" lon="17.414415"><ele>47.5</ele></trkpt>
   <trkpt lat="59.185518" lon="17.412433"><ele>49</ele></trkpt>
   <trkpt lat="59.185778" lon="17.411367"><ele>49.5</ele></trkpt>
   <trkpt lat="59.186155" lon="17.410004"><ele>48</ele></trkpt>
   <trkpt lat="59.186307" lon="17.40949"><ele>48.5</ele></trkpt>
   <trkpt lat="59.186435" lon="17.409077"><ele>49.25</ele></trkpt>
   <trkpt lat="59.186774" lon="17.408041"><ele>53</ele></trkpt>
   <trkpt lat="59.187188" lon="17.406878"><ele>56.25</ele></trkpt>
   <trkpt lat="59.187669" lon="17.405639"><ele>59.5</ele></trkpt>
   <trkpt lat="59.190104" lon="17.39977"><ele>50.75</ele></trkpt>
   <trkpt lat="59.191375" lon="17.396728"><ele>56.25</ele></trkpt>
   <trkpt lat="59.191813" lon="17.395716"><ele>57</ele></trkpt>
   <trkpt lat="59.192122" lon="17.395023"><ele>55.75</ele></trkpt>
   <trkpt lat="59.192767" lon="17.393659"><ele>53.25</ele></trkpt>
   <trkpt lat="59.193097" lon="17.392995"><ele>52.75</ele></trkpt>
   <trkpt lat="59.193652" lon="17.391924"><ele>52.25</ele></trkpt>
   <trkpt lat="59.194246" lon="17.390825"><ele>48.75</ele></trkpt>
   <trkpt lat="59.19782" lon="17.384334"><ele>50</ele></trkpt>
   <trkpt lat="59.198251" lon="17.383521"><ele>50.25</ele></trkpt>
   <trkpt lat="59.19892" lon="17.382172"><ele>51.5</ele></trkpt>
   <trkpt lat="59.199204" lon="17.381552"><ele>51.25</ele></trkpt>
   <trkpt lat="59.199537" lon="17.380786"><ele>52.25</ele></trkpt>
   <trkpt lat="59.199815" lon="17.380111"><ele>51.75</ele></trkpt>
   <trkpt lat="59.200138" lon="17.37929"><ele>52.25</ele></trkpt>
   <trkpt lat="59.2005" lon="17.378303"><ele>51.75</ele></trkpt>
   <trkpt lat="59.200786" lon="17.37746"><ele>50.5</ele></trkpt>
   <trkpt lat="59.200949" lon="17.376959"><ele>49.75</ele></trkpt>
   <trkpt lat="59.201171" lon="17.376242"><ele>48.75</ele></trkpt>
   <trkpt lat="59.201347" lon="17.375641"><ele>47.75</ele></trkpt>
   <trkpt lat="59.201694" lon="17.374375"><ele>48</ele></trkpt>
   <trkpt lat="59.201991" lon="17.37319"><ele>48</ele></trkpt>
   <trkpt lat="59.202347" lon="17.371578"><ele>50.25</ele></trkpt>
   <trkpt lat="59.20249" lon="17.370882"><ele>51.75</ele></trkpt>
   <trkpt lat="59.202736" lon="17.369487"><ele>53.25</ele></trkpt>
   <trkpt lat="59.20286" lon="17.368746"><ele>54</ele></trkpt>
   <trkpt lat="59.203036" lon="17.367566"><ele>54.5</ele></trkpt>
   <trkpt lat="59.203211" lon="17.366245"><ele>54.5</ele></trkpt>
   <trkpt lat="59.203352" lon="17.365063"><ele>55</ele></trkpt>
   <trkpt lat="59.203866" lon="17.360363"><ele>50</ele></trkpt>
   <trkpt lat="59.204001" lon="17.359175"><ele>47</ele></trkpt>
   <trkpt lat="59.20426" lon="17.357154"><ele>44.5</ele></trkpt>
   <trkpt lat="59.20456" lon="17.355116"><ele>44.25</ele></trkpt>
   <trkpt lat="59.204743" lon="17.353991"><ele>44.25</ele></trkpt>
   <trkpt lat="59.204916" lon="17.352978"><ele>44</ele></trkpt>
   <trkpt lat="59.205131" lon="17.351798"><ele>44.5</ele></trkpt>
   <trkpt lat="59.205328" lon="17.350805"><ele>46.25</ele></trkpt>
   <trkpt lat="59.205627" lon="17.349348"><ele>48.75</ele></trkpt>
   <trkpt lat="59.205943" lon="17.347933"><ele>50.25</ele></trkpt>
   <trkpt lat="59.206312" lon="17.346391"><ele>52</ele></trkpt>
   <trkpt lat="59.206577" lon="17.345314"><ele>50</ele></trkpt>
   <trkpt lat="59.206826" lon="17.344384"><ele>50.25</ele></trkpt>
   <trkpt lat="59.207085" lon="17.343449"><ele>51.5</ele></trkpt>
   <trkpt lat="59.20736" lon="17.342486"><ele>51.25</ele></trkpt>
   <trkpt lat="59.207612" lon="17.341648"><ele>50.75</ele></trkpt>
   <trkpt lat="59.208091" lon="17.340105"><ele>51.5</ele></trkpt>
   <trkpt lat="59.20937" lon="17.336087"><ele>47.25</ele></trkpt>
   <trkpt lat="59.209408" lon="17.335969"><ele>47.25</ele></trkpt>
   <trkpt lat="59.209583" lon="17.335399"><ele>47</ele></trkpt>
   <trkpt lat="59.210881" lon="17.33134"><ele>44</ele></trkpt>
   <trkpt lat="59.21127" lon="17.3301"><ele>45.5</ele></trkpt>
   <trkpt lat="59.212518" lon="17.326177"><ele>42.5</ele></trkpt>
   <trkpt lat="59.213131" lon="17.324175"><ele>42.25</ele></trkpt>
   <trkpt lat="59.213534" lon="17.32275"><ele>42.25</ele></trkpt>
   <trkpt lat="59.213923" lon="17.32132"><ele>43.25</ele></trkpt>
   <trkpt lat="59.214437" lon="17.319198"><ele>43.25</ele></trkpt>
   <trkpt lat="59.214925" lon="17.316961"><ele>41.5</ele></trkpt>
   <trkpt lat="59.21555" lon="17.313762"><ele>41.75</ele></trkpt>
   <trkpt lat="59.217042" lon="17.305945"><ele>44.25</ele></trkpt>
   <trkpt lat="59.217215" lon="17.305064"><ele>44.5</ele></trkpt>
   <trkpt lat="59.217512" lon="17.303628"><ele>43.75</ele></trkpt>
   <trkpt lat="59.217835" lon="17.302139"><ele>44.25</ele></trkpt>
   <trkpt lat="59.218257" lon="17.300294"><ele>43</ele></trkpt>
   <trkpt lat="59.219337" lon="17.295876"><ele>41.5</ele></trkpt>
   <trkpt lat="59.219575" lon="17.2949"><ele>42</ele></trkpt>
   <trkpt lat="59.219753" lon="17.294153"><ele>43.25</ele></trkpt>
   <trkpt lat="59.22022" lon="17.292093"><ele>46.25</ele></trkpt>
   <trkpt lat="59.220567" lon="17.29038"><ele>49.25</ele></trkpt>
   <trkpt lat="59.220834" lon="17.288953"><ele>48.5</ele></trkpt>
   <trkpt lat="59.221038" lon="17.287756"><ele>50</ele></trkpt>
   <trkpt lat="59.22122" lon="17.286636"><ele>49.5</ele></trkpt>
   <trkpt lat="59.221397" lon="17.285417"><ele>48.25</ele></trkpt>
   <trkpt lat="59.221562" lon="17.284206"><ele>49.25</ele></trkpt>
   <trkpt lat="59.221835" lon="17.281968"><ele>52.25</ele></trkpt>
   <trkpt lat="59.222959" lon="17.271959"><ele>57</ele></trkpt>
   <trkpt lat="59.224877" lon="17.254821"><ele>57.75</ele></trkpt>
   <trkpt lat="59.225085" lon="17.252919"><ele>60.75</ele></trkpt>
   <trkpt lat="59.225506" lon="17.248698"><ele>61.75</ele></trkpt>
   <trkpt lat="59.226573" lon="17.237619"><ele>59</ele></trkpt>
   <trkpt lat="59.228102" lon="17.221716"><ele>57.5</ele></trkpt>
   <trkpt lat="59.228239" lon="17.220417"><ele>57</ele></trkpt>
   <trkpt lat="59.228383" lon="17.219077"><ele>56</ele></trkpt>
   <trkpt lat="59.228533" lon="17.217818"><ele>56.75</ele></trkpt>
   <trkpt lat="59.228661" lon="17.216834"><ele>57</ele></trkpt>
   <trkpt lat="59.228886" lon="17.21527"><ele>56.75</ele></trkpt>
   <trkpt lat="59.229367" lon="17.21244"><ele>59</ele></trkpt>
   <trkpt lat="59.229587" lon="17.211298"><ele>59.75</ele></trkpt>
   <trkpt lat="59.229973" lon="17.20946"><ele>59.5</ele></trkpt>
   <trkpt lat="59.230388" lon="17.207681"><ele>63</ele></trkpt>
   <trkpt lat="59.230598" lon="17.206849"><ele>62.5</ele></trkpt>
   <trkpt lat="59.230905" lon="17.20568"><ele>61.25</ele></trkpt>
   <trkpt lat="59.231109" lon="17.204947"><ele>61.75</ele></trkpt>
   <trkpt lat="59.231368" lon="17.204062"><ele>60.5</ele></trkpt>
   <trkpt lat="59.231708" lon="17.202947"><ele>58</ele></trkpt>
   <trkpt lat="59.231958" lon="17.202154"><ele>58</ele></trkpt>
   <trkpt lat="59.232294" lon="17.201149"><ele>56</ele></trkpt>
   <trkpt lat="59.232623" lon="17.200211"><ele>54.5</ele></trkpt>
   <trkpt lat="59.232985" lon="17.199222"><ele>57</ele></trkpt>
   <trkpt lat="59.23337" lon="17.19822"><ele>59.5</ele></trkpt>
   <trkpt lat="59.234084" lon="17.196489"><ele>60.5</ele></trkpt>
   <trkpt lat="59.2346" lon="17.195312"><ele>59.25</ele></trkpt>
   <trkpt lat="59.237108" lon="17.190685"><ele>54</ele></trkpt>
   <trkpt lat="59.239023" lon="17.187155"><ele>49.75</ele></trkpt>
   <trkpt lat="59.239727" lon="17.185847"><ele>50</ele></trkpt>
   <trkpt lat="59.240851" lon="17.183586"><ele>45.25</ele></trkpt>
   <trkpt lat="59.241508" lon="17.182159"><ele>27</ele></trkpt>
   <trkpt lat="59.241898" lon="17.181335"><ele>22.75</ele></trkpt>
   <trkpt lat="59.242888" lon="17.17919"><ele>23.25</ele></trkpt>
   <trkpt lat="59.243364" lon="17.178156"><ele>23.75</ele></trkpt>
   <trkpt lat="59.246367" lon="17.171662"><ele>26</ele></trkpt>
   <trkpt lat="59.247956" lon="17.168253"><ele>26</ele></trkpt>
   <trkpt lat="59.248271" lon="17.167537"><ele>23</ele></trkpt>
   <trkpt lat="59.248408" lon="17.167243"><ele>22</ele></trkpt>
   <trkpt lat="59.248556" lon="17.166928"><ele>20.75</ele></trkpt>
   <trkpt lat="59.248996" lon="17.165975"><ele>20.5</ele></trkpt>
   <trkpt lat="59.249316" lon="17.165282"><ele>22</ele></trkpt>
   <trkpt lat="59.249351" lon="17.165204"><ele>22.25</ele></trkpt>
   <trkpt lat="59.249635" lon="17.164633"><ele>23.75</ele></trkpt>
   <trkpt lat="59.25028" lon="17.163313"><ele>28</ele></trkpt>
   <trkpt lat="59.251617" lon="17.160452"><ele>22.5</ele></trkpt>
   <trkpt lat="59.252965" lon="17.157704"><ele>25.25</ele></trkpt>
   <trkpt lat="59.2544" lon="17.155148"><ele>24.25</ele></trkpt>
   <trkpt lat="59.25575" lon="17.153024"><ele>23.25</ele></trkpt>
   <trkpt lat="59.256441" lon="17.151975"><ele>23</ele></trkpt>
   <trkpt lat="59.258973" lon="17.148859"><ele>23</ele></trkpt>
   <trkpt lat="59.263366" lon="17.143821"><ele>21.5</ele></trkpt>
   <trkpt lat="59.265259" lon="17.141611"><ele>19.25</ele></trkpt>
   <trkpt lat="59.266136" lon="17.140507"><ele>20</ele></trkpt>
   <trkpt lat="59.266998" lon="17.139354"><ele>18</ele></trkpt>
   <trkpt lat="59.267871" lon="17.138114"><ele>13.75</ele></trkpt>
   <trkpt lat="59.268729" lon="17.136785"><ele>11</ele></trkpt>
   <trkpt lat="59.270315" lon="17.134002"><ele>10.5</ele></trkpt>
   <trkpt lat="59.27057" lon="17.133493"><ele>10.5</ele></trkpt>
   <trkpt lat="59.271632" lon="17.131369"><ele>9.25</ele></trkpt>
   <trkpt lat="59.272731" lon="17.128814"><ele>8.25</ele></trkpt>
   <trkpt lat="59.27487" lon="17.123422"><ele>8.5</ele></trkpt>
   <trkpt lat="59.275862" lon="17.121093"><ele>10</ele></trkpt>
   <trkpt lat="59.276327" lon="17.120093"><ele>10.5</ele></trkpt>
   <trkpt lat="59.276906" lon="17.118874"><ele>11.25</ele></trkpt>
   <trkpt lat="59.277848" lon="17.117092"><ele>13</ele></trkpt>
   <trkpt lat="59.278788" lon="17.115424"><ele>13.5</ele></trkpt>
   <trkpt lat="59.279599" lon="17.114117"><ele>13.25</ele></trkpt>
   <trkpt lat="59.280404" lon="17.112893"><ele>14</ele></trkpt>
   <trkpt lat="59.28206" lon="17.110674"><ele>15.75</ele></trkpt>
   <trkpt lat="59.283149" lon="17.109364"><ele>14.5</ele></trkpt>
   <trkpt lat="59.283293" lon="17.109201"><ele>14.75</ele></trkpt>
   <trkpt lat="59.284237" lon="17.108203"><ele>14.5</ele></trkpt>
   <trkpt lat="59.28643" lon="17.106046"><ele>15</ele></trkpt>
   <trkpt lat="59.287041" lon="17.105388"><ele>15.75</ele></trkpt>
   <trkpt lat="59.291355" lon="17.101261"><ele>19.5</ele></trkpt>
   <trkpt lat="59.29338" lon="17.099328"><ele>22.75</ele></trkpt>
   <trkpt lat="59.293686" lon="17.099059"><ele>23.75</ele></trkpt>
   <trkpt lat="59.294463" lon="17.098411"><ele>23.5</ele></trkpt>
   <trkpt lat="59.29606" lon="17.096883"><ele>23.5</ele></trkpt>
   <trkpt lat="59.297651" lon="17.095539"><ele>22.75</ele></trkpt>
   <trkpt lat="59.299605" lon="17.09416"><ele>18.25</ele></trkpt>
   <trkpt lat="59.300865" lon="17.093279"><ele>15</ele></trkpt>
   <trkpt lat="59.302354" lon="17.092481"><ele>19.25</ele></trkpt>
   <trkpt lat="59.303865" lon="17.091726"><ele>17</ele></trkpt>
   <trkpt lat="59.307978" lon="17.089729"><ele>18.25</ele></trkpt>
   <trkpt lat="59.308232" lon="17.089622"><ele>19</ele></trkpt>
   <trkpt lat="59.308608" lon="17.089424"><ele>19.75</ele></trkpt>
   <trkpt lat="59.316911" lon="17.085389"><ele>24.5</ele></trkpt>
   <trkpt lat="59.319495" lon="17.084137"><ele>19.75</ele></trkpt>
   <trkpt lat="59.321983" lon="17.082566"><ele>18.75</ele></trkpt>
   <trkpt lat="59.324364" lon="17.080638"><ele>12.75</ele></trkpt>
   <trkpt lat="59.325363" lon="17.079593"><ele>13.5</ele></trkpt>
   <trkpt lat="59.326735" lon="17.078203"><ele>12</ele></trkpt>
   <trkpt lat="59.32682" lon="17.078101"><ele>12</ele></trkpt>
   <trkpt lat="59.328403" lon="17.076198"><ele>9.75</ele></trkpt>
   <trkpt lat="59.329902" lon="17.074112"><ele>10</ele></trkpt>
   <trkpt lat="59.332832" lon="17.069786"><ele>8</ele></trkpt>
   <trkpt lat="59.340017" lon="17.059171"><ele>8.75</ele></trkpt>
   <trkpt lat="59.340834" lon="17.057984"><ele>5.75</ele></trkpt>
   <trkpt lat="59.342823" lon="17.05504"><ele>5</ele></trkpt>
   <trkpt lat="59.346969" lon="17.048927"><ele>5</ele></trkpt>
   <trkpt lat="59.347204" lon="17.04861"><ele>5</ele></trkpt>
   <trkpt lat="59.350441" lon="17.043893"><ele>7.5</ele></trkpt>
   <trkpt lat="59.350804" lon="17.043362"><ele>7</ele></trkpt>
   <trkpt lat="59.351796" lon="17.041929"><ele>5</ele></trkpt>
   <trkpt lat="59.352327" lon="17.04123"><ele>4.5</ele></trkpt>
   <trkpt lat="59.352824" lon="17.040715"><ele>5.25</ele></trkpt>
   <trkpt lat="59.353313" lon="17.040264"><ele>5.75</ele></trkpt>
   <trkpt lat="59.354194" lon="17.03966"><ele>8</ele></trkpt>
   <trkpt lat="59.354754" lon="17.039363"><ele>8</ele></trkpt>
   <trkpt lat="59.354867" lon="17.039314"><ele>8</ele></trkpt>
   <trkpt lat="59.355508" lon="17.039123"><ele>7.25</ele></trkpt>
   <trkpt lat="59.356299" lon="17.039004"><ele>7</ele></trkpt>
   <trkpt lat="59.35676" lon="17.039004"><ele>7</ele></trkpt>
   <trkpt lat="59.356946" lon="17.039028"><ele>7.25</ele></trkpt>
   <trkpt lat="59.357845" lon="17.039143"><ele>8.25</ele></trkpt>
   <trkpt lat="59.358962" lon="17.039355"><ele>12</ele></trkpt>
   <trkpt lat="59.359363" lon="17.039377"><ele>13.5</ele></trkpt>
   <trkpt lat="59.359653" lon="17.039393"><ele>14.25</ele></trkpt>
   <trkpt lat="59.360182" lon="17.039381"><ele>14.75</ele></trkpt>
   <trkpt lat="59.360607" lon="17.039333"><ele>13.5</ele></trkpt>
   <trkpt lat="59.361132" lon="17.039198"><ele>12.5</ele></trkpt>
   <trkpt lat="59.36165" lon="17.039041"><ele>12</ele></trkpt>
   <trkpt lat="59.362773" lon="17.038701"><ele>17.25</ele></trkpt>
   <trkpt lat="59.363698" lon="17.038388"><ele>18</ele></trkpt>
   <trkpt lat="59.364938" lon="17.037993"><ele>18.75</ele></trkpt>
   <trkpt lat="59.36543" lon="17.037748"><ele>19.75</ele></trkpt>
   <trkpt lat="59.366091" lon="17.037475"><ele>21.5</ele></trkpt>
   <trkpt lat="59.366435" lon="17.037292"><ele>22.25</ele></trkpt>
   <trkpt lat="59.366806" lon="17.03707"><ele>23.5</ele></trkpt>
   <trkpt lat="59.367429" lon="17.03652"><ele>23.5</ele></trkpt>
   <trkpt lat="59.367779" lon="17.036104"><ele>25</ele></trkpt>
   <trkpt lat="59.367995" lon="17.035785"><ele>26</ele></trkpt>
   <trkpt lat="59.368438" lon="17.035053"><ele>27.75</ele></trkpt>
   <trkpt lat="59.368878" lon="17.034149"><ele>28</ele></trkpt>
   <trkpt lat="59.369207" lon="17.033264"><ele>28</ele></trkpt>
   <trkpt lat="59.369414" lon="17.032604"><ele>29.75</ele></trkpt>
   <trkpt lat="59.369616" lon="17.031804"><ele>29.5</ele></trkpt>
   <trkpt lat="59.369797" lon="17.030946"><ele>28.75</ele></trkpt>
   <trkpt lat="59.370007" lon="17.029932"><ele>28.5</ele></trkpt>
   <trkpt lat="59.370232" lon="17.028728"><ele>33.75</ele></trkpt>
   <trkpt lat="59.37035" lon="17.028038"><ele>34.5</ele></trkpt>
   <trkpt lat="59.370557" lon="17.026616"><ele>32.5</ele></trkpt>
   <trkpt lat="59.370683" lon="17.025563"><ele>30.5</ele></trkpt>
   <trkpt lat="59.370727" lon="17.025249"><ele>29.75</ele></trkpt>
   <trkpt lat="59.370875" lon="17.0239"><ele>30.5</ele></trkpt>
   <trkpt lat="59.371148" lon="17.021568"><ele>32.25</ele></trkpt>
   <trkpt lat="59.371779" lon="17.01624"><ele>36.25</ele></trkpt>
   <trkpt lat="59.372262" lon="17.011594"><ele>39.5</ele></trkpt>
   <trkpt lat="59.372389" lon="17.010114"><ele>40.5</ele></trkpt>
   <trkpt lat="59.372606" lon="17.007025"><ele>42.75</ele></trkpt>
   <trkpt lat="59.372711" lon="17.004143"><ele>44.75</ele></trkpt>
   <trkpt lat="59.372856" lon="16.999396"><ele>48.25</ele></trkpt>
   <trkpt lat="59.372812" lon="16.997105"><ele>49.75</ele></trkpt>
   <trkpt lat="59.372739" lon="16.994069"><ele>52</ele></trkpt>
   <trkpt lat="59.372708" lon="16.993108"><ele>52.5</ele></trkpt>
   <trkpt lat="59.372452" lon="16.988143"><ele>56.25</ele></trkpt>
   <trkpt lat="59.372233" lon="16.986201"><ele>56.25</ele></trkpt>
   <trkpt lat="59.372014" lon="16.984537"><ele>59.25</ele></trkpt>
   <trkpt lat="59.371754" lon="16.982797"><ele>59.25</ele></trkpt>
   <trkpt lat="59.371613" lon="16.981918"><ele>59.5</ele></trkpt>
   <trkpt lat="59.371383" lon="16.980595"><ele>62.25</ele></trkpt>
   <trkpt lat="59.371156" lon="16.979384"><ele>62.5</ele></trkpt>
   <trkpt lat="59.370922" lon="16.978224"><ele>60</ele></trkpt>
   <trkpt lat="59.370668" lon="16.977052"><ele>59.25</ele></trkpt>
   <trkpt lat="59.370282" lon="16.97535"><ele>59.25</ele></trkpt>
   <trkpt lat="59.369795" lon="16.973343"><ele>56</ele></trkpt>
   <trkpt lat="59.368141" lon="16.966713"><ele>48.5</ele></trkpt>
   <trkpt lat="59.368091" lon="16.966502"><ele>48.75</ele></trkpt>
   <trkpt lat="59.366773" lon="16.961236"><ele>44</ele></trkpt>
   <trkpt lat="59.366585" lon="16.960476"><ele>42.25</ele></trkpt>
   <trkpt lat="59.366237" lon="16.959034"><ele>39.5</ele></trkpt>
   <trkpt lat="59.365378" lon="16.955394"><ele>32</ele></trkpt>
   <trkpt lat="59.36478" lon="16.952865"><ele>39.5</ele></trkpt>
   <trkpt lat="59.364361" lon="16.951017"><ele>47.25</ele></trkpt>
   <trkpt lat="59.363471" lon="16.947213"><ele>43</ele></trkpt>
   <trkpt lat="59.363024" lon="16.945189"><ele>44</ele></trkpt>
   <trkpt lat="59.362399" lon="16.94224"><ele>39.75</ele></trkpt>
   <trkpt lat="59.36168" lon="16.938628"><ele>30</ele></trkpt>
   <trkpt lat="59.361359" lon="16.936923"><ele>29.75</ele></trkpt>
   <trkpt lat="59.359844" lon="16.92877"><ele>20.5</ele></trkpt>
   <trkpt lat="59.359488" lon="16.926819"><ele>16.75</ele></trkpt>
   <trkpt lat="59.35912" lon="16.924663"><ele>14.5</ele></trkpt>
   <trkpt lat="59.358787" lon="16.922372"><ele>13.25</ele></trkpt>
   <trkpt lat="59.358412" lon="16.920353"><ele>13.75</ele></trkpt>
   <trkpt lat="59.357317" lon="16.914466"><ele>16.75</ele></trkpt>
   <trkpt lat="59.356898" lon="16.912217"><ele>19.25</ele></trkpt>
   <trkpt lat="59.355759" lon="16.906105"><ele>23.5</ele></trkpt>
   <trkpt lat="59.354398" lon="16.898794"><ele>19.5</ele></trkpt>
   <trkpt lat="59.354093" lon="16.897199"><ele>19.75</ele></trkpt>
   <trkpt lat="59.353916" lon="16.896307"><ele>19.25</ele></trkpt>
   <trkpt lat="59.353651" lon="16.89503"><ele>19</ele></trkpt>
   <trkpt lat="59.353397" lon="16.893854"><ele>19</ele></trkpt>
   <trkpt lat="59.353112" lon="16.892607"><ele>18.75</ele></trkpt>
   <trkpt lat="59.35273" lon="16.891036"><ele>19.75</ele></trkpt>
   <trkpt lat="59.352367" lon="16.889616"><ele>20</ele></trkpt>
   <trkpt lat="59.351624" lon="16.8869"><ele>21</ele></trkpt>
   <trkpt lat="59.350375" lon="16.882447"><ele>32.75</ele></trkpt>
   <trkpt lat="59.349293" lon="16.878526"><ele>36</ele></trkpt>
   <trkpt lat="59.348884" lon="16.876953"><ele>37.25</ele></trkpt>
   <trkpt lat="59.348201" lon="16.874088"><ele>35.75</ele></trkpt>
   <trkpt lat="59.347666" lon="16.871567"><ele>40</ele></trkpt>
   <trkpt lat="59.347099" lon="16.868539"><ele>44.5</ele></trkpt>
   <trkpt lat="59.346845" lon="16.867005"><ele>40.5</ele></trkpt>
   <trkpt lat="59.346665" lon="16.865862"><ele>34</ele></trkpt>
   <trkpt lat="59.346587" lon="16.865352"><ele>31.75</ele></trkpt>
   <trkpt lat="59.346375" lon="16.86384"><ele>28.75</ele></trkpt>
   <trkpt lat="59.346335" lon="16.86356"><ele>28.5</ele></trkpt>
   <trkpt lat="59.346192" lon="16.862443"><ele>29</ele></trkpt>
   <trkpt lat="59.346055" lon="16.861302"><ele>29.75</ele></trkpt>
   <trkpt lat="59.345816" lon="16.859044"><ele>33.25</ele></trkpt>
   <trkpt lat="59.345607" lon="16.856705"><ele>37.75</ele></trkpt>
   <trkpt lat="59.345485" lon="16.85504"><ele>36.25</ele></trkpt>
   <trkpt lat="59.345391" lon="16.85355"><ele>35.25</ele></trkpt>
   <trkpt lat="59.345279" lon="16.851207"><ele>39.75</ele></trkpt>
   <trkpt lat="59.345163" lon="16.847971"><ele>41</ele></trkpt>
   <trkpt lat="59.345128" lon="16.846822"><ele>40.5</ele></trkpt>
   <trkpt lat="59.344593" lon="16.829847"><ele>39.25</ele></trkpt>
   <trkpt lat="59.344015" lon="16.811707"><ele>30.5</ele></trkpt>
   <trkpt lat="59.343722" lon="16.802424"><ele>35.75</ele></trkpt>
   <trkpt lat="59.343445" lon="16.793744"><ele>41.5</ele></trkpt>
   <trkpt lat="59.343415" lon="16.79273"><ele>40.5</ele></trkpt>
   <trkpt lat="59.343104" lon="16.783057"><ele>39.75</ele></trkpt>
   <trkpt lat="59.342882" lon="16.776125"><ele>40.25</ele></trkpt>
   <trkpt lat="59.342317" lon="16.758611"><ele>40.5</ele></trkpt>
   <trkpt lat="59.342194" lon="16.755227"><ele>42</ele></trkpt>
   <trkpt lat="59.342124" lon="16.753758"><ele>43</ele></trkpt>
   <trkpt lat="59.342028" lon="16.752047"><ele>42.75</ele></trkpt>
   <trkpt lat="59.34195" lon="16.750907"><ele>41.75</ele></trkpt>
   <trkpt lat="59.341837" lon="16.74943"><ele>42</ele></trkpt>
   <trkpt lat="59.341742" lon="16.748335"><ele>42</ele></trkpt>
   <trkpt lat="59.341608" lon="16.746959"><ele>42</ele></trkpt>
   <trkpt lat="59.341524" lon="16.746152"><ele>42.75</ele></trkpt>
   <trkpt lat="59.341294" lon="16.744196"><ele>43.25</ele></trkpt>
   <trkpt lat="59.341141" lon="16.742981"><ele>43.5</ele></trkpt>
   <trkpt lat="59.340909" lon="16.741327"><ele>42.25</ele></trkpt>
   <trkpt lat="59.340785" lon="16.740511"><ele>42</ele></trkpt>
   <trkpt lat="59.340505" lon="16.738759"><ele>43</ele></trkpt>
   <trkpt lat="59.340207" lon="16.737065"><ele>41.75</ele></trkpt>
   <trkpt lat="59.339802" lon="16.734958"><ele>41.25</ele></trkpt>
   <trkpt lat="59.339477" lon="16.733391"><ele>51.75</ele></trkpt>
   <trkpt lat="59.338782" lon="16.7302"><ele>45.5</ele></trkpt>
   <trkpt lat="59.337649" lon="16.725072"><ele>47.75</ele></trkpt>
   <trkpt lat="59.33665" lon="16.72055"><ele>43</ele></trkpt>
   <trkpt lat="59.335961" lon="16.717407"><ele>43</ele></trkpt>
   <trkpt lat="59.33537" lon="16.71447"><ele>41.5</ele></trkpt>
   <trkpt lat="59.335101" lon="16.712958"><ele>43.5</ele></trkpt>
   <trkpt lat="59.334764" lon="16.710904"><ele>47</ele></trkpt>
   <trkpt lat="59.33445" lon="16.708711"><ele>49.75</ele></trkpt>
   <trkpt lat="59.334188" lon="16.706601"><ele>51</ele></trkpt>
   <trkpt lat="59.334041" lon="16.705213"><ele>53.75</ele></trkpt>
   <trkpt lat="59.333892" lon="16.703644"><ele>55.5</ele></trkpt>
   <trkpt lat="59.33378" lon="16.702274"><ele>57.5</ele></trkpt>
   <trkpt lat="59.333671" lon="16.700719"><ele>59.25</ele></trkpt>
   <trkpt lat="59.333582" lon="16.699237"><ele>58</ele></trkpt>
   <trkpt lat="59.33353" lon="16.698102"><ele>55</ele></trkpt>
   <trkpt lat="59.333474" lon="16.696545"><ele>49.75</ele></trkpt>
   <trkpt lat="59.333445" lon="16.695343"><ele>50</ele></trkpt>
   <trkpt lat="59.333422" lon="16.693455"><ele>52</ele></trkpt>
   <trkpt lat="59.333435" lon="16.691335"><ele>54</ele></trkpt>
   <trkpt lat="59.333468" lon="16.689689"><ele>56.25</ele></trkpt>
   <trkpt lat="59.333542" lon="16.687696"><ele>58.75</ele></trkpt>
   <trkpt lat="59.333578" lon="16.686883"><ele>60</ele></trkpt>
   <trkpt lat="59.333815" lon="16.683317"><ele>63</ele></trkpt>
   <trkpt lat="59.333977" lon="16.681522"><ele>59.5</ele></trkpt>
   <trkpt lat="59.334213" lon="16.679242"><ele>57</ele></trkpt>
   <trkpt lat="59.334399" lon="16.677702"><ele>59.5</ele></trkpt>
   <trkpt lat="59.334719" lon="16.675401"><ele>62.5</ele></trkpt>
   <trkpt lat="59.334919" lon="16.6741"><ele>60.5</ele></trkpt>
   <trkpt lat="59.335114" lon="16.672968"><ele>61.5</ele></trkpt>
   <trkpt lat="59.335924" lon="16.668591"><ele>67.5</ele></trkpt>
   <trkpt lat="59.33611" lon="16.667284"><ele>69.75</ele></trkpt>
   <trkpt lat="59.337933" lon="16.657485"><ele>68.75</ele></trkpt>
   <trkpt lat="59.33833" lon="16.655418"><ele>68</ele></trkpt>
   <trkpt lat="59.338583" lon="16.654233"><ele>67.5</ele></trkpt>
   <trkpt lat="59.338951" lon="16.652253"><ele>68.25</ele></trkpt>
   <trkpt lat="59.339341" lon="16.650081"><ele>68.25</ele></trkpt>
   <trkpt lat="59.339684" lon="16.647956"><ele>64.75</ele></trkpt>
   <trkpt lat="59.339926" lon="16.646334"><ele>61.5</ele></trkpt>
   <trkpt lat="59.340143" lon="16.644692"><ele>60.25</ele></trkpt>
   <trkpt lat="59.340439" lon="16.642039"><ele>63.5</ele></trkpt>
   <trkpt lat="59.340558" lon="16.640764"><ele>59.75</ele></trkpt>
   <trkpt lat="59.340665" lon="16.639513"><ele>56.25</ele></trkpt>
   <trkpt lat="59.340743" lon="16.638477"><ele>54</ele></trkpt>
   <trkpt lat="59.340811" lon="16.637431"><ele>52.75</ele></trkpt>
   <trkpt lat="59.340926" lon="16.635248"><ele>54</ele></trkpt>
   <trkpt lat="59.340992" lon="16.63336"><ele>59.25</ele></trkpt>
   <trkpt lat="59.341025" lon="16.631804"><ele>61.75</ele></trkpt>
   <trkpt lat="59.341045" lon="16.630243"><ele>61</ele></trkpt>
   <trkpt lat="59.341066" lon="16.627151"><ele>63</ele></trkpt>
   <trkpt lat="59.341086" lon="16.62326"><ele>63</ele></trkpt>
   <trkpt lat="59.341174" lon="16.605687"><ele>70.75</ele></trkpt>
   <trkpt lat="59.341214" lon="16.596084"><ele>75.25</ele></trkpt>
   <trkpt lat="59.341242" lon="16.590589"><ele>77</ele></trkpt>
   <trkpt lat="59.341273" lon="16.58813"><ele>77.5</ele></trkpt>
   <trkpt lat="59.341324" lon="16.586057"><ele>75.75</ele></trkpt>
   <trkpt lat="59.341416" lon="16.584252"><ele>73.5</ele></trkpt>
   <trkpt lat="59.341517" lon="16.582435"><ele>67.75</ele></trkpt>
   <trkpt lat="59.341657" lon="16.580579"><ele>65</ele></trkpt>
   <trkpt lat="59.341993" lon="16.577307"><ele>66.5</ele></trkpt>
   <trkpt lat="59.342401" lon="16.574136"><ele>66.5</ele></trkpt>
   <trkpt lat="59.342801" lon="16.571536"><ele>67.5</ele></trkpt>
   <trkpt lat="59.342901" lon="16.570922"><ele>67</ele></trkpt>
   <trkpt lat="59.343057" lon="16.570017"><ele>66</ele></trkpt>
   <trkpt lat="59.343227" lon="16.569129"><ele>65.75</ele></trkpt>
   <trkpt lat="59.343693" lon="16.566859"><ele>69.25</ele></trkpt>
   <trkpt lat="59.344112" lon="16.564997"><ele>67.25</ele></trkpt>
   <trkpt lat="59.344633" lon="16.562935"><ele>65</ele></trkpt>
   <trkpt lat="59.345624" lon="16.559426"><ele>65</ele></trkpt>
   <trkpt lat="59.346244" lon="16.557527"><ele>64.5</ele></trkpt>
   <trkpt lat="59.346813" lon="16.555883"><ele>64</ele></trkpt>
   <trkpt lat="59.346994" lon="16.55538"><ele>64.25</ele></trkpt>
   <trkpt lat="59.348041" lon="16.552618"><ele>63.25</ele></trkpt>
   <trkpt lat="59.349314" lon="16.549796"><ele>58.75</ele></trkpt>
   <trkpt lat="59.350226" lon="16.547923"><ele>57.75</ele></trkpt>
   <trkpt lat="59.351197" lon="16.546129"><ele>53.25</ele></trkpt>
   <trkpt lat="59.352897" lon="16.543279"><ele>49.5</ele></trkpt>
   <trkpt lat="59.353207" lon="16.542787"><ele>50.5</ele></trkpt>
   <trkpt lat="59.359983" lon="16.532108"><ele>24.5</ele></trkpt>
   <trkpt lat="59.360253" lon="16.531684"><ele>23.25</ele></trkpt>
   <trkpt lat="59.361833" lon="16.529187"><ele>22.5</ele></trkpt>
   <trkpt lat="59.363675" lon="16.526278"><ele>18.25</ele></trkpt>
   <trkpt lat="59.363959" lon="16.525836"><ele>18.75</ele></trkpt>
   <trkpt lat="59.364124" lon="16.525563"><ele>19.25</ele></trkpt>
   <trkpt lat="59.364461" lon="16.525047"><ele>19.5</ele></trkpt>
   <trkpt lat="59.364634" lon="16.52474"><ele>19.25</ele></trkpt>
   <trkpt lat="59.364771" lon="16.524495"><ele>19</ele></trkpt>
   <trkpt lat="59.364871" lon="16.524299"><ele>19</ele></trkpt>
   <trkpt lat="59.365229" lon="16.523521"><ele>18.5</ele></trkpt>
   <trkpt lat="59.365404" lon="16.523073"><ele>18.75</ele></trkpt>
   <trkpt lat="59.365676" lon="16.522297"><ele>19</ele></trkpt>
   <trkpt lat="59.36581" lon="16.521888"><ele>19</ele></trkpt>
   <trkpt lat="59.366111" lon="16.520765"><ele>19.5</ele></trkpt>
   <trkpt lat="59.366228" lon="16.52013"><ele>19.75</ele></trkpt>
   <trkpt lat="59.366398" lon="16.519007"><ele>21</ele></trkpt>
   <trkpt lat="59.366448" lon="16.518607"><ele>21</ele></trkpt>
   <trkpt lat="59.366534" lon="16.517874"><ele>21.25</ele></trkpt>
   <trkpt lat="59.366789" lon="16.515307"><ele>22</ele></trkpt>
   <trkpt lat="59.366883" lon="16.514458"><ele>22</ele></trkpt>
   <trkpt lat="59.366968" lon="16.513835"><ele>22.25</ele></trkpt>
   <trkpt lat="59.367012" lon="16.513558"><ele>22.5</ele></trkpt>
   <trkpt lat="59.367154" lon="16.512755"><ele>22.5</ele></trkpt>
   <trkpt lat="59.367219" lon="16.512437"><ele>22.5</ele></trkpt>
   <trkpt lat="59.367424" lon="16.511585"><ele>22</ele></trkpt>
   <trkpt lat="59.367544" lon="16.511152"><ele>22</ele></trkpt>
   <trkpt lat="59.367624" lon="16.510882"><ele>22</ele></trkpt>
   <trkpt lat="59.367685" lon="16.510692"><ele>22.25</ele></trkpt>
   <trkpt lat="59.367825" lon="16.510247"><ele>22.25</ele></trkpt>
   <trkpt lat="59.368354" lon="16.508602"><ele>22.5</ele></trkpt>
   <trkpt lat="59.368621" lon="16.507769"><ele>24.25</ele></trkpt>
   <trkpt lat="59.36928" lon="16.505716"><ele>24</ele></trkpt>
   <trkpt lat="59.36937" lon="16.505438"><ele>24</ele></trkpt>
   <trkpt lat="59.369375" lon="16.505422"><ele>24</ele></trkpt>
   <trkpt lat="59.369445" lon="16.505205"><ele>24.25</ele></trkpt>
   <trkpt lat="59.370095" lon="16.503192"><ele>21</ele></trkpt>
   <trkpt lat="59.37017" lon="16.502961"><ele>21</ele></trkpt>
  </trkseg>
 </trk>
</gpx>