<?xml version="1.0" encoding="UTF-8"?>
<!-- track-length = 107483 filtered ascend = 129 plain-ascend = -10 cost=107483 energy=1.3kwh time=2h 23m 19s -->
<gpx 
 xmlns="http://www.topografix.com/GPX/1/1" 
 xmlns:xsi="http://www.w3.org/2001/XMLSchema-instance" 
 xsi:schemaLocation="http://www.topografix.com/GPX/1/1 http://www.topografix.com/GPX/1/1/gpx.xsd" 
 version="1.1" 
 creator="BRouter-Web 0.18.1">
 <trk>
  <name>Uelzen - Stendal</name>
  <trkseg>
   <trkpt lat="52.969836" lon="10.552608"><ele>45.25</ele></trkpt>
   <trkpt lat="52.969782" lon="10.552564"><ele>45.5</ele></trkpt>
   <trkpt lat="52.96951" lon="10.552347"><ele>45.5</ele></trkpt>
   <trkpt lat="52.968897" lon="10.551859"><ele>44.25</ele></trkpt>
   <trkpt lat="52.96851" lon="10.551538"><ele>43.25</ele></trkpt>
   <trkpt lat="52.968485" lon="10.551519"><ele>43.25</ele></trkpt>
   <trkpt lat="52.968467" lon="10.551507"><ele>43.25</ele></trkpt>
   <trkpt lat="52.968242" lon="10.551313"><ele>42.75</ele></trkpt>
   <trkpt lat="52.967968" lon="10.551078"><ele>42.5</ele></trkpt>
   <trkpt lat="52.967704" lon="10.55082"><ele>42</ele></trkpt>
   <trkpt lat="52.96747" lon="10.550581"><ele>42</ele></trkpt>
   <trkpt lat="52.96707" lon="10.550165"><ele>42.5</ele></trkpt>
   <trkpt lat="52.966171" lon="10.549227"><ele>42.5</ele></trkpt>
   <trkpt lat="52.96579" lon="10.548809"><ele>43</ele></trkpt>
   <trkpt lat="52.9656" lon="10.548577"><ele>43</ele></trkpt>
   <trkpt lat="52.965149" lon="10.547979"><ele>42.5</ele></trkpt>
   <trkpt lat="52.964757" lon="10.547427"><ele>42</ele></trkpt>
   <trkpt lat="52.964281" lon="10.546661"><ele>42</ele></trkpt>
   <trkpt lat="52.962684" lon="10.543956"><ele>43.25</ele></trkpt>
   <trkpt lat="52.962572" lon="10.543766"><ele>43.25</ele></trkpt>
   <trkpt lat="52.961803" lon="10.542437"><ele>42.5</ele></trkpt>
   <trkpt lat="52.961632" lon="10.542087"><ele>42</ele></trkpt>
   <trkpt lat="52.961475" lon="10.541759"><ele>42</ele></trkpt>
   <trkpt lat="52.961187" lon="10.541067"><ele>42.25</ele></trkpt>
   <trkpt lat="52.960967" lon="10.540455"><ele>42</ele></trkpt>
   <trkpt lat="52.960569" lon="10.539153"><ele>42.5</ele></trkpt>
   <trkpt lat="52.960287" lon="10.538158"><ele>42.5</ele></trkpt>
   <trkpt lat="52.960064" lon="10.537304"><ele>43.25</ele></trkpt>
   <trkpt lat="52.96005" lon="10.537258"><ele>43.25</ele></trkpt>
   <trkpt lat="52.959908" lon="10.536711"><ele>43.75</ele></trkpt>
   <trkpt lat="52.959703" lon="10.535981"><ele>45.25</ele></trkpt>
   <trkpt lat="52.959449" lon="10.535241"><ele>46</ele></trkpt>
   <trkpt lat="52.959126" lon="10.534491"><ele>47</ele></trkpt>
   <trkpt lat="52.95874" lon="10.533793"><ele>47</ele></trkpt>
   <trkpt lat="52.958584" lon="10.533548"><ele>46.75</ele></trkpt>
   <trkpt lat="52.958501" lon="10.533423"><ele>46.5</ele></trkpt>
   <trkpt lat="52.958472" lon="10.533386"><ele>46.25</ele></trkpt>
   <trkpt lat="52.958469" lon="10.533382"><ele>46.25</ele></trkpt>
   <trkpt lat="52.958386" lon="10.533266"><ele>46.25</ele></trkpt>
   <trkpt lat="52.95801" lon="10.532808"><ele>45.75</ele></trkpt>
   <trkpt lat="52.957561" lon="10.532372"><ele>45.25</ele></trkpt>
   <trkpt lat="52.95735" lon="10.532201"><ele>45</ele></trkpt>
   <trkpt lat="52.956904" lon="10.531902"><ele>44.25</ele></trkpt>
   <trkpt lat="52.956557" lon="10.531722"><ele>44.25</ele></trkpt>
   <trkpt lat="52.956095" lon="10.531548"><ele>45.5</ele></trkpt>
   <trkpt lat="52.955806" lon="10.531463"><ele>46.25</ele></trkpt>
   <trkpt lat="52.95526" lon="10.531391"><ele>47</ele></trkpt>
   <trkpt lat="52.954768" lon="10.531378"><ele>46.75</ele></trkpt>
   <trkpt lat="52.954315" lon="10.531392"><ele>45.75</ele></trkpt>
   <trkpt lat="52.953725" lon="10.531539"><ele>45</ele></trkpt>
   <trkpt lat="52.953391" lon="10.531668"><ele>45</ele></trkpt>
   <trkpt lat="52.953081" lon="10.53182"><ele>45.25</ele></trkpt>
   <trkpt lat="52.952819" lon="10.531981"><ele>46.25</ele></trkpt>
   <trkpt lat="52.952438" lon="10.532254"><ele>47.75</ele></trkpt>
   <trkpt lat="52.952135" lon="10.532528"><ele>46.75</ele></trkpt>
   <trkpt lat="52.951833" lon="10.532835"><ele>45.5</ele></trkpt>
   <trkpt lat="52.951661" lon="10.533032"><ele>44.5</ele></trkpt>
   <trkpt lat="52.951488" lon="10.533253"><ele>44.5</ele></trkpt>
   <trkpt lat="52.951333" lon="10.533459"><ele>44.25</ele></trkpt>
   <trkpt lat="52.950964" lon="10.534029"><ele>43.25</ele></trkpt>
   <trkpt lat="52.950712" lon="10.534464"><ele>42.25</ele></trkpt>
   <trkpt lat="52.950528" lon="10.534804"><ele>41.75</ele></trkpt>
   <trkpt lat="52.950469" lon="10.534931"><ele>41.5</ele></trkpt>
   <trkpt lat="52.950138" lon="10.53557"><ele>42</ele></trkpt>
   <trkpt lat="52.948942" lon="10.537918"><ele>45</ele></trkpt>
   <trkpt lat="52.948211" lon="10.53937"><ele>45.5</ele></trkpt>
   <trkpt lat="52.948015" lon="10.539779"><ele>45</ele></trkpt>
   <trkpt lat="52.947771" lon="10.5403"><ele>44.75</ele></trkpt>
   <trkpt lat="52.947762" lon="10.540316"><ele>44.5</ele></trkpt>
   <trkpt lat="52.947754" lon="10.54033"><ele>44.5</ele></trkpt>
   <trkpt lat="52.946801" lon="10.542194"><ele>43.25</ele></trkpt>
   <trkpt lat="52.946622" lon="10.542549"><ele>42.75</ele></trkpt>
   <trkpt lat="52.946572" lon="10.542641"><ele>42.75</ele></trkpt>
   <trkpt lat="52.946007" lon="10.543748"><ele>43</ele></trkpt>
   <trkpt lat="52.945711" lon="10.544326"><ele>42.5</ele></trkpt>
   <trkpt lat="52.945471" lon="10.544789"><ele>41.75</ele></trkpt>
   <trkpt lat="52.944071" lon="10.547532"><ele>51</ele></trkpt>
   <trkpt lat="52.944065" lon="10.547549"><ele>51</ele></trkpt>
   <trkpt lat="52.942816" lon="10.549975"><ele>50.5</ele></trkpt>
   <trkpt lat="52.942683" lon="10.550239"><ele>50.75</ele></trkpt>
   <trkpt lat="52.941931" lon="10.551528"><ele>54.5</ele></trkpt>
   <trkpt lat="52.941598" lon="10.552099"><ele>56.25</ele></trkpt>
   <trkpt lat="52.9406" lon="10.553569"><ele>58.25</ele></trkpt>
   <trkpt lat="52.940351" lon="10.553937"><ele>57.75</ele></trkpt>
   <trkpt lat="52.939447" lon="10.555107"><ele>54.5</ele></trkpt>
   <trkpt lat="52.93918" lon="10.555452"><ele>55.25</ele></trkpt>
   <trkpt lat="52.938216" lon="10.556701"><ele>60.5</ele></trkpt>
   <trkpt lat="52.937815" lon="10.55722"><ele>60.5</ele></trkpt>
   <trkpt lat="52.936779" lon="10.558545"><ele>57</ele></trkpt>
   <trkpt lat="52.936725" lon="10.558615"><ele>57</ele></trkpt>
   <trkpt lat="52.935104" lon="10.56063"><ele>43</ele></trkpt>
   <trkpt lat="52.934694" lon="10.561097"><ele>40.75</ele></trkpt>
   <trkpt lat="52.933663" lon="10.562192"><ele>40.5</ele></trkpt>
   <trkpt lat="52.933367" lon="10.562476"><ele>40.75</ele></trkpt>
   <trkpt lat="52.932543" lon="10.563241"><ele>39.25</ele></trkpt>
   <trkpt lat="52.932077" lon="10.563646"><ele>39.75</ele></trkpt>
   <trkpt lat="52.93042" lon="10.565112"><ele>40</ele></trkpt>
   <trkpt lat="52.929891" lon="10.565577"><ele>40.5</ele></trkpt>
   <trkpt lat="52.929743" lon="10.565706"><ele>41</ele></trkpt>
   <trkpt lat="52.929594" lon="10.565832"><ele>41.75</ele></trkpt>
   <trkpt lat="52.929236" lon="10.566148"><ele>43.25</ele></trkpt>
   <trkpt lat="52.929019" lon="10.566342"><ele>43.25</ele></trkpt>
   <trkpt lat="52.928815" lon="10.566525"><ele>42.75</ele></trkpt>
   <trkpt lat="52.928119" lon="10.567137"><ele>42</ele></trkpt>
   <trkpt lat="52.927833" lon="10.567387"><ele>42</ele></trkpt>
   <trkpt lat="52.9277" lon="10.567505"><ele>42</ele></trkpt>
   <trkpt lat="52.927554" lon="10.567636"><ele>42</ele></trkpt>
   <trkpt lat="52.927301" lon="10.567867"><ele>42.25</ele></trkpt>
   <trkpt lat="52.927294" lon="10.567878"><ele>42.25</ele></trkpt>
   <trkpt lat="52.927162" lon="10.567987"><ele>42.5</ele></trkpt>
   <trkpt lat="52.92706" lon="10.568076"><ele>42.75</ele></trkpt>
   <trkpt lat="52.9268" lon="10.568304"><ele>43.5</ele></trkpt>
   <trkpt lat="52.92559" lon="10.569364"><ele>42.25</ele></trkpt>
   <trkpt lat="52.924409" lon="10.570401"><ele>42.25</ele></trkpt>
   <trkpt lat="52.922727" lon="10.571881"><ele>41.25</ele></trkpt>
   <trkpt lat="52.920966" lon="10.573429"><ele>41</ele></trkpt>
   <trkpt lat="52.920175" lon="10.574124"><ele>42</ele></trkpt>
   <trkpt lat="52.919794" lon="10.574459"><ele>42</ele></trkpt>
   <trkpt lat="52.918028" lon="10.57601"><ele>45.5</ele></trkpt>
   <trkpt lat="52.916246" lon="10.577587"><ele>40.25</ele></trkpt>
   <trkpt lat="52.915365" lon="10.578368"><ele>40</ele></trkpt>
   <trkpt lat="52.915208" lon="10.578507"><ele>40.25</ele></trkpt>
   <trkpt lat="52.915039" lon="10.578653"><ele>40.5</ele></trkpt>
   <trkpt lat="52.914568" lon="10.579073"><ele>40.5</ele></trkpt>
   <trkpt lat="52.913623" lon="10.579946"><ele>41</ele></trkpt>
   <trkpt lat="52.913009" lon="10.580616"><ele>41.75</ele></trkpt>
   <trkpt lat="52.912295" lon="10.581465"><ele>42.25</ele></trkpt>
   <trkpt lat="52.911659" lon="10.582364"><ele>43</ele></trkpt>
   <trkpt lat="52.911441" lon="10.582686"><ele>42.75</ele></trkpt>
   <trkpt lat="52.911023" lon="10.583367"><ele>42</ele></trkpt>
   <trkpt lat="52.910621" lon="10.58407"><ele>42.5</ele></trkpt>
   <trkpt lat="52.91035" lon="10.584589"><ele>42.75</ele></trkpt>
   <trkpt lat="52.910246" lon="10.584795"><ele>42.75</ele></trkpt>
   <trkpt lat="52.909942" lon="10.585415"><ele>43.25</ele></trkpt>
   <trkpt lat="52.909589" lon="10.586226"><ele>44.25</ele></trkpt>
   <trkpt lat="52.909254" lon="10.587046"><ele>45</ele></trkpt>
   <trkpt lat="52.908644" lon="10.588791"><ele>46.5</ele></trkpt>
   <trkpt lat="52.908608" lon="10.588906"><ele>46.5</ele></trkpt>
   <trkpt lat="52.907823" lon="10.591363"><ele>48</ele></trkpt>
   <trkpt lat="52.907767" lon="10.591551"><ele>48</ele></trkpt>
   <trkpt lat="52.907742" lon="10.591633"><ele>48</ele></trkpt>
   <trkpt lat="52.907692" lon="10.591786"><ele>48</ele></trkpt>
   <trkpt lat="52.907672" lon="10.591849"><ele>48</ele></trkpt>
   <trkpt lat="52.907651" lon="10.591915"><ele>48</ele></trkpt>
   <trkpt lat="52.907614" lon="10.592028"><ele>48</ele></trkpt>
   <trkpt lat="52.907436" lon="10.592567"><ele>47.75</ele></trkpt>
   <trkpt lat="52.906813" lon="10.594531"><ele>47.25</ele></trkpt>
   <trkpt lat="52.906523" lon="10.595439"><ele>47</ele></trkpt>
   <trkpt lat="52.906434" lon="10.595715"><ele>47.25</ele></trkpt>
   <trkpt lat="52.906346" lon="10.59599"><ele>47.25</ele></trkpt>
   <trkpt lat="52.905887" lon="10.597438"><ele>47.75</ele></trkpt>
   <trkpt lat="52.905807" lon="10.597694"><ele>48</ele></trkpt>
   <trkpt lat="52.905028" lon="10.600139"><ele>48</ele></trkpt>
   <trkpt lat="52.904406" lon="10.602082"><ele>47.25</ele></trkpt>
   <trkpt lat="52.90348" lon="10.604981"><ele>46.75</ele></trkpt>
   <trkpt lat="52.902545" lon="10.607907"><ele>47</ele></trkpt>
   <trkpt lat="52.90193" lon="10.609841"><ele>47</ele></trkpt>
   <trkpt lat="52.901108" lon="10.612416"><ele>50.5</ele></trkpt>
   <trkpt lat="52.901073" lon="10.612527"><ele>50.5</ele></trkpt>
   <trkpt lat="52.901044" lon="10.612623"><ele>50.75</ele></trkpt>
   <trkpt lat="52.900988" lon="10.6128"><ele>51</ele></trkpt>
   <trkpt lat="52.900115" lon="10.615527"><ele>50</ele></trkpt>
   <trkpt lat="52.89936" lon="10.617897"><ele>54.25</ele></trkpt>
   <trkpt lat="52.899114" lon="10.618678"><ele>56.25</ele></trkpt>
   <trkpt lat="52.898538" lon="10.620474"><ele>58.5</ele></trkpt>
   <trkpt lat="52.898427" lon="10.620823"><ele>57.25</ele></trkpt>
   <trkpt lat="52.897501" lon="10.623724"><ele>53</ele></trkpt>
   <trkpt lat="52.896653" lon="10.626379"><ele>53.75</ele></trkpt>
   <trkpt lat="52.896604" lon="10.626541"><ele>53.75</ele></trkpt>
   <trkpt lat="52.89621" lon="10.627762"><ele>54.75</ele></trkpt>
   <trkpt lat="52.896157" lon="10.627932"><ele>55</ele></trkpt>
   <trkpt lat="52.896105" lon="10.628101"><ele>55.5</ele></trkpt>
   <trkpt lat="52.895852" lon="10.628913"><ele>57.25</ele></trkpt>
   <trkpt lat="52.895421" lon="10.630311"><ele>58.75</ele></trkpt>
   <trkpt lat="52.89506" lon="10.631647"><ele>58.5</ele></trkpt>
   <trkpt lat="52.894881" lon="10.632408"><ele>58.25</ele></trkpt>
   <trkpt lat="52.894626" lon="10.633599"><ele>57.75</ele></trkpt>
   <trkpt lat="52.894444" lon="10.6346"><ele>55.75</ele></trkpt>
   <trkpt lat="52.894285" lon="10.635596"><ele>55.75</ele></trkpt>
   <trkpt lat="52.894211" lon="10.636118"><ele>56.75</ele></trkpt>
   <trkpt lat="52.894149" lon="10.636616"><ele>57.75</ele></trkpt>
   <trkpt lat="52.894029" lon="10.63771"><ele>56</ele></trkpt>
   <trkpt lat="52.893926" lon="10.638819"><ele>54.5</ele></trkpt>
   <trkpt lat="52.893855" lon="10.639697"><ele>54.5</ele></trkpt>
   <trkpt lat="52.893791" lon="10.640505"><ele>55.25</ele></trkpt>
   <trkpt lat="52.893616" lon="10.642718"><ele>56.75</ele></trkpt>
   <trkpt lat="52.893598" lon="10.64293"><ele>56.75</ele></trkpt>
   <trkpt lat="52.893506" lon="10.644101"><ele>56</ele></trkpt>
   <trkpt lat="52.893375" lon="10.645335"><ele>54</ele></trkpt>
   <trkpt lat="52.893328" lon="10.645834"><ele>53</ele></trkpt>
   <trkpt lat="52.893209" lon="10.647322"><ele>51.25</ele></trkpt>
   <trkpt lat="52.893175" lon="10.647767"><ele>51.25</ele></trkpt>
   <trkpt lat="52.893044" lon="10.649399"><ele>52.75</ele></trkpt>
   <trkpt lat="52.892976" lon="10.650288"><ele>54.25</ele></trkpt>
   <trkpt lat="52.89293" lon="10.650949"><ele>55</ele></trkpt>
   <trkpt lat="52.892804" lon="10.652164"><ele>56.25</ele></trkpt>
   <trkpt lat="52.892789" lon="10.652306"><ele>56.25</ele></trkpt>
   <trkpt lat="52.892741" lon="10.652799"><ele>56.25</ele></trkpt>
   <trkpt lat="52.89272" lon="10.653099"><ele>56.25</ele></trkpt>
   <trkpt lat="52.892692" lon="10.653516"><ele>56.25</ele></trkpt>
   <trkpt lat="52.892662" lon="10.653854"><ele>56.5</ele></trkpt>
   <trkpt lat="52.892632" lon="10.654305"><ele>57</ele></trkpt>
   <trkpt lat="52.892593" lon="10.654857"><ele>57.5</ele></trkpt>
   <trkpt lat="52.892535" lon="10.655686"><ele>57.75</ele></trkpt>
   <trkpt lat="52.892508" lon="10.656064"><ele>57</ele></trkpt>
   <trkpt lat="52.892447" lon="10.656951"><ele>57</ele></trkpt>
   <trkpt lat="52.892319" lon="10.658705"><ele>56.5</ele></trkpt>
   <trkpt lat="52.892069" lon="10.661647"><ele>56.5</ele></trkpt>
   <trkpt lat="52.89175" lon="10.665008"><ele>53.75</ele></trkpt>
   <trkpt lat="52.891518" lon="10.667385"><ele>52</ele></trkpt>
   <trkpt lat="52.891455" lon="10.668123"><ele>53</ele></trkpt>
   <trkpt lat="52.891423" lon="10.668574"><ele>53.25</ele></trkpt>
   <trkpt lat="52.891401" lon="10.669009"><ele>53.25</ele></trkpt>
   <trkpt lat="52.89138" lon="10.66966"><ele>53.75</ele></trkpt>
   <trkpt lat="52.891355" lon="10.67018"><ele>54.25</ele></trkpt>
   <trkpt lat="52.89131" lon="10.670782"><ele>54.25</ele></trkpt>
   <trkpt lat="52.891264" lon="10.671536"><ele>54</ele></trkpt>
   <trkpt lat="52.891237" lon="10.672306"><ele>54</ele></trkpt>
   <trkpt lat="52.891217" lon="10.672716"><ele>54</ele></trkpt>
   <trkpt lat="52.891192" lon="10.673067"><ele>54.25</ele></trkpt>
   <trkpt lat="52.89103" lon="10.675221"><ele>56</ele></trkpt>
   <trkpt lat="52.890836" lon="10.677594"><ele>57.75</ele></trkpt>
   <trkpt lat="52.890785" lon="10.678224"><ele>57</ele></trkpt>
   <trkpt lat="52.890535" lon="10.681323"><ele>56.5</ele></trkpt>
   <trkpt lat="52.890509" lon="10.681623"><ele>56.25</ele></trkpt>
   <trkpt lat="52.890484" lon="10.681916"><ele>56.5</ele></trkpt>
   <trkpt lat="52.890461" lon="10.682214"><ele>57</ele></trkpt>
   <trkpt lat="52.890287" lon="10.684395"><ele>57.5</ele></trkpt>
   <trkpt lat="52.890041" lon="10.687428"><ele>57</ele></trkpt>
   <trkpt lat="52.890007" lon="10.687853"><ele>57</ele></trkpt>
   <trkpt lat="52.889957" lon="10.688501"><ele>57</ele></trkpt>
   <trkpt lat="52.889925" lon="10.688889"><ele>57</ele></trkpt>
   <trkpt lat="52.889896" lon="10.68924"><ele>57</ele></trkpt>
   <trkpt lat="52.889794" lon="10.690494"><ele>57</ele></trkpt>
   <trkpt lat="52.889618" lon="10.692716"><ele>56</ele></trkpt>
   <trkpt lat="52.889564" lon="10.693331"><ele>56.25</ele></trkpt>
   <trkpt lat="52.889457" lon="10.694545"><ele>55.75</ele></trkpt>
   <trkpt lat="52.889351" lon="10.695641"><ele>55</ele></trkpt>
   <trkpt lat="52.889203" lon="10.696787"><ele>56</ele></trkpt>
   <trkpt lat="52.888976" lon="10.698108"><ele>55.5</ele></trkpt>
   <trkpt lat="52.888872" lon="10.69862"><ele>55.5</ele></trkpt>
   <trkpt lat="52.888628" lon="10.699732"><ele>55.25</ele></trkpt>
   <trkpt lat="52.888294" lon="10.700962"><ele>56</ele></trkpt>
   <trkpt lat="52.888127" lon="10.701532"><ele>56.25</ele></trkpt>
   <trkpt lat="52.887668" lon="10.702895"><ele>56.5</ele></trkpt>
   <trkpt lat="52.887154" lon="10.704172"><ele>56</ele></trkpt>
   <trkpt lat="52.886691" lon="10.705206"><ele>56.25</ele></trkpt>
   <trkpt lat="52.886582" lon="10.705437"><ele>57.25</ele></trkpt>
   <trkpt lat="52.886469" lon="10.705669"><ele>58.25</ele></trkpt>
   <trkpt lat="52.885994" lon="10.706669"><ele>62.25</ele></trkpt>
   <trkpt lat="52.885165" lon="10.708407"><ele>65</ele></trkpt>
   <trkpt lat="52.883937" lon="10.710973"><ele>66</ele></trkpt>
   <trkpt lat="52.882788" lon="10.713371"><ele>69</ele></trkpt>
   <trkpt lat="52.881558" lon="10.715951"><ele>70.5</ele></trkpt>
   <trkpt lat="52.880736" lon="10.71767"><ele>66.75</ele></trkpt>
   <trkpt lat="52.879556" lon="10.720151"><ele>60.75</ele></trkpt>
   <trkpt lat="52.879111" lon="10.721134"><ele>57</ele></trkpt>
   <trkpt lat="52.879066" lon="10.72123"><ele>56.75</ele></trkpt>
   <trkpt lat="52.878602" lon="10.722387"><ele>56.5</ele></trkpt>
   <trkpt lat="52.878556" lon="10.722516"><ele>56.5</ele></trkpt>
   <trkpt lat="52.878276" lon="10.723327"><ele>58</ele></trkpt>
   <trkpt lat="52.878186" lon="10.723592"><ele>58.25</ele></trkpt>
   <trkpt lat="52.878107" lon="10.723845"><ele>58.75</ele></trkpt>
   <trkpt lat="52.877715" lon="10.72523"><ele>61.25</ele></trkpt>
   <trkpt lat="52.877507" lon="10.726079"><ele>62.25</ele></trkpt>
   <trkpt lat="52.877279" lon="10.727172"><ele>62.5</ele></trkpt>
   <trkpt lat="52.877117" lon="10.728085"><ele>62</ele></trkpt>
   <trkpt lat="52.877055" lon="10.728453"><ele>62</ele></trkpt>
   <trkpt lat="52.876959" lon="10.729124"><ele>62</ele></trkpt>
   <trkpt lat="52.876878" lon="10.729764"><ele>62</ele></trkpt>
   <trkpt lat="52.87675" lon="10.730964"><ele>61.75</ele></trkpt>
   <trkpt lat="52.876675" lon="10.731717"><ele>61</ele></trkpt>
   <trkpt lat="52.876649" lon="10.731986"><ele>60.75</ele></trkpt>
   <trkpt lat="52.876623" lon="10.732273"><ele>60.75</ele></trkpt>
   <trkpt lat="52.876594" lon="10.732564"><ele>60.75</ele></trkpt>
   <trkpt lat="52.876462" lon="10.733977"><ele>61.25</ele></trkpt>
   <trkpt lat="52.876351" lon="10.735122"><ele>62.5</ele></trkpt>
   <trkpt lat="52.876171" lon="10.737069"><ele>63.25</ele></trkpt>
   <trkpt lat="52.875869" lon="10.740252"><ele>63.25</ele></trkpt>
   <trkpt lat="52.87557" lon="10.743399"><ele>64.75</ele></trkpt>
   <trkpt lat="52.875366" lon="10.745526"><ele>71.75</ele></trkpt>
   <trkpt lat="52.875327" lon="10.745953"><ele>72.25</ele></trkpt>
   <trkpt lat="52.875286" lon="10.746377"><ele>73</ele></trkpt>
   <trkpt lat="52.875079" lon="10.748562"><ele>63.25</ele></trkpt>
   <trkpt lat="52.874961" lon="10.749806"><ele>62</ele></trkpt>
   <trkpt lat="52.874791" lon="10.751594"><ele>63.25</ele></trkpt>
   <trkpt lat="52.874493" lon="10.754707"><ele>63.5</ele></trkpt>
   <trkpt lat="52.874317" lon="10.756708"><ele>65</ele></trkpt>
   <trkpt lat="52.874278" lon="10.7572"><ele>65.75</ele></trkpt>
   <trkpt lat="52.874218" lon="10.758214"><ele>67.5</ele></trkpt>
   <trkpt lat="52.874188" lon="10.759182"><ele>68</ele></trkpt>
   <trkpt lat="52.874182" lon="10.759686"><ele>68</ele></trkpt>
   <trkpt lat="52.87418" lon="10.760013"><ele>68</ele></trkpt>
   <trkpt lat="52.874181" lon="10.760332"><ele>67.5</ele></trkpt>
   <trkpt lat="52.874185" lon="10.760587"><ele>67.25</ele></trkpt>
   <trkpt lat="52.874214" lon="10.76148"><ele>66.25</ele></trkpt>
   <trkpt lat="52.874248" lon="10.762152"><ele>65.75</ele></trkpt>
   <trkpt lat="52.874349" lon="10.763511"><ele>64.75</ele></trkpt>
   <trkpt lat="52.874617" lon="10.766545"><ele>62.5</ele></trkpt>
   <trkpt lat="52.87491" lon="10.76979"><ele>64.25</ele></trkpt>
   <trkpt lat="52.874916" lon="10.769857"><ele>64.25</ele></trkpt>
   <trkpt lat="52.875107" lon="10.771968"><ele>63.25</ele></trkpt>
   <trkpt lat="52.875402" lon="10.775218"><ele>69.75</ele></trkpt>
   <trkpt lat="52.875544" lon="10.776801"><ele>71</ele></trkpt>
   <trkpt lat="52.875697" lon="10.778477"><ele>65.5</ele></trkpt>
   <trkpt lat="52.875893" lon="10.780651"><ele>63</ele></trkpt>
   <trkpt lat="52.875938" lon="10.781152"><ele>62.5</ele></trkpt>
   <trkpt lat="52.876165" lon="10.783665"><ele>62.75</ele></trkpt>
   <trkpt lat="52.876271" lon="10.784843"><ele>62</ele></trkpt>
   <trkpt lat="52.876332" lon="10.785527"><ele>62.25</ele></trkpt>
   <trkpt lat="52.876397" lon="10.78628"><ele>62.75</ele></trkpt>
   <trkpt lat="52.876422" lon="10.786687"><ele>63.25</ele></trkpt>
   <trkpt lat="52.876462" lon="10.787589"><ele>64.25</ele></trkpt>
   <trkpt lat="52.876477" lon="10.788381"><ele>65.5</ele></trkpt>
   <trkpt lat="52.876464" lon="10.789004"><ele>66.75</ele></trkpt>
   <trkpt lat="52.876436" lon="10.789769"><ele>68.75</ele></trkpt>
   <trkpt lat="52.876385" lon="10.790335"><ele>70</ele></trkpt>
   <trkpt lat="52.876349" lon="10.790723"><ele>70.75</ele></trkpt>
   <trkpt lat="52.876314" lon="10.791005"><ele>71.5</ele></trkpt>
   <trkpt lat="52.87628" lon="10.791297"><ele>72.25</ele></trkpt>
   <trkpt lat="52.876148" lon="10.792162"><ele>74.25</ele></trkpt>
   <trkpt lat="52.875998" lon="10.792938"><ele>74.5</ele></trkpt>
   <trkpt lat="52.875923" lon="10.793284"><ele>74.5</ele></trkpt>
   <trkpt lat="52.875738" lon="10.794034"><ele>73.75</ele></trkpt>
   <trkpt lat="52.875472" lon="10.79492"><ele>72</ele></trkpt>
   <trkpt lat="52.875318" lon="10.795362"><ele>71.75</ele></trkpt>
   <trkpt lat="52.875002" lon="10.796218"><ele>71</ele></trkpt>
   <trkpt lat="52.874872" lon="10.796507"><ele>70.75</ele></trkpt>
   <trkpt lat="52.874428" lon="10.797447"><ele>71.25</ele></trkpt>
   <trkpt lat="52.87401" lon="10.798182"><ele>71.5</ele></trkpt>
   <trkpt lat="52.87391" lon="10.798349"><ele>71.75</ele></trkpt>
   <trkpt lat="52.873788" lon="10.798537"><ele>72</ele></trkpt>
   <trkpt lat="52.873649" lon="10.798746"><ele>72</ele></trkpt>
   <trkpt lat="52.873445" lon="10.79904"><ele>72</ele></trkpt>
   <trkpt lat="52.872948" lon="10.799665"><ele>74</ele></trkpt>
   <trkpt lat="52.872787" lon="10.799851"><ele>74.75</ele></trkpt>
   <trkpt lat="52.872236" lon="10.800433"><ele>78.5</ele></trkpt>
   <trkpt lat="52.87132" lon="10.801281"><ele>81</ele></trkpt>
   <trkpt lat="52.869673" lon="10.80274"><ele>82.5</ele></trkpt>
   <trkpt lat="52.869373" lon="10.803019"><ele>82</ele></trkpt>
   <trkpt lat="52.869064" lon="10.803337"><ele>81</ele></trkpt>
   <trkpt lat="52.868374" lon="10.80411"><ele>83.75</ele></trkpt>
   <trkpt lat="52.868226" lon="10.804311"><ele>84</ele></trkpt>
   <trkpt lat="52.868039" lon="10.804559"><ele>84.25</ele></trkpt>
   <trkpt lat="52.86766" lon="10.805124"><ele>84</ele></trkpt>
   <trkpt lat="52.867327" lon="10.805678"><ele>85.25</ele></trkpt>
   <trkpt lat="52.867207" lon="10.80591"><ele>86</ele></trkpt>
   <trkpt lat="52.867071" lon="10.806164"><ele>86.75</ele></trkpt>
   <trkpt lat="52.866708" lon="10.806924"><ele>87</ele></trkpt>
   <trkpt lat="52.866578" lon="10.807212"><ele>87</ele></trkpt>
   <trkpt lat="52.86634" lon="10.807804"><ele>87.75</ele></trkpt>
   <trkpt lat="52.866218" lon="10.808137"><ele>88.25</ele></trkpt>
   <trkpt lat="52.866127" lon="10.808416"><ele>88.75</ele></trkpt>
   <trkpt lat="52.865905" lon="10.809137"><ele>87.75</ele></trkpt>
   <trkpt lat="52.865767" lon="10.809639"><ele>86.25</ele></trkpt>
   <trkpt lat="52.865673" lon="10.810017"><ele>85.25</ele></trkpt>
   <trkpt lat="52.865467" lon="10.810985"><ele>82.5</ele></trkpt>
   <trkpt lat="52.865296" lon="10.812052"><ele>81</ele></trkpt>
   <trkpt lat="52.86517" lon="10.812945"><ele>79.25</ele></trkpt>
   <trkpt lat="52.865119" lon="10.813382"><ele>78</ele></trkpt>
   <trkpt lat="52.865008" lon="10.814556"><ele>75.5</ele></trkpt>
   <trkpt lat="52.864948" lon="10.81571"><ele>74</ele></trkpt>
   <trkpt lat="52.864947" lon="10.816448"><ele>73.25</ele></trkpt>
   <trkpt lat="52.864955" lon="10.817087"><ele>74.5</ele></trkpt>
   <trkpt lat="52.864999" lon="10.81786"><ele>77.25</ele></trkpt>
   <trkpt lat="52.865076" lon="10.81871"><ele>77.5</ele></trkpt>
   <trkpt lat="52.865162" lon="10.819397"><ele>74.75</ele></trkpt>
   <trkpt lat="52.865275" lon="10.820129"><ele>71.75</ele></trkpt>
   <trkpt lat="52.865576" lon="10.821533"><ele>71.75</ele></trkpt>
   <trkpt lat="52.865773" lon="10.822249"><ele>72.5</ele></trkpt>
   <trkpt lat="52.865939" lon="10.822784"><ele>74</ele></trkpt>
   <trkpt lat="52.866088" lon="10.823212"><ele>75.25</ele></trkpt>
   <trkpt lat="52.866365" lon="10.824007"><ele>74.25</ele></trkpt>
   <trkpt lat="52.867007" lon="10.825716"><ele>73</ele></trkpt>
   <trkpt lat="52.867239" lon="10.826365"><ele>72</ele></trkpt>
   <trkpt lat="52.867507" lon="10.827159"><ele>69.25</ele></trkpt>
   <trkpt lat="52.867764" lon="10.828031"><ele>67.5</ele></trkpt>
   <trkpt lat="52.867958" lon="10.828782"><ele>65.5</ele></trkpt>
   <trkpt lat="52.868139" lon="10.829603"><ele>63.25</ele></trkpt>
   <trkpt lat="52.868317" lon="10.830559"><ele>61.25</ele></trkpt>
   <trkpt lat="52.868491" lon="10.831621"><ele>60.25</ele></trkpt>
   <trkpt lat="52.868811" lon="10.833692"><ele>59.5</ele></trkpt>
   <trkpt lat="52.869215" lon="10.83626"><ele>60</ele></trkpt>
   <trkpt lat="52.869277" lon="10.836676"><ele>60.25</ele></trkpt>
   <trkpt lat="52.86928" lon="10.836698"><ele>60.25</ele></trkpt>
   <trkpt lat="52.869646" lon="10.838973"><ele>62.5</ele></trkpt>
   <trkpt lat="52.869799" lon="10.839789"><ele>63.5</ele></trkpt>
   <trkpt lat="52.869903" lon="10.840259"><ele>63.5</ele></trkpt>
   <trkpt lat="52.869959" lon="10.840515"><ele>63.25</ele></trkpt>
   <trkpt lat="52.870217" lon="10.841468"><ele>63.25</ele></trkpt>
   <trkpt lat="52.870613" lon="10.842644"><ele>64</ele></trkpt>
   <trkpt lat="52.870659" lon="10.842751"><ele>64</ele></trkpt>
   <trkpt lat="52.87093" lon="10.843386"><ele>64</ele></trkpt>
   <trkpt lat="52.871238" lon="10.84405"><ele>63.5</ele></trkpt>
   <trkpt lat="52.871568" lon="10.844666"><ele>62.5</ele></trkpt>
   <trkpt lat="52.871697" lon="10.844879"><ele>62.25</ele></trkpt>
   <trkpt lat="52.872033" lon="10.845446"><ele>60.75</ele></trkpt>
   <trkpt lat="52.872824" lon="10.846675"><ele>58.75</ele></trkpt>
   <trkpt lat="52.87283" lon="10.846685"><ele>58.75</ele></trkpt>
   <trkpt lat="52.872945" lon="10.84686"><ele>59.25</ele></trkpt>
   <trkpt lat="52.873279" lon="10.847382"><ele>60.75</ele></trkpt>
   <trkpt lat="52.873677" lon="10.847985"><ele>61.75</ele></trkpt>
   <trkpt lat="52.874223" lon="10.848868"><ele>60.75</ele></trkpt>
   <trkpt lat="52.874616" lon="10.849544"><ele>60.25</ele></trkpt>
   <trkpt lat="52.874995" lon="10.850296"><ele>59.25</ele></trkpt>
   <trkpt lat="52.875363" lon="10.851117"><ele>57.75</ele></trkpt>
   <trkpt lat="52.875552" lon="10.851582"><ele>57</ele></trkpt>
   <trkpt lat="52.875588" lon="10.85167"><ele>57</ele></trkpt>
   <trkpt lat="52.875635" lon="10.851792"><ele>56.75</ele></trkpt>
   <trkpt lat="52.87579" lon="10.852213"><ele>56.25</ele></trkpt>
   <trkpt lat="52.875986" lon="10.852786"><ele>55.25</ele></trkpt>
   <trkpt lat="52.876249" lon="10.853655"><ele>54</ele></trkpt>
   <trkpt lat="52.876555" lon="10.854871"><ele>52.75</ele></trkpt>
   <trkpt lat="52.876704" lon="10.855594"><ele>52</ele></trkpt>
   <trkpt lat="52.876824" lon="10.856251"><ele>50.5</ele></trkpt>
   <trkpt lat="52.876987" lon="10.857369"><ele>49.5</ele></trkpt>
   <trkpt lat="52.877047" lon="10.857934"><ele>49.25</ele></trkpt>
   <trkpt lat="52.87715" lon="10.859324"><ele>49.75</ele></trkpt>
   <trkpt lat="52.877176" lon="10.860298"><ele>50.5</ele></trkpt>
   <trkpt lat="52.877177" lon="10.86107"><ele>50.75</ele></trkpt>
   <trkpt lat="52.877148" lon="10.861972"><ele>51.5</ele></trkpt>
   <trkpt lat="52.877128" lon="10.862266"><ele>51.5</ele></trkpt>
   <trkpt lat="52.877088" lon="10.862868"><ele>51.5</ele></trkpt>
   <trkpt lat="52.876958" lon="10.864082"><ele>51.25</ele></trkpt>
   <trkpt lat="52.876836" lon="10.864919"><ele>52</ele></trkpt>
   <trkpt lat="52.876675" lon="10.865859"><ele>51.75</ele></trkpt>
   <trkpt lat="52.876274" lon="10.867868"><ele>51</ele></trkpt>
   <trkpt lat="52.87565" lon="10.87095"><ele>46.75</ele></trkpt>
   <trkpt lat="52.875289" lon="10.872771"><ele>47.25</ele></trkpt>
   <trkpt lat="52.875029" lon="10.874001"><ele>47.75</ele></trkpt>
   <trkpt lat="52.874719" lon="10.875326"><ele>46.75</ele></trkpt>
   <trkpt lat="52.87434" lon="10.876769"><ele>46.25</ele></trkpt>
   <trkpt lat="52.874283" lon="10.876968"><ele>46</ele></trkpt>
   <trkpt lat="52.873849" lon="10.878371"><ele>45.75</ele></trkpt>
   <trkpt lat="52.873798" lon="10.878528"><ele>46</ele></trkpt>
   <trkpt lat="52.873687" lon="10.87886"><ele>46.25</ele></trkpt>
   <trkpt lat="52.873659" lon="10.878938"><ele>46.5</ele></trkpt>
   <trkpt lat="52.873655" lon="10.878948"><ele>46.5</ele></trkpt>
   <trkpt lat="52.873223" lon="10.880168"><ele>46</ele></trkpt>
   <trkpt lat="52.872462" lon="10.88209"><ele>46.75</ele></trkpt>
   <trkpt lat="52.872251" lon="10.882607"><ele>45.75</ele></trkpt>
   <trkpt lat="52.87173" lon="10.883889"><ele>45.75</ele></trkpt>
   <trkpt lat="52.871691" lon="10.883987"><ele>45.75</ele></trkpt>
   <trkpt lat="52.871288" lon="10.884886"><ele>46.25</ele></trkpt>
   <trkpt lat="52.871121" lon="10.885278"><ele>46</ele></trkpt>
   <trkpt lat="52.871109" lon="10.885308"><ele>46</ele></trkpt>
   <trkpt lat="52.870912" lon="10.885793"><ele>46</ele></trkpt>
   <trkpt lat="52.870591" lon="10.886491"><ele>45.5</ele></trkpt>
   <trkpt lat="52.870394" lon="10.886945"><ele>46</ele></trkpt>
   <trkpt lat="52.870032" lon="10.887785"><ele>46.75</ele></trkpt>
   <trkpt lat="52.869473" lon="10.889155"><ele>47.75</ele></trkpt>
   <trkpt lat="52.869241" lon="10.889707"><ele>48.5</ele></trkpt>
   <trkpt lat="52.86896" lon="10.890352"><ele>48.75</ele></trkpt>
   <trkpt lat="52.868561" lon="10.891227"><ele>48.25</ele></trkpt>
   <trkpt lat="52.868468" lon="10.891421"><ele>48</ele></trkpt>
   <trkpt lat="52.868258" lon="10.891842"><ele>48</ele></trkpt>
   <trkpt lat="52.868042" lon="10.892244"><ele>48.5</ele></trkpt>
   <trkpt lat="52.867373" lon="10.893412"><ele>49.75</ele></trkpt>
   <trkpt lat="52.867286" lon="10.89355"><ele>49.5</ele></trkpt>
   <trkpt lat="52.866568" lon="10.894633"><ele>48.25</ele></trkpt>
   <trkpt lat="52.865543" lon="10.896069"><ele>51</ele></trkpt>
   <trkpt lat="52.864636" lon="10.897431"><ele>53.25</ele></trkpt>
   <trkpt lat="52.864535" lon="10.897604"><ele>53.5</ele></trkpt>
   <trkpt lat="52.864422" lon="10.897761"><ele>53.75</ele></trkpt>
   <trkpt lat="52.8644" lon="10.897792"><ele>53.75</ele></trkpt>
   <trkpt lat="52.863619" lon="10.898951"><ele>54.25</ele></trkpt>
   <trkpt lat="52.863586" lon="10.898996"><ele>54.25</ele></trkpt>
   <trkpt lat="52.862846" lon="10.900013"><ele>47.5</ele></trkpt>
   <trkpt lat="52.862209" lon="10.900886"><ele>44.75</ele></trkpt>
   <trkpt lat="52.86169" lon="10.901699"><ele>45.75</ele></trkpt>
   <trkpt lat="52.86133" lon="10.902305"><ele>45.5</ele></trkpt>
   <trkpt lat="52.861013" lon="10.90288"><ele>44.75</ele></trkpt>
   <trkpt lat="52.860732" lon="10.903488"><ele>43.5</ele></trkpt>
   <trkpt lat="52.860568" lon="10.903843"><ele>42.75</ele></trkpt>
   <trkpt lat="52.860283" lon="10.904537"><ele>41.75</ele></trkpt>
   <trkpt lat="52.860222" lon="10.904685"><ele>41.5</ele></trkpt>
   <trkpt lat="52.859753" lon="10.906084"><ele>41</ele></trkpt>
   <trkpt lat="52.859387" lon="10.907461"><ele>40.25</ele></trkpt>
   <trkpt lat="52.859094" lon="10.908867"><ele>43.75</ele></trkpt>
   <trkpt lat="52.858276" lon="10.913206"><ele>41</ele></trkpt>
   <trkpt lat="52.858254" lon="10.913321"><ele>40.75</ele></trkpt>
   <trkpt lat="52.858232" lon="10.91345"><ele>40.75</ele></trkpt>
   <trkpt lat="52.858074" lon="10.914322"><ele>40.25</ele></trkpt>
   <trkpt lat="52.857949" lon="10.915111"><ele>39.5</ele></trkpt>
   <trkpt lat="52.857861" lon="10.915729"><ele>40</ele></trkpt>
   <trkpt lat="52.857735" lon="10.91687"><ele>41</ele></trkpt>
   <trkpt lat="52.857661" lon="10.918033"><ele>42</ele></trkpt>
   <trkpt lat="52.857659" lon="10.918214"><ele>42.25</ele></trkpt>
   <trkpt lat="52.857642" lon="10.9197"><ele>40.75</ele></trkpt>
   <trkpt lat="52.857691" lon="10.920903"><ele>39.5</ele></trkpt>
   <trkpt lat="52.857807" lon="10.922221"><ele>38.25</ele></trkpt>
   <trkpt lat="52.858037" lon="10.923754"><ele>39.5</ele></trkpt>
   <trkpt lat="52.858407" lon="10.925489"><ele>38.75</ele></trkpt>
   <trkpt lat="52.858758" lon="10.92676"><ele>35.75</ele></trkpt>
   <trkpt lat="52.859095" lon="10.927725"><ele>36.75</ele></trkpt>
   <trkpt lat="52.859461" lon="10.928646"><ele>39.25</ele></trkpt>
   <trkpt lat="52.861065" lon="10.932266"><ele>36.25</ele></trkpt>
   <trkpt lat="52.86259" lon="10.93566"><ele>34.75</ele></trkpt>
   <trkpt lat="52.863949" lon="10.938714"><ele>32.75</ele></trkpt>
   <trkpt lat="52.86439" lon="10.939857"><ele>32</ele></trkpt>
   <trkpt lat="52.864746" lon="10.940903"><ele>32</ele></trkpt>
   <trkpt lat="52.865015" lon="10.941804"><ele>32</ele></trkpt>
   <trkpt lat="52.865199" lon="10.94252"><ele>32</ele></trkpt>
   <trkpt lat="52.865244" lon="10.942695"><ele>32</ele></trkpt>
   <trkpt lat="52.865283" lon="10.942864"><ele>32</ele></trkpt>
   <trkpt lat="52.865451" lon="10.9436"><ele>31.5</ele></trkpt>
   <trkpt lat="52.865629" lon="10.944437"><ele>30.25</ele></trkpt>
   <trkpt lat="52.865806" lon="10.9455"><ele>29</ele></trkpt>
   <trkpt lat="52.865913" lon="10.946202"><ele>28.5</ele></trkpt>
   <trkpt lat="52.865952" lon="10.9465"><ele>28</ele></trkpt>
   <trkpt lat="52.866049" lon="10.947318"><ele>27.75</ele></trkpt>
   <trkpt lat="52.866128" lon="10.94814"><ele>26.75</ele></trkpt>
   <trkpt lat="52.866163" lon="10.948532"><ele>26.5</ele></trkpt>
   <trkpt lat="52.866249" lon="10.950112"><ele>26</ele></trkpt>
   <trkpt lat="52.86627" lon="10.951917"><ele>29.25</ele></trkpt>
   <trkpt lat="52.866201" lon="10.954867"><ele>26</ele></trkpt>
   <trkpt lat="52.866193" lon="10.955164"><ele>26</ele></trkpt>
   <trkpt lat="52.86618" lon="10.955659"><ele>28.75</ele></trkpt>
   <trkpt lat="52.866178" lon="10.955734"><ele>29.25</ele></trkpt>
   <trkpt lat="52.866173" lon="10.955857"><ele>30</ele></trkpt>
   <trkpt lat="52.865988" lon="10.963411"><ele>30</ele></trkpt>
   <trkpt lat="52.865829" lon="10.969912"><ele>29.75</ele></trkpt>
   <trkpt lat="52.865826" lon="10.970039"><ele>30</ele></trkpt>
   <trkpt lat="52.865744" lon="10.973401"><ele>30.25</ele></trkpt>
   <trkpt lat="52.865702" lon="10.974942"><ele>29</ele></trkpt>
   <trkpt lat="52.865617" lon="10.978229"><ele>24</ele></trkpt>
   <trkpt lat="52.865516" lon="10.982144"><ele>23</ele></trkpt>
   <trkpt lat="52.865505" lon="10.982632"><ele>23.75</ele></trkpt>
   <trkpt lat="52.865448" lon="10.98526"><ele>25</ele></trkpt>
   <trkpt lat="52.865437" lon="10.985698"><ele>25</ele></trkpt>
   <trkpt lat="52.864877" lon="11.008235"><ele>30.75</ele></trkpt>
   <trkpt lat="52.864868" lon="11.008717"><ele>30.5</ele></trkpt>
   <trkpt lat="52.864424" lon="11.02637"><ele>37.75</ele></trkpt>
   <trkpt lat="52.86435" lon="11.029366"><ele>37.5</ele></trkpt>
   <trkpt lat="52.864143" lon="11.038037"><ele>41.5</ele></trkpt>
   <trkpt lat="52.863659" lon="11.056793"><ele>40.75</ele></trkpt>
   <trkpt lat="52.863628" lon="11.057686"><ele>40.75</ele></trkpt>
   <trkpt lat="52.863584" lon="11.058581"><ele>41.25</ele></trkpt>
   <trkpt lat="52.863528" lon="11.059447"><ele>40.75</ele></trkpt>
   <trkpt lat="52.863478" lon="11.060067"><ele>40</ele></trkpt>
   <trkpt lat="52.863421" lon="11.060697"><ele>40</ele></trkpt>
   <trkpt lat="52.863355" lon="11.061333"><ele>40</ele></trkpt>
   <trkpt lat="52.863284" lon="11.061946"><ele>39.5</ele></trkpt>
   <trkpt lat="52.863115" lon="11.0632"><ele>38.5</ele></trkpt>
   <trkpt lat="52.863023" lon="11.063808"><ele>38.5</ele></trkpt>
   <trkpt lat="52.862919" lon="11.06444"><ele>38.75</ele></trkpt>
   <trkpt lat="52.862876" lon="11.06467"><ele>39</ele></trkpt>
   <trkpt lat="52.862604" lon="11.066258"><ele>38.5</ele></trkpt>
   <trkpt lat="52.860176" lon="11.080564"><ele>42.75</ele></trkpt>
   <trkpt lat="52.859752" lon="11.083061"><ele>43.5</ele></trkpt>
   <trkpt lat="52.859341" lon="11.085469"><ele>40.5</ele></trkpt>
   <trkpt lat="52.857864" lon="11.094213"><ele>39.25</ele></trkpt>
   <trkpt lat="52.857208" lon="11.098023"><ele>34</ele></trkpt>
   <trkpt lat="52.85686" lon="11.100156"><ele>35.25</ele></trkpt>
   <trkpt lat="52.856654" lon="11.101685"><ele>35.75</ele></trkpt>
   <trkpt lat="52.856503" lon="11.103302"><ele>32.25</ele></trkpt>
   <trkpt lat="52.856409" lon="11.104868"><ele>29.25</ele></trkpt>
   <trkpt lat="52.856384" lon="11.106523"><ele>28.5</ele></trkpt>
   <trkpt lat="52.856423" lon="11.108177"><ele>29.75</ele></trkpt>
   <trkpt lat="52.856488" lon="11.109309"><ele>30.25</ele></trkpt>
   <trkpt lat="52.856594" lon="11.110636"><ele>30</ele></trkpt>
   <trkpt lat="52.857249" lon="11.116811"><ele>27.5</ele></trkpt>
   <trkpt lat="52.857585" lon="11.119968"><ele>29</ele></trkpt>
   <trkpt lat="52.858532" lon="11.1288"><ele>26.75</ele></trkpt>
   <trkpt lat="52.85998" lon="11.142381"><ele>22.75</ele></trkpt>
   <trkpt lat="52.860069" lon="11.143475"><ele>23.75</ele></trkpt>
   <trkpt lat="52.860118" lon="11.144204"><ele>22.75</ele></trkpt>
   <trkpt lat="52.86014" lon="11.144747"><ele>22.25</ele></trkpt>
   <trkpt lat="52.860156" lon="11.14547"><ele>21.5</ele></trkpt>
   <trkpt lat="52.860156" lon="11.146204"><ele>20.5</ele></trkpt>
   <trkpt lat="52.860139" lon="11.146886"><ele>20</ele></trkpt>
   <trkpt lat="52.860111" lon="11.147663"><ele>19.75</ele></trkpt>
   <trkpt lat="52.86009" lon="11.148021"><ele>19.75</ele></trkpt>
   <trkpt lat="52.860046" lon="11.148663"><ele>19.75</ele></trkpt>
   <trkpt lat="52.860024" lon="11.148987"><ele>19.75</ele></trkpt>
   <trkpt lat="52.859978" lon="11.149423"><ele>19.5</ele></trkpt>
   <trkpt lat="52.859887" lon="11.150182"><ele>18.75</ele></trkpt>
   <trkpt lat="52.859667" lon="11.151787"><ele>18.5</ele></trkpt>
   <trkpt lat="52.859601" lon="11.152248"><ele>18.5</ele></trkpt>
   <trkpt lat="52.859595" lon="11.152286"><ele>18.5</ele></trkpt>
   <trkpt lat="52.859571" lon="11.152459"><ele>18.5</ele></trkpt>
   <trkpt lat="52.859501" lon="11.152886"><ele>18.5</ele></trkpt>
   <trkpt lat="52.859395" lon="11.153459"><ele>18.75</ele></trkpt>
   <trkpt lat="52.859299" lon="11.154055"><ele>19.5</ele></trkpt>
   <trkpt lat="52.859288" lon="11.154128"><ele>19.5</ele></trkpt>
   <trkpt lat="52.859285" lon="11.154146"><ele>19.5</ele></trkpt>
   <trkpt lat="52.859276" lon="11.154215"><ele>19.75</ele></trkpt>
   <trkpt lat="52.85913" lon="11.155228"><ele>20</ele></trkpt>
   <trkpt lat="52.858997" lon="11.156143"><ele>19.5</ele></trkpt>
   <trkpt lat="52.858567" lon="11.159116"><ele>19.5</ele></trkpt>
   <trkpt lat="52.858529" lon="11.159376"><ele>19.75</ele></trkpt>
   <trkpt lat="52.85849" lon="11.159655"><ele>19.75</ele></trkpt>
   <trkpt lat="52.858488" lon="11.159671"><ele>19.75</ele></trkpt>
   <trkpt lat="52.858357" lon="11.160553"><ele>20</ele></trkpt>
   <trkpt lat="52.858258" lon="11.161217"><ele>20.25</ele></trkpt>
   <trkpt lat="52.85809" lon="11.162377"><ele>21</ele></trkpt>
   <trkpt lat="52.858078" lon="11.162448"><ele>19.75</ele></trkpt>
   <trkpt lat="52.857839" lon="11.163992"><ele>19.75</ele></trkpt>
   <trkpt lat="52.857775" lon="11.164404"><ele>19</ele></trkpt>
   <trkpt lat="52.857274" lon="11.167666"><ele>18.25</ele></trkpt>
   <trkpt lat="52.856958" lon="11.169674"><ele>19</ele></trkpt>
   <trkpt lat="52.856944" lon="11.169767"><ele>19</ele></trkpt>
   <trkpt lat="52.856847" lon="11.170394"><ele>19</ele></trkpt>
   <trkpt lat="52.85679" lon="11.170765"><ele>19</ele></trkpt>
   <trkpt lat="52.856698" lon="11.171348"><ele>19.5</ele></trkpt>
   <trkpt lat="52.856583" lon="11.172001"><ele>19.75</ele></trkpt>
   <trkpt lat="52.856391" lon="11.172965"><ele>19</ele></trkpt>
   <trkpt lat="52.856386" lon="11.173002"><ele>19</ele></trkpt>
   <trkpt lat="52.856109" lon="11.174256"><ele>19</ele></trkpt>
   <trkpt lat="52.856073" lon="11.174412"><ele>19</ele></trkpt>
   <trkpt lat="52.856024" lon="11.174653"><ele>19.25</ele></trkpt>
   <trkpt lat="52.855436" lon="11.178348"><ele>19.25</ele></trkpt>
   <trkpt lat="52.854763" lon="11.182667"><ele>20.5</ele></trkpt>
   <trkpt lat="52.85456" lon="11.184026"><ele>21.75</ele></trkpt>
   <trkpt lat="52.854507" lon="11.184515"><ele>22.75</ele></trkpt>
   <trkpt lat="52.854436" lon="11.185382"><ele>23</ele></trkpt>
   <trkpt lat="52.854426" lon="11.185502"><ele>23</ele></trkpt>
   <trkpt lat="52.854396" lon="11.185874"><ele>22.5</ele></trkpt>
   <trkpt lat="52.854362" lon="11.186163"><ele>22.25</ele></trkpt>
   <trkpt lat="52.854332" lon="11.186368"><ele>22</ele></trkpt>
   <trkpt lat="52.854261" lon="11.186852"><ele>21.5</ele></trkpt>
   <trkpt lat="52.854202" lon="11.187308"><ele>21</ele></trkpt>
   <trkpt lat="52.8541" lon="11.188215"><ele>20</ele></trkpt>
   <trkpt lat="52.854014" lon="11.188867"><ele>20</ele></trkpt>
   <trkpt lat="52.853947" lon="11.189314"><ele>20.25</ele></trkpt>
   <trkpt lat="52.853526" lon="11.192069"><ele>21.5</ele></trkpt>
   <trkpt lat="52.853343" lon="11.193296"><ele>22.75</ele></trkpt>
   <trkpt lat="52.852896" lon="11.196204"><ele>21.25</ele></trkpt>
   <trkpt lat="52.852412" lon="11.199438"><ele>23.5</ele></trkpt>
   <trkpt lat="52.8519" lon="11.2028"><ele>24.5</ele></trkpt>
   <trkpt lat="52.851708" lon="11.204078"><ele>25.75</ele></trkpt>
   <trkpt lat="52.851439" lon="11.205852"><ele>27</ele></trkpt>
   <trkpt lat="52.851387" lon="11.206183"><ele>27</ele></trkpt>
   <trkpt lat="52.85134" lon="11.206504"><ele>27.25</ele></trkpt>
   <trkpt lat="52.851233" lon="11.207214"><ele>28</ele></trkpt>
   <trkpt lat="52.849098" lon="11.221261"><ele>36.5</ele></trkpt>
   <trkpt lat="52.849075" lon="11.221419"><ele>36.25</ele></trkpt>
   <trkpt lat="52.848608" lon="11.224473"><ele>35.25</ele></trkpt>
   <trkpt lat="52.84837" lon="11.226044"><ele>34.5</ele></trkpt>
   <trkpt lat="52.84835" lon="11.226178"><ele>34.5</ele></trkpt>
   <trkpt lat="52.84833" lon="11.226309"><ele>34.25</ele></trkpt>
   <trkpt lat="52.847076" lon="11.234569"><ele>37.5</ele></trkpt>
   <trkpt lat="52.846846" lon="11.236018"><ele>37.5</ele></trkpt>
   <trkpt lat="52.846607" lon="11.237353"><ele>37</ele></trkpt>
   <trkpt lat="52.846307" lon="11.238722"><ele>37</ele></trkpt>
   <trkpt lat="52.84596" lon="11.24007"><ele>37.75</ele></trkpt>
   <trkpt lat="52.845574" lon="11.24138"><ele>36.5</ele></trkpt>
   <trkpt lat="52.845113" lon="11.242716"><ele>36.5</ele></trkpt>
   <trkpt lat="52.844602" lon="11.244041"><ele>36.25</ele></trkpt>
   <trkpt lat="52.84298" lon="11.248104"><ele>37.75</ele></trkpt>
   <trkpt lat="52.842882" lon="11.248349"><ele>38</ele></trkpt>
   <trkpt lat="52.842853" lon="11.248423"><ele>38</ele></trkpt>
   <trkpt lat="52.842824" lon="11.248493"><ele>38</ele></trkpt>
   <trkpt lat="52.842745" lon="11.248692"><ele>38</ele></trkpt>
   <trkpt lat="52.842507" lon="11.249289"><ele>37.75</ele></trkpt>
   <trkpt lat="52.842282" lon="11.249853"><ele>37</ele></trkpt>
   <trkpt lat="52.837706" lon="11.261324"><ele>37.75</ele></trkpt>
   <trkpt lat="52.836891" lon="11.263364"><ele>37.5</ele></trkpt>
   <trkpt lat="52.836777" lon="11.263651"><ele>37.75</ele></trkpt>
   <trkpt lat="52.836664" lon="11.263935"><ele>38</ele></trkpt>
   <trkpt lat="52.836133" lon="11.265263"><ele>37.5</ele></trkpt>
   <trkpt lat="52.834426" lon="11.269543"><ele>39</ele></trkpt>
   <trkpt lat="52.834314" lon="11.269824"><ele>39</ele></trkpt>
   <trkpt lat="52.834278" lon="11.269912"><ele>39</ele></trkpt>
   <trkpt lat="52.83424" lon="11.270007"><ele>39</ele></trkpt>
   <trkpt lat="52.834139" lon="11.270259"><ele>39.25</ele></trkpt>
   <trkpt lat="52.834043" lon="11.270501"><ele>39.5</ele></trkpt>
   <trkpt lat="52.828881" lon="11.283427"><ele>33</ele></trkpt>
   <trkpt lat="52.827646" lon="11.286518"><ele>32.5</ele></trkpt>
   <trkpt lat="52.820753" lon="11.303774"><ele>35.75</ele></trkpt>
   <trkpt lat="52.820632" lon="11.304078"><ele>36.25</ele></trkpt>
   <trkpt lat="52.820516" lon="11.304368"><ele>37</ele></trkpt>
   <trkpt lat="52.819984" lon="11.305698"><ele>39.75</ele></trkpt>
   <trkpt lat="52.819717" lon="11.306366"><ele>40.75</ele></trkpt>
   <trkpt lat="52.814766" lon="11.318746"><ele>39.25</ele></trkpt>
   <trkpt lat="52.813579" lon="11.321712"><ele>38.25</ele></trkpt>
   <trkpt lat="52.81343" lon="11.322113"><ele>38.5</ele></trkpt>
   <trkpt lat="52.813319" lon="11.322438"><ele>39</ele></trkpt>
   <trkpt lat="52.813166" lon="11.322858"><ele>39.5</ele></trkpt>
   <trkpt lat="52.813047" lon="11.323154"><ele>39.75</ele></trkpt>
   <trkpt lat="52.8121" lon="11.325515"><ele>37</ele></trkpt>
   <trkpt lat="52.811761" lon="11.326361"><ele>35.5</ele></trkpt>
   <trkpt lat="52.811645" lon="11.326649"><ele>35</ele></trkpt>
   <trkpt lat="52.81152" lon="11.326964"><ele>34.5</ele></trkpt>
   <trkpt lat="52.810967" lon="11.328362"><ele>33</ele></trkpt>
   <trkpt lat="52.807515" lon="11.336989"><ele>42.5</ele></trkpt>
   <trkpt lat="52.805895" lon="11.341029"><ele>45</ele></trkpt>
   <trkpt lat="52.805611" lon="11.34173"><ele>46.25</ele></trkpt>
   <trkpt lat="52.80371" lon="11.346486"><ele>40.75</ele></trkpt>
   <trkpt lat="52.803163" lon="11.347846"><ele>36.75</ele></trkpt>
   <trkpt lat="52.803122" lon="11.347951"><ele>36.75</ele></trkpt>
   <trkpt lat="52.803074" lon="11.348069"><ele>36.75</ele></trkpt>
   <trkpt lat="52.791384" lon="11.377247"><ele>34</ele></trkpt>
   <trkpt lat="52.791321" lon="11.377404"><ele>34</ele></trkpt>
   <trkpt lat="52.791266" lon="11.377546"><ele>34</ele></trkpt>
   <trkpt lat="52.790995" lon="11.37823"><ele>34.75</ele></trkpt>
   <trkpt lat="52.790177" lon="11.380258"><ele>34.25</ele></trkpt>
   <trkpt lat="52.789997" lon="11.380705"><ele>34</ele></trkpt>
   <trkpt lat="52.788263" lon="11.385034"><ele>33</ele></trkpt>
   <trkpt lat="52.78523" lon="11.392591"><ele>36.25</ele></trkpt>
   <trkpt lat="52.784949" lon="11.393292"><ele>35.75</ele></trkpt>
   <trkpt lat="52.782402" lon="11.39964"><ele>33.5</ele></trkpt>
   <trkpt lat="52.781473" lon="11.401956"><ele>36</ele></trkpt>
   <trkpt lat="52.780864" lon="11.403475"><ele>38.5</ele></trkpt>
   <trkpt lat="52.777497" lon="11.411882"><ele>32.25</ele></trkpt>
   <trkpt lat="52.776857" lon="11.413362"><ele>34</ele></trkpt>
   <trkpt lat="52.7768" lon="11.413494"><ele>34</ele></trkpt>
   <trkpt lat="52.776755" lon="11.413588"><ele>34</ele></trkpt>
   <trkpt lat="52.776426" lon="11.414289"><ele>34</ele></trkpt>
   <trkpt lat="52.776072" lon="11.414967"><ele>32.75</ele></trkpt>
   <trkpt lat="52.775714" lon="11.415613"><ele>32</ele></trkpt>
   <trkpt lat="52.77539" lon="11.416199"><ele>31.25</ele></trkpt>
   <trkpt lat="52.766701" lon="11.431498"><ele>26.75</ele></trkpt>
   <trkpt lat="52.766586" lon="11.431701"><ele>27</ele></trkpt>
   <trkpt lat="52.766382" lon="11.432067"><ele>27.25</ele></trkpt>
   <trkpt lat="52.765949" lon="11.432891"><ele>27.5</ele></trkpt>
   <trkpt lat="52.76554" lon="11.433726"><ele>28</ele></trkpt>
   <trkpt lat="52.76516" lon="11.434586"><ele>28.25</ele></trkpt>
   <trkpt lat="52.764803" lon="11.435503"><ele>29</ele></trkpt>
   <trkpt lat="52.764462" lon="11.436442"><ele>29</ele></trkpt>
   <trkpt lat="52.764217" lon="11.437214"><ele>29.75</ele></trkpt>
   <trkpt lat="52.763906" lon="11.438285"><ele>30.75</ele></trkpt>
   <trkpt lat="52.763809" lon="11.438641"><ele>31</ele></trkpt>
   <trkpt lat="52.763762" lon="11.438808"><ele>31</ele></trkpt>
   <trkpt lat="52.763719" lon="11.438976"><ele>31</ele></trkpt>
   <trkpt lat="52.763292" lon="11.440603"><ele>32</ele></trkpt>
   <trkpt lat="52.762341" lon="11.444211"><ele>31.75</ele></trkpt>
   <trkpt lat="52.760184" lon="11.452387"><ele>26.75</ele></trkpt>
   <trkpt lat="52.756623" lon="11.46593"><ele>27</ele></trkpt>
   <trkpt lat="52.756144" lon="11.46773"><ele>26.75</ele></trkpt>
   <trkpt lat="52.755475" lon="11.470268"><ele>27.5</ele></trkpt>
   <trkpt lat="52.755367" lon="11.470659"><ele>28</ele></trkpt>
   <trkpt lat="52.755024" lon="11.471808"><ele>29.5</ele></trkpt>
   <trkpt lat="52.75499" lon="11.471938"><ele>29.5</ele></trkpt>
   <trkpt lat="52.75492" lon="11.472207"><ele>29.25</ele></trkpt>
   <trkpt lat="52.754857" lon="11.472447"><ele>29</ele></trkpt>
   <trkpt lat="52.754646" lon="11.473257"><ele>28</ele></trkpt>
   <trkpt lat="52.754499" lon="11.473768"><ele>27.75</ele></trkpt>
   <trkpt lat="52.75426" lon="11.474534"><ele>27.25</ele></trkpt>
   <trkpt lat="52.754045" lon="11.475275"><ele>27</ele></trkpt>
   <trkpt lat="52.753118" lon="11.478795"><ele>28.25</ele></trkpt>
   <trkpt lat="52.75261" lon="11.480521"><ele>29</ele></trkpt>
   <trkpt lat="52.752376" lon="11.481237"><ele>29</ele></trkpt>
   <trkpt lat="52.752032" lon="11.482258"><ele>29</ele></trkpt>
   <trkpt lat="52.751922" lon="11.482568"><ele>28.75</ele></trkpt>
   <trkpt lat="52.751724" lon="11.483114"><ele>28.75</ele></trkpt>
   <trkpt lat="52.751421" lon="11.483912"><ele>29.25</ele></trkpt>
   <trkpt lat="52.751101" lon="11.484706"><ele>29.5</ele></trkpt>
   <trkpt lat="52.751087" lon="11.484742"><ele>29.5</ele></trkpt>
   <trkpt lat="52.750959" lon="11.485041"><ele>29.75</ele></trkpt>
   <trkpt lat="52.750776" lon="11.485471"><ele>29.75</ele></trkpt>
   <trkpt lat="52.750638" lon="11.485785"><ele>29.75</ele></trkpt>
   <trkpt lat="52.750384" lon="11.48635"><ele>29.25</ele></trkpt>
   <trkpt lat="52.749983" lon="11.487201"><ele>28.75</ele></trkpt>
   <trkpt lat="52.749753" lon="11.487717"><ele>28.5</ele></trkpt>
   <trkpt lat="52.749538" lon="11.488241"><ele>28.25</ele></trkpt>
   <trkpt lat="52.749214" lon="11.488983"><ele>28.75</ele></trkpt>
   <trkpt lat="52.749138" lon="11.489144"><ele>29</ele></trkpt>
   <trkpt lat="52.748971" lon="11.489495"><ele>29.75</ele></trkpt>
   <trkpt lat="52.74873" lon="11.490025"><ele>31.5</ele></trkpt>
   <trkpt lat="52.748538" lon="11.490492"><ele>32.75</ele></trkpt>
   <trkpt lat="52.748252" lon="11.491117"><ele>35.25</ele></trkpt>
   <trkpt lat="52.74783" lon="11.492008"><ele>39.25</ele></trkpt>
   <trkpt lat="52.747448" lon="11.492812"><ele>40.5</ele></trkpt>
   <trkpt lat="52.746686" lon="11.494416"><ele>42.5</ele></trkpt>
   <trkpt lat="52.74195" lon="11.504389"><ele>42.25</ele></trkpt>
   <trkpt lat="52.741202" lon="11.505966"><ele>42.25</ele></trkpt>
   <trkpt lat="52.741154" lon="11.506068"><ele>42.25</ele></trkpt>
   <trkpt lat="52.73997" lon="11.508563"><ele>43.25</ele></trkpt>
   <trkpt lat="52.73774" lon="11.513253"><ele>33.25</ele></trkpt>
   <trkpt lat="52.737166" lon="11.514428"><ele>31.5</ele></trkpt>
   <trkpt lat="52.736807" lon="11.515136"><ele>31</ele></trkpt>
   <trkpt lat="52.73649" lon="11.51571"><ele>30.25</ele></trkpt>
   <trkpt lat="52.736212" lon="11.516184"><ele>28.5</ele></trkpt>
   <trkpt lat="52.735935" lon="11.516631"><ele>27</ele></trkpt>
   <trkpt lat="52.735565" lon="11.51719"><ele>26.5</ele></trkpt>
   <trkpt lat="52.735138" lon="11.517782"><ele>26.75</ele></trkpt>
   <trkpt lat="52.735021" lon="11.517945"><ele>26.75</ele></trkpt>
   <trkpt lat="52.734821" lon="11.518198"><ele>26.75</ele></trkpt>
   <trkpt lat="52.73429" lon="11.518846"><ele>26</ele></trkpt>
   <trkpt lat="52.733973" lon="11.519217"><ele>26</ele></trkpt>
   <trkpt lat="52.733782" lon="11.519434"><ele>26.25</ele></trkpt>
   <trkpt lat="52.733746" lon="11.519474"><ele>26.25</ele></trkpt>
   <trkpt lat="52.733636" lon="11.519601"><ele>26.25</ele></trkpt>
   <trkpt lat="52.733475" lon="11.519785"><ele>26</ele></trkpt>
   <trkpt lat="52.733321" lon="11.51996"><ele>26</ele></trkpt>
   <trkpt lat="52.731596" lon="11.52193"><ele>26</ele></trkpt>
   <trkpt lat="52.731436" lon="11.522111"><ele>26</ele></trkpt>
   <trkpt lat="52.731189" lon="11.522394"><ele>26</ele></trkpt>
   <trkpt lat="52.722718" lon="11.532073"><ele>27</ele></trkpt>
   <trkpt lat="52.721434" lon="11.533539"><ele>27</ele></trkpt>
   <trkpt lat="52.719156" lon="11.536136"><ele>26.5</ele></trkpt>
   <trkpt lat="52.718999" lon="11.536315"><ele>26.5</ele></trkpt>
   <trkpt lat="52.718856" lon="11.536479"><ele>26.5</ele></trkpt>
   <trkpt lat="52.714971" lon="11.540921"><ele>26</ele></trkpt>
   <trkpt lat="52.709759" lon="11.546859"><ele>27.25</ele></trkpt>
   <trkpt lat="52.709579" lon="11.547063"><ele>26.75</ele></trkpt>
   <trkpt lat="52.709436" lon="11.547229"><ele>26.5</ele></trkpt>
   <trkpt lat="52.709237" lon="11.547457"><ele>26</ele></trkpt>
   <trkpt lat="52.70839" lon="11.548424"><ele>27</ele></trkpt>
   <trkpt lat="52.707879" lon="11.549008"><ele>27</ele></trkpt>
   <trkpt lat="52.704256" lon="11.553144"><ele>27.5</ele></trkpt>
   <trkpt lat="52.700486" lon="11.557437"><ele>28.25</ele></trkpt>
   <trkpt lat="52.698972" lon="11.559167"><ele>29</ele></trkpt>
   <trkpt lat="52.698815" lon="11.559339"><ele>29.25</ele></trkpt>
   <trkpt lat="52.69866" lon="11.559521"><ele>29.25</ele></trkpt>
   <trkpt lat="52.698543" lon="11.559657"><ele>29.25</ele></trkpt>
   <trkpt lat="52.690709" lon="11.568597"><ele>31</ele></trkpt>
   <trkpt lat="52.68115" lon="11.579473"><ele>39.25</ele></trkpt>
   <trkpt lat="52.678867" lon="11.582074"><ele>44.25</ele></trkpt>
   <trkpt lat="52.678716" lon="11.582245"><ele>44.75</ele></trkpt>
   <trkpt lat="52.678562" lon="11.58242"><ele>45.25</ele></trkpt>
   <trkpt lat="52.678247" lon="11.582777"><ele>46.25</ele></trkpt>
   <trkpt lat="52.677873" lon="11.583201"><ele>48.5</ele></trkpt>
   <trkpt lat="52.673582" lon="11.588083"><ele>51.5</ele></trkpt>
   <trkpt lat="52.673034" lon="11.58871"><ele>53</ele></trkpt>
   <trkpt lat="52.671474" lon="11.590486"><ele>53.5</ele></trkpt>
   <trkpt lat="52.669242" lon="11.593031"><ele>51</ele></trkpt>
   <trkpt lat="52.669097" lon="11.593196"><ele>51</ele></trkpt>
   <trkpt lat="52.669058" lon="11.593241"><ele>51</ele></trkpt>
   <trkpt lat="52.668922" lon="11.593404"><ele>51.25</ele></trkpt>
   <trkpt lat="52.668713" lon="11.593654"><ele>51.25</ele></trkpt>
   <trkpt lat="52.668642" lon="11.593739"><ele>51.25</ele></trkpt>
   <trkpt lat="52.668337" lon="11.594104"><ele>51</ele></trkpt>
   <trkpt lat="52.667754" lon="11.594851"><ele>50.75</ele></trkpt>
   <trkpt lat="52.667694" lon="11.594935"><ele>50.75</ele></trkpt>
   <trkpt lat="52.667666" lon="11.594974"><ele>50.75</ele></trkpt>
   <trkpt lat="52.667183" lon="11.595646"><ele>51.75</ele></trkpt>
   <trkpt lat="52.666414" lon="11.596823"><ele>52.75</ele></trkpt>
   <trkpt lat="52.6657" lon="11.598028"><ele>50.75</ele></trkpt>
   <trkpt lat="52.665118" lon="11.599096"><ele>50.75</ele></trkpt>
   <trkpt lat="52.66471" lon="11.599908"><ele>50.25</ele></trkpt>
   <trkpt lat="52.663789" lon="11.601792"><ele>49.5</ele></trkpt>
   <trkpt lat="52.661852" lon="11.605754"><ele>48.75</ele></trkpt>
   <trkpt lat="52.661845" lon="11.605769"><ele>48.75</ele></trkpt>
   <trkpt lat="52.661401" lon="11.606678"><ele>49.25</ele></trkpt>
   <trkpt lat="52.66138" lon="11.606721"><ele>49.25</ele></trkpt>
   <trkpt lat="52.660279" lon="11.608972"><ele>48</ele></trkpt>
   <trkpt lat="52.654753" lon="11.620276"><ele>44.25</ele></trkpt>
   <trkpt lat="52.654377" lon="11.621045"><ele>44.5</ele></trkpt>
   <trkpt lat="52.65432" lon="11.621162"><ele>44.25</ele></trkpt>
   <trkpt lat="52.654261" lon="11.621283"><ele>44.25</ele></trkpt>
   <trkpt lat="52.653839" lon="11.622145"><ele>44</ele></trkpt>
   <trkpt lat="52.652417" lon="11.625052"><ele>42.75</ele></trkpt>
   <trkpt lat="52.64678" lon="11.636581"><ele>43.25</ele></trkpt>
   <trkpt lat="52.645416" lon="11.639385"><ele>42.5</ele></trkpt>
   <trkpt lat="52.644375" lon="11.641517"><ele>41</ele></trkpt>
   <trkpt lat="52.644367" lon="11.641532"><ele>41</ele></trkpt>
   <trkpt lat="52.642819" lon="11.6447"><ele>39.25</ele></trkpt>
   <trkpt lat="52.641473" lon="11.647455"><ele>38.75</ele></trkpt>
   <trkpt lat="52.639457" lon="11.651582"><ele>38.75</ele></trkpt>
   <trkpt lat="52.639287" lon="11.65193"><ele>39.25</ele></trkpt>
   <trkpt lat="52.63856" lon="11.653417"><ele>41</ele></trkpt>
   <trkpt lat="52.638441" lon="11.653661"><ele>41.25</ele></trkpt>
   <trkpt lat="52.638335" lon="11.653869"><ele>41.5</ele></trkpt>
   <trkpt lat="52.638197" lon="11.654141"><ele>41.75</ele></trkpt>
   <trkpt lat="52.637378" lon="11.655824"><ele>42</ele></trkpt>
   <trkpt lat="52.637371" lon="11.655839"><ele>42</ele></trkpt>
   <trkpt lat="52.637174" lon="11.656239"><ele>41.75</ele></trkpt>
   <trkpt lat="52.635639" lon="11.659377"><ele>43.5</ele></trkpt>
   <trkpt lat="52.634874" lon="11.660942"><ele>41.75</ele></trkpt>
   <trkpt lat="52.634574" lon="11.661555"><ele>42.25</ele></trkpt>
   <trkpt lat="52.634512" lon="11.66168"><ele>42.25</ele></trkpt>
   <trkpt lat="52.634247" lon="11.662223"><ele>42.25</ele></trkpt>
   <trkpt lat="52.63419" lon="11.662338"><ele>42.5</ele></trkpt>
   <trkpt lat="52.634131" lon="11.662458"><ele>42.75</ele></trkpt>
   <trkpt lat="52.633051" lon="11.664655"><ele>47</ele></trkpt>
   <trkpt lat="52.632746" lon="11.665276"><ele>44.25</ele></trkpt>
   <trkpt lat="52.632116" lon="11.666672"><ele>42.5</ele></trkpt>
   <trkpt lat="52.631567" lon="11.668019"><ele>41</ele></trkpt>
   <trkpt lat="52.631092" lon="11.669347"><ele>40.25</ele></trkpt>
   <trkpt lat="52.63067" lon="11.670734"><ele>39.75</ele></trkpt>
   <trkpt lat="52.630199" lon="11.672417"><ele>38</ele></trkpt>
   <trkpt lat="52.629534" lon="11.674855"><ele>38.75</ele></trkpt>
   <trkpt lat="52.629473" lon="11.675081"><ele>39</ele></trkpt>
   <trkpt lat="52.629424" lon="11.675253"><ele>39</ele></trkpt>
   <trkpt lat="52.629362" lon="11.675477"><ele>39</ele></trkpt>
   <trkpt lat="52.628795" lon="11.677559"><ele>38.25</ele></trkpt>
   <trkpt lat="52.622776" lon="11.699597"><ele>43</ele></trkpt>
   <trkpt lat="52.622725" lon="11.699782"><ele>44</ele></trkpt>
   <trkpt lat="52.622687" lon="11.699922"><ele>44.5</ele></trkpt>
   <trkpt lat="52.61806" lon="11.716859"><ele>46.25</ele></trkpt>
   <trkpt lat="52.618023" lon="11.716994"><ele>46.25</ele></trkpt>
   <trkpt lat="52.614671" lon="11.729251"><ele>44.5</ele></trkpt>
   <trkpt lat="52.614426" lon="11.730145"><ele>45.75</ele></trkpt>
   <trkpt lat="52.61438" lon="11.730312"><ele>46.25</ele></trkpt>
   <trkpt lat="52.614197" lon="11.730981"><ele>47.25</ele></trkpt>
   <trkpt lat="52.614158" lon="11.731124"><ele>47.5</ele></trkpt>
   <trkpt lat="52.614113" lon="11.731288"><ele>47.75</ele></trkpt>
   <trkpt lat="52.609105" lon="11.749547"><ele>42.75</ele></trkpt>
   <trkpt lat="52.605775" lon="11.761687"><ele>34.75</ele></trkpt>
   <trkpt lat="52.60574" lon="11.761814"><ele>34.75</ele></trkpt>
   <trkpt lat="52.605717" lon="11.761897"><ele>34.5</ele></trkpt>
   <trkpt lat="52.605416" lon="11.762995"><ele>33.5</ele></trkpt>
   <trkpt lat="52.604743" lon="11.765447"><ele>32</ele></trkpt>
   <trkpt lat="52.603191" lon="11.771102"><ele>31.75</ele></trkpt>
   <trkpt lat="52.603164" lon="11.771201"><ele>31.5</ele></trkpt>
   <trkpt lat="52.602142" lon="11.774923"><ele>31.75</ele></trkpt>
   <trkpt lat="52.60097" lon="11.779191"><ele>29.25</ele></trkpt>
   <trkpt lat="52.600963" lon="11.779218"><ele>29.25</ele></trkpt>
   <trkpt lat="52.599589" lon="11.784225"><ele>31.25</ele></trkpt>
   <trkpt lat="52.598082" lon="11.789715"><ele>32</ele></trkpt>
   <trkpt lat="52.598076" lon="11.789734"><ele>32</ele></trkpt>
   <trkpt lat="52.597307" lon="11.792552"><ele>31.75</ele></trkpt>
   <trkpt lat="52.597298" lon="11.792586"><ele>31.75</ele></trkpt>
   <trkpt lat="52.597273" lon="11.792683"><ele>31.75</ele></trkpt>
   <trkpt lat="52.597241" lon="11.792795"><ele>31.5</ele></trkpt>
   <trkpt lat="52.59722" lon="11.792872"><ele>31.5</ele></trkpt>
   <trkpt lat="52.596696" lon="11.794773"><ele>31</ele></trkpt>
   <trkpt lat="52.59666" lon="11.794906"><ele>31</ele></trkpt>
   <trkpt lat="52.596044" lon="11.79716"><ele>31</ele></trkpt>
   <trkpt lat="52.593607" lon="11.806013"><ele>30.5</ele></trkpt>
   <trkpt lat="52.593581" lon="11.806109"><ele>30.25</ele></trkpt>
   <trkpt lat="52.593354" lon="11.806935"><ele>29</ele></trkpt>
   <trkpt lat="52.593197" lon="11.807481"><ele>29.25</ele></trkpt>
   <trkpt lat="52.593193" lon="11.807495"><ele>29.25</ele></trkpt>
   <trkpt lat="52.592411" lon="11.810223"><ele>31</ele></trkpt>
   <trkpt lat="52.592359" lon="11.81042"><ele>31</ele></trkpt>
   <trkpt lat="52.592099" lon="11.811423"><ele>32.5</ele></trkpt>
   <trkpt lat="52.591949" lon="11.812112"><ele>33.25</ele></trkpt>
   <trkpt lat="52.591794" lon="11.812912"><ele>34</ele></trkpt>
   <trkpt lat="52.591675" lon="11.813631"><ele>34.75</ele></trkpt>
   <trkpt lat="52.59162" lon="11.814032"><ele>34.5</ele></trkpt>
   <trkpt lat="52.591589" lon="11.814264"><ele>34.5</ele></trkpt>
   <trkpt lat="52.591502" lon="11.815043"><ele>33.5</ele></trkpt>
   <trkpt lat="52.591465" lon="11.81545"><ele>33.5</ele></trkpt>
   <trkpt lat="52.59144" lon="11.815729"><ele>33.5</ele></trkpt>
   <trkpt lat="52.591423" lon="11.816004"><ele>33.75</ele></trkpt>
   <trkpt lat="52.591395" lon="11.816458"><ele>34.25</ele></trkpt>
   <trkpt lat="52.591365" lon="11.81731"><ele>34.5</ele></trkpt>
   <trkpt lat="52.591358" lon="11.818088"><ele>34.75</ele></trkpt>
   <trkpt lat="52.591379" lon="11.819419"><ele>35</ele></trkpt>
   <trkpt lat="52.591386" lon="11.819822"><ele>35.5</ele></trkpt>
   <trkpt lat="52.591406" lon="11.820399"><ele>35.5</ele></trkpt>
   <trkpt lat="52.591446" lon="11.821441"><ele>35.5</ele></trkpt>
   <trkpt lat="52.591491" lon="11.82214"><ele>35.75</ele></trkpt>
   <trkpt lat="52.591494" lon="11.822174"><ele>35.75</ele></trkpt>
   <trkpt lat="52.591523" lon="11.822664"><ele>36</ele></trkpt>
   <trkpt lat="52.591619" lon="11.823917"><ele>36</ele></trkpt>
   <trkpt lat="52.59173" lon="11.82512"><ele>36</ele></trkpt>
   <trkpt lat="52.59193" lon="11.827154"><ele>35.25</ele></trkpt>
   <trkpt lat="52.591934" lon="11.827185"><ele>35.25</ele></trkpt>
   <trkpt lat="52.591943" lon="11.827286"><ele>35.25</ele></trkpt>
   <trkpt lat="52.59206" lon="11.828261"><ele>34.75</ele></trkpt>
   <trkpt lat="52.592142" lon="11.828862"><ele>34.25</ele></trkpt>
   <trkpt lat="52.592246" lon="11.829781"><ele>32</ele></trkpt>
   <trkpt lat="52.592325" lon="11.830579"><ele>31.75</ele></trkpt>
   <trkpt lat="52.592365" lon="11.830986"><ele>32.25</ele></trkpt>
   <trkpt lat="52.592519" lon="11.832216"><ele>33</ele></trkpt>
   <trkpt lat="52.592537" lon="11.832386"><ele>33</ele></trkpt>
   <trkpt lat="52.592578" lon="11.832752"><ele>33</ele></trkpt>
   <trkpt lat="52.592653" lon="11.833211"><ele>33</ele></trkpt>
   <trkpt lat="52.592686" lon="11.833481"><ele>32.75</ele></trkpt>
   <trkpt lat="52.592732" lon="11.833962"><ele>32.75</ele></trkpt>
   <trkpt lat="52.592755" lon="11.834215"><ele>32.5</ele></trkpt>
   <trkpt lat="52.592801" lon="11.834637"><ele>32</ele></trkpt>
   <trkpt lat="52.592902" lon="11.835319"><ele>31.5</ele></trkpt>
   <trkpt lat="52.592978" lon="11.835914"><ele>31.75</ele></trkpt>
   <trkpt lat="52.59304" lon="11.836585"><ele>32.5</ele></trkpt>
   <trkpt lat="52.593125" lon="11.837464"><ele>32.25</ele></trkpt>
   <trkpt lat="52.593254" lon="11.838913"><ele>32.75</ele></trkpt>
   <trkpt lat="52.593529" lon="11.841988"><ele>31.75</ele></trkpt>
   <trkpt lat="52.593537" lon="11.842073"><ele>31.75</ele></trkpt>
   <trkpt lat="52.593629" lon="11.843071"><ele>31</ele></trkpt>
   <trkpt lat="52.593679" lon="11.843594"><ele>30.75</ele></trkpt>
   <trkpt lat="52.593729" lon="11.84435"><ele>30.75</ele></trkpt>
   <trkpt lat="52.59375" lon="11.844764"><ele>30.75</ele></trkpt>
   <trkpt lat="52.593811" lon="11.845731"><ele>31.5</ele></trkpt>
   <trkpt lat="52.593831" lon="11.84594"><ele>31.5</ele></trkpt>
   <trkpt lat="52.593933" lon="11.84694"><ele>32.25</ele></trkpt>
   <trkpt lat="52.594026" lon="11.847848"><ele>31.5</ele></trkpt>
   <trkpt lat="52.594253" lon="11.849788"><ele>31</ele></trkpt>
   <trkpt lat="52.594556" lon="11.852446"><ele>31</ele></trkpt>
   <trkpt lat="52.594559" lon="11.852472"><ele>31</ele></trkpt>
   <trkpt lat="52.59457" lon="11.852566"><ele>31</ele></trkpt>
   <trkpt lat="52.594576" lon="11.85263"><ele>31</ele></trkpt>
   <trkpt lat="52.594797" lon="11.854691"><ele>32</ele></trkpt>
   <trkpt lat="52.594828" lon="11.854964"><ele>32.25</ele></trkpt>
  </trkseg>
 </trk>
</gpx>