<?xml version="1.0" encoding="UTF-8"?>
<!-- track-length = 5901 filtered ascend = 8 plain-ascend = 0 cost=5901 energy=0.1kwh time=7m 52s -->
<gpx 
 xmlns="http://www.topografix.com/GPX/1/1" 
 xmlns:xsi="http://www.w3.org/2001/XMLSchema-instance" 
 xsi:schemaLocation="http://www.topografix.com/GPX/1/1 http://www.topografix.com/GPX/1/1/gpx.xsd" 
 version="1.1" 
 creator="BRouter-Web 0.18.1">
 <trk>
  <name>Umfahrung Hamm</name>
  <trkseg>
   <trkpt lat="51.656736" lon="7.82065"><ele>68.75</ele></trkpt>
   <trkpt lat="51.6566" lon="7.818569"><ele>68</ele></trkpt>
   <trkpt lat="51.656492" lon="7.81687"><ele>67</ele></trkpt>
   <trkpt lat="51.656349" lon="7.815262"><ele>64.75</ele></trkpt>
   <trkpt lat="51.656348" lon="7.815238"><ele>64.75</ele></trkpt>
   <trkpt lat="51.656328" lon="7.814908"><ele>64.5</ele></trkpt>
   <trkpt lat="51.656214" lon="7.813829"><ele>66</ele></trkpt>
   <trkpt lat="51.656169" lon="7.813346"><ele>66.5</ele></trkpt>
   <trkpt lat="51.656148" lon="7.812959"><ele>67</ele></trkpt>
   <trkpt lat="51.656139" lon="7.812635"><ele>67.25</ele></trkpt>
   <trkpt lat="51.65614" lon="7.812248"><ele>67.5</ele></trkpt>
   <trkpt lat="51.65616" lon="7.81177"><ele>67.5</ele></trkpt>
   <trkpt lat="51.656192" lon="7.811408"><ele>67.25</ele></trkpt>
   <trkpt lat="51.656237" lon="7.81099"><ele>66.5</ele></trkpt>
   <trkpt lat="51.656328" lon="7.810442"><ele>66</ele></trkpt>
   <trkpt lat="51.656398" lon="7.810123"><ele>66</ele></trkpt>
   <trkpt lat="51.656437" lon="7.80994"><ele>66</ele></trkpt>
   <trkpt lat="51.656547" lon="7.809528"><ele>66.5</ele></trkpt>
   <trkpt lat="51.656625" lon="7.809277"><ele>66.75</ele></trkpt>
   <trkpt lat="51.656645" lon="7.809218"><ele>66.75</ele></trkpt>
   <trkpt lat="51.656836" lon="7.808689"><ele>66.75</ele></trkpt>
   <trkpt lat="51.65697" lon="7.80838"><ele>66.5</ele></trkpt>
   <trkpt lat="51.657057" lon="7.808199"><ele>66.5</ele></trkpt>
   <trkpt lat="51.657341" lon="7.80766"><ele>66.75</ele></trkpt>
   <trkpt lat="51.657876" lon="7.80677"><ele>66.75</ele></trkpt>
   <trkpt lat="51.657927" lon="7.806688"><ele>66.75</ele></trkpt>
   <trkpt lat="51.658202" lon="7.806232"><ele>67.25</ele></trkpt>
   <trkpt lat="51.658317" lon="7.806017"><ele>67.5</ele></trkpt>
   <trkpt lat="51.658417" lon="7.805813"><ele>68</ele></trkpt>
   <trkpt lat="51.658513" lon="7.805585"><ele>68.25</ele></trkpt>
   <trkpt lat="51.658596" lon="7.805354"><ele>68.75</ele></trkpt>
   <trkpt lat="51.658671" lon="7.805117"><ele>69.25</ele></trkpt>
   <trkpt lat="51.658735" lon="7.804885"><ele>69.75</ele></trkpt>
   <trkpt lat="51.658801" lon="7.804585"><ele>69.5</ele></trkpt>
   <trkpt lat="51.658855" lon="7.804283"><ele>69.5</ele></trkpt>
   <trkpt lat="51.65889" lon="7.803991"><ele>69.5</ele></trkpt>
   <trkpt lat="51.658909" lon="7.803773"><ele>69.75</ele></trkpt>
   <trkpt lat="51.658931" lon="7.803273"><ele>69.75</ele></trkpt>
   <trkpt lat="51.658951" lon="7.802237"><ele>68</ele></trkpt>
   <trkpt lat="51.658954" lon="7.802047"><ele>67.75</ele></trkpt>
   <trkpt lat="51.65896" lon="7.80174"><ele>67.5</ele></trkpt>
   <trkpt lat="51.658948" lon="7.801396"><ele>67.25</ele></trkpt>
   <trkpt lat="51.658922" lon="7.801058"><ele>67.25</ele></trkpt>
   <trkpt lat="51.65889" lon="7.800812"><ele>67.25</ele></trkpt>
   <trkpt lat="51.658849" lon="7.800565"><ele>67.5</ele></trkpt>
   <trkpt lat="51.658799" lon="7.800315"><ele>67.5</ele></trkpt>
   <trkpt lat="51.658744" lon="7.800084"><ele>67.75</ele></trkpt>
   <trkpt lat="51.658675" lon="7.799836"><ele>67.75</ele></trkpt>
   <trkpt lat="51.658596" lon="7.799602"><ele>67.75</ele></trkpt>
   <trkpt lat="51.658419" lon="7.799161"><ele>67.75</ele></trkpt>
   <trkpt lat="51.658197" lon="7.798696"><ele>67.5</ele></trkpt>
   <trkpt lat="51.657942" lon="7.798288"><ele>67.5</ele></trkpt>
   <trkpt lat="51.657618" lon="7.797825"><ele>68.25</ele></trkpt>
   <trkpt lat="51.657494" lon="7.797654"><ele>68.75</ele></trkpt>
   <trkpt lat="51.657235" lon="7.797326"><ele>69</ele></trkpt>
   <trkpt lat="51.656971" lon="7.79704"><ele>69</ele></trkpt>
   <trkpt lat="51.656827" lon="7.796893"><ele>69</ele></trkpt>
   <trkpt lat="51.656699" lon="7.796761"><ele>69</ele></trkpt>
   <trkpt lat="51.655664" lon="7.795697"><ele>68.75</ele></trkpt>
   <trkpt lat="51.654118" lon="7.79411"><ele>68.75</ele></trkpt>
   <trkpt lat="51.652241" lon="7.79217"><ele>70</ele></trkpt>
   <trkpt lat="51.651582" lon="7.791485"><ele>69.5</ele></trkpt>
   <trkpt lat="51.651349" lon="7.791239"><ele>69.25</ele></trkpt>
   <trkpt lat="51.65116" lon="7.79101"><ele>69</ele></trkpt>
   <trkpt lat="51.651104" lon="7.790936"><ele>68.75</ele></trkpt>
   <trkpt lat="51.650694" lon="7.790394"><ele>68.25</ele></trkpt>
   <trkpt lat="51.650338" lon="7.789923"><ele>67.75</ele></trkpt>
   <trkpt lat="51.65008" lon="7.789565"><ele>67.25</ele></trkpt>
   <trkpt lat="51.649702" lon="7.788976"><ele>67.25</ele></trkpt>
   <trkpt lat="51.649618" lon="7.788845"><ele>67.25</ele></trkpt>
   <trkpt lat="51.649183" lon="7.788169"><ele>67.75</ele></trkpt>
   <trkpt lat="51.648913" lon="7.787754"><ele>67</ele></trkpt>
   <trkpt lat="51.648582" lon="7.787242"><ele>67</ele></trkpt>
   <trkpt lat="51.64836" lon="7.786878"><ele>67</ele></trkpt>
   <trkpt lat="51.648314" lon="7.786803"><ele>67</ele></trkpt>
   <trkpt lat="51.64817" lon="7.786525"><ele>66.75</ele></trkpt>
   <trkpt lat="51.647941" lon="7.786018"><ele>66.25</ele></trkpt>
   <trkpt lat="51.647632" lon="7.785318"><ele>66.5</ele></trkpt>
   <trkpt lat="51.647437" lon="7.784922"><ele>66.75</ele></trkpt>
   <trkpt lat="51.647271" lon="7.78462"><ele>66.5</ele></trkpt>
   <trkpt lat="51.647021" lon="7.78422"><ele>67.25</ele></trkpt>
   <trkpt lat="51.646803" lon="7.783913"><ele>68.25</ele></trkpt>
   <trkpt lat="51.646376" lon="7.783411"><ele>67.75</ele></trkpt>
   <trkpt lat="51.645917" lon="7.782903"><ele>64.25</ele></trkpt>
   <trkpt lat="51.645121" lon="7.782019"><ele>64.25</ele></trkpt>
   <trkpt lat="51.644476" lon="7.781286"><ele>64</ele></trkpt>
   <trkpt lat="51.644227" lon="7.780997"><ele>64</ele></trkpt>
   <trkpt lat="51.643958" lon="7.780688"><ele>64</ele></trkpt>
   <trkpt lat="51.643691" lon="7.780407"><ele>64.25</ele></trkpt>
   <trkpt lat="51.640271" lon="7.776897"><ele>67.25</ele></trkpt>
   <trkpt lat="51.639882" lon="7.776498"><ele>68.25</ele></trkpt>
   <trkpt lat="51.639282" lon="7.775871"><ele>69.5</ele></trkpt>
   <trkpt lat="51.639235" lon="7.775822"><ele>69.5</ele></trkpt>
   <trkpt lat="51.639108" lon="7.77569"><ele>69.75</ele></trkpt>
   <trkpt lat="51.63824" lon="7.774875"><ele>70</ele></trkpt>
   <trkpt lat="51.637763" lon="7.774402"><ele>70.5</ele></trkpt>
   <trkpt lat="51.637445" lon="7.77412"><ele>71</ele></trkpt>
   <trkpt lat="51.637079" lon="7.773768"><ele>71.25</ele></trkpt>
   <trkpt lat="51.637011" lon="7.773695"><ele>71.25</ele></trkpt>
   <trkpt lat="51.636603" lon="7.773275"><ele>72</ele></trkpt>
   <trkpt lat="51.635682" lon="7.772327"><ele>71</ele></trkpt>
   <trkpt lat="51.634974" lon="7.771602"><ele>70.75</ele></trkpt>
   <trkpt lat="51.634096" lon="7.770696"><ele>70</ele></trkpt>
   <trkpt lat="51.633196" lon="7.76978"><ele>73</ele></trkpt>
   <trkpt lat="51.630895" lon="7.767416"><ele>71</ele></trkpt>
   <trkpt lat="51.630237" lon="7.766741"><ele>71</ele></trkpt>
   <trkpt lat="51.629423" lon="7.765901"><ele>70.5</ele></trkpt>
   <trkpt lat="51.626971" lon="7.763398"><ele>70</ele></trkpt>
  </trkseg>
 </trk>
</gpx>