<?xml version="1.0" encoding="UTF-8"?>
<!-- track-length = 8351 filtered ascend = 15 plain-ascend = 13 cost=8351 energy=.1kwh time=11m 8s -->
<gpx 
 xmlns="http://www.topografix.com/GPX/1/1" 
 xmlns:xsi="http://www.w3.org/2001/XMLSchema-instance" 
 xsi:schemaLocation="http://www.topografix.com/GPX/1/1 http://www.topografix.com/GPX/1/1/gpx.xsd" 
 creator="BRouter-1.7.0" version="1.1">
 <trk>
  <name>umgehungsbahnthekla</name>
  <trkseg>
   <trkpt lon="12.400653" lat="51.367127"><ele>115.25</ele></trkpt>
   <trkpt lon="12.400580" lat="51.367275"><ele>115.5</ele></trkpt>
   <trkpt lon="12.400572" lat="51.367290"><ele>115.5</ele></trkpt>
   <trkpt lon="12.400487" lat="51.367461"><ele>115.75</ele></trkpt>
   <trkpt lon="12.400484" lat="51.367467"><ele>115.75</ele></trkpt>
   <trkpt lon="12.400311" lat="51.367850"><ele>116.25</ele></trkpt>
   <trkpt lon="12.400235" lat="51.368067"><ele>116.5</ele></trkpt>
   <trkpt lon="12.400108" lat="51.368367"><ele>117.0</ele></trkpt>
   <trkpt lon="12.400089" lat="51.368409"><ele>117.0</ele></trkpt>
   <trkpt lon="12.399720" lat="51.369224"><ele>117.75</ele></trkpt>
   <trkpt lon="12.399716" lat="51.369234"><ele>117.75</ele></trkpt>
   <trkpt lon="12.399569" lat="51.369570"><ele>117.75</ele></trkpt>
   <trkpt lon="12.399489" lat="51.369775"><ele>117.5</ele></trkpt>
   <trkpt lon="12.399437" lat="51.369943"><ele>117.5</ele></trkpt>
   <trkpt lon="12.399398" lat="51.370107"><ele>117.5</ele></trkpt>
   <trkpt lon="12.399356" lat="51.370333"><ele>117.75</ele></trkpt>
   <trkpt lon="12.399354" lat="51.370359"><ele>117.75</ele></trkpt>
   <trkpt lon="12.399353" lat="51.370364"><ele>117.75</ele></trkpt>
   <trkpt lon="12.399338" lat="51.370576"><ele>117.75</ele></trkpt>
   <trkpt lon="12.399347" lat="51.370837"><ele>117.75</ele></trkpt>
   <trkpt lon="12.399381" lat="51.371036"><ele>118.0</ele></trkpt>
   <trkpt lon="12.399446" lat="51.371240"><ele>118.5</ele></trkpt>
   <trkpt lon="12.399596" lat="51.371642"><ele>119.25</ele></trkpt>
   <trkpt lon="12.399687" lat="51.371822"><ele>119.25</ele></trkpt>
   <trkpt lon="12.399794" lat="51.371987"><ele>119.25</ele></trkpt>
   <trkpt lon="12.399980" lat="51.372235"><ele>119.5</ele></trkpt>
   <trkpt lon="12.400270" lat="51.372550"><ele>119.25</ele></trkpt>
   <trkpt lon="12.400466" lat="51.372722"><ele>118.75</ele></trkpt>
   <trkpt lon="12.400658" lat="51.372872"><ele>118.25</ele></trkpt>
   <trkpt lon="12.400989" lat="51.373099"><ele>117.75</ele></trkpt>
   <trkpt lon="12.401211" lat="51.373229"><ele>117.25</ele></trkpt>
   <trkpt lon="12.401374" lat="51.373312"><ele>117.25</ele></trkpt>
   <trkpt lon="12.401464" lat="51.373357"><ele>117.25</ele></trkpt>
   <trkpt lon="12.401544" lat="51.373394"><ele>117.0</ele></trkpt>
   <trkpt lon="12.402017" lat="51.373596"><ele>117.25</ele></trkpt>
   <trkpt lon="12.402301" lat="51.373699"><ele>117.25</ele></trkpt>
   <trkpt lon="12.402589" lat="51.373794"><ele>117.5</ele></trkpt>
   <trkpt lon="12.403111" lat="51.373946"><ele>117.5</ele></trkpt>
   <trkpt lon="12.403642" lat="51.374071"><ele>117.75</ele></trkpt>
   <trkpt lon="12.403722" lat="51.374087"><ele>117.75</ele></trkpt>
   <trkpt lon="12.404268" lat="51.374187"><ele>118.0</ele></trkpt>
   <trkpt lon="12.404574" lat="51.374229"><ele>118.0</ele></trkpt>
   <trkpt lon="12.405037" lat="51.374280"><ele>118.25</ele></trkpt>
   <trkpt lon="12.405483" lat="51.374309"><ele>118.25</ele></trkpt>
   <trkpt lon="12.405912" lat="51.374323"><ele>118.25</ele></trkpt>
   <trkpt lon="12.406222" lat="51.374325"><ele>117.75</ele></trkpt>
   <trkpt lon="12.406803" lat="51.374304"><ele>117.25</ele></trkpt>
   <trkpt lon="12.407670" lat="51.374238"><ele>117.25</ele></trkpt>
   <trkpt lon="12.407791" lat="51.374226"><ele>117.25</ele></trkpt>
   <trkpt lon="12.407882" lat="51.374215"><ele>117.5</ele></trkpt>
   <trkpt lon="12.409260" lat="51.374088"><ele>116.75</ele></trkpt>
   <trkpt lon="12.409786" lat="51.374040"><ele>115.5</ele></trkpt>
   <trkpt lon="12.411210" lat="51.373910"><ele>114.75</ele></trkpt>
   <trkpt lon="12.411327" lat="51.373899"><ele>114.75</ele></trkpt>
   <trkpt lon="12.411781" lat="51.373859"><ele>114.5</ele></trkpt>
   <trkpt lon="12.412758" lat="51.373770"><ele>113.5</ele></trkpt>
   <trkpt lon="12.412909" lat="51.373755"><ele>113.5</ele></trkpt>
   <trkpt lon="12.413104" lat="51.373737"><ele>113.0</ele></trkpt>
   <trkpt lon="12.413126" lat="51.373735"><ele>113.0</ele></trkpt>
   <trkpt lon="12.414169" lat="51.373639"><ele>112.25</ele></trkpt>
   <trkpt lon="12.414776" lat="51.373583"><ele>111.5</ele></trkpt>
   <trkpt lon="12.416505" lat="51.373423"><ele>110.75</ele></trkpt>
   <trkpt lon="12.417866" lat="51.373297"><ele>111.25</ele></trkpt>
   <trkpt lon="12.417995" lat="51.373286"><ele>111.5</ele></trkpt>
   <trkpt lon="12.418529" lat="51.373241"><ele>111.75</ele></trkpt>
   <trkpt lon="12.418809" lat="51.373215"><ele>111.75</ele></trkpt>
   <trkpt lon="12.420708" lat="51.373038"><ele>112.0</ele></trkpt>
   <trkpt lon="12.420812" lat="51.373031"><ele>112.25</ele></trkpt>
   <trkpt lon="12.421335" lat="51.372984"><ele>112.0</ele></trkpt>
   <trkpt lon="12.421374" lat="51.372980"><ele>112.0</ele></trkpt>
   <trkpt lon="12.421956" lat="51.372928"><ele>112.0</ele></trkpt>
   <trkpt lon="12.422130" lat="51.372910"><ele>112.25</ele></trkpt>
   <trkpt lon="12.422773" lat="51.372867"><ele>112.75</ele></trkpt>
   <trkpt lon="12.423351" lat="51.372843"><ele>113.5</ele></trkpt>
   <trkpt lon="12.423495" lat="51.372838"><ele>113.5</ele></trkpt>
   <trkpt lon="12.424179" lat="51.372792"><ele>113.25</ele></trkpt>
   <trkpt lon="12.424885" lat="51.372727"><ele>112.5</ele></trkpt>
   <trkpt lon="12.425041" lat="51.372711"><ele>112.25</ele></trkpt>
   <trkpt lon="12.426107" lat="51.372583"><ele>113.0</ele></trkpt>
   <trkpt lon="12.426118" lat="51.372582"><ele>113.0</ele></trkpt>
   <trkpt lon="12.426466" lat="51.372534"><ele>113.5</ele></trkpt>
   <trkpt lon="12.427195" lat="51.372434"><ele>114.5</ele></trkpt>
   <trkpt lon="12.428072" lat="51.372291"><ele>115.75</ele></trkpt>
   <trkpt lon="12.428349" lat="51.372242"><ele>116.25</ele></trkpt>
   <trkpt lon="12.429999" lat="51.371933"><ele>118.5</ele></trkpt>
   <trkpt lon="12.431080" lat="51.371720"><ele>119.25</ele></trkpt>
   <trkpt lon="12.431595" lat="51.371623"><ele>119.75</ele></trkpt>
   <trkpt lon="12.432151" lat="51.371528"><ele>119.75</ele></trkpt>
   <trkpt lon="12.432168" lat="51.371525"><ele>119.75</ele></trkpt>
   <trkpt lon="12.432415" lat="51.371484"><ele>119.75</ele></trkpt>
   <trkpt lon="12.434427" lat="51.371140"><ele>120.5</ele></trkpt>
   <trkpt lon="12.436314" lat="51.370808"><ele>120.5</ele></trkpt>
   <trkpt lon="12.436514" lat="51.370770"><ele>120.75</ele></trkpt>
   <trkpt lon="12.436953" lat="51.370669"><ele>121.25</ele></trkpt>
   <trkpt lon="12.437341" lat="51.370564"><ele>121.75</ele></trkpt>
   <trkpt lon="12.437668" lat="51.370463"><ele>122.0</ele></trkpt>
   <trkpt lon="12.437950" lat="51.370359"><ele>122.0</ele></trkpt>
   <trkpt lon="12.438610" lat="51.370061"><ele>122.0</ele></trkpt>
   <trkpt lon="12.439220" lat="51.369715"><ele>121.5</ele></trkpt>
   <trkpt lon="12.439416" lat="51.369573"><ele>121.5</ele></trkpt>
   <trkpt lon="12.439729" lat="51.369325"><ele>121.25</ele></trkpt>
   <trkpt lon="12.439945" lat="51.369126"><ele>121.0</ele></trkpt>
   <trkpt lon="12.440486" lat="51.368587"><ele>121.5</ele></trkpt>
   <trkpt lon="12.441682" lat="51.367395"><ele>125.0</ele></trkpt>
   <trkpt lon="12.441770" lat="51.367307"><ele>125.0</ele></trkpt>
   <trkpt lon="12.441960" lat="51.367119"><ele>125.0</ele></trkpt>
   <trkpt lon="12.443181" lat="51.365898"><ele>125.5</ele></trkpt>
   <trkpt lon="12.443269" lat="51.365796"><ele>126.0</ele></trkpt>
   <trkpt lon="12.443411" lat="51.365633"><ele>126.0</ele></trkpt>
   <trkpt lon="12.443596" lat="51.365375"><ele>126.0</ele></trkpt>
   <trkpt lon="12.443780" lat="51.365055"><ele>126.0</ele></trkpt>
   <trkpt lon="12.443921" lat="51.364739"><ele>126.0</ele></trkpt>
   <trkpt lon="12.444026" lat="51.364420"><ele>126.0</ele></trkpt>
   <trkpt lon="12.444098" lat="51.363994"><ele>126.25</ele></trkpt>
   <trkpt lon="12.444120" lat="51.363726"><ele>126.5</ele></trkpt>
   <trkpt lon="12.444111" lat="51.363491"><ele>126.75</ele></trkpt>
   <trkpt lon="12.444074" lat="51.363224"><ele>126.75</ele></trkpt>
   <trkpt lon="12.444024" lat="51.362996"><ele>126.75</ele></trkpt>
   <trkpt lon="12.443973" lat="51.362823"><ele>126.5</ele></trkpt>
   <trkpt lon="12.443873" lat="51.362552"><ele>126.25</ele></trkpt>
   <trkpt lon="12.443783" lat="51.362366"><ele>126.0</ele></trkpt>
   <trkpt lon="12.443576" lat="51.361992"><ele>126.0</ele></trkpt>
   <trkpt lon="12.443462" lat="51.361812"><ele>126.0</ele></trkpt>
   <trkpt lon="12.443029" lat="51.361118"><ele>126.25</ele></trkpt>
   <trkpt lon="12.443022" lat="51.361108"><ele>126.25</ele></trkpt>
   <trkpt lon="12.442835" lat="51.360774"><ele>126.5</ele></trkpt>
   <trkpt lon="12.442746" lat="51.360580"><ele>126.5</ele></trkpt>
   <trkpt lon="12.442712" lat="51.360506"><ele>126.5</ele></trkpt>
   <trkpt lon="12.442639" lat="51.360335"><ele>126.75</ele></trkpt>
   <trkpt lon="12.442512" lat="51.360073"><ele>126.75</ele></trkpt>
   <trkpt lon="12.442318" lat="51.359754"><ele>126.75</ele></trkpt>
   <trkpt lon="12.442196" lat="51.359557"><ele>126.5</ele></trkpt>
   <trkpt lon="12.441974" lat="51.359174"><ele>126.25</ele></trkpt>
   <trkpt lon="12.441811" lat="51.358818"><ele>125.5</ele></trkpt>
   <trkpt lon="12.441524" lat="51.358097"><ele>125.0</ele></trkpt>
   <trkpt lon="12.441427" lat="51.357895"><ele>125.25</ele></trkpt>
   <trkpt lon="12.441211" lat="51.357515"><ele>125.5</ele></trkpt>
   <trkpt lon="12.437975" lat="51.352320"><ele>125.0</ele></trkpt>
   <trkpt lon="12.437632" lat="51.351806"><ele>124.25</ele></trkpt>
   <trkpt lon="12.437090" lat="51.351090"><ele>123.5</ele></trkpt>
   <trkpt lon="12.436978" lat="51.350936"><ele>123.25</ele></trkpt>
   <trkpt lon="12.436809" lat="51.350702"><ele>123.5</ele></trkpt>
   <trkpt lon="12.436576" lat="51.350375"><ele>124.5</ele></trkpt>
   <trkpt lon="12.436386" lat="51.350013"><ele>125.25</ele></trkpt>
   <trkpt lon="12.435980" lat="51.349248"><ele>125.25</ele></trkpt>
   <trkpt lon="12.435603" lat="51.348585"><ele>125.0</ele></trkpt>
   <trkpt lon="12.435258" lat="51.348027"><ele>124.75</ele></trkpt>
   <trkpt lon="12.434981" lat="51.347559"><ele>124.75</ele></trkpt>
   <trkpt lon="12.434857" lat="51.347292"><ele>125.25</ele></trkpt>
   <trkpt lon="12.434779" lat="51.347034"><ele>125.5</ele></trkpt>
   <trkpt lon="12.434744" lat="51.346775"><ele>126.0</ele></trkpt>
   <trkpt lon="12.434736" lat="51.346606"><ele>126.25</ele></trkpt>
   <trkpt lon="12.434742" lat="51.346432"><ele>126.0</ele></trkpt>
   <trkpt lon="12.434769" lat="51.346255"><ele>125.75</ele></trkpt>
   <trkpt lon="12.434805" lat="51.346103"><ele>125.75</ele></trkpt>
   <trkpt lon="12.434863" lat="51.345949"><ele>125.75</ele></trkpt>
   <trkpt lon="12.434940" lat="51.345792"><ele>125.5</ele></trkpt>
   <trkpt lon="12.435032" lat="51.345624"><ele>125.0</ele></trkpt>
   <trkpt lon="12.435182" lat="51.345399"><ele>124.25</ele></trkpt>
   <trkpt lon="12.435354" lat="51.345194"><ele>123.5</ele></trkpt>
   <trkpt lon="12.435486" lat="51.345057"><ele>123.0</ele></trkpt>
   <trkpt lon="12.435711" lat="51.344854"><ele>123.5</ele></trkpt>
   <trkpt lon="12.435923" lat="51.344696"><ele>124.0</ele></trkpt>
   <trkpt lon="12.436144" lat="51.344555"><ele>125.0</ele></trkpt>
   <trkpt lon="12.436224" lat="51.344513"><ele>125.25</ele></trkpt>
   <trkpt lon="12.436564" lat="51.344332"><ele>126.5</ele></trkpt>
   <trkpt lon="12.436837" lat="51.344211"><ele>127.5</ele></trkpt>
   <trkpt lon="12.436999" lat="51.344138"><ele>127.5</ele></trkpt>
   <trkpt lon="12.437415" lat="51.344000"><ele>127.25</ele></trkpt>
   <trkpt lon="12.437811" lat="51.343899"><ele>127.0</ele></trkpt>
   <trkpt lon="12.438003" lat="51.343861"><ele>126.75</ele></trkpt>
   <trkpt lon="12.438564" lat="51.343776"><ele>126.75</ele></trkpt>
   <trkpt lon="12.438781" lat="51.343759"><ele>126.75</ele></trkpt>
   <trkpt lon="12.439252" lat="51.343734"><ele>127.0</ele></trkpt>
   <trkpt lon="12.440635" lat="51.343718"><ele>127.5</ele></trkpt>
   <trkpt lon="12.442069" lat="51.343700"><ele>127.25</ele></trkpt>
   <trkpt lon="12.442086" lat="51.343699"><ele>127.25</ele></trkpt>
   <trkpt lon="12.442093" lat="51.343699"><ele>127.25</ele></trkpt>
   <trkpt lon="12.443052" lat="51.343688"><ele>128.5</ele></trkpt>
   <trkpt lon="12.444727" lat="51.343667"><ele>128.5</ele></trkpt>
   <trkpt lon="12.444932" lat="51.343665"><ele>128.25</ele></trkpt>
   <trkpt lon="12.445277" lat="51.343660"><ele>128.0</ele></trkpt>
   <trkpt lon="12.445446" lat="51.343658"><ele>128.0</ele></trkpt>
   <trkpt lon="12.447593" lat="51.343637"><ele>129.5</ele></trkpt>
   <trkpt lon="12.447973" lat="51.343633"><ele>130.0</ele></trkpt>
   <trkpt lon="12.448296" lat="51.343634"><ele>130.5</ele></trkpt>
   <trkpt lon="12.448713" lat="51.343635"><ele>130.5</ele></trkpt>
   <trkpt lon="12.449217" lat="51.343657"><ele>130.5</ele></trkpt>
   <trkpt lon="12.449636" lat="51.343696"><ele>130.25</ele></trkpt>
   <trkpt lon="12.450031" lat="51.343748"><ele>130.0</ele></trkpt>
   <trkpt lon="12.450387" lat="51.343800"><ele>129.75</ele></trkpt>
   <trkpt lon="12.450860" lat="51.343866"><ele>129.5</ele></trkpt>
   <trkpt lon="12.451234" lat="51.343907"><ele>129.5</ele></trkpt>
   <trkpt lon="12.451458" lat="51.343923"><ele>129.5</ele></trkpt>
   <trkpt lon="12.451703" lat="51.343938"><ele>129.5</ele></trkpt>
   <trkpt lon="12.452010" lat="51.343948"><ele>129.5</ele></trkpt>
   <trkpt lon="12.452563" lat="51.343950"><ele>129.5</ele></trkpt>
   <trkpt lon="12.453378" lat="51.343941"><ele>129.25</ele></trkpt>
   <trkpt lon="12.454870" lat="51.343924"><ele>129.75</ele></trkpt>
   <trkpt lon="12.455278" lat="51.343919"><ele>130.0</ele></trkpt>
   <trkpt lon="12.455953" lat="51.343936"><ele>129.75</ele></trkpt>
   <trkpt lon="12.458678" lat="51.344091"><ele>129.75</ele></trkpt>
   <trkpt lon="12.459251" lat="51.344112"><ele>129.75</ele></trkpt>
   <trkpt lon="12.460396" lat="51.344102"><ele>129.25</ele></trkpt>
   <trkpt lon="12.461439" lat="51.344125"><ele>128.25</ele></trkpt>
   <trkpt lon="12.461927" lat="51.344119"><ele>128.0</ele></trkpt>
  </trkseg>
 </trk>
</gpx>
