<?xml version="1.0" encoding="UTF-8"?>
<!-- track-length = 7021 filtered ascend = 155 plain-ascend = 152 cost=7021 energy=0.1kwh time=9m 21s -->
<gpx 
 xmlns="http://www.topografix.com/GPX/1/1" 
 xmlns:xsi="http://www.w3.org/2001/XMLSchema-instance" 
 xsi:schemaLocation="http://www.topografix.com/GPX/1/1 http://www.topografix.com/GPX/1/1/gpx.xsd" 
 version="1.1" 
 creator="BRouter-Web 0.18.1">
 <trk>
  <name>Velke Brezno - Zubrnice2</name>
  <trkseg>
   <trkpt lat="50.666053" lon="14.154933"><ele>145</ele></trkpt>
   <trkpt lat="50.666037" lon="14.154802"><ele>144.75</ele></trkpt>
   <trkpt lat="50.665967" lon="14.154434"><ele>144.75</ele></trkpt>
   <trkpt lat="50.665927" lon="14.154227"><ele>144.5</ele></trkpt>
   <trkpt lat="50.665842" lon="14.153802"><ele>144</ele></trkpt>
   <trkpt lat="50.665742" lon="14.153431"><ele>144.25</ele></trkpt>
   <trkpt lat="50.665639" lon="14.153059"><ele>145.5</ele></trkpt>
   <trkpt lat="50.665546" lon="14.152619"><ele>146.25</ele></trkpt>
   <trkpt lat="50.665412" lon="14.152153"><ele>147.5</ele></trkpt>
   <trkpt lat="50.665344" lon="14.151871"><ele>148</ele></trkpt>
   <trkpt lat="50.665224" lon="14.151305"><ele>148.5</ele></trkpt>
   <trkpt lat="50.664794" lon="14.149283"><ele>149.5</ele></trkpt>
   <trkpt lat="50.663996" lon="14.145517"><ele>147.75</ele></trkpt>
   <trkpt lat="50.663927" lon="14.145177"><ele>148</ele></trkpt>
   <trkpt lat="50.663996" lon="14.145517"><ele>147.75</ele></trkpt>
   <trkpt lat="50.664794" lon="14.149283"><ele>149.5</ele></trkpt>
   <trkpt lat="50.665224" lon="14.151305"><ele>148.5</ele></trkpt>
   <trkpt lat="50.665333" lon="14.152072"><ele>148.75</ele></trkpt>
   <trkpt lat="50.665401" lon="14.152605"><ele>149</ele></trkpt>
   <trkpt lat="50.665502" lon="14.15341"><ele>149.5</ele></trkpt>
   <trkpt lat="50.665579" lon="14.153882"><ele>150.25</ele></trkpt>
   <trkpt lat="50.665671" lon="14.154336"><ele>150.5</ele></trkpt>
   <trkpt lat="50.665714" lon="14.154551"><ele>151</ele></trkpt>
   <trkpt lat="50.665793" lon="14.154917"><ele>151.25</ele></trkpt>
   <trkpt lat="50.665858" lon="14.155272"><ele>151.5</ele></trkpt>
   <trkpt lat="50.665892" lon="14.155559"><ele>152</ele></trkpt>
   <trkpt lat="50.665937" lon="14.15635"><ele>154.5</ele></trkpt>
   <trkpt lat="50.665953" lon="14.156895"><ele>157.75</ele></trkpt>
   <trkpt lat="50.665984" lon="14.157197"><ele>160</ele></trkpt>
   <trkpt lat="50.666022" lon="14.157457"><ele>161.25</ele></trkpt>
   <trkpt lat="50.666068" lon="14.157696"><ele>161.75</ele></trkpt>
   <trkpt lat="50.666689" lon="14.160632"><ele>166.75</ele></trkpt>
   <trkpt lat="50.66677" lon="14.161006"><ele>167.75</ele></trkpt>
   <trkpt lat="50.666894" lon="14.161475"><ele>168</ele></trkpt>
   <trkpt lat="50.667131" lon="14.162153"><ele>165.75</ele></trkpt>
   <trkpt lat="50.667218" lon="14.162437"><ele>165.75</ele></trkpt>
   <trkpt lat="50.66729" lon="14.162739"><ele>166.5</ele></trkpt>
   <trkpt lat="50.667368" lon="14.163194"><ele>169</ele></trkpt>
   <trkpt lat="50.667424" lon="14.163482"><ele>170.25</ele></trkpt>
   <trkpt lat="50.667531" lon="14.163919"><ele>171</ele></trkpt>
   <trkpt lat="50.66763" lon="14.164259"><ele>171.25</ele></trkpt>
   <trkpt lat="50.668471" lon="14.167048"><ele>175.5</ele></trkpt>
   <trkpt lat="50.668603" lon="14.167402"><ele>174.5</ele></trkpt>
   <trkpt lat="50.668694" lon="14.167601"><ele>173.5</ele></trkpt>
   <trkpt lat="50.66913" lon="14.16833"><ele>167</ele></trkpt>
   <trkpt lat="50.669215" lon="14.168518"><ele>166.25</ele></trkpt>
   <trkpt lat="50.669286" lon="14.168704"><ele>166.25</ele></trkpt>
   <trkpt lat="50.669341" lon="14.168895"><ele>166.75</ele></trkpt>
   <trkpt lat="50.669381" lon="14.169068"><ele>167</ele></trkpt>
   <trkpt lat="50.669414" lon="14.169256"><ele>167.75</ele></trkpt>
   <trkpt lat="50.669443" lon="14.169586"><ele>169.5</ele></trkpt>
   <trkpt lat="50.669442" lon="14.169799"><ele>171.25</ele></trkpt>
   <trkpt lat="50.669409" lon="14.170278"><ele>173.75</ele></trkpt>
   <trkpt lat="50.669373" lon="14.170652"><ele>175</ele></trkpt>
   <trkpt lat="50.66935" lon="14.170888"><ele>175.5</ele></trkpt>
   <trkpt lat="50.669332" lon="14.17126"><ele>176.25</ele></trkpt>
   <trkpt lat="50.669342" lon="14.171534"><ele>176.75</ele></trkpt>
   <trkpt lat="50.66936" lon="14.171748"><ele>177.5</ele></trkpt>
   <trkpt lat="50.66939" lon="14.171951"><ele>178.75</ele></trkpt>
   <trkpt lat="50.669547" lon="14.172707"><ele>182</ele></trkpt>
   <trkpt lat="50.669572" lon="14.172824"><ele>182.25</ele></trkpt>
   <trkpt lat="50.669621" lon="14.173159"><ele>183.25</ele></trkpt>
   <trkpt lat="50.669683" lon="14.174013"><ele>181</ele></trkpt>
   <trkpt lat="50.669681" lon="14.174265"><ele>180.5</ele></trkpt>
   <trkpt lat="50.669658" lon="14.174575"><ele>180.5</ele></trkpt>
   <trkpt lat="50.669588" lon="14.174934"><ele>182.25</ele></trkpt>
   <trkpt lat="50.669518" lon="14.175173"><ele>183</ele></trkpt>
   <trkpt lat="50.669357" lon="14.175537"><ele>184</ele></trkpt>
   <trkpt lat="50.669149" lon="14.175883"><ele>185.75</ele></trkpt>
   <trkpt lat="50.668831" lon="14.176382"><ele>186.25</ele></trkpt>
   <trkpt lat="50.668686" lon="14.176634"><ele>185.5</ele></trkpt>
   <trkpt lat="50.668399" lon="14.177191"><ele>186.5</ele></trkpt>
   <trkpt lat="50.66763" lon="14.178734"><ele>187.75</ele></trkpt>
   <trkpt lat="50.667522" lon="14.178925"><ele>188</ele></trkpt>
   <trkpt lat="50.667384" lon="14.179147"><ele>189.25</ele></trkpt>
   <trkpt lat="50.66692" lon="14.179802"><ele>192.5</ele></trkpt>
   <trkpt lat="50.666746" lon="14.180064"><ele>192.5</ele></trkpt>
   <trkpt lat="50.666552" lon="14.180417"><ele>194</ele></trkpt>
   <trkpt lat="50.666362" lon="14.180801"><ele>195.5</ele></trkpt>
   <trkpt lat="50.66544" lon="14.182832"><ele>199.5</ele></trkpt>
   <trkpt lat="50.665335" lon="14.183025"><ele>199.75</ele></trkpt>
   <trkpt lat="50.665263" lon="14.183138"><ele>200</ele></trkpt>
   <trkpt lat="50.665189" lon="14.183237"><ele>200.5</ele></trkpt>
   <trkpt lat="50.664801" lon="14.183663"><ele>204</ele></trkpt>
   <trkpt lat="50.664636" lon="14.183854"><ele>205.25</ele></trkpt>
   <trkpt lat="50.664551" lon="14.183976"><ele>205.5</ele></trkpt>
   <trkpt lat="50.664486" lon="14.184084"><ele>205.75</ele></trkpt>
   <trkpt lat="50.664403" lon="14.184236"><ele>206</ele></trkpt>
   <trkpt lat="50.664326" lon="14.184401"><ele>206</ele></trkpt>
   <trkpt lat="50.66411" lon="14.184932"><ele>206</ele></trkpt>
   <trkpt lat="50.66403" lon="14.185102"><ele>206.25</ele></trkpt>
   <trkpt lat="50.663885" lon="14.185351"><ele>207</ele></trkpt>
   <trkpt lat="50.663723" lon="14.185577"><ele>208.25</ele></trkpt>
   <trkpt lat="50.663212" lon="14.186206"><ele>213.25</ele></trkpt>
   <trkpt lat="50.663017" lon="14.186509"><ele>216.25</ele></trkpt>
   <trkpt lat="50.662895" lon="14.186757"><ele>217.25</ele></trkpt>
   <trkpt lat="50.66257" lon="14.187565"><ele>218</ele></trkpt>
   <trkpt lat="50.66211" lon="14.188725"><ele>223.75</ele></trkpt>
   <trkpt lat="50.661962" lon="14.18912"><ele>225.75</ele></trkpt>
   <trkpt lat="50.66181" lon="14.189575"><ele>225.75</ele></trkpt>
   <trkpt lat="50.661399" lon="14.191045"><ele>219.5</ele></trkpt>
   <trkpt lat="50.661267" lon="14.191491"><ele>216.5</ele></trkpt>
   <trkpt lat="50.661168" lon="14.191741"><ele>215.25</ele></trkpt>
   <trkpt lat="50.661048" lon="14.191984"><ele>215.5</ele></trkpt>
   <trkpt lat="50.660948" lon="14.19214"><ele>216</ele></trkpt>
   <trkpt lat="50.660842" lon="14.192285"><ele>216.5</ele></trkpt>
   <trkpt lat="50.660749" lon="14.192393"><ele>216.5</ele></trkpt>
   <trkpt lat="50.660446" lon="14.192711"><ele>217</ele></trkpt>
   <trkpt lat="50.660262" lon="14.192936"><ele>217.5</ele></trkpt>
   <trkpt lat="50.660176" lon="14.193046"><ele>218</ele></trkpt>
   <trkpt lat="50.660089" lon="14.193182"><ele>218.5</ele></trkpt>
   <trkpt lat="50.659991" lon="14.193374"><ele>219</ele></trkpt>
   <trkpt lat="50.659929" lon="14.193512"><ele>220.75</ele></trkpt>
   <trkpt lat="50.659873" lon="14.193662"><ele>222.25</ele></trkpt>
   <trkpt lat="50.659297" lon="14.195666"><ele>229.25</ele></trkpt>
   <trkpt lat="50.658957" lon="14.196892"><ele>231.25</ele></trkpt>
   <trkpt lat="50.658784" lon="14.197653"><ele>229.5</ele></trkpt>
   <trkpt lat="50.658737" lon="14.197866"><ele>228.75</ele></trkpt>
   <trkpt lat="50.658672" lon="14.198111"><ele>228</ele></trkpt>
   <trkpt lat="50.658639" lon="14.198211"><ele>227.75</ele></trkpt>
   <trkpt lat="50.658624" lon="14.198251"><ele>227.75</ele></trkpt>
   <trkpt lat="50.65855" lon="14.198427"><ele>227.75</ele></trkpt>
   <trkpt lat="50.658476" lon="14.198574"><ele>228</ele></trkpt>
   <trkpt lat="50.658382" lon="14.198729"><ele>228.25</ele></trkpt>
   <trkpt lat="50.658204" lon="14.198949"><ele>228.75</ele></trkpt>
   <trkpt lat="50.658019" lon="14.199117"><ele>229.25</ele></trkpt>
   <trkpt lat="50.657749" lon="14.199277"><ele>230.75</ele></trkpt>
   <trkpt lat="50.657339" lon="14.199503"><ele>233.5</ele></trkpt>
   <trkpt lat="50.657121" lon="14.199628"><ele>235.5</ele></trkpt>
   <trkpt lat="50.657017" lon="14.199714"><ele>236.5</ele></trkpt>
   <trkpt lat="50.656774" lon="14.199984"><ele>238.5</ele></trkpt>
   <trkpt lat="50.656684" lon="14.200116"><ele>238.75</ele></trkpt>
   <trkpt lat="50.656597" lon="14.200263"><ele>239.25</ele></trkpt>
   <trkpt lat="50.656189" lon="14.201124"><ele>240.25</ele></trkpt>
   <trkpt lat="50.654982" lon="14.20315"><ele>246.5</ele></trkpt>
   <trkpt lat="50.6547" lon="14.203728"><ele>251.5</ele></trkpt>
   <trkpt lat="50.654456" lon="14.20419"><ele>254.75</ele></trkpt>
   <trkpt lat="50.654319" lon="14.204418"><ele>256.25</ele></trkpt>
   <trkpt lat="50.654183" lon="14.204664"><ele>257.25</ele></trkpt>
   <trkpt lat="50.654059" lon="14.204851"><ele>257.75</ele></trkpt>
   <trkpt lat="50.653938" lon="14.205007"><ele>258.5</ele></trkpt>
   <trkpt lat="50.653761" lon="14.205182"><ele>260</ele></trkpt>
   <trkpt lat="50.653326" lon="14.20555"><ele>264.75</ele></trkpt>
   <trkpt lat="50.653212" lon="14.205676"><ele>265.5</ele></trkpt>
   <trkpt lat="50.653105" lon="14.205821"><ele>266</ele></trkpt>
   <trkpt lat="50.652968" lon="14.206056"><ele>266</ele></trkpt>
   <trkpt lat="50.652899" lon="14.206207"><ele>266</ele></trkpt>
   <trkpt lat="50.652792" lon="14.206533"><ele>265</ele></trkpt>
   <trkpt lat="50.65275" lon="14.206713"><ele>264.5</ele></trkpt>
   <trkpt lat="50.652636" lon="14.207369"><ele>266</ele></trkpt>
   <trkpt lat="50.652553" lon="14.207775"><ele>266.75</ele></trkpt>
   <trkpt lat="50.652519" lon="14.207907"><ele>267</ele></trkpt>
   <trkpt lat="50.652476" lon="14.208044"><ele>267.75</ele></trkpt>
   <trkpt lat="50.652437" lon="14.208145"><ele>268.75</ele></trkpt>
   <trkpt lat="50.65239" lon="14.208253"><ele>270</ele></trkpt>
   <trkpt lat="50.652267" lon="14.208493"><ele>272</ele></trkpt>
   <trkpt lat="50.652133" lon="14.208682"><ele>273.75</ele></trkpt>
   <trkpt lat="50.651506" lon="14.209356"><ele>278.25</ele></trkpt>
   <trkpt lat="50.651396" lon="14.209489"><ele>277.75</ele></trkpt>
   <trkpt lat="50.651297" lon="14.209629"><ele>277.5</ele></trkpt>
   <trkpt lat="50.651166" lon="14.20985"><ele>276.5</ele></trkpt>
   <trkpt lat="50.651038" lon="14.210121"><ele>276.25</ele></trkpt>
   <trkpt lat="50.650801" lon="14.210692"><ele>277</ele></trkpt>
   <trkpt lat="50.650698" lon="14.210925"><ele>276.75</ele></trkpt>
   <trkpt lat="50.650609" lon="14.211091"><ele>276.5</ele></trkpt>
   <trkpt lat="50.650512" lon="14.21124"><ele>276.25</ele></trkpt>
   <trkpt lat="50.650383" lon="14.211408"><ele>276</ele></trkpt>
   <trkpt lat="50.650264" lon="14.211521"><ele>275.75</ele></trkpt>
   <trkpt lat="50.650151" lon="14.211611"><ele>275.75</ele></trkpt>
   <trkpt lat="50.649845" lon="14.211785"><ele>278.5</ele></trkpt>
   <trkpt lat="50.649727" lon="14.211878"><ele>280.5</ele></trkpt>
   <trkpt lat="50.649598" lon="14.212001"><ele>282.5</ele></trkpt>
   <trkpt lat="50.649475" lon="14.212156"><ele>284.25</ele></trkpt>
   <trkpt lat="50.649348" lon="14.212333"><ele>285.5</ele></trkpt>
   <trkpt lat="50.648688" lon="14.213374"><ele>286.5</ele></trkpt>
   <trkpt lat="50.648522" lon="14.213688"><ele>288</ele></trkpt>
   <trkpt lat="50.648441" lon="14.213862"><ele>288.75</ele></trkpt>
   <trkpt lat="50.64838" lon="14.214018"><ele>289.25</ele></trkpt>
   <trkpt lat="50.648337" lon="14.214141"><ele>289.75</ele></trkpt>
   <trkpt lat="50.648233" lon="14.2145"><ele>293</ele></trkpt>
   <trkpt lat="50.648052" lon="14.215251"><ele>296.25</ele></trkpt>
   <trkpt lat="50.648002" lon="14.215436"><ele>296.5</ele></trkpt>
   <trkpt lat="50.647933" lon="14.215636"><ele>296.75</ele></trkpt>
   <trkpt lat="50.647814" lon="14.215909"><ele>297.25</ele></trkpt>
   <trkpt lat="50.647332" lon="14.216804"><ele>297</ele></trkpt>
   <trkpt lat="50.647303" lon="14.216859"><ele>297.25</ele></trkpt>
   <trkpt lat="50.647262" lon="14.216936"><ele>297.75</ele></trkpt>
   <trkpt lat="50.646956" lon="14.217492"><ele>299</ele></trkpt>
   <trkpt lat="50.646696" lon="14.217972"><ele>296.5</ele></trkpt>
  </trkseg>
 </trk>
</gpx>