<?xml version="1.0" encoding="UTF-8"?>
<!-- track-length = 3992 filtered ascend = 10 plain-ascend = 2 cost=3992 energy=0.0kwh time=5m 19s -->
<gpx 
 xmlns="http://www.topografix.com/GPX/1/1" 
 xmlns:xsi="http://www.w3.org/2001/XMLSchema-instance" 
 xsi:schemaLocation="http://www.topografix.com/GPX/1/1 http://www.topografix.com/GPX/1/1/gpx.xsd" 
 version="1.1" 
 creator="BRouter-Web 0.18.1">
 <trk>
  <name>viaaltona</name>
  <trkseg>
   <trkpt lat="53.562118" lon="9.947609"><ele>22</ele></trkpt>
   <trkpt lat="53.562181" lon="9.947333"><ele>22</ele></trkpt>
   <trkpt lat="53.562262" lon="9.946942"><ele>21.75</ele></trkpt>
   <trkpt lat="53.562366" lon="9.946372"><ele>21.25</ele></trkpt>
   <trkpt lat="53.562415" lon="9.94607"><ele>21.25</ele></trkpt>
   <trkpt lat="53.562475" lon="9.945661"><ele>21</ele></trkpt>
   <trkpt lat="53.562555" lon="9.945149"><ele>20.75</ele></trkpt>
   <trkpt lat="53.5627" lon="9.944126"><ele>21.5</ele></trkpt>
   <trkpt lat="53.562742" lon="9.943816"><ele>21.5</ele></trkpt>
   <trkpt lat="53.562828" lon="9.943167"><ele>21.5</ele></trkpt>
   <trkpt lat="53.562899" lon="9.942521"><ele>20.5</ele></trkpt>
   <trkpt lat="53.562902" lon="9.942495"><ele>20.5</ele></trkpt>
   <trkpt lat="53.562969" lon="9.941833"><ele>20.25</ele></trkpt>
   <trkpt lat="53.562982" lon="9.941655"><ele>20.25</ele></trkpt>
   <trkpt lat="53.563009" lon="9.941315"><ele>20.5</ele></trkpt>
   <trkpt lat="53.563038" lon="9.94079"><ele>21</ele></trkpt>
   <trkpt lat="53.563059" lon="9.939953"><ele>21</ele></trkpt>
   <trkpt lat="53.563048" lon="9.939447"><ele>20</ele></trkpt>
   <trkpt lat="53.563032" lon="9.939034"><ele>19.5</ele></trkpt>
   <trkpt lat="53.562961" lon="9.937915"><ele>19</ele></trkpt>
   <trkpt lat="53.562898" lon="9.937079"><ele>19</ele></trkpt>
   <trkpt lat="53.562875" lon="9.936759"><ele>19</ele></trkpt>
   <trkpt lat="53.562874" lon="9.936747"><ele>19</ele></trkpt>
   <trkpt lat="53.562862" lon="9.936612"><ele>19.25</ele></trkpt>
   <trkpt lat="53.562818" lon="9.936278"><ele>20.25</ele></trkpt>
   <trkpt lat="53.562766" lon="9.93595"><ele>21</ele></trkpt>
   <trkpt lat="53.562697" lon="9.935644"><ele>22</ele></trkpt>
   <trkpt lat="53.562606" lon="9.935325"><ele>22.75</ele></trkpt>
   <trkpt lat="53.562486" lon="9.934985"><ele>24</ele></trkpt>
   <trkpt lat="53.562314" lon="9.934616"><ele>24</ele></trkpt>
   <trkpt lat="53.562246" lon="9.934472"><ele>24</ele></trkpt>
   <trkpt lat="53.561925" lon="9.933926"><ele>23.75</ele></trkpt>
   <trkpt lat="53.561649" lon="9.933578"><ele>23.5</ele></trkpt>
   <trkpt lat="53.561358" lon="9.933267"><ele>23</ele></trkpt>
   <trkpt lat="53.561081" lon="9.933037"><ele>22.5</ele></trkpt>
   <trkpt lat="53.56088" lon="9.932928"><ele>22.5</ele></trkpt>
   <trkpt lat="53.56061" lon="9.932808"><ele>22.25</ele></trkpt>
   <trkpt lat="53.560463" lon="9.932754"><ele>22</ele></trkpt>
   <trkpt lat="53.560143" lon="9.932693"><ele>21.25</ele></trkpt>
   <trkpt lat="53.559659" lon="9.932726"><ele>22.25</ele></trkpt>
   <trkpt lat="53.55938" lon="9.932807"><ele>23</ele></trkpt>
   <trkpt lat="53.559226" lon="9.932874"><ele>23.25</ele></trkpt>
   <trkpt lat="53.559114" lon="9.932935"><ele>23.5</ele></trkpt>
   <trkpt lat="53.558831" lon="9.933129"><ele>23.5</ele></trkpt>
   <trkpt lat="53.558531" lon="9.933425"><ele>23.75</ele></trkpt>
   <trkpt lat="53.558181" lon="9.933854"><ele>24.25</ele></trkpt>
   <trkpt lat="53.557806" lon="9.934284"><ele>24.25</ele></trkpt>
   <trkpt lat="53.557383" lon="9.934735"><ele>23.5</ele></trkpt>
   <trkpt lat="53.557262" lon="9.934829"><ele>23.5</ele></trkpt>
   <trkpt lat="53.557075" lon="9.934977"><ele>23</ele></trkpt>
   <trkpt lat="53.556938" lon="9.935057"><ele>23</ele></trkpt>
   <trkpt lat="53.556748" lon="9.935145"><ele>22.75</ele></trkpt>
   <trkpt lat="53.556442" lon="9.935212"><ele>23.25</ele></trkpt>
   <trkpt lat="53.556405" lon="9.935215"><ele>23.25</ele></trkpt>
   <trkpt lat="53.556223" lon="9.935239"><ele>23.5</ele></trkpt>
   <trkpt lat="53.55618" lon="9.935241"><ele>23.75</ele></trkpt>
   <trkpt lat="53.555934" lon="9.935247"><ele>24</ele></trkpt>
   <trkpt lat="53.555737" lon="9.935238"><ele>24.25</ele></trkpt>
   <trkpt lat="53.555128" lon="9.935212"><ele>25.5</ele></trkpt>
   <trkpt lat="53.554665" lon="9.935225"><ele>25.5</ele></trkpt>
   <trkpt lat="53.554485" lon="9.935224"><ele>25.25</ele></trkpt>
   <trkpt lat="53.554444" lon="9.935221"><ele>25.25</ele></trkpt>
   <trkpt lat="53.554375" lon="9.935218"><ele>25</ele></trkpt>
   <trkpt lat="53.553764" lon="9.935193"><ele>25.25</ele></trkpt>
   <trkpt lat="53.553089" lon="9.935165"><ele>27</ele></trkpt>
   <trkpt lat="53.552613" lon="9.935146"><ele>29.5</ele></trkpt>
   <trkpt lat="53.553089" lon="9.935165"><ele>27</ele></trkpt>
   <trkpt lat="53.553764" lon="9.935193"><ele>25.25</ele></trkpt>
   <trkpt lat="53.554375" lon="9.935218"><ele>25</ele></trkpt>
   <trkpt lat="53.554444" lon="9.935221"><ele>25.25</ele></trkpt>
   <trkpt lat="53.554485" lon="9.935224"><ele>25.25</ele></trkpt>
   <trkpt lat="53.555179" lon="9.935342"><ele>25.5</ele></trkpt>
   <trkpt lat="53.555212" lon="9.935338"><ele>25.5</ele></trkpt>
   <trkpt lat="53.555387" lon="9.935341"><ele>25.25</ele></trkpt>
   <trkpt lat="53.555855" lon="9.935352"><ele>24.25</ele></trkpt>
   <trkpt lat="53.556041" lon="9.935353"><ele>24</ele></trkpt>
   <trkpt lat="53.556364" lon="9.935415"><ele>23.5</ele></trkpt>
   <trkpt lat="53.556449" lon="9.935435"><ele>23.25</ele></trkpt>
   <trkpt lat="53.55647" lon="9.935442"><ele>23.25</ele></trkpt>
   <trkpt lat="53.556836" lon="9.935547"><ele>23</ele></trkpt>
   <trkpt lat="53.557359" lon="9.935572"><ele>23</ele></trkpt>
   <trkpt lat="53.557639" lon="9.93559"><ele>23</ele></trkpt>
   <trkpt lat="53.558544" lon="9.935472"><ele>23.75</ele></trkpt>
   <trkpt lat="53.559569" lon="9.935337"><ele>23.5</ele></trkpt>
   <trkpt lat="53.560109" lon="9.935346"><ele>23</ele></trkpt>
   <trkpt lat="53.56033" lon="9.935374"><ele>22</ele></trkpt>
   <trkpt lat="53.5607" lon="9.935457"><ele>20.5</ele></trkpt>
   <trkpt lat="53.56089" lon="9.935498"><ele>20</ele></trkpt>
   <trkpt lat="53.561087" lon="9.935518"><ele>20.25</ele></trkpt>
   <trkpt lat="53.561287" lon="9.935525"><ele>20.5</ele></trkpt>
   <trkpt lat="53.561566" lon="9.935507"><ele>21</ele></trkpt>
   <trkpt lat="53.561651" lon="9.935497"><ele>21.25</ele></trkpt>
   <trkpt lat="53.561861" lon="9.935475"><ele>21.75</ele></trkpt>
   <trkpt lat="53.561992" lon="9.93544"><ele>22</ele></trkpt>
   <trkpt lat="53.562146" lon="9.935398"><ele>22.25</ele></trkpt>
   <trkpt lat="53.562423" lon="9.935286"><ele>23</ele></trkpt>
   <trkpt lat="53.562626" lon="9.935164"><ele>22.75</ele></trkpt>
   <trkpt lat="53.563042" lon="9.934881"><ele>20.25</ele></trkpt>
   <trkpt lat="53.563644" lon="9.934484"><ele>19</ele></trkpt>
   <trkpt lat="53.563797" lon="9.934365"><ele>19.5</ele></trkpt>
   <trkpt lat="53.564109" lon="9.93421"><ele>19.75</ele></trkpt>
   <trkpt lat="53.564336" lon="9.93413"><ele>19.75</ele></trkpt>
   <trkpt lat="53.56504" lon="9.934031"><ele>19</ele></trkpt>
   <trkpt lat="53.565764" lon="9.933945"><ele>19</ele></trkpt>
   <trkpt lat="53.566453" lon="9.933849"><ele>17.5</ele></trkpt>
   <trkpt lat="53.566509" lon="9.933841"><ele>17.25</ele></trkpt>
   <trkpt lat="53.566654" lon="9.933846"><ele>17</ele></trkpt>
   <trkpt lat="53.5669" lon="9.933862"><ele>17.25</ele></trkpt>
   <trkpt lat="53.567155" lon="9.933841"><ele>17.5</ele></trkpt>
   <trkpt lat="53.567718" lon="9.933772"><ele>18</ele></trkpt>
   <trkpt lat="53.568089" lon="9.933729"><ele>18</ele></trkpt>
   <trkpt lat="53.568209" lon="9.933707"><ele>18</ele></trkpt>
   <trkpt lat="53.568265" lon="9.933702"><ele>18</ele></trkpt>
   <trkpt lat="53.568317" lon="9.933694"><ele>18</ele></trkpt>
   <trkpt lat="53.568891" lon="9.933702"><ele>18.5</ele></trkpt>
   <trkpt lat="53.569046" lon="9.933697"><ele>18.75</ele></trkpt>
   <trkpt lat="53.569675" lon="9.933723"><ele>20.5</ele></trkpt>
   <trkpt lat="53.569855" lon="9.933714"><ele>21.25</ele></trkpt>
  </trkseg>
 </trk>
</gpx>