<?xml version="1.0" encoding="UTF-8"?>
<!-- track-length = 39952 filtered ascend = 32 plain-ascend = -53 cost=39952 energy=0.5kwh time=53m 18s -->
<gpx 
 xmlns="http://www.topografix.com/GPX/1/1" 
 xmlns:xsi="http://www.w3.org/2001/XMLSchema-instance" 
 xsi:schemaLocation="http://www.topografix.com/GPX/1/1 http://www.topografix.com/GPX/1/1/gpx.xsd" 
 version="1.1" 
 creator="BRouter-Web 0.18.1">
 <trk>
  <name>Vienenburg - Braunschweig</name>
  <trkseg>
   <trkpt lat="51.955061" lon="10.562151"><ele>138.75</ele></trkpt>
   <trkpt lat="51.955089" lon="10.562211"><ele>138.75</ele></trkpt>
   <trkpt lat="51.955275" lon="10.562633"><ele>138.5</ele></trkpt>
   <trkpt lat="51.955296" lon="10.56268"><ele>138.25</ele></trkpt>
   <trkpt lat="51.955341" lon="10.562803"><ele>138</ele></trkpt>
   <trkpt lat="51.955546" lon="10.56341"><ele>137.25</ele></trkpt>
   <trkpt lat="51.955571" lon="10.563487"><ele>137.25</ele></trkpt>
   <trkpt lat="51.955661" lon="10.563838"><ele>137</ele></trkpt>
   <trkpt lat="51.955786" lon="10.564512"><ele>136.75</ele></trkpt>
   <trkpt lat="51.95581" lon="10.564648"><ele>136.75</ele></trkpt>
   <trkpt lat="51.955844" lon="10.56492"><ele>137</ele></trkpt>
   <trkpt lat="51.955894" lon="10.565373"><ele>136.5</ele></trkpt>
   <trkpt lat="51.955935" lon="10.56576"><ele>136.25</ele></trkpt>
   <trkpt lat="51.955959" lon="10.566093"><ele>135.75</ele></trkpt>
   <trkpt lat="51.955977" lon="10.566344"><ele>135.5</ele></trkpt>
   <trkpt lat="51.955971" lon="10.566778"><ele>135</ele></trkpt>
   <trkpt lat="51.955964" lon="10.566983"><ele>135</ele></trkpt>
   <trkpt lat="51.955944" lon="10.567216"><ele>135</ele></trkpt>
   <trkpt lat="51.955874" lon="10.567626"><ele>135</ele></trkpt>
   <trkpt lat="51.955834" lon="10.567791"><ele>135</ele></trkpt>
   <trkpt lat="51.955775" lon="10.567989"><ele>135</ele></trkpt>
   <trkpt lat="51.955763" lon="10.568024"><ele>135</ele></trkpt>
   <trkpt lat="51.955649" lon="10.568348"><ele>135</ele></trkpt>
   <trkpt lat="51.955478" lon="10.568761"><ele>135</ele></trkpt>
   <trkpt lat="51.955344" lon="10.56906"><ele>135.5</ele></trkpt>
   <trkpt lat="51.954768" lon="10.570226"><ele>136.5</ele></trkpt>
   <trkpt lat="51.954648" lon="10.570487"><ele>136</ele></trkpt>
   <trkpt lat="51.954419" lon="10.571022"><ele>136</ele></trkpt>
   <trkpt lat="51.954217" lon="10.571533"><ele>136.5</ele></trkpt>
   <trkpt lat="51.953983" lon="10.572177"><ele>137</ele></trkpt>
   <trkpt lat="51.953747" lon="10.572944"><ele>136.5</ele></trkpt>
   <trkpt lat="51.953658" lon="10.573286"><ele>136.25</ele></trkpt>
   <trkpt lat="51.953451" lon="10.574164"><ele>136</ele></trkpt>
   <trkpt lat="51.953073" lon="10.575885"><ele>136.75</ele></trkpt>
   <trkpt lat="51.952779" lon="10.577124"><ele>136.5</ele></trkpt>
   <trkpt lat="51.952621" lon="10.577635"><ele>136.75</ele></trkpt>
   <trkpt lat="51.952476" lon="10.578065"><ele>137</ele></trkpt>
   <trkpt lat="51.952238" lon="10.578739"><ele>138</ele></trkpt>
   <trkpt lat="51.951918" lon="10.579637"><ele>138.5</ele></trkpt>
   <trkpt lat="51.950709" lon="10.583041"><ele>140.25</ele></trkpt>
   <trkpt lat="51.950475" lon="10.583702"><ele>140</ele></trkpt>
   <trkpt lat="51.950252" lon="10.584362"><ele>139.5</ele></trkpt>
   <trkpt lat="51.950182" lon="10.584604"><ele>139</ele></trkpt>
   <trkpt lat="51.950121" lon="10.584852"><ele>138.75</ele></trkpt>
   <trkpt lat="51.950068" lon="10.585105"><ele>138.5</ele></trkpt>
   <trkpt lat="51.950025" lon="10.585363"><ele>138.25</ele></trkpt>
   <trkpt lat="51.949992" lon="10.585625"><ele>138.25</ele></trkpt>
   <trkpt lat="51.949968" lon="10.585889"><ele>138</ele></trkpt>
   <trkpt lat="51.949953" lon="10.586155"><ele>137.75</ele></trkpt>
   <trkpt lat="51.949948" lon="10.586391"><ele>137.25</ele></trkpt>
   <trkpt lat="51.949961" lon="10.586863"><ele>136.75</ele></trkpt>
   <trkpt lat="51.949979" lon="10.587097"><ele>136.5</ele></trkpt>
   <trkpt lat="51.950005" lon="10.58733"><ele>136</ele></trkpt>
   <trkpt lat="51.950038" lon="10.58756"><ele>135.5</ele></trkpt>
   <trkpt lat="51.950078" lon="10.587787"><ele>135</ele></trkpt>
   <trkpt lat="51.950124" lon="10.588006"><ele>134.75</ele></trkpt>
   <trkpt lat="51.950178" lon="10.588221"><ele>134.25</ele></trkpt>
   <trkpt lat="51.950238" lon="10.58843"><ele>134</ele></trkpt>
   <trkpt lat="51.950305" lon="10.588633"><ele>133.75</ele></trkpt>
   <trkpt lat="51.950427" lon="10.58895"><ele>133.75</ele></trkpt>
   <trkpt lat="51.950523" lon="10.589164"><ele>133.5</ele></trkpt>
   <trkpt lat="51.950625" lon="10.58937"><ele>133.5</ele></trkpt>
   <trkpt lat="51.950735" lon="10.589566"><ele>133.5</ele></trkpt>
   <trkpt lat="51.950887" lon="10.589805"><ele>133.5</ele></trkpt>
   <trkpt lat="51.951067" lon="10.590044"><ele>133.75</ele></trkpt>
   <trkpt lat="51.95173" lon="10.590689"><ele>135.75</ele></trkpt>
   <trkpt lat="51.95182" lon="10.59074"><ele>136.25</ele></trkpt>
   <trkpt lat="51.951974" lon="10.590813"><ele>137.25</ele></trkpt>
   <trkpt lat="51.952334" lon="10.590956"><ele>139.75</ele></trkpt>
   <trkpt lat="51.952377" lon="10.590963"><ele>143.75</ele></trkpt>
   <trkpt lat="51.952742" lon="10.591027"><ele>143.75</ele></trkpt>
   <trkpt lat="51.952764" lon="10.59103"><ele>144.25</ele></trkpt>
   <trkpt lat="51.952831" lon="10.591042"><ele>145</ele></trkpt>
   <trkpt lat="51.95336" lon="10.591041"><ele>151</ele></trkpt>
   <trkpt lat="51.953676" lon="10.591"><ele>152.25</ele></trkpt>
   <trkpt lat="51.953923" lon="10.590939"><ele>153</ele></trkpt>
   <trkpt lat="51.954236" lon="10.590823"><ele>154</ele></trkpt>
   <trkpt lat="51.954528" lon="10.590694"><ele>153.75</ele></trkpt>
   <trkpt lat="51.954803" lon="10.590539"><ele>153</ele></trkpt>
   <trkpt lat="51.954989" lon="10.590402"><ele>152.25</ele></trkpt>
   <trkpt lat="51.955535" lon="10.589977"><ele>144</ele></trkpt>
   <trkpt lat="51.955852" lon="10.589658"><ele>138.25</ele></trkpt>
   <trkpt lat="51.955961" lon="10.589516"><ele>136.25</ele></trkpt>
   <trkpt lat="51.956168" lon="10.589242"><ele>132.75</ele></trkpt>
   <trkpt lat="51.956425" lon="10.588833"><ele>130</ele></trkpt>
   <trkpt lat="51.956716" lon="10.588264"><ele>128.75</ele></trkpt>
   <trkpt lat="51.956738" lon="10.588222"><ele>128.75</ele></trkpt>
   <trkpt lat="51.957052" lon="10.587447"><ele>128.5</ele></trkpt>
   <trkpt lat="51.957651" lon="10.585762"><ele>128.75</ele></trkpt>
   <trkpt lat="51.95855" lon="10.583239"><ele>130.75</ele></trkpt>
   <trkpt lat="51.958725" lon="10.582748"><ele>131</ele></trkpt>
   <trkpt lat="51.958802" lon="10.58253"><ele>131.25</ele></trkpt>
   <trkpt lat="51.958936" lon="10.582133"><ele>131.25</ele></trkpt>
   <trkpt lat="51.95909" lon="10.581696"><ele>131</ele></trkpt>
   <trkpt lat="51.95939" lon="10.580935"><ele>130.25</ele></trkpt>
   <trkpt lat="51.959493" lon="10.580711"><ele>130</ele></trkpt>
   <trkpt lat="51.959525" lon="10.580641"><ele>130</ele></trkpt>
   <trkpt lat="51.959679" lon="10.580366"><ele>130</ele></trkpt>
   <trkpt lat="51.959839" lon="10.580105"><ele>129.75</ele></trkpt>
   <trkpt lat="51.960058" lon="10.579785"><ele>130</ele></trkpt>
   <trkpt lat="51.960484" lon="10.579306"><ele>131</ele></trkpt>
   <trkpt lat="51.960767" lon="10.579054"><ele>131.75</ele></trkpt>
   <trkpt lat="51.961048" lon="10.578861"><ele>132.5</ele></trkpt>
   <trkpt lat="51.961386" lon="10.578684"><ele>132.5</ele></trkpt>
   <trkpt lat="51.961795" lon="10.57857"><ele>133.5</ele></trkpt>
   <trkpt lat="51.962166" lon="10.578509"><ele>135</ele></trkpt>
   <trkpt lat="51.962251" lon="10.578495"><ele>135.25</ele></trkpt>
   <trkpt lat="51.962727" lon="10.578527"><ele>135.75</ele></trkpt>
   <trkpt lat="51.963187" lon="10.578663"><ele>134.5</ele></trkpt>
   <trkpt lat="51.964249" lon="10.579111"><ele>131.25</ele></trkpt>
   <trkpt lat="51.964368" lon="10.579165"><ele>131.25</ele></trkpt>
   <trkpt lat="51.964718" lon="10.579325"><ele>131.25</ele></trkpt>
   <trkpt lat="51.96612" lon="10.57992"><ele>128.25</ele></trkpt>
   <trkpt lat="51.967841" lon="10.580649"><ele>125.25</ele></trkpt>
   <trkpt lat="51.969569" lon="10.581412"><ele>125.5</ele></trkpt>
   <trkpt lat="51.969969" lon="10.581589"><ele>125.5</ele></trkpt>
   <trkpt lat="51.971365" lon="10.582154"><ele>126.25</ele></trkpt>
   <trkpt lat="51.971849" lon="10.582349"><ele>126.5</ele></trkpt>
   <trkpt lat="51.973048" lon="10.582881"><ele>126.75</ele></trkpt>
   <trkpt lat="51.974267" lon="10.583421"><ele>122.25</ele></trkpt>
   <trkpt lat="51.975753" lon="10.584064"><ele>125.5</ele></trkpt>
   <trkpt lat="51.97649" lon="10.584338"><ele>124.75</ele></trkpt>
   <trkpt lat="51.977149" lon="10.584586"><ele>122.75</ele></trkpt>
   <trkpt lat="51.977901" lon="10.584799"><ele>121.25</ele></trkpt>
   <trkpt lat="51.978272" lon="10.584864"><ele>121</ele></trkpt>
   <trkpt lat="51.978645" lon="10.58493"><ele>120.5</ele></trkpt>
   <trkpt lat="51.979345" lon="10.584962"><ele>119.75</ele></trkpt>
   <trkpt lat="51.97995" lon="10.584945"><ele>118.5</ele></trkpt>
   <trkpt lat="51.980067" lon="10.584931"><ele>118.25</ele></trkpt>
   <trkpt lat="51.980543" lon="10.584871"><ele>117.75</ele></trkpt>
   <trkpt lat="51.98093" lon="10.584773"><ele>117.75</ele></trkpt>
   <trkpt lat="51.981495" lon="10.584602"><ele>118.75</ele></trkpt>
   <trkpt lat="51.981842" lon="10.584479"><ele>119.25</ele></trkpt>
   <trkpt lat="51.982007" lon="10.584421"><ele>119.25</ele></trkpt>
   <trkpt lat="51.982369" lon="10.584251"><ele>119.75</ele></trkpt>
   <trkpt lat="51.982868" lon="10.583978"><ele>119.75</ele></trkpt>
   <trkpt lat="51.983549" lon="10.583529"><ele>119.25</ele></trkpt>
   <trkpt lat="51.983887" lon="10.583288"><ele>117.5</ele></trkpt>
   <trkpt lat="51.9845" lon="10.582769"><ele>116.25</ele></trkpt>
   <trkpt lat="51.985114" lon="10.582164"><ele>114.25</ele></trkpt>
   <trkpt lat="51.985152" lon="10.582118"><ele>114.25</ele></trkpt>
   <trkpt lat="51.986045" lon="10.581054"><ele>114.25</ele></trkpt>
   <trkpt lat="51.986577" lon="10.580365"><ele>113.5</ele></trkpt>
   <trkpt lat="51.988014" lon="10.578565"><ele>113.5</ele></trkpt>
   <trkpt lat="51.98942" lon="10.576804"><ele>111.5</ele></trkpt>
   <trkpt lat="51.990856" lon="10.575006"><ele>110.75</ele></trkpt>
   <trkpt lat="51.99225" lon="10.573259"><ele>108.5</ele></trkpt>
   <trkpt lat="51.993531" lon="10.571655"><ele>106.5</ele></trkpt>
   <trkpt lat="51.993704" lon="10.571452"><ele>105.75</ele></trkpt>
   <trkpt lat="51.995158" lon="10.569753"><ele>104.5</ele></trkpt>
   <trkpt lat="51.996624" lon="10.568038"><ele>104.5</ele></trkpt>
   <trkpt lat="51.996824" lon="10.567805"><ele>104</ele></trkpt>
   <trkpt lat="51.997426" lon="10.567087"><ele>103</ele></trkpt>
   <trkpt lat="51.998444" lon="10.56589"><ele>102</ele></trkpt>
   <trkpt lat="51.999523" lon="10.564621"><ele>102</ele></trkpt>
   <trkpt lat="52.000618" lon="10.563335"><ele>101.5</ele></trkpt>
   <trkpt lat="52.002485" lon="10.56114"><ele>101.5</ele></trkpt>
   <trkpt lat="52.003545" lon="10.559898"><ele>100.75</ele></trkpt>
   <trkpt lat="52.005232" lon="10.557921"><ele>100</ele></trkpt>
   <trkpt lat="52.006799" lon="10.55607"><ele>98.25</ele></trkpt>
   <trkpt lat="52.008256" lon="10.554344"><ele>96.25</ele></trkpt>
   <trkpt lat="52.009714" lon="10.55262"><ele>96.5</ele></trkpt>
   <trkpt lat="52.010044" lon="10.552239"><ele>96.75</ele></trkpt>
   <trkpt lat="52.010278" lon="10.55197"><ele>96.5</ele></trkpt>
   <trkpt lat="52.010527" lon="10.551706"><ele>96.25</ele></trkpt>
   <trkpt lat="52.010925" lon="10.551307"><ele>96.25</ele></trkpt>
   <trkpt lat="52.011212" lon="10.551042"><ele>96.75</ele></trkpt>
   <trkpt lat="52.011362" lon="10.550904"><ele>96.75</ele></trkpt>
   <trkpt lat="52.011842" lon="10.550509"><ele>97</ele></trkpt>
   <trkpt lat="52.012344" lon="10.550142"><ele>96.75</ele></trkpt>
   <trkpt lat="52.012833" lon="10.549825"><ele>97.5</ele></trkpt>
   <trkpt lat="52.013041" lon="10.549698"><ele>97.75</ele></trkpt>
   <trkpt lat="52.013466" lon="10.549468"><ele>98</ele></trkpt>
   <trkpt lat="52.013888" lon="10.549262"><ele>98</ele></trkpt>
   <trkpt lat="52.014378" lon="10.54906"><ele>97.5</ele></trkpt>
   <trkpt lat="52.01457" lon="10.548994"><ele>97.25</ele></trkpt>
   <trkpt lat="52.015086" lon="10.548822"><ele>97</ele></trkpt>
   <trkpt lat="52.015527" lon="10.548718"><ele>97</ele></trkpt>
   <trkpt lat="52.015851" lon="10.548658"><ele>97</ele></trkpt>
   <trkpt lat="52.015869" lon="10.548655"><ele>97</ele></trkpt>
   <trkpt lat="52.016054" lon="10.548621"><ele>97.25</ele></trkpt>
   <trkpt lat="52.016339" lon="10.548588"><ele>97.5</ele></trkpt>
   <trkpt lat="52.016609" lon="10.548557"><ele>97.75</ele></trkpt>
   <trkpt lat="52.017085" lon="10.548542"><ele>96.75</ele></trkpt>
   <trkpt lat="52.017743" lon="10.548558"><ele>96</ele></trkpt>
   <trkpt lat="52.018131" lon="10.548602"><ele>96</ele></trkpt>
   <trkpt lat="52.018608" lon="10.54868"><ele>96</ele></trkpt>
   <trkpt lat="52.019" lon="10.548765"><ele>96</ele></trkpt>
   <trkpt lat="52.019318" lon="10.548852"><ele>96</ele></trkpt>
   <trkpt lat="52.019913" lon="10.549056"><ele>96</ele></trkpt>
   <trkpt lat="52.020392" lon="10.549264"><ele>96</ele></trkpt>
   <trkpt lat="52.021291" lon="10.549704"><ele>95</ele></trkpt>
   <trkpt lat="52.022302" lon="10.550199"><ele>94.75</ele></trkpt>
   <trkpt lat="52.022615" lon="10.550348"><ele>94.75</ele></trkpt>
   <trkpt lat="52.023475" lon="10.550758"><ele>93</ele></trkpt>
   <trkpt lat="52.026365" lon="10.552183"><ele>91.25</ele></trkpt>
   <trkpt lat="52.026794" lon="10.552395"><ele>90.75</ele></trkpt>
   <trkpt lat="52.027337" lon="10.552663"><ele>90</ele></trkpt>
   <trkpt lat="52.027716" lon="10.552839"><ele>89.5</ele></trkpt>
   <trkpt lat="52.02824" lon="10.553105"><ele>89.75</ele></trkpt>
   <trkpt lat="52.028506" lon="10.553238"><ele>90</ele></trkpt>
   <trkpt lat="52.028542" lon="10.553256"><ele>90</ele></trkpt>
   <trkpt lat="52.031325" lon="10.554639"><ele>90.25</ele></trkpt>
   <trkpt lat="52.031944" lon="10.554945"><ele>90.25</ele></trkpt>
   <trkpt lat="52.033695" lon="10.55581"><ele>89.5</ele></trkpt>
   <trkpt lat="52.035424" lon="10.556667"><ele>89</ele></trkpt>
   <trkpt lat="52.03714" lon="10.557521"><ele>88.75</ele></trkpt>
   <trkpt lat="52.037338" lon="10.55762"><ele>88.75</ele></trkpt>
   <trkpt lat="52.038855" lon="10.558375"><ele>88</ele></trkpt>
   <trkpt lat="52.040572" lon="10.55923"><ele>86.75</ele></trkpt>
   <trkpt lat="52.04168" lon="10.559782"><ele>88.25</ele></trkpt>
   <trkpt lat="52.041906" lon="10.559891"><ele>88</ele></trkpt>
   <trkpt lat="52.042313" lon="10.560091"><ele>87.25</ele></trkpt>
   <trkpt lat="52.044042" lon="10.560941"><ele>86</ele></trkpt>
   <trkpt lat="52.045757" lon="10.561783"><ele>85.75</ele></trkpt>
   <trkpt lat="52.047472" lon="10.562626"><ele>83.25</ele></trkpt>
   <trkpt lat="52.049205" lon="10.563477"><ele>84</ele></trkpt>
   <trkpt lat="52.050589" lon="10.564157"><ele>85</ele></trkpt>
   <trkpt lat="52.050929" lon="10.564324"><ele>85</ele></trkpt>
   <trkpt lat="52.052653" lon="10.565171"><ele>84</ele></trkpt>
   <trkpt lat="52.054334" lon="10.565998"><ele>84.75</ele></trkpt>
   <trkpt lat="52.055895" lon="10.566764"><ele>84</ele></trkpt>
   <trkpt lat="52.057795" lon="10.56771"><ele>83</ele></trkpt>
   <trkpt lat="52.059494" lon="10.568564"><ele>84.25</ele></trkpt>
   <trkpt lat="52.060707" lon="10.569169"><ele>84.75</ele></trkpt>
   <trkpt lat="52.061219" lon="10.569435"><ele>85</ele></trkpt>
   <trkpt lat="52.061724" lon="10.569668"><ele>84.75</ele></trkpt>
   <trkpt lat="52.06287" lon="10.570175"><ele>85</ele></trkpt>
   <trkpt lat="52.063907" lon="10.570635"><ele>83.5</ele></trkpt>
   <trkpt lat="52.064306" lon="10.570749"><ele>82.75</ele></trkpt>
   <trkpt lat="52.064728" lon="10.570857"><ele>83</ele></trkpt>
   <trkpt lat="52.064776" lon="10.570869"><ele>83</ele></trkpt>
   <trkpt lat="52.064934" lon="10.570908"><ele>83</ele></trkpt>
   <trkpt lat="52.066308" lon="10.571199"><ele>82.5</ele></trkpt>
   <trkpt lat="52.06649" lon="10.571224"><ele>82.75</ele></trkpt>
   <trkpt lat="52.066904" lon="10.571279"><ele>83.5</ele></trkpt>
   <trkpt lat="52.066979" lon="10.571289"><ele>83.5</ele></trkpt>
   <trkpt lat="52.067652" lon="10.571365"><ele>85.25</ele></trkpt>
   <trkpt lat="52.068307" lon="10.571406"><ele>86.75</ele></trkpt>
   <trkpt lat="52.068691" lon="10.571422"><ele>87.25</ele></trkpt>
   <trkpt lat="52.070098" lon="10.571425"><ele>88.25</ele></trkpt>
   <trkpt lat="52.071536" lon="10.571427"><ele>88.75</ele></trkpt>
   <trkpt lat="52.07191" lon="10.571425"><ele>88.5</ele></trkpt>
   <trkpt lat="52.073721" lon="10.571438"><ele>85.75</ele></trkpt>
   <trkpt lat="52.075525" lon="10.571457"><ele>84</ele></trkpt>
   <trkpt lat="52.077326" lon="10.571477"><ele>83.5</ele></trkpt>
   <trkpt lat="52.078427" lon="10.571492"><ele>83.25</ele></trkpt>
   <trkpt lat="52.079127" lon="10.571551"><ele>83.5</ele></trkpt>
   <trkpt lat="52.079452" lon="10.571579"><ele>83.25</ele></trkpt>
   <trkpt lat="52.080395" lon="10.571743"><ele>82.25</ele></trkpt>
   <trkpt lat="52.080916" lon="10.571881"><ele>81.25</ele></trkpt>
   <trkpt lat="52.081214" lon="10.571957"><ele>81</ele></trkpt>
   <trkpt lat="52.081619" lon="10.572081"><ele>81</ele></trkpt>
   <trkpt lat="52.081999" lon="10.57221"><ele>81.5</ele></trkpt>
   <trkpt lat="52.082311" lon="10.572332"><ele>82</ele></trkpt>
   <trkpt lat="52.08267" lon="10.57249"><ele>82.5</ele></trkpt>
   <trkpt lat="52.082965" lon="10.57262"><ele>82</ele></trkpt>
   <trkpt lat="52.083686" lon="10.572964"><ele>81.75</ele></trkpt>
   <trkpt lat="52.084359" lon="10.573332"><ele>81.75</ele></trkpt>
   <trkpt lat="52.084899" lon="10.573646"><ele>81.75</ele></trkpt>
   <trkpt lat="52.085379" lon="10.573947"><ele>82</ele></trkpt>
   <trkpt lat="52.086051" lon="10.574414"><ele>81.5</ele></trkpt>
   <trkpt lat="52.086362" lon="10.57463"><ele>80.75</ele></trkpt>
   <trkpt lat="52.087184" lon="10.575152"><ele>80.25</ele></trkpt>
   <trkpt lat="52.08773" lon="10.575474"><ele>80</ele></trkpt>
   <trkpt lat="52.08831" lon="10.575791"><ele>79</ele></trkpt>
   <trkpt lat="52.089087" lon="10.576187"><ele>79</ele></trkpt>
   <trkpt lat="52.089453" lon="10.576355"><ele>78.75</ele></trkpt>
   <trkpt lat="52.089712" lon="10.576474"><ele>78.75</ele></trkpt>
   <trkpt lat="52.090737" lon="10.57687"><ele>78</ele></trkpt>
   <trkpt lat="52.091472" lon="10.577112"><ele>78</ele></trkpt>
   <trkpt lat="52.092184" lon="10.577316"><ele>78</ele></trkpt>
   <trkpt lat="52.092967" lon="10.577517"><ele>78.5</ele></trkpt>
   <trkpt lat="52.093029" lon="10.577533"><ele>78.5</ele></trkpt>
   <trkpt lat="52.093169" lon="10.577566"><ele>78.75</ele></trkpt>
   <trkpt lat="52.094324" lon="10.577784"><ele>80.5</ele></trkpt>
   <trkpt lat="52.094416" lon="10.577802"><ele>80.25</ele></trkpt>
   <trkpt lat="52.094497" lon="10.577817"><ele>79.75</ele></trkpt>
   <trkpt lat="52.09464" lon="10.577828"><ele>79.25</ele></trkpt>
   <trkpt lat="52.094741" lon="10.577836"><ele>78.75</ele></trkpt>
   <trkpt lat="52.095905" lon="10.577929"><ele>78.25</ele></trkpt>
   <trkpt lat="52.096543" lon="10.577949"><ele>78</ele></trkpt>
   <trkpt lat="52.097221" lon="10.577953"><ele>77.25</ele></trkpt>
   <trkpt lat="52.098327" lon="10.577914"><ele>77.25</ele></trkpt>
   <trkpt lat="52.098778" lon="10.577872"><ele>79.5</ele></trkpt>
   <trkpt lat="52.099306" lon="10.577801"><ele>81.5</ele></trkpt>
   <trkpt lat="52.100048" lon="10.577656"><ele>83.75</ele></trkpt>
   <trkpt lat="52.101308" lon="10.577393"><ele>81</ele></trkpt>
   <trkpt lat="52.101879" lon="10.577232"><ele>80.5</ele></trkpt>
   <trkpt lat="52.102831" lon="10.576948"><ele>81.5</ele></trkpt>
   <trkpt lat="52.102916" lon="10.576916"><ele>81.75</ele></trkpt>
   <trkpt lat="52.103345" lon="10.576747"><ele>82.5</ele></trkpt>
   <trkpt lat="52.10365" lon="10.57664"><ele>83</ele></trkpt>
   <trkpt lat="52.104225" lon="10.576438"><ele>83.5</ele></trkpt>
   <trkpt lat="52.105403" lon="10.575977"><ele>84.75</ele></trkpt>
   <trkpt lat="52.107143" lon="10.575297"><ele>85.25</ele></trkpt>
   <trkpt lat="52.108392" lon="10.574808"><ele>81.5</ele></trkpt>
   <trkpt lat="52.108539" lon="10.574749"><ele>82</ele></trkpt>
   <trkpt lat="52.10893" lon="10.574597"><ele>82.75</ele></trkpt>
   <trkpt lat="52.110217" lon="10.574094"><ele>79.5</ele></trkpt>
   <trkpt lat="52.110657" lon="10.573924"><ele>79</ele></trkpt>
   <trkpt lat="52.112414" lon="10.573242"><ele>82.5</ele></trkpt>
   <trkpt lat="52.114168" lon="10.572562"><ele>85</ele></trkpt>
   <trkpt lat="52.115908" lon="10.571888"><ele>84.25</ele></trkpt>
   <trkpt lat="52.117667" lon="10.571208"><ele>85</ele></trkpt>
   <trkpt lat="52.119232" lon="10.57061"><ele>82.75</ele></trkpt>
   <trkpt lat="52.121142" lon="10.56988"><ele>78.25</ele></trkpt>
   <trkpt lat="52.122877" lon="10.569216"><ele>75.5</ele></trkpt>
   <trkpt lat="52.124645" lon="10.568541"><ele>76.5</ele></trkpt>
   <trkpt lat="52.126121" lon="10.567976"><ele>76.25</ele></trkpt>
   <trkpt lat="52.12648" lon="10.567838"><ele>77.25</ele></trkpt>
   <trkpt lat="52.12825" lon="10.567158"><ele>77.75</ele></trkpt>
   <trkpt lat="52.128761" lon="10.566962"><ele>78.5</ele></trkpt>
   <trkpt lat="52.129306" lon="10.56674"><ele>78.75</ele></trkpt>
   <trkpt lat="52.129776" lon="10.566534"><ele>78.5</ele></trkpt>
   <trkpt lat="52.130059" lon="10.566399"><ele>78.25</ele></trkpt>
   <trkpt lat="52.130277" lon="10.566296"><ele>77.75</ele></trkpt>
   <trkpt lat="52.131254" lon="10.565776"><ele>76</ele></trkpt>
   <trkpt lat="52.131656" lon="10.565531"><ele>75.25</ele></trkpt>
   <trkpt lat="52.132496" lon="10.564954"><ele>77.75</ele></trkpt>
   <trkpt lat="52.132995" lon="10.564575"><ele>77</ele></trkpt>
   <trkpt lat="52.133292" lon="10.564333"><ele>76.25</ele></trkpt>
   <trkpt lat="52.133544" lon="10.564126"><ele>75.75</ele></trkpt>
   <trkpt lat="52.13393" lon="10.563792"><ele>75.75</ele></trkpt>
   <trkpt lat="52.134756" lon="10.563067"><ele>78</ele></trkpt>
   <trkpt lat="52.13487" lon="10.562951"><ele>78</ele></trkpt>
   <trkpt lat="52.135224" lon="10.56259"><ele>77.25</ele></trkpt>
   <trkpt lat="52.135703" lon="10.562072"><ele>76.25</ele></trkpt>
   <trkpt lat="52.135787" lon="10.561969"><ele>76.25</ele></trkpt>
   <trkpt lat="52.136387" lon="10.561248"><ele>77.25</ele></trkpt>
   <trkpt lat="52.137825" lon="10.559514"><ele>82.75</ele></trkpt>
   <trkpt lat="52.139212" lon="10.557842"><ele>79.75</ele></trkpt>
   <trkpt lat="52.139352" lon="10.557672"><ele>79.25</ele></trkpt>
   <trkpt lat="52.140692" lon="10.556044"><ele>78.25</ele></trkpt>
   <trkpt lat="52.141442" lon="10.555123"><ele>76.25</ele></trkpt>
   <trkpt lat="52.141773" lon="10.55472"><ele>75.75</ele></trkpt>
   <trkpt lat="52.142139" lon="10.554294"><ele>75.75</ele></trkpt>
   <trkpt lat="52.142928" lon="10.553376"><ele>76</ele></trkpt>
   <trkpt lat="52.143437" lon="10.55276"><ele>77.5</ele></trkpt>
   <trkpt lat="52.143597" lon="10.552567"><ele>77.5</ele></trkpt>
   <trkpt lat="52.145039" lon="10.550837"><ele>76</ele></trkpt>
   <trkpt lat="52.14634" lon="10.549264"><ele>76.5</ele></trkpt>
   <trkpt lat="52.146423" lon="10.549164"><ele>76.5</ele></trkpt>
   <trkpt lat="52.146441" lon="10.549142"><ele>76.5</ele></trkpt>
   <trkpt lat="52.146479" lon="10.549096"><ele>76.75</ele></trkpt>
   <trkpt lat="52.146641" lon="10.54891"><ele>76.75</ele></trkpt>
   <trkpt lat="52.148939" lon="10.54627"><ele>78</ele></trkpt>
   <trkpt lat="52.14942" lon="10.545721"><ele>78</ele></trkpt>
   <trkpt lat="52.149692" lon="10.545409"><ele>77.75</ele></trkpt>
   <trkpt lat="52.149743" lon="10.54535"><ele>77.75</ele></trkpt>
   <trkpt lat="52.149768" lon="10.545324"><ele>77.75</ele></trkpt>
   <trkpt lat="52.150512" lon="10.544506"><ele>77.5</ele></trkpt>
   <trkpt lat="52.150803" lon="10.544163"><ele>77.75</ele></trkpt>
   <trkpt lat="52.152355" lon="10.542411"><ele>77.5</ele></trkpt>
   <trkpt lat="52.152803" lon="10.541904"><ele>76.75</ele></trkpt>
   <trkpt lat="52.154325" lon="10.540183"><ele>76.75</ele></trkpt>
   <trkpt lat="52.155738" lon="10.538599"><ele>76.75</ele></trkpt>
   <trkpt lat="52.15644" lon="10.537741"><ele>78</ele></trkpt>
   <trkpt lat="52.156515" lon="10.53764"><ele>78</ele></trkpt>
   <trkpt lat="52.1568" lon="10.537258"><ele>77.75</ele></trkpt>
   <trkpt lat="52.157142" lon="10.536733"><ele>77.25</ele></trkpt>
   <trkpt lat="52.157461" lon="10.536207"><ele>77.5</ele></trkpt>
   <trkpt lat="52.157676" lon="10.535838"><ele>78</ele></trkpt>
   <trkpt lat="52.15799" lon="10.535223"><ele>78.25</ele></trkpt>
   <trkpt lat="52.158285" lon="10.534581"><ele>78</ele></trkpt>
   <trkpt lat="52.158375" lon="10.534373"><ele>78</ele></trkpt>
   <trkpt lat="52.158601" lon="10.533851"><ele>78.25</ele></trkpt>
   <trkpt lat="52.158743" lon="10.533481"><ele>78.25</ele></trkpt>
   <trkpt lat="52.15879" lon="10.533365"><ele>78.5</ele></trkpt>
   <trkpt lat="52.158822" lon="10.533282"><ele>78.5</ele></trkpt>
   <trkpt lat="52.158855" lon="10.533198"><ele>78.75</ele></trkpt>
   <trkpt lat="52.158917" lon="10.533041"><ele>79</ele></trkpt>
   <trkpt lat="52.159159" lon="10.532412"><ele>79.75</ele></trkpt>
   <trkpt lat="52.159204" lon="10.532284"><ele>79.75</ele></trkpt>
   <trkpt lat="52.159568" lon="10.531243"><ele>79.5</ele></trkpt>
   <trkpt lat="52.160431" lon="10.52845"><ele>80.75</ele></trkpt>
   <trkpt lat="52.160769" lon="10.527451"><ele>80</ele></trkpt>
   <trkpt lat="52.160889" lon="10.527147"><ele>79.75</ele></trkpt>
   <trkpt lat="52.161244" lon="10.526248"><ele>79.75</ele></trkpt>
   <trkpt lat="52.161529" lon="10.525585"><ele>79.75</ele></trkpt>
   <trkpt lat="52.161711" lon="10.525192"><ele>79.5</ele></trkpt>
   <trkpt lat="52.16178" lon="10.525045"><ele>79.75</ele></trkpt>
   <trkpt lat="52.162258" lon="10.524103"><ele>81.25</ele></trkpt>
   <trkpt lat="52.162543" lon="10.523595"><ele>81.5</ele></trkpt>
   <trkpt lat="52.16282" lon="10.523133"><ele>82.25</ele></trkpt>
   <trkpt lat="52.162922" lon="10.522982"><ele>82.5</ele></trkpt>
   <trkpt lat="52.16339" lon="10.522288"><ele>81.75</ele></trkpt>
   <trkpt lat="52.163871" lon="10.521634"><ele>81.25</ele></trkpt>
   <trkpt lat="52.164361" lon="10.521034"><ele>80</ele></trkpt>
   <trkpt lat="52.164394" lon="10.520999"><ele>80</ele></trkpt>
   <trkpt lat="52.164895" lon="10.520459"><ele>80</ele></trkpt>
   <trkpt lat="52.16537" lon="10.520022"><ele>80.75</ele></trkpt>
   <trkpt lat="52.165863" lon="10.519603"><ele>81.25</ele></trkpt>
   <trkpt lat="52.166869" lon="10.518786"><ele>78.75</ele></trkpt>
   <trkpt lat="52.167396" lon="10.518381"><ele>78</ele></trkpt>
   <trkpt lat="52.16786" lon="10.518055"><ele>77.5</ele></trkpt>
   <trkpt lat="52.168271" lon="10.51778"><ele>77.25</ele></trkpt>
   <trkpt lat="52.168772" lon="10.51748"><ele>76.25</ele></trkpt>
   <trkpt lat="52.169308" lon="10.517173"><ele>76</ele></trkpt>
   <trkpt lat="52.170053" lon="10.516806"><ele>75.75</ele></trkpt>
   <trkpt lat="52.17066" lon="10.516527"><ele>75</ele></trkpt>
   <trkpt lat="52.170723" lon="10.516496"><ele>74.75</ele></trkpt>
   <trkpt lat="52.170815" lon="10.51646"><ele>74.75</ele></trkpt>
   <trkpt lat="52.170868" lon="10.51644"><ele>74.75</ele></trkpt>
   <trkpt lat="52.172595" lon="10.515764"><ele>75.75</ele></trkpt>
   <trkpt lat="52.173563" lon="10.515385"><ele>75.75</ele></trkpt>
   <trkpt lat="52.173628" lon="10.515356"><ele>75.75</ele></trkpt>
   <trkpt lat="52.174442" lon="10.515028"><ele>75.25</ele></trkpt>
   <trkpt lat="52.174561" lon="10.514979"><ele>75.25</ele></trkpt>
   <trkpt lat="52.174693" lon="10.514928"><ele>75.5</ele></trkpt>
   <trkpt lat="52.176063" lon="10.514379"><ele>74.75</ele></trkpt>
   <trkpt lat="52.176093" lon="10.514368"><ele>74.75</ele></trkpt>
   <trkpt lat="52.177841" lon="10.513622"><ele>74</ele></trkpt>
   <trkpt lat="52.179589" lon="10.512921"><ele>74</ele></trkpt>
   <trkpt lat="52.180838" lon="10.51242"><ele>74</ele></trkpt>
   <trkpt lat="52.182618" lon="10.511747"><ele>76.5</ele></trkpt>
   <trkpt lat="52.190057" lon="10.50876"><ele>74</ele></trkpt>
   <trkpt lat="52.191811" lon="10.508054"><ele>75</ele></trkpt>
   <trkpt lat="52.193611" lon="10.507329"><ele>74.25</ele></trkpt>
   <trkpt lat="52.195298" lon="10.50665"><ele>74</ele></trkpt>
   <trkpt lat="52.196567" lon="10.506144"><ele>74.25</ele></trkpt>
   <trkpt lat="52.197091" lon="10.505932"><ele>73.5</ele></trkpt>
   <trkpt lat="52.198777" lon="10.505255"><ele>74.5</ele></trkpt>
   <trkpt lat="52.198833" lon="10.505233"><ele>74.5</ele></trkpt>
   <trkpt lat="52.199988" lon="10.504762"><ele>73.5</ele></trkpt>
   <trkpt lat="52.200638" lon="10.504531"><ele>73.25</ele></trkpt>
   <trkpt lat="52.201032" lon="10.504406"><ele>73.75</ele></trkpt>
   <trkpt lat="52.201513" lon="10.504274"><ele>74.75</ele></trkpt>
   <trkpt lat="52.201847" lon="10.504206"><ele>75.25</ele></trkpt>
   <trkpt lat="52.202276" lon="10.504095"><ele>75.5</ele></trkpt>
   <trkpt lat="52.202684" lon="10.504024"><ele>75.5</ele></trkpt>
   <trkpt lat="52.203153" lon="10.503963"><ele>74.75</ele></trkpt>
   <trkpt lat="52.203463" lon="10.503936"><ele>74.5</ele></trkpt>
   <trkpt lat="52.203706" lon="10.50391"><ele>74.5</ele></trkpt>
   <trkpt lat="52.204142" lon="10.503894"><ele>74.5</ele></trkpt>
   <trkpt lat="52.204727" lon="10.503872"><ele>75.25</ele></trkpt>
   <trkpt lat="52.205212" lon="10.503896"><ele>75.75</ele></trkpt>
   <trkpt lat="52.205489" lon="10.503911"><ele>75.75</ele></trkpt>
   <trkpt lat="52.206244" lon="10.503977"><ele>75.5</ele></trkpt>
   <trkpt lat="52.207612" lon="10.504224"><ele>76.5</ele></trkpt>
   <trkpt lat="52.207729" lon="10.504255"><ele>76</ele></trkpt>
   <trkpt lat="52.208479" lon="10.504462"><ele>74</ele></trkpt>
   <trkpt lat="52.209301" lon="10.504699"><ele>74.5</ele></trkpt>
   <trkpt lat="52.210437" lon="10.505028"><ele>73.25</ele></trkpt>
   <trkpt lat="52.210643" lon="10.505083"><ele>72.75</ele></trkpt>
   <trkpt lat="52.213512" lon="10.505924"><ele>72.5</ele></trkpt>
   <trkpt lat="52.214942" lon="10.506331"><ele>72.5</ele></trkpt>
   <trkpt lat="52.216375" lon="10.506693"><ele>71.5</ele></trkpt>
   <trkpt lat="52.21666" lon="10.506777"><ele>71</ele></trkpt>
   <trkpt lat="52.218204" lon="10.507228"><ele>72.25</ele></trkpt>
   <trkpt lat="52.220427" lon="10.50792"><ele>72.75</ele></trkpt>
   <trkpt lat="52.220518" lon="10.507952"><ele>72.75</ele></trkpt>
   <trkpt lat="52.220595" lon="10.507971"><ele>72.75</ele></trkpt>
   <trkpt lat="52.223667" lon="10.508829"><ele>73</ele></trkpt>
   <trkpt lat="52.225375" lon="10.509329"><ele>72</ele></trkpt>
   <trkpt lat="52.230111" lon="10.510716"><ele>70.75</ele></trkpt>
   <trkpt lat="52.230116" lon="10.510718"><ele>70.75</ele></trkpt>
   <trkpt lat="52.230232" lon="10.510758"><ele>70.5</ele></trkpt>
   <trkpt lat="52.230509" lon="10.510831"><ele>70.25</ele></trkpt>
   <trkpt lat="52.231488" lon="10.511112"><ele>71.25</ele></trkpt>
   <trkpt lat="52.232896" lon="10.511516"><ele>70.25</ele></trkpt>
   <trkpt lat="52.233329" lon="10.511645"><ele>70</ele></trkpt>
   <trkpt lat="52.233452" lon="10.511682"><ele>70.25</ele></trkpt>
   <trkpt lat="52.234679" lon="10.512045"><ele>74.75</ele></trkpt>
   <trkpt lat="52.234848" lon="10.512094"><ele>75.75</ele></trkpt>
   <trkpt lat="52.236435" lon="10.512546"><ele>74</ele></trkpt>
   <trkpt lat="52.236838" lon="10.512647"><ele>74</ele></trkpt>
   <trkpt lat="52.237271" lon="10.512715"><ele>74.25</ele></trkpt>
   <trkpt lat="52.237734" lon="10.512752"><ele>74.5</ele></trkpt>
   <trkpt lat="52.237966" lon="10.512755"><ele>74.25</ele></trkpt>
   <trkpt lat="52.23847" lon="10.512731"><ele>74.25</ele></trkpt>
   <trkpt lat="52.239174" lon="10.512678"><ele>74</ele></trkpt>
   <trkpt lat="52.23964" lon="10.512665"><ele>74</ele></trkpt>
   <trkpt lat="52.239873" lon="10.512676"><ele>74</ele></trkpt>
   <trkpt lat="52.23996" lon="10.512686"><ele>74.5</ele></trkpt>
   <trkpt lat="52.240108" lon="10.512703"><ele>74.5</ele></trkpt>
   <trkpt lat="52.240485" lon="10.512783"><ele>76.5</ele></trkpt>
   <trkpt lat="52.240791" lon="10.512879"><ele>78.25</ele></trkpt>
   <trkpt lat="52.241016" lon="10.512969"><ele>78.75</ele></trkpt>
   <trkpt lat="52.241253" lon="10.513087"><ele>78.75</ele></trkpt>
   <trkpt lat="52.241606" lon="10.513302"><ele>78.75</ele></trkpt>
   <trkpt lat="52.241961" lon="10.513541"><ele>78.75</ele></trkpt>
   <trkpt lat="52.242152" lon="10.513703"><ele>78.75</ele></trkpt>
   <trkpt lat="52.24234" lon="10.513878"><ele>78.25</ele></trkpt>
   <trkpt lat="52.242492" lon="10.514024"><ele>77.75</ele></trkpt>
   <trkpt lat="52.242645" lon="10.514192"><ele>77.5</ele></trkpt>
   <trkpt lat="52.242952" lon="10.514567"><ele>78</ele></trkpt>
   <trkpt lat="52.243127" lon="10.514793"><ele>78.5</ele></trkpt>
   <trkpt lat="52.243414" lon="10.515229"><ele>78.5</ele></trkpt>
   <trkpt lat="52.243593" lon="10.515536"><ele>77.75</ele></trkpt>
   <trkpt lat="52.243762" lon="10.515858"><ele>76.75</ele></trkpt>
   <trkpt lat="52.243983" lon="10.516323"><ele>76.25</ele></trkpt>
   <trkpt lat="52.244139" lon="10.516696"><ele>76</ele></trkpt>
   <trkpt lat="52.244282" lon="10.517088"><ele>75.75</ele></trkpt>
   <trkpt lat="52.244404" lon="10.517454"><ele>75.75</ele></trkpt>
   <trkpt lat="52.24453" lon="10.517891"><ele>76.25</ele></trkpt>
   <trkpt lat="52.244631" lon="10.518296"><ele>76.75</ele></trkpt>
   <trkpt lat="52.244723" lon="10.518713"><ele>76.75</ele></trkpt>
   <trkpt lat="52.244807" lon="10.519168"><ele>76.75</ele></trkpt>
   <trkpt lat="52.244882" lon="10.519649"><ele>76.75</ele></trkpt>
   <trkpt lat="52.244968" lon="10.520379"><ele>76.75</ele></trkpt>
   <trkpt lat="52.245033" lon="10.521128"><ele>76.25</ele></trkpt>
   <trkpt lat="52.245154" lon="10.522733"><ele>76.25</ele></trkpt>
   <trkpt lat="52.245241" lon="10.523897"><ele>77.25</ele></trkpt>
   <trkpt lat="52.245393" lon="10.525953"><ele>77.75</ele></trkpt>
   <trkpt lat="52.245489" lon="10.527005"><ele>78</ele></trkpt>
   <trkpt lat="52.245608" lon="10.527848"><ele>78.5</ele></trkpt>
   <trkpt lat="52.245677" lon="10.528217"><ele>78.5</ele></trkpt>
   <trkpt lat="52.245679" lon="10.52823"><ele>78.5</ele></trkpt>
   <trkpt lat="52.245828" lon="10.528983"><ele>79.5</ele></trkpt>
   <trkpt lat="52.245948" lon="10.529485"><ele>80.5</ele></trkpt>
   <trkpt lat="52.246038" lon="10.529822"><ele>81.25</ele></trkpt>
   <trkpt lat="52.246154" lon="10.530197"><ele>81.25</ele></trkpt>
   <trkpt lat="52.246307" lon="10.530659"><ele>80.5</ele></trkpt>
   <trkpt lat="52.246441" lon="10.531025"><ele>80.25</ele></trkpt>
   <trkpt lat="52.246618" lon="10.531457"><ele>79.75</ele></trkpt>
   <trkpt lat="52.247016" lon="10.532275"><ele>80</ele></trkpt>
   <trkpt lat="52.247357" lon="10.532856"><ele>79.5</ele></trkpt>
   <trkpt lat="52.247882" lon="10.533679"><ele>78.25</ele></trkpt>
   <trkpt lat="52.247934" lon="10.533755"><ele>78</ele></trkpt>
   <trkpt lat="52.248402" lon="10.534467"><ele>78.25</ele></trkpt>
   <trkpt lat="52.248609" lon="10.534782"><ele>78.25</ele></trkpt>
   <trkpt lat="52.24872" lon="10.534951"><ele>78</ele></trkpt>
   <trkpt lat="52.248762" lon="10.535014"><ele>77.75</ele></trkpt>
   <trkpt lat="52.249125" lon="10.535579"><ele>77.75</ele></trkpt>
   <trkpt lat="52.249145" lon="10.535608"><ele>77.75</ele></trkpt>
   <trkpt lat="52.249613" lon="10.536314"><ele>79</ele></trkpt>
   <trkpt lat="52.24963" lon="10.536331"><ele>79</ele></trkpt>
   <trkpt lat="52.249819" lon="10.536513"><ele>79.5</ele></trkpt>
   <trkpt lat="52.249928" lon="10.536619"><ele>79.75</ele></trkpt>
   <trkpt lat="52.25009" lon="10.536816"><ele>79.5</ele></trkpt>
   <trkpt lat="52.250125" lon="10.53686"><ele>79.5</ele></trkpt>
   <trkpt lat="52.250136" lon="10.536874"><ele>79.5</ele></trkpt>
   <trkpt lat="52.250471" lon="10.537345"><ele>79</ele></trkpt>
   <trkpt lat="52.250627" lon="10.537592"><ele>78.75</ele></trkpt>
   <trkpt lat="52.25075" lon="10.537776"><ele>78.75</ele></trkpt>
   <trkpt lat="52.250911" lon="10.538002"><ele>78.75</ele></trkpt>
   <trkpt lat="52.2511" lon="10.53824"><ele>78.5</ele></trkpt>
   <trkpt lat="52.251254" lon="10.538451"><ele>78.25</ele></trkpt>
   <trkpt lat="52.251321" lon="10.538557"><ele>78.25</ele></trkpt>
   <trkpt lat="52.25229" lon="10.540036"><ele>80.25</ele></trkpt>
   <trkpt lat="52.252306" lon="10.54006"><ele>80.5</ele></trkpt>
   <trkpt lat="52.252327" lon="10.540092"><ele>80.5</ele></trkpt>
   <trkpt lat="52.252331" lon="10.540098"><ele>80.5</ele></trkpt>
   <trkpt lat="52.25235" lon="10.540128"><ele>80.5</ele></trkpt>
   <trkpt lat="52.252575" lon="10.540473"><ele>80.5</ele></trkpt>
   <trkpt lat="52.252679" lon="10.540633"><ele>80.25</ele></trkpt>
   <trkpt lat="52.252798" lon="10.540815"><ele>79.75</ele></trkpt>
   <trkpt lat="52.253303" lon="10.541587"><ele>80</ele></trkpt>
  </trkseg>
 </trk>
</gpx>