<?xml version="1.0" encoding="UTF-8"?>
<!-- track-length = 147587 filtered ascend = 174 plain-ascend = -8 cost=147587 energy=1.8kwh time=3h 16m 47s -->
<gpx 
 xmlns="http://www.topografix.com/GPX/1/1" 
 xmlns:xsi="http://www.w3.org/2001/XMLSchema-instance" 
 xsi:schemaLocation="http://www.topografix.com/GPX/1/1 http://www.topografix.com/GPX/1/1/gpx.xsd" 
 version="1.1" 
 creator="BRouter-Web 0.18.1">
 <trk>
  <name>Vilnius - Turmantas</name>
  <trkseg>
   <trkpt lat="54.670153" lon="25.285725"><ele>144.75</ele></trkpt>
   <trkpt lat="54.670395" lon="25.286402"><ele>145</ele></trkpt>
   <trkpt lat="54.67057" lon="25.286867"><ele>145.25</ele></trkpt>
   <trkpt lat="54.670775" lon="25.287362"><ele>145</ele></trkpt>
   <trkpt lat="54.670939" lon="25.287755"><ele>144.75</ele></trkpt>
   <trkpt lat="54.671118" lon="25.288236"><ele>144.75</ele></trkpt>
   <trkpt lat="54.671293" lon="25.288836"><ele>144.25</ele></trkpt>
   <trkpt lat="54.671441" lon="25.289247"><ele>143.75</ele></trkpt>
   <trkpt lat="54.671667" lon="25.289859"><ele>143.75</ele></trkpt>
   <trkpt lat="54.671802" lon="25.290214"><ele>143.5</ele></trkpt>
   <trkpt lat="54.671911" lon="25.290563"><ele>143.5</ele></trkpt>
   <trkpt lat="54.672064" lon="25.2911"><ele>144</ele></trkpt>
   <trkpt lat="54.672175" lon="25.291484"><ele>145</ele></trkpt>
   <trkpt lat="54.672331" lon="25.292134"><ele>146.5</ele></trkpt>
   <trkpt lat="54.672472" lon="25.292802"><ele>147.75</ele></trkpt>
   <trkpt lat="54.672549" lon="25.293327"><ele>148.75</ele></trkpt>
   <trkpt lat="54.67261" lon="25.293883"><ele>148.75</ele></trkpt>
   <trkpt lat="54.672705" lon="25.295151"><ele>147.75</ele></trkpt>
   <trkpt lat="54.672735" lon="25.295562"><ele>147.5</ele></trkpt>
   <trkpt lat="54.672772" lon="25.296203"><ele>147.25</ele></trkpt>
   <trkpt lat="54.672782" lon="25.296541"><ele>147</ele></trkpt>
   <trkpt lat="54.672784" lon="25.297268"><ele>148.25</ele></trkpt>
   <trkpt lat="54.672762" lon="25.297987"><ele>150.5</ele></trkpt>
   <trkpt lat="54.672691" lon="25.298826"><ele>152.25</ele></trkpt>
   <trkpt lat="54.672374" lon="25.301511"><ele>156.25</ele></trkpt>
   <trkpt lat="54.672284" lon="25.302094"><ele>155.75</ele></trkpt>
   <trkpt lat="54.672116" lon="25.302959"><ele>153.5</ele></trkpt>
   <trkpt lat="54.671906" lon="25.303827"><ele>151</ele></trkpt>
   <trkpt lat="54.671757" lon="25.304346"><ele>149</ele></trkpt>
   <trkpt lat="54.671541" lon="25.305158"><ele>146.75</ele></trkpt>
   <trkpt lat="54.670232" lon="25.310001"><ele>149.5</ele></trkpt>
   <trkpt lat="54.669837" lon="25.311548"><ele>149.75</ele></trkpt>
   <trkpt lat="54.668858" lon="25.315464"><ele>143.5</ele></trkpt>
   <trkpt lat="54.668685" lon="25.316198"><ele>143.75</ele></trkpt>
   <trkpt lat="54.668617" lon="25.316541"><ele>143.5</ele></trkpt>
   <trkpt lat="54.668541" lon="25.316933"><ele>142.25</ele></trkpt>
   <trkpt lat="54.668395" lon="25.317828"><ele>139.25</ele></trkpt>
   <trkpt lat="54.668305" lon="25.318638"><ele>138.25</ele></trkpt>
   <trkpt lat="54.668239" lon="25.319326"><ele>138.75</ele></trkpt>
   <trkpt lat="54.668201" lon="25.320021"><ele>139.25</ele></trkpt>
   <trkpt lat="54.668178" lon="25.320762"><ele>142.75</ele></trkpt>
   <trkpt lat="54.668175" lon="25.321484"><ele>146.25</ele></trkpt>
   <trkpt lat="54.668201" lon="25.322356"><ele>149</ele></trkpt>
   <trkpt lat="54.668246" lon="25.323045"><ele>150.75</ele></trkpt>
   <trkpt lat="54.668333" lon="25.323892"><ele>151.75</ele></trkpt>
   <trkpt lat="54.668424" lon="25.324596"><ele>151.75</ele></trkpt>
   <trkpt lat="54.668557" lon="25.325414"><ele>152.25</ele></trkpt>
   <trkpt lat="54.668758" lon="25.326324"><ele>152.25</ele></trkpt>
   <trkpt lat="54.669112" lon="25.327612"><ele>151.5</ele></trkpt>
   <trkpt lat="54.669426" lon="25.328632"><ele>148.75</ele></trkpt>
   <trkpt lat="54.670125" lon="25.330822"><ele>149</ele></trkpt>
   <trkpt lat="54.670237" lon="25.331211"><ele>153.75</ele></trkpt>
   <trkpt lat="54.670401" lon="25.331781"><ele>153.75</ele></trkpt>
   <trkpt lat="54.670517" lon="25.332206"><ele>154.5</ele></trkpt>
   <trkpt lat="54.670707" lon="25.332976"><ele>154.25</ele></trkpt>
   <trkpt lat="54.670818" lon="25.33354"><ele>152.25</ele></trkpt>
   <trkpt lat="54.670869" lon="25.333799"><ele>151.25</ele></trkpt>
   <trkpt lat="54.671077" lon="25.334975"><ele>146</ele></trkpt>
   <trkpt lat="54.671849" lon="25.339733"><ele>159</ele></trkpt>
   <trkpt lat="54.671999" lon="25.340569"><ele>157.75</ele></trkpt>
   <trkpt lat="54.672125" lon="25.341159"><ele>155.75</ele></trkpt>
   <trkpt lat="54.672274" lon="25.341771"><ele>153.25</ele></trkpt>
   <trkpt lat="54.672465" lon="25.34246"><ele>153</ele></trkpt>
   <trkpt lat="54.672593" lon="25.342849"><ele>154.75</ele></trkpt>
   <trkpt lat="54.672742" lon="25.343298"><ele>158</ele></trkpt>
   <trkpt lat="54.672902" lon="25.343729"><ele>161</ele></trkpt>
   <trkpt lat="54.673061" lon="25.344124"><ele>162.25</ele></trkpt>
   <trkpt lat="54.673461" lon="25.345006"><ele>157.75</ele></trkpt>
   <trkpt lat="54.673915" lon="25.345853"><ele>155.25</ele></trkpt>
   <trkpt lat="54.674547" lon="25.346876"><ele>158</ele></trkpt>
   <trkpt lat="54.675093" lon="25.347743"><ele>161.25</ele></trkpt>
   <trkpt lat="54.676362" lon="25.349686"><ele>154.5</ele></trkpt>
   <trkpt lat="54.676751" lon="25.350359"><ele>153</ele></trkpt>
   <trkpt lat="54.67706" lon="25.350936"><ele>152.75</ele></trkpt>
   <trkpt lat="54.677336" lon="25.351518"><ele>154.5</ele></trkpt>
   <trkpt lat="54.677602" lon="25.352133"><ele>155</ele></trkpt>
   <trkpt lat="54.677882" lon="25.352846"><ele>155</ele></trkpt>
   <trkpt lat="54.678212" lon="25.353785"><ele>156.5</ele></trkpt>
   <trkpt lat="54.678549" lon="25.354774"><ele>157.75</ele></trkpt>
   <trkpt lat="54.679997" lon="25.359055"><ele>157.5</ele></trkpt>
   <trkpt lat="54.682484" lon="25.366423"><ele>162.25</ele></trkpt>
   <trkpt lat="54.682822" lon="25.367381"><ele>163.75</ele></trkpt>
   <trkpt lat="54.683143" lon="25.368164"><ele>164.25</ele></trkpt>
   <trkpt lat="54.683576" lon="25.369066"><ele>162.75</ele></trkpt>
   <trkpt lat="54.68394" lon="25.369712"><ele>162</ele></trkpt>
   <trkpt lat="54.684294" lon="25.370272"><ele>162.5</ele></trkpt>
   <trkpt lat="54.684655" lon="25.37076"><ele>163.75</ele></trkpt>
   <trkpt lat="54.685075" lon="25.371291"><ele>165.5</ele></trkpt>
   <trkpt lat="54.685561" lon="25.371804"><ele>166.5</ele></trkpt>
   <trkpt lat="54.68597" lon="25.372174"><ele>164.75</ele></trkpt>
   <trkpt lat="54.686937" lon="25.372992"><ele>161</ele></trkpt>
   <trkpt lat="54.687958" lon="25.373807"><ele>161.25</ele></trkpt>
   <trkpt lat="54.688396" lon="25.374194"><ele>161</ele></trkpt>
   <trkpt lat="54.688916" lon="25.374754"><ele>161.75</ele></trkpt>
   <trkpt lat="54.689277" lon="25.375183"><ele>161.75</ele></trkpt>
   <trkpt lat="54.689613" lon="25.375634"><ele>161.25</ele></trkpt>
   <trkpt lat="54.689944" lon="25.376127"><ele>161.25</ele></trkpt>
   <trkpt lat="54.690316" lon="25.376763"><ele>161</ele></trkpt>
   <trkpt lat="54.690644" lon="25.377391"><ele>160.75</ele></trkpt>
   <trkpt lat="54.690917" lon="25.377992"><ele>159.75</ele></trkpt>
   <trkpt lat="54.691165" lon="25.378574"><ele>159</ele></trkpt>
   <trkpt lat="54.691378" lon="25.379161"><ele>158.25</ele></trkpt>
   <trkpt lat="54.691596" lon="25.379832"><ele>158.25</ele></trkpt>
   <trkpt lat="54.691767" lon="25.380416"><ele>158.75</ele></trkpt>
   <trkpt lat="54.691945" lon="25.381119"><ele>159.75</ele></trkpt>
   <trkpt lat="54.692097" lon="25.381878"><ele>160.25</ele></trkpt>
   <trkpt lat="54.69224" lon="25.382739"><ele>160.5</ele></trkpt>
   <trkpt lat="54.692351" lon="25.383546"><ele>159.25</ele></trkpt>
   <trkpt lat="54.69243" lon="25.384322"><ele>157.5</ele></trkpt>
   <trkpt lat="54.692471" lon="25.384882"><ele>156</ele></trkpt>
   <trkpt lat="54.692509" lon="25.385628"><ele>154</ele></trkpt>
   <trkpt lat="54.692615" lon="25.388136"><ele>146.75</ele></trkpt>
   <trkpt lat="54.692693" lon="25.39009"><ele>141.75</ele></trkpt>
   <trkpt lat="54.692751" lon="25.391447"><ele>137.25</ele></trkpt>
   <trkpt lat="54.692805" lon="25.392786"><ele>137.75</ele></trkpt>
   <trkpt lat="54.692887" lon="25.394738"><ele>139.5</ele></trkpt>
   <trkpt lat="54.69296" lon="25.396062"><ele>142.75</ele></trkpt>
   <trkpt lat="54.693027" lon="25.396937"><ele>144.75</ele></trkpt>
   <trkpt lat="54.693065" lon="25.39736"><ele>145</ele></trkpt>
   <trkpt lat="54.693414" lon="25.401028"><ele>148.5</ele></trkpt>
   <trkpt lat="54.693502" lon="25.401951"><ele>149.25</ele></trkpt>
   <trkpt lat="54.693617" lon="25.403099"><ele>148.25</ele></trkpt>
   <trkpt lat="54.693662" lon="25.403536"><ele>148.25</ele></trkpt>
   <trkpt lat="54.693792" lon="25.40509"><ele>149</ele></trkpt>
   <trkpt lat="54.693831" lon="25.405682"><ele>150</ele></trkpt>
   <trkpt lat="54.693872" lon="25.406317"><ele>150.5</ele></trkpt>
   <trkpt lat="54.694233" lon="25.409992"><ele>150.75</ele></trkpt>
   <trkpt lat="54.694287" lon="25.410474"><ele>151.5</ele></trkpt>
   <trkpt lat="54.694352" lon="25.410957"><ele>152.25</ele></trkpt>
   <trkpt lat="54.694515" lon="25.411978"><ele>152.75</ele></trkpt>
   <trkpt lat="54.694629" lon="25.412696"><ele>153</ele></trkpt>
   <trkpt lat="54.695948" lon="25.420864"><ele>153</ele></trkpt>
   <trkpt lat="54.69603" lon="25.421398"><ele>153</ele></trkpt>
   <trkpt lat="54.696205" lon="25.4222"><ele>153.25</ele></trkpt>
   <trkpt lat="54.696743" lon="25.425681"><ele>155.5</ele></trkpt>
   <trkpt lat="54.697993" lon="25.433528"><ele>154.25</ele></trkpt>
   <trkpt lat="54.698758" lon="25.43828"><ele>156.5</ele></trkpt>
   <trkpt lat="54.699053" lon="25.440242"><ele>155.75</ele></trkpt>
   <trkpt lat="54.699249" lon="25.441716"><ele>153.75</ele></trkpt>
   <trkpt lat="54.699441" lon="25.443301"><ele>152.25</ele></trkpt>
   <trkpt lat="54.699593" lon="25.444854"><ele>155</ele></trkpt>
   <trkpt lat="54.699652" lon="25.445532"><ele>156</ele></trkpt>
   <trkpt lat="54.700446" lon="25.454617"><ele>159.75</ele></trkpt>
   <trkpt lat="54.700576" lon="25.455819"><ele>160.25</ele></trkpt>
   <trkpt lat="54.700723" lon="25.456916"><ele>161.25</ele></trkpt>
   <trkpt lat="54.70096" lon="25.458273"><ele>161.5</ele></trkpt>
   <trkpt lat="54.7012" lon="25.459372"><ele>162.75</ele></trkpt>
   <trkpt lat="54.701486" lon="25.460502"><ele>164.25</ele></trkpt>
   <trkpt lat="54.701701" lon="25.461223"><ele>164.75</ele></trkpt>
   <trkpt lat="54.70207" lon="25.462323"><ele>165.25</ele></trkpt>
   <trkpt lat="54.70254" lon="25.463511"><ele>162.75</ele></trkpt>
   <trkpt lat="54.702898" lon="25.464321"><ele>162</ele></trkpt>
   <trkpt lat="54.703375" lon="25.465273"><ele>160</ele></trkpt>
   <trkpt lat="54.703953" lon="25.466276"><ele>159.5</ele></trkpt>
   <trkpt lat="54.704413" lon="25.466987"><ele>160.25</ele></trkpt>
   <trkpt lat="54.705273" lon="25.468175"><ele>164</ele></trkpt>
   <trkpt lat="54.70803" lon="25.471957"><ele>161.5</ele></trkpt>
   <trkpt lat="54.708834" lon="25.473079"><ele>160.75</ele></trkpt>
   <trkpt lat="54.709367" lon="25.473859"><ele>160.5</ele></trkpt>
   <trkpt lat="54.709834" lon="25.474599"><ele>161</ele></trkpt>
   <trkpt lat="54.710184" lon="25.475206"><ele>161.75</ele></trkpt>
   <trkpt lat="54.710629" lon="25.476013"><ele>162.5</ele></trkpt>
   <trkpt lat="54.711131" lon="25.476989"><ele>162.25</ele></trkpt>
   <trkpt lat="54.711548" lon="25.477888"><ele>160.25</ele></trkpt>
   <trkpt lat="54.711971" lon="25.478858"><ele>161.25</ele></trkpt>
   <trkpt lat="54.718624" lon="25.494651"><ele>161.5</ele></trkpt>
   <trkpt lat="54.718972" lon="25.495427"><ele>162</ele></trkpt>
   <trkpt lat="54.719344" lon="25.496194"><ele>161.5</ele></trkpt>
   <trkpt lat="54.719716" lon="25.496902"><ele>160.75</ele></trkpt>
   <trkpt lat="54.719952" lon="25.497319"><ele>161</ele></trkpt>
   <trkpt lat="54.720233" lon="25.497774"><ele>161.75</ele></trkpt>
   <trkpt lat="54.720495" lon="25.498173"><ele>162.25</ele></trkpt>
   <trkpt lat="54.721194" lon="25.499007"><ele>167.75</ele></trkpt>
   <trkpt lat="54.722773" lon="25.500757"><ele>168</ele></trkpt>
   <trkpt lat="54.723608" lon="25.50153"><ele>164.75</ele></trkpt>
   <trkpt lat="54.724541" lon="25.502151"><ele>166.25</ele></trkpt>
   <trkpt lat="54.725691" lon="25.50269"><ele>166.75</ele></trkpt>
   <trkpt lat="54.733466" lon="25.505339"><ele>161.75</ele></trkpt>
   <trkpt lat="54.737106" lon="25.506499"><ele>162.25</ele></trkpt>
   <trkpt lat="54.740353" lon="25.507392"><ele>162</ele></trkpt>
   <trkpt lat="54.746267" lon="25.50907"><ele>157.75</ele></trkpt>
   <trkpt lat="54.748462" lon="25.509647"><ele>153.75</ele></trkpt>
   <trkpt lat="54.749268" lon="25.509956"><ele>152</ele></trkpt>
   <trkpt lat="54.749968" lon="25.510241"><ele>152</ele></trkpt>
   <trkpt lat="54.750709" lon="25.510568"><ele>152</ele></trkpt>
   <trkpt lat="54.751615" lon="25.511013"><ele>151.75</ele></trkpt>
   <trkpt lat="54.755392" lon="25.512933"><ele>150.75</ele></trkpt>
   <trkpt lat="54.762268" lon="25.516474"><ele>147.25</ele></trkpt>
   <trkpt lat="54.764414" lon="25.517567"><ele>149.75</ele></trkpt>
   <trkpt lat="54.765364" lon="25.517835"><ele>149</ele></trkpt>
   <trkpt lat="54.766403" lon="25.518048"><ele>148.25</ele></trkpt>
   <trkpt lat="54.767455" lon="25.518177"><ele>145.5</ele></trkpt>
   <trkpt lat="54.772061" lon="25.517987"><ele>139.5</ele></trkpt>
   <trkpt lat="54.778347" lon="25.51766"><ele>144.5</ele></trkpt>
   <trkpt lat="54.783488" lon="25.517409"><ele>148.5</ele></trkpt>
   <trkpt lat="54.796472" lon="25.516726"><ele>137.25</ele></trkpt>
   <trkpt lat="54.797281" lon="25.516725"><ele>136</ele></trkpt>
   <trkpt lat="54.797778" lon="25.516785"><ele>135</ele></trkpt>
   <trkpt lat="54.798194" lon="25.516855"><ele>133.5</ele></trkpt>
   <trkpt lat="54.79861" lon="25.516965"><ele>133.5</ele></trkpt>
   <trkpt lat="54.799109" lon="25.51711"><ele>134.25</ele></trkpt>
   <trkpt lat="54.799449" lon="25.51723"><ele>136</ele></trkpt>
   <trkpt lat="54.800157" lon="25.517558"><ele>139</ele></trkpt>
   <trkpt lat="54.800788" lon="25.517933"><ele>139</ele></trkpt>
   <trkpt lat="54.801633" lon="25.518516"><ele>139.25</ele></trkpt>
   <trkpt lat="54.802346" lon="25.519055"><ele>141.5</ele></trkpt>
   <trkpt lat="54.80509" lon="25.521077"><ele>140.75</ele></trkpt>
   <trkpt lat="54.810594" lon="25.52521"><ele>140.75</ele></trkpt>
   <trkpt lat="54.813716" lon="25.527547"><ele>145.5</ele></trkpt>
   <trkpt lat="54.814372" lon="25.528028"><ele>142.75</ele></trkpt>
   <trkpt lat="54.815303" lon="25.528723"><ele>144</ele></trkpt>
   <trkpt lat="54.817203" lon="25.530142"><ele>144.5</ele></trkpt>
   <trkpt lat="54.821589" lon="25.533408"><ele>138.5</ele></trkpt>
   <trkpt lat="54.822908" lon="25.534432"><ele>134.75</ele></trkpt>
   <trkpt lat="54.823883" lon="25.535156"><ele>130.25</ele></trkpt>
   <trkpt lat="54.824429" lon="25.535585"><ele>129.75</ele></trkpt>
   <trkpt lat="54.828437" lon="25.538524"><ele>140.25</ele></trkpt>
   <trkpt lat="54.829515" lon="25.539189"><ele>141.5</ele></trkpt>
   <trkpt lat="54.838203" lon="25.543826"><ele>136.25</ele></trkpt>
   <trkpt lat="54.838594" lon="25.544046"><ele>137.75</ele></trkpt>
   <trkpt lat="54.838903" lon="25.544233"><ele>138.75</ele></trkpt>
   <trkpt lat="54.839549" lon="25.544658"><ele>138</ele></trkpt>
   <trkpt lat="54.840307" lon="25.545282"><ele>139.75</ele></trkpt>
   <trkpt lat="54.840575" lon="25.545535"><ele>141.5</ele></trkpt>
   <trkpt lat="54.841101" lon="25.54606"><ele>142.5</ele></trkpt>
   <trkpt lat="54.841918" lon="25.54698"><ele>141.5</ele></trkpt>
   <trkpt lat="54.842538" lon="25.547814"><ele>140.5</ele></trkpt>
   <trkpt lat="54.84596" lon="25.553279"><ele>141.5</ele></trkpt>
   <trkpt lat="54.846638" lon="25.554313"><ele>140.75</ele></trkpt>
   <trkpt lat="54.847619" lon="25.555704"><ele>138.5</ele></trkpt>
   <trkpt lat="54.848774" lon="25.557195"><ele>132.75</ele></trkpt>
   <trkpt lat="54.849651" lon="25.55829"><ele>133.75</ele></trkpt>
   <trkpt lat="54.850838" lon="25.559467"><ele>138</ele></trkpt>
   <trkpt lat="54.851159" lon="25.55973"><ele>138.25</ele></trkpt>
   <trkpt lat="54.852523" lon="25.560722"><ele>138</ele></trkpt>
   <trkpt lat="54.860175" lon="25.566012"><ele>128.25</ele></trkpt>
   <trkpt lat="54.860769" lon="25.566507"><ele>129.5</ele></trkpt>
   <trkpt lat="54.86119" lon="25.566902"><ele>130.5</ele></trkpt>
   <trkpt lat="54.862394" lon="25.568239"><ele>131.5</ele></trkpt>
   <trkpt lat="54.86242" lon="25.568271"><ele>131.5</ele></trkpt>
   <trkpt lat="54.862719" lon="25.568635"><ele>131.75</ele></trkpt>
   <trkpt lat="54.862949" lon="25.568898"><ele>132</ele></trkpt>
   <trkpt lat="54.863286" lon="25.569318"><ele>132.5</ele></trkpt>
   <trkpt lat="54.863705" lon="25.569944"><ele>132</ele></trkpt>
   <trkpt lat="54.86397" lon="25.570377"><ele>131.75</ele></trkpt>
   <trkpt lat="54.864247" lon="25.570872"><ele>131.5</ele></trkpt>
   <trkpt lat="54.864614" lon="25.571578"><ele>131.25</ele></trkpt>
   <trkpt lat="54.865251" lon="25.57287"><ele>132.25</ele></trkpt>
   <trkpt lat="54.867793" lon="25.578356"><ele>131.25</ele></trkpt>
   <trkpt lat="54.869949" lon="25.583041"><ele>135</ele></trkpt>
   <trkpt lat="54.870428" lon="25.584041"><ele>133.25</ele></trkpt>
   <trkpt lat="54.870667" lon="25.584507"><ele>132.25</ele></trkpt>
   <trkpt lat="54.87078" lon="25.584712"><ele>131.5</ele></trkpt>
   <trkpt lat="54.872623" lon="25.58766"><ele>133</ele></trkpt>
   <trkpt lat="54.874541" lon="25.589967"><ele>136</ele></trkpt>
   <trkpt lat="54.876416" lon="25.591952"><ele>133.75</ele></trkpt>
   <trkpt lat="54.877835" lon="25.594004"><ele>133.75</ele></trkpt>
   <trkpt lat="54.878636" lon="25.595653"><ele>134.25</ele></trkpt>
   <trkpt lat="54.879993" lon="25.598828"><ele>132</ele></trkpt>
   <trkpt lat="54.880655" lon="25.60055"><ele>131.5</ele></trkpt>
   <trkpt lat="54.881395" lon="25.602731"><ele>130.5</ele></trkpt>
   <trkpt lat="54.882028" lon="25.604906"><ele>132.5</ele></trkpt>
   <trkpt lat="54.882394" lon="25.606409"><ele>130.25</ele></trkpt>
   <trkpt lat="54.883098" lon="25.609766"><ele>130.25</ele></trkpt>
   <trkpt lat="54.884053" lon="25.614463"><ele>126.5</ele></trkpt>
   <trkpt lat="54.885694" lon="25.622611"><ele>127.5</ele></trkpt>
   <trkpt lat="54.886448" lon="25.626322"><ele>124</ele></trkpt>
   <trkpt lat="54.886737" lon="25.627685"><ele>123</ele></trkpt>
   <trkpt lat="54.887015" lon="25.628849"><ele>123.25</ele></trkpt>
   <trkpt lat="54.887417" lon="25.630209"><ele>123</ele></trkpt>
   <trkpt lat="54.888048" lon="25.631966"><ele>123.5</ele></trkpt>
   <trkpt lat="54.888746" lon="25.633495"><ele>124</ele></trkpt>
   <trkpt lat="54.889226" lon="25.634393"><ele>124.25</ele></trkpt>
   <trkpt lat="54.889716" lon="25.63522"><ele>126</ele></trkpt>
   <trkpt lat="54.89048" lon="25.636325"><ele>127.5</ele></trkpt>
   <trkpt lat="54.89131" lon="25.63728"><ele>129.25</ele></trkpt>
   <trkpt lat="54.892006" lon="25.637991"><ele>129.25</ele></trkpt>
   <trkpt lat="54.893296" lon="25.638982"><ele>130.75</ele></trkpt>
   <trkpt lat="54.899283" lon="25.642713"><ele>112.25</ele></trkpt>
   <trkpt lat="54.900185" lon="25.643218"><ele>108.5</ele></trkpt>
   <trkpt lat="54.903489" lon="25.644901"><ele>122.5</ele></trkpt>
   <trkpt lat="54.912447" lon="25.649971"><ele>125</ele></trkpt>
   <trkpt lat="54.930755" lon="25.660395"><ele>125.75</ele></trkpt>
   <trkpt lat="54.933081" lon="25.661684"><ele>125.5</ele></trkpt>
   <trkpt lat="54.933145" lon="25.661719"><ele>125.5</ele></trkpt>
   <trkpt lat="54.93948" lon="25.665335"><ele>124.25</ele></trkpt>
   <trkpt lat="54.93989" lon="25.665582"><ele>124.5</ele></trkpt>
   <trkpt lat="54.940659" lon="25.666203"><ele>123.75</ele></trkpt>
   <trkpt lat="54.941183" lon="25.666694"><ele>123</ele></trkpt>
   <trkpt lat="54.941609" lon="25.667147"><ele>121.5</ele></trkpt>
   <trkpt lat="54.942051" lon="25.667687"><ele>120</ele></trkpt>
   <trkpt lat="54.942723" lon="25.668611"><ele>118.75</ele></trkpt>
   <trkpt lat="54.942809" lon="25.668743"><ele>118.75</ele></trkpt>
   <trkpt lat="54.943108" lon="25.669254"><ele>118</ele></trkpt>
   <trkpt lat="54.943411" lon="25.669792"><ele>116.75</ele></trkpt>
   <trkpt lat="54.943716" lon="25.670395"><ele>118.25</ele></trkpt>
   <trkpt lat="54.944002" lon="25.671026"><ele>120</ele></trkpt>
   <trkpt lat="54.944294" lon="25.67175"><ele>121.25</ele></trkpt>
   <trkpt lat="54.944486" lon="25.672262"><ele>122.25</ele></trkpt>
   <trkpt lat="54.944679" lon="25.67283"><ele>122</ele></trkpt>
   <trkpt lat="54.944889" lon="25.67351"><ele>120.5</ele></trkpt>
   <trkpt lat="54.945165" lon="25.674514"><ele>120</ele></trkpt>
   <trkpt lat="54.947135" lon="25.681981"><ele>125.5</ele></trkpt>
   <trkpt lat="54.947728" lon="25.684096"><ele>126</ele></trkpt>
   <trkpt lat="54.948081" lon="25.68519"><ele>126.75</ele></trkpt>
   <trkpt lat="54.94865" lon="25.686739"><ele>128.5</ele></trkpt>
   <trkpt lat="54.949346" lon="25.688414"><ele>125.5</ele></trkpt>
   <trkpt lat="54.950106" lon="25.69004"><ele>125.25</ele></trkpt>
   <trkpt lat="54.950955" lon="25.691663"><ele>127.5</ele></trkpt>
   <trkpt lat="54.952897" lon="25.694794"><ele>127</ele></trkpt>
   <trkpt lat="54.955197" lon="25.698378"><ele>125.25</ele></trkpt>
   <trkpt lat="54.955949" lon="25.699827"><ele>125.75</ele></trkpt>
   <trkpt lat="54.956604" lon="25.701336"><ele>124.25</ele></trkpt>
   <trkpt lat="54.957464" lon="25.703534"><ele>120.5</ele></trkpt>
   <trkpt lat="54.95926" lon="25.70994"><ele>120</ele></trkpt>
   <trkpt lat="54.95953" lon="25.711055"><ele>121.75</ele></trkpt>
   <trkpt lat="54.959717" lon="25.712076"><ele>122.25</ele></trkpt>
   <trkpt lat="54.961431" lon="25.723904"><ele>129.5</ele></trkpt>
   <trkpt lat="54.961562" lon="25.724745"><ele>129</ele></trkpt>
   <trkpt lat="54.961737" lon="25.725692"><ele>128.25</ele></trkpt>
   <trkpt lat="54.961929" lon="25.726555"><ele>130</ele></trkpt>
   <trkpt lat="54.962175" lon="25.727473"><ele>129.25</ele></trkpt>
   <trkpt lat="54.962426" lon="25.728295"><ele>124.75</ele></trkpt>
   <trkpt lat="54.967819" lon="25.745346"><ele>126.25</ele></trkpt>
   <trkpt lat="54.968868" lon="25.748141"><ele>128.75</ele></trkpt>
   <trkpt lat="54.97096" lon="25.75255"><ele>122.75</ele></trkpt>
   <trkpt lat="54.971187" lon="25.753028"><ele>124</ele></trkpt>
   <trkpt lat="54.971492" lon="25.753713"><ele>125</ele></trkpt>
   <trkpt lat="54.971811" lon="25.754548"><ele>124.5</ele></trkpt>
   <trkpt lat="54.971947" lon="25.754861"><ele>124</ele></trkpt>
   <trkpt lat="54.972128" lon="25.755257"><ele>123.25</ele></trkpt>
   <trkpt lat="54.97239" lon="25.755949"><ele>122.5</ele></trkpt>
   <trkpt lat="54.972655" lon="25.756531"><ele>122</ele></trkpt>
   <trkpt lat="54.974496" lon="25.760554"><ele>123.5</ele></trkpt>
   <trkpt lat="54.97671" lon="25.765399"><ele>122.25</ele></trkpt>
   <trkpt lat="54.976911" lon="25.765843"><ele>122.5</ele></trkpt>
   <trkpt lat="54.977219" lon="25.766392"><ele>123</ele></trkpt>
   <trkpt lat="54.977601" lon="25.76707"><ele>123.75</ele></trkpt>
   <trkpt lat="54.978746" lon="25.769544"><ele>124.5</ele></trkpt>
   <trkpt lat="54.980093" lon="25.77202"><ele>122</ele></trkpt>
   <trkpt lat="54.982085" lon="25.775564"><ele>123.75</ele></trkpt>
   <trkpt lat="54.984575" lon="25.77997"><ele>126.25</ele></trkpt>
   <trkpt lat="54.985013" lon="25.780782"><ele>124.75</ele></trkpt>
   <trkpt lat="54.985334" lon="25.781413"><ele>125.5</ele></trkpt>
   <trkpt lat="54.98565" lon="25.782067"><ele>125.75</ele></trkpt>
   <trkpt lat="54.985922" lon="25.782694"><ele>126</ele></trkpt>
   <trkpt lat="54.986235" lon="25.783379"><ele>126</ele></trkpt>
   <trkpt lat="54.986537" lon="25.784181"><ele>125.5</ele></trkpt>
   <trkpt lat="54.990131" lon="25.795348"><ele>134</ele></trkpt>
   <trkpt lat="54.993116" lon="25.802393"><ele>126.25</ele></trkpt>
   <trkpt lat="54.99495" lon="25.807175"><ele>132.25</ele></trkpt>
   <trkpt lat="55.000056" lon="25.821359"><ele>134.5</ele></trkpt>
   <trkpt lat="55.000676" lon="25.822664"><ele>135.25</ele></trkpt>
   <trkpt lat="55.001384" lon="25.823988"><ele>136.25</ele></trkpt>
   <trkpt lat="55.003643" lon="25.827555"><ele>134.75</ele></trkpt>
   <trkpt lat="55.021161" lon="25.855763"><ele>131.75</ele></trkpt>
   <trkpt lat="55.021967" lon="25.85699"><ele>128.75</ele></trkpt>
   <trkpt lat="55.022146" lon="25.857284"><ele>129.5</ele></trkpt>
   <trkpt lat="55.026485" lon="25.864259"><ele>132.5</ele></trkpt>
   <trkpt lat="55.0269" lon="25.864934"><ele>131.5</ele></trkpt>
   <trkpt lat="55.030258" lon="25.870299"><ele>132.5</ele></trkpt>
   <trkpt lat="55.031078" lon="25.871479"><ele>132</ele></trkpt>
   <trkpt lat="55.031672" lon="25.87234"><ele>130.75</ele></trkpt>
   <trkpt lat="55.032452" lon="25.873322"><ele>125.25</ele></trkpt>
   <trkpt lat="55.033404" lon="25.874446"><ele>123</ele></trkpt>
   <trkpt lat="55.034056" lon="25.87517"><ele>126</ele></trkpt>
   <trkpt lat="55.034867" lon="25.876017"><ele>130</ele></trkpt>
   <trkpt lat="55.037704" lon="25.878719"><ele>133.25</ele></trkpt>
   <trkpt lat="55.051172" lon="25.891599"><ele>131.5</ele></trkpt>
   <trkpt lat="55.051394" lon="25.891813"><ele>131.5</ele></trkpt>
   <trkpt lat="55.070421" lon="25.910029"><ele>137.25</ele></trkpt>
   <trkpt lat="55.074589" lon="25.914039"><ele>141.25</ele></trkpt>
   <trkpt lat="55.075076" lon="25.914564"><ele>140</ele></trkpt>
   <trkpt lat="55.075554" lon="25.91513"><ele>139.75</ele></trkpt>
   <trkpt lat="55.076391" lon="25.91625"><ele>140</ele></trkpt>
   <trkpt lat="55.077102" lon="25.917342"><ele>138.5</ele></trkpt>
   <trkpt lat="55.077782" lon="25.918545"><ele>137.75</ele></trkpt>
   <trkpt lat="55.08349" lon="25.929572"><ele>133.75</ele></trkpt>
   <trkpt lat="55.089425" lon="25.941059"><ele>139.25</ele></trkpt>
   <trkpt lat="55.090481" lon="25.942651"><ele>141</ele></trkpt>
   <trkpt lat="55.091729" lon="25.944101"><ele>140</ele></trkpt>
   <trkpt lat="55.092859" lon="25.945083"><ele>141</ele></trkpt>
   <trkpt lat="55.100797" lon="25.950527"><ele>134</ele></trkpt>
   <trkpt lat="55.102702" lon="25.951842"><ele>134.25</ele></trkpt>
   <trkpt lat="55.103595" lon="25.95256"><ele>138.5</ele></trkpt>
   <trkpt lat="55.104411" lon="25.953256"><ele>140.75</ele></trkpt>
   <trkpt lat="55.105565" lon="25.954316"><ele>142</ele></trkpt>
   <trkpt lat="55.1066" lon="25.955403"><ele>141.75</ele></trkpt>
   <trkpt lat="55.108236" lon="25.957293"><ele>142.75</ele></trkpt>
   <trkpt lat="55.109928" lon="25.95943"><ele>142</ele></trkpt>
   <trkpt lat="55.1176" lon="25.968934"><ele>142.25</ele></trkpt>
   <trkpt lat="55.118671" lon="25.970041"><ele>142.5</ele></trkpt>
   <trkpt lat="55.119239" lon="25.970506"><ele>144.5</ele></trkpt>
   <trkpt lat="55.11987" lon="25.970957"><ele>145</ele></trkpt>
   <trkpt lat="55.120489" lon="25.971353"><ele>141</ele></trkpt>
   <trkpt lat="55.121216" lon="25.971658"><ele>137</ele></trkpt>
   <trkpt lat="55.124971" lon="25.97296"><ele>134.5</ele></trkpt>
   <trkpt lat="55.126991" lon="25.973622"><ele>136</ele></trkpt>
   <trkpt lat="55.127842" lon="25.974081"><ele>137.25</ele></trkpt>
   <trkpt lat="55.128598" lon="25.974619"><ele>138.75</ele></trkpt>
   <trkpt lat="55.129211" lon="25.975146"><ele>139.25</ele></trkpt>
   <trkpt lat="55.129905" lon="25.975882"><ele>142.25</ele></trkpt>
   <trkpt lat="55.130985" lon="25.977195"><ele>142.5</ele></trkpt>
   <trkpt lat="55.132166" lon="25.978654"><ele>141.25</ele></trkpt>
   <trkpt lat="55.133347" lon="25.980057"><ele>137.25</ele></trkpt>
   <trkpt lat="55.133952" lon="25.980712"><ele>141.25</ele></trkpt>
   <trkpt lat="55.134366" lon="25.981109"><ele>142.25</ele></trkpt>
   <trkpt lat="55.134763" lon="25.981431"><ele>142</ele></trkpt>
   <trkpt lat="55.135311" lon="25.981843"><ele>142</ele></trkpt>
   <trkpt lat="55.143213" lon="25.987105"><ele>147</ele></trkpt>
   <trkpt lat="55.14407" lon="25.987623"><ele>147</ele></trkpt>
   <trkpt lat="55.144622" lon="25.98791"><ele>145.25</ele></trkpt>
   <trkpt lat="55.145182" lon="25.988148"><ele>143.25</ele></trkpt>
   <trkpt lat="55.146285" lon="25.988581"><ele>141</ele></trkpt>
   <trkpt lat="55.147978" lon="25.989045"><ele>141.25</ele></trkpt>
   <trkpt lat="55.152512" lon="25.990271"><ele>147.25</ele></trkpt>
   <trkpt lat="55.155564" lon="25.99112"><ele>146</ele></trkpt>
   <trkpt lat="55.15599" lon="25.991243"><ele>145.5</ele></trkpt>
   <trkpt lat="55.156503" lon="25.991383"><ele>145.25</ele></trkpt>
   <trkpt lat="55.157093" lon="25.9916"><ele>145.5</ele></trkpt>
   <trkpt lat="55.157803" lon="25.991804"><ele>144.5</ele></trkpt>
   <trkpt lat="55.157854" lon="25.99182"><ele>144.5</ele></trkpt>
   <trkpt lat="55.15852" lon="25.991927"><ele>143.25</ele></trkpt>
   <trkpt lat="55.158573" lon="25.991942"><ele>143.25</ele></trkpt>
   <trkpt lat="55.165181" lon="25.993766"><ele>144</ele></trkpt>
   <trkpt lat="55.168073" lon="25.994569"><ele>145.5</ele></trkpt>
   <trkpt lat="55.168504" lon="25.994676"><ele>145.25</ele></trkpt>
   <trkpt lat="55.168535" lon="25.994683"><ele>145.25</ele></trkpt>
   <trkpt lat="55.16977" lon="25.995021"><ele>144.25</ele></trkpt>
   <trkpt lat="55.171277" lon="25.995433"><ele>145.25</ele></trkpt>
   <trkpt lat="55.171928" lon="25.995609"><ele>148.5</ele></trkpt>
   <trkpt lat="55.173148" lon="25.995909"><ele>152.75</ele></trkpt>
   <trkpt lat="55.176386" lon="25.996827"><ele>151.25</ele></trkpt>
   <trkpt lat="55.176652" lon="25.996911"><ele>152.5</ele></trkpt>
   <trkpt lat="55.179038" lon="25.997528"><ele>152.75</ele></trkpt>
   <trkpt lat="55.179545" lon="25.997576"><ele>151.25</ele></trkpt>
   <trkpt lat="55.180031" lon="25.99759"><ele>149</ele></trkpt>
   <trkpt lat="55.180387" lon="25.997568"><ele>149.75</ele></trkpt>
   <trkpt lat="55.180974" lon="25.997491"><ele>152.25</ele></trkpt>
   <trkpt lat="55.1817" lon="25.997315"><ele>158.5</ele></trkpt>
   <trkpt lat="55.183371" lon="25.996873"><ele>159.5</ele></trkpt>
   <trkpt lat="55.186861" lon="25.995998"><ele>163.75</ele></trkpt>
   <trkpt lat="55.187505" lon="25.99591"><ele>164.75</ele></trkpt>
   <trkpt lat="55.188125" lon="25.995881"><ele>165.5</ele></trkpt>
   <trkpt lat="55.188526" lon="25.995884"><ele>165.5</ele></trkpt>
   <trkpt lat="55.188966" lon="25.995944"><ele>165</ele></trkpt>
   <trkpt lat="55.18946" lon="25.996066"><ele>164.25</ele></trkpt>
   <trkpt lat="55.190168" lon="25.996302"><ele>163.25</ele></trkpt>
   <trkpt lat="55.190576" lon="25.996485"><ele>162</ele></trkpt>
   <trkpt lat="55.191074" lon="25.996729"><ele>160.25</ele></trkpt>
   <trkpt lat="55.200465" lon="26.002756"><ele>161</ele></trkpt>
   <trkpt lat="55.201328" lon="26.003166"><ele>161.25</ele></trkpt>
   <trkpt lat="55.202334" lon="26.003442"><ele>164.25</ele></trkpt>
   <trkpt lat="55.210155" lon="26.005464"><ele>164.25</ele></trkpt>
   <trkpt lat="55.210985" lon="26.005781"><ele>156</ele></trkpt>
   <trkpt lat="55.211703" lon="26.006175"><ele>152.25</ele></trkpt>
   <trkpt lat="55.212471" lon="26.006731"><ele>159.75</ele></trkpt>
   <trkpt lat="55.217585" lon="26.011276"><ele>169</ele></trkpt>
   <trkpt lat="55.228994" lon="26.021655"><ele>163</ele></trkpt>
   <trkpt lat="55.229722" lon="26.022359"><ele>162.5</ele></trkpt>
   <trkpt lat="55.230364" lon="26.023036"><ele>163</ele></trkpt>
   <trkpt lat="55.231159" lon="26.024027"><ele>164</ele></trkpt>
   <trkpt lat="55.231796" lon="26.024908"><ele>164.25</ele></trkpt>
   <trkpt lat="55.232225" lon="26.02557"><ele>164.25</ele></trkpt>
   <trkpt lat="55.232631" lon="26.026237"><ele>165</ele></trkpt>
   <trkpt lat="55.233032" lon="26.026944"><ele>165</ele></trkpt>
   <trkpt lat="55.236669" lon="26.033802"><ele>159</ele></trkpt>
   <trkpt lat="55.240128" lon="26.040458"><ele>163.5</ele></trkpt>
   <trkpt lat="55.242759" lon="26.045257"><ele>159.75</ele></trkpt>
   <trkpt lat="55.243552" lon="26.046664"><ele>157.75</ele></trkpt>
   <trkpt lat="55.244191" lon="26.047642"><ele>158.75</ele></trkpt>
   <trkpt lat="55.244834" lon="26.048516"><ele>157</ele></trkpt>
   <trkpt lat="55.245608" lon="26.049408"><ele>157</ele></trkpt>
   <trkpt lat="55.248016" lon="26.051755"><ele>153.5</ele></trkpt>
   <trkpt lat="55.253432" lon="26.056883"><ele>151.25</ele></trkpt>
   <trkpt lat="55.254766" lon="26.058214"><ele>150.25</ele></trkpt>
   <trkpt lat="55.255613" lon="26.05919"><ele>151.5</ele></trkpt>
   <trkpt lat="55.256386" lon="26.060164"><ele>151</ele></trkpt>
   <trkpt lat="55.257082" lon="26.061158"><ele>150.5</ele></trkpt>
   <trkpt lat="55.259764" lon="26.065091"><ele>146</ele></trkpt>
   <trkpt lat="55.265977" lon="26.074242"><ele>156.5</ele></trkpt>
   <trkpt lat="55.266378" lon="26.074792"><ele>156</ele></trkpt>
   <trkpt lat="55.266769" lon="26.075294"><ele>156.25</ele></trkpt>
   <trkpt lat="55.267163" lon="26.075756"><ele>156.75</ele></trkpt>
   <trkpt lat="55.267654" lon="26.076239"><ele>155</ele></trkpt>
   <trkpt lat="55.268238" lon="26.076735"><ele>153</ele></trkpt>
   <trkpt lat="55.268619" lon="26.077014"><ele>152.75</ele></trkpt>
   <trkpt lat="55.269535" lon="26.077656"><ele>151.5</ele></trkpt>
   <trkpt lat="55.269683" lon="26.077759"><ele>151.75</ele></trkpt>
   <trkpt lat="55.270799" lon="26.07852"><ele>156.75</ele></trkpt>
   <trkpt lat="55.281307" lon="26.085835"><ele>159.75</ele></trkpt>
   <trkpt lat="55.286784" lon="26.089616"><ele>161.5</ele></trkpt>
   <trkpt lat="55.287896" lon="26.090398"><ele>159.25</ele></trkpt>
   <trkpt lat="55.288325" lon="26.09075"><ele>157.75</ele></trkpt>
   <trkpt lat="55.28869" lon="26.091069"><ele>157.75</ele></trkpt>
   <trkpt lat="55.289101" lon="26.091446"><ele>156</ele></trkpt>
   <trkpt lat="55.289573" lon="26.091926"><ele>155.75</ele></trkpt>
   <trkpt lat="55.29006" lon="26.092464"><ele>156</ele></trkpt>
   <trkpt lat="55.290687" lon="26.093222"><ele>156.25</ele></trkpt>
   <trkpt lat="55.307724" lon="26.115048"><ele>159.25</ele></trkpt>
   <trkpt lat="55.315149" lon="26.124569"><ele>156.25</ele></trkpt>
   <trkpt lat="55.320786" lon="26.131776"><ele>157.75</ele></trkpt>
   <trkpt lat="55.323014" lon="26.134648"><ele>160.5</ele></trkpt>
   <trkpt lat="55.323294" lon="26.135014"><ele>161</ele></trkpt>
   <trkpt lat="55.323561" lon="26.135406"><ele>161.5</ele></trkpt>
   <trkpt lat="55.323837" lon="26.135823"><ele>162</ele></trkpt>
   <trkpt lat="55.324092" lon="26.136233"><ele>162.5</ele></trkpt>
   <trkpt lat="55.324369" lon="26.136741"><ele>163.25</ele></trkpt>
   <trkpt lat="55.32464" lon="26.13727"><ele>165.5</ele></trkpt>
   <trkpt lat="55.3249" lon="26.137825"><ele>165.75</ele></trkpt>
   <trkpt lat="55.325209" lon="26.138572"><ele>166.25</ele></trkpt>
   <trkpt lat="55.326573" lon="26.142284"><ele>162.25</ele></trkpt>
   <trkpt lat="55.328906" lon="26.148774"><ele>160.5</ele></trkpt>
   <trkpt lat="55.329916" lon="26.151587"><ele>156.75</ele></trkpt>
   <trkpt lat="55.330266" lon="26.152519"><ele>157.25</ele></trkpt>
   <trkpt lat="55.330625" lon="26.153372"><ele>156</ele></trkpt>
   <trkpt lat="55.330954" lon="26.154037"><ele>156</ele></trkpt>
   <trkpt lat="55.331281" lon="26.154629"><ele>155.5</ele></trkpt>
   <trkpt lat="55.331672" lon="26.155267"><ele>155.5</ele></trkpt>
   <trkpt lat="55.332051" lon="26.15583"><ele>155.5</ele></trkpt>
   <trkpt lat="55.332721" lon="26.156679"><ele>156.25</ele></trkpt>
   <trkpt lat="55.333466" lon="26.157576"><ele>157</ele></trkpt>
   <trkpt lat="55.334057" lon="26.158295"><ele>158.75</ele></trkpt>
   <trkpt lat="55.336626" lon="26.161398"><ele>162.5</ele></trkpt>
   <trkpt lat="55.338141" lon="26.163229"><ele>161</ele></trkpt>
   <trkpt lat="55.338231" lon="26.163348"><ele>160.75</ele></trkpt>
   <trkpt lat="55.338456" lon="26.163622"><ele>160.5</ele></trkpt>
   <trkpt lat="55.339412" lon="26.164769"><ele>160.25</ele></trkpt>
   <trkpt lat="55.343283" lon="26.169565"><ele>161.25</ele></trkpt>
   <trkpt lat="55.343389" lon="26.1697"><ele>161.25</ele></trkpt>
   <trkpt lat="55.343571" lon="26.169912"><ele>161</ele></trkpt>
   <trkpt lat="55.343636" lon="26.169989"><ele>161</ele></trkpt>
   <trkpt lat="55.344559" lon="26.17108"><ele>159</ele></trkpt>
   <trkpt lat="55.344958" lon="26.171518"><ele>158</ele></trkpt>
   <trkpt lat="55.345379" lon="26.171924"><ele>157.75</ele></trkpt>
   <trkpt lat="55.345906" lon="26.172351"><ele>158.75</ele></trkpt>
   <trkpt lat="55.346398" lon="26.172673"><ele>157.25</ele></trkpt>
   <trkpt lat="55.346992" lon="26.172976"><ele>156.5</ele></trkpt>
   <trkpt lat="55.347598" lon="26.173193"><ele>155.5</ele></trkpt>
   <trkpt lat="55.34826" lon="26.173365"><ele>157.5</ele></trkpt>
   <trkpt lat="55.348881" lon="26.173405"><ele>161.25</ele></trkpt>
   <trkpt lat="55.349511" lon="26.173354"><ele>163.25</ele></trkpt>
   <trkpt lat="55.350515" lon="26.173122"><ele>166.25</ele></trkpt>
   <trkpt lat="55.351539" lon="26.172748"><ele>169.25</ele></trkpt>
   <trkpt lat="55.354039" lon="26.171594"><ele>170.5</ele></trkpt>
   <trkpt lat="55.358636" lon="26.169297"><ele>177.5</ele></trkpt>
   <trkpt lat="55.35921" lon="26.169066"><ele>177.75</ele></trkpt>
   <trkpt lat="55.359632" lon="26.168927"><ele>179</ele></trkpt>
   <trkpt lat="55.360161" lon="26.168809"><ele>180.25</ele></trkpt>
   <trkpt lat="55.360561" lon="26.168768"><ele>180.5</ele></trkpt>
   <trkpt lat="55.360977" lon="26.16876"><ele>181.25</ele></trkpt>
   <trkpt lat="55.361504" lon="26.168795"><ele>182.25</ele></trkpt>
   <trkpt lat="55.362047" lon="26.1689"><ele>182</ele></trkpt>
   <trkpt lat="55.362474" lon="26.169007"><ele>181.75</ele></trkpt>
   <trkpt lat="55.362939" lon="26.169179"><ele>182.5</ele></trkpt>
   <trkpt lat="55.363363" lon="26.169372"><ele>182.5</ele></trkpt>
   <trkpt lat="55.363815" lon="26.169637"><ele>182</ele></trkpt>
   <trkpt lat="55.365157" lon="26.17047"><ele>181.75</ele></trkpt>
   <trkpt lat="55.369749" lon="26.173836"><ele>182.25</ele></trkpt>
   <trkpt lat="55.382589" lon="26.18298"><ele>177.5</ele></trkpt>
   <trkpt lat="55.38963" lon="26.188013"><ele>184.25</ele></trkpt>
   <trkpt lat="55.393414" lon="26.190725"><ele>182</ele></trkpt>
   <trkpt lat="55.394838" lon="26.191758"><ele>178.5</ele></trkpt>
   <trkpt lat="55.395547" lon="26.192332"><ele>176.75</ele></trkpt>
   <trkpt lat="55.396077" lon="26.192806"><ele>175.75</ele></trkpt>
   <trkpt lat="55.396665" lon="26.193367"><ele>172.75</ele></trkpt>
   <trkpt lat="55.4013" lon="26.198187"><ele>163.5</ele></trkpt>
   <trkpt lat="55.405424" lon="26.202516"><ele>169</ele></trkpt>
   <trkpt lat="55.406758" lon="26.204083"><ele>168</ele></trkpt>
   <trkpt lat="55.407958" lon="26.205828"><ele>165.5</ele></trkpt>
   <trkpt lat="55.408848" lon="26.20779"><ele>164.75</ele></trkpt>
   <trkpt lat="55.410991" lon="26.213178"><ele>163</ele></trkpt>
   <trkpt lat="55.412489" lon="26.215662"><ele>162</ele></trkpt>
   <trkpt lat="55.413471" lon="26.216981"><ele>162.5</ele></trkpt>
   <trkpt lat="55.414155" lon="26.217776"><ele>163.25</ele></trkpt>
   <trkpt lat="55.417032" lon="26.220861"><ele>164.75</ele></trkpt>
   <trkpt lat="55.417347" lon="26.221197"><ele>164.25</ele></trkpt>
   <trkpt lat="55.420365" lon="26.2244"><ele>165</ele></trkpt>
   <trkpt lat="55.420923" lon="26.224942"><ele>163.5</ele></trkpt>
   <trkpt lat="55.421527" lon="26.225441"><ele>163.5</ele></trkpt>
   <trkpt lat="55.422164" lon="26.225867"><ele>165</ele></trkpt>
   <trkpt lat="55.42288" lon="26.226224"><ele>165.75</ele></trkpt>
   <trkpt lat="55.423225" lon="26.226361"><ele>166</ele></trkpt>
   <trkpt lat="55.423986" lon="26.226571"><ele>165.5</ele></trkpt>
   <trkpt lat="55.425287" lon="26.226628"><ele>162.75</ele></trkpt>
   <trkpt lat="55.426718" lon="26.226276"><ele>160.5</ele></trkpt>
   <trkpt lat="55.428229" lon="26.225867"><ele>156.75</ele></trkpt>
   <trkpt lat="55.433993" lon="26.224105"><ele>163.25</ele></trkpt>
   <trkpt lat="55.434728" lon="26.224002"><ele>164.75</ele></trkpt>
   <trkpt lat="55.435787" lon="26.223988"><ele>164</ele></trkpt>
   <trkpt lat="55.442093" lon="26.224463"><ele>158.75</ele></trkpt>
   <trkpt lat="55.444542" lon="26.224761"><ele>160.25</ele></trkpt>
   <trkpt lat="55.445479" lon="26.224921"><ele>158.5</ele></trkpt>
   <trkpt lat="55.446514" lon="26.225209"><ele>158.25</ele></trkpt>
   <trkpt lat="55.455999" lon="26.229706"><ele>155.5</ele></trkpt>
   <trkpt lat="55.457281" lon="26.23037"><ele>154</ele></trkpt>
   <trkpt lat="55.45884" lon="26.23147"><ele>154</ele></trkpt>
   <trkpt lat="55.460456" lon="26.233021"><ele>157</ele></trkpt>
   <trkpt lat="55.4637" lon="26.236166"><ele>155.75</ele></trkpt>
   <trkpt lat="55.466518" lon="26.238877"><ele>154.5</ele></trkpt>
   <trkpt lat="55.468166" lon="26.240437"><ele>155.5</ele></trkpt>
   <trkpt lat="55.468593" lon="26.240772"><ele>155.25</ele></trkpt>
   <trkpt lat="55.469007" lon="26.241049"><ele>154.5</ele></trkpt>
   <trkpt lat="55.469452" lon="26.241303"><ele>152.25</ele></trkpt>
   <trkpt lat="55.470128" lon="26.241582"><ele>149</ele></trkpt>
   <trkpt lat="55.470756" lon="26.241768"><ele>149.25</ele></trkpt>
   <trkpt lat="55.471658" lon="26.241902"><ele>149.5</ele></trkpt>
   <trkpt lat="55.475746" lon="26.241863"><ele>146.5</ele></trkpt>
   <trkpt lat="55.4759" lon="26.241855"><ele>146</ele></trkpt>
   <trkpt lat="55.476578" lon="26.241837"><ele>144</ele></trkpt>
   <trkpt lat="55.477221" lon="26.241864"><ele>144</ele></trkpt>
   <trkpt lat="55.477633" lon="26.241907"><ele>144.25</ele></trkpt>
   <trkpt lat="55.47803" lon="26.241974"><ele>145.25</ele></trkpt>
   <trkpt lat="55.47844" lon="26.242071"><ele>146.25</ele></trkpt>
   <trkpt lat="55.478931" lon="26.242215"><ele>147.25</ele></trkpt>
   <trkpt lat="55.485757" lon="26.244498"><ele>146.25</ele></trkpt>
   <trkpt lat="55.486286" lon="26.244688"><ele>147</ele></trkpt>
   <trkpt lat="55.486579" lon="26.244809"><ele>147.5</ele></trkpt>
   <trkpt lat="55.486901" lon="26.244962"><ele>148.5</ele></trkpt>
   <trkpt lat="55.487258" lon="26.245158"><ele>149</ele></trkpt>
   <trkpt lat="55.487771" lon="26.245498"><ele>148.5</ele></trkpt>
   <trkpt lat="55.488178" lon="26.245815"><ele>147.25</ele></trkpt>
   <trkpt lat="55.488576" lon="26.246166"><ele>146.5</ele></trkpt>
   <trkpt lat="55.488901" lon="26.246488"><ele>146</ele></trkpt>
   <trkpt lat="55.489214" lon="26.246845"><ele>146</ele></trkpt>
   <trkpt lat="55.489617" lon="26.247333"><ele>145.75</ele></trkpt>
   <trkpt lat="55.489852" lon="26.24765"><ele>145.5</ele></trkpt>
   <trkpt lat="55.490129" lon="26.248055"><ele>145.75</ele></trkpt>
   <trkpt lat="55.490445" lon="26.248567"><ele>146.5</ele></trkpt>
   <trkpt lat="55.490772" lon="26.249138"><ele>147.75</ele></trkpt>
   <trkpt lat="55.491068" lon="26.249728"><ele>148.75</ele></trkpt>
   <trkpt lat="55.491342" lon="26.250329"><ele>149.5</ele></trkpt>
   <trkpt lat="55.491664" lon="26.251115"><ele>150.25</ele></trkpt>
   <trkpt lat="55.492009" lon="26.252035"><ele>150.25</ele></trkpt>
   <trkpt lat="55.492999" lon="26.254809"><ele>148.75</ele></trkpt>
   <trkpt lat="55.494652" lon="26.259334"><ele>151.5</ele></trkpt>
   <trkpt lat="55.496475" lon="26.263692"><ele>149.5</ele></trkpt>
   <trkpt lat="55.499851" lon="26.271304"><ele>148.75</ele></trkpt>
   <trkpt lat="55.501419" lon="26.274928"><ele>148</ele></trkpt>
   <trkpt lat="55.502377" lon="26.277339"><ele>147.75</ele></trkpt>
   <trkpt lat="55.503095" lon="26.279676"><ele>149</ele></trkpt>
   <trkpt lat="55.506709" lon="26.293652"><ele>146.75</ele></trkpt>
   <trkpt lat="55.507727" lon="26.297692"><ele>151.25</ele></trkpt>
   <trkpt lat="55.510534" lon="26.308835"><ele>154.5</ele></trkpt>
   <trkpt lat="55.511727" lon="26.313629"><ele>156</ele></trkpt>
   <trkpt lat="55.512199" lon="26.31526"><ele>158.5</ele></trkpt>
   <trkpt lat="55.512716" lon="26.316458"><ele>159.5</ele></trkpt>
   <trkpt lat="55.512996" lon="26.317044"><ele>158.75</ele></trkpt>
   <trkpt lat="55.513405" lon="26.317812"><ele>157.25</ele></trkpt>
   <trkpt lat="55.513749" lon="26.318405"><ele>156.25</ele></trkpt>
   <trkpt lat="55.513838" lon="26.318576"><ele>156.25</ele></trkpt>
   <trkpt lat="55.514188" lon="26.319252"><ele>155.75</ele></trkpt>
   <trkpt lat="55.514543" lon="26.319866"><ele>155.25</ele></trkpt>
   <trkpt lat="55.515047" lon="26.320729"><ele>156</ele></trkpt>
   <trkpt lat="55.515245" lon="26.321045"><ele>156.5</ele></trkpt>
   <trkpt lat="55.515518" lon="26.321443"><ele>156.5</ele></trkpt>
   <trkpt lat="55.515887" lon="26.321908"><ele>155.75</ele></trkpt>
   <trkpt lat="55.516188" lon="26.322225"><ele>156.25</ele></trkpt>
   <trkpt lat="55.517124" lon="26.323068"><ele>156</ele></trkpt>
   <trkpt lat="55.519617" lon="26.325207"><ele>159.25</ele></trkpt>
   <trkpt lat="55.520661" lon="26.326122"><ele>159</ele></trkpt>
   <trkpt lat="55.524567" lon="26.329499"><ele>157.25</ele></trkpt>
   <trkpt lat="55.525105" lon="26.329969"><ele>156.75</ele></trkpt>
   <trkpt lat="55.525719" lon="26.330506"><ele>155.25</ele></trkpt>
   <trkpt lat="55.526332" lon="26.330936"><ele>154.75</ele></trkpt>
   <trkpt lat="55.527713" lon="26.332178"><ele>154.25</ele></trkpt>
   <trkpt lat="55.532526" lon="26.336396"><ele>160.5</ele></trkpt>
   <trkpt lat="55.541519" lon="26.344179"><ele>171.75</ele></trkpt>
   <trkpt lat="55.551082" lon="26.352495"><ele>177</ele></trkpt>
   <trkpt lat="55.552546" lon="26.353727"><ele>174.75</ele></trkpt>
   <trkpt lat="55.553404" lon="26.354326"><ele>172.75</ele></trkpt>
   <trkpt lat="55.554949" lon="26.355214"><ele>171.75</ele></trkpt>
   <trkpt lat="55.558928" lon="26.356402"><ele>175.75</ele></trkpt>
   <trkpt lat="55.5597" lon="26.356681"><ele>174</ele></trkpt>
   <trkpt lat="55.560151" lon="26.356883"><ele>172.5</ele></trkpt>
   <trkpt lat="55.560757" lon="26.357192"><ele>171.75</ele></trkpt>
   <trkpt lat="55.561241" lon="26.357473"><ele>170.25</ele></trkpt>
   <trkpt lat="55.562076" lon="26.358047"><ele>168.5</ele></trkpt>
   <trkpt lat="55.562403" lon="26.358283"><ele>167.25</ele></trkpt>
   <trkpt lat="55.562914" lon="26.358709"><ele>164.75</ele></trkpt>
   <trkpt lat="55.563526" lon="26.359275"><ele>162.5</ele></trkpt>
   <trkpt lat="55.564082" lon="26.359836"><ele>162</ele></trkpt>
   <trkpt lat="55.56454" lon="26.360345"><ele>162.25</ele></trkpt>
   <trkpt lat="55.565017" lon="26.360914"><ele>163</ele></trkpt>
   <trkpt lat="55.565531" lon="26.36159"><ele>164</ele></trkpt>
   <trkpt lat="55.570875" lon="26.369002"><ele>164.75</ele></trkpt>
   <trkpt lat="55.572906" lon="26.371822"><ele>165</ele></trkpt>
   <trkpt lat="55.574477" lon="26.373947"><ele>160.75</ele></trkpt>
   <trkpt lat="55.575405" lon="26.37513"><ele>157</ele></trkpt>
   <trkpt lat="55.576492" lon="26.376414"><ele>158</ele></trkpt>
   <trkpt lat="55.578125" lon="26.378241"><ele>161.25</ele></trkpt>
   <trkpt lat="55.583" lon="26.383797"><ele>165.75</ele></trkpt>
   <trkpt lat="55.590022" lon="26.391768"><ele>165.25</ele></trkpt>
   <trkpt lat="55.591373" lon="26.393425"><ele>166.25</ele></trkpt>
   <trkpt lat="55.592375" lon="26.394764"><ele>163.75</ele></trkpt>
   <trkpt lat="55.593351" lon="26.396145"><ele>162.5</ele></trkpt>
   <trkpt lat="55.59454" lon="26.397903"><ele>163.25</ele></trkpt>
   <trkpt lat="55.595506" lon="26.399344"><ele>162.5</ele></trkpt>
   <trkpt lat="55.596333" lon="26.400599"><ele>162.25</ele></trkpt>
   <trkpt lat="55.597945" lon="26.402991"><ele>161.75</ele></trkpt>
   <trkpt lat="55.598955" lon="26.404497"><ele>164</ele></trkpt>
   <trkpt lat="55.599656" lon="26.405469"><ele>163.75</ele></trkpt>
   <trkpt lat="55.600274" lon="26.406231"><ele>164.25</ele></trkpt>
   <trkpt lat="55.60094" lon="26.406958"><ele>164</ele></trkpt>
   <trkpt lat="55.601491" lon="26.407488"><ele>165</ele></trkpt>
   <trkpt lat="55.601913" lon="26.40786"><ele>164.25</ele></trkpt>
   <trkpt lat="55.602291" lon="26.408167"><ele>163.5</ele></trkpt>
   <trkpt lat="55.602674" lon="26.408448"><ele>162.5</ele></trkpt>
   <trkpt lat="55.60306" lon="26.408722"><ele>162</ele></trkpt>
   <trkpt lat="55.604678" lon="26.4098"><ele>160.25</ele></trkpt>
   <trkpt lat="55.613868" lon="26.416023"><ele>152</ele></trkpt>
   <trkpt lat="55.614007" lon="26.416119"><ele>151.25</ele></trkpt>
   <trkpt lat="55.621442" lon="26.421175"><ele>151.5</ele></trkpt>
   <trkpt lat="55.622864" lon="26.422098"><ele>152.75</ele></trkpt>
   <trkpt lat="55.623559" lon="26.422452"><ele>154.25</ele></trkpt>
   <trkpt lat="55.624442" lon="26.422819"><ele>155.25</ele></trkpt>
   <trkpt lat="55.625108" lon="26.42302"><ele>154</ele></trkpt>
   <trkpt lat="55.625879" lon="26.423179"><ele>151.5</ele></trkpt>
   <trkpt lat="55.626515" lon="26.423251"><ele>149.25</ele></trkpt>
   <trkpt lat="55.627239" lon="26.423278"><ele>149.25</ele></trkpt>
   <trkpt lat="55.627773" lon="26.423238"><ele>149.5</ele></trkpt>
   <trkpt lat="55.628352" lon="26.42316"><ele>149</ele></trkpt>
   <trkpt lat="55.630101" lon="26.422749"><ele>148.75</ele></trkpt>
   <trkpt lat="55.631706" lon="26.422328"><ele>155.75</ele></trkpt>
   <trkpt lat="55.632077" lon="26.42224"><ele>156</ele></trkpt>
   <trkpt lat="55.632486" lon="26.422173"><ele>156</ele></trkpt>
   <trkpt lat="55.632976" lon="26.422125"><ele>156</ele></trkpt>
   <trkpt lat="55.633465" lon="26.422133"><ele>155.5</ele></trkpt>
   <trkpt lat="55.633806" lon="26.422151"><ele>154.25</ele></trkpt>
   <trkpt lat="55.634168" lon="26.422194"><ele>152.75</ele></trkpt>
   <trkpt lat="55.634693" lon="26.422331"><ele>149.5</ele></trkpt>
   <trkpt lat="55.635374" lon="26.422567"><ele>148.25</ele></trkpt>
   <trkpt lat="55.63568" lon="26.422692"><ele>148.5</ele></trkpt>
   <trkpt lat="55.636215" lon="26.422977"><ele>149</ele></trkpt>
   <trkpt lat="55.636598" lon="26.42322"><ele>149.75</ele></trkpt>
   <trkpt lat="55.636973" lon="26.423476"><ele>149.25</ele></trkpt>
   <trkpt lat="55.637488" lon="26.423911"><ele>148</ele></trkpt>
   <trkpt lat="55.637986" lon="26.424363"><ele>147.5</ele></trkpt>
   <trkpt lat="55.638436" lon="26.424847"><ele>146.5</ele></trkpt>
   <trkpt lat="55.638826" lon="26.425306"><ele>147.25</ele></trkpt>
   <trkpt lat="55.640169" lon="26.42707"><ele>143.75</ele></trkpt>
   <trkpt lat="55.640749" lon="26.427801"><ele>144.25</ele></trkpt>
   <trkpt lat="55.640841" lon="26.427907"><ele>144.5</ele></trkpt>
   <trkpt lat="55.641284" lon="26.428385"><ele>146.5</ele></trkpt>
   <trkpt lat="55.641634" lon="26.428742"><ele>147.25</ele></trkpt>
   <trkpt lat="55.64217" lon="26.4292"><ele>147.5</ele></trkpt>
   <trkpt lat="55.642853" lon="26.429686"><ele>147.25</ele></trkpt>
   <trkpt lat="55.643395" lon="26.429994"><ele>147.25</ele></trkpt>
   <trkpt lat="55.643962" lon="26.430228"><ele>150.75</ele></trkpt>
   <trkpt lat="55.644721" lon="26.43048"><ele>151.5</ele></trkpt>
   <trkpt lat="55.645331" lon="26.430603"><ele>152</ele></trkpt>
   <trkpt lat="55.645929" lon="26.430635"><ele>153</ele></trkpt>
   <trkpt lat="55.649242" lon="26.430568"><ele>148.25</ele></trkpt>
   <trkpt lat="55.649941" lon="26.430574"><ele>149.75</ele></trkpt>
   <trkpt lat="55.650483" lon="26.430608"><ele>150</ele></trkpt>
   <trkpt lat="55.651059" lon="26.430681"><ele>149.75</ele></trkpt>
   <trkpt lat="55.651686" lon="26.430807"><ele>149.75</ele></trkpt>
   <trkpt lat="55.654307" lon="26.431429"><ele>153</ele></trkpt>
   <trkpt lat="55.657152" lon="26.432161"><ele>153.5</ele></trkpt>
   <trkpt lat="55.65769" lon="26.432357"><ele>154.5</ele></trkpt>
   <trkpt lat="55.658211" lon="26.432569"><ele>156.25</ele></trkpt>
   <trkpt lat="55.658636" lon="26.432768"><ele>156.25</ele></trkpt>
   <trkpt lat="55.659031" lon="26.432977"><ele>156.75</ele></trkpt>
   <trkpt lat="55.65943" lon="26.433218"><ele>157.25</ele></trkpt>
   <trkpt lat="55.659975" lon="26.433599"><ele>157.75</ele></trkpt>
   <trkpt lat="55.660432" lon="26.433956"><ele>159.25</ele></trkpt>
   <trkpt lat="55.660912" lon="26.434366"><ele>160</ele></trkpt>
   <trkpt lat="55.661573" lon="26.435021"><ele>156.5</ele></trkpt>
   <trkpt lat="55.664404" lon="26.437971"><ele>158.75</ele></trkpt>
   <trkpt lat="55.665531" lon="26.439283"><ele>156.5</ele></trkpt>
   <trkpt lat="55.667536" lon="26.441298"><ele>154.75</ele></trkpt>
   <trkpt lat="55.668983" lon="26.442351"><ele>152.5</ele></trkpt>
   <trkpt lat="55.675781" lon="26.446222"><ele>148.5</ele></trkpt>
   <trkpt lat="55.676488" lon="26.446922"><ele>149.75</ele></trkpt>
   <trkpt lat="55.677216" lon="26.447702"><ele>150</ele></trkpt>
   <trkpt lat="55.678254" lon="26.449216"><ele>148</ele></trkpt>
   <trkpt lat="55.680187" lon="26.452417"><ele>146</ele></trkpt>
   <trkpt lat="55.680514" lon="26.452908"><ele>147</ele></trkpt>
   <trkpt lat="55.680863" lon="26.453396"><ele>148</ele></trkpt>
   <trkpt lat="55.681279" lon="26.453933"><ele>148.25</ele></trkpt>
   <trkpt lat="55.681857" lon="26.454614"><ele>148.5</ele></trkpt>
   <trkpt lat="55.682345" lon="26.455134"><ele>147</ele></trkpt>
   <trkpt lat="55.68293" lon="26.455671"><ele>145.25</ele></trkpt>
   <trkpt lat="55.683277" lon="26.455961"><ele>144.25</ele></trkpt>
   <trkpt lat="55.683765" lon="26.456344"><ele>145</ele></trkpt>
   <trkpt lat="55.684714" lon="26.456958"><ele>144.25</ele></trkpt>
   <trkpt lat="55.6854" lon="26.457353"><ele>142.75</ele></trkpt>
   <trkpt lat="55.688138" lon="26.458949"><ele>137.5</ele></trkpt>
   <trkpt lat="55.693053" lon="26.461757"><ele>135.5</ele></trkpt>
   <trkpt lat="55.693708" lon="26.462139"><ele>136</ele></trkpt>
   <trkpt lat="55.693978" lon="26.462269"><ele>136</ele></trkpt>
   <trkpt lat="55.697" lon="26.464044"><ele>134.5</ele></trkpt>
   <trkpt lat="55.697609" lon="26.464416"><ele>133.5</ele></trkpt>
   <trkpt lat="55.699464" lon="26.465498"><ele>136</ele></trkpt>
   <trkpt lat="55.700055" lon="26.465841"><ele>133</ele></trkpt>
  </trkseg>
 </trk>
</gpx>