<?xml version="1.0" encoding="UTF-8"?>
<!-- track-length = 25224 filtered ascend = 32 plain-ascend = -33 cost=25224 energy=0.3kwh time=33m 38s -->
<gpx 
 xmlns="http://www.topografix.com/GPX/1/1" 
 xmlns:xsi="http://www.w3.org/2001/XMLSchema-instance" 
 xsi:schemaLocation="http://www.topografix.com/GPX/1/1 http://www.topografix.com/GPX/1/1/gpx.xsd" 
 version="1.1" 
 creator="BRouter-Web 0.18.1">
 <trk>
  <name>Weddeler Schleife</name>
  <trkseg>
   <trkpt lat="52.263291" lon="10.599282"><ele>95</ele></trkpt>
   <trkpt lat="52.263942" lon="10.601985"><ele>95.25</ele></trkpt>
   <trkpt lat="52.263942" lon="10.601986"><ele>95.25</ele></trkpt>
   <trkpt lat="52.265065" lon="10.606657"><ele>87.75</ele></trkpt>
   <trkpt lat="52.265098" lon="10.606798"><ele>87</ele></trkpt>
   <trkpt lat="52.265125" lon="10.606908"><ele>86.5</ele></trkpt>
   <trkpt lat="52.26578" lon="10.609644"><ele>81.5</ele></trkpt>
   <trkpt lat="52.266382" lon="10.61213"><ele>81.5</ele></trkpt>
   <trkpt lat="52.267583" lon="10.617146"><ele>85.75</ele></trkpt>
   <trkpt lat="52.267916" lon="10.618507"><ele>82.25</ele></trkpt>
   <trkpt lat="52.268271" lon="10.620006"><ele>81.75</ele></trkpt>
   <trkpt lat="52.268702" lon="10.621787"><ele>85</ele></trkpt>
   <trkpt lat="52.268843" lon="10.622374"><ele>85</ele></trkpt>
   <trkpt lat="52.269154" lon="10.623735"><ele>85</ele></trkpt>
   <trkpt lat="52.269271" lon="10.624314"><ele>85.25</ele></trkpt>
   <trkpt lat="52.269347" lon="10.624728"><ele>86</ele></trkpt>
   <trkpt lat="52.269438" lon="10.625251"><ele>86.5</ele></trkpt>
   <trkpt lat="52.269707" lon="10.626927"><ele>89</ele></trkpt>
   <trkpt lat="52.269775" lon="10.627383"><ele>89.5</ele></trkpt>
   <trkpt lat="52.269885" lon="10.628345"><ele>90.25</ele></trkpt>
   <trkpt lat="52.26998" lon="10.629504"><ele>89.5</ele></trkpt>
   <trkpt lat="52.270015" lon="10.630147"><ele>89</ele></trkpt>
   <trkpt lat="52.270034" lon="10.630597"><ele>89</ele></trkpt>
   <trkpt lat="52.270082" lon="10.632565"><ele>89.25</ele></trkpt>
   <trkpt lat="52.270093" lon="10.633302"><ele>90.25</ele></trkpt>
   <trkpt lat="52.270097" lon="10.633638"><ele>90.25</ele></trkpt>
   <trkpt lat="52.270105" lon="10.634186"><ele>90.5</ele></trkpt>
   <trkpt lat="52.270134" lon="10.636246"><ele>90.75</ele></trkpt>
   <trkpt lat="52.270142" lon="10.636484"><ele>90.75</ele></trkpt>
   <trkpt lat="52.270161" lon="10.636999"><ele>91.25</ele></trkpt>
   <trkpt lat="52.270188" lon="10.637513"><ele>91.75</ele></trkpt>
   <trkpt lat="52.270229" lon="10.638087"><ele>92.5</ele></trkpt>
   <trkpt lat="52.270278" lon="10.638597"><ele>92.75</ele></trkpt>
   <trkpt lat="52.270343" lon="10.639181"><ele>93</ele></trkpt>
   <trkpt lat="52.270414" lon="10.639703"><ele>92.75</ele></trkpt>
   <trkpt lat="52.270519" lon="10.640355"><ele>92.75</ele></trkpt>
   <trkpt lat="52.270655" lon="10.641081"><ele>93</ele></trkpt>
   <trkpt lat="52.270763" lon="10.641592"><ele>92.75</ele></trkpt>
   <trkpt lat="52.27093" lon="10.642292"><ele>92.25</ele></trkpt>
   <trkpt lat="52.271045" lon="10.64272"><ele>92</ele></trkpt>
   <trkpt lat="52.271185" lon="10.643211"><ele>91.75</ele></trkpt>
   <trkpt lat="52.271422" lon="10.643955"><ele>91</ele></trkpt>
   <trkpt lat="52.271558" lon="10.644344"><ele>90.25</ele></trkpt>
   <trkpt lat="52.27185" lon="10.645106"><ele>88.25</ele></trkpt>
   <trkpt lat="52.272005" lon="10.645478"><ele>87.75</ele></trkpt>
   <trkpt lat="52.272264" lon="10.646053"><ele>86.75</ele></trkpt>
   <trkpt lat="52.272397" lon="10.646334"><ele>86.25</ele></trkpt>
   <trkpt lat="52.272733" lon="10.646981"><ele>85</ele></trkpt>
   <trkpt lat="52.272922" lon="10.64732"><ele>84.5</ele></trkpt>
   <trkpt lat="52.273258" lon="10.647878"><ele>84</ele></trkpt>
   <trkpt lat="52.273546" lon="10.648324"><ele>83.25</ele></trkpt>
   <trkpt lat="52.273848" lon="10.648762"><ele>82.5</ele></trkpt>
   <trkpt lat="52.27403" lon="10.649019"><ele>82</ele></trkpt>
   <trkpt lat="52.275487" lon="10.651026"><ele>82.5</ele></trkpt>
   <trkpt lat="52.27623" lon="10.651943"><ele>84.25</ele></trkpt>
   <trkpt lat="52.276274" lon="10.652003"><ele>84.5</ele></trkpt>
   <trkpt lat="52.276987" lon="10.653013"><ele>86.25</ele></trkpt>
   <trkpt lat="52.277631" lon="10.653877"><ele>88.5</ele></trkpt>
   <trkpt lat="52.278206" lon="10.654686"><ele>90.75</ele></trkpt>
   <trkpt lat="52.278738" lon="10.655416"><ele>91</ele></trkpt>
   <trkpt lat="52.280094" lon="10.657299"><ele>88.5</ele></trkpt>
   <trkpt lat="52.281532" lon="10.65927"><ele>85.25</ele></trkpt>
   <trkpt lat="52.282205" lon="10.660193"><ele>84.75</ele></trkpt>
   <trkpt lat="52.282632" lon="10.660784"><ele>84</ele></trkpt>
   <trkpt lat="52.282908" lon="10.661166"><ele>84.25</ele></trkpt>
   <trkpt lat="52.284352" lon="10.663166"><ele>87.25</ele></trkpt>
   <trkpt lat="52.284598" lon="10.663506"><ele>87.75</ele></trkpt>
   <trkpt lat="52.285277" lon="10.664443"><ele>88</ele></trkpt>
   <trkpt lat="52.286697" lon="10.666407"><ele>90</ele></trkpt>
   <trkpt lat="52.288115" lon="10.668362"><ele>94.25</ele></trkpt>
   <trkpt lat="52.288302" lon="10.668612"><ele>95</ele></trkpt>
   <trkpt lat="52.289535" lon="10.670328"><ele>96.75</ele></trkpt>
   <trkpt lat="52.290175" lon="10.671213"><ele>96.25</ele></trkpt>
   <trkpt lat="52.290948" lon="10.672248"><ele>97.5</ele></trkpt>
   <trkpt lat="52.291409" lon="10.67288"><ele>97.75</ele></trkpt>
   <trkpt lat="52.292024" lon="10.673656"><ele>97.75</ele></trkpt>
   <trkpt lat="52.292322" lon="10.674009"><ele>97.25</ele></trkpt>
   <trkpt lat="52.292593" lon="10.674326"><ele>97.25</ele></trkpt>
   <trkpt lat="52.293366" lon="10.675169"><ele>98</ele></trkpt>
   <trkpt lat="52.293928" lon="10.675732"><ele>98.5</ele></trkpt>
   <trkpt lat="52.294135" lon="10.675929"><ele>99</ele></trkpt>
   <trkpt lat="52.29451" lon="10.676285"><ele>98.5</ele></trkpt>
   <trkpt lat="52.295276" lon="10.676945"><ele>96.5</ele></trkpt>
   <trkpt lat="52.295627" lon="10.677235"><ele>96</ele></trkpt>
   <trkpt lat="52.295812" lon="10.677387"><ele>96</ele></trkpt>
   <trkpt lat="52.296357" lon="10.677794"><ele>95</ele></trkpt>
   <trkpt lat="52.296994" lon="10.678248"><ele>94.75</ele></trkpt>
   <trkpt lat="52.297272" lon="10.678431"><ele>95.25</ele></trkpt>
   <trkpt lat="52.297633" lon="10.678664"><ele>96</ele></trkpt>
   <trkpt lat="52.298195" lon="10.679003"><ele>96.75</ele></trkpt>
   <trkpt lat="52.298799" lon="10.679332"><ele>99</ele></trkpt>
   <trkpt lat="52.298976" lon="10.679428"><ele>99.5</ele></trkpt>
   <trkpt lat="52.299326" lon="10.679602"><ele>100.75</ele></trkpt>
   <trkpt lat="52.30063" lon="10.680248"><ele>104.75</ele></trkpt>
   <trkpt lat="52.302513" lon="10.681167"><ele>101.5</ele></trkpt>
   <trkpt lat="52.30399" lon="10.681888"><ele>96.75</ele></trkpt>
   <trkpt lat="52.306266" lon="10.683001"><ele>92.25</ele></trkpt>
   <trkpt lat="52.307584" lon="10.683644"><ele>91</ele></trkpt>
   <trkpt lat="52.307979" lon="10.683838"><ele>91</ele></trkpt>
   <trkpt lat="52.309444" lon="10.684554"><ele>89.75</ele></trkpt>
   <trkpt lat="52.311139" lon="10.685368"><ele>86.25</ele></trkpt>
   <trkpt lat="52.312849" lon="10.686214"><ele>82.25</ele></trkpt>
   <trkpt lat="52.31425" lon="10.686907"><ele>80.5</ele></trkpt>
   <trkpt lat="52.314478" lon="10.68702"><ele>79.75</ele></trkpt>
   <trkpt lat="52.314594" lon="10.687076"><ele>79.25</ele></trkpt>
   <trkpt lat="52.315711" lon="10.687622"><ele>77.75</ele></trkpt>
   <trkpt lat="52.316411" lon="10.687964"><ele>78.25</ele></trkpt>
   <trkpt lat="52.31646" lon="10.687987"><ele>78.25</ele></trkpt>
   <trkpt lat="52.316792" lon="10.688147"><ele>78.75</ele></trkpt>
   <trkpt lat="52.317838" lon="10.688587"><ele>79</ele></trkpt>
   <trkpt lat="52.318249" lon="10.688742"><ele>79</ele></trkpt>
   <trkpt lat="52.318454" lon="10.688819"><ele>79.25</ele></trkpt>
   <trkpt lat="52.319219" lon="10.689072"><ele>82</ele></trkpt>
   <trkpt lat="52.319519" lon="10.68916"><ele>82.75</ele></trkpt>
   <trkpt lat="52.319837" lon="10.689252"><ele>83.5</ele></trkpt>
   <trkpt lat="52.320712" lon="10.689441"><ele>85</ele></trkpt>
   <trkpt lat="52.321083" lon="10.689508"><ele>85</ele></trkpt>
   <trkpt lat="52.321675" lon="10.68959"><ele>84.25</ele></trkpt>
   <trkpt lat="52.321897" lon="10.689618"><ele>84</ele></trkpt>
   <trkpt lat="52.322339" lon="10.689654"><ele>83.25</ele></trkpt>
   <trkpt lat="52.32316" lon="10.689705"><ele>83</ele></trkpt>
   <trkpt lat="52.323424" lon="10.689701"><ele>82.75</ele></trkpt>
   <trkpt lat="52.323855" lon="10.689691"><ele>81.75</ele></trkpt>
   <trkpt lat="52.324001" lon="10.689687"><ele>81.5</ele></trkpt>
   <trkpt lat="52.324588" lon="10.689638"><ele>81.25</ele></trkpt>
   <trkpt lat="52.326068" lon="10.689468"><ele>79.25</ele></trkpt>
   <trkpt lat="52.326323" lon="10.689409"><ele>79.5</ele></trkpt>
   <trkpt lat="52.326598" lon="10.689345"><ele>79.75</ele></trkpt>
   <trkpt lat="52.326701" lon="10.689318"><ele>79.75</ele></trkpt>
   <trkpt lat="52.327215" lon="10.689184"><ele>79.75</ele></trkpt>
   <trkpt lat="52.32812" lon="10.688928"><ele>78.5</ele></trkpt>
   <trkpt lat="52.328564" lon="10.688819"><ele>77.5</ele></trkpt>
   <trkpt lat="52.329625" lon="10.688559"><ele>77.5</ele></trkpt>
   <trkpt lat="52.33026" lon="10.688407"><ele>78.75</ele></trkpt>
   <trkpt lat="52.330332" lon="10.68839"><ele>79</ele></trkpt>
   <trkpt lat="52.331701" lon="10.688152"><ele>80.5</ele></trkpt>
   <trkpt lat="52.33466" lon="10.687394"><ele>80.25</ele></trkpt>
   <trkpt lat="52.334749" lon="10.687373"><ele>80.25</ele></trkpt>
   <trkpt lat="52.335649" lon="10.687153"><ele>80.25</ele></trkpt>
   <trkpt lat="52.335998" lon="10.687063"><ele>80.25</ele></trkpt>
   <trkpt lat="52.337051" lon="10.686809"><ele>78.25</ele></trkpt>
   <trkpt lat="52.339281" lon="10.686245"><ele>76.25</ele></trkpt>
   <trkpt lat="52.342633" lon="10.685414"><ele>84.25</ele></trkpt>
   <trkpt lat="52.345404" lon="10.684714"><ele>88.25</ele></trkpt>
   <trkpt lat="52.352916" lon="10.682842"><ele>92.75</ele></trkpt>
   <trkpt lat="52.353306" lon="10.682729"><ele>93.5</ele></trkpt>
   <trkpt lat="52.354527" lon="10.682437"><ele>93.25</ele></trkpt>
   <trkpt lat="52.358044" lon="10.681557"><ele>92</ele></trkpt>
   <trkpt lat="52.358868" lon="10.681342"><ele>92.25</ele></trkpt>
   <trkpt lat="52.359464" lon="10.681176"><ele>92</ele></trkpt>
   <trkpt lat="52.360801" lon="10.680865"><ele>90.75</ele></trkpt>
   <trkpt lat="52.361674" lon="10.680674"><ele>99.75</ele></trkpt>
   <trkpt lat="52.36462" lon="10.680163"><ele>88.25</ele></trkpt>
   <trkpt lat="52.365442" lon="10.680045"><ele>86.5</ele></trkpt>
   <trkpt lat="52.365605" lon="10.680022"><ele>86.75</ele></trkpt>
   <trkpt lat="52.371812" lon="10.679109"><ele>82.5</ele></trkpt>
   <trkpt lat="52.372898" lon="10.678929"><ele>81.75</ele></trkpt>
   <trkpt lat="52.372925" lon="10.678924"><ele>81.75</ele></trkpt>
   <trkpt lat="52.37311" lon="10.6789"><ele>81.75</ele></trkpt>
   <trkpt lat="52.373259" lon="10.678881"><ele>81.75</ele></trkpt>
   <trkpt lat="52.37336" lon="10.678867"><ele>82</ele></trkpt>
   <trkpt lat="52.374701" lon="10.678649"><ele>82</ele></trkpt>
   <trkpt lat="52.377261" lon="10.678255"><ele>83.75</ele></trkpt>
   <trkpt lat="52.386374" lon="10.676854"><ele>83.25</ele></trkpt>
   <trkpt lat="52.390562" lon="10.676238"><ele>83</ele></trkpt>
   <trkpt lat="52.396795" lon="10.675285"><ele>77</ele></trkpt>
   <trkpt lat="52.401339" lon="10.674592"><ele>81.25</ele></trkpt>
   <trkpt lat="52.4023" lon="10.674458"><ele>80.75</ele></trkpt>
   <trkpt lat="52.40327" lon="10.674342"><ele>80</ele></trkpt>
   <trkpt lat="52.403798" lon="10.674306"><ele>79.5</ele></trkpt>
   <trkpt lat="52.404739" lon="10.674293"><ele>78.25</ele></trkpt>
   <trkpt lat="52.405584" lon="10.674346"><ele>78</ele></trkpt>
   <trkpt lat="52.406146" lon="10.674411"><ele>77.5</ele></trkpt>
   <trkpt lat="52.406683" lon="10.674494"><ele>77</ele></trkpt>
   <trkpt lat="52.407433" lon="10.674653"><ele>77.5</ele></trkpt>
   <trkpt lat="52.407847" lon="10.674761"><ele>76.75</ele></trkpt>
   <trkpt lat="52.408199" lon="10.674864"><ele>76</ele></trkpt>
   <trkpt lat="52.409088" lon="10.675169"><ele>76</ele></trkpt>
   <trkpt lat="52.40948" lon="10.675327"><ele>76</ele></trkpt>
   <trkpt lat="52.409932" lon="10.675521"><ele>76</ele></trkpt>
   <trkpt lat="52.410435" lon="10.675772"><ele>76</ele></trkpt>
   <trkpt lat="52.411499" lon="10.676359"><ele>75.5</ele></trkpt>
   <trkpt lat="52.411995" lon="10.676669"><ele>75.5</ele></trkpt>
   <trkpt lat="52.412615" lon="10.677098"><ele>74.75</ele></trkpt>
   <trkpt lat="52.41294" lon="10.67735"><ele>74.25</ele></trkpt>
   <trkpt lat="52.413334" lon="10.677659"><ele>74</ele></trkpt>
   <trkpt lat="52.413937" lon="10.678139"><ele>72.75</ele></trkpt>
   <trkpt lat="52.414429" lon="10.678567"><ele>71.25</ele></trkpt>
   <trkpt lat="52.414903" lon="10.679015"><ele>70</ele></trkpt>
   <trkpt lat="52.415387" lon="10.679508"><ele>69.25</ele></trkpt>
   <trkpt lat="52.416063" lon="10.680244"><ele>69.75</ele></trkpt>
   <trkpt lat="52.416497" lon="10.680755"><ele>70.75</ele></trkpt>
   <trkpt lat="52.417179" lon="10.681603"><ele>69.5</ele></trkpt>
   <trkpt lat="52.417471" lon="10.681959"><ele>68</ele></trkpt>
   <trkpt lat="52.418223" lon="10.682968"><ele>67</ele></trkpt>
   <trkpt lat="52.418919" lon="10.684011"><ele>65.25</ele></trkpt>
   <trkpt lat="52.41893" lon="10.684033"><ele>65.25</ele></trkpt>
   <trkpt lat="52.419292" lon="10.684594"><ele>64.25</ele></trkpt>
   <trkpt lat="52.419471" lon="10.684912"><ele>63.5</ele></trkpt>
   <trkpt lat="52.419883" lon="10.685652"><ele>63</ele></trkpt>
   <trkpt lat="52.420025" lon="10.685944"><ele>62.75</ele></trkpt>
   <trkpt lat="52.420582" lon="10.687032"><ele>62.25</ele></trkpt>
   <trkpt lat="52.420863" lon="10.68766"><ele>62</ele></trkpt>
   <trkpt lat="52.421038" lon="10.68805"><ele>61.75</ele></trkpt>
   <trkpt lat="52.421573" lon="10.689367"><ele>60.25</ele></trkpt>
   <trkpt lat="52.42187" lon="10.690199"><ele>60</ele></trkpt>
   <trkpt lat="52.421961" lon="10.690456"><ele>59.5</ele></trkpt>
   <trkpt lat="52.422361" lon="10.69177"><ele>58.25</ele></trkpt>
   <trkpt lat="52.422603" lon="10.692773"><ele>58</ele></trkpt>
   <trkpt lat="52.422697" lon="10.693159"><ele>58.25</ele></trkpt>
   <trkpt lat="52.422837" lon="10.693851"><ele>57.75</ele></trkpt>
   <trkpt lat="52.423039" lon="10.69506"><ele>57</ele></trkpt>
   <trkpt lat="52.423074" lon="10.695293"><ele>57</ele></trkpt>
   <trkpt lat="52.423103" lon="10.695525"><ele>57</ele></trkpt>
   <trkpt lat="52.423219" lon="10.696494"><ele>57</ele></trkpt>
   <trkpt lat="52.423227" lon="10.696585"><ele>57</ele></trkpt>
   <trkpt lat="52.423272" lon="10.697093"><ele>57</ele></trkpt>
   <trkpt lat="52.423322" lon="10.69779"><ele>57</ele></trkpt>
   <trkpt lat="52.423346" lon="10.698214"><ele>57</ele></trkpt>
   <trkpt lat="52.423373" lon="10.699162"><ele>57</ele></trkpt>
   <trkpt lat="52.423375" lon="10.700147"><ele>56.75</ele></trkpt>
   <trkpt lat="52.423348" lon="10.700974"><ele>56.75</ele></trkpt>
   <trkpt lat="52.423289" lon="10.702054"><ele>56</ele></trkpt>
   <trkpt lat="52.423165" lon="10.703761"><ele>57</ele></trkpt>
   <trkpt lat="52.42311" lon="10.704642"><ele>57.25</ele></trkpt>
   <trkpt lat="52.423067" lon="10.705691"><ele>57.25</ele></trkpt>
   <trkpt lat="52.423059" lon="10.7067"><ele>56.5</ele></trkpt>
   <trkpt lat="52.423064" lon="10.707262"><ele>56.5</ele></trkpt>
   <trkpt lat="52.423064" lon="10.707283"><ele>56.5</ele></trkpt>
   <trkpt lat="52.423065" lon="10.70736"><ele>56.5</ele></trkpt>
   <trkpt lat="52.423068" lon="10.707545"><ele>56.5</ele></trkpt>
   <trkpt lat="52.423092" lon="10.708587"><ele>57</ele></trkpt>
   <trkpt lat="52.423167" lon="10.71029"><ele>57.5</ele></trkpt>
   <trkpt lat="52.423265" lon="10.712204"><ele>58.25</ele></trkpt>
   <trkpt lat="52.423271" lon="10.712341"><ele>58.25</ele></trkpt>
   <trkpt lat="52.423299" lon="10.712902"><ele>57.5</ele></trkpt>
   <trkpt lat="52.423354" lon="10.713965"><ele>57</ele></trkpt>
   <trkpt lat="52.423378" lon="10.715344"><ele>57</ele></trkpt>
   <trkpt lat="52.423401" lon="10.715797"><ele>57</ele></trkpt>
   <trkpt lat="52.423418" lon="10.716149"><ele>57.25</ele></trkpt>
   <trkpt lat="52.423475" lon="10.717284"><ele>57.75</ele></trkpt>
   <trkpt lat="52.423558" lon="10.718962"><ele>56.5</ele></trkpt>
   <trkpt lat="52.423563" lon="10.719051"><ele>56.5</ele></trkpt>
   <trkpt lat="52.423571" lon="10.719223"><ele>56.75</ele></trkpt>
   <trkpt lat="52.423592" lon="10.721404"><ele>56</ele></trkpt>
   <trkpt lat="52.423636" lon="10.722434"><ele>56</ele></trkpt>
   <trkpt lat="52.423826" lon="10.725614"><ele>55.75</ele></trkpt>
   <trkpt lat="52.423929" lon="10.727536"><ele>56.5</ele></trkpt>
   <trkpt lat="52.424109" lon="10.731097"><ele>57</ele></trkpt>
   <trkpt lat="52.42424" lon="10.733116"><ele>57</ele></trkpt>
   <trkpt lat="52.424378" lon="10.734706"><ele>57.5</ele></trkpt>
   <trkpt lat="52.424686" lon="10.737651"><ele>58.75</ele></trkpt>
   <trkpt lat="52.424884" lon="10.739473"><ele>56.75</ele></trkpt>
   <trkpt lat="52.424995" lon="10.740499"><ele>56</ele></trkpt>
   <trkpt lat="52.425603" lon="10.746179"><ele>61</ele></trkpt>
  </trkseg>
 </trk>
</gpx>