<?xml version="1.0" encoding="UTF-8"?>
<!-- track-length = 83886 filtered ascend = 105 plain-ascend = 25 cost=83886 energy=1.0kwh time=1h 51m 51s -->
<gpx 
 xmlns="http://www.topografix.com/GPX/1/1" 
 xmlns:xsi="http://www.w3.org/2001/XMLSchema-instance" 
 xsi:schemaLocation="http://www.topografix.com/GPX/1/1 http://www.topografix.com/GPX/1/1/gpx.xsd" 
 version="1.1" 
 creator="BRouter-Web 0.18.1">
 <trk>
  <name>Wieren - Braunschweig</name>
  <trkseg>
   <trkpt lat="52.892506" lon="10.656096"><ele>57.5</ele></trkpt>
   <trkpt lat="52.892447" lon="10.656951"><ele>57</ele></trkpt>
   <trkpt lat="52.892319" lon="10.658705"><ele>56.5</ele></trkpt>
   <trkpt lat="52.892069" lon="10.661647"><ele>56.5</ele></trkpt>
   <trkpt lat="52.89175" lon="10.665008"><ele>53.75</ele></trkpt>
   <trkpt lat="52.891518" lon="10.667385"><ele>52</ele></trkpt>
   <trkpt lat="52.891458" lon="10.667776"><ele>52.5</ele></trkpt>
   <trkpt lat="52.891383" lon="10.668151"><ele>53</ele></trkpt>
   <trkpt lat="52.891343" lon="10.668332"><ele>53.25</ele></trkpt>
   <trkpt lat="52.891264" lon="10.668658"><ele>53.25</ele></trkpt>
   <trkpt lat="52.89117" lon="10.668987"><ele>53.5</ele></trkpt>
   <trkpt lat="52.891035" lon="10.669376"><ele>54</ele></trkpt>
   <trkpt lat="52.890871" lon="10.669791"><ele>54.5</ele></trkpt>
   <trkpt lat="52.890741" lon="10.670083"><ele>54.75</ele></trkpt>
   <trkpt lat="52.890581" lon="10.670412"><ele>55</ele></trkpt>
   <trkpt lat="52.890409" lon="10.670721"><ele>55</ele></trkpt>
   <trkpt lat="52.890247" lon="10.670985"><ele>54.75</ele></trkpt>
   <trkpt lat="52.89007" lon="10.671255"><ele>54.75</ele></trkpt>
   <trkpt lat="52.889936" lon="10.671434"><ele>54.75</ele></trkpt>
   <trkpt lat="52.889824" lon="10.671583"><ele>54.5</ele></trkpt>
   <trkpt lat="52.889742" lon="10.671678"><ele>54.25</ele></trkpt>
   <trkpt lat="52.88968" lon="10.671749"><ele>54</ele></trkpt>
   <trkpt lat="52.889527" lon="10.671916"><ele>53.75</ele></trkpt>
   <trkpt lat="52.889235" lon="10.672191"><ele>53</ele></trkpt>
   <trkpt lat="52.889035" lon="10.67235"><ele>53</ele></trkpt>
   <trkpt lat="52.888593" lon="10.672655"><ele>53</ele></trkpt>
   <trkpt lat="52.88804" lon="10.672905"><ele>53.25</ele></trkpt>
   <trkpt lat="52.887625" lon="10.673"><ele>53.5</ele></trkpt>
   <trkpt lat="52.887519" lon="10.673012"><ele>53.5</ele></trkpt>
   <trkpt lat="52.88718" lon="10.673049"><ele>53.5</ele></trkpt>
   <trkpt lat="52.885653" lon="10.67304"><ele>53.25</ele></trkpt>
   <trkpt lat="52.885601" lon="10.673039"><ele>53.25</ele></trkpt>
   <trkpt lat="52.884081" lon="10.67303"><ele>53.25</ele></trkpt>
   <trkpt lat="52.884011" lon="10.673029"><ele>53.5</ele></trkpt>
   <trkpt lat="52.883659" lon="10.673032"><ele>53.75</ele></trkpt>
   <trkpt lat="52.883121" lon="10.673033"><ele>54.25</ele></trkpt>
   <trkpt lat="52.883035" lon="10.673032"><ele>54.25</ele></trkpt>
   <trkpt lat="52.882496" lon="10.673028"><ele>54.25</ele></trkpt>
   <trkpt lat="52.88083" lon="10.673016"><ele>57.25</ele></trkpt>
   <trkpt lat="52.880811" lon="10.673016"><ele>57.25</ele></trkpt>
   <trkpt lat="52.880727" lon="10.673017"><ele>57.5</ele></trkpt>
   <trkpt lat="52.880692" lon="10.673014"><ele>57.5</ele></trkpt>
   <trkpt lat="52.880424" lon="10.673015"><ele>57.75</ele></trkpt>
   <trkpt lat="52.879948" lon="10.673011"><ele>58.25</ele></trkpt>
   <trkpt lat="52.879302" lon="10.672958"><ele>58.25</ele></trkpt>
   <trkpt lat="52.878965" lon="10.672909"><ele>58.75</ele></trkpt>
   <trkpt lat="52.87844" lon="10.672781"><ele>59.5</ele></trkpt>
   <trkpt lat="52.878046" lon="10.672657"><ele>59.5</ele></trkpt>
   <trkpt lat="52.877937" lon="10.67261"><ele>59.25</ele></trkpt>
   <trkpt lat="52.877618" lon="10.672473"><ele>59</ele></trkpt>
   <trkpt lat="52.876912" lon="10.672111"><ele>59.5</ele></trkpt>
   <trkpt lat="52.876312" lon="10.671725"><ele>60</ele></trkpt>
   <trkpt lat="52.874942" lon="10.670858"><ele>60.75</ele></trkpt>
   <trkpt lat="52.873403" lon="10.669878"><ele>60</ele></trkpt>
   <trkpt lat="52.873274" lon="10.669795"><ele>59.75</ele></trkpt>
   <trkpt lat="52.873201" lon="10.669749"><ele>59.75</ele></trkpt>
   <trkpt lat="52.873106" lon="10.66969"><ele>59.5</ele></trkpt>
   <trkpt lat="52.872069" lon="10.669041"><ele>59.5</ele></trkpt>
   <trkpt lat="52.870868" lon="10.66828"><ele>64.5</ele></trkpt>
   <trkpt lat="52.870225" lon="10.667906"><ele>63.75</ele></trkpt>
   <trkpt lat="52.869687" lon="10.66766"><ele>63.75</ele></trkpt>
   <trkpt lat="52.8693" lon="10.667516"><ele>64.5</ele></trkpt>
   <trkpt lat="52.868712" lon="10.667357"><ele>63.75</ele></trkpt>
   <trkpt lat="52.868073" lon="10.667279"><ele>61</ele></trkpt>
   <trkpt lat="52.867887" lon="10.667266"><ele>59.5</ele></trkpt>
   <trkpt lat="52.867568" lon="10.667239"><ele>57</ele></trkpt>
   <trkpt lat="52.867434" lon="10.667226"><ele>56.75</ele></trkpt>
   <trkpt lat="52.867197" lon="10.667201"><ele>57</ele></trkpt>
   <trkpt lat="52.866271" lon="10.66706"><ele>58.25</ele></trkpt>
   <trkpt lat="52.865792" lon="10.667012"><ele>59</ele></trkpt>
   <trkpt lat="52.863959" lon="10.666805"><ele>62</ele></trkpt>
   <trkpt lat="52.863908" lon="10.666799"><ele>62</ele></trkpt>
   <trkpt lat="52.862963" lon="10.666701"><ele>61.5</ele></trkpt>
   <trkpt lat="52.861796" lon="10.666566"><ele>62</ele></trkpt>
   <trkpt lat="52.860831" lon="10.66646"><ele>61</ele></trkpt>
   <trkpt lat="52.850505" lon="10.665315"><ele>68</ele></trkpt>
   <trkpt lat="52.849499" lon="10.665206"><ele>68.75</ele></trkpt>
   <trkpt lat="52.848728" lon="10.665213"><ele>68</ele></trkpt>
   <trkpt lat="52.847837" lon="10.665356"><ele>67</ele></trkpt>
   <trkpt lat="52.847198" lon="10.665554"><ele>67.5</ele></trkpt>
   <trkpt lat="52.846611" lon="10.665837"><ele>69.25</ele></trkpt>
   <trkpt lat="52.845058" lon="10.666726"><ele>75</ele></trkpt>
   <trkpt lat="52.841658" lon="10.668796"><ele>76.75</ele></trkpt>
   <trkpt lat="52.840427" lon="10.669536"><ele>73.25</ele></trkpt>
   <trkpt lat="52.838968" lon="10.670413"><ele>71.75</ele></trkpt>
   <trkpt lat="52.838872" lon="10.670471"><ele>71.75</ele></trkpt>
   <trkpt lat="52.838753" lon="10.670544"><ele>71.75</ele></trkpt>
   <trkpt lat="52.838545" lon="10.670679"><ele>71.75</ele></trkpt>
   <trkpt lat="52.838368" lon="10.670775"><ele>71.75</ele></trkpt>
   <trkpt lat="52.83781" lon="10.67111"><ele>71</ele></trkpt>
   <trkpt lat="52.837621" lon="10.671223"><ele>70.75</ele></trkpt>
   <trkpt lat="52.835179" lon="10.672696"><ele>65</ele></trkpt>
   <trkpt lat="52.833747" lon="10.673562"><ele>65.5</ele></trkpt>
   <trkpt lat="52.83338" lon="10.673781"><ele>65.75</ele></trkpt>
   <trkpt lat="52.833255" lon="10.673871"><ele>66</ele></trkpt>
   <trkpt lat="52.833091" lon="10.673966"><ele>66.25</ele></trkpt>
   <trkpt lat="52.832892" lon="10.674083"><ele>66.5</ele></trkpt>
   <trkpt lat="52.83217" lon="10.674521"><ele>66.5</ele></trkpt>
   <trkpt lat="52.831705" lon="10.674805"><ele>66</ele></trkpt>
   <trkpt lat="52.831161" lon="10.67513"><ele>65.75</ele></trkpt>
   <trkpt lat="52.831029" lon="10.675206"><ele>65.5</ele></trkpt>
   <trkpt lat="52.830975" lon="10.67524"><ele>65.5</ele></trkpt>
   <trkpt lat="52.830795" lon="10.67535"><ele>65.25</ele></trkpt>
   <trkpt lat="52.829307" lon="10.676257"><ele>62.5</ele></trkpt>
   <trkpt lat="52.82928" lon="10.676271"><ele>62.5</ele></trkpt>
   <trkpt lat="52.828645" lon="10.676651"><ele>63</ele></trkpt>
   <trkpt lat="52.823457" lon="10.67978"><ele>64.5</ele></trkpt>
   <trkpt lat="52.823366" lon="10.679834"><ele>64.5</ele></trkpt>
   <trkpt lat="52.823344" lon="10.679846"><ele>64.5</ele></trkpt>
   <trkpt lat="52.823315" lon="10.679865"><ele>64.5</ele></trkpt>
   <trkpt lat="52.823226" lon="10.679914"><ele>64.75</ele></trkpt>
   <trkpt lat="52.822904" lon="10.68011"><ele>65.5</ele></trkpt>
   <trkpt lat="52.8228" lon="10.680175"><ele>65.5</ele></trkpt>
   <trkpt lat="52.817386" lon="10.683433"><ele>68</ele></trkpt>
   <trkpt lat="52.815344" lon="10.684667"><ele>68</ele></trkpt>
   <trkpt lat="52.812442" lon="10.686428"><ele>70</ele></trkpt>
   <trkpt lat="52.812314" lon="10.686498"><ele>70</ele></trkpt>
   <trkpt lat="52.808116" lon="10.689035"><ele>72</ele></trkpt>
   <trkpt lat="52.808051" lon="10.689074"><ele>72</ele></trkpt>
   <trkpt lat="52.807516" lon="10.689391"><ele>72</ele></trkpt>
   <trkpt lat="52.806659" lon="10.689909"><ele>71.75</ele></trkpt>
   <trkpt lat="52.805781" lon="10.690437"><ele>71</ele></trkpt>
   <trkpt lat="52.804515" lon="10.691198"><ele>70.75</ele></trkpt>
   <trkpt lat="52.803871" lon="10.691594"><ele>69.25</ele></trkpt>
   <trkpt lat="52.803255" lon="10.691968"><ele>68</ele></trkpt>
   <trkpt lat="52.802341" lon="10.692515"><ele>69</ele></trkpt>
   <trkpt lat="52.801639" lon="10.692944"><ele>69.25</ele></trkpt>
   <trkpt lat="52.798312" lon="10.694944"><ele>69.75</ele></trkpt>
   <trkpt lat="52.797292" lon="10.695558"><ele>68.5</ele></trkpt>
   <trkpt lat="52.794921" lon="10.696983"><ele>70.75</ele></trkpt>
   <trkpt lat="52.793971" lon="10.69757"><ele>69.5</ele></trkpt>
   <trkpt lat="52.792758" lon="10.698293"><ele>70.5</ele></trkpt>
   <trkpt lat="52.791613" lon="10.698985"><ele>70</ele></trkpt>
   <trkpt lat="52.788343" lon="10.700954"><ele>76</ele></trkpt>
   <trkpt lat="52.78699" lon="10.701765"><ele>85.5</ele></trkpt>
   <trkpt lat="52.782201" lon="10.704648"><ele>88.25</ele></trkpt>
   <trkpt lat="52.778549" lon="10.706852"><ele>89.25</ele></trkpt>
   <trkpt lat="52.778534" lon="10.706861"><ele>89.25</ele></trkpt>
   <trkpt lat="52.777138" lon="10.707705"><ele>89</ele></trkpt>
   <trkpt lat="52.774124" lon="10.709513"><ele>80.75</ele></trkpt>
   <trkpt lat="52.77208" lon="10.710744"><ele>78.75</ele></trkpt>
   <trkpt lat="52.770551" lon="10.711661"><ele>78.5</ele></trkpt>
   <trkpt lat="52.770377" lon="10.711772"><ele>78.5</ele></trkpt>
   <trkpt lat="52.770225" lon="10.711872"><ele>78.25</ele></trkpt>
   <trkpt lat="52.770179" lon="10.711897"><ele>78.25</ele></trkpt>
   <trkpt lat="52.770036" lon="10.711982"><ele>78</ele></trkpt>
   <trkpt lat="52.766821" lon="10.713907"><ele>79.75</ele></trkpt>
   <trkpt lat="52.766258" lon="10.714252"><ele>79.75</ele></trkpt>
   <trkpt lat="52.766247" lon="10.714259"><ele>79.75</ele></trkpt>
   <trkpt lat="52.76609" lon="10.714352"><ele>79.75</ele></trkpt>
   <trkpt lat="52.765966" lon="10.71443"><ele>79.5</ele></trkpt>
   <trkpt lat="52.765877" lon="10.714486"><ele>79.5</ele></trkpt>
   <trkpt lat="52.764359" lon="10.715397"><ele>77</ele></trkpt>
   <trkpt lat="52.764261" lon="10.715456"><ele>77</ele></trkpt>
   <trkpt lat="52.763101" lon="10.716165"><ele>75.5</ele></trkpt>
   <trkpt lat="52.761823" lon="10.716931"><ele>74</ele></trkpt>
   <trkpt lat="52.761714" lon="10.716999"><ele>74</ele></trkpt>
   <trkpt lat="52.761668" lon="10.717023"><ele>74</ele></trkpt>
   <trkpt lat="52.760111" lon="10.717956"><ele>74</ele></trkpt>
   <trkpt lat="52.760096" lon="10.717965"><ele>74</ele></trkpt>
   <trkpt lat="52.758401" lon="10.718986"><ele>74.75</ele></trkpt>
   <trkpt lat="52.758082" lon="10.719175"><ele>75</ele></trkpt>
   <trkpt lat="52.757967" lon="10.719247"><ele>75</ele></trkpt>
   <trkpt lat="52.757435" lon="10.719564"><ele>75</ele></trkpt>
   <trkpt lat="52.755848" lon="10.720516"><ele>78.75</ele></trkpt>
   <trkpt lat="52.753956" lon="10.721656"><ele>79</ele></trkpt>
   <trkpt lat="52.753417" lon="10.721959"><ele>79</ele></trkpt>
   <trkpt lat="52.753057" lon="10.722127"><ele>79.25</ele></trkpt>
   <trkpt lat="52.75269" lon="10.722275"><ele>79.75</ele></trkpt>
   <trkpt lat="52.752336" lon="10.72239"><ele>79.75</ele></trkpt>
   <trkpt lat="52.751992" lon="10.722478"><ele>79.25</ele></trkpt>
   <trkpt lat="52.750659" lon="10.722706"><ele>77.75</ele></trkpt>
   <trkpt lat="52.74573" lon="10.723532"><ele>76.75</ele></trkpt>
   <trkpt lat="52.744642" lon="10.723711"><ele>76.25</ele></trkpt>
   <trkpt lat="52.74428" lon="10.723775"><ele>76</ele></trkpt>
   <trkpt lat="52.743544" lon="10.723898"><ele>76</ele></trkpt>
   <trkpt lat="52.739315" lon="10.724606"><ele>75.75</ele></trkpt>
   <trkpt lat="52.738834" lon="10.724685"><ele>76</ele></trkpt>
   <trkpt lat="52.738259" lon="10.724781"><ele>76.25</ele></trkpt>
   <trkpt lat="52.738206" lon="10.724789"><ele>76.25</ele></trkpt>
   <trkpt lat="52.737916" lon="10.724837"><ele>76.5</ele></trkpt>
   <trkpt lat="52.737185" lon="10.724959"><ele>76</ele></trkpt>
   <trkpt lat="52.735247" lon="10.725288"><ele>73</ele></trkpt>
   <trkpt lat="52.732692" lon="10.72571"><ele>75.25</ele></trkpt>
   <trkpt lat="52.732176" lon="10.725737"><ele>75.25</ele></trkpt>
   <trkpt lat="52.731864" lon="10.725718"><ele>75.75</ele></trkpt>
   <trkpt lat="52.73182" lon="10.725715"><ele>75.75</ele></trkpt>
   <trkpt lat="52.731314" lon="10.72564"><ele>76</ele></trkpt>
   <trkpt lat="52.730829" lon="10.725509"><ele>76.25</ele></trkpt>
   <trkpt lat="52.730373" lon="10.725344"><ele>76.75</ele></trkpt>
   <trkpt lat="52.729968" lon="10.725136"><ele>77</ele></trkpt>
   <trkpt lat="52.729641" lon="10.724943"><ele>77.5</ele></trkpt>
   <trkpt lat="52.728966" lon="10.724454"><ele>78.5</ele></trkpt>
   <trkpt lat="52.728928" lon="10.72442"><ele>78.5</ele></trkpt>
   <trkpt lat="52.728852" lon="10.724356"><ele>78.5</ele></trkpt>
   <trkpt lat="52.728751" lon="10.7243"><ele>78.5</ele></trkpt>
   <trkpt lat="52.728598" lon="10.72419"><ele>78.25</ele></trkpt>
   <trkpt lat="52.728434" lon="10.724087"><ele>78</ele></trkpt>
   <trkpt lat="52.728285" lon="10.723985"><ele>77.75</ele></trkpt>
   <trkpt lat="52.727988" lon="10.723745"><ele>77.75</ele></trkpt>
   <trkpt lat="52.727888" lon="10.723663"><ele>77.5</ele></trkpt>
   <trkpt lat="52.727375" lon="10.723246"><ele>77</ele></trkpt>
   <trkpt lat="52.726722" lon="10.722699"><ele>77.75</ele></trkpt>
   <trkpt lat="52.726231" lon="10.722301"><ele>76.75</ele></trkpt>
   <trkpt lat="52.724542" lon="10.72091"><ele>75.25</ele></trkpt>
   <trkpt lat="52.724033" lon="10.720489"><ele>74.5</ele></trkpt>
   <trkpt lat="52.723836" lon="10.720331"><ele>74.75</ele></trkpt>
   <trkpt lat="52.723672" lon="10.72017"><ele>74.75</ele></trkpt>
   <trkpt lat="52.723513" lon="10.719997"><ele>74.75</ele></trkpt>
   <trkpt lat="52.723279" lon="10.719773"><ele>74.5</ele></trkpt>
   <trkpt lat="52.722439" lon="10.719077"><ele>73.75</ele></trkpt>
   <trkpt lat="52.720886" lon="10.7178"><ele>71.75</ele></trkpt>
   <trkpt lat="52.719157" lon="10.716378"><ele>72.5</ele></trkpt>
   <trkpt lat="52.719112" lon="10.716341"><ele>72.75</ele></trkpt>
   <trkpt lat="52.719044" lon="10.716285"><ele>72.75</ele></trkpt>
   <trkpt lat="52.71863" lon="10.715947"><ele>73.5</ele></trkpt>
   <trkpt lat="52.717871" lon="10.715327"><ele>74.75</ele></trkpt>
   <trkpt lat="52.717622" lon="10.715112"><ele>75.5</ele></trkpt>
   <trkpt lat="52.717528" lon="10.715032"><ele>75.75</ele></trkpt>
   <trkpt lat="52.717312" lon="10.714862"><ele>76</ele></trkpt>
   <trkpt lat="52.715581" lon="10.713444"><ele>75</ele></trkpt>
   <trkpt lat="52.714519" lon="10.712571"><ele>73.5</ele></trkpt>
   <trkpt lat="52.712992" lon="10.711314"><ele>72</ele></trkpt>
   <trkpt lat="52.712809" lon="10.711164"><ele>71.75</ele></trkpt>
   <trkpt lat="52.71086" lon="10.70956"><ele>70.75</ele></trkpt>
   <trkpt lat="52.710675" lon="10.709408"><ele>70.75</ele></trkpt>
   <trkpt lat="52.710132" lon="10.70896"><ele>70.25</ele></trkpt>
   <trkpt lat="52.706395" lon="10.705897"><ele>71.5</ele></trkpt>
   <trkpt lat="52.706054" lon="10.705648"><ele>71.25</ele></trkpt>
   <trkpt lat="52.705739" lon="10.705443"><ele>70.75</ele></trkpt>
   <trkpt lat="52.70531" lon="10.705199"><ele>70.25</ele></trkpt>
   <trkpt lat="52.704778" lon="10.704956"><ele>69.75</ele></trkpt>
   <trkpt lat="52.703217" lon="10.704293"><ele>71.75</ele></trkpt>
   <trkpt lat="52.702217" lon="10.703871"><ele>70.75</ele></trkpt>
   <trkpt lat="52.70004" lon="10.702955"><ele>69</ele></trkpt>
   <trkpt lat="52.698009" lon="10.702096"><ele>70.5</ele></trkpt>
   <trkpt lat="52.697703" lon="10.701966"><ele>70.75</ele></trkpt>
   <trkpt lat="52.696698" lon="10.70154"><ele>70</ele></trkpt>
   <trkpt lat="52.69367" lon="10.700259"><ele>70</ele></trkpt>
   <trkpt lat="52.693658" lon="10.700254"><ele>70</ele></trkpt>
   <trkpt lat="52.693223" lon="10.700071"><ele>70.25</ele></trkpt>
   <trkpt lat="52.692267" lon="10.699667"><ele>72</ele></trkpt>
   <trkpt lat="52.687778" lon="10.697772"><ele>70.75</ele></trkpt>
   <trkpt lat="52.687174" lon="10.697509"><ele>71</ele></trkpt>
   <trkpt lat="52.686669" lon="10.697262"><ele>71</ele></trkpt>
   <trkpt lat="52.686273" lon="10.69702"><ele>70</ele></trkpt>
   <trkpt lat="52.686179" lon="10.696963"><ele>69.75</ele></trkpt>
   <trkpt lat="52.686145" lon="10.696939"><ele>69.5</ele></trkpt>
   <trkpt lat="52.686085" lon="10.696893"><ele>69.5</ele></trkpt>
   <trkpt lat="52.685724" lon="10.696622"><ele>68.75</ele></trkpt>
   <trkpt lat="52.684874" lon="10.69595"><ele>67</ele></trkpt>
   <trkpt lat="52.68228" lon="10.693882"><ele>67</ele></trkpt>
   <trkpt lat="52.681222" lon="10.693035"><ele>66.75</ele></trkpt>
   <trkpt lat="52.681122" lon="10.692955"><ele>66.75</ele></trkpt>
   <trkpt lat="52.680537" lon="10.692488"><ele>66.5</ele></trkpt>
   <trkpt lat="52.680222" lon="10.692238"><ele>66.25</ele></trkpt>
   <trkpt lat="52.679247" lon="10.691458"><ele>66.5</ele></trkpt>
   <trkpt lat="52.679109" lon="10.691346"><ele>66.75</ele></trkpt>
   <trkpt lat="52.67896" lon="10.69123"><ele>67</ele></trkpt>
   <trkpt lat="52.678841" lon="10.691136"><ele>67.25</ele></trkpt>
   <trkpt lat="52.678014" lon="10.690474"><ele>67.75</ele></trkpt>
   <trkpt lat="52.677172" lon="10.689806"><ele>68.75</ele></trkpt>
   <trkpt lat="52.674502" lon="10.687677"><ele>70.5</ele></trkpt>
   <trkpt lat="52.674488" lon="10.687663"><ele>70.5</ele></trkpt>
   <trkpt lat="52.674298" lon="10.687516"><ele>70.75</ele></trkpt>
   <trkpt lat="52.673926" lon="10.687217"><ele>70.75</ele></trkpt>
   <trkpt lat="52.673789" lon="10.687109"><ele>70.5</ele></trkpt>
   <trkpt lat="52.673781" lon="10.687105"><ele>70.5</ele></trkpt>
   <trkpt lat="52.672917" lon="10.686411"><ele>70.25</ele></trkpt>
   <trkpt lat="52.67288" lon="10.68638"><ele>70.25</ele></trkpt>
   <trkpt lat="52.67131" lon="10.685115"><ele>72</ele></trkpt>
   <trkpt lat="52.668579" lon="10.682957"><ele>73.5</ele></trkpt>
   <trkpt lat="52.668099" lon="10.682551"><ele>74</ele></trkpt>
   <trkpt lat="52.66795" lon="10.682425"><ele>73.5</ele></trkpt>
   <trkpt lat="52.667506" lon="10.681977"><ele>72</ele></trkpt>
   <trkpt lat="52.665908" lon="10.680227"><ele>75.75</ele></trkpt>
   <trkpt lat="52.6651" lon="10.679333"><ele>76.5</ele></trkpt>
   <trkpt lat="52.664361" lon="10.678525"><ele>77</ele></trkpt>
   <trkpt lat="52.663649" lon="10.677727"><ele>77.75</ele></trkpt>
   <trkpt lat="52.662987" lon="10.677014"><ele>77.75</ele></trkpt>
   <trkpt lat="52.660816" lon="10.674626"><ele>76.25</ele></trkpt>
   <trkpt lat="52.659938" lon="10.67366"><ele>76.5</ele></trkpt>
   <trkpt lat="52.658308" lon="10.67186"><ele>79.25</ele></trkpt>
   <trkpt lat="52.65766" lon="10.671033"><ele>76.5</ele></trkpt>
   <trkpt lat="52.657083" lon="10.670189"><ele>75.25</ele></trkpt>
   <trkpt lat="52.655526" lon="10.667804"><ele>72.25</ele></trkpt>
   <trkpt lat="52.654315" lon="10.665957"><ele>68.25</ele></trkpt>
   <trkpt lat="52.650027" lon="10.659417"><ele>70</ele></trkpt>
   <trkpt lat="52.649043" lon="10.657916"><ele>70.5</ele></trkpt>
   <trkpt lat="52.647953" lon="10.656259"><ele>69.75</ele></trkpt>
   <trkpt lat="52.647725" lon="10.655908"><ele>70</ele></trkpt>
   <trkpt lat="52.646762" lon="10.654443"><ele>67.25</ele></trkpt>
   <trkpt lat="52.645977" lon="10.65326"><ele>65.75</ele></trkpt>
   <trkpt lat="52.645912" lon="10.653163"><ele>65.5</ele></trkpt>
   <trkpt lat="52.645728" lon="10.652858"><ele>64.75</ele></trkpt>
   <trkpt lat="52.642936" lon="10.648624"><ele>64.75</ele></trkpt>
   <trkpt lat="52.642874" lon="10.648529"><ele>64.75</ele></trkpt>
   <trkpt lat="52.642314" lon="10.64768"><ele>64.25</ele></trkpt>
   <trkpt lat="52.642245" lon="10.647574"><ele>64.25</ele></trkpt>
   <trkpt lat="52.640394" lon="10.644764"><ele>65.5</ele></trkpt>
   <trkpt lat="52.639988" lon="10.644224"><ele>65</ele></trkpt>
   <trkpt lat="52.639613" lon="10.643781"><ele>64.25</ele></trkpt>
   <trkpt lat="52.639049" lon="10.643191"><ele>65</ele></trkpt>
   <trkpt lat="52.63843" lon="10.642647"><ele>66</ele></trkpt>
   <trkpt lat="52.637648" lon="10.642106"><ele>66.25</ele></trkpt>
   <trkpt lat="52.637292" lon="10.641863"><ele>65</ele></trkpt>
   <trkpt lat="52.637244" lon="10.64183"><ele>64.75</ele></trkpt>
   <trkpt lat="52.634858" lon="10.640237"><ele>62.5</ele></trkpt>
   <trkpt lat="52.634615" lon="10.640075"><ele>62.75</ele></trkpt>
   <trkpt lat="52.630451" lon="10.637294"><ele>62.25</ele></trkpt>
   <trkpt lat="52.630173" lon="10.637075"><ele>62.75</ele></trkpt>
   <trkpt lat="52.62998" lon="10.636922"><ele>62.75</ele></trkpt>
   <trkpt lat="52.629627" lon="10.636608"><ele>62.5</ele></trkpt>
   <trkpt lat="52.629327" lon="10.636314"><ele>62</ele></trkpt>
   <trkpt lat="52.629092" lon="10.636063"><ele>61.75</ele></trkpt>
   <trkpt lat="52.628972" lon="10.635934"><ele>61.75</ele></trkpt>
   <trkpt lat="52.628682" lon="10.635588"><ele>61.25</ele></trkpt>
   <trkpt lat="52.62837" lon="10.635196"><ele>61</ele></trkpt>
   <trkpt lat="52.628144" lon="10.634878"><ele>60.75</ele></trkpt>
   <trkpt lat="52.62772" lon="10.634221"><ele>60.75</ele></trkpt>
   <trkpt lat="52.627553" lon="10.633939"><ele>61.25</ele></trkpt>
   <trkpt lat="52.627294" lon="10.633468"><ele>61.5</ele></trkpt>
   <trkpt lat="52.627116" lon="10.633119"><ele>61.25</ele></trkpt>
   <trkpt lat="52.627059" lon="10.633012"><ele>61.25</ele></trkpt>
   <trkpt lat="52.625727" lon="10.630376"><ele>60.75</ele></trkpt>
   <trkpt lat="52.624719" lon="10.628345"><ele>61</ele></trkpt>
   <trkpt lat="52.623415" lon="10.625647"><ele>57.75</ele></trkpt>
   <trkpt lat="52.622055" lon="10.622976"><ele>55.75</ele></trkpt>
   <trkpt lat="52.619007" lon="10.617013"><ele>55</ele></trkpt>
   <trkpt lat="52.617067" lon="10.613211"><ele>55</ele></trkpt>
   <trkpt lat="52.616375" lon="10.611854"><ele>56</ele></trkpt>
   <trkpt lat="52.616209" lon="10.61155"><ele>56</ele></trkpt>
   <trkpt lat="52.615862" lon="10.610972"><ele>56.75</ele></trkpt>
   <trkpt lat="52.615683" lon="10.610696"><ele>56.75</ele></trkpt>
   <trkpt lat="52.615496" lon="10.610429"><ele>56.5</ele></trkpt>
   <trkpt lat="52.615421" lon="10.610323"><ele>56.5</ele></trkpt>
   <trkpt lat="52.615228" lon="10.610059"><ele>56.25</ele></trkpt>
   <trkpt lat="52.615031" lon="10.609805"><ele>55.75</ele></trkpt>
   <trkpt lat="52.614624" lon="10.609324"><ele>55</ele></trkpt>
   <trkpt lat="52.614198" lon="10.608887"><ele>55.25</ele></trkpt>
   <trkpt lat="52.613979" lon="10.608685"><ele>55.5</ele></trkpt>
   <trkpt lat="52.613536" lon="10.608303"><ele>55.75</ele></trkpt>
   <trkpt lat="52.613305" lon="10.608125"><ele>55.5</ele></trkpt>
   <trkpt lat="52.613171" lon="10.608028"><ele>55.5</ele></trkpt>
   <trkpt lat="52.612648" lon="10.607694"><ele>55</ele></trkpt>
   <trkpt lat="52.612382" lon="10.607541"><ele>55</ele></trkpt>
   <trkpt lat="52.612045" lon="10.607374"><ele>55.5</ele></trkpt>
   <trkpt lat="52.612014" lon="10.60736"><ele>55.5</ele></trkpt>
   <trkpt lat="52.611574" lon="10.60718"><ele>56</ele></trkpt>
   <trkpt lat="52.611299" lon="10.607081"><ele>56</ele></trkpt>
   <trkpt lat="52.611022" lon="10.607003"><ele>56</ele></trkpt>
   <trkpt lat="52.610744" lon="10.606941"><ele>55.75</ele></trkpt>
   <trkpt lat="52.610465" lon="10.606892"><ele>55.75</ele></trkpt>
   <trkpt lat="52.610185" lon="10.606859"><ele>55.75</ele></trkpt>
   <trkpt lat="52.609925" lon="10.606841"><ele>55.75</ele></trkpt>
   <trkpt lat="52.609813" lon="10.606839"><ele>56.25</ele></trkpt>
   <trkpt lat="52.609624" lon="10.606836"><ele>56.75</ele></trkpt>
   <trkpt lat="52.609201" lon="10.606863"><ele>57.75</ele></trkpt>
   <trkpt lat="52.608994" lon="10.606878"><ele>57.75</ele></trkpt>
   <trkpt lat="52.60875" lon="10.606882"><ele>57.75</ele></trkpt>
   <trkpt lat="52.608374" lon="10.606857"><ele>57.75</ele></trkpt>
   <trkpt lat="52.608175" lon="10.606856"><ele>57.5</ele></trkpt>
   <trkpt lat="52.608074" lon="10.606865"><ele>57.25</ele></trkpt>
   <trkpt lat="52.607379" lon="10.606923"><ele>56.5</ele></trkpt>
   <trkpt lat="52.606969" lon="10.606971"><ele>56.5</ele></trkpt>
   <trkpt lat="52.606423" lon="10.607035"><ele>56</ele></trkpt>
   <trkpt lat="52.606011" lon="10.607125"><ele>55.25</ele></trkpt>
   <trkpt lat="52.604495" lon="10.607294"><ele>57.25</ele></trkpt>
   <trkpt lat="52.603882" lon="10.607367"><ele>57.75</ele></trkpt>
   <trkpt lat="52.603566" lon="10.607435"><ele>57.25</ele></trkpt>
   <trkpt lat="52.603346" lon="10.607502"><ele>57</ele></trkpt>
   <trkpt lat="52.603079" lon="10.607551"><ele>57</ele></trkpt>
   <trkpt lat="52.601866" lon="10.607691"><ele>58.25</ele></trkpt>
   <trkpt lat="52.600423" lon="10.607869"><ele>59.25</ele></trkpt>
   <trkpt lat="52.594137" lon="10.6086"><ele>55.75</ele></trkpt>
   <trkpt lat="52.591659" lon="10.608885"><ele>56</ele></trkpt>
   <trkpt lat="52.591036" lon="10.60896"><ele>58.5</ele></trkpt>
   <trkpt lat="52.586644" lon="10.609459"><ele>55.75</ele></trkpt>
   <trkpt lat="52.57844" lon="10.610419"><ele>54.75</ele></trkpt>
   <trkpt lat="52.578018" lon="10.610469"><ele>54</ele></trkpt>
   <trkpt lat="52.576584" lon="10.610636"><ele>52</ele></trkpt>
   <trkpt lat="52.575704" lon="10.610742"><ele>53</ele></trkpt>
   <trkpt lat="52.57545" lon="10.610772"><ele>53.25</ele></trkpt>
   <trkpt lat="52.570439" lon="10.611343"><ele>53.25</ele></trkpt>
   <trkpt lat="52.570346" lon="10.611354"><ele>53.5</ele></trkpt>
   <trkpt lat="52.570285" lon="10.611361"><ele>53.75</ele></trkpt>
   <trkpt lat="52.569932" lon="10.611401"><ele>54.75</ele></trkpt>
   <trkpt lat="52.565186" lon="10.611934"><ele>54.25</ele></trkpt>
   <trkpt lat="52.564128" lon="10.612066"><ele>54.25</ele></trkpt>
   <trkpt lat="52.562268" lon="10.612275"><ele>54.25</ele></trkpt>
   <trkpt lat="52.562149" lon="10.612293"><ele>54.25</ele></trkpt>
   <trkpt lat="52.561454" lon="10.612367"><ele>53.75</ele></trkpt>
   <trkpt lat="52.559296" lon="10.61261"><ele>54.25</ele></trkpt>
   <trkpt lat="52.557976" lon="10.612759"><ele>52.5</ele></trkpt>
   <trkpt lat="52.557234" lon="10.612857"><ele>53.75</ele></trkpt>
   <trkpt lat="52.556472" lon="10.612887"><ele>55.25</ele></trkpt>
   <trkpt lat="52.555958" lon="10.612831"><ele>56</ele></trkpt>
   <trkpt lat="52.555738" lon="10.61279"><ele>56</ele></trkpt>
   <trkpt lat="52.555623" lon="10.612756"><ele>56</ele></trkpt>
   <trkpt lat="52.55517" lon="10.612636"><ele>55.25</ele></trkpt>
   <trkpt lat="52.554861" lon="10.612533"><ele>54.75</ele></trkpt>
   <trkpt lat="52.554225" lon="10.61224"><ele>54</ele></trkpt>
   <trkpt lat="52.554143" lon="10.612192"><ele>54</ele></trkpt>
   <trkpt lat="52.553784" lon="10.611944"><ele>54.25</ele></trkpt>
   <trkpt lat="52.553556" lon="10.611754"><ele>54.5</ele></trkpt>
   <trkpt lat="52.55325" lon="10.611499"><ele>55</ele></trkpt>
   <trkpt lat="52.553117" lon="10.611388"><ele>55</ele></trkpt>
   <trkpt lat="52.552983" lon="10.611264"><ele>55.25</ele></trkpt>
   <trkpt lat="52.550456" lon="10.609028"><ele>52.75</ele></trkpt>
   <trkpt lat="52.549442" lon="10.608149"><ele>52.5</ele></trkpt>
   <trkpt lat="52.549372" lon="10.60809"><ele>52.75</ele></trkpt>
   <trkpt lat="52.548638" lon="10.607445"><ele>53</ele></trkpt>
   <trkpt lat="52.548174" lon="10.607033"><ele>53</ele></trkpt>
   <trkpt lat="52.548136" lon="10.606998"><ele>53</ele></trkpt>
   <trkpt lat="52.548021" lon="10.606895"><ele>53</ele></trkpt>
   <trkpt lat="52.54789" lon="10.606784"><ele>53</ele></trkpt>
   <trkpt lat="52.547599" lon="10.606526"><ele>52.75</ele></trkpt>
   <trkpt lat="52.547012" lon="10.60601"><ele>52</ele></trkpt>
   <trkpt lat="52.546674" lon="10.605712"><ele>51.75</ele></trkpt>
   <trkpt lat="52.546477" lon="10.605539"><ele>52</ele></trkpt>
   <trkpt lat="52.545688" lon="10.604842"><ele>51.5</ele></trkpt>
   <trkpt lat="52.545381" lon="10.60457"><ele>50.75</ele></trkpt>
   <trkpt lat="52.543934" lon="10.603297"><ele>51.75</ele></trkpt>
   <trkpt lat="52.543195" lon="10.602647"><ele>51.25</ele></trkpt>
   <trkpt lat="52.542491" lon="10.602051"><ele>51.25</ele></trkpt>
   <trkpt lat="52.540975" lon="10.60071"><ele>51.75</ele></trkpt>
   <trkpt lat="52.540599" lon="10.600384"><ele>52</ele></trkpt>
   <trkpt lat="52.540073" lon="10.599923"><ele>52.75</ele></trkpt>
   <trkpt lat="52.538787" lon="10.59879"><ele>51</ele></trkpt>
   <trkpt lat="52.536551" lon="10.596825"><ele>51.5</ele></trkpt>
   <trkpt lat="52.534274" lon="10.59482"><ele>51.75</ele></trkpt>
   <trkpt lat="52.532943" lon="10.593654"><ele>51</ele></trkpt>
   <trkpt lat="52.532072" lon="10.592898"><ele>51.75</ele></trkpt>
   <trkpt lat="52.531942" lon="10.592783"><ele>51.75</ele></trkpt>
   <trkpt lat="52.531058" lon="10.59199"><ele>51.75</ele></trkpt>
   <trkpt lat="52.529885" lon="10.590967"><ele>51.75</ele></trkpt>
   <trkpt lat="52.527664" lon="10.589017"><ele>51</ele></trkpt>
   <trkpt lat="52.525484" lon="10.587108"><ele>51.75</ele></trkpt>
   <trkpt lat="52.523087" lon="10.584989"><ele>52.25</ele></trkpt>
   <trkpt lat="52.522525" lon="10.584498"><ele>51.75</ele></trkpt>
   <trkpt lat="52.521953" lon="10.584083"><ele>51.5</ele></trkpt>
   <trkpt lat="52.521344" lon="10.583731"><ele>51.75</ele></trkpt>
   <trkpt lat="52.520788" lon="10.583482"><ele>51</ele></trkpt>
   <trkpt lat="52.520682" lon="10.583435"><ele>51</ele></trkpt>
   <trkpt lat="52.519982" lon="10.583128"><ele>51.25</ele></trkpt>
   <trkpt lat="52.519756" lon="10.583029"><ele>51.75</ele></trkpt>
   <trkpt lat="52.518514" lon="10.582484"><ele>55.5</ele></trkpt>
   <trkpt lat="52.518293" lon="10.582386"><ele>56</ele></trkpt>
   <trkpt lat="52.517686" lon="10.582117"><ele>53.75</ele></trkpt>
   <trkpt lat="52.515683" lon="10.581236"><ele>53.5</ele></trkpt>
   <trkpt lat="52.515596" lon="10.581191"><ele>53.75</ele></trkpt>
   <trkpt lat="52.514708" lon="10.580815"><ele>55</ele></trkpt>
   <trkpt lat="52.514262" lon="10.58061"><ele>55.25</ele></trkpt>
   <trkpt lat="52.512315" lon="10.579765"><ele>56.5</ele></trkpt>
   <trkpt lat="52.511355" lon="10.579343"><ele>57.5</ele></trkpt>
   <trkpt lat="52.511344" lon="10.579338"><ele>57.75</ele></trkpt>
   <trkpt lat="52.511289" lon="10.579312"><ele>57.75</ele></trkpt>
   <trkpt lat="52.511076" lon="10.579204"><ele>58.5</ele></trkpt>
   <trkpt lat="52.510377" lon="10.578796"><ele>59</ele></trkpt>
   <trkpt lat="52.510094" lon="10.578622"><ele>58.75</ele></trkpt>
   <trkpt lat="52.509901" lon="10.578504"><ele>58.5</ele></trkpt>
   <trkpt lat="52.509853" lon="10.578474"><ele>58.5</ele></trkpt>
   <trkpt lat="52.509649" lon="10.578349"><ele>58.5</ele></trkpt>
   <trkpt lat="52.508963" lon="10.577943"><ele>58.75</ele></trkpt>
   <trkpt lat="52.507916" lon="10.577303"><ele>58.25</ele></trkpt>
   <trkpt lat="52.507431" lon="10.577002"><ele>58.25</ele></trkpt>
   <trkpt lat="52.507398" lon="10.576982"><ele>58.25</ele></trkpt>
   <trkpt lat="52.507316" lon="10.576929"><ele>58.25</ele></trkpt>
   <trkpt lat="52.507104" lon="10.576775"><ele>57.75</ele></trkpt>
   <trkpt lat="52.505852" lon="10.575875"><ele>57.75</ele></trkpt>
   <trkpt lat="52.503637" lon="10.574283"><ele>58</ele></trkpt>
   <trkpt lat="52.502307" lon="10.57334"><ele>59.75</ele></trkpt>
   <trkpt lat="52.500283" lon="10.571898"><ele>61.5</ele></trkpt>
   <trkpt lat="52.500205" lon="10.571837"><ele>61</ele></trkpt>
   <trkpt lat="52.499505" lon="10.571322"><ele>60</ele></trkpt>
   <trkpt lat="52.497155" lon="10.569635"><ele>58.5</ele></trkpt>
   <trkpt lat="52.496631" lon="10.569275"><ele>57.75</ele></trkpt>
   <trkpt lat="52.496534" lon="10.569207"><ele>57.75</ele></trkpt>
   <trkpt lat="52.496447" lon="10.569149"><ele>58</ele></trkpt>
   <trkpt lat="52.496307" lon="10.56905"><ele>58</ele></trkpt>
   <trkpt lat="52.495998" lon="10.568818"><ele>58.25</ele></trkpt>
   <trkpt lat="52.492328" lon="10.566198"><ele>56.75</ele></trkpt>
   <trkpt lat="52.491982" lon="10.565953"><ele>55.5</ele></trkpt>
   <trkpt lat="52.491354" lon="10.565495"><ele>55</ele></trkpt>
   <trkpt lat="52.491035" lon="10.565259"><ele>55.25</ele></trkpt>
   <trkpt lat="52.490054" lon="10.564542"><ele>55.5</ele></trkpt>
   <trkpt lat="52.489879" lon="10.564398"><ele>55</ele></trkpt>
   <trkpt lat="52.48961" lon="10.564117"><ele>54.25</ele></trkpt>
   <trkpt lat="52.489422" lon="10.563888"><ele>54</ele></trkpt>
   <trkpt lat="52.488726" lon="10.562957"><ele>54.5</ele></trkpt>
   <trkpt lat="52.488634" lon="10.562833"><ele>54.5</ele></trkpt>
   <trkpt lat="52.487584" lon="10.561029"><ele>54</ele></trkpt>
   <trkpt lat="52.486825" lon="10.559742"><ele>52.5</ele></trkpt>
   <trkpt lat="52.486596" lon="10.55936"><ele>51.5</ele></trkpt>
   <trkpt lat="52.486256" lon="10.558824"><ele>52</ele></trkpt>
   <trkpt lat="52.48587" lon="10.558285"><ele>52.75</ele></trkpt>
   <trkpt lat="52.485679" lon="10.55804"><ele>53</ele></trkpt>
   <trkpt lat="52.485451" lon="10.557766"><ele>53.5</ele></trkpt>
   <trkpt lat="52.483934" lon="10.555882"><ele>54</ele></trkpt>
   <trkpt lat="52.483566" lon="10.555357"><ele>53.75</ele></trkpt>
   <trkpt lat="52.483216" lon="10.554808"><ele>54.25</ele></trkpt>
   <trkpt lat="52.483078" lon="10.554568"><ele>54.25</ele></trkpt>
   <trkpt lat="52.482809" lon="10.554118"><ele>54.5</ele></trkpt>
   <trkpt lat="52.482376" lon="10.553366"><ele>55</ele></trkpt>
   <trkpt lat="52.481941" lon="10.552589"><ele>55.5</ele></trkpt>
   <trkpt lat="52.481596" lon="10.551973"><ele>56.5</ele></trkpt>
   <trkpt lat="52.481415" lon="10.551655"><ele>57.25</ele></trkpt>
   <trkpt lat="52.481227" lon="10.551303"><ele>57.5</ele></trkpt>
   <trkpt lat="52.481146" lon="10.551141"><ele>57.25</ele></trkpt>
   <trkpt lat="52.481098" lon="10.551026"><ele>57</ele></trkpt>
   <trkpt lat="52.481037" lon="10.55088"><ele>56.5</ele></trkpt>
   <trkpt lat="52.481001" lon="10.550789"><ele>56.25</ele></trkpt>
   <trkpt lat="52.480957" lon="10.550663"><ele>56</ele></trkpt>
   <trkpt lat="52.480926" lon="10.550571"><ele>55.75</ele></trkpt>
   <trkpt lat="52.480894" lon="10.550461"><ele>55.5</ele></trkpt>
   <trkpt lat="52.48084" lon="10.550282"><ele>55</ele></trkpt>
   <trkpt lat="52.480785" lon="10.550054"><ele>54</ele></trkpt>
   <trkpt lat="52.480731" lon="10.549773"><ele>53.75</ele></trkpt>
   <trkpt lat="52.480667" lon="10.549335"><ele>53.25</ele></trkpt>
   <trkpt lat="52.480629" lon="10.548909"><ele>53</ele></trkpt>
   <trkpt lat="52.4806" lon="10.548487"><ele>53.25</ele></trkpt>
   <trkpt lat="52.480508" lon="10.546602"><ele>54</ele></trkpt>
   <trkpt lat="52.480484" lon="10.546283"><ele>54.25</ele></trkpt>
   <trkpt lat="52.480446" lon="10.545928"><ele>54.25</ele></trkpt>
   <trkpt lat="52.480374" lon="10.54551"><ele>54.25</ele></trkpt>
   <trkpt lat="52.480253" lon="10.54487"><ele>54.25</ele></trkpt>
   <trkpt lat="52.480154" lon="10.544459"><ele>54.25</ele></trkpt>
   <trkpt lat="52.480126" lon="10.544362"><ele>54.25</ele></trkpt>
   <trkpt lat="52.480105" lon="10.544279"><ele>54</ele></trkpt>
   <trkpt lat="52.479945" lon="10.543718"><ele>54</ele></trkpt>
   <trkpt lat="52.479762" lon="10.543074"><ele>53.75</ele></trkpt>
   <trkpt lat="52.4796" lon="10.542507"><ele>53.5</ele></trkpt>
   <trkpt lat="52.478925" lon="10.540135"><ele>52</ele></trkpt>
   <trkpt lat="52.478743" lon="10.539534"><ele>52</ele></trkpt>
   <trkpt lat="52.478473" lon="10.538675"><ele>51.5</ele></trkpt>
   <trkpt lat="52.478334" lon="10.538309"><ele>51</ele></trkpt>
   <trkpt lat="52.478319" lon="10.538274"><ele>51</ele></trkpt>
   <trkpt lat="52.47818" lon="10.53796"><ele>51.25</ele></trkpt>
   <trkpt lat="52.478" lon="10.537603"><ele>51.25</ele></trkpt>
   <trkpt lat="52.477796" lon="10.537227"><ele>51.5</ele></trkpt>
   <trkpt lat="52.477562" lon="10.536832"><ele>51.75</ele></trkpt>
   <trkpt lat="52.477487" lon="10.536709"><ele>52</ele></trkpt>
   <trkpt lat="52.477182" lon="10.536241"><ele>52.75</ele></trkpt>
   <trkpt lat="52.476944" lon="10.535935"><ele>53.25</ele></trkpt>
   <trkpt lat="52.476757" lon="10.535726"><ele>53.75</ele></trkpt>
   <trkpt lat="52.476685" lon="10.535646"><ele>53.75</ele></trkpt>
   <trkpt lat="52.476415" lon="10.535393"><ele>54</ele></trkpt>
   <trkpt lat="52.476205" lon="10.535225"><ele>54</ele></trkpt>
   <trkpt lat="52.475975" lon="10.53506"><ele>54</ele></trkpt>
   <trkpt lat="52.475723" lon="10.534926"><ele>53.75</ele></trkpt>
   <trkpt lat="52.475319" lon="10.534771"><ele>54</ele></trkpt>
   <trkpt lat="52.475152" lon="10.534729"><ele>54</ele></trkpt>
   <trkpt lat="52.474789" lon="10.534648"><ele>54</ele></trkpt>
   <trkpt lat="52.471969" lon="10.533992"><ele>55.75</ele></trkpt>
   <trkpt lat="52.471705" lon="10.533932"><ele>55.5</ele></trkpt>
   <trkpt lat="52.47156" lon="10.533899"><ele>55.75</ele></trkpt>
   <trkpt lat="52.469516" lon="10.533432"><ele>57.5</ele></trkpt>
   <trkpt lat="52.468553" lon="10.533276"><ele>55.5</ele></trkpt>
   <trkpt lat="52.468492" lon="10.533266"><ele>55.25</ele></trkpt>
   <trkpt lat="52.466435" lon="10.532941"><ele>55</ele></trkpt>
   <trkpt lat="52.466138" lon="10.532905"><ele>54.75</ele></trkpt>
   <trkpt lat="52.465839" lon="10.532885"><ele>54.5</ele></trkpt>
   <trkpt lat="52.465503" lon="10.532906"><ele>54.25</ele></trkpt>
   <trkpt lat="52.46533" lon="10.532932"><ele>54</ele></trkpt>
   <trkpt lat="52.465161" lon="10.532958"><ele>54</ele></trkpt>
   <trkpt lat="52.464552" lon="10.533112"><ele>53.75</ele></trkpt>
   <trkpt lat="52.464036" lon="10.533249"><ele>54</ele></trkpt>
   <trkpt lat="52.462983" lon="10.533531"><ele>55.25</ele></trkpt>
   <trkpt lat="52.461785" lon="10.533852"><ele>56</ele></trkpt>
   <trkpt lat="52.461727" lon="10.533876"><ele>56.25</ele></trkpt>
   <trkpt lat="52.461537" lon="10.533926"><ele>56.25</ele></trkpt>
   <trkpt lat="52.460006" lon="10.534338"><ele>57.25</ele></trkpt>
   <trkpt lat="52.459596" lon="10.534453"><ele>57</ele></trkpt>
   <trkpt lat="52.459281" lon="10.534579"><ele>56.75</ele></trkpt>
   <trkpt lat="52.45895" lon="10.534771"><ele>56.5</ele></trkpt>
   <trkpt lat="52.458837" lon="10.534846"><ele>56.25</ele></trkpt>
   <trkpt lat="52.458508" lon="10.535128"><ele>55.75</ele></trkpt>
   <trkpt lat="52.458265" lon="10.535389"><ele>55.25</ele></trkpt>
   <trkpt lat="52.457846" lon="10.535923"><ele>53.5</ele></trkpt>
   <trkpt lat="52.457707" lon="10.536156"><ele>53.25</ele></trkpt>
   <trkpt lat="52.45758" lon="10.536386"><ele>53</ele></trkpt>
   <trkpt lat="52.457514" lon="10.536522"><ele>53</ele></trkpt>
   <trkpt lat="52.457372" lon="10.536817"><ele>53</ele></trkpt>
   <trkpt lat="52.45727" lon="10.537066"><ele>53</ele></trkpt>
   <trkpt lat="52.457163" lon="10.537357"><ele>53</ele></trkpt>
   <trkpt lat="52.456998" lon="10.537897"><ele>53.25</ele></trkpt>
   <trkpt lat="52.456897" lon="10.53833"><ele>53.5</ele></trkpt>
   <trkpt lat="52.45682" lon="10.538791"><ele>53.75</ele></trkpt>
   <trkpt lat="52.456805" lon="10.53889"><ele>53.75</ele></trkpt>
   <trkpt lat="52.456723" lon="10.53955"><ele>53.75</ele></trkpt>
   <trkpt lat="52.45666" lon="10.540166"><ele>54</ele></trkpt>
   <trkpt lat="52.456632" lon="10.540566"><ele>54.25</ele></trkpt>
   <trkpt lat="52.45663" lon="10.540603"><ele>54.25</ele></trkpt>
   <trkpt lat="52.456629" lon="10.540623"><ele>54.25</ele></trkpt>
   <trkpt lat="52.456603" lon="10.541012"><ele>54.75</ele></trkpt>
   <trkpt lat="52.45653" lon="10.541912"><ele>54.75</ele></trkpt>
   <trkpt lat="52.456438" lon="10.542895"><ele>54.25</ele></trkpt>
   <trkpt lat="52.456351" lon="10.543693"><ele>54</ele></trkpt>
   <trkpt lat="52.456338" lon="10.543793"><ele>54</ele></trkpt>
   <trkpt lat="52.456337" lon="10.543808"><ele>54</ele></trkpt>
   <trkpt lat="52.456276" lon="10.544377"><ele>54.5</ele></trkpt>
   <trkpt lat="52.456236" lon="10.544852"><ele>55.25</ele></trkpt>
   <trkpt lat="52.456195" lon="10.545294"><ele>55.5</ele></trkpt>
   <trkpt lat="52.456109" lon="10.545914"><ele>55.25</ele></trkpt>
   <trkpt lat="52.456088" lon="10.546043"><ele>55.25</ele></trkpt>
   <trkpt lat="52.456011" lon="10.546495"><ele>55</ele></trkpt>
   <trkpt lat="52.455998" lon="10.546571"><ele>55</ele></trkpt>
   <trkpt lat="52.455664" lon="10.548537"><ele>54.5</ele></trkpt>
   <trkpt lat="52.455653" lon="10.548598"><ele>54.5</ele></trkpt>
   <trkpt lat="52.455645" lon="10.548655"><ele>54.5</ele></trkpt>
   <trkpt lat="52.455481" lon="10.549615"><ele>54.25</ele></trkpt>
   <trkpt lat="52.455394" lon="10.550207"><ele>54.25</ele></trkpt>
   <trkpt lat="52.455348" lon="10.550638"><ele>54.25</ele></trkpt>
   <trkpt lat="52.455343" lon="10.550677"><ele>54.25</ele></trkpt>
   <trkpt lat="52.455204" lon="10.552074"><ele>54</ele></trkpt>
   <trkpt lat="52.455125" lon="10.552684"><ele>54</ele></trkpt>
   <trkpt lat="52.455023" lon="10.5533"><ele>54</ele></trkpt>
   <trkpt lat="52.454992" lon="10.553447"><ele>53.5</ele></trkpt>
   <trkpt lat="52.454779" lon="10.554492"><ele>53.5</ele></trkpt>
   <trkpt lat="52.454778" lon="10.554492"><ele>53.5</ele></trkpt>
   <trkpt lat="52.45457" lon="10.555301"><ele>53</ele></trkpt>
   <trkpt lat="52.454367" lon="10.556003"><ele>52.75</ele></trkpt>
   <trkpt lat="52.454241" lon="10.556408"><ele>52.25</ele></trkpt>
   <trkpt lat="52.454007" lon="10.5571"><ele>52</ele></trkpt>
   <trkpt lat="52.453863" lon="10.557503"><ele>52.25</ele></trkpt>
   <trkpt lat="52.453431" lon="10.558639"><ele>53.75</ele></trkpt>
   <trkpt lat="52.453075" lon="10.559597"><ele>54.5</ele></trkpt>
   <trkpt lat="52.452554" lon="10.561065"><ele>57.5</ele></trkpt>
   <trkpt lat="52.450837" lon="10.565977"><ele>59</ele></trkpt>
   <trkpt lat="52.450318" lon="10.567447"><ele>59.5</ele></trkpt>
   <trkpt lat="52.449776" lon="10.568992"><ele>61.75</ele></trkpt>
   <trkpt lat="52.449553" lon="10.569587"><ele>62.5</ele></trkpt>
   <trkpt lat="52.449268" lon="10.5702"><ele>63</ele></trkpt>
   <trkpt lat="52.449114" lon="10.570472"><ele>62.75</ele></trkpt>
   <trkpt lat="52.448941" lon="10.570754"><ele>62.25</ele></trkpt>
   <trkpt lat="52.448591" lon="10.57123"><ele>61.25</ele></trkpt>
   <trkpt lat="52.448553" lon="10.571289"><ele>61</ele></trkpt>
   <trkpt lat="52.448377" lon="10.571494"><ele>60.25</ele></trkpt>
   <trkpt lat="52.447959" lon="10.571913"><ele>60</ele></trkpt>
   <trkpt lat="52.447836" lon="10.572011"><ele>60</ele></trkpt>
   <trkpt lat="52.447734" lon="10.572093"><ele>60</ele></trkpt>
   <trkpt lat="52.447489" lon="10.572267"><ele>59.75</ele></trkpt>
   <trkpt lat="52.447256" lon="10.572409"><ele>59.25</ele></trkpt>
   <trkpt lat="52.446899" lon="10.572587"><ele>58.5</ele></trkpt>
   <trkpt lat="52.44647" lon="10.572732"><ele>58</ele></trkpt>
   <trkpt lat="52.446146" lon="10.572784"><ele>57.75</ele></trkpt>
   <trkpt lat="52.4459" lon="10.572793"><ele>57.75</ele></trkpt>
   <trkpt lat="52.445576" lon="10.572784"><ele>57.25</ele></trkpt>
   <trkpt lat="52.445142" lon="10.572698"><ele>57</ele></trkpt>
   <trkpt lat="52.444558" lon="10.572462"><ele>56.25</ele></trkpt>
   <trkpt lat="52.44414" lon="10.572233"><ele>56.25</ele></trkpt>
   <trkpt lat="52.443649" lon="10.571838"><ele>56.75</ele></trkpt>
   <trkpt lat="52.4434" lon="10.571594"><ele>57</ele></trkpt>
   <trkpt lat="52.443149" lon="10.571296"><ele>57</ele></trkpt>
   <trkpt lat="52.442915" lon="10.570987"><ele>57</ele></trkpt>
   <trkpt lat="52.442828" lon="10.570856"><ele>57</ele></trkpt>
   <trkpt lat="52.442682" lon="10.570621"><ele>57</ele></trkpt>
   <trkpt lat="52.442548" lon="10.570406"><ele>56.75</ele></trkpt>
   <trkpt lat="52.442397" lon="10.57012"><ele>57</ele></trkpt>
   <trkpt lat="52.442207" lon="10.569718"><ele>57</ele></trkpt>
   <trkpt lat="52.442058" lon="10.569375"><ele>57</ele></trkpt>
   <trkpt lat="52.441968" lon="10.56911"><ele>57</ele></trkpt>
   <trkpt lat="52.441843" lon="10.568734"><ele>56.75</ele></trkpt>
   <trkpt lat="52.441704" lon="10.56824"><ele>56.75</ele></trkpt>
   <trkpt lat="52.441577" lon="10.567687"><ele>56.5</ele></trkpt>
   <trkpt lat="52.441481" lon="10.567118"><ele>56.5</ele></trkpt>
   <trkpt lat="52.441426" lon="10.566695"><ele>56.75</ele></trkpt>
   <trkpt lat="52.441395" lon="10.566353"><ele>56.25</ele></trkpt>
   <trkpt lat="52.441365" lon="10.565912"><ele>55.75</ele></trkpt>
   <trkpt lat="52.441361" lon="10.565776"><ele>55.5</ele></trkpt>
   <trkpt lat="52.44136" lon="10.56574"><ele>55.25</ele></trkpt>
   <trkpt lat="52.441358" lon="10.565682"><ele>55.25</ele></trkpt>
   <trkpt lat="52.441348" lon="10.565319"><ele>54.5</ele></trkpt>
   <trkpt lat="52.441318" lon="10.564109"><ele>54.5</ele></trkpt>
   <trkpt lat="52.441289" lon="10.562642"><ele>54.75</ele></trkpt>
   <trkpt lat="52.441267" lon="10.56185"><ele>55</ele></trkpt>
   <trkpt lat="52.441265" lon="10.561717"><ele>55</ele></trkpt>
   <trkpt lat="52.441234" lon="10.560584"><ele>55</ele></trkpt>
   <trkpt lat="52.441184" lon="10.558276"><ele>55</ele></trkpt>
   <trkpt lat="52.441179" lon="10.558134"><ele>55</ele></trkpt>
   <trkpt lat="52.441172" lon="10.557845"><ele>55</ele></trkpt>
   <trkpt lat="52.441163" lon="10.557493"><ele>55</ele></trkpt>
   <trkpt lat="52.441162" lon="10.557465"><ele>55</ele></trkpt>
   <trkpt lat="52.441158" lon="10.557245"><ele>55</ele></trkpt>
   <trkpt lat="52.440982" lon="10.550012"><ele>56.75</ele></trkpt>
   <trkpt lat="52.440942" lon="10.548316"><ele>57.25</ele></trkpt>
   <trkpt lat="52.440917" lon="10.547402"><ele>56</ele></trkpt>
   <trkpt lat="52.440866" lon="10.545061"><ele>52</ele></trkpt>
   <trkpt lat="52.440754" lon="10.540769"><ele>58.5</ele></trkpt>
   <trkpt lat="52.440695" lon="10.540065"><ele>59.25</ele></trkpt>
   <trkpt lat="52.440602" lon="10.539407"><ele>57.5</ele></trkpt>
   <trkpt lat="52.440484" lon="10.538773"><ele>56</ele></trkpt>
   <trkpt lat="52.440374" lon="10.538354"><ele>55.25</ele></trkpt>
   <trkpt lat="52.44034" lon="10.538254"><ele>55.25</ele></trkpt>
   <trkpt lat="52.440315" lon="10.538174"><ele>55</ele></trkpt>
   <trkpt lat="52.440271" lon="10.538036"><ele>55</ele></trkpt>
   <trkpt lat="52.440233" lon="10.537919"><ele>55</ele></trkpt>
   <trkpt lat="52.440164" lon="10.537715"><ele>54.75</ele></trkpt>
   <trkpt lat="52.440111" lon="10.537571"><ele>54.75</ele></trkpt>
   <trkpt lat="52.439921" lon="10.537108"><ele>55</ele></trkpt>
   <trkpt lat="52.439749" lon="10.536736"><ele>55.25</ele></trkpt>
   <trkpt lat="52.439557" lon="10.536382"><ele>55.5</ele></trkpt>
   <trkpt lat="52.439332" lon="10.536023"><ele>55.75</ele></trkpt>
   <trkpt lat="52.439114" lon="10.535726"><ele>56</ele></trkpt>
   <trkpt lat="52.438957" lon="10.535529"><ele>56.25</ele></trkpt>
   <trkpt lat="52.438778" lon="10.535324"><ele>56.25</ele></trkpt>
   <trkpt lat="52.438603" lon="10.535144"><ele>56.5</ele></trkpt>
   <trkpt lat="52.438288" lon="10.534863"><ele>56.5</ele></trkpt>
   <trkpt lat="52.438069" lon="10.534693"><ele>56</ele></trkpt>
   <trkpt lat="52.43762" lon="10.534432"><ele>55</ele></trkpt>
   <trkpt lat="52.437147" lon="10.534235"><ele>54</ele></trkpt>
   <trkpt lat="52.43487" lon="10.53338"><ele>54</ele></trkpt>
   <trkpt lat="52.43341" lon="10.532836"><ele>54.25</ele></trkpt>
   <trkpt lat="52.433115" lon="10.532723"><ele>54.75</ele></trkpt>
   <trkpt lat="52.433061" lon="10.532706"><ele>54.75</ele></trkpt>
   <trkpt lat="52.431776" lon="10.532222"><ele>57.75</ele></trkpt>
   <trkpt lat="52.431373" lon="10.532069"><ele>58.5</ele></trkpt>
   <trkpt lat="52.431328" lon="10.532052"><ele>58.5</ele></trkpt>
   <trkpt lat="52.431198" lon="10.532003"><ele>58.5</ele></trkpt>
   <trkpt lat="52.430236" lon="10.531643"><ele>56.75</ele></trkpt>
   <trkpt lat="52.429783" lon="10.531495"><ele>56</ele></trkpt>
   <trkpt lat="52.429698" lon="10.531469"><ele>56</ele></trkpt>
   <trkpt lat="52.428302" lon="10.531037"><ele>56.25</ele></trkpt>
   <trkpt lat="52.427289" lon="10.530729"><ele>57.5</ele></trkpt>
   <trkpt lat="52.426863" lon="10.530598"><ele>58.5</ele></trkpt>
   <trkpt lat="52.425018" lon="10.530014"><ele>58.75</ele></trkpt>
   <trkpt lat="52.424794" lon="10.529944"><ele>59.5</ele></trkpt>
   <trkpt lat="52.423373" lon="10.529507"><ele>60</ele></trkpt>
   <trkpt lat="52.422989" lon="10.529392"><ele>60.5</ele></trkpt>
   <trkpt lat="52.422481" lon="10.529228"><ele>61</ele></trkpt>
   <trkpt lat="52.422142" lon="10.529122"><ele>61.25</ele></trkpt>
   <trkpt lat="52.421603" lon="10.52895"><ele>62</ele></trkpt>
   <trkpt lat="52.420965" lon="10.528738"><ele>62.75</ele></trkpt>
   <trkpt lat="52.420802" lon="10.528663"><ele>62.75</ele></trkpt>
   <trkpt lat="52.420562" lon="10.528541"><ele>62.25</ele></trkpt>
   <trkpt lat="52.420407" lon="10.528445"><ele>61.75</ele></trkpt>
   <trkpt lat="52.420176" lon="10.528291"><ele>61.25</ele></trkpt>
   <trkpt lat="52.420008" lon="10.528164"><ele>61</ele></trkpt>
   <trkpt lat="52.419944" lon="10.528116"><ele>61.25</ele></trkpt>
   <trkpt lat="52.419926" lon="10.5281"><ele>61.25</ele></trkpt>
   <trkpt lat="52.419901" lon="10.528079"><ele>61.25</ele></trkpt>
   <trkpt lat="52.419727" lon="10.527929"><ele>61.25</ele></trkpt>
   <trkpt lat="52.419447" lon="10.527659"><ele>60.75</ele></trkpt>
   <trkpt lat="52.419226" lon="10.527418"><ele>60</ele></trkpt>
   <trkpt lat="52.418994" lon="10.527137"><ele>59.75</ele></trkpt>
   <trkpt lat="52.418449" lon="10.526368"><ele>59.75</ele></trkpt>
   <trkpt lat="52.418323" lon="10.526191"><ele>60</ele></trkpt>
   <trkpt lat="52.418059" lon="10.525814"><ele>60.75</ele></trkpt>
   <trkpt lat="52.41781" lon="10.525479"><ele>61.75</ele></trkpt>
   <trkpt lat="52.417647" lon="10.525281"><ele>62.25</ele></trkpt>
   <trkpt lat="52.417503" lon="10.525132"><ele>62.75</ele></trkpt>
   <trkpt lat="52.417197" lon="10.52486"><ele>63</ele></trkpt>
   <trkpt lat="52.416837" lon="10.524611"><ele>62.75</ele></trkpt>
   <trkpt lat="52.416764" lon="10.524566"><ele>62.75</ele></trkpt>
   <trkpt lat="52.416296" lon="10.52435"><ele>62.75</ele></trkpt>
   <trkpt lat="52.416112" lon="10.524278"><ele>62.75</ele></trkpt>
   <trkpt lat="52.416105" lon="10.524276"><ele>62.75</ele></trkpt>
   <trkpt lat="52.415373" lon="10.523974"><ele>62</ele></trkpt>
   <trkpt lat="52.414678" lon="10.523681"><ele>61.25</ele></trkpt>
   <trkpt lat="52.413296" lon="10.523104"><ele>61.75</ele></trkpt>
   <trkpt lat="52.412502" lon="10.522777"><ele>62.25</ele></trkpt>
   <trkpt lat="52.410422" lon="10.521919"><ele>64.25</ele></trkpt>
   <trkpt lat="52.41012" lon="10.521794"><ele>64.75</ele></trkpt>
   <trkpt lat="52.410025" lon="10.521753"><ele>64.75</ele></trkpt>
   <trkpt lat="52.410005" lon="10.521746"><ele>64.75</ele></trkpt>
   <trkpt lat="52.408144" lon="10.520979"><ele>65.5</ele></trkpt>
   <trkpt lat="52.407068" lon="10.520532"><ele>67</ele></trkpt>
   <trkpt lat="52.406811" lon="10.520439"><ele>67</ele></trkpt>
   <trkpt lat="52.406564" lon="10.52037"><ele>67.25</ele></trkpt>
   <trkpt lat="52.406136" lon="10.520292"><ele>68.5</ele></trkpt>
   <trkpt lat="52.405643" lon="10.520278"><ele>69</ele></trkpt>
   <trkpt lat="52.405185" lon="10.52033"><ele>68.25</ele></trkpt>
   <trkpt lat="52.404732" lon="10.520447"><ele>68.5</ele></trkpt>
   <trkpt lat="52.404407" lon="10.520557"><ele>69.25</ele></trkpt>
   <trkpt lat="52.403879" lon="10.520798"><ele>70.25</ele></trkpt>
   <trkpt lat="52.402125" lon="10.521558"><ele>72</ele></trkpt>
   <trkpt lat="52.401987" lon="10.521617"><ele>72.75</ele></trkpt>
   <trkpt lat="52.39515" lon="10.524593"><ele>80</ele></trkpt>
   <trkpt lat="52.39397" lon="10.525111"><ele>82.25</ele></trkpt>
   <trkpt lat="52.393525" lon="10.525311"><ele>83.25</ele></trkpt>
   <trkpt lat="52.392836" lon="10.52561"><ele>83.5</ele></trkpt>
   <trkpt lat="52.392579" lon="10.525729"><ele>83.5</ele></trkpt>
   <trkpt lat="52.391699" lon="10.526111"><ele>81.25</ele></trkpt>
   <trkpt lat="52.391516" lon="10.526199"><ele>81.5</ele></trkpt>
   <trkpt lat="52.391229" lon="10.526357"><ele>82</ele></trkpt>
   <trkpt lat="52.390966" lon="10.52654"><ele>82.5</ele></trkpt>
   <trkpt lat="52.390654" lon="10.526781"><ele>82.75</ele></trkpt>
   <trkpt lat="52.390341" lon="10.527077"><ele>82.25</ele></trkpt>
   <trkpt lat="52.389978" lon="10.527468"><ele>81</ele></trkpt>
   <trkpt lat="52.389659" lon="10.527884"><ele>78.5</ele></trkpt>
   <trkpt lat="52.389486" lon="10.528135"><ele>77.25</ele></trkpt>
   <trkpt lat="52.389261" lon="10.528494"><ele>76</ele></trkpt>
   <trkpt lat="52.38903" lon="10.528935"><ele>75.75</ele></trkpt>
   <trkpt lat="52.388805" lon="10.52939"><ele>76.25</ele></trkpt>
   <trkpt lat="52.388795" lon="10.529415"><ele>76.25</ele></trkpt>
   <trkpt lat="52.388269" lon="10.530597"><ele>76.75</ele></trkpt>
   <trkpt lat="52.388064" lon="10.531057"><ele>76.5</ele></trkpt>
   <trkpt lat="52.387929" lon="10.531361"><ele>76.25</ele></trkpt>
   <trkpt lat="52.387845" lon="10.531549"><ele>76.5</ele></trkpt>
   <trkpt lat="52.387788" lon="10.531677"><ele>76.5</ele></trkpt>
   <trkpt lat="52.387735" lon="10.531792"><ele>76.5</ele></trkpt>
   <trkpt lat="52.387656" lon="10.531961"><ele>76.5</ele></trkpt>
   <trkpt lat="52.387618" lon="10.532045"><ele>76.75</ele></trkpt>
   <trkpt lat="52.387432" lon="10.5324"><ele>77</ele></trkpt>
   <trkpt lat="52.387282" lon="10.532646"><ele>77</ele></trkpt>
   <trkpt lat="52.387124" lon="10.532884"><ele>76.75</ele></trkpt>
   <trkpt lat="52.386881" lon="10.533194"><ele>76.75</ele></trkpt>
   <trkpt lat="52.386608" lon="10.533486"><ele>77</ele></trkpt>
   <trkpt lat="52.38634" lon="10.53372"><ele>77.25</ele></trkpt>
   <trkpt lat="52.385585" lon="10.53423"><ele>78.25</ele></trkpt>
   <trkpt lat="52.385578" lon="10.534234"><ele>78.25</ele></trkpt>
   <trkpt lat="52.385106" lon="10.534529"><ele>78.5</ele></trkpt>
   <trkpt lat="52.384846" lon="10.53464"><ele>78.25</ele></trkpt>
   <trkpt lat="52.384578" lon="10.534728"><ele>78.25</ele></trkpt>
   <trkpt lat="52.384484" lon="10.534759"><ele>78.25</ele></trkpt>
   <trkpt lat="52.384379" lon="10.534798"><ele>78</ele></trkpt>
   <trkpt lat="52.382201" lon="10.535524"><ele>79.5</ele></trkpt>
   <trkpt lat="52.381211" lon="10.535859"><ele>81</ele></trkpt>
   <trkpt lat="52.380523" lon="10.536088"><ele>81.5</ele></trkpt>
   <trkpt lat="52.380362" lon="10.536137"><ele>81.25</ele></trkpt>
   <trkpt lat="52.380293" lon="10.536162"><ele>81.25</ele></trkpt>
   <trkpt lat="52.380247" lon="10.536176"><ele>81.25</ele></trkpt>
   <trkpt lat="52.380207" lon="10.536188"><ele>81.25</ele></trkpt>
   <trkpt lat="52.380152" lon="10.536204"><ele>81.25</ele></trkpt>
   <trkpt lat="52.379837" lon="10.536277"><ele>81.25</ele></trkpt>
   <trkpt lat="52.379565" lon="10.536292"><ele>80.75</ele></trkpt>
   <trkpt lat="52.379517" lon="10.536295"><ele>80.75</ele></trkpt>
   <trkpt lat="52.379258" lon="10.536267"><ele>80.5</ele></trkpt>
   <trkpt lat="52.379174" lon="10.536256"><ele>80.5</ele></trkpt>
   <trkpt lat="52.378317" lon="10.535969"><ele>80.5</ele></trkpt>
   <trkpt lat="52.377784" lon="10.535783"><ele>80.25</ele></trkpt>
   <trkpt lat="52.377341" lon="10.5357"><ele>79.75</ele></trkpt>
   <trkpt lat="52.377087" lon="10.535696"><ele>79.5</ele></trkpt>
   <trkpt lat="52.376778" lon="10.535739"><ele>79</ele></trkpt>
   <trkpt lat="52.376577" lon="10.535782"><ele>78.75</ele></trkpt>
   <trkpt lat="52.375899" lon="10.536008"><ele>78</ele></trkpt>
   <trkpt lat="52.375865" lon="10.53602"><ele>78</ele></trkpt>
   <trkpt lat="52.375199" lon="10.536253"><ele>79.5</ele></trkpt>
   <trkpt lat="52.375135" lon="10.536276"><ele>79.5</ele></trkpt>
   <trkpt lat="52.374454" lon="10.536522"><ele>80.75</ele></trkpt>
   <trkpt lat="52.37384" lon="10.536745"><ele>81</ele></trkpt>
   <trkpt lat="52.373628" lon="10.536819"><ele>81</ele></trkpt>
   <trkpt lat="52.372379" lon="10.537263"><ele>82.25</ele></trkpt>
   <trkpt lat="52.371584" lon="10.537544"><ele>82.75</ele></trkpt>
   <trkpt lat="52.37154" lon="10.53756"><ele>82.75</ele></trkpt>
   <trkpt lat="52.371496" lon="10.537576"><ele>82.5</ele></trkpt>
   <trkpt lat="52.370153" lon="10.538044"><ele>82.5</ele></trkpt>
   <trkpt lat="52.36974" lon="10.538202"><ele>83</ele></trkpt>
   <trkpt lat="52.368622" lon="10.538597"><ele>83</ele></trkpt>
   <trkpt lat="52.368253" lon="10.538713"><ele>83</ele></trkpt>
   <trkpt lat="52.367954" lon="10.53878"><ele>83.25</ele></trkpt>
   <trkpt lat="52.367699" lon="10.538826"><ele>83.75</ele></trkpt>
   <trkpt lat="52.367148" lon="10.538871"><ele>84</ele></trkpt>
   <trkpt lat="52.367097" lon="10.538874"><ele>84</ele></trkpt>
   <trkpt lat="52.367004" lon="10.538882"><ele>84</ele></trkpt>
   <trkpt lat="52.363879" lon="10.538922"><ele>82.5</ele></trkpt>
   <trkpt lat="52.363566" lon="10.538927"><ele>82.25</ele></trkpt>
   <trkpt lat="52.360649" lon="10.538984"><ele>81.75</ele></trkpt>
   <trkpt lat="52.359916" lon="10.538995"><ele>81.25</ele></trkpt>
   <trkpt lat="52.359885" lon="10.538995"><ele>81.25</ele></trkpt>
   <trkpt lat="52.359786" lon="10.538995"><ele>81.25</ele></trkpt>
   <trkpt lat="52.359174" lon="10.539002"><ele>82</ele></trkpt>
   <trkpt lat="52.358496" lon="10.53902"><ele>82.75</ele></trkpt>
   <trkpt lat="52.357989" lon="10.539014"><ele>83.25</ele></trkpt>
   <trkpt lat="52.357697" lon="10.538982"><ele>83.5</ele></trkpt>
   <trkpt lat="52.357382" lon="10.538913"><ele>83.5</ele></trkpt>
   <trkpt lat="52.356831" lon="10.538774"><ele>83.5</ele></trkpt>
   <trkpt lat="52.356089" lon="10.53857"><ele>82.25</ele></trkpt>
   <trkpt lat="52.355154" lon="10.538319"><ele>82</ele></trkpt>
   <trkpt lat="52.354541" lon="10.538152"><ele>83.25</ele></trkpt>
   <trkpt lat="52.354387" lon="10.538118"><ele>83.75</ele></trkpt>
   <trkpt lat="52.354105" lon="10.538076"><ele>84.5</ele></trkpt>
   <trkpt lat="52.353922" lon="10.538056"><ele>84.5</ele></trkpt>
   <trkpt lat="52.353547" lon="10.53805"><ele>84.25</ele></trkpt>
   <trkpt lat="52.352638" lon="10.538074"><ele>82</ele></trkpt>
   <trkpt lat="52.351904" lon="10.538093"><ele>82.25</ele></trkpt>
   <trkpt lat="52.35183" lon="10.538095"><ele>82.5</ele></trkpt>
   <trkpt lat="52.350759" lon="10.538122"><ele>83</ele></trkpt>
   <trkpt lat="52.350178" lon="10.53814"><ele>82.25</ele></trkpt>
   <trkpt lat="52.350034" lon="10.538143"><ele>82.25</ele></trkpt>
   <trkpt lat="52.349546" lon="10.538158"><ele>82.25</ele></trkpt>
   <trkpt lat="52.349137" lon="10.538165"><ele>82.25</ele></trkpt>
   <trkpt lat="52.349109" lon="10.538164"><ele>82.25</ele></trkpt>
   <trkpt lat="52.348248" lon="10.538155"><ele>80.75</ele></trkpt>
   <trkpt lat="52.348242" lon="10.538154"><ele>80.75</ele></trkpt>
   <trkpt lat="52.347592" lon="10.538093"><ele>82</ele></trkpt>
   <trkpt lat="52.346984" lon="10.537994"><ele>83.25</ele></trkpt>
   <trkpt lat="52.345834" lon="10.537763"><ele>85.5</ele></trkpt>
   <trkpt lat="52.345208" lon="10.53759"><ele>87</ele></trkpt>
   <trkpt lat="52.344824" lon="10.53746"><ele>87</ele></trkpt>
   <trkpt lat="52.344618" lon="10.537377"><ele>88</ele></trkpt>
   <trkpt lat="52.344438" lon="10.537292"><ele>89</ele></trkpt>
   <trkpt lat="52.344117" lon="10.537112"><ele>90.5</ele></trkpt>
   <trkpt lat="52.343886" lon="10.536962"><ele>89.5</ele></trkpt>
   <trkpt lat="52.343674" lon="10.536808"><ele>88.25</ele></trkpt>
   <trkpt lat="52.343438" lon="10.536617"><ele>87</ele></trkpt>
   <trkpt lat="52.3432" lon="10.536403"><ele>85.5</ele></trkpt>
   <trkpt lat="52.342916" lon="10.536117"><ele>83.5</ele></trkpt>
   <trkpt lat="52.342692" lon="10.535869"><ele>81.75</ele></trkpt>
   <trkpt lat="52.342474" lon="10.535607"><ele>80.5</ele></trkpt>
   <trkpt lat="52.3423" lon="10.535381"><ele>79.75</ele></trkpt>
   <trkpt lat="52.342022" lon="10.534978"><ele>78.75</ele></trkpt>
   <trkpt lat="52.34165" lon="10.534364"><ele>78.5</ele></trkpt>
   <trkpt lat="52.340988" lon="10.533141"><ele>76.75</ele></trkpt>
   <trkpt lat="52.340115" lon="10.531489"><ele>75</ele></trkpt>
   <trkpt lat="52.33989" lon="10.531061"><ele>75.75</ele></trkpt>
   <trkpt lat="52.339406" lon="10.53015"><ele>76.5</ele></trkpt>
   <trkpt lat="52.339191" lon="10.52979"><ele>76.5</ele></trkpt>
   <trkpt lat="52.338999" lon="10.529501"><ele>76.25</ele></trkpt>
   <trkpt lat="52.338804" lon="10.529234"><ele>75.5</ele></trkpt>
   <trkpt lat="52.338623" lon="10.529012"><ele>74.75</ele></trkpt>
   <trkpt lat="52.337687" lon="10.527938"><ele>72</ele></trkpt>
   <trkpt lat="52.337621" lon="10.527863"><ele>72</ele></trkpt>
   <trkpt lat="52.334947" lon="10.524794"><ele>72.75</ele></trkpt>
   <trkpt lat="52.334933" lon="10.524781"><ele>72.75</ele></trkpt>
   <trkpt lat="52.334915" lon="10.524762"><ele>72.75</ele></trkpt>
   <trkpt lat="52.334858" lon="10.524693"><ele>72.5</ele></trkpt>
   <trkpt lat="52.33482" lon="10.524647"><ele>72.25</ele></trkpt>
   <trkpt lat="52.334806" lon="10.524627"><ele>72.25</ele></trkpt>
   <trkpt lat="52.334403" lon="10.524182"><ele>70.75</ele></trkpt>
   <trkpt lat="52.334118" lon="10.52391"><ele>70</ele></trkpt>
   <trkpt lat="52.333975" lon="10.523811"><ele>70</ele></trkpt>
   <trkpt lat="52.333761" lon="10.523681"><ele>70</ele></trkpt>
   <trkpt lat="52.33308" lon="10.523367"><ele>70</ele></trkpt>
   <trkpt lat="52.3321" lon="10.522921"><ele>69.5</ele></trkpt>
   <trkpt lat="52.331819" lon="10.522792"><ele>69.75</ele></trkpt>
   <trkpt lat="52.331465" lon="10.522631"><ele>70.25</ele></trkpt>
   <trkpt lat="52.331432" lon="10.522616"><ele>70.25</ele></trkpt>
   <trkpt lat="52.331091" lon="10.52246"><ele>70.5</ele></trkpt>
   <trkpt lat="52.330763" lon="10.522313"><ele>71</ele></trkpt>
   <trkpt lat="52.330211" lon="10.52209"><ele>71.5</ele></trkpt>
   <trkpt lat="52.330184" lon="10.52208"><ele>71.75</ele></trkpt>
   <trkpt lat="52.330153" lon="10.522071"><ele>71.75</ele></trkpt>
   <trkpt lat="52.329972" lon="10.522022"><ele>71.75</ele></trkpt>
   <trkpt lat="52.329583" lon="10.521935"><ele>71.25</ele></trkpt>
   <trkpt lat="52.329454" lon="10.521922"><ele>71.25</ele></trkpt>
   <trkpt lat="52.3292" lon="10.521916"><ele>71</ele></trkpt>
   <trkpt lat="52.329076" lon="10.521923"><ele>71</ele></trkpt>
   <trkpt lat="52.328973" lon="10.521937"><ele>71</ele></trkpt>
   <trkpt lat="52.328814" lon="10.52197"><ele>71</ele></trkpt>
   <trkpt lat="52.328645" lon="10.522023"><ele>71</ele></trkpt>
   <trkpt lat="52.328436" lon="10.522111"><ele>70.75</ele></trkpt>
   <trkpt lat="52.328135" lon="10.522274"><ele>71.25</ele></trkpt>
   <trkpt lat="52.327298" lon="10.522805"><ele>71</ele></trkpt>
   <trkpt lat="52.327199" lon="10.522866"><ele>71</ele></trkpt>
   <trkpt lat="52.326973" lon="10.523004"><ele>71.25</ele></trkpt>
   <trkpt lat="52.326897" lon="10.523052"><ele>71.25</ele></trkpt>
   <trkpt lat="52.326614" lon="10.523235"><ele>71.75</ele></trkpt>
   <trkpt lat="52.326431" lon="10.523348"><ele>71.5</ele></trkpt>
   <trkpt lat="52.326411" lon="10.523362"><ele>71.5</ele></trkpt>
   <trkpt lat="52.325921" lon="10.523689"><ele>71</ele></trkpt>
   <trkpt lat="52.325544" lon="10.523962"><ele>70.25</ele></trkpt>
   <trkpt lat="52.325145" lon="10.524308"><ele>69.25</ele></trkpt>
   <trkpt lat="52.324887" lon="10.524543"><ele>68.75</ele></trkpt>
   <trkpt lat="52.323723" lon="10.525679"><ele>68.5</ele></trkpt>
   <trkpt lat="52.322475" lon="10.526909"><ele>69</ele></trkpt>
   <trkpt lat="52.322323" lon="10.527057"><ele>69.25</ele></trkpt>
   <trkpt lat="52.321911" lon="10.527462"><ele>70.25</ele></trkpt>
   <trkpt lat="52.321755" lon="10.527616"><ele>70.5</ele></trkpt>
   <trkpt lat="52.321636" lon="10.527731"><ele>70.5</ele></trkpt>
   <trkpt lat="52.321596" lon="10.527772"><ele>70.5</ele></trkpt>
   <trkpt lat="52.321235" lon="10.528109"><ele>70.5</ele></trkpt>
   <trkpt lat="52.321141" lon="10.528198"><ele>70.5</ele></trkpt>
   <trkpt lat="52.320318" lon="10.529004"><ele>71</ele></trkpt>
   <trkpt lat="52.319816" lon="10.529491"><ele>70.75</ele></trkpt>
   <trkpt lat="52.318611" lon="10.530523"><ele>71.5</ele></trkpt>
   <trkpt lat="52.317921" lon="10.531109"><ele>72</ele></trkpt>
   <trkpt lat="52.31777" lon="10.531234"><ele>72</ele></trkpt>
   <trkpt lat="52.317609" lon="10.531363"><ele>72</ele></trkpt>
   <trkpt lat="52.317573" lon="10.531395"><ele>72</ele></trkpt>
   <trkpt lat="52.317459" lon="10.531496"><ele>71.75</ele></trkpt>
   <trkpt lat="52.317437" lon="10.531512"><ele>71.75</ele></trkpt>
   <trkpt lat="52.316218" lon="10.532549"><ele>69.75</ele></trkpt>
   <trkpt lat="52.315885" lon="10.532833"><ele>69.5</ele></trkpt>
   <trkpt lat="52.315849" lon="10.532864"><ele>69.5</ele></trkpt>
   <trkpt lat="52.315754" lon="10.532942"><ele>69.5</ele></trkpt>
   <trkpt lat="52.31569" lon="10.532994"><ele>69.5</ele></trkpt>
   <trkpt lat="52.315498" lon="10.533162"><ele>69.5</ele></trkpt>
   <trkpt lat="52.314942" lon="10.533641"><ele>70</ele></trkpt>
   <trkpt lat="52.31461" lon="10.533928"><ele>70.25</ele></trkpt>
   <trkpt lat="52.31335" lon="10.535022"><ele>72.75</ele></trkpt>
   <trkpt lat="52.313091" lon="10.535241"><ele>72.5</ele></trkpt>
   <trkpt lat="52.312255" lon="10.536016"><ele>72</ele></trkpt>
   <trkpt lat="52.312061" lon="10.536209"><ele>72.25</ele></trkpt>
   <trkpt lat="52.311252" lon="10.536993"><ele>72.25</ele></trkpt>
   <trkpt lat="52.310681" lon="10.537538"><ele>71.75</ele></trkpt>
   <trkpt lat="52.31056" lon="10.537653"><ele>71.5</ele></trkpt>
   <trkpt lat="52.310192" lon="10.538"><ele>71.25</ele></trkpt>
   <trkpt lat="52.310124" lon="10.538063"><ele>71</ele></trkpt>
   <trkpt lat="52.309654" lon="10.538521"><ele>71.75</ele></trkpt>
   <trkpt lat="52.309046" lon="10.539102"><ele>72.75</ele></trkpt>
   <trkpt lat="52.308872" lon="10.539267"><ele>72.75</ele></trkpt>
   <trkpt lat="52.308403" lon="10.539713"><ele>73.5</ele></trkpt>
   <trkpt lat="52.308062" lon="10.540046"><ele>74.25</ele></trkpt>
   <trkpt lat="52.307107" lon="10.540943"><ele>75</ele></trkpt>
   <trkpt lat="52.306838" lon="10.541247"><ele>75.25</ele></trkpt>
   <trkpt lat="52.306688" lon="10.541432"><ele>75.5</ele></trkpt>
   <trkpt lat="52.30484" lon="10.543993"><ele>78.75</ele></trkpt>
   <trkpt lat="52.304652" lon="10.544252"><ele>78.25</ele></trkpt>
   <trkpt lat="52.304007" lon="10.545156"><ele>76.75</ele></trkpt>
   <trkpt lat="52.303953" lon="10.545229"><ele>76.75</ele></trkpt>
   <trkpt lat="52.303811" lon="10.545425"><ele>76.5</ele></trkpt>
   <trkpt lat="52.303629" lon="10.545675"><ele>76.5</ele></trkpt>
   <trkpt lat="52.303584" lon="10.545738"><ele>76.25</ele></trkpt>
   <trkpt lat="52.303507" lon="10.545847"><ele>76.25</ele></trkpt>
   <trkpt lat="52.302905" lon="10.546686"><ele>76</ele></trkpt>
   <trkpt lat="52.302293" lon="10.54753"><ele>76.75</ele></trkpt>
   <trkpt lat="52.301963" lon="10.547991"><ele>76.25</ele></trkpt>
   <trkpt lat="52.301577" lon="10.548522"><ele>75</ele></trkpt>
   <trkpt lat="52.300892" lon="10.549456"><ele>75.25</ele></trkpt>
   <trkpt lat="52.300672" lon="10.549698"><ele>75.25</ele></trkpt>
   <trkpt lat="52.300442" lon="10.549914"><ele>75</ele></trkpt>
   <trkpt lat="52.299826" lon="10.550414"><ele>74.25</ele></trkpt>
   <trkpt lat="52.299825" lon="10.550414"><ele>74.25</ele></trkpt>
   <trkpt lat="52.299825" lon="10.550415"><ele>74.25</ele></trkpt>
   <trkpt lat="52.298675" lon="10.551343"><ele>73</ele></trkpt>
   <trkpt lat="52.29769" lon="10.552139"><ele>72.25</ele></trkpt>
   <trkpt lat="52.297056" lon="10.552661"><ele>71.75</ele></trkpt>
   <trkpt lat="52.296866" lon="10.552808"><ele>72</ele></trkpt>
   <trkpt lat="52.296587" lon="10.552993"><ele>72</ele></trkpt>
   <trkpt lat="52.296221" lon="10.553183"><ele>70.5</ele></trkpt>
   <trkpt lat="52.296045" lon="10.553266"><ele>69.75</ele></trkpt>
   <trkpt lat="52.295922" lon="10.553306"><ele>69.25</ele></trkpt>
   <trkpt lat="52.295768" lon="10.553345"><ele>68.75</ele></trkpt>
   <trkpt lat="52.295747" lon="10.553349"><ele>68.75</ele></trkpt>
   <trkpt lat="52.295541" lon="10.553391"><ele>68.5</ele></trkpt>
   <trkpt lat="52.295274" lon="10.553397"><ele>68.25</ele></trkpt>
   <trkpt lat="52.294963" lon="10.553372"><ele>68</ele></trkpt>
   <trkpt lat="52.294654" lon="10.5533"><ele>68.75</ele></trkpt>
   <trkpt lat="52.294347" lon="10.553184"><ele>69.5</ele></trkpt>
   <trkpt lat="52.294067" lon="10.55304"><ele>70.5</ele></trkpt>
   <trkpt lat="52.294025" lon="10.553015"><ele>70.75</ele></trkpt>
   <trkpt lat="52.293978" lon="10.552991"><ele>70.75</ele></trkpt>
   <trkpt lat="52.292699" lon="10.552207"><ele>70.75</ele></trkpt>
   <trkpt lat="52.292312" lon="10.551967"><ele>69.75</ele></trkpt>
   <trkpt lat="52.292134" lon="10.551858"><ele>69</ele></trkpt>
   <trkpt lat="52.291512" lon="10.551479"><ele>68.25</ele></trkpt>
   <trkpt lat="52.291451" lon="10.551441"><ele>68.5</ele></trkpt>
   <trkpt lat="52.290086" lon="10.550609"><ele>72.25</ele></trkpt>
   <trkpt lat="52.289659" lon="10.550348"><ele>72</ele></trkpt>
   <trkpt lat="52.288654" lon="10.549734"><ele>73</ele></trkpt>
   <trkpt lat="52.287972" lon="10.54931"><ele>72</ele></trkpt>
   <trkpt lat="52.287858" lon="10.549236"><ele>71.75</ele></trkpt>
   <trkpt lat="52.287829" lon="10.54922"><ele>71.75</ele></trkpt>
   <trkpt lat="52.287599" lon="10.549097"><ele>71</ele></trkpt>
   <trkpt lat="52.287486" lon="10.549036"><ele>71</ele></trkpt>
   <trkpt lat="52.287239" lon="10.548932"><ele>71</ele></trkpt>
   <trkpt lat="52.28695" lon="10.548852"><ele>71</ele></trkpt>
   <trkpt lat="52.286603" lon="10.548803"><ele>71</ele></trkpt>
   <trkpt lat="52.286319" lon="10.548805"><ele>71</ele></trkpt>
   <trkpt lat="52.286162" lon="10.548824"><ele>71</ele></trkpt>
   <trkpt lat="52.286042" lon="10.548842"><ele>71</ele></trkpt>
   <trkpt lat="52.285365" lon="10.54898"><ele>71</ele></trkpt>
   <trkpt lat="52.284939" lon="10.549072"><ele>71</ele></trkpt>
   <trkpt lat="52.284521" lon="10.549156"><ele>71.5</ele></trkpt>
   <trkpt lat="52.284333" lon="10.549195"><ele>71.75</ele></trkpt>
   <trkpt lat="52.284296" lon="10.549203"><ele>71.75</ele></trkpt>
   <trkpt lat="52.284282" lon="10.549204"><ele>71.75</ele></trkpt>
   <trkpt lat="52.284221" lon="10.549219"><ele>71.75</ele></trkpt>
   <trkpt lat="52.284021" lon="10.549261"><ele>71.5</ele></trkpt>
   <trkpt lat="52.283994" lon="10.549267"><ele>71.5</ele></trkpt>
   <trkpt lat="52.283478" lon="10.549378"><ele>71</ele></trkpt>
   <trkpt lat="52.282989" lon="10.549472"><ele>70.5</ele></trkpt>
   <trkpt lat="52.282763" lon="10.549515"><ele>70.25</ele></trkpt>
   <trkpt lat="52.282584" lon="10.549546"><ele>70</ele></trkpt>
   <trkpt lat="52.281947" lon="10.549669"><ele>70.5</ele></trkpt>
   <trkpt lat="52.281656" lon="10.549713"><ele>71</ele></trkpt>
   <trkpt lat="52.281536" lon="10.549726"><ele>71.5</ele></trkpt>
   <trkpt lat="52.281408" lon="10.549737"><ele>72</ele></trkpt>
   <trkpt lat="52.280951" lon="10.549791"><ele>74</ele></trkpt>
   <trkpt lat="52.280844" lon="10.549813"><ele>74.5</ele></trkpt>
   <trkpt lat="52.280528" lon="10.549877"><ele>74.5</ele></trkpt>
   <trkpt lat="52.280265" lon="10.549931"><ele>74.25</ele></trkpt>
   <trkpt lat="52.279855" lon="10.550016"><ele>73.75</ele></trkpt>
   <trkpt lat="52.279466" lon="10.550093"><ele>73.25</ele></trkpt>
   <trkpt lat="52.27915" lon="10.550156"><ele>73</ele></trkpt>
   <trkpt lat="52.278724" lon="10.550244"><ele>73.5</ele></trkpt>
   <trkpt lat="52.278152" lon="10.550367"><ele>74</ele></trkpt>
   <trkpt lat="52.277733" lon="10.550469"><ele>74</ele></trkpt>
   <trkpt lat="52.277713" lon="10.550475"><ele>73.75</ele></trkpt>
   <trkpt lat="52.277448" lon="10.55057"><ele>73.5</ele></trkpt>
   <trkpt lat="52.27728" lon="10.550641"><ele>73.5</ele></trkpt>
   <trkpt lat="52.277057" lon="10.550746"><ele>73.25</ele></trkpt>
   <trkpt lat="52.277036" lon="10.550756"><ele>73.25</ele></trkpt>
   <trkpt lat="52.277031" lon="10.550759"><ele>73.25</ele></trkpt>
   <trkpt lat="52.276902" lon="10.550818"><ele>73.25</ele></trkpt>
   <trkpt lat="52.276844" lon="10.550845"><ele>73</ele></trkpt>
   <trkpt lat="52.27671" lon="10.550912"><ele>73</ele></trkpt>
   <trkpt lat="52.276274" lon="10.551115"><ele>73.75</ele></trkpt>
   <trkpt lat="52.275892" lon="10.551294"><ele>74.25</ele></trkpt>
   <trkpt lat="52.275887" lon="10.551296"><ele>74.5</ele></trkpt>
   <trkpt lat="52.275504" lon="10.551495"><ele>74.5</ele></trkpt>
   <trkpt lat="52.275247" lon="10.551655"><ele>74.5</ele></trkpt>
   <trkpt lat="52.275" lon="10.551834"><ele>74.75</ele></trkpt>
   <trkpt lat="52.274832" lon="10.551963"><ele>74.75</ele></trkpt>
   <trkpt lat="52.274567" lon="10.552203"><ele>75</ele></trkpt>
   <trkpt lat="52.274338" lon="10.552449"><ele>75.5</ele></trkpt>
   <trkpt lat="52.274108" lon="10.552726"><ele>76.25</ele></trkpt>
   <trkpt lat="52.273878" lon="10.553046"><ele>78.5</ele></trkpt>
   <trkpt lat="52.273609" lon="10.553475"><ele>80.75</ele></trkpt>
   <trkpt lat="52.27344" lon="10.553783"><ele>80.75</ele></trkpt>
   <trkpt lat="52.27324" lon="10.554205"><ele>81</ele></trkpt>
   <trkpt lat="52.273085" lon="10.554582"><ele>81.5</ele></trkpt>
   <trkpt lat="52.27294" lon="10.554978"><ele>83</ele></trkpt>
   <trkpt lat="52.272838" lon="10.555289"><ele>83.5</ele></trkpt>
   <trkpt lat="52.272627" lon="10.55597"><ele>83.25</ele></trkpt>
   <trkpt lat="52.272622" lon="10.555978"><ele>83.25</ele></trkpt>
   <trkpt lat="52.272402" lon="10.556703"><ele>81.25</ele></trkpt>
   <trkpt lat="52.272312" lon="10.556995"><ele>81.5</ele></trkpt>
   <trkpt lat="52.272242" lon="10.557194"><ele>81.5</ele></trkpt>
   <trkpt lat="52.27217" lon="10.557373"><ele>81.75</ele></trkpt>
   <trkpt lat="52.272087" lon="10.557573"><ele>82</ele></trkpt>
   <trkpt lat="52.27205" lon="10.557657"><ele>82</ele></trkpt>
   <trkpt lat="52.272005" lon="10.55776"><ele>82</ele></trkpt>
   <trkpt lat="52.271825" lon="10.55812"><ele>82.25</ele></trkpt>
   <trkpt lat="52.271602" lon="10.558514"><ele>82.75</ele></trkpt>
   <trkpt lat="52.271475" lon="10.558722"><ele>83</ele></trkpt>
   <trkpt lat="52.271265" lon="10.558994"><ele>83.25</ele></trkpt>
   <trkpt lat="52.271053" lon="10.559229"><ele>83.25</ele></trkpt>
   <trkpt lat="52.270703" lon="10.559525"><ele>82.75</ele></trkpt>
   <trkpt lat="52.270296" lon="10.559805"><ele>83</ele></trkpt>
   <trkpt lat="52.270084" lon="10.559917"><ele>83.75</ele></trkpt>
   <trkpt lat="52.269354" lon="10.560301"><ele>85.25</ele></trkpt>
   <trkpt lat="52.267778" lon="10.561019"><ele>84.25</ele></trkpt>
   <trkpt lat="52.26766" lon="10.56107"><ele>84.25</ele></trkpt>
   <trkpt lat="52.266944" lon="10.561429"><ele>83.25</ele></trkpt>
   <trkpt lat="52.266571" lon="10.561681"><ele>83.25</ele></trkpt>
   <trkpt lat="52.266206" lon="10.561961"><ele>83.25</ele></trkpt>
   <trkpt lat="52.266198" lon="10.561967"><ele>83.25</ele></trkpt>
   <trkpt lat="52.266148" lon="10.562009"><ele>83.25</ele></trkpt>
   <trkpt lat="52.265541" lon="10.562484"><ele>80.5</ele></trkpt>
   <trkpt lat="52.264267" lon="10.563488"><ele>76.75</ele></trkpt>
   <trkpt lat="52.264109" lon="10.56359"><ele>77</ele></trkpt>
   <trkpt lat="52.263966" lon="10.56366"><ele>77</ele></trkpt>
   <trkpt lat="52.263879" lon="10.563702"><ele>77</ele></trkpt>
   <trkpt lat="52.263807" lon="10.563731"><ele>77</ele></trkpt>
   <trkpt lat="52.263681" lon="10.563778"><ele>77.25</ele></trkpt>
   <trkpt lat="52.263595" lon="10.563799"><ele>77.25</ele></trkpt>
   <trkpt lat="52.263374" lon="10.563851"><ele>77.5</ele></trkpt>
   <trkpt lat="52.263361" lon="10.563852"><ele>77.5</ele></trkpt>
   <trkpt lat="52.263168" lon="10.563862"><ele>77.75</ele></trkpt>
   <trkpt lat="52.262852" lon="10.563832"><ele>77.75</ele></trkpt>
   <trkpt lat="52.262543" lon="10.56373"><ele>77.75</ele></trkpt>
   <trkpt lat="52.262287" lon="10.563598"><ele>77.75</ele></trkpt>
   <trkpt lat="52.262126" lon="10.563491"><ele>78</ele></trkpt>
   <trkpt lat="52.261922" lon="10.563325"><ele>78.25</ele></trkpt>
   <trkpt lat="52.261788" lon="10.5632"><ele>78.25</ele></trkpt>
   <trkpt lat="52.261645" lon="10.56305"><ele>78.25</ele></trkpt>
   <trkpt lat="52.261469" lon="10.562822"><ele>78</ele></trkpt>
   <trkpt lat="52.261338" lon="10.562632"><ele>77.75</ele></trkpt>
   <trkpt lat="52.261153" lon="10.562316"><ele>78</ele></trkpt>
   <trkpt lat="52.260998" lon="10.561991"><ele>78.25</ele></trkpt>
   <trkpt lat="52.260919" lon="10.56179"><ele>78.75</ele></trkpt>
   <trkpt lat="52.260864" lon="10.56165"><ele>78.75</ele></trkpt>
   <trkpt lat="52.260762" lon="10.561335"><ele>79</ele></trkpt>
   <trkpt lat="52.260688" lon="10.561057"><ele>79.25</ele></trkpt>
   <trkpt lat="52.260572" lon="10.560462"><ele>79.75</ele></trkpt>
   <trkpt lat="52.260517" lon="10.560084"><ele>80</ele></trkpt>
   <trkpt lat="52.260204" lon="10.55752"><ele>82.5</ele></trkpt>
   <trkpt lat="52.260066" lon="10.556386"><ele>82.5</ele></trkpt>
   <trkpt lat="52.259849" lon="10.554667"><ele>81.75</ele></trkpt>
   <trkpt lat="52.25979" lon="10.554308"><ele>82</ele></trkpt>
   <trkpt lat="52.259643" lon="10.5535"><ele>82</ele></trkpt>
   <trkpt lat="52.259499" lon="10.552848"><ele>81.5</ele></trkpt>
   <trkpt lat="52.259361" lon="10.552298"><ele>81</ele></trkpt>
   <trkpt lat="52.25915" lon="10.551566"><ele>80</ele></trkpt>
   <trkpt lat="52.258946" lon="10.550932"><ele>80.75</ele></trkpt>
   <trkpt lat="52.258719" lon="10.550304"><ele>80.5</ele></trkpt>
   <trkpt lat="52.258465" lon="10.549696"><ele>80</ele></trkpt>
   <trkpt lat="52.2582" lon="10.549133"><ele>80</ele></trkpt>
   <trkpt lat="52.257997" lon="10.548745"><ele>80</ele></trkpt>
   <trkpt lat="52.257706" lon="10.548237"><ele>80</ele></trkpt>
   <trkpt lat="52.257103" lon="10.547309"><ele>80</ele></trkpt>
   <trkpt lat="52.256905" lon="10.547007"><ele>79.5</ele></trkpt>
   <trkpt lat="52.256739" lon="10.546754"><ele>79</ele></trkpt>
   <trkpt lat="52.256705" lon="10.5467"><ele>79</ele></trkpt>
   <trkpt lat="52.255766" lon="10.545284"><ele>80</ele></trkpt>
   <trkpt lat="52.25464" lon="10.543611"><ele>79.75</ele></trkpt>
   <trkpt lat="52.254598" lon="10.543552"><ele>79.75</ele></trkpt>
   <trkpt lat="52.254099" lon="10.542826"><ele>81</ele></trkpt>
   <trkpt lat="52.253951" lon="10.542576"><ele>81.25</ele></trkpt>
   <trkpt lat="52.253633" lon="10.542099"><ele>80.75</ele></trkpt>
   <trkpt lat="52.253623" lon="10.542082"><ele>80.75</ele></trkpt>
   <trkpt lat="52.253503" lon="10.541895"><ele>80.5</ele></trkpt>
   <trkpt lat="52.253445" lon="10.541805"><ele>80.25</ele></trkpt>
   <trkpt lat="52.253391" lon="10.541722"><ele>80</ele></trkpt>
   <trkpt lat="52.252798" lon="10.540815"><ele>79.75</ele></trkpt>
   <trkpt lat="52.252679" lon="10.540633"><ele>80.25</ele></trkpt>
   <trkpt lat="52.252575" lon="10.540473"><ele>80.5</ele></trkpt>
   <trkpt lat="52.25235" lon="10.540128"><ele>80.5</ele></trkpt>
   <trkpt lat="52.252331" lon="10.540098"><ele>80.5</ele></trkpt>
   <trkpt lat="52.252327" lon="10.540092"><ele>80.5</ele></trkpt>
   <trkpt lat="52.252306" lon="10.54006"><ele>80.5</ele></trkpt>
   <trkpt lat="52.25229" lon="10.540036"><ele>80.25</ele></trkpt>
   <trkpt lat="52.251476" lon="10.538793"><ele>78.25</ele></trkpt>
  </trkseg>
 </trk>
</gpx>