<?xml version="1.0" encoding="UTF-8"?>
<!-- track-length = 13699 filtered ascend = 38 plain-ascend = 17 cost=13699 energy=0.2kwh time=18m 16s -->
<gpx 
 xmlns="http://www.topografix.com/GPX/1/1" 
 xmlns:xsi="http://www.w3.org/2001/XMLSchema-instance" 
 xsi:schemaLocation="http://www.topografix.com/GPX/1/1 http://www.topografix.com/GPX/1/1/gpx.xsd" 
 version="1.1" 
 creator="BRouter-Web 0.18.1">
 <trk>
  <name>Wiesbaden - Kurve Breckenheim</name>
  <trkseg>
   <trkpt lat="50.070471" lon="8.243684"><ele>114</ele></trkpt>
   <trkpt lat="50.070426" lon="8.243709"><ele>114</ele></trkpt>
   <trkpt lat="50.070314" lon="8.243771"><ele>113.75</ele></trkpt>
   <trkpt lat="50.069748" lon="8.244078"><ele>112.75</ele></trkpt>
   <trkpt lat="50.069047" lon="8.244489"><ele>110.5</ele></trkpt>
   <trkpt lat="50.06903" lon="8.244499"><ele>110.5</ele></trkpt>
   <trkpt lat="50.068302" lon="8.244923"><ele>106.25</ele></trkpt>
   <trkpt lat="50.06826" lon="8.244948"><ele>106.25</ele></trkpt>
   <trkpt lat="50.067865" lon="8.245179"><ele>106.5</ele></trkpt>
   <trkpt lat="50.06755" lon="8.245359"><ele>106.75</ele></trkpt>
   <trkpt lat="50.067178" lon="8.245574"><ele>107.25</ele></trkpt>
   <trkpt lat="50.066884" lon="8.245758"><ele>107.5</ele></trkpt>
   <trkpt lat="50.065872" lon="8.246339"><ele>108</ele></trkpt>
   <trkpt lat="50.065859" lon="8.246346"><ele>107.75</ele></trkpt>
   <trkpt lat="50.065535" lon="8.246532"><ele>107.75</ele></trkpt>
   <trkpt lat="50.065231" lon="8.246645"><ele>107.25</ele></trkpt>
   <trkpt lat="50.064553" lon="8.246915"><ele>107.5</ele></trkpt>
   <trkpt lat="50.064295" lon="8.247002"><ele>107.75</ele></trkpt>
   <trkpt lat="50.064036" lon="8.247096"><ele>109</ele></trkpt>
   <trkpt lat="50.063929" lon="8.247147"><ele>109.75</ele></trkpt>
   <trkpt lat="50.063767" lon="8.247244"><ele>110.75</ele></trkpt>
   <trkpt lat="50.063522" lon="8.247442"><ele>111.25</ele></trkpt>
   <trkpt lat="50.063202" lon="8.247707"><ele>111.5</ele></trkpt>
   <trkpt lat="50.062739" lon="8.248103"><ele>112</ele></trkpt>
   <trkpt lat="50.06135" lon="8.249348"><ele>115.75</ele></trkpt>
   <trkpt lat="50.060595" lon="8.25005"><ele>113</ele></trkpt>
   <trkpt lat="50.060483" lon="8.250156"><ele>113.25</ele></trkpt>
   <trkpt lat="50.059818" lon="8.250783"><ele>111.5</ele></trkpt>
   <trkpt lat="50.05957" lon="8.251027"><ele>110</ele></trkpt>
   <trkpt lat="50.059108" lon="8.251521"><ele>106.25</ele></trkpt>
   <trkpt lat="50.058785" lon="8.251889"><ele>105.75</ele></trkpt>
   <trkpt lat="50.058283" lon="8.2525"><ele>106.75</ele></trkpt>
   <trkpt lat="50.057533" lon="8.253533"><ele>100.75</ele></trkpt>
   <trkpt lat="50.05678" lon="8.254546"><ele>104.25</ele></trkpt>
   <trkpt lat="50.056604" lon="8.254814"><ele>104.75</ele></trkpt>
   <trkpt lat="50.056472" lon="8.255036"><ele>104.5</ele></trkpt>
   <trkpt lat="50.056346" lon="8.255267"><ele>104</ele></trkpt>
   <trkpt lat="50.056226" lon="8.255507"><ele>103.75</ele></trkpt>
   <trkpt lat="50.056114" lon="8.255755"><ele>103.5</ele></trkpt>
   <trkpt lat="50.055984" lon="8.256075"><ele>104.25</ele></trkpt>
   <trkpt lat="50.055858" lon="8.256428"><ele>105.25</ele></trkpt>
   <trkpt lat="50.055783" lon="8.256664"><ele>106</ele></trkpt>
   <trkpt lat="50.055657" lon="8.257124"><ele>106</ele></trkpt>
   <trkpt lat="50.055562" lon="8.257562"><ele>107</ele></trkpt>
   <trkpt lat="50.05549" lon="8.257999"><ele>108.25</ele></trkpt>
   <trkpt lat="50.055434" lon="8.258444"><ele>109</ele></trkpt>
   <trkpt lat="50.0554" lon="8.258886"><ele>109.75</ele></trkpt>
   <trkpt lat="50.055383" lon="8.259207"><ele>110.25</ele></trkpt>
   <trkpt lat="50.055359" lon="8.260319"><ele>111.25</ele></trkpt>
   <trkpt lat="50.055347" lon="8.261063"><ele>111.25</ele></trkpt>
   <trkpt lat="50.055328" lon="8.261747"><ele>111.75</ele></trkpt>
   <trkpt lat="50.055328" lon="8.261759"><ele>111.75</ele></trkpt>
   <trkpt lat="50.055317" lon="8.262075"><ele>112.25</ele></trkpt>
   <trkpt lat="50.055285" lon="8.262703"><ele>113</ele></trkpt>
   <trkpt lat="50.055264" lon="8.262997"><ele>113.5</ele></trkpt>
   <trkpt lat="50.055234" lon="8.263287"><ele>114</ele></trkpt>
   <trkpt lat="50.05519" lon="8.263634"><ele>114.5</ele></trkpt>
   <trkpt lat="50.05507" lon="8.264326"><ele>115</ele></trkpt>
   <trkpt lat="50.054979" lon="8.264707"><ele>115.75</ele></trkpt>
   <trkpt lat="50.054405" lon="8.266828"><ele>121.75</ele></trkpt>
   <trkpt lat="50.054275" lon="8.267286"><ele>122</ele></trkpt>
   <trkpt lat="50.054192" lon="8.267575"><ele>122.25</ele></trkpt>
   <trkpt lat="50.054182" lon="8.267611"><ele>122.25</ele></trkpt>
   <trkpt lat="50.054153" lon="8.267722"><ele>122.5</ele></trkpt>
   <trkpt lat="50.05414" lon="8.267768"><ele>122.5</ele></trkpt>
   <trkpt lat="50.053956" lon="8.2684"><ele>123.25</ele></trkpt>
   <trkpt lat="50.053615" lon="8.269508"><ele>123.25</ele></trkpt>
   <trkpt lat="50.053452" lon="8.270113"><ele>123</ele></trkpt>
   <trkpt lat="50.053029" lon="8.27168"><ele>122.5</ele></trkpt>
   <trkpt lat="50.052858" lon="8.272343"><ele>122.75</ele></trkpt>
   <trkpt lat="50.052841" lon="8.272409"><ele>122.75</ele></trkpt>
   <trkpt lat="50.052774" lon="8.272706"><ele>122.75</ele></trkpt>
   <trkpt lat="50.052675" lon="8.273097"><ele>123.25</ele></trkpt>
   <trkpt lat="50.052494" lon="8.273846"><ele>123.5</ele></trkpt>
   <trkpt lat="50.052441" lon="8.274064"><ele>123.75</ele></trkpt>
   <trkpt lat="50.052436" lon="8.274084"><ele>123.75</ele></trkpt>
   <trkpt lat="50.052121" lon="8.275389"><ele>123.5</ele></trkpt>
   <trkpt lat="50.051882" lon="8.276291"><ele>123.25</ele></trkpt>
   <trkpt lat="50.051754" lon="8.276737"><ele>123.25</ele></trkpt>
   <trkpt lat="50.050964" lon="8.279269"><ele>123</ele></trkpt>
   <trkpt lat="50.050914" lon="8.279427"><ele>123</ele></trkpt>
   <trkpt lat="50.0498" lon="8.282973"><ele>133</ele></trkpt>
   <trkpt lat="50.049347" lon="8.284558"><ele>134.5</ele></trkpt>
   <trkpt lat="50.049108" lon="8.285518"><ele>135.25</ele></trkpt>
   <trkpt lat="50.048955" lon="8.286203"><ele>136</ele></trkpt>
   <trkpt lat="50.048819" lon="8.286897"><ele>136.75</ele></trkpt>
   <trkpt lat="50.0487" lon="8.287598"><ele>138</ele></trkpt>
   <trkpt lat="50.048598" lon="8.288305"><ele>138.25</ele></trkpt>
   <trkpt lat="50.048513" lon="8.289019"><ele>138</ele></trkpt>
   <trkpt lat="50.048446" lon="8.289736"><ele>137.75</ele></trkpt>
   <trkpt lat="50.048396" lon="8.290457"><ele>137.25</ele></trkpt>
   <trkpt lat="50.048364" lon="8.291181"><ele>136.5</ele></trkpt>
   <trkpt lat="50.048349" lon="8.291906"><ele>136</ele></trkpt>
   <trkpt lat="50.048352" lon="8.292631"><ele>136</ele></trkpt>
   <trkpt lat="50.048373" lon="8.293355"><ele>136</ele></trkpt>
   <trkpt lat="50.048411" lon="8.294077"><ele>137</ele></trkpt>
   <trkpt lat="50.048449" lon="8.294593"><ele>137.75</ele></trkpt>
   <trkpt lat="50.048497" lon="8.295108"><ele>138.5</ele></trkpt>
   <trkpt lat="50.048553" lon="8.295621"><ele>139</ele></trkpt>
   <trkpt lat="50.048653" lon="8.296379"><ele>139.25</ele></trkpt>
   <trkpt lat="50.048773" lon="8.29713"><ele>139</ele></trkpt>
   <trkpt lat="50.048913" lon="8.297874"><ele>139.5</ele></trkpt>
   <trkpt lat="50.049072" lon="8.298608"><ele>139.5</ele></trkpt>
   <trkpt lat="50.049249" lon="8.299331"><ele>139</ele></trkpt>
   <trkpt lat="50.049446" lon="8.300043"><ele>139</ele></trkpt>
   <trkpt lat="50.049569" lon="8.300469"><ele>139.5</ele></trkpt>
   <trkpt lat="50.049823" lon="8.301204"><ele>141</ele></trkpt>
   <trkpt lat="50.050391" lon="8.302777"><ele>141.25</ele></trkpt>
   <trkpt lat="50.051055" lon="8.304313"><ele>142.5</ele></trkpt>
   <trkpt lat="50.051231" lon="8.304703"><ele>143</ele></trkpt>
   <trkpt lat="50.052185" lon="8.306872"><ele>144.5</ele></trkpt>
   <trkpt lat="50.052336" lon="8.307202"><ele>144.75</ele></trkpt>
   <trkpt lat="50.052974" lon="8.308656"><ele>144.75</ele></trkpt>
   <trkpt lat="50.053465" lon="8.309948"><ele>144.5</ele></trkpt>
   <trkpt lat="50.053863" lon="8.311058"><ele>146.5</ele></trkpt>
   <trkpt lat="50.054073" lon="8.311744"><ele>147.25</ele></trkpt>
   <trkpt lat="50.054269" lon="8.312438"><ele>146.25</ele></trkpt>
   <trkpt lat="50.054434" lon="8.313084"><ele>145.75</ele></trkpt>
   <trkpt lat="50.054587" lon="8.31374"><ele>146</ele></trkpt>
   <trkpt lat="50.054704" lon="8.314288"><ele>146.25</ele></trkpt>
   <trkpt lat="50.054812" lon="8.314844"><ele>146.25</ele></trkpt>
   <trkpt lat="50.054939" lon="8.315563"><ele>145.25</ele></trkpt>
   <trkpt lat="50.055048" lon="8.316277"><ele>144</ele></trkpt>
   <trkpt lat="50.055144" lon="8.317008"><ele>143</ele></trkpt>
   <trkpt lat="50.055225" lon="8.317739"><ele>143.25</ele></trkpt>
   <trkpt lat="50.055285" lon="8.318439"><ele>144</ele></trkpt>
   <trkpt lat="50.055335" lon="8.319187"><ele>144</ele></trkpt>
   <trkpt lat="50.055368" lon="8.319952"><ele>144.75</ele></trkpt>
   <trkpt lat="50.055387" lon="8.320754"><ele>145.25</ele></trkpt>
   <trkpt lat="50.055388" lon="8.321538"><ele>146.25</ele></trkpt>
   <trkpt lat="50.055372" lon="8.322316"><ele>146</ele></trkpt>
   <trkpt lat="50.055338" lon="8.323203"><ele>145</ele></trkpt>
   <trkpt lat="50.055233" lon="8.325004"><ele>141.25</ele></trkpt>
   <trkpt lat="50.055061" lon="8.327508"><ele>141</ele></trkpt>
   <trkpt lat="50.055003" lon="8.328274"><ele>140</ele></trkpt>
   <trkpt lat="50.054935" lon="8.329036"><ele>140</ele></trkpt>
   <trkpt lat="50.054548" lon="8.332851"><ele>140.75</ele></trkpt>
   <trkpt lat="50.054472" lon="8.333701"><ele>141.25</ele></trkpt>
   <trkpt lat="50.054405" lon="8.334686"><ele>140.5</ele></trkpt>
   <trkpt lat="50.054371" lon="8.335385"><ele>140</ele></trkpt>
   <trkpt lat="50.054342" lon="8.336355"><ele>140</ele></trkpt>
   <trkpt lat="50.054334" lon="8.336995"><ele>140</ele></trkpt>
   <trkpt lat="50.054337" lon="8.337638"><ele>140</ele></trkpt>
   <trkpt lat="50.054349" lon="8.338281"><ele>140</ele></trkpt>
   <trkpt lat="50.054389" lon="8.339318"><ele>139</ele></trkpt>
   <trkpt lat="50.054427" lon="8.339973"><ele>138.75</ele></trkpt>
   <trkpt lat="50.054513" lon="8.341138"><ele>137.5</ele></trkpt>
   <trkpt lat="50.054744" lon="8.343813"><ele>134.75</ele></trkpt>
   <trkpt lat="50.054783" lon="8.344265"><ele>134.25</ele></trkpt>
   <trkpt lat="50.055086" lon="8.347823"><ele>132.25</ele></trkpt>
   <trkpt lat="50.055197" lon="8.349224"><ele>132.5</ele></trkpt>
   <trkpt lat="50.055242" lon="8.349988"><ele>132.5</ele></trkpt>
   <trkpt lat="50.055265" lon="8.350624"><ele>132.75</ele></trkpt>
   <trkpt lat="50.055282" lon="8.351177"><ele>133</ele></trkpt>
   <trkpt lat="50.055281" lon="8.35345"><ele>135</ele></trkpt>
   <trkpt lat="50.05528" lon="8.355513"><ele>136.75</ele></trkpt>
   <trkpt lat="50.05525" lon="8.358677"><ele>138.5</ele></trkpt>
   <trkpt lat="50.055252" lon="8.359121"><ele>138.5</ele></trkpt>
   <trkpt lat="50.055244" lon="8.360008"><ele>138</ele></trkpt>
   <trkpt lat="50.0552" lon="8.361087"><ele>138</ele></trkpt>
   <trkpt lat="50.055124" lon="8.36216"><ele>138.75</ele></trkpt>
   <trkpt lat="50.054993" lon="8.363336"><ele>139.75</ele></trkpt>
   <trkpt lat="50.05473" lon="8.365341"><ele>138</ele></trkpt>
   <trkpt lat="50.054492" lon="8.36715"><ele>135.5</ele></trkpt>
   <trkpt lat="50.054436" lon="8.367802"><ele>134.75</ele></trkpt>
   <trkpt lat="50.054398" lon="8.368457"><ele>134</ele></trkpt>
   <trkpt lat="50.054378" lon="8.369115"><ele>133.5</ele></trkpt>
   <trkpt lat="50.054377" lon="8.369772"><ele>133.25</ele></trkpt>
   <trkpt lat="50.054394" lon="8.37043"><ele>133</ele></trkpt>
   <trkpt lat="50.05444" lon="8.371086"><ele>133</ele></trkpt>
   <trkpt lat="50.054508" lon="8.371737"><ele>133</ele></trkpt>
   <trkpt lat="50.054598" lon="8.372381"><ele>133</ele></trkpt>
   <trkpt lat="50.054711" lon="8.373017"><ele>132.75</ele></trkpt>
   <trkpt lat="50.054846" lon="8.373642"><ele>132.75</ele></trkpt>
   <trkpt lat="50.055002" lon="8.374255"><ele>132.75</ele></trkpt>
   <trkpt lat="50.055179" lon="8.374854"><ele>132.75</ele></trkpt>
   <trkpt lat="50.055377" lon="8.375438"><ele>132.75</ele></trkpt>
   <trkpt lat="50.055594" lon="8.376003"><ele>132.5</ele></trkpt>
   <trkpt lat="50.055831" lon="8.37655"><ele>132.5</ele></trkpt>
   <trkpt lat="50.056087" lon="8.377076"><ele>132.5</ele></trkpt>
   <trkpt lat="50.05636" lon="8.37758"><ele>132.5</ele></trkpt>
   <trkpt lat="50.056651" lon="8.37806"><ele>132.25</ele></trkpt>
   <trkpt lat="50.056958" lon="8.378515"><ele>132.25</ele></trkpt>
   <trkpt lat="50.05728" lon="8.378943"><ele>132.25</ele></trkpt>
   <trkpt lat="50.057616" lon="8.379344"><ele>132.25</ele></trkpt>
   <trkpt lat="50.057966" lon="8.379716"><ele>132.25</ele></trkpt>
   <trkpt lat="50.058394" lon="8.380144"><ele>132.25</ele></trkpt>
   <trkpt lat="50.058839" lon="8.38053"><ele>134.25</ele></trkpt>
   <trkpt lat="50.059298" lon="8.380874"><ele>136.5</ele></trkpt>
   <trkpt lat="50.059769" lon="8.381174"><ele>139.25</ele></trkpt>
   <trkpt lat="50.060329" lon="8.381484"/>
   <trkpt lat="50.060895" lon="8.381706"/>
   <trkpt lat="50.061221" lon="8.381795"/>
   <trkpt lat="50.061784" lon="8.381929"/>
   <trkpt lat="50.062459" lon="8.381982"/>
   <trkpt lat="50.063087" lon="8.381949"/>
   <trkpt lat="50.063734" lon="8.381819"/>
   <trkpt lat="50.064138" lon="8.3817"/>
   <trkpt lat="50.064634" lon="8.381508"/>
   <trkpt lat="50.065424" lon="8.38106"/>
   <trkpt lat="50.066022" lon="8.380633"/>
   <trkpt lat="50.06606" lon="8.380601"><ele>161.5</ele></trkpt>
   <trkpt lat="50.066402" lon="8.380319"><ele>161.5</ele></trkpt>
   <trkpt lat="50.066929" lon="8.379803"><ele>161.5</ele></trkpt>
   <trkpt lat="50.067397" lon="8.379248"><ele>161.5</ele></trkpt>
   <trkpt lat="50.067855" lon="8.378676"><ele>161.5</ele></trkpt>
   <trkpt lat="50.069074" lon="8.377057"><ele>161.5</ele></trkpt>
   <trkpt lat="50.0698" lon="8.376119"><ele>157.25</ele></trkpt>
   <trkpt lat="50.070919" lon="8.374533"><ele>152.75</ele></trkpt>
   <trkpt lat="50.07148" lon="8.373773"><ele>150.5</ele></trkpt>
   <trkpt lat="50.071652" lon="8.373536"><ele>149.5</ele></trkpt>
   <trkpt lat="50.071712" lon="8.373456"><ele>149.25</ele></trkpt>
   <trkpt lat="50.072079" lon="8.372968"><ele>149.25</ele></trkpt>
   <trkpt lat="50.072667" lon="8.372205"><ele>150.75</ele></trkpt>
   <trkpt lat="50.073156" lon="8.371572"><ele>152.75</ele></trkpt>
   <trkpt lat="50.076208" lon="8.36785"/>
   <trkpt lat="50.076624" lon="8.367342"/>
  </trkseg>
 </trk>
</gpx>