<?xml version="1.0" encoding="UTF-8"?>
<!-- track-length = 17607 filtered ascend = 28 plain-ascend = 23 cost=17607 energy=0.2kwh time=23m 29s -->
<gpx 
 xmlns="http://www.topografix.com/GPX/1/1" 
 xmlns:xsi="http://www.w3.org/2001/XMLSchema-instance" 
 xsi:schemaLocation="http://www.topografix.com/GPX/1/1 http://www.topografix.com/GPX/1/1/gpx.xsd" 
 version="1.1" 
 creator="BRouter-Web 0.18.1">
 <trk>
  <name>Wolfenbüttel - Schöppenstedt</name>
  <trkseg>
   <trkpt lat="52.158138" lon="10.5349"><ele>78</ele></trkpt>
   <trkpt lat="52.15799" lon="10.535223"><ele>78.25</ele></trkpt>
   <trkpt lat="52.157676" lon="10.535838"><ele>78</ele></trkpt>
   <trkpt lat="52.157461" lon="10.536207"><ele>77.5</ele></trkpt>
   <trkpt lat="52.157142" lon="10.536733"><ele>77.25</ele></trkpt>
   <trkpt lat="52.1568" lon="10.537258"><ele>77.75</ele></trkpt>
   <trkpt lat="52.156515" lon="10.53764"><ele>78</ele></trkpt>
   <trkpt lat="52.15644" lon="10.537741"><ele>78</ele></trkpt>
   <trkpt lat="52.155738" lon="10.538599"><ele>76.75</ele></trkpt>
   <trkpt lat="52.154325" lon="10.540183"><ele>76.75</ele></trkpt>
   <trkpt lat="52.152355" lon="10.542411"><ele>77.5</ele></trkpt>
   <trkpt lat="52.150803" lon="10.544163"><ele>77.75</ele></trkpt>
   <trkpt lat="52.150512" lon="10.544506"><ele>77.5</ele></trkpt>
   <trkpt lat="52.149768" lon="10.545324"><ele>77.75</ele></trkpt>
   <trkpt lat="52.149743" lon="10.54535"><ele>77.75</ele></trkpt>
   <trkpt lat="52.149692" lon="10.545409"><ele>77.75</ele></trkpt>
   <trkpt lat="52.149417" lon="10.545736"><ele>78</ele></trkpt>
   <trkpt lat="52.149157" lon="10.546081"><ele>78.25</ele></trkpt>
   <trkpt lat="52.148857" lon="10.546517"><ele>78.25</ele></trkpt>
   <trkpt lat="52.148776" lon="10.546652"><ele>78.5</ele></trkpt>
   <trkpt lat="52.14868" lon="10.546807"><ele>78</ele></trkpt>
   <trkpt lat="52.14859" lon="10.546982"><ele>77.75</ele></trkpt>
   <trkpt lat="52.148496" lon="10.547169"><ele>77.5</ele></trkpt>
   <trkpt lat="52.14838" lon="10.547411"><ele>77</ele></trkpt>
   <trkpt lat="52.148214" lon="10.547797"><ele>76.5</ele></trkpt>
   <trkpt lat="52.148107" lon="10.548075"><ele>76.25</ele></trkpt>
   <trkpt lat="52.148003" lon="10.548387"><ele>76</ele></trkpt>
   <trkpt lat="52.147797" lon="10.549047"><ele>76</ele></trkpt>
   <trkpt lat="52.147551" lon="10.549862"><ele>76</ele></trkpt>
   <trkpt lat="52.147539" lon="10.549903"><ele>76</ele></trkpt>
   <trkpt lat="52.146961" lon="10.551876"><ele>76.5</ele></trkpt>
   <trkpt lat="52.146861" lon="10.552266"><ele>76.25</ele></trkpt>
   <trkpt lat="52.146751" lon="10.552695"><ele>75.75</ele></trkpt>
   <trkpt lat="52.146594" lon="10.553396"><ele>75.25</ele></trkpt>
   <trkpt lat="52.146449" lon="10.554129"><ele>75.75</ele></trkpt>
   <trkpt lat="52.146288" lon="10.555087"><ele>76.5</ele></trkpt>
   <trkpt lat="52.146239" lon="10.555438"><ele>77.25</ele></trkpt>
   <trkpt lat="52.146156" lon="10.556029"><ele>78.25</ele></trkpt>
   <trkpt lat="52.146025" lon="10.5573"><ele>79.25</ele></trkpt>
   <trkpt lat="52.145983" lon="10.557925"><ele>78.75</ele></trkpt>
   <trkpt lat="52.145956" lon="10.558432"><ele>78.75</ele></trkpt>
   <trkpt lat="52.145926" lon="10.559388"><ele>79</ele></trkpt>
   <trkpt lat="52.145916" lon="10.559765"><ele>79</ele></trkpt>
   <trkpt lat="52.145918" lon="10.559877"><ele>79</ele></trkpt>
   <trkpt lat="52.145919" lon="10.559943"><ele>79</ele></trkpt>
   <trkpt lat="52.145925" lon="10.56038"><ele>79</ele></trkpt>
   <trkpt lat="52.145955" lon="10.561347"><ele>79.75</ele></trkpt>
   <trkpt lat="52.145979" lon="10.561836"><ele>80</ele></trkpt>
   <trkpt lat="52.146012" lon="10.562298"><ele>80</ele></trkpt>
   <trkpt lat="52.146014" lon="10.562335"><ele>80</ele></trkpt>
   <trkpt lat="52.146042" lon="10.562681"><ele>80</ele></trkpt>
   <trkpt lat="52.146062" lon="10.562857"><ele>80.25</ele></trkpt>
   <trkpt lat="52.146154" lon="10.563657"><ele>80.5</ele></trkpt>
   <trkpt lat="52.146156" lon="10.563674"><ele>80.5</ele></trkpt>
   <trkpt lat="52.146194" lon="10.564004"><ele>80.75</ele></trkpt>
   <trkpt lat="52.146291" lon="10.56468"><ele>81.5</ele></trkpt>
   <trkpt lat="52.146406" lon="10.565391"><ele>82</ele></trkpt>
   <trkpt lat="52.146449" lon="10.565616"><ele>82</ele></trkpt>
   <trkpt lat="52.147079" lon="10.56882"><ele>82.75</ele></trkpt>
   <trkpt lat="52.147275" lon="10.569823"><ele>83.25</ele></trkpt>
   <trkpt lat="52.147674" lon="10.571852"><ele>85.5</ele></trkpt>
   <trkpt lat="52.147744" lon="10.572206"><ele>85.25</ele></trkpt>
   <trkpt lat="52.148437" lon="10.575707"><ele>80.25</ele></trkpt>
   <trkpt lat="52.148745" lon="10.577263"><ele>80.25</ele></trkpt>
   <trkpt lat="52.148959" lon="10.578348"><ele>79</ele></trkpt>
   <trkpt lat="52.149004" lon="10.578575"><ele>79</ele></trkpt>
   <trkpt lat="52.149174" lon="10.579434"><ele>79.25</ele></trkpt>
   <trkpt lat="52.149549" lon="10.581329"><ele>79</ele></trkpt>
   <trkpt lat="52.149692" lon="10.581981"><ele>79</ele></trkpt>
   <trkpt lat="52.150007" lon="10.583422"><ele>79.75</ele></trkpt>
   <trkpt lat="52.150309" lon="10.584754"><ele>80</ele></trkpt>
   <trkpt lat="52.150768" lon="10.586576"><ele>79.75</ele></trkpt>
   <trkpt lat="52.151183" lon="10.588165"><ele>81.25</ele></trkpt>
   <trkpt lat="52.15189" lon="10.590807"><ele>81</ele></trkpt>
   <trkpt lat="52.151921" lon="10.590944"><ele>81</ele></trkpt>
   <trkpt lat="52.151942" lon="10.59102"><ele>81</ele></trkpt>
   <trkpt lat="52.151958" lon="10.591083"><ele>81</ele></trkpt>
   <trkpt lat="52.151961" lon="10.591095"><ele>81</ele></trkpt>
   <trkpt lat="52.152005" lon="10.591256"><ele>81</ele></trkpt>
   <trkpt lat="52.152297" lon="10.592374"><ele>81</ele></trkpt>
   <trkpt lat="52.152558" lon="10.593338"><ele>79</ele></trkpt>
   <trkpt lat="52.152893" lon="10.594467"><ele>80</ele></trkpt>
   <trkpt lat="52.153039" lon="10.594908"><ele>80.25</ele></trkpt>
   <trkpt lat="52.15324" lon="10.595514"><ele>80</ele></trkpt>
   <trkpt lat="52.15461" lon="10.599644"><ele>79</ele></trkpt>
   <trkpt lat="52.154726" lon="10.59997"><ele>78.5</ele></trkpt>
   <trkpt lat="52.154773" lon="10.600096"><ele>78.5</ele></trkpt>
   <trkpt lat="52.155161" lon="10.601194"><ele>79.75</ele></trkpt>
   <trkpt lat="52.155265" lon="10.601464"><ele>80.5</ele></trkpt>
   <trkpt lat="52.155307" lon="10.601576"><ele>80.75</ele></trkpt>
   <trkpt lat="52.156125" lon="10.603755"><ele>80</ele></trkpt>
   <trkpt lat="52.156165" lon="10.603861"><ele>80</ele></trkpt>
   <trkpt lat="52.156772" lon="10.60548"><ele>81</ele></trkpt>
   <trkpt lat="52.158242" lon="10.609354"><ele>82.5</ele></trkpt>
   <trkpt lat="52.158598" lon="10.610345"><ele>82.25</ele></trkpt>
   <trkpt lat="52.158713" lon="10.610692"><ele>82.25</ele></trkpt>
   <trkpt lat="52.158843" lon="10.611082"><ele>82.5</ele></trkpt>
   <trkpt lat="52.159165" lon="10.612102"><ele>82</ele></trkpt>
   <trkpt lat="52.159463" lon="10.613105"><ele>82</ele></trkpt>
   <trkpt lat="52.159723" lon="10.614045"><ele>81.5</ele></trkpt>
   <trkpt lat="52.160188" lon="10.615919"><ele>81.75</ele></trkpt>
   <trkpt lat="52.160344" lon="10.616608"><ele>81.5</ele></trkpt>
   <trkpt lat="52.160479" lon="10.617242"><ele>81.25</ele></trkpt>
   <trkpt lat="52.16051" lon="10.617387"><ele>81.25</ele></trkpt>
   <trkpt lat="52.160703" lon="10.618418"><ele>82</ele></trkpt>
   <trkpt lat="52.16082" lon="10.619085"><ele>82</ele></trkpt>
   <trkpt lat="52.161053" lon="10.62049"><ele>82.5</ele></trkpt>
   <trkpt lat="52.161171" lon="10.62131"><ele>82</ele></trkpt>
   <trkpt lat="52.161299" lon="10.622334"><ele>81.25</ele></trkpt>
   <trkpt lat="52.161405" lon="10.623272"><ele>80.25</ele></trkpt>
   <trkpt lat="52.161465" lon="10.623863"><ele>80</ele></trkpt>
   <trkpt lat="52.161555" lon="10.62489"><ele>81</ele></trkpt>
   <trkpt lat="52.161662" lon="10.626459"><ele>81.75</ele></trkpt>
   <trkpt lat="52.161715" lon="10.628422"><ele>80.75</ele></trkpt>
   <trkpt lat="52.16173" lon="10.629823"><ele>81.5</ele></trkpt>
   <trkpt lat="52.161719" lon="10.630787"><ele>81.75</ele></trkpt>
   <trkpt lat="52.161685" lon="10.632015"><ele>82.75</ele></trkpt>
   <trkpt lat="52.16165" lon="10.632953"><ele>82.25</ele></trkpt>
   <trkpt lat="52.161584" lon="10.634062"><ele>82</ele></trkpt>
   <trkpt lat="52.161521" lon="10.634966"><ele>82.75</ele></trkpt>
   <trkpt lat="52.161448" lon="10.635795"><ele>83</ele></trkpt>
   <trkpt lat="52.161361" lon="10.636695"><ele>82.25</ele></trkpt>
   <trkpt lat="52.161283" lon="10.637369"><ele>82.25</ele></trkpt>
   <trkpt lat="52.161163" lon="10.638311"><ele>82</ele></trkpt>
   <trkpt lat="52.161125" lon="10.638592"><ele>82.25</ele></trkpt>
   <trkpt lat="52.161112" lon="10.638688"><ele>82.25</ele></trkpt>
   <trkpt lat="52.161037" lon="10.639214"><ele>82.5</ele></trkpt>
   <trkpt lat="52.16087" lon="10.640274"><ele>82.75</ele></trkpt>
   <trkpt lat="52.160728" lon="10.641081"><ele>83</ele></trkpt>
   <trkpt lat="52.160528" lon="10.64214"><ele>83.25</ele></trkpt>
   <trkpt lat="52.160067" lon="10.644426"><ele>84.5</ele></trkpt>
   <trkpt lat="52.159993" lon="10.644793"><ele>84.25</ele></trkpt>
   <trkpt lat="52.158675" lon="10.651326"><ele>83.75</ele></trkpt>
   <trkpt lat="52.158102" lon="10.654208"><ele>84.25</ele></trkpt>
   <trkpt lat="52.15809" lon="10.654271"><ele>84.25</ele></trkpt>
   <trkpt lat="52.15762" lon="10.656638"><ele>83.75</ele></trkpt>
   <trkpt lat="52.157089" lon="10.65925"><ele>84.5</ele></trkpt>
   <trkpt lat="52.15705" lon="10.659456"><ele>84.5</ele></trkpt>
   <trkpt lat="52.156766" lon="10.660859"><ele>85.75</ele></trkpt>
   <trkpt lat="52.156759" lon="10.660891"><ele>85.75</ele></trkpt>
   <trkpt lat="52.156736" lon="10.661"><ele>85.75</ele></trkpt>
   <trkpt lat="52.156227" lon="10.663545"><ele>85.5</ele></trkpt>
   <trkpt lat="52.156187" lon="10.663727"><ele>85.5</ele></trkpt>
   <trkpt lat="52.155691" lon="10.666209"><ele>85.25</ele></trkpt>
   <trkpt lat="52.155676" lon="10.66626"><ele>85.25</ele></trkpt>
   <trkpt lat="52.155663" lon="10.666326"><ele>85</ele></trkpt>
   <trkpt lat="52.155647" lon="10.66642"><ele>85</ele></trkpt>
   <trkpt lat="52.155434" lon="10.667468"><ele>84.5</ele></trkpt>
   <trkpt lat="52.154682" lon="10.671237"><ele>85</ele></trkpt>
   <trkpt lat="52.154051" lon="10.674307"><ele>85</ele></trkpt>
   <trkpt lat="52.153909" lon="10.674999"><ele>85.25</ele></trkpt>
   <trkpt lat="52.153659" lon="10.676211"><ele>86.25</ele></trkpt>
   <trkpt lat="52.153133" lon="10.678829"><ele>86</ele></trkpt>
   <trkpt lat="52.152721" lon="10.680872"><ele>85.5</ele></trkpt>
   <trkpt lat="52.152167" lon="10.683598"><ele>86.25</ele></trkpt>
   <trkpt lat="52.151206" lon="10.688558"><ele>86.75</ele></trkpt>
   <trkpt lat="52.150865" lon="10.690261"><ele>87</ele></trkpt>
   <trkpt lat="52.15084" lon="10.690395"><ele>87</ele></trkpt>
   <trkpt lat="52.149851" lon="10.695023"><ele>89.75</ele></trkpt>
   <trkpt lat="52.149656" lon="10.695935"><ele>90.5</ele></trkpt>
   <trkpt lat="52.149198" lon="10.698184"><ele>91</ele></trkpt>
   <trkpt lat="52.148919" lon="10.699627"><ele>90.75</ele></trkpt>
   <trkpt lat="52.1485" lon="10.701834"><ele>89.25</ele></trkpt>
   <trkpt lat="52.148351" lon="10.702659"><ele>89</ele></trkpt>
   <trkpt lat="52.14821" lon="10.703492"><ele>89.75</ele></trkpt>
   <trkpt lat="52.148043" lon="10.704598"><ele>90</ele></trkpt>
   <trkpt lat="52.147914" lon="10.70557"><ele>90.75</ele></trkpt>
   <trkpt lat="52.147721" lon="10.707495"><ele>92</ele></trkpt>
   <trkpt lat="52.147605" lon="10.708703"><ele>92.75</ele></trkpt>
   <trkpt lat="52.147522" lon="10.710153"><ele>92</ele></trkpt>
   <trkpt lat="52.147478" lon="10.711512"><ele>91.75</ele></trkpt>
   <trkpt lat="52.14745" lon="10.712928"><ele>91.75</ele></trkpt>
   <trkpt lat="52.147437" lon="10.719275"><ele>93.75</ele></trkpt>
   <trkpt lat="52.147437" lon="10.721989"><ele>93.75</ele></trkpt>
   <trkpt lat="52.147437" lon="10.723364"><ele>94</ele></trkpt>
   <trkpt lat="52.147438" lon="10.72425"><ele>93.75</ele></trkpt>
   <trkpt lat="52.147438" lon="10.724333"><ele>93.75</ele></trkpt>
   <trkpt lat="52.147439" lon="10.726033"><ele>94</ele></trkpt>
   <trkpt lat="52.147437" lon="10.7383"><ele>95</ele></trkpt>
   <trkpt lat="52.147455" lon="10.740536"><ele>95.5</ele></trkpt>
   <trkpt lat="52.147415" lon="10.742385"><ele>97</ele></trkpt>
   <trkpt lat="52.147387" lon="10.74328"><ele>96</ele></trkpt>
   <trkpt lat="52.147288" lon="10.745136"><ele>97</ele></trkpt>
   <trkpt lat="52.147234" lon="10.745834"><ele>97</ele></trkpt>
   <trkpt lat="52.147178" lon="10.7465"><ele>97.25</ele></trkpt>
   <trkpt lat="52.147096" lon="10.747328"><ele>97.5</ele></trkpt>
   <trkpt lat="52.14692" lon="10.748886"><ele>98.25</ele></trkpt>
   <trkpt lat="52.14681" lon="10.74972"><ele>98</ele></trkpt>
   <trkpt lat="52.146665" lon="10.750674"><ele>98</ele></trkpt>
   <trkpt lat="52.146438" lon="10.752009"><ele>99</ele></trkpt>
   <trkpt lat="52.146378" lon="10.752355"><ele>99</ele></trkpt>
   <trkpt lat="52.146064" lon="10.753921"><ele>98</ele></trkpt>
   <trkpt lat="52.145757" lon="10.755274"><ele>99</ele></trkpt>
   <trkpt lat="52.145542" lon="10.756141"><ele>99</ele></trkpt>
   <trkpt lat="52.145178" lon="10.757489"><ele>99</ele></trkpt>
   <trkpt lat="52.145116" lon="10.757693"><ele>99</ele></trkpt>
   <trkpt lat="52.144678" lon="10.75913"><ele>99.25</ele></trkpt>
   <trkpt lat="52.143796" lon="10.761941"><ele>100.25</ele></trkpt>
   <trkpt lat="52.14379" lon="10.761961"><ele>100.25</ele></trkpt>
   <trkpt lat="52.142948" lon="10.764648"><ele>102</ele></trkpt>
   <trkpt lat="52.142747" lon="10.765348"><ele>102.75</ele></trkpt>
   <trkpt lat="52.142564" lon="10.765928"><ele>103</ele></trkpt>
   <trkpt lat="52.142232" lon="10.766918"><ele>103</ele></trkpt>
   <trkpt lat="52.142225" lon="10.766939"><ele>103</ele></trkpt>
   <trkpt lat="52.142152" lon="10.767147"><ele>103</ele></trkpt>
   <trkpt lat="52.141427" lon="10.769426"><ele>102.25</ele></trkpt>
   <trkpt lat="52.141216" lon="10.770104"><ele>102.5</ele></trkpt>
   <trkpt lat="52.141146" lon="10.770322"><ele>102.5</ele></trkpt>
   <trkpt lat="52.140612" lon="10.772027"><ele>103</ele></trkpt>
   <trkpt lat="52.140556" lon="10.7722"><ele>103</ele></trkpt>
  </trkseg>
 </trk>
</gpx>