<?xml version="1.0" encoding="UTF-8"?>
<!-- track-length = 90792 filtered ascend = 459 plain-ascend = 133 cost=90792 energy=1.2kwh time=2h 1m 3s -->
<gpx 
 xmlns="http://www.topografix.com/GPX/1/1" 
 xmlns:xsi="http://www.w3.org/2001/XMLSchema-instance" 
 xsi:schemaLocation="http://www.topografix.com/GPX/1/1 http://www.topografix.com/GPX/1/1/gpx.xsd" 
 version="1.1" 
 creator="BRouter-Web 0.18.1">
 <trk>
  <name>Würzburg - Fulda</name>
  <trkseg>
   <trkpt lat="49.801693" lon="9.939029"><ele>181</ele></trkpt>
   <trkpt lat="49.801842" lon="9.938057"><ele>182</ele></trkpt>
   <trkpt lat="49.801974" lon="9.937085"><ele>182</ele></trkpt>
   <trkpt lat="49.801977" lon="9.937065"><ele>181.75</ele></trkpt>
   <trkpt lat="49.80208" lon="9.936323"><ele>181.5</ele></trkpt>
   <trkpt lat="49.802097" lon="9.936207"><ele>181.75</ele></trkpt>
   <trkpt lat="49.802104" lon="9.936164"><ele>181.75</ele></trkpt>
   <trkpt lat="49.802202" lon="9.935441"><ele>182</ele></trkpt>
   <trkpt lat="49.80227" lon="9.934914"><ele>182.25</ele></trkpt>
   <trkpt lat="49.802453" lon="9.933595"><ele>181.75</ele></trkpt>
   <trkpt lat="49.802519" lon="9.933071"><ele>181.5</ele></trkpt>
   <trkpt lat="49.802587" lon="9.932568"><ele>181.25</ele></trkpt>
   <trkpt lat="49.802669" lon="9.931351"><ele>180.5</ele></trkpt>
   <trkpt lat="49.802719" lon="9.930587"><ele>180.75</ele></trkpt>
   <trkpt lat="49.802759" lon="9.930059"><ele>180</ele></trkpt>
   <trkpt lat="49.802774" lon="9.929738"><ele>179.75</ele></trkpt>
   <trkpt lat="49.802802" lon="9.92925"><ele>179.75</ele></trkpt>
   <trkpt lat="49.802841" lon="9.928681"><ele>179.5</ele></trkpt>
   <trkpt lat="49.802844" lon="9.928611"><ele>179.5</ele></trkpt>
   <trkpt lat="49.803001" lon="9.927096"><ele>179.75</ele></trkpt>
   <trkpt lat="49.803002" lon="9.927087"><ele>179.75</ele></trkpt>
   <trkpt lat="49.80302" lon="9.926927"><ele>180</ele></trkpt>
   <trkpt lat="49.803034" lon="9.926782"><ele>180</ele></trkpt>
   <trkpt lat="49.803038" lon="9.926744"><ele>180</ele></trkpt>
   <trkpt lat="49.803167" lon="9.925578"><ele>179.75</ele></trkpt>
   <trkpt lat="49.803179" lon="9.925445"><ele>179.5</ele></trkpt>
   <trkpt lat="49.80318" lon="9.925431"><ele>179.5</ele></trkpt>
   <trkpt lat="49.803188" lon="9.925356"><ele>179.5</ele></trkpt>
   <trkpt lat="49.803196" lon="9.925279"><ele>179.5</ele></trkpt>
   <trkpt lat="49.803235" lon="9.924837"><ele>179</ele></trkpt>
   <trkpt lat="49.803248" lon="9.924526"><ele>178.5</ele></trkpt>
   <trkpt lat="49.803294" lon="9.924011"><ele>177.5</ele></trkpt>
   <trkpt lat="49.803302" lon="9.923939"><ele>177.5</ele></trkpt>
   <trkpt lat="49.803311" lon="9.923856"><ele>177.5</ele></trkpt>
   <trkpt lat="49.803416" lon="9.922911"><ele>177.5</ele></trkpt>
   <trkpt lat="49.80347" lon="9.922427"><ele>177.75</ele></trkpt>
   <trkpt lat="49.803472" lon="9.922405"><ele>177.75</ele></trkpt>
   <trkpt lat="49.803478" lon="9.922354"><ele>177.75</ele></trkpt>
   <trkpt lat="49.803481" lon="9.922324"><ele>177.75</ele></trkpt>
   <trkpt lat="49.803725" lon="9.920128"><ele>181</ele></trkpt>
   <trkpt lat="49.803728" lon="9.920106"><ele>181</ele></trkpt>
   <trkpt lat="49.803928" lon="9.918419"><ele>183.75</ele></trkpt>
   <trkpt lat="49.80403" lon="9.917526"><ele>185.25</ele></trkpt>
   <trkpt lat="49.80403" lon="9.917519"><ele>185.25</ele></trkpt>
   <trkpt lat="49.804085" lon="9.917038"><ele>186</ele></trkpt>
   <trkpt lat="49.804248" lon="9.915621"><ele>188.25</ele></trkpt>
   <trkpt lat="49.804318" lon="9.915055"><ele>189</ele></trkpt>
   <trkpt lat="49.804426" lon="9.914265"><ele>190.25</ele></trkpt>
   <trkpt lat="49.804541" lon="9.913449"><ele>191.5</ele></trkpt>
   <trkpt lat="49.804659" lon="9.912707"><ele>192.75</ele></trkpt>
   <trkpt lat="49.804771" lon="9.912172"><ele>192.75</ele></trkpt>
   <trkpt lat="49.804798" lon="9.912053"><ele>192.75</ele></trkpt>
   <trkpt lat="49.804982" lon="9.911176"><ele>192.75</ele></trkpt>
   <trkpt lat="49.805494" lon="9.909231"><ele>193</ele></trkpt>
   <trkpt lat="49.805626" lon="9.908814"><ele>193</ele></trkpt>
   <trkpt lat="49.805895" lon="9.908002"><ele>193</ele></trkpt>
   <trkpt lat="49.806006" lon="9.907692"><ele>193</ele></trkpt>
   <trkpt lat="49.806114" lon="9.907388"><ele>193</ele></trkpt>
   <trkpt lat="49.806349" lon="9.90679"><ele>193.25</ele></trkpt>
   <trkpt lat="49.806592" lon="9.906208"><ele>193.25</ele></trkpt>
   <trkpt lat="49.806853" lon="9.905625"><ele>193.25</ele></trkpt>
   <trkpt lat="49.807166" lon="9.904957"><ele>193.25</ele></trkpt>
   <trkpt lat="49.80722" lon="9.904857"><ele>193.5</ele></trkpt>
   <trkpt lat="49.807494" lon="9.904308"><ele>185.25</ele></trkpt>
   <trkpt lat="49.808363" lon="9.902749"><ele>184.5</ele></trkpt>
   <trkpt lat="49.808582" lon="9.902394"><ele>191.75</ele></trkpt>
   <trkpt lat="49.808617" lon="9.902332"><ele>191.75</ele></trkpt>
   <trkpt lat="49.808746" lon="9.902115"><ele>191.75</ele></trkpt>
   <trkpt lat="49.808914" lon="9.901831"><ele>191.75</ele></trkpt>
   <trkpt lat="49.812794" lon="9.895224"><ele>194.25</ele></trkpt>
   <trkpt lat="49.816415" lon="9.889041"><ele>196.5</ele></trkpt>
   <trkpt lat="49.817598" lon="9.886936"><ele>197.25</ele></trkpt>
   <trkpt lat="49.818758" lon="9.884825"><ele>198</ele></trkpt>
   <trkpt lat="49.819889" lon="9.882668"><ele>198.5</ele></trkpt>
   <trkpt lat="49.820998" lon="9.880472"><ele>199.25</ele></trkpt>
   <trkpt lat="49.821408" lon="9.879658"><ele>199.75</ele></trkpt>
   <trkpt lat="49.821697" lon="9.879058"><ele>199.75</ele></trkpt>
   <trkpt lat="49.821785" lon="9.878864"><ele>199.5</ele></trkpt>
   <trkpt lat="49.822132" lon="9.878162"><ele>199.25</ele></trkpt>
   <trkpt lat="49.826944" lon="9.868439"><ele>195.25</ele></trkpt>
   <trkpt lat="49.828846" lon="9.864596"><ele>193.5</ele></trkpt>
   <trkpt lat="49.829149" lon="9.864013"><ele>193.75</ele></trkpt>
   <trkpt lat="49.829852" lon="9.862721"><ele>199.25</ele></trkpt>
   <trkpt lat="49.830044" lon="9.862337"><ele>199.75</ele></trkpt>
   <trkpt lat="49.830191" lon="9.862035"><ele>200</ele></trkpt>
   <trkpt lat="49.830266" lon="9.861882"><ele>200.25</ele></trkpt>
   <trkpt lat="49.833053" lon="9.856254"><ele>207.75</ele></trkpt>
   <trkpt lat="49.83473" lon="9.852987"><ele>212.25</ele></trkpt>
   <trkpt lat="49.835896" lon="9.850864"><ele>215</ele></trkpt>
   <trkpt lat="49.837103" lon="9.848807"><ele>218</ele></trkpt>
   <trkpt lat="49.839626" lon="9.84484"><ele>224</ele></trkpt>
   <trkpt lat="49.841617" lon="9.841991"><ele>228.5</ele></trkpt>
   <trkpt lat="49.841822" lon="9.841704"><ele>228.5</ele></trkpt>
   <trkpt lat="49.842394" lon="9.840912"><ele>226.25</ele></trkpt>
   <trkpt lat="49.842695" lon="9.840538"><ele>234</ele></trkpt>
   <trkpt lat="49.844518" lon="9.838044"><ele>234</ele></trkpt>
   <trkpt lat="49.846313" lon="9.83559"><ele>263.75</ele></trkpt>
   <trkpt lat="49.848371" lon="9.832903"><ele>263.75</ele></trkpt>
   <trkpt lat="49.851221" lon="9.829449"><ele>263.75</ele></trkpt>
   <trkpt lat="49.853393" lon="9.827029"><ele>263.75</ele></trkpt>
   <trkpt lat="49.855879" lon="9.824348"><ele>263.75</ele></trkpt>
   <trkpt lat="49.856429" lon="9.823745"><ele>260.75</ele></trkpt>
   <trkpt lat="49.856783" lon="9.823357"><ele>260</ele></trkpt>
   <trkpt lat="49.857401" lon="9.822664"><ele>258.75</ele></trkpt>
   <trkpt lat="49.859974" lon="9.819902"><ele>253.5</ele></trkpt>
   <trkpt lat="49.861544" lon="9.818141"><ele>250.5</ele></trkpt>
   <trkpt lat="49.861657" lon="9.81802"><ele>250.25</ele></trkpt>
   <trkpt lat="49.862245" lon="9.81741"><ele>249</ele></trkpt>
   <trkpt lat="49.862743" lon="9.816914"><ele>248</ele></trkpt>
   <trkpt lat="49.863231" lon="9.816407"><ele>247</ele></trkpt>
   <trkpt lat="49.865936" lon="9.813504"><ele>241.75</ele></trkpt>
   <trkpt lat="49.866657" lon="9.812682"><ele>240.25</ele></trkpt>
   <trkpt lat="49.867378" lon="9.811832"><ele>238.75</ele></trkpt>
   <trkpt lat="49.868793" lon="9.810109"><ele>236</ele></trkpt>
   <trkpt lat="49.869489" lon="9.809233"><ele>234.5</ele></trkpt>
   <trkpt lat="49.870863" lon="9.807452"><ele>231.5</ele></trkpt>
   <trkpt lat="49.872755" lon="9.804971"><ele>227.5</ele></trkpt>
   <trkpt lat="49.872914" lon="9.804765"><ele>227.25</ele></trkpt>
   <trkpt lat="49.873388" lon="9.804156"><ele>227.25</ele></trkpt>
   <trkpt lat="49.873828" lon="9.803583"><ele>227.5</ele></trkpt>
   <trkpt lat="49.875796" lon="9.801024"><ele>228.5</ele></trkpt>
   <trkpt lat="49.877742" lon="9.798504"><ele>229.75</ele></trkpt>
   <trkpt lat="49.879809" lon="9.7958"><ele>231</ele></trkpt>
   <trkpt lat="49.881185" lon="9.794015"><ele>231.75</ele></trkpt>
   <trkpt lat="49.882493" lon="9.792297"><ele>232.75</ele></trkpt>
   <trkpt lat="49.884025" lon="9.790373"><ele>232.75</ele></trkpt>
   <trkpt lat="49.88497" lon="9.789209"><ele>235.5</ele></trkpt>
   <trkpt lat="49.887105" lon="9.786654"><ele>242</ele></trkpt>
   <trkpt lat="49.888391" lon="9.78513"><ele>246</ele></trkpt>
   <trkpt lat="49.891988" lon="9.780812"><ele>257</ele></trkpt>
   <trkpt lat="49.892505" lon="9.78018"><ele>258.75</ele></trkpt>
   <trkpt lat="49.893459" lon="9.77898"><ele>261.5</ele></trkpt>
   <trkpt lat="49.894634" lon="9.777406"><ele>261.75</ele></trkpt>
   <trkpt lat="49.895819" lon="9.775803"><ele>254.25</ele></trkpt>
   <trkpt lat="49.89589" lon="9.775707"><ele>253.5</ele></trkpt>
   <trkpt lat="49.897812" lon="9.772955"><ele>253.5</ele></trkpt>
   <trkpt lat="49.89841" lon="9.772113"><ele>258.25</ele></trkpt>
   <trkpt lat="49.898561" lon="9.7719"><ele>260.25</ele></trkpt>
   <trkpt lat="49.902557" lon="9.766186"><ele>278</ele></trkpt>
   <trkpt lat="49.902625" lon="9.76609"><ele>278.75</ele></trkpt>
   <trkpt lat="49.904348" lon="9.763636"><ele>282.75</ele></trkpt>
   <trkpt lat="49.905179" lon="9.762467"><ele>281.5</ele></trkpt>
   <trkpt lat="49.905995" lon="9.761318"><ele>285.75</ele></trkpt>
   <trkpt lat="49.906083" lon="9.761186"><ele>286.25</ele></trkpt>
   <trkpt lat="49.907553" lon="9.759115"><ele>292.75</ele></trkpt>
   <trkpt lat="49.913372" lon="9.750804"><ele>309.5</ele></trkpt>
   <trkpt lat="49.913484" lon="9.750645"><ele>308.5</ele></trkpt>
   <trkpt lat="49.915386" lon="9.747935"><ele>316.25</ele></trkpt>
   <trkpt lat="49.918079" lon="9.743989"><ele>318</ele></trkpt>
   <trkpt lat="49.922203" lon="9.738139"><ele>300.25</ele></trkpt>
   <trkpt lat="49.924089" lon="9.735339"><ele>294</ele></trkpt>
   <trkpt lat="49.927827" lon="9.730303"><ele>299.25</ele></trkpt>
   <trkpt lat="49.927893" lon="9.730215"><ele>299.5</ele></trkpt>
   <trkpt lat="49.928155" lon="9.72984"><ele>299</ele></trkpt>
   <trkpt lat="49.929016" lon="9.728811"><ele>300.25</ele></trkpt>
   <trkpt lat="49.932243" lon="9.725191"><ele>313.25</ele></trkpt>
   <trkpt lat="49.935773" lon="9.721871"><ele>299.75</ele></trkpt>
   <trkpt lat="49.937665" lon="9.720372"><ele>290.75</ele></trkpt>
   <trkpt lat="49.937864" lon="9.720214"><ele>290</ele></trkpt>
   <trkpt lat="49.938123" lon="9.72002"><ele>289.25</ele></trkpt>
   <trkpt lat="49.939474" lon="9.719082"><ele>291.5</ele></trkpt>
   <trkpt lat="49.939962" lon="9.718748"><ele>292.25</ele></trkpt>
   <trkpt lat="49.94062" lon="9.718347"><ele>294</ele></trkpt>
   <trkpt lat="49.941533" lon="9.717804"><ele>298</ele></trkpt>
   <trkpt lat="49.942439" lon="9.717266"><ele>297.75</ele></trkpt>
   <trkpt lat="49.944092" lon="9.71642"><ele>290.25</ele></trkpt>
   <trkpt lat="49.945884" lon="9.715562"><ele>282.75</ele></trkpt>
   <trkpt lat="49.946054" lon="9.715479"><ele>283</ele></trkpt>
   <trkpt lat="49.946572" lon="9.715277"><ele>284.25</ele></trkpt>
   <trkpt lat="49.946874" lon="9.715166"><ele>286</ele></trkpt>
   <trkpt lat="49.9483" lon="9.714684"><ele>295.5</ele></trkpt>
   <trkpt lat="49.948505" lon="9.714618"><ele>296.75</ele></trkpt>
   <trkpt lat="49.950932" lon="9.713831"><ele>303.25</ele></trkpt>
   <trkpt lat="49.951409" lon="9.713677"><ele>304.25</ele></trkpt>
   <trkpt lat="49.953304" lon="9.713039"><ele>297.25</ele></trkpt>
   <trkpt lat="49.9534" lon="9.713008"><ele>297.5</ele></trkpt>
   <trkpt lat="49.955023" lon="9.712581"><ele>298.5</ele></trkpt>
   <trkpt lat="49.955359" lon="9.71249"><ele>296.75</ele></trkpt>
   <trkpt lat="49.955685" lon="9.71238"><ele>296</ele></trkpt>
   <trkpt lat="49.958508" lon="9.711503"><ele>284</ele></trkpt>
   <trkpt lat="49.95853" lon="9.711496"><ele>284</ele></trkpt>
   <trkpt lat="49.958719" lon="9.711436"><ele>283.25</ele></trkpt>
   <trkpt lat="49.958872" lon="9.711389"><ele>283.25</ele></trkpt>
   <trkpt lat="49.962553" lon="9.710277"><ele>289</ele></trkpt>
   <trkpt lat="49.96405" lon="9.709825"><ele>290</ele></trkpt>
   <trkpt lat="49.964118" lon="9.709804"><ele>290</ele></trkpt>
   <trkpt lat="49.964995" lon="9.709538"><ele>289</ele></trkpt>
   <trkpt lat="49.966627" lon="9.709041"><ele>291</ele></trkpt>
   <trkpt lat="49.967222" lon="9.708857"><ele>288</ele></trkpt>
   <trkpt lat="49.967613" lon="9.708725"><ele>285.75</ele></trkpt>
   <trkpt lat="49.967713" lon="9.708705"><ele>285.75</ele></trkpt>
   <trkpt lat="49.9678" lon="9.708678"><ele>285.75</ele></trkpt>
   <trkpt lat="49.969628" lon="9.708107"><ele>284.5</ele></trkpt>
   <trkpt lat="49.970897" lon="9.70771"><ele>284</ele></trkpt>
   <trkpt lat="49.970984" lon="9.707717"><ele>283.75</ele></trkpt>
   <trkpt lat="49.971851" lon="9.707439"><ele>282.5</ele></trkpt>
   <trkpt lat="49.972983" lon="9.707092"><ele>284</ele></trkpt>
   <trkpt lat="49.974915" lon="9.706499"><ele>284</ele></trkpt>
   <trkpt lat="49.975381" lon="9.706335"><ele>284.5</ele></trkpt>
   <trkpt lat="49.976062" lon="9.706103"><ele>285.5</ele></trkpt>
   <trkpt lat="49.976555" lon="9.705918"><ele>285.5</ele></trkpt>
   <trkpt lat="49.977171" lon="9.705685"><ele>285</ele></trkpt>
   <trkpt lat="49.978161" lon="9.705288"><ele>285.75</ele></trkpt>
   <trkpt lat="49.978675" lon="9.705053"><ele>285.25</ele></trkpt>
   <trkpt lat="49.980139" lon="9.704334"><ele>285.5</ele></trkpt>
   <trkpt lat="49.980505" lon="9.704154"><ele>283.75</ele></trkpt>
   <trkpt lat="49.981729" lon="9.703503"><ele>279.5</ele></trkpt>
   <trkpt lat="49.98254" lon="9.703052"><ele>281.75</ele></trkpt>
   <trkpt lat="49.983285" lon="9.702577"><ele>283</ele></trkpt>
   <trkpt lat="49.983979" lon="9.702134"><ele>279.75</ele></trkpt>
   <trkpt lat="49.985319" lon="9.701226"><ele>275</ele></trkpt>
   <trkpt lat="49.98553" lon="9.701075"><ele>274</ele></trkpt>
   <trkpt lat="49.985939" lon="9.700782"><ele>272.5</ele></trkpt>
   <trkpt lat="49.986676" lon="9.700226"><ele>271.75</ele></trkpt>
   <trkpt lat="49.988018" lon="9.699176"><ele>271.75</ele></trkpt>
   <trkpt lat="49.988158" lon="9.699066"><ele>272.25</ele></trkpt>
   <trkpt lat="49.989113" lon="9.698254"><ele>275.25</ele></trkpt>
   <trkpt lat="49.990078" lon="9.697432"><ele>276.25</ele></trkpt>
   <trkpt lat="49.991525" lon="9.696209"><ele>274.25</ele></trkpt>
   <trkpt lat="49.991657" lon="9.696096"><ele>273.75</ele></trkpt>
   <trkpt lat="49.991866" lon="9.695922"><ele>273.75</ele></trkpt>
   <trkpt lat="49.992672" lon="9.695217"><ele>275.25</ele></trkpt>
   <trkpt lat="49.993259" lon="9.694729"><ele>278.5</ele></trkpt>
   <trkpt lat="49.994687" lon="9.693539"><ele>279.75</ele></trkpt>
   <trkpt lat="49.996111" lon="9.692376"><ele>275.75</ele></trkpt>
   <trkpt lat="49.997356" lon="9.691395"><ele>272.5</ele></trkpt>
   <trkpt lat="49.997556" lon="9.691252"><ele>271.25</ele></trkpt>
   <trkpt lat="49.998053" lon="9.690896"><ele>267.25</ele></trkpt>
   <trkpt lat="49.99895" lon="9.690255"><ele>259</ele></trkpt>
   <trkpt lat="49.999302" lon="9.69003"><ele>257.75</ele></trkpt>
   <trkpt lat="49.999442" lon="9.68994"><ele>257</ele></trkpt>
   <trkpt lat="50.000936" lon="9.688963"><ele>258.25</ele></trkpt>
   <trkpt lat="50.002814" lon="9.687799"><ele>264</ele></trkpt>
   <trkpt lat="50.004368" lon="9.686938"><ele>268.5</ele></trkpt>
   <trkpt lat="50.004606" lon="9.686808"><ele>268.5</ele></trkpt>
   <trkpt lat="50.00819" lon="9.684829"><ele>269.75</ele></trkpt>
   <trkpt lat="50.0132" lon="9.682084"><ele>271.75</ele></trkpt>
   <trkpt lat="50.014135" lon="9.681572"><ele>272</ele></trkpt>
   <trkpt lat="50.016948" lon="9.680095"><ele>273</ele></trkpt>
   <trkpt lat="50.020949" lon="9.678114"><ele>274.5</ele></trkpt>
   <trkpt lat="50.024015" lon="9.676975"><ele>275.75</ele></trkpt>
   <trkpt lat="50.02503" lon="9.676602"><ele>276</ele></trkpt>
   <trkpt lat="50.027226" lon="9.675965"><ele>276.75</ele></trkpt>
   <trkpt lat="50.033741" lon="9.674779"><ele>279.25</ele></trkpt>
   <trkpt lat="50.035918" lon="9.67466"><ele>280</ele></trkpt>
   <trkpt lat="50.03819" lon="9.674542"><ele>280.75</ele></trkpt>
   <trkpt lat="50.038605" lon="9.67452"><ele>281</ele></trkpt>
   <trkpt lat="50.042194" lon="9.674429"><ele>282.25</ele></trkpt>
   <trkpt lat="50.043571" lon="9.674395"><ele>282.75</ele></trkpt>
   <trkpt lat="50.044877" lon="9.674365"><ele>283.25</ele></trkpt>
   <trkpt lat="50.053094" lon="9.674177"><ele>206.75</ele></trkpt>
   <trkpt lat="50.053369" lon="9.674172"><ele>205.75</ele></trkpt>
   <trkpt lat="50.053813" lon="9.674157"><ele>204.25</ele></trkpt>
   <trkpt lat="50.054874" lon="9.674132"><ele>200.75</ele></trkpt>
   <trkpt lat="50.058722" lon="9.67404"><ele>188.25</ele></trkpt>
   <trkpt lat="50.060993" lon="9.673984"><ele>181</ele></trkpt>
   <trkpt lat="50.063711" lon="9.673918"><ele>190.5</ele></trkpt>
   <trkpt lat="50.064047" lon="9.673904"><ele>191.5</ele></trkpt>
   <trkpt lat="50.064205" lon="9.673897"><ele>192.25</ele></trkpt>
   <trkpt lat="50.064499" lon="9.673882"><ele>192.25</ele></trkpt>
   <trkpt lat="50.064694" lon="9.673873"><ele>192.25</ele></trkpt>
   <trkpt lat="50.069885" lon="9.673772"><ele>196.25</ele></trkpt>
   <trkpt lat="50.072913" lon="9.673675"><ele>198.75</ele></trkpt>
   <trkpt lat="50.075039" lon="9.673607"><ele>200.5</ele></trkpt>
   <trkpt lat="50.075234" lon="9.673599"><ele>200.5</ele></trkpt>
   <trkpt lat="50.075335" lon="9.673591"><ele>196.5</ele></trkpt>
   <trkpt lat="50.079524" lon="9.673353"><ele>175.25</ele></trkpt>
   <trkpt lat="50.080717" lon="9.673237"><ele>186.75</ele></trkpt>
   <trkpt lat="50.081275" lon="9.67319"><ele>188.75</ele></trkpt>
   <trkpt lat="50.08192" lon="9.673104"><ele>188</ele></trkpt>
   <trkpt lat="50.083484" lon="9.673044"><ele>183.75</ele></trkpt>
   <trkpt lat="50.083824" lon="9.67302"><ele>183.75</ele></trkpt>
   <trkpt lat="50.0881" lon="9.672726"><ele>189.5</ele></trkpt>
   <trkpt lat="50.089803" lon="9.672609"><ele>190.5</ele></trkpt>
   <trkpt lat="50.090237" lon="9.672579"><ele>195</ele></trkpt>
   <trkpt lat="50.090464" lon="9.672564"><ele>194.75</ele></trkpt>
   <trkpt lat="50.092343" lon="9.672421"><ele>194.25</ele></trkpt>
   <trkpt lat="50.094132" lon="9.672184"><ele>193.75</ele></trkpt>
   <trkpt lat="50.095919" lon="9.671875"><ele>193.25</ele></trkpt>
   <trkpt lat="50.098586" lon="9.671263"><ele>192.5</ele></trkpt>
   <trkpt lat="50.101239" lon="9.670461"><ele>191.75</ele></trkpt>
   <trkpt lat="50.102994" lon="9.669857"><ele>191</ele></trkpt>
   <trkpt lat="50.104729" lon="9.669141"><ele>190.5</ele></trkpt>
   <trkpt lat="50.107241" lon="9.667917"><ele>189.75</ele></trkpt>
   <trkpt lat="50.108965" lon="9.667137"><ele>189.25</ele></trkpt>
   <trkpt lat="50.109487" lon="9.666905"><ele>189.25</ele></trkpt>
   <trkpt lat="50.109961" lon="9.666684"><ele>189.25</ele></trkpt>
   <trkpt lat="50.110808" lon="9.666287"><ele>188.25</ele></trkpt>
   <trkpt lat="50.113551" lon="9.664969"><ele>183.5</ele></trkpt>
   <trkpt lat="50.113614" lon="9.664937"><ele>184</ele></trkpt>
   <trkpt lat="50.113656" lon="9.664916"><ele>184.25</ele></trkpt>
   <trkpt lat="50.114274" lon="9.664623"><ele>186.5</ele></trkpt>
   <trkpt lat="50.115779" lon="9.663916"><ele>187.25</ele></trkpt>
   <trkpt lat="50.11587" lon="9.663874"><ele>187.5</ele></trkpt>
   <trkpt lat="50.116392" lon="9.663647"><ele>188.75</ele></trkpt>
   <trkpt lat="50.116906" lon="9.663455"><ele>189.75</ele></trkpt>
   <trkpt lat="50.117012" lon="9.663414"><ele>189.75</ele></trkpt>
   <trkpt lat="50.117298" lon="9.663303"><ele>190.75</ele></trkpt>
   <trkpt lat="50.119769" lon="9.662182"><ele>194</ele></trkpt>
   <trkpt lat="50.120252" lon="9.66198"><ele>193</ele></trkpt>
   <trkpt lat="50.121714" lon="9.661414"><ele>194.75</ele></trkpt>
   <trkpt lat="50.122802" lon="9.661044"><ele>198</ele></trkpt>
   <trkpt lat="50.123552" lon="9.660815"><ele>198.5</ele></trkpt>
   <trkpt lat="50.125564" lon="9.660296"><ele>196.25</ele></trkpt>
   <trkpt lat="50.126481" lon="9.660099"><ele>192</ele></trkpt>
   <trkpt lat="50.127616" lon="9.659901"><ele>191.75</ele></trkpt>
   <trkpt lat="50.128258" lon="9.659806"><ele>190.25</ele></trkpt>
   <trkpt lat="50.129724" lon="9.659638"><ele>188</ele></trkpt>
   <trkpt lat="50.130104" lon="9.659579"><ele>187.25</ele></trkpt>
   <trkpt lat="50.130409" lon="9.659515"><ele>187</ele></trkpt>
   <trkpt lat="50.130507" lon="9.659492"><ele>186.75</ele></trkpt>
   <trkpt lat="50.131052" lon="9.65938"><ele>186.25</ele></trkpt>
   <trkpt lat="50.131569" lon="9.659303"><ele>185.75</ele></trkpt>
   <trkpt lat="50.1318" lon="9.659283"><ele>186</ele></trkpt>
   <trkpt lat="50.131912" lon="9.659268"><ele>186</ele></trkpt>
   <trkpt lat="50.131959" lon="9.659262"><ele>186.25</ele></trkpt>
   <trkpt lat="50.132481" lon="9.659185"><ele>187</ele></trkpt>
   <trkpt lat="50.132769" lon="9.659123"><ele>188</ele></trkpt>
   <trkpt lat="50.133292" lon="9.659046"><ele>190</ele></trkpt>
   <trkpt lat="50.133307" lon="9.659045"><ele>190.25</ele></trkpt>
   <trkpt lat="50.133373" lon="9.659039"><ele>190.5</ele></trkpt>
   <trkpt lat="50.135861" lon="9.658769"><ele>199.25</ele></trkpt>
   <trkpt lat="50.136395" lon="9.658703"><ele>198.75</ele></trkpt>
   <trkpt lat="50.139231" lon="9.658368"><ele>197</ele></trkpt>
   <trkpt lat="50.142904" lon="9.657951"><ele>195</ele></trkpt>
   <trkpt lat="50.144457" lon="9.657749"><ele>195</ele></trkpt>
   <trkpt lat="50.145557" lon="9.657594"><ele>193.5</ele></trkpt>
   <trkpt lat="50.146631" lon="9.657406"><ele>198</ele></trkpt>
   <trkpt lat="50.1477" lon="9.657155"><ele>197.75</ele></trkpt>
   <trkpt lat="50.149019" lon="9.656806"><ele>192.75</ele></trkpt>
   <trkpt lat="50.149997" lon="9.656522"><ele>193</ele></trkpt>
   <trkpt lat="50.151033" lon="9.65619"><ele>196</ele></trkpt>
   <trkpt lat="50.15127" lon="9.656099"><ele>195.75</ele></trkpt>
   <trkpt lat="50.151343" lon="9.65607"><ele>195.5</ele></trkpt>
   <trkpt lat="50.152485" lon="9.65563"><ele>194.5</ele></trkpt>
   <trkpt lat="50.153085" lon="9.655404"><ele>191.25</ele></trkpt>
   <trkpt lat="50.153296" lon="9.655313"><ele>190</ele></trkpt>
   <trkpt lat="50.153856" lon="9.655069"><ele>187.5</ele></trkpt>
   <trkpt lat="50.154229" lon="9.654906"><ele>187</ele></trkpt>
   <trkpt lat="50.155196" lon="9.654437"><ele>189.75</ele></trkpt>
   <trkpt lat="50.156308" lon="9.65387"><ele>190</ele></trkpt>
   <trkpt lat="50.157186" lon="9.653392"><ele>188</ele></trkpt>
   <trkpt lat="50.157522" lon="9.653209"><ele>187.75</ele></trkpt>
   <trkpt lat="50.158268" lon="9.652779"><ele>187.5</ele></trkpt>
   <trkpt lat="50.159585" lon="9.651961"><ele>187</ele></trkpt>
   <trkpt lat="50.160964" lon="9.651031"><ele>186</ele></trkpt>
   <trkpt lat="50.161877" lon="9.650381"><ele>185.5</ele></trkpt>
   <trkpt lat="50.162675" lon="9.649758"><ele>185.75</ele></trkpt>
   <trkpt lat="50.163467" lon="9.649164"><ele>186.25</ele></trkpt>
   <trkpt lat="50.164933" lon="9.64795"><ele>187.75</ele></trkpt>
   <trkpt lat="50.166677" lon="9.646393"><ele>188.5</ele></trkpt>
   <trkpt lat="50.167317" lon="9.645791"><ele>190</ele></trkpt>
   <trkpt lat="50.168239" lon="9.64487"><ele>190</ele></trkpt>
   <trkpt lat="50.16945" lon="9.643632"><ele>191.75</ele></trkpt>
   <trkpt lat="50.171319" lon="9.641703"><ele>192</ele></trkpt>
   <trkpt lat="50.171402" lon="9.641624"><ele>192.25</ele></trkpt>
   <trkpt lat="50.172494" lon="9.640506"><ele>193.5</ele></trkpt>
   <trkpt lat="50.173705" lon="9.639304"><ele>191.25</ele></trkpt>
   <trkpt lat="50.174329" lon="9.638687"><ele>190</ele></trkpt>
   <trkpt lat="50.174713" lon="9.63833"><ele>189.5</ele></trkpt>
   <trkpt lat="50.175328" lon="9.637721"><ele>190.75</ele></trkpt>
   <trkpt lat="50.175425" lon="9.637619"><ele>191</ele></trkpt>
   <trkpt lat="50.178468" lon="9.634498"><ele>191.25</ele></trkpt>
   <trkpt lat="50.179589" lon="9.633385"><ele>196.25</ele></trkpt>
   <trkpt lat="50.180173" lon="9.632819"><ele>198</ele></trkpt>
   <trkpt lat="50.180912" lon="9.632135"><ele>199.5</ele></trkpt>
   <trkpt lat="50.181135" lon="9.63194"><ele>200.75</ele></trkpt>
   <trkpt lat="50.1814" lon="9.631709"><ele>202.25</ele></trkpt>
   <trkpt lat="50.181694" lon="9.631451"><ele>203.5</ele></trkpt>
   <trkpt lat="50.18249" lon="9.630778"><ele>206</ele></trkpt>
   <trkpt lat="50.182916" lon="9.630436"><ele>207.75</ele></trkpt>
   <trkpt lat="50.183421" lon="9.630031"><ele>209</ele></trkpt>
   <trkpt lat="50.183985" lon="9.629578"><ele>214.25</ele></trkpt>
   <trkpt lat="50.185519" lon="9.628482"><ele>218.25</ele></trkpt>
   <trkpt lat="50.187113" lon="9.627438"><ele>223.5</ele></trkpt>
   <trkpt lat="50.188023" lon="9.626887"><ele>223</ele></trkpt>
   <trkpt lat="50.189101" lon="9.626234"><ele>218.25</ele></trkpt>
   <trkpt lat="50.191186" lon="9.625153"><ele>220.25</ele></trkpt>
   <trkpt lat="50.192078" lon="9.624685"><ele>217</ele></trkpt>
   <trkpt lat="50.192926" lon="9.6243"><ele>218.25</ele></trkpt>
   <trkpt lat="50.19446" lon="9.623686"><ele>226.75</ele></trkpt>
   <trkpt lat="50.196738" lon="9.622903"><ele>232</ele></trkpt>
   <trkpt lat="50.198105" lon="9.62253"><ele>226</ele></trkpt>
   <trkpt lat="50.198413" lon="9.62245"><ele>224.75</ele></trkpt>
   <trkpt lat="50.199668" lon="9.622125"><ele>219.5</ele></trkpt>
   <trkpt lat="50.200004" lon="9.622052"><ele>219.5</ele></trkpt>
   <trkpt lat="50.200261" lon="9.621996"><ele>221</ele></trkpt>
   <trkpt lat="50.201476" lon="9.621765"><ele>224</ele></trkpt>
   <trkpt lat="50.202706" lon="9.621553"><ele>224</ele></trkpt>
   <trkpt lat="50.204012" lon="9.621399"><ele>227.5</ele></trkpt>
   <trkpt lat="50.205547" lon="9.621307"><ele>230</ele></trkpt>
   <trkpt lat="50.207447" lon="9.62125"><ele>233.25</ele></trkpt>
   <trkpt lat="50.208805" lon="9.621305"><ele>239.5</ele></trkpt>
   <trkpt lat="50.209896" lon="9.621392"><ele>235.75</ele></trkpt>
   <trkpt lat="50.210166" lon="9.621413"><ele>233.75</ele></trkpt>
   <trkpt lat="50.212133" lon="9.621599"><ele>235.75</ele></trkpt>
   <trkpt lat="50.212679" lon="9.621704"><ele>241.25</ele></trkpt>
   <trkpt lat="50.214305" lon="9.622013"><ele>253.75</ele></trkpt>
   <trkpt lat="50.215089" lon="9.622172"><ele>255</ele></trkpt>
   <trkpt lat="50.216277" lon="9.622478"><ele>256.75</ele></trkpt>
   <trkpt lat="50.218047" lon="9.622981"><ele>259.75</ele></trkpt>
   <trkpt lat="50.219807" lon="9.623605"><ele>262.5</ele></trkpt>
   <trkpt lat="50.220625" lon="9.623903"><ele>263.75</ele></trkpt>
   <trkpt lat="50.221546" lon="9.62429"><ele>265.25</ele></trkpt>
   <trkpt lat="50.222458" lon="9.624697"><ele>267</ele></trkpt>
   <trkpt lat="50.22274" lon="9.624809"><ele>266.75</ele></trkpt>
   <trkpt lat="50.224081" lon="9.625486"><ele>266.5</ele></trkpt>
   <trkpt lat="50.224812" lon="9.625873"><ele>266.25</ele></trkpt>
   <trkpt lat="50.226504" lon="9.626777"><ele>266</ele></trkpt>
   <trkpt lat="50.226855" lon="9.62699"><ele>266</ele></trkpt>
   <trkpt lat="50.228351" lon="9.627869"><ele>270.75</ele></trkpt>
   <trkpt lat="50.229938" lon="9.628895"><ele>273.25</ele></trkpt>
   <trkpt lat="50.231976" lon="9.630399"><ele>263.5</ele></trkpt>
   <trkpt lat="50.232782" lon="9.631034"><ele>264</ele></trkpt>
   <trkpt lat="50.232981" lon="9.631183"><ele>265</ele></trkpt>
   <trkpt lat="50.233275" lon="9.631429"><ele>265.75</ele></trkpt>
   <trkpt lat="50.233543" lon="9.63163"><ele>268.75</ele></trkpt>
   <trkpt lat="50.234522" lon="9.63241"><ele>283</ele></trkpt>
   <trkpt lat="50.234744" lon="9.632569"><ele>284.5</ele></trkpt>
   <trkpt lat="50.235102" lon="9.632835"><ele>287</ele></trkpt>
   <trkpt lat="50.235496" lon="9.63311"><ele>289.75</ele></trkpt>
   <trkpt lat="50.23625" lon="9.633694"><ele>295</ele></trkpt>
   <trkpt lat="50.236563" lon="9.633955"><ele>297.25</ele></trkpt>
   <trkpt lat="50.236814" lon="9.63417"><ele>299.25</ele></trkpt>
   <trkpt lat="50.237486" lon="9.634692"><ele>299.25</ele></trkpt>
   <trkpt lat="50.23769" lon="9.63486"><ele>298.75</ele></trkpt>
   <trkpt lat="50.238866" lon="9.635786"><ele>296.5</ele></trkpt>
   <trkpt lat="50.240464" lon="9.637062"><ele>293.5</ele></trkpt>
   <trkpt lat="50.24127" lon="9.637695"><ele>292</ele></trkpt>
   <trkpt lat="50.247678" lon="9.642768"><ele>280.25</ele></trkpt>
   <trkpt lat="50.250136" lon="9.64451"><ele>275.75</ele></trkpt>
   <trkpt lat="50.250386" lon="9.644674"><ele>275.5</ele></trkpt>
   <trkpt lat="50.251803" lon="9.645605"><ele>273</ele></trkpt>
   <trkpt lat="50.25431" lon="9.647078"><ele>268.5</ele></trkpt>
   <trkpt lat="50.255751" lon="9.647837"><ele>266</ele></trkpt>
   <trkpt lat="50.256956" lon="9.648444"><ele>264</ele></trkpt>
   <trkpt lat="50.257317" lon="9.648612"><ele>263.25</ele></trkpt>
   <trkpt lat="50.257573" lon="9.64873"><ele>262.75</ele></trkpt>
   <trkpt lat="50.258166" lon="9.648995"><ele>261.75</ele></trkpt>
   <trkpt lat="50.259452" lon="9.649535"><ele>259.75</ele></trkpt>
   <trkpt lat="50.260829" lon="9.650068"><ele>257.5</ele></trkpt>
   <trkpt lat="50.263758" lon="9.65111"><ele>252.5</ele></trkpt>
   <trkpt lat="50.2643" lon="9.651303"><ele>252.75</ele></trkpt>
   <trkpt lat="50.264791" lon="9.651475"><ele>255.25</ele></trkpt>
   <trkpt lat="50.2653" lon="9.651676"><ele>257.5</ele></trkpt>
   <trkpt lat="50.265586" lon="9.651807"><ele>258.75</ele></trkpt>
   <trkpt lat="50.266092" lon="9.652006"><ele>259.5</ele></trkpt>
   <trkpt lat="50.266129" lon="9.652019"><ele>259.5</ele></trkpt>
   <trkpt lat="50.266175" lon="9.652037"><ele>259.5</ele></trkpt>
   <trkpt lat="50.266686" lon="9.652196"><ele>258.75</ele></trkpt>
   <trkpt lat="50.266978" lon="9.652271"><ele>258.25</ele></trkpt>
   <trkpt lat="50.267493" lon="9.652433"><ele>258</ele></trkpt>
   <trkpt lat="50.267861" lon="9.652563"><ele>257.25</ele></trkpt>
   <trkpt lat="50.268375" lon="9.652728"><ele>256.5</ele></trkpt>
   <trkpt lat="50.268931" lon="9.652872"><ele>256.75</ele></trkpt>
   <trkpt lat="50.269497" lon="9.653033"><ele>256.75</ele></trkpt>
   <trkpt lat="50.27107" lon="9.653592"><ele>258.5</ele></trkpt>
   <trkpt lat="50.275977" lon="9.655334"><ele>265.25</ele></trkpt>
   <trkpt lat="50.276762" lon="9.655612"><ele>265.25</ele></trkpt>
   <trkpt lat="50.276956" lon="9.655682"><ele>264.5</ele></trkpt>
   <trkpt lat="50.277496" lon="9.655892"><ele>262.5</ele></trkpt>
   <trkpt lat="50.27776" lon="9.656001"><ele>264.75</ele></trkpt>
   <trkpt lat="50.277775" lon="9.656006"><ele>264.75</ele></trkpt>
   <trkpt lat="50.278293" lon="9.656249"><ele>270</ele></trkpt>
   <trkpt lat="50.278802" lon="9.656453"><ele>271.25</ele></trkpt>
   <trkpt lat="50.279007" lon="9.656526"><ele>271.25</ele></trkpt>
   <trkpt lat="50.280484" lon="9.657049"><ele>283.25</ele></trkpt>
   <trkpt lat="50.280522" lon="9.657062"><ele>283.25</ele></trkpt>
   <trkpt lat="50.280562" lon="9.657077"><ele>283.5</ele></trkpt>
   <trkpt lat="50.282658" lon="9.65782"><ele>280.25</ele></trkpt>
   <trkpt lat="50.283952" lon="9.65828"><ele>273</ele></trkpt>
   <trkpt lat="50.284848" lon="9.658597"><ele>273</ele></trkpt>
   <trkpt lat="50.285283" lon="9.658748"><ele>273</ele></trkpt>
   <trkpt lat="50.293655" lon="9.661651"><ele>274</ele></trkpt>
   <trkpt lat="50.294526" lon="9.661945"><ele>274</ele></trkpt>
   <trkpt lat="50.29631" lon="9.662436"><ele>274.25</ele></trkpt>
   <trkpt lat="50.298073" lon="9.662822"><ele>274.5</ele></trkpt>
   <trkpt lat="50.298965" lon="9.662998"><ele>274.5</ele></trkpt>
   <trkpt lat="50.299862" lon="9.663138"><ele>274.75</ele></trkpt>
   <trkpt lat="50.301179" lon="9.663297"><ele>274.75</ele></trkpt>
   <trkpt lat="50.303501" lon="9.663479"><ele>275.25</ele></trkpt>
   <trkpt lat="50.303652" lon="9.66348"><ele>275.25</ele></trkpt>
   <trkpt lat="50.304467" lon="9.663482"><ele>272.75</ele></trkpt>
   <trkpt lat="50.305287" lon="9.663462"><ele>275.25</ele></trkpt>
   <trkpt lat="50.30619" lon="9.663416"><ele>278.25</ele></trkpt>
   <trkpt lat="50.307095" lon="9.663343"><ele>281.25</ele></trkpt>
   <trkpt lat="50.308893" lon="9.663122"><ele>287</ele></trkpt>
   <trkpt lat="50.309395" lon="9.663046"><ele>288.75</ele></trkpt>
   <trkpt lat="50.309691" lon="9.662983"><ele>289</ele></trkpt>
   <trkpt lat="50.309765" lon="9.662975"><ele>289</ele></trkpt>
   <trkpt lat="50.324045" lon="9.660623"><ele>303.5</ele></trkpt>
   <trkpt lat="50.328505" lon="9.659863"><ele>308</ele></trkpt>
   <trkpt lat="50.331179" lon="9.659408"><ele>310.75</ele></trkpt>
   <trkpt lat="50.334782" lon="9.658838"><ele>314.5</ele></trkpt>
   <trkpt lat="50.34118" lon="9.657788"><ele>321</ele></trkpt>
   <trkpt lat="50.344448" lon="9.657251"><ele>324.25</ele></trkpt>
   <trkpt lat="50.345142" lon="9.657174"><ele>325</ele></trkpt>
   <trkpt lat="50.345495" lon="9.657118"><ele>325.5</ele></trkpt>
   <trkpt lat="50.349752" lon="9.656422"><ele>329.75</ele></trkpt>
   <trkpt lat="50.350852" lon="9.656242"><ele>330.75</ele></trkpt>
   <trkpt lat="50.360093" lon="9.654721"><ele>340.25</ele></trkpt>
   <trkpt lat="50.373198" lon="9.652552"><ele>353.75</ele></trkpt>
   <trkpt lat="50.375891" lon="9.652105"><ele>356.5</ele></trkpt>
   <trkpt lat="50.377674" lon="9.651809"><ele>358.25</ele></trkpt>
   <trkpt lat="50.378571" lon="9.651673"><ele>359</ele></trkpt>
   <trkpt lat="50.379471" lon="9.65155"><ele>360</ele></trkpt>
   <trkpt lat="50.380368" lon="9.651465"><ele>361</ele></trkpt>
   <trkpt lat="50.383053" lon="9.651281"><ele>363.75</ele></trkpt>
   <trkpt lat="50.383379" lon="9.651271"><ele>364</ele></trkpt>
   <trkpt lat="50.384843" lon="9.651228"><ele>365.5</ele></trkpt>
   <trkpt lat="50.394912" lon="9.651034"><ele>375.75</ele></trkpt>
   <trkpt lat="50.398366" lon="9.650963"><ele>379.25</ele></trkpt>
   <trkpt lat="50.39914" lon="9.650886"><ele>380</ele></trkpt>
   <trkpt lat="50.399429" lon="9.65088"><ele>380.25</ele></trkpt>
   <trkpt lat="50.401091" lon="9.650825"><ele>382</ele></trkpt>
   <trkpt lat="50.403643" lon="9.6508"><ele>384.5</ele></trkpt>
   <trkpt lat="50.406203" lon="9.650861"><ele>387.25</ele></trkpt>
   <trkpt lat="50.407432" lon="9.650958"><ele>387.25</ele></trkpt>
   <trkpt lat="50.407786" lon="9.65098"><ele>387.5</ele></trkpt>
   <trkpt lat="50.408176" lon="9.650998"><ele>388</ele></trkpt>
   <trkpt lat="50.408565" lon="9.651034"><ele>388.25</ele></trkpt>
   <trkpt lat="50.409342" lon="9.651124"><ele>389.25</ele></trkpt>
   <trkpt lat="50.410118" lon="9.651241"><ele>390</ele></trkpt>
   <trkpt lat="50.410506" lon="9.65131"><ele>390.5</ele></trkpt>
   <trkpt lat="50.410983" lon="9.65141"><ele>391</ele></trkpt>
   <trkpt lat="50.411278" lon="9.651466"><ele>391.5</ele></trkpt>
   <trkpt lat="50.412581" lon="9.651727"><ele>390</ele></trkpt>
   <trkpt lat="50.413584" lon="9.651927"><ele>389.25</ele></trkpt>
   <trkpt lat="50.415133" lon="9.652331"><ele>387.5</ele></trkpt>
   <trkpt lat="50.416749" lon="9.652818"><ele>386</ele></trkpt>
   <trkpt lat="50.417129" lon="9.652932"><ele>385.75</ele></trkpt>
   <trkpt lat="50.417997" lon="9.653283"><ele>384.75</ele></trkpt>
   <trkpt lat="50.419411" lon="9.653793"><ele>383.5</ele></trkpt>
   <trkpt lat="50.419502" lon="9.653828"><ele>383.5</ele></trkpt>
   <trkpt lat="50.419972" lon="9.654007"><ele>379</ele></trkpt>
   <trkpt lat="50.422578" lon="9.654953"><ele>372</ele></trkpt>
   <trkpt lat="50.423109" lon="9.65516"><ele>372</ele></trkpt>
   <trkpt lat="50.423599" lon="9.655328"><ele>372.75</ele></trkpt>
   <trkpt lat="50.424803" lon="9.655768"><ele>370.5</ele></trkpt>
   <trkpt lat="50.428042" lon="9.656881"><ele>364.75</ele></trkpt>
   <trkpt lat="50.429907" lon="9.657364"><ele>361.5</ele></trkpt>
   <trkpt lat="50.432201" lon="9.65781"><ele>357.5</ele></trkpt>
   <trkpt lat="50.435893" lon="9.658358"><ele>351</ele></trkpt>
   <trkpt lat="50.436308" lon="9.65842"><ele>350.25</ele></trkpt>
   <trkpt lat="50.437313" lon="9.658481"><ele>350.5</ele></trkpt>
   <trkpt lat="50.437497" lon="9.658493"><ele>348.25</ele></trkpt>
   <trkpt lat="50.438221" lon="9.65851"><ele>347.25</ele></trkpt>
   <trkpt lat="50.439312" lon="9.65849"><ele>351.75</ele></trkpt>
   <trkpt lat="50.440232" lon="9.65847"><ele>359</ele></trkpt>
   <trkpt lat="50.441009" lon="9.658424"><ele>358.25</ele></trkpt>
   <trkpt lat="50.441415" lon="9.658394"><ele>355.5</ele></trkpt>
   <trkpt lat="50.442284" lon="9.6583"><ele>355</ele></trkpt>
   <trkpt lat="50.442399" lon="9.658288"><ele>355</ele></trkpt>
   <trkpt lat="50.443153" lon="9.658206"><ele>354.5</ele></trkpt>
   <trkpt lat="50.448252" lon="9.657594"><ele>352.25</ele></trkpt>
   <trkpt lat="50.449077" lon="9.657495"><ele>352</ele></trkpt>
   <trkpt lat="50.449956" lon="9.657378"><ele>352</ele></trkpt>
   <trkpt lat="50.45049" lon="9.657307"><ele>349.25</ele></trkpt>
   <trkpt lat="50.451993" lon="9.657205"><ele>341</ele></trkpt>
   <trkpt lat="50.452483" lon="9.657136"><ele>338.25</ele></trkpt>
   <trkpt lat="50.453268" lon="9.657066"><ele>333.25</ele></trkpt>
   <trkpt lat="50.454449" lon="9.656973"><ele>329</ele></trkpt>
   <trkpt lat="50.454551" lon="9.656962"><ele>328.5</ele></trkpt>
   <trkpt lat="50.455481" lon="9.656853"><ele>322.5</ele></trkpt>
   <trkpt lat="50.457705" lon="9.656567"><ele>319</ele></trkpt>
   <trkpt lat="50.459399" lon="9.656378"><ele>318</ele></trkpt>
   <trkpt lat="50.460428" lon="9.656313"><ele>318.5</ele></trkpt>
   <trkpt lat="50.46187" lon="9.656262"><ele>314.5</ele></trkpt>
   <trkpt lat="50.462077" lon="9.656254"><ele>313.5</ele></trkpt>
   <trkpt lat="50.462692" lon="9.656233"><ele>311</ele></trkpt>
   <trkpt lat="50.463091" lon="9.656219"><ele>310.75</ele></trkpt>
   <trkpt lat="50.464094" lon="9.656229"><ele>310.25</ele></trkpt>
   <trkpt lat="50.465162" lon="9.656268"><ele>305</ele></trkpt>
   <trkpt lat="50.467865" lon="9.656438"><ele>292.75</ele></trkpt>
   <trkpt lat="50.468058" lon="9.65645"><ele>292.25</ele></trkpt>
   <trkpt lat="50.469126" lon="9.656521"><ele>290.75</ele></trkpt>
   <trkpt lat="50.473846" lon="9.656836"><ele>283.5</ele></trkpt>
   <trkpt lat="50.474822" lon="9.656901"><ele>283.75</ele></trkpt>
   <trkpt lat="50.474977" lon="9.656909"><ele>284</ele></trkpt>
   <trkpt lat="50.47818" lon="9.657123"><ele>291.75</ele></trkpt>
   <trkpt lat="50.479232" lon="9.657204"><ele>294.25</ele></trkpt>
   <trkpt lat="50.480466" lon="9.65733"><ele>297.25</ele></trkpt>
   <trkpt lat="50.481678" lon="9.657491"><ele>300.25</ele></trkpt>
   <trkpt lat="50.483029" lon="9.657718"><ele>303.75</ele></trkpt>
   <trkpt lat="50.484008" lon="9.657906"><ele>303.75</ele></trkpt>
   <trkpt lat="50.485313" lon="9.65822"><ele>307.5</ele></trkpt>
   <trkpt lat="50.48665" lon="9.658591"><ele>307</ele></trkpt>
   <trkpt lat="50.487696" lon="9.658945"><ele>309</ele></trkpt>
   <trkpt lat="50.488178" lon="9.659095"><ele>309.25</ele></trkpt>
   <trkpt lat="50.489249" lon="9.659505"><ele>310.25</ele></trkpt>
   <trkpt lat="50.489843" lon="9.659732"><ele>308.5</ele></trkpt>
   <trkpt lat="50.491672" lon="9.660526"><ele>303.75</ele></trkpt>
   <trkpt lat="50.49312" lon="9.661223"><ele>300</ele></trkpt>
   <trkpt lat="50.493764" lon="9.661532"><ele>298.5</ele></trkpt>
   <trkpt lat="50.49584" lon="9.662782"><ele>293</ele></trkpt>
   <trkpt lat="50.496061" lon="9.66291"><ele>293</ele></trkpt>
   <trkpt lat="50.496783" lon="9.663363"><ele>292.75</ele></trkpt>
   <trkpt lat="50.497497" lon="9.663829"><ele>297.75</ele></trkpt>
   <trkpt lat="50.498505" lon="9.664522"><ele>299.25</ele></trkpt>
   <trkpt lat="50.499493" lon="9.665234"><ele>291.75</ele></trkpt>
   <trkpt lat="50.500251" lon="9.665794"><ele>290</ele></trkpt>
   <trkpt lat="50.500889" lon="9.666269"><ele>282.5</ele></trkpt>
   <trkpt lat="50.503028" lon="9.667864"><ele>269.5</ele></trkpt>
   <trkpt lat="50.503288" lon="9.668057"><ele>267</ele></trkpt>
   <trkpt lat="50.504067" lon="9.668639"><ele>267</ele></trkpt>
   <trkpt lat="50.504962" lon="9.669308"><ele>265.25</ele></trkpt>
   <trkpt lat="50.505877" lon="9.669992"><ele>263.75</ele></trkpt>
   <trkpt lat="50.50637" lon="9.67036"><ele>263</ele></trkpt>
   <trkpt lat="50.507354" lon="9.671093"><ele>263</ele></trkpt>
   <trkpt lat="50.50916" lon="9.67244"><ele>263</ele></trkpt>
   <trkpt lat="50.510586" lon="9.673505"><ele>264</ele></trkpt>
   <trkpt lat="50.511241" lon="9.673992"><ele>262.75</ele></trkpt>
   <trkpt lat="50.511471" lon="9.674163"><ele>262.25</ele></trkpt>
   <trkpt lat="50.5118" lon="9.67441"><ele>262.25</ele></trkpt>
   <trkpt lat="50.514609" lon="9.676516"><ele>262.5</ele></trkpt>
   <trkpt lat="50.515743" lon="9.67736"><ele>262.5</ele></trkpt>
   <trkpt lat="50.516075" lon="9.677614"><ele>262.5</ele></trkpt>
   <trkpt lat="50.516259" lon="9.677743"><ele>262.5</ele></trkpt>
   <trkpt lat="50.517053" lon="9.678336"><ele>262.5</ele></trkpt>
   <trkpt lat="50.517922" lon="9.678973"><ele>264.5</ele></trkpt>
   <trkpt lat="50.518407" lon="9.679343"><ele>265.75</ele></trkpt>
   <trkpt lat="50.51913" lon="9.67989"><ele>266.25</ele></trkpt>
   <trkpt lat="50.519515" lon="9.680177"><ele>265.5</ele></trkpt>
   <trkpt lat="50.520458" lon="9.680875"><ele>266.5</ele></trkpt>
   <trkpt lat="50.520479" lon="9.680893"><ele>266.75</ele></trkpt>
   <trkpt lat="50.521012" lon="9.681277"><ele>268</ele></trkpt>
   <trkpt lat="50.521867" lon="9.681855"><ele>270</ele></trkpt>
   <trkpt lat="50.522289" lon="9.682164"><ele>271</ele></trkpt>
   <trkpt lat="50.523415" lon="9.68299"><ele>268.75</ele></trkpt>
   <trkpt lat="50.524321" lon="9.683552"><ele>270.5</ele></trkpt>
   <trkpt lat="50.525672" lon="9.684567"><ele>270.75</ele></trkpt>
   <trkpt lat="50.526406" lon="9.685118"><ele>270.5</ele></trkpt>
   <trkpt lat="50.526473" lon="9.685164"><ele>270.5</ele></trkpt>
   <trkpt lat="50.527027" lon="9.685585"><ele>270.75</ele></trkpt>
   <trkpt lat="50.527557" lon="9.68597"><ele>270.25</ele></trkpt>
   <trkpt lat="50.52785" lon="9.68619"><ele>271.25</ele></trkpt>
   <trkpt lat="50.528804" lon="9.686894"><ele>272.25</ele></trkpt>
   <trkpt lat="50.529423" lon="9.687363"><ele>272</ele></trkpt>
   <trkpt lat="50.529752" lon="9.687607"><ele>272.5</ele></trkpt>
   <trkpt lat="50.530584" lon="9.688196"><ele>272.75</ele></trkpt>
   <trkpt lat="50.531086" lon="9.688498"><ele>272.25</ele></trkpt>
   <trkpt lat="50.531524" lon="9.688725"><ele>271.25</ele></trkpt>
   <trkpt lat="50.531954" lon="9.688909"><ele>270.75</ele></trkpt>
   <trkpt lat="50.532348" lon="9.689044"><ele>270.75</ele></trkpt>
  </trkseg>
 </trk>
</gpx>