<?xml version="1.0" encoding="UTF-8"?>
<!-- track-length = 69807 filtered ascend = 78 plain-ascend = 15 cost=69807 energy=0.9kwh time=1h 33m 4s -->
<gpx 
 xmlns="http://www.topografix.com/GPX/1/1" 
 xmlns:xsi="http://www.w3.org/2001/XMLSchema-instance" 
 xsi:schemaLocation="http://www.topografix.com/GPX/1/1 http://www.topografix.com/GPX/1/1/gpx.xsd" 
 version="1.1" 
 creator="BRouter-Web 0.18.1">
 <trk>
  <name>Ystad - Malmö</name>
  <trkseg>
   <trkpt lat="55.427625" lon="13.827905"><ele>2.5</ele></trkpt>
   <trkpt lat="55.427617" lon="13.827792"><ele>2.5</ele></trkpt>
   <trkpt lat="55.427516" lon="13.826648"><ele>2</ele></trkpt>
   <trkpt lat="55.427495" lon="13.82645"><ele>1.75</ele></trkpt>
   <trkpt lat="55.427461" lon="13.826065"><ele>1.75</ele></trkpt>
   <trkpt lat="55.427364" lon="13.825164"><ele>1.5</ele></trkpt>
   <trkpt lat="55.427334" lon="13.824797"><ele>1.75</ele></trkpt>
   <trkpt lat="55.42732" lon="13.82435"><ele>2.25</ele></trkpt>
   <trkpt lat="55.42732" lon="13.824107"><ele>2.5</ele></trkpt>
   <trkpt lat="55.427324" lon="13.823978"><ele>2.5</ele></trkpt>
   <trkpt lat="55.42733" lon="13.823826"><ele>2.5</ele></trkpt>
   <trkpt lat="55.427361" lon="13.82348"><ele>2.75</ele></trkpt>
   <trkpt lat="55.427422" lon="13.82297"><ele>3.25</ele></trkpt>
   <trkpt lat="55.427455" lon="13.822685"><ele>3.5</ele></trkpt>
   <trkpt lat="55.427474" lon="13.822451"><ele>3.75</ele></trkpt>
   <trkpt lat="55.427492" lon="13.822078"><ele>3.75</ele></trkpt>
   <trkpt lat="55.427496" lon="13.82176"><ele>3.75</ele></trkpt>
   <trkpt lat="55.427487" lon="13.821437"><ele>3.5</ele></trkpt>
   <trkpt lat="55.42733" lon="13.817823"><ele>3</ele></trkpt>
   <trkpt lat="55.427308" lon="13.817318"><ele>3.25</ele></trkpt>
   <trkpt lat="55.427293" lon="13.816966"><ele>3.25</ele></trkpt>
   <trkpt lat="55.427266" lon="13.816308"><ele>3</ele></trkpt>
   <trkpt lat="55.427203" lon="13.814975"><ele>2</ele></trkpt>
   <trkpt lat="55.427155" lon="13.814461"><ele>2.5</ele></trkpt>
   <trkpt lat="55.427106" lon="13.814113"><ele>2.5</ele></trkpt>
   <trkpt lat="55.427071" lon="13.813912"><ele>2.5</ele></trkpt>
   <trkpt lat="55.426854" lon="13.812881"><ele>2.75</ele></trkpt>
   <trkpt lat="55.426716" lon="13.812179"><ele>3.5</ele></trkpt>
   <trkpt lat="55.42667" lon="13.811877"><ele>3.75</ele></trkpt>
   <trkpt lat="55.426624" lon="13.811521"><ele>4</ele></trkpt>
   <trkpt lat="55.426585" lon="13.811177"><ele>4.5</ele></trkpt>
   <trkpt lat="55.426553" lon="13.810817"><ele>5</ele></trkpt>
   <trkpt lat="55.426533" lon="13.810513"><ele>5.5</ele></trkpt>
   <trkpt lat="55.426509" lon="13.809949"><ele>6.5</ele></trkpt>
   <trkpt lat="55.426487" lon="13.809216"><ele>6.25</ele></trkpt>
   <trkpt lat="55.426356" lon="13.804513"><ele>7.75</ele></trkpt>
   <trkpt lat="55.426333" lon="13.803658"><ele>8</ele></trkpt>
   <trkpt lat="55.426279" lon="13.801686"><ele>9.5</ele></trkpt>
   <trkpt lat="55.426212" lon="13.799288"><ele>7.5</ele></trkpt>
   <trkpt lat="55.426193" lon="13.797847"><ele>6.5</ele></trkpt>
   <trkpt lat="55.426199" lon="13.796221"><ele>6.25</ele></trkpt>
   <trkpt lat="55.426218" lon="13.795374"><ele>6.25</ele></trkpt>
   <trkpt lat="55.426286" lon="13.79343"><ele>8.25</ele></trkpt>
   <trkpt lat="55.426553" lon="13.786424"><ele>4.5</ele></trkpt>
   <trkpt lat="55.426702" lon="13.782488"><ele>2</ele></trkpt>
   <trkpt lat="55.426763" lon="13.780867"><ele>3</ele></trkpt>
   <trkpt lat="55.426891" lon="13.777499"><ele>2.5</ele></trkpt>
   <trkpt lat="55.427489" lon="13.761825"><ele>5</ele></trkpt>
   <trkpt lat="55.427697" lon="13.756299"><ele>7.5</ele></trkpt>
   <trkpt lat="55.427733" lon="13.754932"><ele>7</ele></trkpt>
   <trkpt lat="55.427742" lon="13.753775"><ele>7.5</ele></trkpt>
   <trkpt lat="55.42773" lon="13.752736"><ele>7.5</ele></trkpt>
   <trkpt lat="55.427693" lon="13.751434"><ele>7.5</ele></trkpt>
   <trkpt lat="55.427648" lon="13.750201"><ele>7.5</ele></trkpt>
   <trkpt lat="55.4275" lon="13.746181"><ele>11</ele></trkpt>
   <trkpt lat="55.427362" lon="13.742419"><ele>13</ele></trkpt>
   <trkpt lat="55.427301" lon="13.740752"><ele>12</ele></trkpt>
   <trkpt lat="55.42725" lon="13.739426"><ele>10.75</ele></trkpt>
   <trkpt lat="55.42718" lon="13.737525"><ele>9.5</ele></trkpt>
   <trkpt lat="55.427135" lon="13.73633"><ele>9.5</ele></trkpt>
   <trkpt lat="55.427091" lon="13.73509"><ele>9.5</ele></trkpt>
   <trkpt lat="55.427019" lon="13.733179"><ele>10</ele></trkpt>
   <trkpt lat="55.427" lon="13.732626"><ele>9.25</ele></trkpt>
   <trkpt lat="55.426987" lon="13.732173"><ele>9</ele></trkpt>
   <trkpt lat="55.426982" lon="13.731442"><ele>8.75</ele></trkpt>
   <trkpt lat="55.427007" lon="13.730452"><ele>7.75</ele></trkpt>
   <trkpt lat="55.42702" lon="13.730193"><ele>7.75</ele></trkpt>
   <trkpt lat="55.427052" lon="13.729724"><ele>7.5</ele></trkpt>
   <trkpt lat="55.427119" lon="13.728997"><ele>7</ele></trkpt>
   <trkpt lat="55.427226" lon="13.728152"><ele>7</ele></trkpt>
   <trkpt lat="55.427384" lon="13.727106"><ele>7.5</ele></trkpt>
   <trkpt lat="55.427603" lon="13.725762"><ele>7.25</ele></trkpt>
   <trkpt lat="55.428089" lon="13.722718"><ele>7.25</ele></trkpt>
   <trkpt lat="55.428157" lon="13.722291"><ele>7.25</ele></trkpt>
   <trkpt lat="55.428384" lon="13.720824"><ele>9.25</ele></trkpt>
   <trkpt lat="55.428466" lon="13.720172"><ele>10.25</ele></trkpt>
   <trkpt lat="55.428511" lon="13.719629"><ele>10.25</ele></trkpt>
   <trkpt lat="55.428537" lon="13.71912"><ele>9.75</ele></trkpt>
   <trkpt lat="55.42855" lon="13.718613"><ele>10</ele></trkpt>
   <trkpt lat="55.428549" lon="13.718258"><ele>10</ele></trkpt>
   <trkpt lat="55.42854" lon="13.717617"><ele>10.75</ele></trkpt>
   <trkpt lat="55.428529" lon="13.716732"><ele>11.75</ele></trkpt>
   <trkpt lat="55.428505" lon="13.715149"><ele>13.5</ele></trkpt>
   <trkpt lat="55.428502" lon="13.714959"><ele>13.75</ele></trkpt>
   <trkpt lat="55.428503" lon="13.714186"><ele>12.75</ele></trkpt>
   <trkpt lat="55.428512" lon="13.713805"><ele>12.75</ele></trkpt>
   <trkpt lat="55.428529" lon="13.713454"><ele>12.75</ele></trkpt>
   <trkpt lat="55.428553" lon="13.713113"><ele>13.25</ele></trkpt>
   <trkpt lat="55.428581" lon="13.712815"><ele>13.75</ele></trkpt>
   <trkpt lat="55.428615" lon="13.712537"><ele>14.25</ele></trkpt>
   <trkpt lat="55.428694" lon="13.711994"><ele>14.75</ele></trkpt>
   <trkpt lat="55.428739" lon="13.711736"><ele>15.25</ele></trkpt>
   <trkpt lat="55.428864" lon="13.711154"><ele>16.5</ele></trkpt>
   <trkpt lat="55.429023" lon="13.710554"><ele>17.75</ele></trkpt>
   <trkpt lat="55.429123" lon="13.710238"><ele>18.5</ele></trkpt>
   <trkpt lat="55.429348" lon="13.709618"><ele>19.75</ele></trkpt>
   <trkpt lat="55.42948" lon="13.709299"><ele>20</ele></trkpt>
   <trkpt lat="55.429631" lon="13.708977"><ele>20.5</ele></trkpt>
   <trkpt lat="55.429838" lon="13.708573"><ele>20.75</ele></trkpt>
   <trkpt lat="55.429976" lon="13.708328"><ele>20.75</ele></trkpt>
   <trkpt lat="55.430145" lon="13.708061"><ele>21</ele></trkpt>
   <trkpt lat="55.430316" lon="13.707809"><ele>21</ele></trkpt>
   <trkpt lat="55.430485" lon="13.70758"><ele>20.75</ele></trkpt>
   <trkpt lat="55.430747" lon="13.707269"><ele>20.25</ele></trkpt>
   <trkpt lat="55.430905" lon="13.707104"><ele>20</ele></trkpt>
   <trkpt lat="55.431097" lon="13.70692"><ele>19.5</ele></trkpt>
   <trkpt lat="55.431448" lon="13.706638"><ele>19.5</ele></trkpt>
   <trkpt lat="55.431775" lon="13.706418"><ele>19.75</ele></trkpt>
   <trkpt lat="55.431923" lon="13.706333"><ele>19.75</ele></trkpt>
   <trkpt lat="55.432157" lon="13.706221"><ele>20</ele></trkpt>
   <trkpt lat="55.43252" lon="13.706092"><ele>20.25</ele></trkpt>
   <trkpt lat="55.432706" lon="13.706044"><ele>20.25</ele></trkpt>
   <trkpt lat="55.433066" lon="13.705986"><ele>20.75</ele></trkpt>
   <trkpt lat="55.433284" lon="13.70598"><ele>21</ele></trkpt>
   <trkpt lat="55.433542" lon="13.705991"><ele>21</ele></trkpt>
   <trkpt lat="55.433857" lon="13.706045"><ele>21.25</ele></trkpt>
   <trkpt lat="55.434131" lon="13.706125"><ele>21.25</ele></trkpt>
   <trkpt lat="55.434328" lon="13.706194"><ele>21.25</ele></trkpt>
   <trkpt lat="55.434433" lon="13.706236"><ele>21.25</ele></trkpt>
   <trkpt lat="55.434547" lon="13.70628"><ele>21.25</ele></trkpt>
   <trkpt lat="55.437471" lon="13.707566"><ele>19.25</ele></trkpt>
   <trkpt lat="55.442395" lon="13.70974"><ele>22.75</ele></trkpt>
   <trkpt lat="55.443145" lon="13.710062"><ele>24.5</ele></trkpt>
   <trkpt lat="55.443429" lon="13.710173"><ele>25</ele></trkpt>
   <trkpt lat="55.443806" lon="13.71029"><ele>25.75</ele></trkpt>
   <trkpt lat="55.444171" lon="13.710365"><ele>26.5</ele></trkpt>
   <trkpt lat="55.444589" lon="13.710403"><ele>26.5</ele></trkpt>
   <trkpt lat="55.445048" lon="13.710397"><ele>26.5</ele></trkpt>
   <trkpt lat="55.445243" lon="13.710377"><ele>26.5</ele></trkpt>
   <trkpt lat="55.445542" lon="13.710324"><ele>26.75</ele></trkpt>
   <trkpt lat="55.445925" lon="13.710223"><ele>26.75</ele></trkpt>
   <trkpt lat="55.446379" lon="13.710048"><ele>27</ele></trkpt>
   <trkpt lat="55.446511" lon="13.709987"><ele>27</ele></trkpt>
   <trkpt lat="55.446917" lon="13.709768"><ele>28.25</ele></trkpt>
   <trkpt lat="55.447423" lon="13.709416"><ele>30.25</ele></trkpt>
   <trkpt lat="55.447557" lon="13.70931"><ele>30.75</ele></trkpt>
   <trkpt lat="55.447847" lon="13.709054"><ele>30.5</ele></trkpt>
   <trkpt lat="55.447994" lon="13.708909"><ele>30.5</ele></trkpt>
   <trkpt lat="55.448414" lon="13.708463"><ele>29.75</ele></trkpt>
   <trkpt lat="55.448653" lon="13.708192"><ele>29.75</ele></trkpt>
   <trkpt lat="55.451321" lon="13.705125"><ele>31.25</ele></trkpt>
   <trkpt lat="55.452922" lon="13.703283"><ele>36.5</ele></trkpt>
   <trkpt lat="55.453104" lon="13.703083"><ele>36.5</ele></trkpt>
   <trkpt lat="55.453403" lon="13.702779"><ele>37</ele></trkpt>
   <trkpt lat="55.453613" lon="13.702587"><ele>38</ele></trkpt>
   <trkpt lat="55.453811" lon="13.702428"><ele>39.25</ele></trkpt>
   <trkpt lat="55.453997" lon="13.702292"><ele>40.5</ele></trkpt>
   <trkpt lat="55.454301" lon="13.702101"><ele>41.75</ele></trkpt>
   <trkpt lat="55.454604" lon="13.701946"><ele>41.75</ele></trkpt>
   <trkpt lat="55.454768" lon="13.701877"><ele>41.75</ele></trkpt>
   <trkpt lat="55.455145" lon="13.701755"><ele>41.5</ele></trkpt>
   <trkpt lat="55.45529" lon="13.701723"><ele>41.5</ele></trkpt>
   <trkpt lat="55.455616" lon="13.701672"><ele>41.25</ele></trkpt>
   <trkpt lat="55.455888" lon="13.701641"><ele>41.25</ele></trkpt>
   <trkpt lat="55.45792" lon="13.701483"><ele>45.25</ele></trkpt>
   <trkpt lat="55.458249" lon="13.70144"><ele>44.75</ele></trkpt>
   <trkpt lat="55.458481" lon="13.701395"><ele>44.75</ele></trkpt>
   <trkpt lat="55.458822" lon="13.701301"><ele>45</ele></trkpt>
   <trkpt lat="55.459087" lon="13.701188"><ele>45</ele></trkpt>
   <trkpt lat="55.459311" lon="13.701078"><ele>45.75</ele></trkpt>
   <trkpt lat="55.459556" lon="13.70093"><ele>46.75</ele></trkpt>
   <trkpt lat="55.459754" lon="13.700797"><ele>47.25</ele></trkpt>
   <trkpt lat="55.460251" lon="13.700392"><ele>48.25</ele></trkpt>
   <trkpt lat="55.460374" lon="13.700274"><ele>48.5</ele></trkpt>
   <trkpt lat="55.460556" lon="13.700078"><ele>48.5</ele></trkpt>
   <trkpt lat="55.46092" lon="13.699646"><ele>49</ele></trkpt>
   <trkpt lat="55.461071" lon="13.69944"><ele>49</ele></trkpt>
   <trkpt lat="55.461571" lon="13.698701"><ele>48.5</ele></trkpt>
   <trkpt lat="55.462782" lon="13.696845"><ele>42.5</ele></trkpt>
   <trkpt lat="55.463112" lon="13.696318"><ele>41.75</ele></trkpt>
   <trkpt lat="55.463301" lon="13.696006"><ele>41.5</ele></trkpt>
   <trkpt lat="55.46348" lon="13.695689"><ele>40.5</ele></trkpt>
   <trkpt lat="55.463875" lon="13.694939"><ele>40.5</ele></trkpt>
   <trkpt lat="55.464196" lon="13.694266"><ele>41</ele></trkpt>
   <trkpt lat="55.464588" lon="13.693338"><ele>42.5</ele></trkpt>
   <trkpt lat="55.464808" lon="13.692766"><ele>41.25</ele></trkpt>
   <trkpt lat="55.465057" lon="13.692056"><ele>40.25</ele></trkpt>
   <trkpt lat="55.465129" lon="13.691832"><ele>40</ele></trkpt>
   <trkpt lat="55.465271" lon="13.691383"><ele>40.25</ele></trkpt>
   <trkpt lat="55.465392" lon="13.690974"><ele>40.5</ele></trkpt>
   <trkpt lat="55.465803" lon="13.689525"><ele>42.25</ele></trkpt>
   <trkpt lat="55.466103" lon="13.688409"><ele>42.5</ele></trkpt>
   <trkpt lat="55.466298" lon="13.687583"><ele>42.25</ele></trkpt>
   <trkpt lat="55.466435" lon="13.686933"><ele>42.25</ele></trkpt>
   <trkpt lat="55.466594" lon="13.686088"><ele>42</ele></trkpt>
   <trkpt lat="55.466675" lon="13.685609"><ele>42</ele></trkpt>
   <trkpt lat="55.466931" lon="13.683928"><ele>45.5</ele></trkpt>
   <trkpt lat="55.467147" lon="13.682495"><ele>47</ele></trkpt>
   <trkpt lat="55.467152" lon="13.682452"><ele>47</ele></trkpt>
   <trkpt lat="55.467781" lon="13.678271"><ele>47.75</ele></trkpt>
   <trkpt lat="55.467985" lon="13.677155"><ele>47.25</ele></trkpt>
   <trkpt lat="55.46822" lon="13.675628"><ele>47.25</ele></trkpt>
   <trkpt lat="55.468399" lon="13.674436"><ele>47</ele></trkpt>
   <trkpt lat="55.46859" lon="13.673163"><ele>47.25</ele></trkpt>
   <trkpt lat="55.469581" lon="13.666573"><ele>46.25</ele></trkpt>
   <trkpt lat="55.469763" lon="13.665359"><ele>46.5</ele></trkpt>
   <trkpt lat="55.469806" lon="13.665039"><ele>46.75</ele></trkpt>
   <trkpt lat="55.469943" lon="13.663879"><ele>48.25</ele></trkpt>
   <trkpt lat="55.470005" lon="13.663461"><ele>48.75</ele></trkpt>
   <trkpt lat="55.470564" lon="13.659779"><ele>48.75</ele></trkpt>
   <trkpt lat="55.470574" lon="13.659713"><ele>48.75</ele></trkpt>
   <trkpt lat="55.470648" lon="13.659192"><ele>48</ele></trkpt>
   <trkpt lat="55.471048" lon="13.65652"><ele>46.25</ele></trkpt>
   <trkpt lat="55.471662" lon="13.652437"><ele>48.75</ele></trkpt>
   <trkpt lat="55.471813" lon="13.651401"><ele>48</ele></trkpt>
   <trkpt lat="55.471884" lon="13.65087"><ele>47</ele></trkpt>
   <trkpt lat="55.471935" lon="13.650471"><ele>46.5</ele></trkpt>
   <trkpt lat="55.471984" lon="13.650018"><ele>46.25</ele></trkpt>
   <trkpt lat="55.472079" lon="13.648962"><ele>46.5</ele></trkpt>
   <trkpt lat="55.472104" lon="13.648619"><ele>46.75</ele></trkpt>
   <trkpt lat="55.472164" lon="13.64749"><ele>47</ele></trkpt>
   <trkpt lat="55.472185" lon="13.646891"><ele>47</ele></trkpt>
   <trkpt lat="55.472194" lon="13.646399"><ele>46.75</ele></trkpt>
   <trkpt lat="55.472196" lon="13.645579"><ele>46.5</ele></trkpt>
   <trkpt lat="55.472179" lon="13.644638"><ele>46</ele></trkpt>
   <trkpt lat="55.472151" lon="13.643941"><ele>46</ele></trkpt>
   <trkpt lat="55.47214" lon="13.64369"><ele>46</ele></trkpt>
   <trkpt lat="55.472058" lon="13.642474"><ele>45.75</ele></trkpt>
   <trkpt lat="55.472006" lon="13.641834"><ele>45.75</ele></trkpt>
   <trkpt lat="55.471188" lon="13.632147"><ele>49.25</ele></trkpt>
   <trkpt lat="55.471006" lon="13.629986"><ele>47</ele></trkpt>
   <trkpt lat="55.47095" lon="13.629246"><ele>48</ele></trkpt>
   <trkpt lat="55.470916" lon="13.628726"><ele>48.5</ele></trkpt>
   <trkpt lat="55.470886" lon="13.628038"><ele>49.25</ele></trkpt>
   <trkpt lat="55.470868" lon="13.627219"><ele>50</ele></trkpt>
   <trkpt lat="55.470869" lon="13.62669"><ele>50</ele></trkpt>
   <trkpt lat="55.470887" lon="13.625836"><ele>51</ele></trkpt>
   <trkpt lat="55.47092" lon="13.625086"><ele>52</ele></trkpt>
   <trkpt lat="55.470981" lon="13.624252"><ele>51.25</ele></trkpt>
   <trkpt lat="55.471064" lon="13.623366"><ele>51.25</ele></trkpt>
   <trkpt lat="55.471778" lon="13.616989"><ele>48.5</ele></trkpt>
   <trkpt lat="55.47201" lon="13.614912"><ele>47</ele></trkpt>
   <trkpt lat="55.472069" lon="13.614291"><ele>47</ele></trkpt>
   <trkpt lat="55.4721" lon="13.613923"><ele>46.75</ele></trkpt>
   <trkpt lat="55.472127" lon="13.613498"><ele>46.75</ele></trkpt>
   <trkpt lat="55.472154" lon="13.612842"><ele>45.75</ele></trkpt>
   <trkpt lat="55.472163" lon="13.612403"><ele>45</ele></trkpt>
   <trkpt lat="55.472155" lon="13.611577"><ele>44.5</ele></trkpt>
   <trkpt lat="55.472131" lon="13.610773"><ele>43.25</ele></trkpt>
   <trkpt lat="55.471907" lon="13.604334"><ele>42.5</ele></trkpt>
   <trkpt lat="55.471871" lon="13.603293"><ele>43.25</ele></trkpt>
   <trkpt lat="55.471854" lon="13.602625"><ele>42.5</ele></trkpt>
   <trkpt lat="55.471845" lon="13.601934"><ele>41.5</ele></trkpt>
   <trkpt lat="55.471854" lon="13.601339"><ele>40.5</ele></trkpt>
   <trkpt lat="55.471867" lon="13.60098"><ele>39.75</ele></trkpt>
   <trkpt lat="55.471879" lon="13.60068"><ele>39.25</ele></trkpt>
   <trkpt lat="55.471916" lon="13.600118"><ele>38.5</ele></trkpt>
   <trkpt lat="55.471987" lon="13.599372"><ele>38.75</ele></trkpt>
   <trkpt lat="55.4721" lon="13.5985"><ele>40</ele></trkpt>
   <trkpt lat="55.472186" lon="13.597965"><ele>40.25</ele></trkpt>
   <trkpt lat="55.472244" lon="13.597658"><ele>40.5</ele></trkpt>
   <trkpt lat="55.472429" lon="13.59678"><ele>41.5</ele></trkpt>
   <trkpt lat="55.472439" lon="13.596735"><ele>41.5</ele></trkpt>
   <trkpt lat="55.472518" lon="13.596398"><ele>41.25</ele></trkpt>
   <trkpt lat="55.472743" lon="13.595551"><ele>40.25</ele></trkpt>
   <trkpt lat="55.472873" lon="13.595092"><ele>39.75</ele></trkpt>
   <trkpt lat="55.473151" lon="13.59405"><ele>39.25</ele></trkpt>
   <trkpt lat="55.473252" lon="13.593654"><ele>39</ele></trkpt>
   <trkpt lat="55.473371" lon="13.593153"><ele>38.75</ele></trkpt>
   <trkpt lat="55.473608" lon="13.592077"><ele>38</ele></trkpt>
   <trkpt lat="55.473688" lon="13.591688"><ele>38</ele></trkpt>
   <trkpt lat="55.473698" lon="13.591638"><ele>38</ele></trkpt>
   <trkpt lat="55.473917" lon="13.59028"><ele>39.5</ele></trkpt>
   <trkpt lat="55.473961" lon="13.59001"><ele>39.75</ele></trkpt>
   <trkpt lat="55.474082" lon="13.589181"><ele>40.75</ele></trkpt>
   <trkpt lat="55.47415" lon="13.588625"><ele>41.5</ele></trkpt>
   <trkpt lat="55.474271" lon="13.587429"><ele>40.75</ele></trkpt>
   <trkpt lat="55.474411" lon="13.585733"><ele>40</ele></trkpt>
   <trkpt lat="55.474482" lon="13.584628"><ele>39.25</ele></trkpt>
   <trkpt lat="55.47454" lon="13.583576"><ele>37.75</ele></trkpt>
   <trkpt lat="55.474592" lon="13.582637"><ele>36.5</ele></trkpt>
   <trkpt lat="55.47464" lon="13.582003"><ele>36.25</ele></trkpt>
   <trkpt lat="55.474679" lon="13.581565"><ele>36.25</ele></trkpt>
   <trkpt lat="55.47474" lon="13.580923"><ele>35.5</ele></trkpt>
   <trkpt lat="55.474955" lon="13.57701"><ele>38</ele></trkpt>
   <trkpt lat="55.475059" lon="13.575124"><ele>42.25</ele></trkpt>
   <trkpt lat="55.475116" lon="13.573903"><ele>39.75</ele></trkpt>
   <trkpt lat="55.475129" lon="13.57334"><ele>39</ele></trkpt>
   <trkpt lat="55.47513" lon="13.573018"><ele>38.75</ele></trkpt>
   <trkpt lat="55.475123" lon="13.572601"><ele>38.25</ele></trkpt>
   <trkpt lat="55.475111" lon="13.572207"><ele>38</ele></trkpt>
   <trkpt lat="55.475081" lon="13.571572"><ele>37.5</ele></trkpt>
   <trkpt lat="55.474706" lon="13.565884"><ele>42</ele></trkpt>
   <trkpt lat="55.474484" lon="13.562516"><ele>41</ele></trkpt>
   <trkpt lat="55.474245" lon="13.55891"><ele>41.75</ele></trkpt>
   <trkpt lat="55.47418" lon="13.557825"><ele>41.25</ele></trkpt>
   <trkpt lat="55.474062" lon="13.556343"><ele>41</ele></trkpt>
   <trkpt lat="55.473968" lon="13.55531"><ele>41.25</ele></trkpt>
   <trkpt lat="55.47379" lon="13.553647"><ele>42.25</ele></trkpt>
   <trkpt lat="55.473412" lon="13.550245"><ele>43</ele></trkpt>
   <trkpt lat="55.473371" lon="13.549876"><ele>43</ele></trkpt>
   <trkpt lat="55.473039" lon="13.546873"><ele>44.25</ele></trkpt>
   <trkpt lat="55.472869" lon="13.545343"><ele>46</ele></trkpt>
   <trkpt lat="55.472784" lon="13.544406"><ele>46.25</ele></trkpt>
   <trkpt lat="55.472747" lon="13.543726"><ele>46.5</ele></trkpt>
   <trkpt lat="55.472738" lon="13.54336"><ele>46.75</ele></trkpt>
   <trkpt lat="55.472739" lon="13.543014"><ele>47</ele></trkpt>
   <trkpt lat="55.472756" lon="13.542421"><ele>47.75</ele></trkpt>
   <trkpt lat="55.472773" lon="13.542116"><ele>48</ele></trkpt>
   <trkpt lat="55.472839" lon="13.541385"><ele>48.5</ele></trkpt>
   <trkpt lat="55.472882" lon="13.541044"><ele>48.75</ele></trkpt>
   <trkpt lat="55.472934" lon="13.540693"><ele>49</ele></trkpt>
   <trkpt lat="55.473042" lon="13.540098"><ele>49.5</ele></trkpt>
   <trkpt lat="55.473097" lon="13.539842"><ele>49.75</ele></trkpt>
   <trkpt lat="55.473223" lon="13.53932"><ele>49.75</ele></trkpt>
   <trkpt lat="55.473326" lon="13.53894"><ele>49.75</ele></trkpt>
   <trkpt lat="55.473555" lon="13.538146"><ele>49.5</ele></trkpt>
   <trkpt lat="55.474433" lon="13.535158"><ele>49.5</ele></trkpt>
   <trkpt lat="55.475064" lon="13.533008"><ele>48</ele></trkpt>
   <trkpt lat="55.475294" lon="13.532191"><ele>48</ele></trkpt>
   <trkpt lat="55.475423" lon="13.531706"><ele>48</ele></trkpt>
   <trkpt lat="55.47559" lon="13.531056"><ele>48</ele></trkpt>
   <trkpt lat="55.475743" lon="13.530429"><ele>48</ele></trkpt>
   <trkpt lat="55.475974" lon="13.529415"><ele>48.5</ele></trkpt>
   <trkpt lat="55.476174" lon="13.528454"><ele>48.5</ele></trkpt>
   <trkpt lat="55.476408" lon="13.527218"><ele>49.5</ele></trkpt>
   <trkpt lat="55.476595" lon="13.526111"><ele>50.75</ele></trkpt>
   <trkpt lat="55.476731" lon="13.525211"><ele>51</ele></trkpt>
   <trkpt lat="55.477085" lon="13.522503"><ele>52.5</ele></trkpt>
   <trkpt lat="55.477368" lon="13.520312"><ele>52</ele></trkpt>
   <trkpt lat="55.477427" lon="13.519843"><ele>52</ele></trkpt>
   <trkpt lat="55.478051" lon="13.514965"><ele>53.25</ele></trkpt>
   <trkpt lat="55.478209" lon="13.513764"><ele>54</ele></trkpt>
   <trkpt lat="55.479346" lon="13.504874"><ele>52.75</ele></trkpt>
   <trkpt lat="55.479404" lon="13.504417"><ele>53.25</ele></trkpt>
   <trkpt lat="55.479407" lon="13.504397"><ele>53.25</ele></trkpt>
   <trkpt lat="55.479629" lon="13.502635"><ele>55.25</ele></trkpt>
   <trkpt lat="55.479658" lon="13.502434"><ele>55.25</ele></trkpt>
   <trkpt lat="55.479685" lon="13.502233"><ele>55.5</ele></trkpt>
   <trkpt lat="55.479923" lon="13.50037"><ele>54.5</ele></trkpt>
   <trkpt lat="55.480017" lon="13.499618"><ele>54</ele></trkpt>
   <trkpt lat="55.480032" lon="13.499501"><ele>54</ele></trkpt>
   <trkpt lat="55.480048" lon="13.499393"><ele>54</ele></trkpt>
   <trkpt lat="55.480075" lon="13.499173"><ele>54</ele></trkpt>
   <trkpt lat="55.480154" lon="13.498557"><ele>54</ele></trkpt>
   <trkpt lat="55.480271" lon="13.497617"><ele>53.5</ele></trkpt>
   <trkpt lat="55.480348" lon="13.497037"><ele>53.25</ele></trkpt>
   <trkpt lat="55.480656" lon="13.494447"><ele>51.5</ele></trkpt>
   <trkpt lat="55.480827" lon="13.492932"><ele>51.25</ele></trkpt>
   <trkpt lat="55.480892" lon="13.492304"><ele>52</ele></trkpt>
   <trkpt lat="55.480959" lon="13.491553"><ele>52.75</ele></trkpt>
   <trkpt lat="55.481056" lon="13.490248"><ele>53</ele></trkpt>
   <trkpt lat="55.48111" lon="13.489281"><ele>53.75</ele></trkpt>
   <trkpt lat="55.481139" lon="13.488646"><ele>53.75</ele></trkpt>
   <trkpt lat="55.481203" lon="13.486843"><ele>53.5</ele></trkpt>
   <trkpt lat="55.481308" lon="13.483525"><ele>50.75</ele></trkpt>
   <trkpt lat="55.481318" lon="13.483079"><ele>51</ele></trkpt>
   <trkpt lat="55.481324" lon="13.482653"><ele>51.5</ele></trkpt>
   <trkpt lat="55.481323" lon="13.482155"><ele>51.75</ele></trkpt>
   <trkpt lat="55.481309" lon="13.481618"><ele>51.75</ele></trkpt>
   <trkpt lat="55.481309" lon="13.481577"><ele>51.75</ele></trkpt>
   <trkpt lat="55.481274" lon="13.480927"><ele>51</ele></trkpt>
   <trkpt lat="55.481235" lon="13.480422"><ele>50.75</ele></trkpt>
   <trkpt lat="55.4812" lon="13.480055"><ele>50.5</ele></trkpt>
   <trkpt lat="55.481143" lon="13.479494"><ele>49.25</ele></trkpt>
   <trkpt lat="55.480624" lon="13.474792"><ele>44.25</ele></trkpt>
   <trkpt lat="55.480564" lon="13.474196"><ele>43.5</ele></trkpt>
   <trkpt lat="55.480522" lon="13.473699"><ele>43</ele></trkpt>
   <trkpt lat="55.480496" lon="13.473303"><ele>42.75</ele></trkpt>
   <trkpt lat="55.480476" lon="13.472794"><ele>42.5</ele></trkpt>
   <trkpt lat="55.480471" lon="13.472299"><ele>42.25</ele></trkpt>
   <trkpt lat="55.480493" lon="13.471573"><ele>42</ele></trkpt>
   <trkpt lat="55.480528" lon="13.471062"><ele>42.25</ele></trkpt>
   <trkpt lat="55.480603" lon="13.470285"><ele>43</ele></trkpt>
   <trkpt lat="55.48073" lon="13.469207"><ele>42.75</ele></trkpt>
   <trkpt lat="55.481222" lon="13.46513"><ele>44.5</ele></trkpt>
   <trkpt lat="55.481313" lon="13.464281"><ele>44</ele></trkpt>
   <trkpt lat="55.481365" lon="13.463637"><ele>43.75</ele></trkpt>
   <trkpt lat="55.481406" lon="13.462925"><ele>43.5</ele></trkpt>
   <trkpt lat="55.481593" lon="13.458056"><ele>43</ele></trkpt>
   <trkpt lat="55.482196" lon="13.442268"><ele>41.5</ele></trkpt>
   <trkpt lat="55.482277" lon="13.440154"><ele>42.25</ele></trkpt>
   <trkpt lat="55.482537" lon="13.433328"><ele>42</ele></trkpt>
   <trkpt lat="55.482557" lon="13.432724"><ele>42.75</ele></trkpt>
   <trkpt lat="55.482573" lon="13.431679"><ele>43</ele></trkpt>
   <trkpt lat="55.482571" lon="13.431095"><ele>43.75</ele></trkpt>
   <trkpt lat="55.482562" lon="13.430648"><ele>44</ele></trkpt>
   <trkpt lat="55.482542" lon="13.430041"><ele>44</ele></trkpt>
   <trkpt lat="55.482524" lon="13.429692"><ele>44.25</ele></trkpt>
   <trkpt lat="55.48249" lon="13.429135"><ele>45</ele></trkpt>
   <trkpt lat="55.482427" lon="13.428356"><ele>45.75</ele></trkpt>
   <trkpt lat="55.482326" lon="13.427396"><ele>47.5</ele></trkpt>
   <trkpt lat="55.482207" lon="13.426506"><ele>48.25</ele></trkpt>
   <trkpt lat="55.481731" lon="13.423321"><ele>47.5</ele></trkpt>
   <trkpt lat="55.481621" lon="13.422546"><ele>46</ele></trkpt>
   <trkpt lat="55.481574" lon="13.422151"><ele>45.75</ele></trkpt>
   <trkpt lat="55.48152" lon="13.421538"><ele>45.5</ele></trkpt>
   <trkpt lat="55.481507" lon="13.421281"><ele>45.75</ele></trkpt>
   <trkpt lat="55.481495" lon="13.420784"><ele>46.5</ele></trkpt>
   <trkpt lat="55.481506" lon="13.420299"><ele>46.5</ele></trkpt>
   <trkpt lat="55.481533" lon="13.419847"><ele>46.75</ele></trkpt>
   <trkpt lat="55.481591" lon="13.419277"><ele>47</ele></trkpt>
   <trkpt lat="55.481624" lon="13.419047"><ele>47</ele></trkpt>
   <trkpt lat="55.481688" lon="13.418676"><ele>46.75</ele></trkpt>
   <trkpt lat="55.481769" lon="13.418285"><ele>46.75</ele></trkpt>
   <trkpt lat="55.481863" lon="13.417903"><ele>47.5</ele></trkpt>
   <trkpt lat="55.481995" lon="13.41745"><ele>48.5</ele></trkpt>
   <trkpt lat="55.482138" lon="13.417039"><ele>48.75</ele></trkpt>
   <trkpt lat="55.482221" lon="13.41682"><ele>48.75</ele></trkpt>
   <trkpt lat="55.482716" lon="13.41555"><ele>52.75</ele></trkpt>
   <trkpt lat="55.482869" lon="13.415101"><ele>54</ele></trkpt>
   <trkpt lat="55.482973" lon="13.414739"><ele>54.5</ele></trkpt>
   <trkpt lat="55.483044" lon="13.414455"><ele>54.5</ele></trkpt>
   <trkpt lat="55.483139" lon="13.414009"><ele>54.5</ele></trkpt>
   <trkpt lat="55.483229" lon="13.413442"><ele>54.25</ele></trkpt>
   <trkpt lat="55.483262" lon="13.413165"><ele>54</ele></trkpt>
   <trkpt lat="55.4833" lon="13.412756"><ele>53.25</ele></trkpt>
   <trkpt lat="55.483321" lon="13.412488"><ele>53</ele></trkpt>
   <trkpt lat="55.483353" lon="13.411896"><ele>52.25</ele></trkpt>
   <trkpt lat="55.483363" lon="13.411614"><ele>52</ele></trkpt>
   <trkpt lat="55.483441" lon="13.409464"><ele>52</ele></trkpt>
   <trkpt lat="55.48347" lon="13.408847"><ele>53.5</ele></trkpt>
   <trkpt lat="55.483506" lon="13.408254"><ele>55</ele></trkpt>
   <trkpt lat="55.483531" lon="13.407938"><ele>56.25</ele></trkpt>
   <trkpt lat="55.483597" lon="13.407311"><ele>58.25</ele></trkpt>
   <trkpt lat="55.483636" lon="13.406997"><ele>59.25</ele></trkpt>
   <trkpt lat="55.483715" lon="13.406477"><ele>60.25</ele></trkpt>
   <trkpt lat="55.483833" lon="13.405837"><ele>61</ele></trkpt>
   <trkpt lat="55.483937" lon="13.405352"><ele>61.5</ele></trkpt>
   <trkpt lat="55.484079" lon="13.404781"><ele>61</ele></trkpt>
   <trkpt lat="55.484188" lon="13.404395"><ele>60.75</ele></trkpt>
   <trkpt lat="55.484269" lon="13.404123"><ele>61</ele></trkpt>
   <trkpt lat="55.484437" lon="13.403603"><ele>61.25</ele></trkpt>
   <trkpt lat="55.48522" lon="13.401349"><ele>62.5</ele></trkpt>
   <trkpt lat="55.486157" lon="13.39866"><ele>64.75</ele></trkpt>
   <trkpt lat="55.486428" lon="13.39781"><ele>62.75</ele></trkpt>
   <trkpt lat="55.486608" lon="13.397171"><ele>59.5</ele></trkpt>
   <trkpt lat="55.486761" lon="13.396546"><ele>58.25</ele></trkpt>
   <trkpt lat="55.486844" lon="13.396171"><ele>58.25</ele></trkpt>
   <trkpt lat="55.48695" lon="13.395623"><ele>58.5</ele></trkpt>
   <trkpt lat="55.486989" lon="13.395393"><ele>58.75</ele></trkpt>
   <trkpt lat="55.487092" lon="13.394737"><ele>58.75</ele></trkpt>
   <trkpt lat="55.487153" lon="13.394257"><ele>58</ele></trkpt>
   <trkpt lat="55.487274" lon="13.39307"><ele>55.75</ele></trkpt>
   <trkpt lat="55.487395" lon="13.391606"><ele>49</ele></trkpt>
   <trkpt lat="55.488219" lon="13.381649"><ele>49</ele></trkpt>
   <trkpt lat="55.488477" lon="13.378557"><ele>50</ele></trkpt>
   <trkpt lat="55.488577" lon="13.377435"><ele>51</ele></trkpt>
   <trkpt lat="55.488648" lon="13.37678"><ele>51.25</ele></trkpt>
   <trkpt lat="55.488731" lon="13.376128"><ele>52.25</ele></trkpt>
   <trkpt lat="55.488785" lon="13.375757"><ele>53</ele></trkpt>
   <trkpt lat="55.488897" lon="13.375071"><ele>54.75</ele></trkpt>
   <trkpt lat="55.488931" lon="13.374885"><ele>55.25</ele></trkpt>
   <trkpt lat="55.488935" lon="13.37486"><ele>55.25</ele></trkpt>
   <trkpt lat="55.489096" lon="13.37406"><ele>56.75</ele></trkpt>
   <trkpt lat="55.489231" lon="13.373451"><ele>57.5</ele></trkpt>
   <trkpt lat="55.489525" lon="13.372248"><ele>58.25</ele></trkpt>
   <trkpt lat="55.489987" lon="13.370346"><ele>55.25</ele></trkpt>
   <trkpt lat="55.490279" lon="13.369153"><ele>56</ele></trkpt>
   <trkpt lat="55.490634" lon="13.367697"><ele>54.5</ele></trkpt>
   <trkpt lat="55.490893" lon="13.366635"><ele>53.75</ele></trkpt>
   <trkpt lat="55.491732" lon="13.363204"><ele>50.75</ele></trkpt>
   <trkpt lat="55.492732" lon="13.35908"><ele>51</ele></trkpt>
   <trkpt lat="55.493091" lon="13.357628"><ele>50.25</ele></trkpt>
   <trkpt lat="55.493287" lon="13.356821"><ele>50</ele></trkpt>
   <trkpt lat="55.493321" lon="13.35668"><ele>50</ele></trkpt>
   <trkpt lat="55.493351" lon="13.356558"><ele>50</ele></trkpt>
   <trkpt lat="55.494436" lon="13.35211"><ele>49.5</ele></trkpt>
   <trkpt lat="55.494956" lon="13.349973"><ele>48.75</ele></trkpt>
   <trkpt lat="55.494958" lon="13.349963"><ele>48.75</ele></trkpt>
   <trkpt lat="55.49607" lon="13.345397"><ele>54.5</ele></trkpt>
   <trkpt lat="55.497972" lon="13.337587"><ele>51.5</ele></trkpt>
   <trkpt lat="55.498563" lon="13.335164"><ele>50.75</ele></trkpt>
   <trkpt lat="55.498687" lon="13.334651"><ele>51</ele></trkpt>
   <trkpt lat="55.499541" lon="13.331132"><ele>52.25</ele></trkpt>
   <trkpt lat="55.499684" lon="13.330517"><ele>52.25</ele></trkpt>
   <trkpt lat="55.499924" lon="13.329411"><ele>51.5</ele></trkpt>
   <trkpt lat="55.500151" lon="13.328294"><ele>50.75</ele></trkpt>
   <trkpt lat="55.500364" lon="13.327133"><ele>51.5</ele></trkpt>
   <trkpt lat="55.5005" lon="13.32635"><ele>52</ele></trkpt>
   <trkpt lat="55.500653" lon="13.325398"><ele>53.5</ele></trkpt>
   <trkpt lat="55.500758" lon="13.324702"><ele>53.5</ele></trkpt>
   <trkpt lat="55.500937" lon="13.323386"><ele>51.75</ele></trkpt>
   <trkpt lat="55.501008" lon="13.322861"><ele>52</ele></trkpt>
   <trkpt lat="55.501024" lon="13.322746"><ele>52</ele></trkpt>
   <trkpt lat="55.501123" lon="13.322021"><ele>52.5</ele></trkpt>
   <trkpt lat="55.501212" lon="13.321439"><ele>53</ele></trkpt>
   <trkpt lat="55.501263" lon="13.321149"><ele>54</ele></trkpt>
   <trkpt lat="55.501394" lon="13.320524"><ele>55.25</ele></trkpt>
   <trkpt lat="55.501459" lon="13.320247"><ele>55.5</ele></trkpt>
   <trkpt lat="55.501553" lon="13.319904"><ele>55.5</ele></trkpt>
   <trkpt lat="55.501703" lon="13.319409"><ele>55.25</ele></trkpt>
   <trkpt lat="55.501815" lon="13.319082"><ele>54.5</ele></trkpt>
   <trkpt lat="55.501919" lon="13.318805"><ele>53.5</ele></trkpt>
   <trkpt lat="55.502037" lon="13.318503"><ele>52.75</ele></trkpt>
   <trkpt lat="55.502561" lon="13.317231"><ele>49</ele></trkpt>
   <trkpt lat="55.502722" lon="13.316821"><ele>49</ele></trkpt>
   <trkpt lat="55.502814" lon="13.316585"><ele>49.25</ele></trkpt>
   <trkpt lat="55.502944" lon="13.316205"><ele>50.25</ele></trkpt>
   <trkpt lat="55.503032" lon="13.315922"><ele>51.25</ele></trkpt>
   <trkpt lat="55.503115" lon="13.315619"><ele>52.25</ele></trkpt>
   <trkpt lat="55.50318" lon="13.315346"><ele>53</ele></trkpt>
   <trkpt lat="55.503288" lon="13.314807"><ele>54</ele></trkpt>
   <trkpt lat="55.503362" lon="13.314305"><ele>53.25</ele></trkpt>
   <trkpt lat="55.503424" lon="13.313713"><ele>52.25</ele></trkpt>
   <trkpt lat="55.50345" lon="13.313201"><ele>51.75</ele></trkpt>
   <trkpt lat="55.503456" lon="13.312996"><ele>51.5</ele></trkpt>
   <trkpt lat="55.503455" lon="13.312687"><ele>51</ele></trkpt>
   <trkpt lat="55.503437" lon="13.312174"><ele>50.5</ele></trkpt>
   <trkpt lat="55.503415" lon="13.311838"><ele>50.25</ele></trkpt>
   <trkpt lat="55.503377" lon="13.311419"><ele>50.25</ele></trkpt>
   <trkpt lat="55.502976" lon="13.308095"><ele>52.5</ele></trkpt>
   <trkpt lat="55.502947" lon="13.307858"><ele>52.25</ele></trkpt>
   <trkpt lat="55.502871" lon="13.307124"><ele>52</ele></trkpt>
   <trkpt lat="55.502835" lon="13.306661"><ele>52</ele></trkpt>
   <trkpt lat="55.502809" lon="13.305994"><ele>52.25</ele></trkpt>
   <trkpt lat="55.502807" lon="13.305659"><ele>52.5</ele></trkpt>
   <trkpt lat="55.502817" lon="13.305122"><ele>52.5</ele></trkpt>
   <trkpt lat="55.502833" lon="13.304776"><ele>52.5</ele></trkpt>
   <trkpt lat="55.502861" lon="13.304368"><ele>52.25</ele></trkpt>
   <trkpt lat="55.502937" lon="13.30363"><ele>51.5</ele></trkpt>
   <trkpt lat="55.502999" lon="13.303166"><ele>51.25</ele></trkpt>
   <trkpt lat="55.504493" lon="13.292658"><ele>47.25</ele></trkpt>
   <trkpt lat="55.505816" lon="13.28337"><ele>49</ele></trkpt>
   <trkpt lat="55.505995" lon="13.282002"><ele>51</ele></trkpt>
   <trkpt lat="55.50606" lon="13.281304"><ele>52</ele></trkpt>
   <trkpt lat="55.506082" lon="13.281001"><ele>52.25</ele></trkpt>
   <trkpt lat="55.506096" lon="13.280673"><ele>52.75</ele></trkpt>
   <trkpt lat="55.506107" lon="13.280147"><ele>53</ele></trkpt>
   <trkpt lat="55.5061" lon="13.2796"><ele>52.5</ele></trkpt>
   <trkpt lat="55.506078" lon="13.278934"><ele>51.25</ele></trkpt>
   <trkpt lat="55.506046" lon="13.278293"><ele>50.75</ele></trkpt>
   <trkpt lat="55.50599" lon="13.277199"><ele>51</ele></trkpt>
   <trkpt lat="55.505706" lon="13.271697"><ele>47.75</ele></trkpt>
   <trkpt lat="55.505654" lon="13.270477"><ele>48.5</ele></trkpt>
   <trkpt lat="55.505634" lon="13.269895"><ele>48.5</ele></trkpt>
   <trkpt lat="55.505606" lon="13.268637"><ele>49.75</ele></trkpt>
   <trkpt lat="55.505594" lon="13.267365"><ele>49.5</ele></trkpt>
   <trkpt lat="55.505602" lon="13.266023"><ele>50</ele></trkpt>
   <trkpt lat="55.505615" lon="13.265318"><ele>50.25</ele></trkpt>
   <trkpt lat="55.50569" lon="13.263049"><ele>49.5</ele></trkpt>
   <trkpt lat="55.505755" lon="13.261419"><ele>49.25</ele></trkpt>
   <trkpt lat="55.505991" lon="13.255488"><ele>50.5</ele></trkpt>
   <trkpt lat="55.506174" lon="13.250903"><ele>49.75</ele></trkpt>
   <trkpt lat="55.506245" lon="13.249123"><ele>48.25</ele></trkpt>
   <trkpt lat="55.506382" lon="13.245628"><ele>46</ele></trkpt>
   <trkpt lat="55.506482" lon="13.243107"><ele>45.75</ele></trkpt>
   <trkpt lat="55.506489" lon="13.242933"><ele>45.5</ele></trkpt>
   <trkpt lat="55.506617" lon="13.239703"><ele>46</ele></trkpt>
   <trkpt lat="55.506618" lon="13.239677"><ele>46</ele></trkpt>
   <trkpt lat="55.506682" lon="13.238097"><ele>46</ele></trkpt>
   <trkpt lat="55.506687" lon="13.23792"><ele>46</ele></trkpt>
   <trkpt lat="55.506737" lon="13.236675"><ele>46</ele></trkpt>
   <trkpt lat="55.506776" lon="13.23566"><ele>46.25</ele></trkpt>
   <trkpt lat="55.506779" lon="13.235575"><ele>46.25</ele></trkpt>
   <trkpt lat="55.506837" lon="13.23406"><ele>47</ele></trkpt>
   <trkpt lat="55.506863" lon="13.233091"><ele>47.25</ele></trkpt>
   <trkpt lat="55.506882" lon="13.232315"><ele>47.75</ele></trkpt>
   <trkpt lat="55.506946" lon="13.229685"><ele>46.75</ele></trkpt>
   <trkpt lat="55.506957" lon="13.229267"><ele>46.25</ele></trkpt>
   <trkpt lat="55.507016" lon="13.226764"><ele>45.25</ele></trkpt>
   <trkpt lat="55.507055" lon="13.225161"><ele>45.75</ele></trkpt>
   <trkpt lat="55.507091" lon="13.223619"><ele>44.5</ele></trkpt>
   <trkpt lat="55.507136" lon="13.222073"><ele>44</ele></trkpt>
   <trkpt lat="55.507177" lon="13.22133"><ele>44</ele></trkpt>
   <trkpt lat="55.507248" lon="13.220527"><ele>44.75</ele></trkpt>
   <trkpt lat="55.50736" lon="13.219608"><ele>45</ele></trkpt>
   <trkpt lat="55.507433" lon="13.219148"><ele>44.5</ele></trkpt>
   <trkpt lat="55.507435" lon="13.219137"><ele>44.5</ele></trkpt>
   <trkpt lat="55.507498" lon="13.218786"><ele>44.5</ele></trkpt>
   <trkpt lat="55.507571" lon="13.218391"><ele>44.25</ele></trkpt>
   <trkpt lat="55.507651" lon="13.21801"><ele>44.25</ele></trkpt>
   <trkpt lat="55.507755" lon="13.217558"><ele>44.5</ele></trkpt>
   <trkpt lat="55.507959" lon="13.21679"><ele>45</ele></trkpt>
   <trkpt lat="55.508191" lon="13.216031"><ele>47</ele></trkpt>
   <trkpt lat="55.508344" lon="13.215585"><ele>48.25</ele></trkpt>
   <trkpt lat="55.5086" lon="13.214911"><ele>47.75</ele></trkpt>
   <trkpt lat="55.508753" lon="13.214552"><ele>46.75</ele></trkpt>
   <trkpt lat="55.509167" lon="13.213621"><ele>45</ele></trkpt>
   <trkpt lat="55.50969" lon="13.21248"><ele>44.25</ele></trkpt>
   <trkpt lat="55.510417" lon="13.210903"><ele>44.75</ele></trkpt>
   <trkpt lat="55.510751" lon="13.210205"><ele>45</ele></trkpt>
   <trkpt lat="55.510964" lon="13.209775"><ele>44.5</ele></trkpt>
   <trkpt lat="55.511431" lon="13.208871"><ele>43</ele></trkpt>
   <trkpt lat="55.511957" lon="13.207903"><ele>41.5</ele></trkpt>
   <trkpt lat="55.512306" lon="13.207298"><ele>40.75</ele></trkpt>
   <trkpt lat="55.513968" lon="13.204505"><ele>41.25</ele></trkpt>
   <trkpt lat="55.514876" lon="13.20299"><ele>40</ele></trkpt>
   <trkpt lat="55.517449" lon="13.198687"><ele>39</ele></trkpt>
   <trkpt lat="55.518241" lon="13.197347"><ele>38.75</ele></trkpt>
   <trkpt lat="55.518597" lon="13.196719"><ele>39</ele></trkpt>
   <trkpt lat="55.518865" lon="13.196227"><ele>38.75</ele></trkpt>
   <trkpt lat="55.519076" lon="13.195829"><ele>38.75</ele></trkpt>
   <trkpt lat="55.519609" lon="13.194784"><ele>39.25</ele></trkpt>
   <trkpt lat="55.520098" lon="13.193759"><ele>39.75</ele></trkpt>
   <trkpt lat="55.521093" lon="13.191604"><ele>40.25</ele></trkpt>
   <trkpt lat="55.521974" lon="13.189688"><ele>39.75</ele></trkpt>
   <trkpt lat="55.525556" lon="13.181888"><ele>36</ele></trkpt>
   <trkpt lat="55.526752" lon="13.179301"><ele>35.75</ele></trkpt>
   <trkpt lat="55.527153" lon="13.178429"><ele>36.75</ele></trkpt>
   <trkpt lat="55.527978" lon="13.176612"><ele>37.75</ele></trkpt>
   <trkpt lat="55.528231" lon="13.176004"><ele>37.75</ele></trkpt>
   <trkpt lat="55.528547" lon="13.175185"><ele>38.5</ele></trkpt>
   <trkpt lat="55.528894" lon="13.17421"><ele>40.25</ele></trkpt>
   <trkpt lat="55.52916" lon="13.173355"><ele>40.75</ele></trkpt>
   <trkpt lat="55.529297" lon="13.172884"><ele>40.75</ele></trkpt>
   <trkpt lat="55.529607" lon="13.171762"><ele>40.25</ele></trkpt>
   <trkpt lat="55.530626" lon="13.167818"><ele>40.5</ele></trkpt>
   <trkpt lat="55.530957" lon="13.166558"><ele>40.25</ele></trkpt>
   <trkpt lat="55.531192" lon="13.165637"><ele>38.25</ele></trkpt>
   <trkpt lat="55.531679" lon="13.163794"><ele>38</ele></trkpt>
   <trkpt lat="55.532069" lon="13.162271"><ele>38.5</ele></trkpt>
   <trkpt lat="55.532662" lon="13.159983"><ele>37.75</ele></trkpt>
   <trkpt lat="55.533025" lon="13.158588"><ele>37.25</ele></trkpt>
   <trkpt lat="55.533696" lon="13.155996"><ele>36.5</ele></trkpt>
   <trkpt lat="55.533772" lon="13.155704"><ele>36.25</ele></trkpt>
   <trkpt lat="55.534467" lon="13.153023"><ele>37</ele></trkpt>
   <trkpt lat="55.534925" lon="13.151254"><ele>37.25</ele></trkpt>
   <trkpt lat="55.535212" lon="13.150145"><ele>37.25</ele></trkpt>
   <trkpt lat="55.535555" lon="13.148817"><ele>36.25</ele></trkpt>
   <trkpt lat="55.535933" lon="13.147356"><ele>37</ele></trkpt>
   <trkpt lat="55.53615" lon="13.146476"><ele>37</ele></trkpt>
   <trkpt lat="55.536277" lon="13.145921"><ele>37.75</ele></trkpt>
   <trkpt lat="55.536436" lon="13.14516"><ele>38</ele></trkpt>
   <trkpt lat="55.536522" lon="13.144704"><ele>37.5</ele></trkpt>
   <trkpt lat="55.536679" lon="13.143792"><ele>36.5</ele></trkpt>
   <trkpt lat="55.536754" lon="13.143306"><ele>35.75</ele></trkpt>
   <trkpt lat="55.536876" lon="13.142405"><ele>35</ele></trkpt>
   <trkpt lat="55.536929" lon="13.141942"><ele>35</ele></trkpt>
   <trkpt lat="55.537023" lon="13.140996"><ele>33.75</ele></trkpt>
   <trkpt lat="55.537064" lon="13.140488"><ele>32.75</ele></trkpt>
   <trkpt lat="55.537149" lon="13.139135"><ele>31.25</ele></trkpt>
   <trkpt lat="55.537176" lon="13.138598"><ele>31.25</ele></trkpt>
   <trkpt lat="55.53719" lon="13.138316"><ele>31.25</ele></trkpt>
   <trkpt lat="55.537303" lon="13.13614"><ele>41.25</ele></trkpt>
   <trkpt lat="55.537374" lon="13.134769"><ele>40.75</ele></trkpt>
   <trkpt lat="55.537729" lon="13.12775"><ele>37.5</ele></trkpt>
   <trkpt lat="55.537749" lon="13.127348"><ele>38</ele></trkpt>
   <trkpt lat="55.537826" lon="13.125888"><ele>37.75</ele></trkpt>
   <trkpt lat="55.537917" lon="13.12431"><ele>38.25</ele></trkpt>
   <trkpt lat="55.538027" lon="13.12284"><ele>37.75</ele></trkpt>
   <trkpt lat="55.538169" lon="13.12137"><ele>36.75</ele></trkpt>
   <trkpt lat="55.538276" lon="13.120391"><ele>35.75</ele></trkpt>
   <trkpt lat="55.539832" lon="13.106642"><ele>36.75</ele></trkpt>
   <trkpt lat="55.539977" lon="13.105401"><ele>37</ele></trkpt>
   <trkpt lat="55.540046" lon="13.104861"><ele>37</ele></trkpt>
   <trkpt lat="55.540136" lon="13.104154"><ele>38</ele></trkpt>
   <trkpt lat="55.540212" lon="13.103645"><ele>38.75</ele></trkpt>
   <trkpt lat="55.54032" lon="13.102945"><ele>39.25</ele></trkpt>
   <trkpt lat="55.540481" lon="13.10196"><ele>40</ele></trkpt>
   <trkpt lat="55.540612" lon="13.101204"><ele>40.75</ele></trkpt>
   <trkpt lat="55.540802" lon="13.100183"><ele>41.75</ele></trkpt>
   <trkpt lat="55.541022" lon="13.09911"><ele>41</ele></trkpt>
   <trkpt lat="55.541415" lon="13.097343"><ele>39</ele></trkpt>
   <trkpt lat="55.541478" lon="13.097081"><ele>38.75</ele></trkpt>
   <trkpt lat="55.541626" lon="13.096444"><ele>38.5</ele></trkpt>
   <trkpt lat="55.54209" lon="13.094473"><ele>37.75</ele></trkpt>
   <trkpt lat="55.542429" lon="13.093031"><ele>37.25</ele></trkpt>
   <trkpt lat="55.542634" lon="13.09217"><ele>38</ele></trkpt>
   <trkpt lat="55.543123" lon="13.090079"><ele>40</ele></trkpt>
   <trkpt lat="55.544737" lon="13.083221"><ele>40.25</ele></trkpt>
   <trkpt lat="55.544987" lon="13.08216"><ele>40.25</ele></trkpt>
   <trkpt lat="55.545319" lon="13.080815"><ele>42.25</ele></trkpt>
   <trkpt lat="55.545564" lon="13.079913"><ele>42.5</ele></trkpt>
   <trkpt lat="55.545828" lon="13.079017"><ele>42</ele></trkpt>
   <trkpt lat="55.545846" lon="13.078959"><ele>42</ele></trkpt>
   <trkpt lat="55.546288" lon="13.077494"><ele>42.75</ele></trkpt>
   <trkpt lat="55.546466" lon="13.076851"><ele>42.25</ele></trkpt>
   <trkpt lat="55.546603" lon="13.0763"><ele>42</ele></trkpt>
   <trkpt lat="55.546676" lon="13.075962"><ele>42</ele></trkpt>
   <trkpt lat="55.546759" lon="13.075531"><ele>41.75</ele></trkpt>
   <trkpt lat="55.546851" lon="13.074952"><ele>41.5</ele></trkpt>
   <trkpt lat="55.546914" lon="13.074437"><ele>40.75</ele></trkpt>
   <trkpt lat="55.546965" lon="13.073835"><ele>39.5</ele></trkpt>
   <trkpt lat="55.546997" lon="13.07322"><ele>38.5</ele></trkpt>
   <trkpt lat="55.547004" lon="13.07291"><ele>37.75</ele></trkpt>
   <trkpt lat="55.546998" lon="13.072268"><ele>36.75</ele></trkpt>
   <trkpt lat="55.546979" lon="13.071767"><ele>35.75</ele></trkpt>
   <trkpt lat="55.546917" lon="13.070958"><ele>34.75</ele></trkpt>
   <trkpt lat="55.546869" lon="13.070512"><ele>34.25</ele></trkpt>
   <trkpt lat="55.546776" lon="13.069786"><ele>33.5</ele></trkpt>
   <trkpt lat="55.546669" lon="13.068978"><ele>33</ele></trkpt>
   <trkpt lat="55.546146" lon="13.065305"><ele>28.75</ele></trkpt>
   <trkpt lat="55.54591" lon="13.063836"><ele>27.75</ele></trkpt>
   <trkpt lat="55.545805" lon="13.063264"><ele>27.75</ele></trkpt>
   <trkpt lat="55.545602" lon="13.062207"><ele>27.25</ele></trkpt>
   <trkpt lat="55.545372" lon="13.061134"><ele>28</ele></trkpt>
   <trkpt lat="55.545154" lon="13.060232"><ele>29.25</ele></trkpt>
   <trkpt lat="55.544986" lon="13.059586"><ele>29.5</ele></trkpt>
   <trkpt lat="55.544477" lon="13.057807"><ele>31</ele></trkpt>
   <trkpt lat="55.544068" lon="13.056493"><ele>32.5</ele></trkpt>
   <trkpt lat="55.543858" lon="13.055797"><ele>33.25</ele></trkpt>
   <trkpt lat="55.543682" lon="13.055156"><ele>33.5</ele></trkpt>
   <trkpt lat="55.543526" lon="13.054509"><ele>35</ele></trkpt>
   <trkpt lat="55.543392" lon="13.053849"><ele>36.5</ele></trkpt>
   <trkpt lat="55.543272" lon="13.053119"><ele>37</ele></trkpt>
   <trkpt lat="55.543219" lon="13.052753"><ele>37.5</ele></trkpt>
   <trkpt lat="55.543175" lon="13.052376"><ele>37.5</ele></trkpt>
   <trkpt lat="55.5431" lon="13.051624"><ele>38</ele></trkpt>
   <trkpt lat="55.543054" lon="13.050839"><ele>38.5</ele></trkpt>
   <trkpt lat="55.543035" lon="13.049951"><ele>39.25</ele></trkpt>
   <trkpt lat="55.543042" lon="13.049029"><ele>38.5</ele></trkpt>
   <trkpt lat="55.543061" lon="13.048233"><ele>38.5</ele></trkpt>
   <trkpt lat="55.543106" lon="13.047307"><ele>37.75</ele></trkpt>
   <trkpt lat="55.54317" lon="13.04641"><ele>37.25</ele></trkpt>
   <trkpt lat="55.543249" lon="13.045542"><ele>36.75</ele></trkpt>
   <trkpt lat="55.543309" lon="13.044998"><ele>36.75</ele></trkpt>
   <trkpt lat="55.543386" lon="13.044382"><ele>36.25</ele></trkpt>
   <trkpt lat="55.543553" lon="13.043239"><ele>36</ele></trkpt>
   <trkpt lat="55.543679" lon="13.042513"><ele>36.75</ele></trkpt>
   <trkpt lat="55.543782" lon="13.041971"><ele>37</ele></trkpt>
   <trkpt lat="55.543933" lon="13.041229"><ele>37.25</ele></trkpt>
   <trkpt lat="55.544109" lon="13.040425"><ele>37.75</ele></trkpt>
   <trkpt lat="55.544683" lon="13.037887"><ele>36.75</ele></trkpt>
   <trkpt lat="55.544759" lon="13.037545"><ele>37</ele></trkpt>
   <trkpt lat="55.544902" lon="13.0369"><ele>37</ele></trkpt>
   <trkpt lat="55.545011" lon="13.036368"><ele>37</ele></trkpt>
   <trkpt lat="55.545273" lon="13.035107"><ele>37.25</ele></trkpt>
   <trkpt lat="55.545421" lon="13.034432"><ele>37</ele></trkpt>
   <trkpt lat="55.545531" lon="13.033937"><ele>36.75</ele></trkpt>
   <trkpt lat="55.545672" lon="13.033325"><ele>36</ele></trkpt>
   <trkpt lat="55.546639" lon="13.029036"><ele>34</ele></trkpt>
   <trkpt lat="55.546828" lon="13.028147"><ele>34</ele></trkpt>
   <trkpt lat="55.546998" lon="13.027304"><ele>34</ele></trkpt>
   <trkpt lat="55.547234" lon="13.025963"><ele>34.25</ele></trkpt>
   <trkpt lat="55.547377" lon="13.024982"><ele>34</ele></trkpt>
   <trkpt lat="55.547448" lon="13.024453"><ele>33.25</ele></trkpt>
   <trkpt lat="55.547534" lon="13.023716"><ele>32.25</ele></trkpt>
   <trkpt lat="55.547627" lon="13.022806"><ele>30.5</ele></trkpt>
   <trkpt lat="55.547665" lon="13.022369"><ele>29.75</ele></trkpt>
   <trkpt lat="55.547736" lon="13.021363"><ele>28.75</ele></trkpt>
   <trkpt lat="55.547773" lon="13.020648"><ele>28.5</ele></trkpt>
   <trkpt lat="55.547813" lon="13.019264"><ele>28.75</ele></trkpt>
   <trkpt lat="55.547828" lon="13.018255"><ele>28.75</ele></trkpt>
   <trkpt lat="55.547816" lon="13.016826"><ele>28</ele></trkpt>
   <trkpt lat="55.547791" lon="13.015713"><ele>29</ele></trkpt>
   <trkpt lat="55.547648" lon="13.009805"><ele>27.25</ele></trkpt>
   <trkpt lat="55.547638" lon="13.009303"><ele>26.75</ele></trkpt>
   <trkpt lat="55.547592" lon="13.00748"><ele>24.25</ele></trkpt>
   <trkpt lat="55.547575" lon="13.006692"><ele>24.25</ele></trkpt>
   <trkpt lat="55.547546" lon="13.005535"><ele>24</ele></trkpt>
   <trkpt lat="55.547512" lon="13.004107"><ele>24</ele></trkpt>
   <trkpt lat="55.547503" lon="13.003482"><ele>24</ele></trkpt>
   <trkpt lat="55.547508" lon="13.002335"><ele>23</ele></trkpt>
   <trkpt lat="55.547495" lon="13.001799"><ele>23</ele></trkpt>
   <trkpt lat="55.547477" lon="13.001397"><ele>22.5</ele></trkpt>
   <trkpt lat="55.547437" lon="13.00083"><ele>22</ele></trkpt>
   <trkpt lat="55.547425" lon="13.000542"><ele>21.5</ele></trkpt>
   <trkpt lat="55.547421" lon="13.000376"><ele>21.5</ele></trkpt>
   <trkpt lat="55.547311" lon="12.995878"><ele>23.25</ele></trkpt>
   <trkpt lat="55.547308" lon="12.995728"><ele>23.25</ele></trkpt>
   <trkpt lat="55.547235" lon="12.992652"><ele>23.75</ele></trkpt>
   <trkpt lat="55.547169" lon="12.990032"><ele>22.5</ele></trkpt>
   <trkpt lat="55.547163" lon="12.989709"><ele>22.25</ele></trkpt>
   <trkpt lat="55.547051" lon="12.985149"><ele>21.25</ele></trkpt>
   <trkpt lat="55.547047" lon="12.984988"><ele>21.25</ele></trkpt>
   <trkpt lat="55.547047" lon="12.98467"><ele>21.25</ele></trkpt>
   <trkpt lat="55.547063" lon="12.984155"><ele>21</ele></trkpt>
   <trkpt lat="55.547061" lon="12.98385"><ele>21</ele></trkpt>
   <trkpt lat="55.547058" lon="12.983697"><ele>21</ele></trkpt>
   <trkpt lat="55.547019" lon="12.982211"><ele>18.5</ele></trkpt>
   <trkpt lat="55.546997" lon="12.981291"><ele>18.25</ele></trkpt>
   <trkpt lat="55.546996" lon="12.981237"><ele>18.5</ele></trkpt>
   <trkpt lat="55.546982" lon="12.979656"><ele>19.25</ele></trkpt>
   <trkpt lat="55.54697" lon="12.976355"><ele>19.25</ele></trkpt>
   <trkpt lat="55.546978" lon="12.974773"><ele>18.5</ele></trkpt>
   <trkpt lat="55.546997" lon="12.973887"><ele>17.5</ele></trkpt>
   <trkpt lat="55.54705" lon="12.972258"><ele>16</ele></trkpt>
   <trkpt lat="55.547139" lon="12.970599"><ele>14.25</ele></trkpt>
   <trkpt lat="55.547231" lon="12.969305"><ele>13.5</ele></trkpt>
   <trkpt lat="55.54736" lon="12.967889"><ele>13.75</ele></trkpt>
   <trkpt lat="55.547459" lon="12.966958"><ele>14</ele></trkpt>
   <trkpt lat="55.547635" lon="12.96556"><ele>12.75</ele></trkpt>
   <trkpt lat="55.547808" lon="12.964369"><ele>12.5</ele></trkpt>
   <trkpt lat="55.547918" lon="12.963682"><ele>12.25</ele></trkpt>
   <trkpt lat="55.548115" lon="12.962564"><ele>11.5</ele></trkpt>
   <trkpt lat="55.548234" lon="12.961952"><ele>11</ele></trkpt>
   <trkpt lat="55.548377" lon="12.961303"><ele>11.25</ele></trkpt>
   <trkpt lat="55.54854" lon="12.960696"><ele>12</ele></trkpt>
   <trkpt lat="55.54873" lon="12.960092"><ele>12</ele></trkpt>
   <trkpt lat="55.548828" lon="12.959811"><ele>11.75</ele></trkpt>
   <trkpt lat="55.549024" lon="12.959302"><ele>11.5</ele></trkpt>
   <trkpt lat="55.549246" lon="12.958812"><ele>11.25</ele></trkpt>
   <trkpt lat="55.549447" lon="12.958417"><ele>11</ele></trkpt>
   <trkpt lat="55.549625" lon="12.958093"><ele>11</ele></trkpt>
   <trkpt lat="55.549909" lon="12.957635"><ele>11</ele></trkpt>
   <trkpt lat="55.550225" lon="12.957196"><ele>10.5</ele></trkpt>
   <trkpt lat="55.550546" lon="12.956805"><ele>9.75</ele></trkpt>
   <trkpt lat="55.550881" lon="12.956458"><ele>9.25</ele></trkpt>
   <trkpt lat="55.551107" lon="12.956252"><ele>9.75</ele></trkpt>
   <trkpt lat="55.551421" lon="12.956007"><ele>10</ele></trkpt>
   <trkpt lat="55.551605" lon="12.955879"><ele>10</ele></trkpt>
   <trkpt lat="55.551966" lon="12.955664"><ele>10.25</ele></trkpt>
   <trkpt lat="55.552139" lon="12.955576"><ele>10.5</ele></trkpt>
   <trkpt lat="55.552322" lon="12.9555"><ele>10.75</ele></trkpt>
   <trkpt lat="55.55268" lon="12.955374"><ele>11</ele></trkpt>
   <trkpt lat="55.552873" lon="12.955325"><ele>11</ele></trkpt>
   <trkpt lat="55.553065" lon="12.955287"><ele>11</ele></trkpt>
   <trkpt lat="55.55347" lon="12.955243"><ele>11</ele></trkpt>
   <trkpt lat="55.553874" lon="12.955254"><ele>11.5</ele></trkpt>
   <trkpt lat="55.554275" lon="12.955316"><ele>12</ele></trkpt>
   <trkpt lat="55.554676" lon="12.955428"><ele>12</ele></trkpt>
   <trkpt lat="55.554878" lon="12.955502"><ele>12</ele></trkpt>
   <trkpt lat="55.555259" lon="12.955682"><ele>11.5</ele></trkpt>
   <trkpt lat="55.555443" lon="12.955788"><ele>11.25</ele></trkpt>
   <trkpt lat="55.555656" lon="12.955924"><ele>11</ele></trkpt>
   <trkpt lat="55.555811" lon="12.956036"><ele>11</ele></trkpt>
   <trkpt lat="55.556132" lon="12.956299"><ele>10.25</ele></trkpt>
   <trkpt lat="55.556441" lon="12.956593"><ele>9.5</ele></trkpt>
   <trkpt lat="55.556685" lon="12.956857"><ele>9</ele></trkpt>
   <trkpt lat="55.556964" lon="12.957202"><ele>9.25</ele></trkpt>
   <trkpt lat="55.557139" lon="12.957438"><ele>9.25</ele></trkpt>
   <trkpt lat="55.557313" lon="12.957694"><ele>9.25</ele></trkpt>
   <trkpt lat="55.557556" lon="12.958083"><ele>9</ele></trkpt>
   <trkpt lat="55.55767" lon="12.958292"><ele>9</ele></trkpt>
   <trkpt lat="55.557913" lon="12.958761"><ele>9.75</ele></trkpt>
   <trkpt lat="55.558034" lon="12.959024"><ele>9.75</ele></trkpt>
   <trkpt lat="55.558266" lon="12.959572"><ele>10.25</ele></trkpt>
   <trkpt lat="55.558488" lon="12.960186"><ele>11.25</ele></trkpt>
   <trkpt lat="55.55857" lon="12.960449"><ele>11.5</ele></trkpt>
   <trkpt lat="55.558744" lon="12.961101"><ele>12.5</ele></trkpt>
   <trkpt lat="55.558876" lon="12.961636"><ele>13.5</ele></trkpt>
   <trkpt lat="55.558901" lon="12.961734"><ele>13.5</ele></trkpt>
   <trkpt lat="55.559014" lon="12.962285"><ele>13.75</ele></trkpt>
   <trkpt lat="55.559176" lon="12.963237"><ele>14</ele></trkpt>
   <trkpt lat="55.559177" lon="12.963247"><ele>14</ele></trkpt>
   <trkpt lat="55.559279" lon="12.963888"><ele>14</ele></trkpt>
   <trkpt lat="55.559418" lon="12.964723"><ele>13.25</ele></trkpt>
   <trkpt lat="55.559496" lon="12.965145"><ele>13</ele></trkpt>
   <trkpt lat="55.559579" lon="12.965566"><ele>13</ele></trkpt>
   <trkpt lat="55.559714" lon="12.966185"><ele>13</ele></trkpt>
   <trkpt lat="55.559861" lon="12.966787"><ele>13</ele></trkpt>
   <trkpt lat="55.560138" lon="12.967794"><ele>14</ele></trkpt>
   <trkpt lat="55.560183" lon="12.967944"><ele>14.25</ele></trkpt>
   <trkpt lat="55.560191" lon="12.967974"><ele>14.25</ele></trkpt>
   <trkpt lat="55.560251" lon="12.968171"><ele>14.5</ele></trkpt>
   <trkpt lat="55.56058" lon="12.969294"><ele>14.5</ele></trkpt>
   <trkpt lat="55.560599" lon="12.969356"><ele>14.5</ele></trkpt>
   <trkpt lat="55.560643" lon="12.969504"><ele>14.75</ele></trkpt>
   <trkpt lat="55.560806" lon="12.969985"><ele>15.75</ele></trkpt>
   <trkpt lat="55.560968" lon="12.970451"><ele>16.25</ele></trkpt>
   <trkpt lat="55.56102" lon="12.970631"><ele>16.5</ele></trkpt>
   <trkpt lat="55.561066" lon="12.970786"><ele>16.5</ele></trkpt>
   <trkpt lat="55.561193" lon="12.971199"><ele>17.25</ele></trkpt>
   <trkpt lat="55.561333" lon="12.971612"><ele>17.5</ele></trkpt>
   <trkpt lat="55.561662" lon="12.972461"><ele>17</ele></trkpt>
   <trkpt lat="55.561937" lon="12.973213"><ele>18.5</ele></trkpt>
   <trkpt lat="55.56206" lon="12.973562"><ele>19</ele></trkpt>
   <trkpt lat="55.56211" lon="12.973698"><ele>19.25</ele></trkpt>
   <trkpt lat="55.562301" lon="12.974236"><ele>19.75</ele></trkpt>
   <trkpt lat="55.562522" lon="12.974831"><ele>19.75</ele></trkpt>
   <trkpt lat="55.562879" lon="12.975702"><ele>20</ele></trkpt>
   <trkpt lat="55.563052" lon="12.976128"><ele>20.25</ele></trkpt>
   <trkpt lat="55.563062" lon="12.976154"><ele>20.25</ele></trkpt>
   <trkpt lat="55.563475" lon="12.977179"><ele>20.75</ele></trkpt>
   <trkpt lat="55.563695" lon="12.977687"><ele>20.75</ele></trkpt>
   <trkpt lat="55.564056" lon="12.978487"><ele>21</ele></trkpt>
   <trkpt lat="55.564092" lon="12.978571"><ele>21</ele></trkpt>
   <trkpt lat="55.564306" lon="12.979026"><ele>21</ele></trkpt>
   <trkpt lat="55.56474" lon="12.979901"><ele>20</ele></trkpt>
   <trkpt lat="55.564915" lon="12.980232"><ele>19.5</ele></trkpt>
   <trkpt lat="55.565213" lon="12.980764"><ele>18.75</ele></trkpt>
   <trkpt lat="55.565484" lon="12.981227"><ele>17.5</ele></trkpt>
   <trkpt lat="55.565836" lon="12.98179"><ele>17</ele></trkpt>
   <trkpt lat="55.566253" lon="12.982403"><ele>17</ele></trkpt>
   <trkpt lat="55.566546" lon="12.982804"><ele>17.25</ele></trkpt>
   <trkpt lat="55.566907" lon="12.98327"><ele>17.5</ele></trkpt>
   <trkpt lat="55.567446" lon="12.983916"><ele>17.5</ele></trkpt>
   <trkpt lat="55.56763" lon="12.984115"/>
   <trkpt lat="55.568968" lon="12.9855"/>
   <trkpt lat="55.568976" lon="12.985509"/>
   <trkpt lat="55.569794" lon="12.986355"/>
   <trkpt lat="55.572373" lon="12.989069"/>
   <trkpt lat="55.572913" lon="12.989633"/>
   <trkpt lat="55.57655" lon="12.993462"/>
   <trkpt lat="55.580469" lon="12.997593"/>
   <trkpt lat="55.580864" lon="12.99801"/>
   <trkpt lat="55.582232" lon="12.999449"/>
   <trkpt lat="55.582986" lon="13.000243"/>
   <trkpt lat="55.58358" lon="13.000738"/>
   <trkpt lat="55.584798" lon="13.001752"/>
   <trkpt lat="55.585253" lon="13.002035"/>
   <trkpt lat="55.585608" lon="13.002213"/>
   <trkpt lat="55.586231" lon="13.002416"/>
   <trkpt lat="55.586715" lon="13.002512"/>
   <trkpt lat="55.587514" lon="13.002537"/>
   <trkpt lat="55.588314" lon="13.002515"/>
   <trkpt lat="55.588643" lon="13.002489"/>
   <trkpt lat="55.589265" lon="13.002441"/>
   <trkpt lat="55.590119" lon="13.00238"/>
   <trkpt lat="55.59057" lon="13.002277"/>
   <trkpt lat="55.591262" lon="13.00205"/>
   <trkpt lat="55.591498" lon="13.001958"/>
   <trkpt lat="55.591536" lon="13.001946"/>
   <trkpt lat="55.591815" lon="13.00183"/>
   <trkpt lat="55.593273" lon="13.000938"/>
   <trkpt lat="55.593907" lon="13.000537"/>
   <trkpt lat="55.593923" lon="13.000527"/>
   <trkpt lat="55.594524" lon="13.000153"/>
   <trkpt lat="55.594711" lon="13.00002"/>
   <trkpt lat="55.594892" lon="12.999848"/>
   <trkpt lat="55.595536" lon="12.999073"/>
   <trkpt lat="55.595869" lon="12.998584"/>
   <trkpt lat="55.596406" lon="12.997857"/>
   <trkpt lat="55.59683" lon="12.997235"/>
   <trkpt lat="55.597192" lon="12.996664"/>
   <trkpt lat="55.598476" lon="12.994563"/>
   <trkpt lat="55.59896" lon="12.993785"/>
   <trkpt lat="55.599826" lon="12.99228"/>
   <trkpt lat="55.600248" lon="12.991508"/>
   <trkpt lat="55.600626" lon="12.990934"/>
   <trkpt lat="55.60082" lon="12.990721"/>
   <trkpt lat="55.601014" lon="12.990562"/>
   <trkpt lat="55.60202" lon="12.989966"/>
   <trkpt lat="55.602292" lon="12.989825"/>
   <trkpt lat="55.602596" lon="12.989701"/>
   <trkpt lat="55.602937" lon="12.989622"/>
   <trkpt lat="55.603442" lon="12.989603"/>
   <trkpt lat="55.604226" lon="12.989722"/>
   <trkpt lat="55.604409" lon="12.98976"/>
   <trkpt lat="55.604962" lon="12.98996"/>
   <trkpt lat="55.605439" lon="12.99026"/>
   <trkpt lat="55.605856" lon="12.990591"/>
   <trkpt lat="55.606249" lon="12.991067"/>
   <trkpt lat="55.606485" lon="12.99138"/>
   <trkpt lat="55.607069" lon="12.992171"/>
   <trkpt lat="55.607174" lon="12.992338"/>
   <trkpt lat="55.607475" lon="12.992779"/>
   <trkpt lat="55.60776" lon="12.993309"/>
   <trkpt lat="55.607987" lon="12.993945"/>
   <trkpt lat="55.608188" lon="12.994511"/>
   <trkpt lat="55.608201" lon="12.994546"/>
   <trkpt lat="55.608673" lon="12.995902"/>
   <trkpt lat="55.608803" lon="12.996387"/>
   <trkpt lat="55.608625" lon="12.995965"/>
   <trkpt lat="55.608183" lon="12.994706"/>
   <trkpt lat="55.608339" lon="12.99526"/>
   <trkpt lat="55.608874" lon="12.99695"/>
   <trkpt lat="55.609062" lon="12.997677"/>
   <trkpt lat="55.609089" lon="12.997787"/>
   <trkpt lat="55.609226" lon="12.998388"/>
   <trkpt lat="55.609489" lon="12.999826"/>
   <trkpt lat="55.609591" lon="13.000471"/>
   <trkpt lat="55.609592" lon="13.00048"/>
   <trkpt lat="55.609656" lon="13.000889"/>
   <trkpt lat="55.609823" lon="13.001949"/>
   <trkpt lat="55.609891" lon="13.00241"/>
  </trkseg>
 </trk>
</gpx>