<?xml version="1.0" encoding="UTF-8"?>
<!-- track-length = 123515 filtered ascend = 89 plain-ascend = -42 cost=123530 energy=1.5kwh time=2h 44m 42s -->
<gpx 
 xmlns="http://www.topografix.com/GPX/1/1" 
 xmlns:xsi="http://www.w3.org/2001/XMLSchema-instance" 
 xsi:schemaLocation="http://www.topografix.com/GPX/1/1 http://www.topografix.com/GPX/1/1/gpx.xsd" 
 version="1.1" 
 creator="BRouter-Web 0.18.1">
 <trk>
  <name>zeithaingrobeeren2</name>
  <trkseg>
   <trkpt lat="51.327035" lon="13.334502"><ele>97</ele></trkpt>
   <trkpt lat="51.327013" lon="13.334204"><ele>97</ele></trkpt>
   <trkpt lat="51.326901" lon="13.33293"><ele>97.25</ele></trkpt>
   <trkpt lat="51.32687" lon="13.332591"><ele>97.5</ele></trkpt>
   <trkpt lat="51.326782" lon="13.331641"><ele>98</ele></trkpt>
   <trkpt lat="51.326772" lon="13.331513"><ele>98</ele></trkpt>
   <trkpt lat="51.326766" lon="13.33143"><ele>97.75</ele></trkpt>
   <trkpt lat="51.326693" lon="13.33064"><ele>97</ele></trkpt>
   <trkpt lat="51.326663" lon="13.330148"><ele>96.75</ele></trkpt>
   <trkpt lat="51.326644" lon="13.329264"><ele>97</ele></trkpt>
   <trkpt lat="51.326633" lon="13.328658"><ele>97</ele></trkpt>
   <trkpt lat="51.32663" lon="13.327792"><ele>97.5</ele></trkpt>
   <trkpt lat="51.326635" lon="13.327563"><ele>97.75</ele></trkpt>
   <trkpt lat="51.326667" lon="13.326981"><ele>97.75</ele></trkpt>
   <trkpt lat="51.326701" lon="13.32654"><ele>97.75</ele></trkpt>
   <trkpt lat="51.326707" lon="13.326489"><ele>97.75</ele></trkpt>
   <trkpt lat="51.326795" lon="13.325685"><ele>97.5</ele></trkpt>
   <trkpt lat="51.326855" lon="13.325259"><ele>97.5</ele></trkpt>
   <trkpt lat="51.326935" lon="13.324807"><ele>97.25</ele></trkpt>
   <trkpt lat="51.327043" lon="13.324258"><ele>97.25</ele></trkpt>
   <trkpt lat="51.327108" lon="13.323982"><ele>97.5</ele></trkpt>
   <trkpt lat="51.327158" lon="13.32378"><ele>97.5</ele></trkpt>
   <trkpt lat="51.327251" lon="13.323441"><ele>97.75</ele></trkpt>
   <trkpt lat="51.327302" lon="13.32327"><ele>98</ele></trkpt>
   <trkpt lat="51.32733" lon="13.32318"><ele>98</ele></trkpt>
   <trkpt lat="51.327437" lon="13.32284"><ele>98.5</ele></trkpt>
   <trkpt lat="51.327573" lon="13.322449"><ele>98.75</ele></trkpt>
   <trkpt lat="51.327652" lon="13.322229"><ele>98.75</ele></trkpt>
   <trkpt lat="51.327798" lon="13.321847"><ele>98.5</ele></trkpt>
   <trkpt lat="51.32794" lon="13.321519"><ele>98.25</ele></trkpt>
   <trkpt lat="51.328103" lon="13.321177"><ele>97.5</ele></trkpt>
   <trkpt lat="51.328338" lon="13.320722"><ele>97</ele></trkpt>
   <trkpt lat="51.328383" lon="13.320649"><ele>97</ele></trkpt>
   <trkpt lat="51.328507" lon="13.320438"><ele>97.5</ele></trkpt>
   <trkpt lat="51.32868" lon="13.320198"><ele>98</ele></trkpt>
   <trkpt lat="51.328819" lon="13.320011"><ele>98.5</ele></trkpt>
   <trkpt lat="51.328965" lon="13.319838"><ele>99</ele></trkpt>
   <trkpt lat="51.329495" lon="13.319253"><ele>98.75</ele></trkpt>
   <trkpt lat="51.32969" lon="13.319052"><ele>98</ele></trkpt>
   <trkpt lat="51.330062" lon="13.318685"><ele>97.25</ele></trkpt>
   <trkpt lat="51.330326" lon="13.318453"><ele>97.25</ele></trkpt>
   <trkpt lat="51.330496" lon="13.318312"><ele>97.5</ele></trkpt>
   <trkpt lat="51.33095" lon="13.317983"><ele>98.25</ele></trkpt>
   <trkpt lat="51.332499" lon="13.316964"><ele>96</ele></trkpt>
   <trkpt lat="51.332832" lon="13.316776"><ele>95.5</ele></trkpt>
   <trkpt lat="51.333116" lon="13.316615"><ele>95.25</ele></trkpt>
   <trkpt lat="51.333364" lon="13.316486"><ele>94.75</ele></trkpt>
   <trkpt lat="51.333673" lon="13.316339"><ele>94.25</ele></trkpt>
   <trkpt lat="51.33452" lon="13.316003"><ele>94</ele></trkpt>
   <trkpt lat="51.334916" lon="13.315869"><ele>94.75</ele></trkpt>
   <trkpt lat="51.335528" lon="13.315721"><ele>94.75</ele></trkpt>
   <trkpt lat="51.335691" lon="13.315684"><ele>94.75</ele></trkpt>
   <trkpt lat="51.335847" lon="13.315655"><ele>95</ele></trkpt>
   <trkpt lat="51.335877" lon="13.31565"><ele>95</ele></trkpt>
   <trkpt lat="51.336345" lon="13.315603"><ele>95.25</ele></trkpt>
   <trkpt lat="51.336683" lon="13.315583"><ele>95.5</ele></trkpt>
   <trkpt lat="51.336703" lon="13.315583"><ele>95.5</ele></trkpt>
   <trkpt lat="51.336772" lon="13.315581"><ele>95.5</ele></trkpt>
   <trkpt lat="51.336903" lon="13.31558"><ele>95.75</ele></trkpt>
   <trkpt lat="51.336995" lon="13.315581"><ele>95.75</ele></trkpt>
   <trkpt lat="51.337029" lon="13.315583"><ele>95.75</ele></trkpt>
   <trkpt lat="51.33722" lon="13.315592"><ele>95.75</ele></trkpt>
   <trkpt lat="51.337553" lon="13.315627"><ele>96</ele></trkpt>
   <trkpt lat="51.337566" lon="13.315628"><ele>96</ele></trkpt>
   <trkpt lat="51.337733" lon="13.315652"><ele>96</ele></trkpt>
   <trkpt lat="51.338118" lon="13.31573"><ele>96</ele></trkpt>
   <trkpt lat="51.338494" lon="13.315821"><ele>95.75</ele></trkpt>
   <trkpt lat="51.338581" lon="13.315846"><ele>95.5</ele></trkpt>
   <trkpt lat="51.338985" lon="13.315982"><ele>95</ele></trkpt>
   <trkpt lat="51.339371" lon="13.31613"><ele>95</ele></trkpt>
   <trkpt lat="51.340991" lon="13.316886"><ele>95.5</ele></trkpt>
   <trkpt lat="51.341667" lon="13.3172"><ele>96.25</ele></trkpt>
   <trkpt lat="51.342259" lon="13.317442"><ele>96</ele></trkpt>
   <trkpt lat="51.342807" lon="13.317625"><ele>96</ele></trkpt>
   <trkpt lat="51.343274" lon="13.317747"><ele>96.25</ele></trkpt>
   <trkpt lat="51.343415" lon="13.317776"><ele>96.25</ele></trkpt>
   <trkpt lat="51.343876" lon="13.317848"><ele>96</ele></trkpt>
   <trkpt lat="51.343976" lon="13.317857"><ele>96</ele></trkpt>
   <trkpt lat="51.344097" lon="13.317869"><ele>96</ele></trkpt>
   <trkpt lat="51.34454" lon="13.317886"><ele>96</ele></trkpt>
   <trkpt lat="51.344912" lon="13.317883"><ele>96.25</ele></trkpt>
   <trkpt lat="51.345293" lon="13.317864"><ele>96</ele></trkpt>
   <trkpt lat="51.345881" lon="13.317783"><ele>94.75</ele></trkpt>
   <trkpt lat="51.346795" lon="13.317649"><ele>95</ele></trkpt>
   <trkpt lat="51.347691" lon="13.31753"><ele>96</ele></trkpt>
   <trkpt lat="51.347692" lon="13.31753"><ele>96</ele></trkpt>
   <trkpt lat="51.347702" lon="13.317528"><ele>96</ele></trkpt>
   <trkpt lat="51.347706" lon="13.317528"><ele>96</ele></trkpt>
   <trkpt lat="51.347714" lon="13.317527"><ele>96</ele></trkpt>
   <trkpt lat="51.347715" lon="13.317526"><ele>96</ele></trkpt>
   <trkpt lat="51.348002" lon="13.317484"><ele>95.75</ele></trkpt>
   <trkpt lat="51.349357" lon="13.317276"><ele>97.25</ele></trkpt>
   <trkpt lat="51.351268" lon="13.316987"><ele>98.25</ele></trkpt>
   <trkpt lat="51.352389" lon="13.316815"><ele>101.75</ele></trkpt>
   <trkpt lat="51.353201" lon="13.316692"><ele>102</ele></trkpt>
   <trkpt lat="51.355114" lon="13.316397"><ele>97.25</ele></trkpt>
   <trkpt lat="51.356392" lon="13.316203"><ele>96.5</ele></trkpt>
   <trkpt lat="51.358297" lon="13.315912"><ele>94</ele></trkpt>
   <trkpt lat="51.360026" lon="13.315651"><ele>94</ele></trkpt>
   <trkpt lat="51.361935" lon="13.315354"><ele>94.5</ele></trkpt>
   <trkpt lat="51.363122" lon="13.315179"><ele>94.5</ele></trkpt>
   <trkpt lat="51.363926" lon="13.31506"><ele>95</ele></trkpt>
   <trkpt lat="51.365974" lon="13.314751"><ele>96.25</ele></trkpt>
   <trkpt lat="51.367283" lon="13.314551"><ele>95.5</ele></trkpt>
   <trkpt lat="51.369411" lon="13.314225"><ele>96</ele></trkpt>
   <trkpt lat="51.371018" lon="13.313979"><ele>97.75</ele></trkpt>
   <trkpt lat="51.372477" lon="13.313768"><ele>98</ele></trkpt>
   <trkpt lat="51.372869" lon="13.313712"><ele>97.75</ele></trkpt>
   <trkpt lat="51.374768" lon="13.313438"><ele>95.75</ele></trkpt>
   <trkpt lat="51.375294" lon="13.313362"><ele>95.5</ele></trkpt>
   <trkpt lat="51.376598" lon="13.313157"><ele>94</ele></trkpt>
   <trkpt lat="51.378093" lon="13.312904"><ele>94.25</ele></trkpt>
   <trkpt lat="51.378441" lon="13.312882"><ele>94.25</ele></trkpt>
   <trkpt lat="51.38003" lon="13.312615"><ele>92.75</ele></trkpt>
   <trkpt lat="51.381715" lon="13.312357"><ele>91</ele></trkpt>
   <trkpt lat="51.382076" lon="13.312293"><ele>91</ele></trkpt>
   <trkpt lat="51.383405" lon="13.31209"><ele>91</ele></trkpt>
   <trkpt lat="51.385363" lon="13.311794"><ele>92</ele></trkpt>
   <trkpt lat="51.387254" lon="13.311503"><ele>93.5</ele></trkpt>
   <trkpt lat="51.388588" lon="13.311313"><ele>95.25</ele></trkpt>
   <trkpt lat="51.390633" lon="13.311004"><ele>95.5</ele></trkpt>
   <trkpt lat="51.392366" lon="13.310741"><ele>98.75</ele></trkpt>
   <trkpt lat="51.394144" lon="13.310471"><ele>99.25</ele></trkpt>
   <trkpt lat="51.396191" lon="13.310159"><ele>99.75</ele></trkpt>
   <trkpt lat="51.397532" lon="13.309956"><ele>98</ele></trkpt>
   <trkpt lat="51.399538" lon="13.30965"><ele>97.5</ele></trkpt>
   <trkpt lat="51.401474" lon="13.309356"><ele>94.5</ele></trkpt>
   <trkpt lat="51.403229" lon="13.309089"><ele>94.25</ele></trkpt>
   <trkpt lat="51.404994" lon="13.308821"><ele>94.25</ele></trkpt>
   <trkpt lat="51.407033" lon="13.30851"><ele>95.75</ele></trkpt>
   <trkpt lat="51.408385" lon="13.308304"><ele>94</ele></trkpt>
   <trkpt lat="51.410278" lon="13.308016"><ele>96.5</ele></trkpt>
   <trkpt lat="51.414067" lon="13.307439"><ele>95.25</ele></trkpt>
   <trkpt lat="51.415827" lon="13.307173"><ele>96.75</ele></trkpt>
   <trkpt lat="51.417184" lon="13.306967"><ele>95.5</ele></trkpt>
   <trkpt lat="51.419225" lon="13.30666"><ele>94.75</ele></trkpt>
   <trkpt lat="51.422807" lon="13.306116"><ele>92.25</ele></trkpt>
   <trkpt lat="51.424604" lon="13.305843"><ele>91</ele></trkpt>
   <trkpt lat="51.426406" lon="13.30557"><ele>92</ele></trkpt>
   <trkpt lat="51.428252" lon="13.30529"><ele>92</ele></trkpt>
   <trkpt lat="51.430289" lon="13.304983"><ele>91.5</ele></trkpt>
   <trkpt lat="51.431547" lon="13.304793"><ele>91</ele></trkpt>
   <trkpt lat="51.433523" lon="13.304494"><ele>91.5</ele></trkpt>
   <trkpt lat="51.435446" lon="13.304204"><ele>93.5</ele></trkpt>
   <trkpt lat="51.436709" lon="13.304013"><ele>92</ele></trkpt>
   <trkpt lat="51.437101" lon="13.303957"><ele>92.5</ele></trkpt>
   <trkpt lat="51.438875" lon="13.303686"><ele>92.25</ele></trkpt>
   <trkpt lat="51.440714" lon="13.303399"><ele>92</ele></trkpt>
   <trkpt lat="51.442753" lon="13.303071"><ele>92.25</ele></trkpt>
   <trkpt lat="51.443128" lon="13.303011"><ele>92.25</ele></trkpt>
   <trkpt lat="51.443844" lon="13.302857"><ele>93.5</ele></trkpt>
   <trkpt lat="51.444039" lon="13.302807"><ele>94</ele></trkpt>
   <trkpt lat="51.444087" lon="13.302794"><ele>94</ele></trkpt>
   <trkpt lat="51.44444" lon="13.302703"><ele>93.25</ele></trkpt>
   <trkpt lat="51.44498" lon="13.302538"><ele>91</ele></trkpt>
   <trkpt lat="51.446042" lon="13.30216"><ele>91</ele></trkpt>
   <trkpt lat="51.447683" lon="13.301517"><ele>92.25</ele></trkpt>
   <trkpt lat="51.448006" lon="13.30139"><ele>93</ele></trkpt>
   <trkpt lat="51.449394" lon="13.300844"><ele>96.25</ele></trkpt>
   <trkpt lat="51.451301" lon="13.300093"><ele>93.75</ele></trkpt>
   <trkpt lat="51.45306" lon="13.299399"><ele>92.25</ele></trkpt>
   <trkpt lat="51.454778" lon="13.298734"><ele>90.75</ele></trkpt>
   <trkpt lat="51.454895" lon="13.29869"><ele>90.75</ele></trkpt>
   <trkpt lat="51.456442" lon="13.298069"><ele>90.25</ele></trkpt>
   <trkpt lat="51.45677" lon="13.297944"><ele>90.25</ele></trkpt>
   <trkpt lat="51.457988" lon="13.297463"><ele>90</ele></trkpt>
   <trkpt lat="51.458998" lon="13.297072"><ele>90</ele></trkpt>
   <trkpt lat="51.461638" lon="13.29603"><ele>90</ele></trkpt>
   <trkpt lat="51.467245" lon="13.293829"><ele>90.5</ele></trkpt>
   <trkpt lat="51.467953" lon="13.293548"><ele>90.5</ele></trkpt>
   <trkpt lat="51.468129" lon="13.293478"><ele>90.25</ele></trkpt>
   <trkpt lat="51.468401" lon="13.293377"><ele>90</ele></trkpt>
   <trkpt lat="51.469084" lon="13.293101"><ele>90.5</ele></trkpt>
   <trkpt lat="51.469499" lon="13.292934"><ele>90.5</ele></trkpt>
   <trkpt lat="51.469556" lon="13.292911"><ele>90.25</ele></trkpt>
   <trkpt lat="51.469618" lon="13.292887"><ele>90.25</ele></trkpt>
   <trkpt lat="51.470319" lon="13.292612"><ele>89.25</ele></trkpt>
   <trkpt lat="51.471975" lon="13.291963"><ele>88</ele></trkpt>
   <trkpt lat="51.472338" lon="13.29182"><ele>88</ele></trkpt>
   <trkpt lat="51.473824" lon="13.291238"><ele>91.75</ele></trkpt>
   <trkpt lat="51.475701" lon="13.290503"><ele>91.5</ele></trkpt>
   <trkpt lat="51.477691" lon="13.28972"><ele>91.75</ele></trkpt>
   <trkpt lat="51.479558" lon="13.288985"><ele>95.25</ele></trkpt>
   <trkpt lat="51.480859" lon="13.288472"><ele>94.5</ele></trkpt>
   <trkpt lat="51.48138" lon="13.288266"><ele>95.25</ele></trkpt>
   <trkpt lat="51.483085" lon="13.287594"><ele>94</ele></trkpt>
   <trkpt lat="51.484833" lon="13.286906"><ele>92</ele></trkpt>
   <trkpt lat="51.486091" lon="13.28641"><ele>94.5</ele></trkpt>
   <trkpt lat="51.48793" lon="13.285685"><ele>91</ele></trkpt>
   <trkpt lat="51.489089" lon="13.285228"><ele>91</ele></trkpt>
   <trkpt lat="51.489802" lon="13.284947"><ele>90.25</ele></trkpt>
   <trkpt lat="51.491637" lon="13.284224"><ele>89.75</ele></trkpt>
   <trkpt lat="51.493321" lon="13.28356"><ele>92.25</ele></trkpt>
   <trkpt lat="51.495078" lon="13.282868"><ele>90</ele></trkpt>
   <trkpt lat="51.496909" lon="13.282153"><ele>87.5</ele></trkpt>
   <trkpt lat="51.497821" lon="13.281787"><ele>87.25</ele></trkpt>
   <trkpt lat="51.498174" lon="13.281648"><ele>87.75</ele></trkpt>
   <trkpt lat="51.498902" lon="13.281361"><ele>88.25</ele></trkpt>
   <trkpt lat="51.499132" lon="13.28127"><ele>88.25</ele></trkpt>
   <trkpt lat="51.499275" lon="13.281213"><ele>88.25</ele></trkpt>
   <trkpt lat="51.499931" lon="13.280953"><ele>88</ele></trkpt>
   <trkpt lat="51.501579" lon="13.280299"><ele>87</ele></trkpt>
   <trkpt lat="51.501708" lon="13.280248"><ele>87</ele></trkpt>
   <trkpt lat="51.50528" lon="13.278847"><ele>87</ele></trkpt>
   <trkpt lat="51.507253" lon="13.27807"><ele>87.25</ele></trkpt>
   <trkpt lat="51.509217" lon="13.277296"><ele>87</ele></trkpt>
   <trkpt lat="51.509378" lon="13.277232"><ele>87</ele></trkpt>
   <trkpt lat="51.51048" lon="13.276804"><ele>87</ele></trkpt>
   <trkpt lat="51.51236" lon="13.276062"><ele>86</ele></trkpt>
   <trkpt lat="51.513084" lon="13.275777"><ele>86.5</ele></trkpt>
   <trkpt lat="51.514192" lon="13.27534"><ele>88.25</ele></trkpt>
   <trkpt lat="51.514232" lon="13.275324"><ele>88.5</ele></trkpt>
   <trkpt lat="51.515779" lon="13.274714"><ele>88.25</ele></trkpt>
   <trkpt lat="51.515878" lon="13.274675"><ele>88</ele></trkpt>
   <trkpt lat="51.517799" lon="13.273922"><ele>87</ele></trkpt>
   <trkpt lat="51.519608" lon="13.273207"><ele>85.5</ele></trkpt>
   <trkpt lat="51.521451" lon="13.272479"><ele>86.5</ele></trkpt>
   <trkpt lat="51.522658" lon="13.272002"><ele>86</ele></trkpt>
   <trkpt lat="51.524738" lon="13.271181"><ele>85.75</ele></trkpt>
   <trkpt lat="51.524802" lon="13.271155"><ele>85.75</ele></trkpt>
   <trkpt lat="51.524856" lon="13.271134"><ele>85.75</ele></trkpt>
   <trkpt lat="51.526679" lon="13.270414"><ele>87</ele></trkpt>
   <trkpt lat="51.527946" lon="13.269913"><ele>90</ele></trkpt>
   <trkpt lat="51.52828" lon="13.269781"><ele>90.75</ele></trkpt>
   <trkpt lat="51.529725" lon="13.26921"><ele>89.5</ele></trkpt>
   <trkpt lat="51.531567" lon="13.268481"><ele>89.75</ele></trkpt>
   <trkpt lat="51.532418" lon="13.268145"><ele>87</ele></trkpt>
   <trkpt lat="51.533305" lon="13.267794"><ele>86</ele></trkpt>
   <trkpt lat="51.533366" lon="13.26777"><ele>86</ele></trkpt>
   <trkpt lat="51.534477" lon="13.267331"><ele>85.75</ele></trkpt>
   <trkpt lat="51.535097" lon="13.26709"><ele>85.5</ele></trkpt>
   <trkpt lat="51.536067" lon="13.266722"><ele>85</ele></trkpt>
   <trkpt lat="51.536737" lon="13.266468"><ele>85.25</ele></trkpt>
   <trkpt lat="51.53865" lon="13.265685"><ele>87.25</ele></trkpt>
   <trkpt lat="51.539395" lon="13.265399"><ele>86.75</ele></trkpt>
   <trkpt lat="51.54057" lon="13.264936"><ele>88.25</ele></trkpt>
   <trkpt lat="51.542449" lon="13.264196"><ele>92.75</ele></trkpt>
   <trkpt lat="51.543307" lon="13.263863"><ele>89.75</ele></trkpt>
   <trkpt lat="51.544072" lon="13.263553"><ele>90.75</ele></trkpt>
   <trkpt lat="51.545139" lon="13.263136"><ele>91</ele></trkpt>
   <trkpt lat="51.54738" lon="13.262258"><ele>93.5</ele></trkpt>
   <trkpt lat="51.548156" lon="13.261954"><ele>94.5</ele></trkpt>
   <trkpt lat="51.549353" lon="13.261486"><ele>93.25</ele></trkpt>
   <trkpt lat="51.550642" lon="13.260978"><ele>91.5</ele></trkpt>
   <trkpt lat="51.552047" lon="13.26042"><ele>91.75</ele></trkpt>
   <trkpt lat="51.552618" lon="13.260194"><ele>90.25</ele></trkpt>
   <trkpt lat="51.554299" lon="13.259527"><ele>86.75</ele></trkpt>
   <trkpt lat="51.554328" lon="13.259516"><ele>86.75</ele></trkpt>
   <trkpt lat="51.554409" lon="13.259484"><ele>86.75</ele></trkpt>
   <trkpt lat="51.556215" lon="13.258771"><ele>85</ele></trkpt>
   <trkpt lat="51.557143" lon="13.258409"><ele>85.25</ele></trkpt>
   <trkpt lat="51.557223" lon="13.258378"><ele>85.25</ele></trkpt>
   <trkpt lat="51.557945" lon="13.258093"><ele>85.25</ele></trkpt>
   <trkpt lat="51.558189" lon="13.257995"><ele>85.25</ele></trkpt>
   <trkpt lat="51.559741" lon="13.257375"><ele>85.5</ele></trkpt>
   <trkpt lat="51.561718" lon="13.256584"><ele>85</ele></trkpt>
   <trkpt lat="51.56288" lon="13.256119"><ele>84.75</ele></trkpt>
   <trkpt lat="51.563092" lon="13.256043"><ele>84.75</ele></trkpt>
   <trkpt lat="51.563134" lon="13.256027"><ele>84.75</ele></trkpt>
   <trkpt lat="51.563395" lon="13.255925"><ele>84.75</ele></trkpt>
   <trkpt lat="51.564598" lon="13.255453"><ele>85</ele></trkpt>
   <trkpt lat="51.566338" lon="13.254765"><ele>85.25</ele></trkpt>
   <trkpt lat="51.568158" lon="13.254042"><ele>87</ele></trkpt>
   <trkpt lat="51.569905" lon="13.253347"><ele>85</ele></trkpt>
   <trkpt lat="51.57172" lon="13.252623"><ele>86.75</ele></trkpt>
   <trkpt lat="51.57178" lon="13.2526"><ele>86.75</ele></trkpt>
   <trkpt lat="51.571831" lon="13.252579"><ele>86.75</ele></trkpt>
   <trkpt lat="51.572458" lon="13.25233"><ele>87</ele></trkpt>
   <trkpt lat="51.57248" lon="13.252321"><ele>87</ele></trkpt>
   <trkpt lat="51.572602" lon="13.252274"><ele>86.75</ele></trkpt>
   <trkpt lat="51.572809" lon="13.252178"><ele>86.5</ele></trkpt>
   <trkpt lat="51.573557" lon="13.251839"><ele>86.25</ele></trkpt>
   <trkpt lat="51.573854" lon="13.251712"><ele>86.5</ele></trkpt>
   <trkpt lat="51.575359" lon="13.251028"><ele>85</ele></trkpt>
   <trkpt lat="51.576997" lon="13.25028"><ele>85.75</ele></trkpt>
   <trkpt lat="51.577961" lon="13.249846"><ele>85.75</ele></trkpt>
   <trkpt lat="51.578437" lon="13.249638"><ele>85.25</ele></trkpt>
   <trkpt lat="51.578549" lon="13.249587"><ele>85.25</ele></trkpt>
   <trkpt lat="51.578798" lon="13.249476"><ele>85.25</ele></trkpt>
   <trkpt lat="51.58052" lon="13.248692"><ele>86</ele></trkpt>
   <trkpt lat="51.580631" lon="13.248643"><ele>86</ele></trkpt>
   <trkpt lat="51.581097" lon="13.248431"><ele>86</ele></trkpt>
   <trkpt lat="51.581609" lon="13.248196"><ele>86</ele></trkpt>
   <trkpt lat="51.582291" lon="13.247882"><ele>87</ele></trkpt>
   <trkpt lat="51.582453" lon="13.24781"><ele>87.25</ele></trkpt>
   <trkpt lat="51.583355" lon="13.2474"><ele>88.75</ele></trkpt>
   <trkpt lat="51.584236" lon="13.246998"><ele>86</ele></trkpt>
   <trkpt lat="51.585855" lon="13.246261"><ele>85.25</ele></trkpt>
   <trkpt lat="51.586276" lon="13.246067"><ele>85.5</ele></trkpt>
   <trkpt lat="51.586479" lon="13.245978"><ele>85.75</ele></trkpt>
   <trkpt lat="51.587567" lon="13.24548"><ele>86.25</ele></trkpt>
   <trkpt lat="51.587682" lon="13.245427"><ele>86.25</ele></trkpt>
   <trkpt lat="51.588456" lon="13.245071"><ele>86</ele></trkpt>
   <trkpt lat="51.588554" lon="13.245026"><ele>86</ele></trkpt>
   <trkpt lat="51.589419" lon="13.244641"><ele>85.5</ele></trkpt>
   <trkpt lat="51.597098" lon="13.241144"><ele>83.25</ele></trkpt>
   <trkpt lat="51.59932" lon="13.240126"><ele>83</ele></trkpt>
   <trkpt lat="51.599864" lon="13.239879"><ele>82.75</ele></trkpt>
   <trkpt lat="51.599937" lon="13.239852"><ele>82.75</ele></trkpt>
   <trkpt lat="51.601199" lon="13.239263"><ele>84</ele></trkpt>
   <trkpt lat="51.601511" lon="13.239119"><ele>83.75</ele></trkpt>
   <trkpt lat="51.601539" lon="13.239107"><ele>83.75</ele></trkpt>
   <trkpt lat="51.602789" lon="13.238539"><ele>84.5</ele></trkpt>
   <trkpt lat="51.604592" lon="13.237723"><ele>87.5</ele></trkpt>
   <trkpt lat="51.604759" lon="13.23765"><ele>87.75</ele></trkpt>
   <trkpt lat="51.606103" lon="13.237017"><ele>89.25</ele></trkpt>
   <trkpt lat="51.606707" lon="13.236719"><ele>89.75</ele></trkpt>
   <trkpt lat="51.607506" lon="13.23634"><ele>89.25</ele></trkpt>
   <trkpt lat="51.607946" lon="13.236135"><ele>88</ele></trkpt>
   <trkpt lat="51.61042" lon="13.235007"><ele>88.25</ele></trkpt>
   <trkpt lat="51.610747" lon="13.234857"><ele>87.75</ele></trkpt>
   <trkpt lat="51.610845" lon="13.234813"><ele>87.75</ele></trkpt>
   <trkpt lat="51.611613" lon="13.234463"><ele>86</ele></trkpt>
   <trkpt lat="51.613271" lon="13.23369"><ele>87.25</ele></trkpt>
   <trkpt lat="51.613323" lon="13.233669"><ele>87.25</ele></trkpt>
   <trkpt lat="51.613367" lon="13.233652"><ele>87.25</ele></trkpt>
   <trkpt lat="51.615195" lon="13.232813"><ele>90.25</ele></trkpt>
   <trkpt lat="51.617077" lon="13.231949"><ele>88.75</ele></trkpt>
   <trkpt lat="51.618791" lon="13.231162"><ele>89.25</ele></trkpt>
   <trkpt lat="51.619981" lon="13.230665"><ele>90.75</ele></trkpt>
   <trkpt lat="51.621826" lon="13.229797"><ele>90</ele></trkpt>
   <trkpt lat="51.623431" lon="13.229075"><ele>83</ele></trkpt>
   <trkpt lat="51.62354" lon="13.229026"><ele>83</ele></trkpt>
   <trkpt lat="51.624221" lon="13.22871"><ele>83</ele></trkpt>
   <trkpt lat="51.625269" lon="13.228223"><ele>83.25</ele></trkpt>
   <trkpt lat="51.62607" lon="13.227878"><ele>83</ele></trkpt>
   <trkpt lat="51.626112" lon="13.227859"><ele>83</ele></trkpt>
   <trkpt lat="51.627255" lon="13.227326"><ele>82.5</ele></trkpt>
   <trkpt lat="51.628747" lon="13.22663"><ele>82.25</ele></trkpt>
   <trkpt lat="51.629217" lon="13.226423"><ele>82.5</ele></trkpt>
   <trkpt lat="51.630971" lon="13.225651"><ele>81.25</ele></trkpt>
   <trkpt lat="51.632145" lon="13.225134"><ele>82.25</ele></trkpt>
   <trkpt lat="51.633899" lon="13.224362"><ele>82</ele></trkpt>
   <trkpt lat="51.634152" lon="13.224238"><ele>82</ele></trkpt>
   <trkpt lat="51.63607" lon="13.223357"><ele>82.5</ele></trkpt>
   <trkpt lat="51.63735" lon="13.222775"><ele>82</ele></trkpt>
   <trkpt lat="51.637381" lon="13.222761"><ele>82</ele></trkpt>
   <trkpt lat="51.639324" lon="13.221866"><ele>82</ele></trkpt>
   <trkpt lat="51.641227" lon="13.221015"><ele>82</ele></trkpt>
   <trkpt lat="51.64246" lon="13.220444"><ele>85.5</ele></trkpt>
   <trkpt lat="51.644217" lon="13.21963"><ele>88</ele></trkpt>
   <trkpt lat="51.644353" lon="13.219567"><ele>87.75</ele></trkpt>
   <trkpt lat="51.646202" lon="13.218706"><ele>84</ele></trkpt>
   <trkpt lat="51.647932" lon="13.217907"><ele>81.5</ele></trkpt>
   <trkpt lat="51.648033" lon="13.21786"><ele>81.5</ele></trkpt>
   <trkpt lat="51.649959" lon="13.216972"><ele>81</ele></trkpt>
   <trkpt lat="51.650174" lon="13.21687"><ele>81</ele></trkpt>
   <trkpt lat="51.651208" lon="13.216398"><ele>81.25</ele></trkpt>
   <trkpt lat="51.65124" lon="13.216383"><ele>81.25</ele></trkpt>
   <trkpt lat="51.651505" lon="13.216262"><ele>81.25</ele></trkpt>
   <trkpt lat="51.653054" lon="13.215552"><ele>82</ele></trkpt>
   <trkpt lat="51.653331" lon="13.215425"><ele>82</ele></trkpt>
   <trkpt lat="51.654729" lon="13.214785"><ele>82.25</ele></trkpt>
   <trkpt lat="51.656693" lon="13.213884"><ele>82</ele></trkpt>
   <trkpt lat="51.658024" lon="13.213274"><ele>81.25</ele></trkpt>
   <trkpt lat="51.659969" lon="13.212382"><ele>82</ele></trkpt>
   <trkpt lat="51.661891" lon="13.211501"><ele>81.75</ele></trkpt>
   <trkpt lat="51.662239" lon="13.211357"><ele>81.5</ele></trkpt>
   <trkpt lat="51.663215" lon="13.210903"><ele>80</ele></trkpt>
   <trkpt lat="51.6636" lon="13.210724"><ele>80.25</ele></trkpt>
   <trkpt lat="51.664367" lon="13.210382"><ele>80.75</ele></trkpt>
   <trkpt lat="51.665335" lon="13.209935"><ele>80.25</ele></trkpt>
   <trkpt lat="51.666596" lon="13.209352"><ele>80.75</ele></trkpt>
   <trkpt lat="51.668502" lon="13.208487"><ele>81.75</ele></trkpt>
   <trkpt lat="51.670405" lon="13.207626"><ele>81</ele></trkpt>
   <trkpt lat="51.671099" lon="13.207312"><ele>80.25</ele></trkpt>
   <trkpt lat="51.67247" lon="13.206692"><ele>81.75</ele></trkpt>
   <trkpt lat="51.673069" lon="13.206421"><ele>81</ele></trkpt>
   <trkpt lat="51.67338" lon="13.206274"><ele>80.5</ele></trkpt>
   <trkpt lat="51.674107" lon="13.205935"><ele>80</ele></trkpt>
   <trkpt lat="51.674626" lon="13.205701"><ele>80.5</ele></trkpt>
   <trkpt lat="51.674729" lon="13.205655"><ele>80.5</ele></trkpt>
   <trkpt lat="51.67521" lon="13.205475"><ele>81.25</ele></trkpt>
   <trkpt lat="51.675808" lon="13.205203"><ele>82.5</ele></trkpt>
   <trkpt lat="51.676042" lon="13.20509"><ele>83</ele></trkpt>
   <trkpt lat="51.676647" lon="13.204674"><ele>83.5</ele></trkpt>
   <trkpt lat="51.677209" lon="13.204308"><ele>83.75</ele></trkpt>
   <trkpt lat="51.677498" lon="13.20413"><ele>83.75</ele></trkpt>
   <trkpt lat="51.678" lon="13.203797"><ele>83.75</ele></trkpt>
   <trkpt lat="51.679201" lon="13.202942"><ele>85.5</ele></trkpt>
   <trkpt lat="51.681189" lon="13.201486"><ele>81.25</ele></trkpt>
   <trkpt lat="51.682022" lon="13.200876"><ele>80</ele></trkpt>
   <trkpt lat="51.682602" lon="13.200451"><ele>80</ele></trkpt>
   <trkpt lat="51.683688" lon="13.199574"><ele>80.5</ele></trkpt>
   <trkpt lat="51.684016" lon="13.199346"><ele>80.75</ele></trkpt>
   <trkpt lat="51.684719" lon="13.198709"><ele>83.25</ele></trkpt>
   <trkpt lat="51.685227" lon="13.198216"><ele>84.25</ele></trkpt>
   <trkpt lat="51.685247" lon="13.198196"><ele>84.25</ele></trkpt>
   <trkpt lat="51.686522" lon="13.196991"><ele>83.5</ele></trkpt>
   <trkpt lat="51.686895" lon="13.196599"><ele>83.25</ele></trkpt>
   <trkpt lat="51.68741" lon="13.1961"><ele>83.25</ele></trkpt>
   <trkpt lat="51.688452" lon="13.195093"><ele>82.25</ele></trkpt>
   <trkpt lat="51.690173" lon="13.193429"><ele>80.25</ele></trkpt>
   <trkpt lat="51.691728" lon="13.191992"><ele>79.75</ele></trkpt>
   <trkpt lat="51.693367" lon="13.190448"><ele>80.25</ele></trkpt>
   <trkpt lat="51.69484" lon="13.18904"><ele>81.25</ele></trkpt>
   <trkpt lat="51.695146" lon="13.188754"><ele>81.5</ele></trkpt>
   <trkpt lat="51.695654" lon="13.188277"><ele>80.75</ele></trkpt>
   <trkpt lat="51.695971" lon="13.18798"><ele>81.75</ele></trkpt>
   <trkpt lat="51.697727" lon="13.186309"><ele>85.5</ele></trkpt>
   <trkpt lat="51.699516" lon="13.184606"><ele>81.25</ele></trkpt>
   <trkpt lat="51.70106" lon="13.183149"><ele>80.75</ele></trkpt>
   <trkpt lat="51.702398" lon="13.181866"><ele>85.25</ele></trkpt>
   <trkpt lat="51.702628" lon="13.181662"><ele>85.75</ele></trkpt>
   <trkpt lat="51.702889" lon="13.181431"><ele>86.5</ele></trkpt>
   <trkpt lat="51.703828" lon="13.180562"><ele>87.25</ele></trkpt>
   <trkpt lat="51.704569" lon="13.179835"><ele>86.75</ele></trkpt>
   <trkpt lat="51.70561" lon="13.178845"><ele>87.75</ele></trkpt>
   <trkpt lat="51.706513" lon="13.177988"><ele>86.25</ele></trkpt>
   <trkpt lat="51.707369" lon="13.177174"><ele>85</ele></trkpt>
   <trkpt lat="51.708553" lon="13.176049"><ele>84.75</ele></trkpt>
   <trkpt lat="51.709215" lon="13.175396"><ele>85.75</ele></trkpt>
   <trkpt lat="51.710229" lon="13.17442"><ele>85</ele></trkpt>
   <trkpt lat="51.711764" lon="13.172968"><ele>85.75</ele></trkpt>
   <trkpt lat="51.712962" lon="13.17185"><ele>87</ele></trkpt>
   <trkpt lat="51.714302" lon="13.170599"><ele>84.5</ele></trkpt>
   <trkpt lat="51.714654" lon="13.170265"><ele>83.25</ele></trkpt>
   <trkpt lat="51.716203" lon="13.1688"><ele>82.75</ele></trkpt>
   <trkpt lat="51.717863" lon="13.16723"><ele>87.5</ele></trkpt>
   <trkpt lat="51.718468" lon="13.166658"><ele>85.25</ele></trkpt>
   <trkpt lat="51.7194" lon="13.165777"><ele>85.25</ele></trkpt>
   <trkpt lat="51.720187" lon="13.165032"><ele>84.25</ele></trkpt>
   <trkpt lat="51.721074" lon="13.164193"><ele>85.5</ele></trkpt>
   <trkpt lat="51.722069" lon="13.163252"><ele>87.5</ele></trkpt>
   <trkpt lat="51.722199" lon="13.163128"><ele>88.25</ele></trkpt>
   <trkpt lat="51.722848" lon="13.162514"><ele>89</ele></trkpt>
   <trkpt lat="51.723879" lon="13.161528"><ele>86.5</ele></trkpt>
   <trkpt lat="51.724042" lon="13.161372"><ele>86.75</ele></trkpt>
   <trkpt lat="51.725761" lon="13.159749"><ele>87.75</ele></trkpt>
   <trkpt lat="51.725825" lon="13.159689"><ele>87.75</ele></trkpt>
   <trkpt lat="51.727003" lon="13.158577"><ele>88.25</ele></trkpt>
   <trkpt lat="51.728699" lon="13.156976"><ele>84.5</ele></trkpt>
   <trkpt lat="51.729966" lon="13.15573"><ele>82</ele></trkpt>
   <trkpt lat="51.73017" lon="13.155533"><ele>82.5</ele></trkpt>
   <trkpt lat="51.731713" lon="13.154051"><ele>87</ele></trkpt>
   <trkpt lat="51.733068" lon="13.15275"><ele>86.75</ele></trkpt>
   <trkpt lat="51.733473" lon="13.152372"><ele>86.5</ele></trkpt>
   <trkpt lat="51.734674" lon="13.151251"><ele>85</ele></trkpt>
   <trkpt lat="51.736081" lon="13.149918"><ele>83</ele></trkpt>
   <trkpt lat="51.736206" lon="13.1498"><ele>83</ele></trkpt>
   <trkpt lat="51.736455" lon="13.149564"><ele>83</ele></trkpt>
   <trkpt lat="51.737668" lon="13.148415"><ele>86</ele></trkpt>
   <trkpt lat="51.738107" lon="13.147999"><ele>86</ele></trkpt>
   <trkpt lat="51.739594" lon="13.14659"><ele>81.75</ele></trkpt>
   <trkpt lat="51.739616" lon="13.14657"><ele>81.75</ele></trkpt>
   <trkpt lat="51.741326" lon="13.14495"><ele>82.5</ele></trkpt>
   <trkpt lat="51.741419" lon="13.144861"><ele>83</ele></trkpt>
   <trkpt lat="51.742953" lon="13.143405"><ele>84.25</ele></trkpt>
   <trkpt lat="51.743402" lon="13.142989"><ele>84</ele></trkpt>
   <trkpt lat="51.743979" lon="13.142439"><ele>83.5</ele></trkpt>
   <trkpt lat="51.744702" lon="13.14175"><ele>82.5</ele></trkpt>
   <trkpt lat="51.74568" lon="13.140818"><ele>82</ele></trkpt>
   <trkpt lat="51.746593" lon="13.139947"><ele>80.5</ele></trkpt>
   <trkpt lat="51.747134" lon="13.139431"><ele>81.75</ele></trkpt>
   <trkpt lat="51.74875" lon="13.137908"><ele>82</ele></trkpt>
   <trkpt lat="51.749652" lon="13.137026"><ele>80</ele></trkpt>
   <trkpt lat="51.750535" lon="13.136199"><ele>78.5</ele></trkpt>
   <trkpt lat="51.750583" lon="13.136152"><ele>78.5</ele></trkpt>
   <trkpt lat="51.752288" lon="13.13461"><ele>77.5</ele></trkpt>
   <trkpt lat="51.752366" lon="13.134535"><ele>77.25</ele></trkpt>
   <trkpt lat="51.752416" lon="13.134487"><ele>77.25</ele></trkpt>
   <trkpt lat="51.754397" lon="13.13262"><ele>77.5</ele></trkpt>
   <trkpt lat="51.755042" lon="13.13199"><ele>77</ele></trkpt>
   <trkpt lat="51.756602" lon="13.13053"><ele>78</ele></trkpt>
   <trkpt lat="51.758362" lon="13.128847"><ele>79.25</ele></trkpt>
   <trkpt lat="51.759877" lon="13.1274"><ele>81.5</ele></trkpt>
   <trkpt lat="51.761052" lon="13.126272"><ele>85</ele></trkpt>
   <trkpt lat="51.762167" lon="13.125216"><ele>86.25</ele></trkpt>
   <trkpt lat="51.762823" lon="13.124595"><ele>87.25</ele></trkpt>
   <trkpt lat="51.764015" lon="13.123467"><ele>87</ele></trkpt>
   <trkpt lat="51.764507" lon="13.123001"><ele>86.25</ele></trkpt>
   <trkpt lat="51.765455" lon="13.122136"><ele>81</ele></trkpt>
   <trkpt lat="51.766024" lon="13.12164"><ele>78.75</ele></trkpt>
   <trkpt lat="51.766279" lon="13.121432"><ele>79.75</ele></trkpt>
   <trkpt lat="51.767212" lon="13.120657"><ele>82</ele></trkpt>
   <trkpt lat="51.767582" lon="13.120378"><ele>83</ele></trkpt>
   <trkpt lat="51.768783" lon="13.119527"><ele>83.25</ele></trkpt>
   <trkpt lat="51.768838" lon="13.119488"><ele>83.25</ele></trkpt>
   <trkpt lat="51.769268" lon="13.119225"><ele>82.75</ele></trkpt>
   <trkpt lat="51.770045" lon="13.118725"><ele>83</ele></trkpt>
   <trkpt lat="51.770882" lon="13.118252"><ele>83.25</ele></trkpt>
   <trkpt lat="51.77158" lon="13.117874"><ele>86.75</ele></trkpt>
   <trkpt lat="51.77263" lon="13.117363"><ele>88.25</ele></trkpt>
   <trkpt lat="51.774167" lon="13.116735"><ele>80</ele></trkpt>
   <trkpt lat="51.774638" lon="13.116542"><ele>80.25</ele></trkpt>
   <trkpt lat="51.776169" lon="13.115905"><ele>82.25</ele></trkpt>
   <trkpt lat="51.77632" lon="13.115846"><ele>81.75</ele></trkpt>
   <trkpt lat="51.776444" lon="13.115797"><ele>81.25</ele></trkpt>
   <trkpt lat="51.777318" lon="13.11546"><ele>80</ele></trkpt>
   <trkpt lat="51.778117" lon="13.11515"><ele>79.25</ele></trkpt>
   <trkpt lat="51.778311" lon="13.115065"><ele>79</ele></trkpt>
   <trkpt lat="51.778734" lon="13.114891"><ele>78.5</ele></trkpt>
   <trkpt lat="51.778867" lon="13.114841"><ele>78.25</ele></trkpt>
   <trkpt lat="51.779019" lon="13.114776"><ele>78.25</ele></trkpt>
   <trkpt lat="51.779202" lon="13.114694"><ele>78.25</ele></trkpt>
   <trkpt lat="51.779842" lon="13.114443"><ele>78.75</ele></trkpt>
   <trkpt lat="51.780484" lon="13.11419"><ele>78.25</ele></trkpt>
   <trkpt lat="51.782783" lon="13.113271"><ele>78.5</ele></trkpt>
   <trkpt lat="51.786313" lon="13.11186"><ele>78.25</ele></trkpt>
   <trkpt lat="51.787145" lon="13.111527"><ele>79</ele></trkpt>
   <trkpt lat="51.787274" lon="13.111482"><ele>79.25</ele></trkpt>
   <trkpt lat="51.788442" lon="13.111006"><ele>82</ele></trkpt>
   <trkpt lat="51.788913" lon="13.110816"><ele>81.5</ele></trkpt>
   <trkpt lat="51.789527" lon="13.110573"><ele>81.25</ele></trkpt>
   <trkpt lat="51.789943" lon="13.110409"><ele>81.75</ele></trkpt>
   <trkpt lat="51.791908" lon="13.109625"><ele>76.75</ele></trkpt>
   <trkpt lat="51.791921" lon="13.10962"><ele>76.75</ele></trkpt>
   <trkpt lat="51.793578" lon="13.108959"><ele>80</ele></trkpt>
   <trkpt lat="51.793744" lon="13.108894"><ele>80.75</ele></trkpt>
   <trkpt lat="51.794983" lon="13.108409"><ele>82.75</ele></trkpt>
   <trkpt lat="51.795686" lon="13.108134"><ele>82.75</ele></trkpt>
   <trkpt lat="51.796802" lon="13.107667"><ele>79.25</ele></trkpt>
   <trkpt lat="51.797825" lon="13.107261"><ele>80</ele></trkpt>
   <trkpt lat="51.798585" lon="13.106957"><ele>81.25</ele></trkpt>
   <trkpt lat="51.800466" lon="13.106207"><ele>85.25</ele></trkpt>
   <trkpt lat="51.800677" lon="13.106123"><ele>85.5</ele></trkpt>
   <trkpt lat="51.802077" lon="13.105565"><ele>87.5</ele></trkpt>
   <trkpt lat="51.803964" lon="13.104812"><ele>88.25</ele></trkpt>
   <trkpt lat="51.80576" lon="13.104096"><ele>84.5</ele></trkpt>
   <trkpt lat="51.806539" lon="13.103785"><ele>81.75</ele></trkpt>
   <trkpt lat="51.807453" lon="13.103422"><ele>78</ele></trkpt>
   <trkpt lat="51.807672" lon="13.103336"><ele>77.5</ele></trkpt>
   <trkpt lat="51.809135" lon="13.102754"><ele>76.25</ele></trkpt>
   <trkpt lat="51.809168" lon="13.102741"><ele>76.25</ele></trkpt>
   <trkpt lat="51.81074" lon="13.102109"><ele>77</ele></trkpt>
   <trkpt lat="51.811234" lon="13.10191"><ele>76.5</ele></trkpt>
   <trkpt lat="51.812685" lon="13.101327"><ele>77.5</ele></trkpt>
   <trkpt lat="51.813515" lon="13.101008"><ele>77.5</ele></trkpt>
   <trkpt lat="51.813693" lon="13.100939"><ele>78.5</ele></trkpt>
   <trkpt lat="51.814575" lon="13.10057"><ele>81.75</ele></trkpt>
   <trkpt lat="51.815278" lon="13.100294"><ele>82.75</ele></trkpt>
   <trkpt lat="51.8159" lon="13.100049"><ele>83.25</ele></trkpt>
   <trkpt lat="51.817285" lon="13.099504"><ele>80.5</ele></trkpt>
   <trkpt lat="51.81953" lon="13.09862"><ele>77</ele></trkpt>
   <trkpt lat="51.819654" lon="13.098571"><ele>77</ele></trkpt>
   <trkpt lat="51.820019" lon="13.098419"><ele>76.75</ele></trkpt>
   <trkpt lat="51.821506" lon="13.097813"><ele>76</ele></trkpt>
   <trkpt lat="51.822497" lon="13.097413"><ele>80.75</ele></trkpt>
   <trkpt lat="51.822558" lon="13.097388"><ele>81</ele></trkpt>
   <trkpt lat="51.823501" lon="13.097008"><ele>83</ele></trkpt>
   <trkpt lat="51.824826" lon="13.096473"><ele>80.75</ele></trkpt>
   <trkpt lat="51.825723" lon="13.096112"><ele>83.5</ele></trkpt>
   <trkpt lat="51.825768" lon="13.096093"><ele>83.75</ele></trkpt>
   <trkpt lat="51.826754" lon="13.095696"><ele>85</ele></trkpt>
   <trkpt lat="51.828592" lon="13.094993"><ele>84</ele></trkpt>
   <trkpt lat="51.828846" lon="13.0949"><ele>83.75</ele></trkpt>
   <trkpt lat="51.8303" lon="13.094316"><ele>85</ele></trkpt>
   <trkpt lat="51.831048" lon="13.094016"><ele>88</ele></trkpt>
   <trkpt lat="51.832126" lon="13.093583"><ele>86.25</ele></trkpt>
   <trkpt lat="51.833085" lon="13.093198"><ele>84</ele></trkpt>
   <trkpt lat="51.833459" lon="13.093048"><ele>84.25</ele></trkpt>
   <trkpt lat="51.833657" lon="13.092969"><ele>84.75</ele></trkpt>
   <trkpt lat="51.83535" lon="13.092289"><ele>86.5</ele></trkpt>
   <trkpt lat="51.837325" lon="13.091496"><ele>84.25</ele></trkpt>
   <trkpt lat="51.8386" lon="13.090984"><ele>85.5</ele></trkpt>
   <trkpt lat="51.838809" lon="13.090902"><ele>85.25</ele></trkpt>
   <trkpt lat="51.840837" lon="13.090097"><ele>81</ele></trkpt>
   <trkpt lat="51.842119" lon="13.089588"><ele>81.5</ele></trkpt>
   <trkpt lat="51.842886" lon="13.089299"><ele>81</ele></trkpt>
   <trkpt lat="51.843868" lon="13.088895"><ele>81.5</ele></trkpt>
   <trkpt lat="51.845754" lon="13.08815"><ele>80.5</ele></trkpt>
   <trkpt lat="51.847372" lon="13.087492"><ele>81</ele></trkpt>
   <trkpt lat="51.847579" lon="13.08741"><ele>81</ele></trkpt>
   <trkpt lat="51.84793" lon="13.087273"><ele>81</ele></trkpt>
   <trkpt lat="51.849233" lon="13.086672"><ele>82.75</ele></trkpt>
   <trkpt lat="51.850888" lon="13.085999"><ele>85.25</ele></trkpt>
   <trkpt lat="51.851677" lon="13.085691"><ele>85.25</ele></trkpt>
   <trkpt lat="51.85213" lon="13.085496"><ele>84.75</ele></trkpt>
   <trkpt lat="51.852157" lon="13.085485"><ele>84.75</ele></trkpt>
   <trkpt lat="51.85259" lon="13.085311"><ele>84.5</ele></trkpt>
   <trkpt lat="51.852916" lon="13.08518"><ele>84</ele></trkpt>
   <trkpt lat="51.860873" lon="13.082053"><ele>89.25</ele></trkpt>
   <trkpt lat="51.861575" lon="13.081764"><ele>89</ele></trkpt>
   <trkpt lat="51.862439" lon="13.081398"><ele>90.5</ele></trkpt>
   <trkpt lat="51.863266" lon="13.081112"><ele>88.75</ele></trkpt>
   <trkpt lat="51.864286" lon="13.080725"><ele>86</ele></trkpt>
   <trkpt lat="51.864906" lon="13.080468"><ele>85.5</ele></trkpt>
   <trkpt lat="51.866726" lon="13.079774"><ele>89.5</ele></trkpt>
   <trkpt lat="51.86682" lon="13.079738"><ele>89.75</ele></trkpt>
   <trkpt lat="51.86874" lon="13.078979"><ele>90.5</ele></trkpt>
   <trkpt lat="51.870053" lon="13.078453"><ele>91.25</ele></trkpt>
   <trkpt lat="51.871069" lon="13.078046"><ele>91.75</ele></trkpt>
   <trkpt lat="51.871867" lon="13.077676"><ele>92.25</ele></trkpt>
   <trkpt lat="51.873587" lon="13.076851"><ele>89.75</ele></trkpt>
   <trkpt lat="51.875202" lon="13.076069"><ele>92.75</ele></trkpt>
   <trkpt lat="51.875376" lon="13.075985"><ele>93.25</ele></trkpt>
   <trkpt lat="51.877039" lon="13.07518"><ele>95.5</ele></trkpt>
   <trkpt lat="51.878827" lon="13.074315"><ele>94.25</ele></trkpt>
   <trkpt lat="51.880705" lon="13.073406"><ele>92.5</ele></trkpt>
   <trkpt lat="51.881947" lon="13.072805"><ele>89.75</ele></trkpt>
   <trkpt lat="51.88264" lon="13.072469"><ele>90.75</ele></trkpt>
   <trkpt lat="51.883937" lon="13.071842"><ele>90</ele></trkpt>
   <trkpt lat="51.884745" lon="13.071451"><ele>89</ele></trkpt>
   <trkpt lat="51.885678" lon="13.070999"><ele>89.5</ele></trkpt>
   <trkpt lat="51.886636" lon="13.070539"><ele>90</ele></trkpt>
   <trkpt lat="51.887497" lon="13.070133"><ele>90.75</ele></trkpt>
   <trkpt lat="51.889402" lon="13.069234"><ele>91.75</ele></trkpt>
   <trkpt lat="51.889569" lon="13.069146"><ele>92</ele></trkpt>
   <trkpt lat="51.891112" lon="13.068395"><ele>90.5</ele></trkpt>
   <trkpt lat="51.892963" lon="13.067515"><ele>89.75</ele></trkpt>
   <trkpt lat="51.893289" lon="13.06736"><ele>90</ele></trkpt>
   <trkpt lat="51.8942" lon="13.066918"><ele>90</ele></trkpt>
   <trkpt lat="51.894762" lon="13.066647"><ele>89.75</ele></trkpt>
   <trkpt lat="51.896457" lon="13.065832"><ele>88.25</ele></trkpt>
   <trkpt lat="51.897327" lon="13.065424"><ele>87.5</ele></trkpt>
   <trkpt lat="51.898135" lon="13.065025"><ele>88.5</ele></trkpt>
   <trkpt lat="51.899377" lon="13.064428"><ele>90</ele></trkpt>
   <trkpt lat="51.899677" lon="13.064284"><ele>89.5</ele></trkpt>
   <trkpt lat="51.9013" lon="13.063503"><ele>90</ele></trkpt>
   <trkpt lat="51.903181" lon="13.062596"><ele>91.5</ele></trkpt>
   <trkpt lat="51.90343" lon="13.062476"><ele>91.75</ele></trkpt>
   <trkpt lat="51.905114" lon="13.061663"><ele>90.5</ele></trkpt>
   <trkpt lat="51.906424" lon="13.061032"><ele>87.5</ele></trkpt>
   <trkpt lat="51.907084" lon="13.060713"><ele>88.75</ele></trkpt>
   <trkpt lat="51.907132" lon="13.06069"><ele>89</ele></trkpt>
   <trkpt lat="51.907723" lon="13.060405"><ele>91.25</ele></trkpt>
   <trkpt lat="51.908043" lon="13.060251"><ele>91.5</ele></trkpt>
   <trkpt lat="51.909904" lon="13.059353"><ele>88.75</ele></trkpt>
   <trkpt lat="51.911755" lon="13.05846"><ele>92.25</ele></trkpt>
   <trkpt lat="51.913652" lon="13.057545"><ele>96</ele></trkpt>
   <trkpt lat="51.914903" lon="13.056942"><ele>92</ele></trkpt>
   <trkpt lat="51.916755" lon="13.056048"><ele>88.5</ele></trkpt>
   <trkpt lat="51.917631" lon="13.055626"><ele>89</ele></trkpt>
   <trkpt lat="51.91838" lon="13.055265"><ele>88.75</ele></trkpt>
   <trkpt lat="51.920357" lon="13.054311"><ele>88.5</ele></trkpt>
   <trkpt lat="51.922158" lon="13.053442"><ele>90.25</ele></trkpt>
   <trkpt lat="51.923644" lon="13.052725"><ele>88.5</ele></trkpt>
   <trkpt lat="51.925616" lon="13.051773"><ele>89</ele></trkpt>
   <trkpt lat="51.926304" lon="13.051441"><ele>88.5</ele></trkpt>
   <trkpt lat="51.927277" lon="13.050972"><ele>89.5</ele></trkpt>
   <trkpt lat="51.927443" lon="13.050891"><ele>89.75</ele></trkpt>
   <trkpt lat="51.928305" lon="13.050471"><ele>90.25</ele></trkpt>
   <trkpt lat="51.929086" lon="13.050091"><ele>88.25</ele></trkpt>
   <trkpt lat="51.929851" lon="13.049732"><ele>88.75</ele></trkpt>
   <trkpt lat="51.930549" lon="13.04932"><ele>89</ele></trkpt>
   <trkpt lat="51.931749" lon="13.048745"><ele>91</ele></trkpt>
   <trkpt lat="51.932091" lon="13.048581"><ele>91.5</ele></trkpt>
   <trkpt lat="51.932105" lon="13.048575"><ele>91.5</ele></trkpt>
   <trkpt lat="51.932209" lon="13.048524"><ele>91.5</ele></trkpt>
   <trkpt lat="51.932528" lon="13.048369"><ele>91.75</ele></trkpt>
   <trkpt lat="51.933374" lon="13.047959"><ele>91</ele></trkpt>
   <trkpt lat="51.93837" lon="13.045535"><ele>91</ele></trkpt>
   <trkpt lat="51.938589" lon="13.045428"><ele>91.25</ele></trkpt>
   <trkpt lat="51.938657" lon="13.045395"><ele>91.25</ele></trkpt>
   <trkpt lat="51.938726" lon="13.045362"><ele>91.25</ele></trkpt>
   <trkpt lat="51.939034" lon="13.045212"><ele>91.75</ele></trkpt>
   <trkpt lat="51.939206" lon="13.04514"><ele>92</ele></trkpt>
   <trkpt lat="51.939611" lon="13.045005"><ele>92</ele></trkpt>
   <trkpt lat="51.9404" lon="13.044631"><ele>91.75</ele></trkpt>
   <trkpt lat="51.940971" lon="13.044359"><ele>92</ele></trkpt>
   <trkpt lat="51.942046" lon="13.04384"><ele>93.75</ele></trkpt>
   <trkpt lat="51.942096" lon="13.043816"><ele>94</ele></trkpt>
   <trkpt lat="51.942647" lon="13.04355"><ele>94.75</ele></trkpt>
   <trkpt lat="51.944439" lon="13.042685"><ele>94</ele></trkpt>
   <trkpt lat="51.946303" lon="13.041785"><ele>92.75</ele></trkpt>
   <trkpt lat="51.948183" lon="13.040877"><ele>90.5</ele></trkpt>
   <trkpt lat="51.94943" lon="13.040275"><ele>90.5</ele></trkpt>
   <trkpt lat="51.95027" lon="13.039869"><ele>90</ele></trkpt>
   <trkpt lat="51.950604" lon="13.039706"><ele>89.75</ele></trkpt>
   <trkpt lat="51.951179" lon="13.039424"><ele>89.25</ele></trkpt>
   <trkpt lat="51.952851" lon="13.038603"><ele>88.5</ele></trkpt>
   <trkpt lat="51.95473" lon="13.037718"><ele>86.75</ele></trkpt>
   <trkpt lat="51.956625" lon="13.036783"><ele>88.75</ele></trkpt>
   <trkpt lat="51.95847" lon="13.035881"><ele>89.75</ele></trkpt>
   <trkpt lat="51.95877" lon="13.035737"><ele>90</ele></trkpt>
   <trkpt lat="51.959703" lon="13.035288"><ele>90</ele></trkpt>
   <trkpt lat="51.960524" lon="13.034892"><ele>89</ele></trkpt>
   <trkpt lat="51.961367" lon="13.034486"><ele>87.25</ele></trkpt>
   <trkpt lat="51.962339" lon="13.034018"><ele>86.25</ele></trkpt>
   <trkpt lat="51.963162" lon="13.033622"><ele>84.25</ele></trkpt>
   <trkpt lat="51.964136" lon="13.033164"><ele>80.75</ele></trkpt>
   <trkpt lat="51.964189" lon="13.033137"><ele>80.5</ele></trkpt>
   <trkpt lat="51.964981" lon="13.032746"><ele>79.25</ele></trkpt>
   <trkpt lat="51.965764" lon="13.032368"><ele>80.75</ele></trkpt>
   <trkpt lat="51.966417" lon="13.032032"><ele>81</ele></trkpt>
   <trkpt lat="51.966756" lon="13.031842"><ele>81</ele></trkpt>
   <trkpt lat="51.966972" lon="13.03173"><ele>81</ele></trkpt>
   <trkpt lat="51.967249" lon="13.031589"><ele>81</ele></trkpt>
   <trkpt lat="51.967343" lon="13.031543"><ele>81</ele></trkpt>
   <trkpt lat="51.967808" lon="13.031327"><ele>80.75</ele></trkpt>
   <trkpt lat="51.968558" lon="13.031015"><ele>80.25</ele></trkpt>
   <trkpt lat="51.968809" lon="13.03092"><ele>80.5</ele></trkpt>
   <trkpt lat="51.969335" lon="13.030739"><ele>81</ele></trkpt>
   <trkpt lat="51.969952" lon="13.030556"><ele>81</ele></trkpt>
   <trkpt lat="51.970531" lon="13.030415"><ele>81.5</ele></trkpt>
   <trkpt lat="51.971058" lon="13.030311"><ele>82.25</ele></trkpt>
   <trkpt lat="51.971375" lon="13.030259"><ele>82.5</ele></trkpt>
   <trkpt lat="51.971693" lon="13.030216"><ele>83</ele></trkpt>
   <trkpt lat="51.972312" lon="13.030155"><ele>83.75</ele></trkpt>
   <trkpt lat="51.97294" lon="13.030126"><ele>84.25</ele></trkpt>
   <trkpt lat="51.973279" lon="13.030125"><ele>84.75</ele></trkpt>
   <trkpt lat="51.973904" lon="13.030145"><ele>86</ele></trkpt>
   <trkpt lat="51.974242" lon="13.030169"><ele>86.5</ele></trkpt>
   <trkpt lat="51.974903" lon="13.030242"><ele>86.75</ele></trkpt>
   <trkpt lat="51.975535" lon="13.030344"><ele>85</ele></trkpt>
   <trkpt lat="51.976053" lon="13.030452"><ele>84.25</ele></trkpt>
   <trkpt lat="51.976557" lon="13.030577"><ele>85</ele></trkpt>
   <trkpt lat="51.976817" lon="13.030649"><ele>85.75</ele></trkpt>
   <trkpt lat="51.977479" lon="13.030859"><ele>88</ele></trkpt>
   <trkpt lat="51.978097" lon="13.03109"><ele>87.75</ele></trkpt>
   <trkpt lat="51.978421" lon="13.031225"><ele>87.25</ele></trkpt>
   <trkpt lat="51.978745" lon="13.031364"><ele>87</ele></trkpt>
   <trkpt lat="51.979342" lon="13.031653"><ele>86.75</ele></trkpt>
   <trkpt lat="51.979984" lon="13.031998"><ele>86</ele></trkpt>
   <trkpt lat="51.980591" lon="13.032361"><ele>86.5</ele></trkpt>
   <trkpt lat="51.980959" lon="13.032601"><ele>87</ele></trkpt>
   <trkpt lat="51.981176" lon="13.032747"><ele>87.25</ele></trkpt>
   <trkpt lat="51.981666" lon="13.033098"><ele>87.5</ele></trkpt>
   <trkpt lat="51.981935" lon="13.033302"><ele>87.5</ele></trkpt>
   <trkpt lat="51.982354" lon="13.033635"><ele>87</ele></trkpt>
   <trkpt lat="51.982807" lon="13.034017"><ele>86.5</ele></trkpt>
   <trkpt lat="51.983401" lon="13.034557"><ele>85.5</ele></trkpt>
   <trkpt lat="51.983979" lon="13.035124"><ele>85.5</ele></trkpt>
   <trkpt lat="51.984404" lon="13.035571"><ele>84.75</ele></trkpt>
   <trkpt lat="51.984849" lon="13.036066"><ele>84</ele></trkpt>
   <trkpt lat="51.985345" lon="13.036662"><ele>84.25</ele></trkpt>
   <trkpt lat="51.9856" lon="13.036987"><ele>84.5</ele></trkpt>
   <trkpt lat="51.986131" lon="13.037709"><ele>84.75</ele></trkpt>
   <trkpt lat="51.987128" lon="13.039154"><ele>85</ele></trkpt>
   <trkpt lat="51.988644" lon="13.041362"><ele>82</ele></trkpt>
   <trkpt lat="51.988652" lon="13.041374"><ele>82</ele></trkpt>
   <trkpt lat="51.988934" lon="13.041785"><ele>83.25</ele></trkpt>
   <trkpt lat="51.990103" lon="13.043491"><ele>84.25</ele></trkpt>
   <trkpt lat="51.990171" lon="13.043592"><ele>84.5</ele></trkpt>
   <trkpt lat="51.990712" lon="13.044384"><ele>85.25</ele></trkpt>
   <trkpt lat="51.99092" lon="13.044689"><ele>85.25</ele></trkpt>
   <trkpt lat="51.991368" lon="13.045343"><ele>83.75</ele></trkpt>
   <trkpt lat="51.991574" lon="13.045644"><ele>83.25</ele></trkpt>
   <trkpt lat="51.992159" lon="13.046504"><ele>81.75</ele></trkpt>
   <trkpt lat="51.992237" lon="13.046615"><ele>81.75</ele></trkpt>
   <trkpt lat="51.992446" lon="13.046952"><ele>81.25</ele></trkpt>
   <trkpt lat="51.992642" lon="13.047286"><ele>80.75</ele></trkpt>
   <trkpt lat="51.992761" lon="13.047472"><ele>80.5</ele></trkpt>
   <trkpt lat="51.993256" lon="13.048194"><ele>80.75</ele></trkpt>
   <trkpt lat="51.993549" lon="13.048621"><ele>80.5</ele></trkpt>
   <trkpt lat="51.994099" lon="13.049418"><ele>81</ele></trkpt>
   <trkpt lat="51.994549" lon="13.050073"><ele>81</ele></trkpt>
   <trkpt lat="51.994697" lon="13.050286"><ele>81.25</ele></trkpt>
   <trkpt lat="51.995271" lon="13.05112"><ele>82.25</ele></trkpt>
   <trkpt lat="51.995614" lon="13.051613"><ele>82.25</ele></trkpt>
   <trkpt lat="51.995728" lon="13.05177"><ele>82.25</ele></trkpt>
   <trkpt lat="51.996019" lon="13.052144"><ele>82.75</ele></trkpt>
   <trkpt lat="51.996312" lon="13.052487"><ele>83.75</ele></trkpt>
   <trkpt lat="51.996557" lon="13.052804"><ele>84.5</ele></trkpt>
   <trkpt lat="51.996611" lon="13.052885"><ele>84.5</ele></trkpt>
   <trkpt lat="51.996668" lon="13.052967"><ele>84.75</ele></trkpt>
   <trkpt lat="51.996792" lon="13.053145"><ele>85</ele></trkpt>
   <trkpt lat="51.997092" lon="13.053585"><ele>85.75</ele></trkpt>
   <trkpt lat="51.997421" lon="13.054063"><ele>85.75</ele></trkpt>
   <trkpt lat="51.99744" lon="13.05409"><ele>85.75</ele></trkpt>
   <trkpt lat="51.997704" lon="13.054476"><ele>85</ele></trkpt>
   <trkpt lat="51.997907" lon="13.054774"><ele>85</ele></trkpt>
   <trkpt lat="51.998028" lon="13.054949"><ele>84.75</ele></trkpt>
   <trkpt lat="51.998158" lon="13.055139"><ele>84.75</ele></trkpt>
   <trkpt lat="51.998322" lon="13.055378"><ele>85.25</ele></trkpt>
   <trkpt lat="51.998529" lon="13.055681"><ele>86.25</ele></trkpt>
   <trkpt lat="51.998697" lon="13.055926"><ele>86.75</ele></trkpt>
   <trkpt lat="51.999314" lon="13.056829"><ele>86.25</ele></trkpt>
   <trkpt lat="51.999395" lon="13.056941"><ele>87</ele></trkpt>
   <trkpt lat="52.000234" lon="13.058173"><ele>85.75</ele></trkpt>
   <trkpt lat="52.000403" lon="13.058421"><ele>85.75</ele></trkpt>
   <trkpt lat="52.001278" lon="13.059702"><ele>87.5</ele></trkpt>
   <trkpt lat="52.001622" lon="13.060204"><ele>85.5</ele></trkpt>
   <trkpt lat="52.002855" lon="13.062009"><ele>84</ele></trkpt>
   <trkpt lat="52.003129" lon="13.062413"><ele>84.25</ele></trkpt>
   <trkpt lat="52.003647" lon="13.06317"><ele>82.75</ele></trkpt>
   <trkpt lat="52.003966" lon="13.063637"><ele>82.75</ele></trkpt>
   <trkpt lat="52.00438" lon="13.064223"><ele>83.25</ele></trkpt>
   <trkpt lat="52.004682" lon="13.064636"><ele>82.75</ele></trkpt>
   <trkpt lat="52.005383" lon="13.065563"><ele>83</ele></trkpt>
   <trkpt lat="52.005953" lon="13.066271"><ele>82.5</ele></trkpt>
   <trkpt lat="52.00635" lon="13.066749"><ele>82</ele></trkpt>
   <trkpt lat="52.006866" lon="13.067345"><ele>82.25</ele></trkpt>
   <trkpt lat="52.00717" lon="13.067687"><ele>82</ele></trkpt>
   <trkpt lat="52.007866" lon="13.068435"><ele>81.25</ele></trkpt>
   <trkpt lat="52.008691" lon="13.069267"><ele>81</ele></trkpt>
   <trkpt lat="52.008744" lon="13.069317"><ele>81</ele></trkpt>
   <trkpt lat="52.008925" lon="13.069491"><ele>80.75</ele></trkpt>
   <trkpt lat="52.009298" lon="13.069842"><ele>80</ele></trkpt>
   <trkpt lat="52.009904" lon="13.070389"><ele>81</ele></trkpt>
   <trkpt lat="52.010384" lon="13.070799"><ele>79.5</ele></trkpt>
   <trkpt lat="52.010527" lon="13.070917"><ele>79</ele></trkpt>
   <trkpt lat="52.010649" lon="13.071015"><ele>78.5</ele></trkpt>
   <trkpt lat="52.010663" lon="13.071025"><ele>78</ele></trkpt>
   <trkpt lat="52.010981" lon="13.071273"><ele>78</ele></trkpt>
   <trkpt lat="52.01141" lon="13.071585"><ele>78.25</ele></trkpt>
   <trkpt lat="52.011969" lon="13.071956"><ele>78.75</ele></trkpt>
   <trkpt lat="52.012635" lon="13.072348"><ele>79.5</ele></trkpt>
   <trkpt lat="52.013153" lon="13.072617"><ele>80.25</ele></trkpt>
   <trkpt lat="52.013743" lon="13.072887"><ele>80.25</ele></trkpt>
   <trkpt lat="52.014342" lon="13.073132"><ele>79</ele></trkpt>
   <trkpt lat="52.014671" lon="13.073256"><ele>78.5</ele></trkpt>
   <trkpt lat="52.015552" lon="13.073583"><ele>76.75</ele></trkpt>
   <trkpt lat="52.017405" lon="13.074263"><ele>79.25</ele></trkpt>
   <trkpt lat="52.019149" lon="13.074907"><ele>79.5</ele></trkpt>
   <trkpt lat="52.019571" lon="13.075061"><ele>78.25</ele></trkpt>
   <trkpt lat="52.027651" lon="13.078034"><ele>65.5</ele></trkpt>
   <trkpt lat="52.029419" lon="13.078685"><ele>64.25</ele></trkpt>
   <trkpt lat="52.031419" lon="13.079422"><ele>65.5</ele></trkpt>
   <trkpt lat="52.031577" lon="13.079479"><ele>65.25</ele></trkpt>
   <trkpt lat="52.034657" lon="13.080614"><ele>63.5</ele></trkpt>
   <trkpt lat="52.037025" lon="13.081489"><ele>64.5</ele></trkpt>
   <trkpt lat="52.03774" lon="13.081772"><ele>63.5</ele></trkpt>
   <trkpt lat="52.038044" lon="13.081902"><ele>63.25</ele></trkpt>
   <trkpt lat="52.038952" lon="13.08232"><ele>62.25</ele></trkpt>
   <trkpt lat="52.039509" lon="13.0826"><ele>61.5</ele></trkpt>
   <trkpt lat="52.040063" lon="13.082896"><ele>61.25</ele></trkpt>
   <trkpt lat="52.040946" lon="13.083403"><ele>62</ele></trkpt>
   <trkpt lat="52.041414" lon="13.08369"><ele>62</ele></trkpt>
   <trkpt lat="52.042016" lon="13.084077"><ele>61.5</ele></trkpt>
   <trkpt lat="52.042818" lon="13.084629"><ele>61</ele></trkpt>
   <trkpt lat="52.04341" lon="13.085061"><ele>61</ele></trkpt>
   <trkpt lat="52.043713" lon="13.085292"><ele>61</ele></trkpt>
   <trkpt lat="52.044593" lon="13.085995"><ele>62</ele></trkpt>
   <trkpt lat="52.044833" lon="13.086196"><ele>63.25</ele></trkpt>
   <trkpt lat="52.045479" lon="13.086756"><ele>66.75</ele></trkpt>
   <trkpt lat="52.046154" lon="13.087375"><ele>68.75</ele></trkpt>
   <trkpt lat="52.046264" lon="13.087477"><ele>69</ele></trkpt>
   <trkpt lat="52.046834" lon="13.088031"><ele>68</ele></trkpt>
   <trkpt lat="52.047282" lon="13.088484"><ele>67</ele></trkpt>
   <trkpt lat="52.047937" lon="13.089172"><ele>67.75</ele></trkpt>
   <trkpt lat="52.048458" lon="13.089746"><ele>66</ele></trkpt>
   <trkpt lat="52.048899" lon="13.090251"><ele>64.75</ele></trkpt>
   <trkpt lat="52.04937" lon="13.090809"><ele>64.5</ele></trkpt>
   <trkpt lat="52.049877" lon="13.091432"><ele>64.75</ele></trkpt>
   <trkpt lat="52.050542" lon="13.09229"><ele>65.25</ele></trkpt>
   <trkpt lat="52.051176" lon="13.093148"><ele>64.5</ele></trkpt>
   <trkpt lat="52.051615" lon="13.093767"><ele>63.5</ele></trkpt>
   <trkpt lat="52.052101" lon="13.094481"><ele>64.25</ele></trkpt>
   <trkpt lat="52.052471" lon="13.095043"><ele>64</ele></trkpt>
   <trkpt lat="52.053016" lon="13.0959"><ele>64.75</ele></trkpt>
   <trkpt lat="52.053457" lon="13.096624"><ele>64</ele></trkpt>
   <trkpt lat="52.053879" lon="13.097344"><ele>63.5</ele></trkpt>
   <trkpt lat="52.054306" lon="13.098097"><ele>61.5</ele></trkpt>
   <trkpt lat="52.05592" lon="13.100986"><ele>60</ele></trkpt>
   <trkpt lat="52.05892" lon="13.106359"><ele>58.25</ele></trkpt>
   <trkpt lat="52.063171" lon="13.113984"><ele>57</ele></trkpt>
   <trkpt lat="52.064527" lon="13.116418"><ele>59.5</ele></trkpt>
   <trkpt lat="52.066598" lon="13.120137"><ele>58</ele></trkpt>
   <trkpt lat="52.066919" lon="13.120712"><ele>58</ele></trkpt>
   <trkpt lat="52.067842" lon="13.122368"><ele>56</ele></trkpt>
   <trkpt lat="52.069588" lon="13.125505"><ele>55.5</ele></trkpt>
   <trkpt lat="52.071616" lon="13.129148"><ele>57</ele></trkpt>
   <trkpt lat="52.071793" lon="13.129468"><ele>57.25</ele></trkpt>
   <trkpt lat="52.072668" lon="13.131046"><ele>57.5</ele></trkpt>
   <trkpt lat="52.072747" lon="13.131189"><ele>57.5</ele></trkpt>
   <trkpt lat="52.072888" lon="13.13145"><ele>57.25</ele></trkpt>
   <trkpt lat="52.074153" lon="13.133719"><ele>57.75</ele></trkpt>
   <trkpt lat="52.077814" lon="13.140304"><ele>54.25</ele></trkpt>
   <trkpt lat="52.079583" lon="13.143471"><ele>54</ele></trkpt>
   <trkpt lat="52.079788" lon="13.143842"><ele>54</ele></trkpt>
   <trkpt lat="52.080538" lon="13.145194"><ele>54</ele></trkpt>
   <trkpt lat="52.08062" lon="13.145342"><ele>54</ele></trkpt>
   <trkpt lat="52.081228" lon="13.14644"><ele>54.25</ele></trkpt>
   <trkpt lat="52.082346" lon="13.148455"><ele>54</ele></trkpt>
   <trkpt lat="52.082506" lon="13.148744"><ele>54</ele></trkpt>
   <trkpt lat="52.083567" lon="13.150656"><ele>52.5</ele></trkpt>
   <trkpt lat="52.083992" lon="13.151405"><ele>51.5</ele></trkpt>
   <trkpt lat="52.084391" lon="13.152087"><ele>51.5</ele></trkpt>
   <trkpt lat="52.084807" lon="13.152771"><ele>51.75</ele></trkpt>
   <trkpt lat="52.08521" lon="13.153414"><ele>51.25</ele></trkpt>
   <trkpt lat="52.085851" lon="13.154384"><ele>51.25</ele></trkpt>
   <trkpt lat="52.086497" lon="13.155315"><ele>50.75</ele></trkpt>
   <trkpt lat="52.086908" lon="13.15588"><ele>50.75</ele></trkpt>
   <trkpt lat="52.087253" lon="13.15634"><ele>50.25</ele></trkpt>
   <trkpt lat="52.088067" lon="13.157382"><ele>51.25</ele></trkpt>
   <trkpt lat="52.088132" lon="13.157464"><ele>51.5</ele></trkpt>
   <trkpt lat="52.088862" lon="13.15837"><ele>51</ele></trkpt>
   <trkpt lat="52.088887" lon="13.1584"><ele>51</ele></trkpt>
   <trkpt lat="52.09" lon="13.159724"><ele>50</ele></trkpt>
   <trkpt lat="52.090115" lon="13.159858"><ele>50</ele></trkpt>
   <trkpt lat="52.090681" lon="13.160516"><ele>50.25</ele></trkpt>
   <trkpt lat="52.090892" lon="13.160762"><ele>50</ele></trkpt>
   <trkpt lat="52.091934" lon="13.161965"><ele>51.5</ele></trkpt>
   <trkpt lat="52.092247" lon="13.162327"><ele>51</ele></trkpt>
   <trkpt lat="52.092986" lon="13.163188"><ele>49.5</ele></trkpt>
   <trkpt lat="52.093118" lon="13.163339"><ele>49.5</ele></trkpt>
   <trkpt lat="52.093855" lon="13.164199"><ele>48.5</ele></trkpt>
   <trkpt lat="52.094136" lon="13.164535"><ele>48</ele></trkpt>
   <trkpt lat="52.094261" lon="13.164684"><ele>47.75</ele></trkpt>
   <trkpt lat="52.095032" lon="13.165624"><ele>47</ele></trkpt>
   <trkpt lat="52.095135" lon="13.16575"><ele>47</ele></trkpt>
   <trkpt lat="52.095289" lon="13.165938"><ele>46.75</ele></trkpt>
   <trkpt lat="52.095614" lon="13.16631"><ele>46.5</ele></trkpt>
   <trkpt lat="52.096251" lon="13.167028"><ele>46</ele></trkpt>
   <trkpt lat="52.096275" lon="13.167058"><ele>46</ele></trkpt>
   <trkpt lat="52.098099" lon="13.169298"><ele>46.25</ele></trkpt>
   <trkpt lat="52.099113" lon="13.170538"><ele>45</ele></trkpt>
   <trkpt lat="52.099272" lon="13.170733"><ele>44.75</ele></trkpt>
   <trkpt lat="52.101082" lon="13.172943"><ele>44.5</ele></trkpt>
   <trkpt lat="52.101319" lon="13.173233"><ele>44.75</ele></trkpt>
   <trkpt lat="52.104204" lon="13.176761"><ele>43.75</ele></trkpt>
   <trkpt lat="52.105685" lon="13.178563"><ele>42.75</ele></trkpt>
   <trkpt lat="52.108946" lon="13.182513"><ele>42</ele></trkpt>
   <trkpt lat="52.109443" lon="13.183137"><ele>41.75</ele></trkpt>
   <trkpt lat="52.109695" lon="13.183466"><ele>42</ele></trkpt>
   <trkpt lat="52.110103" lon="13.184019"><ele>42.5</ele></trkpt>
   <trkpt lat="52.110602" lon="13.184732"><ele>43</ele></trkpt>
   <trkpt lat="52.110901" lon="13.185181"><ele>43.5</ele></trkpt>
   <trkpt lat="52.111828" lon="13.186626"><ele>42.75</ele></trkpt>
   <trkpt lat="52.11596" lon="13.193137"><ele>42</ele></trkpt>
   <trkpt lat="52.117217" lon="13.195118"><ele>42.25</ele></trkpt>
   <trkpt lat="52.120973" lon="13.201042"><ele>39.25</ele></trkpt>
   <trkpt lat="52.121153" lon="13.201324"><ele>39.75</ele></trkpt>
   <trkpt lat="52.123123" lon="13.204432"><ele>38.5</ele></trkpt>
   <trkpt lat="52.123394" lon="13.204858"><ele>38</ele></trkpt>
   <trkpt lat="52.124188" lon="13.206109"><ele>38.25</ele></trkpt>
   <trkpt lat="52.124681" lon="13.206879"><ele>38.25</ele></trkpt>
   <trkpt lat="52.124911" lon="13.207227"><ele>38</ele></trkpt>
   <trkpt lat="52.125142" lon="13.207573"><ele>38</ele></trkpt>
   <trkpt lat="52.125604" lon="13.208238"><ele>38</ele></trkpt>
   <trkpt lat="52.126062" lon="13.208868"><ele>38</ele></trkpt>
   <trkpt lat="52.126564" lon="13.209528"><ele>38.25</ele></trkpt>
   <trkpt lat="52.127077" lon="13.21017"><ele>38.75</ele></trkpt>
   <trkpt lat="52.127828" lon="13.211055"><ele>40.5</ele></trkpt>
   <trkpt lat="52.127971" lon="13.211215"><ele>41</ele></trkpt>
   <trkpt lat="52.128575" lon="13.211873"><ele>42.75</ele></trkpt>
   <trkpt lat="52.129044" lon="13.212353"><ele>41.5</ele></trkpt>
   <trkpt lat="52.129759" lon="13.213042"><ele>42.5</ele></trkpt>
   <trkpt lat="52.130531" lon="13.213732"><ele>45</ele></trkpt>
   <trkpt lat="52.131023" lon="13.214147"><ele>45.5</ele></trkpt>
   <trkpt lat="52.131287" lon="13.214358"><ele>45.25</ele></trkpt>
   <trkpt lat="52.132041" lon="13.214938"><ele>44.75</ele></trkpt>
   <trkpt lat="52.13257" lon="13.215317"><ele>45.5</ele></trkpt>
   <trkpt lat="52.133152" lon="13.215708"><ele>47.75</ele></trkpt>
   <trkpt lat="52.133722" lon="13.216067"><ele>48.25</ele></trkpt>
   <trkpt lat="52.134331" lon="13.216422"><ele>47.25</ele></trkpt>
   <trkpt lat="52.134945" lon="13.216747"><ele>46.25</ele></trkpt>
   <trkpt lat="52.135539" lon="13.217033"><ele>47.25</ele></trkpt>
   <trkpt lat="52.136122" lon="13.21729"><ele>48</ele></trkpt>
   <trkpt lat="52.136732" lon="13.217538"><ele>49</ele></trkpt>
   <trkpt lat="52.1373" lon="13.217748"><ele>49.5</ele></trkpt>
   <trkpt lat="52.137914" lon="13.217953"><ele>50.25</ele></trkpt>
   <trkpt lat="52.138554" lon="13.218142"><ele>49</ele></trkpt>
   <trkpt lat="52.139158" lon="13.218296"><ele>45</ele></trkpt>
   <trkpt lat="52.139761" lon="13.218427"><ele>43.25</ele></trkpt>
   <trkpt lat="52.140474" lon="13.21855"><ele>41.5</ele></trkpt>
   <trkpt lat="52.141007" lon="13.218626"><ele>41</ele></trkpt>
   <trkpt lat="52.14169" lon="13.218701"><ele>42</ele></trkpt>
   <trkpt lat="52.147383" lon="13.219235"><ele>47.75</ele></trkpt>
   <trkpt lat="52.151246" lon="13.219596"><ele>47.5</ele></trkpt>
   <trkpt lat="52.153124" lon="13.219772"><ele>50.25</ele></trkpt>
   <trkpt lat="52.161419" lon="13.220553"><ele>44.75</ele></trkpt>
   <trkpt lat="52.170448" lon="13.221407"><ele>40</ele></trkpt>
   <trkpt lat="52.17237" lon="13.221588"><ele>38.5</ele></trkpt>
   <trkpt lat="52.184635" lon="13.22274"><ele>42.25</ele></trkpt>
   <trkpt lat="52.189438" lon="13.223192"><ele>42</ele></trkpt>
   <trkpt lat="52.19047" lon="13.223284"><ele>40.75</ele></trkpt>
   <trkpt lat="52.1913" lon="13.223333"><ele>41.5</ele></trkpt>
   <trkpt lat="52.192186" lon="13.223348"><ele>45.5</ele></trkpt>
   <trkpt lat="52.192759" lon="13.223337"><ele>47.75</ele></trkpt>
   <trkpt lat="52.193295" lon="13.223315"><ele>48</ele></trkpt>
   <trkpt lat="52.193912" lon="13.223269"><ele>44</ele></trkpt>
   <trkpt lat="52.194535" lon="13.223206"><ele>41.25</ele></trkpt>
   <trkpt lat="52.195643" lon="13.223062"><ele>40</ele></trkpt>
   <trkpt lat="52.197282" lon="13.222854"><ele>38.5</ele></trkpt>
   <trkpt lat="52.197973" lon="13.222789"><ele>37.75</ele></trkpt>
   <trkpt lat="52.198665" lon="13.222747"><ele>38.25</ele></trkpt>
   <trkpt lat="52.199003" lon="13.222736"><ele>39.25</ele></trkpt>
   <trkpt lat="52.199903" lon="13.222729"><ele>40.5</ele></trkpt>
   <trkpt lat="52.200712" lon="13.222758"><ele>42</ele></trkpt>
   <trkpt lat="52.201396" lon="13.222807"><ele>41.5</ele></trkpt>
   <trkpt lat="52.201908" lon="13.222859"><ele>41.5</ele></trkpt>
   <trkpt lat="52.202415" lon="13.222923"><ele>42.25</ele></trkpt>
   <trkpt lat="52.203348" lon="13.223071"><ele>43.5</ele></trkpt>
   <trkpt lat="52.203882" lon="13.223174"><ele>45</ele></trkpt>
   <trkpt lat="52.204812" lon="13.22339"><ele>44.75</ele></trkpt>
   <trkpt lat="52.205837" lon="13.223678"><ele>43.25</ele></trkpt>
   <trkpt lat="52.206344" lon="13.223841"><ele>40.25</ele></trkpt>
   <trkpt lat="52.207187" lon="13.22414"><ele>36</ele></trkpt>
   <trkpt lat="52.207752" lon="13.224358"><ele>35</ele></trkpt>
   <trkpt lat="52.208644" lon="13.224743"><ele>35.25</ele></trkpt>
   <trkpt lat="52.209489" lon="13.225144"><ele>35.75</ele></trkpt>
   <trkpt lat="52.210166" lon="13.225494"><ele>36</ele></trkpt>
   <trkpt lat="52.210679" lon="13.225777"><ele>36</ele></trkpt>
   <trkpt lat="52.211291" lon="13.226134"><ele>36.25</ele></trkpt>
   <trkpt lat="52.212052" lon="13.226608"><ele>36.5</ele></trkpt>
   <trkpt lat="52.212077" lon="13.226624"><ele>36.25</ele></trkpt>
   <trkpt lat="52.213419" lon="13.2275"><ele>36</ele></trkpt>
   <trkpt lat="52.213815" lon="13.227761"><ele>36.5</ele></trkpt>
   <trkpt lat="52.213866" lon="13.227794"><ele>36.5</ele></trkpt>
   <trkpt lat="52.214357" lon="13.228138"><ele>36.25</ele></trkpt>
   <trkpt lat="52.21476" lon="13.228448"><ele>36.5</ele></trkpt>
   <trkpt lat="52.215273" lon="13.22881"><ele>37.5</ele></trkpt>
   <trkpt lat="52.215346" lon="13.228859"><ele>37.75</ele></trkpt>
   <trkpt lat="52.215478" lon="13.228945"><ele>38</ele></trkpt>
   <trkpt lat="52.21562" lon="13.229037"><ele>38.25</ele></trkpt>
   <trkpt lat="52.215776" lon="13.229138"><ele>38.75</ele></trkpt>
   <trkpt lat="52.216707" lon="13.229749"><ele>38.25</ele></trkpt>
   <trkpt lat="52.216881" lon="13.229862"><ele>38.5</ele></trkpt>
   <trkpt lat="52.217649" lon="13.23036"><ele>39.5</ele></trkpt>
   <trkpt lat="52.218513" lon="13.230916"><ele>38.75</ele></trkpt>
   <trkpt lat="52.218941" lon="13.23119"><ele>38.25</ele></trkpt>
   <trkpt lat="52.221713" lon="13.232999"><ele>37.5</ele></trkpt>
   <trkpt lat="52.222755" lon="13.23369"><ele>38.25</ele></trkpt>
   <trkpt lat="52.223401" lon="13.23415"><ele>38</ele></trkpt>
   <trkpt lat="52.223893" lon="13.234529"><ele>39.25</ele></trkpt>
   <trkpt lat="52.224535" lon="13.235064"><ele>40</ele></trkpt>
   <trkpt lat="52.225287" lon="13.235733"><ele>40</ele></trkpt>
   <trkpt lat="52.225382" lon="13.235822"><ele>39.5</ele></trkpt>
   <trkpt lat="52.226108" lon="13.236504"><ele>36</ele></trkpt>
   <trkpt lat="52.226135" lon="13.236529"><ele>36</ele></trkpt>
   <trkpt lat="52.226549" lon="13.236913"><ele>36</ele></trkpt>
   <trkpt lat="52.22687" lon="13.237194"><ele>36</ele></trkpt>
   <trkpt lat="52.227278" lon="13.23759"><ele>35.75</ele></trkpt>
   <trkpt lat="52.227299" lon="13.237612"><ele>35.75</ele></trkpt>
   <trkpt lat="52.227321" lon="13.237635"><ele>35.75</ele></trkpt>
   <trkpt lat="52.227916" lon="13.238265"><ele>35</ele></trkpt>
   <trkpt lat="52.228828" lon="13.23928"><ele>35.5</ele></trkpt>
   <trkpt lat="52.228853" lon="13.239308"><ele>35.5</ele></trkpt>
   <trkpt lat="52.23031" lon="13.240951"><ele>35.5</ele></trkpt>
   <trkpt lat="52.230704" lon="13.241395"><ele>36.5</ele></trkpt>
   <trkpt lat="52.230847" lon="13.241557"><ele>36.75</ele></trkpt>
   <trkpt lat="52.237702" lon="13.249288"><ele>35.5</ele></trkpt>
   <trkpt lat="52.237835" lon="13.249438"><ele>35.25</ele></trkpt>
   <trkpt lat="52.237956" lon="13.249575"><ele>35</ele></trkpt>
   <trkpt lat="52.238959" lon="13.250706"><ele>34.75</ele></trkpt>
   <trkpt lat="52.241788" lon="13.253898"><ele>33.75</ele></trkpt>
   <trkpt lat="52.244923" lon="13.257435"><ele>34</ele></trkpt>
   <trkpt lat="52.244992" lon="13.257512"><ele>34</ele></trkpt>
   <trkpt lat="52.246188" lon="13.258863"><ele>36.25</ele></trkpt>
   <trkpt lat="52.247122" lon="13.259918"><ele>37</ele></trkpt>
   <trkpt lat="52.247721" lon="13.260594"><ele>39.75</ele></trkpt>
   <trkpt lat="52.24888" lon="13.261896"><ele>42.25</ele></trkpt>
   <trkpt lat="52.249428" lon="13.262485"><ele>42.25</ele></trkpt>
   <trkpt lat="52.249944" lon="13.263014"><ele>39.75</ele></trkpt>
   <trkpt lat="52.250195" lon="13.263257"><ele>39</ele></trkpt>
   <trkpt lat="52.25055" lon="13.263584"><ele>40.25</ele></trkpt>
   <trkpt lat="52.250975" lon="13.263951"><ele>42</ele></trkpt>
   <trkpt lat="52.251342" lon="13.264245"><ele>43</ele></trkpt>
   <trkpt lat="52.25194" lon="13.264684"><ele>43.5</ele></trkpt>
   <trkpt lat="52.252532" lon="13.265069"><ele>43</ele></trkpt>
   <trkpt lat="52.253123" lon="13.265408"><ele>44.5</ele></trkpt>
   <trkpt lat="52.253765" lon="13.265728"><ele>45</ele></trkpt>
   <trkpt lat="52.254114" lon="13.265881"><ele>44.75</ele></trkpt>
   <trkpt lat="52.254466" lon="13.26602"><ele>44.75</ele></trkpt>
   <trkpt lat="52.254956" lon="13.266191"><ele>44.25</ele></trkpt>
   <trkpt lat="52.255281" lon="13.26629"><ele>44.75</ele></trkpt>
   <trkpt lat="52.255782" lon="13.266418"><ele>46.25</ele></trkpt>
   <trkpt lat="52.256146" lon="13.266495"><ele>45.25</ele></trkpt>
   <trkpt lat="52.256578" lon="13.266566"><ele>43.75</ele></trkpt>
   <trkpt lat="52.257105" lon="13.266626"><ele>42.5</ele></trkpt>
   <trkpt lat="52.257763" lon="13.266665"><ele>42</ele></trkpt>
   <trkpt lat="52.258094" lon="13.266673"><ele>41.75</ele></trkpt>
   <trkpt lat="52.259386" lon="13.266661"><ele>42.75</ele></trkpt>
   <trkpt lat="52.261361" lon="13.266618"><ele>41.5</ele></trkpt>
   <trkpt lat="52.263115" lon="13.266578"><ele>38.5</ele></trkpt>
   <trkpt lat="52.264912" lon="13.266538"><ele>37.75</ele></trkpt>
   <trkpt lat="52.266819" lon="13.266495"><ele>36</ele></trkpt>
   <trkpt lat="52.268813" lon="13.266449"><ele>36.25</ele></trkpt>
   <trkpt lat="52.270727" lon="13.266398"><ele>41</ele></trkpt>
   <trkpt lat="52.271521" lon="13.266366"><ele>42.75</ele></trkpt>
   <trkpt lat="52.272359" lon="13.266337"><ele>46</ele></trkpt>
   <trkpt lat="52.273862" lon="13.26631"><ele>48.25</ele></trkpt>
   <trkpt lat="52.276007" lon="13.266293"><ele>46.5</ele></trkpt>
   <trkpt lat="52.277753" lon="13.266256"><ele>44.25</ele></trkpt>
   <trkpt lat="52.279569" lon="13.266218"><ele>43.75</ele></trkpt>
   <trkpt lat="52.280993" lon="13.266186"><ele>43.25</ele></trkpt>
   <trkpt lat="52.281438" lon="13.266176"><ele>43.25</ele></trkpt>
   <trkpt lat="52.282352" lon="13.266157"><ele>44.5</ele></trkpt>
   <trkpt lat="52.282741" lon="13.266149"><ele>45.5</ele></trkpt>
   <trkpt lat="52.284989" lon="13.266102"><ele>46.5</ele></trkpt>
   <trkpt lat="52.286657" lon="13.266066"><ele>51.75</ele></trkpt>
   <trkpt lat="52.288492" lon="13.266025"><ele>41.25</ele></trkpt>
   <trkpt lat="52.290379" lon="13.265985"><ele>42</ele></trkpt>
   <trkpt lat="52.290791" lon="13.265981"><ele>42.75</ele></trkpt>
   <trkpt lat="52.291698" lon="13.266001"><ele>42</ele></trkpt>
   <trkpt lat="52.291998" lon="13.266017"><ele>41.75</ele></trkpt>
   <trkpt lat="52.292102" lon="13.266024"><ele>41.5</ele></trkpt>
   <trkpt lat="52.292884" lon="13.266093"><ele>42.25</ele></trkpt>
   <trkpt lat="52.293618" lon="13.26619"><ele>42.75</ele></trkpt>
   <trkpt lat="52.293872" lon="13.266231"><ele>42.5</ele></trkpt>
   <trkpt lat="52.294271" lon="13.266303"><ele>42.25</ele></trkpt>
   <trkpt lat="52.2949" lon="13.266432"><ele>42.25</ele></trkpt>
   <trkpt lat="52.295873" lon="13.266672"><ele>41</ele></trkpt>
   <trkpt lat="52.29601" lon="13.266708"><ele>41</ele></trkpt>
   <trkpt lat="52.296131" lon="13.266742"><ele>41</ele></trkpt>
   <trkpt lat="52.296248" lon="13.266774"><ele>41</ele></trkpt>
   <trkpt lat="52.297892" lon="13.267219"><ele>41.5</ele></trkpt>
   <trkpt lat="52.298072" lon="13.267267"><ele>41.75</ele></trkpt>
   <trkpt lat="52.298523" lon="13.267388"><ele>42</ele></trkpt>
   <trkpt lat="52.299064" lon="13.267535"><ele>41.75</ele></trkpt>
   <trkpt lat="52.299202" lon="13.267572"><ele>41.75</ele></trkpt>
   <trkpt lat="52.299217" lon="13.267576"><ele>41.75</ele></trkpt>
   <trkpt lat="52.299551" lon="13.267647"><ele>42.25</ele></trkpt>
   <trkpt lat="52.299771" lon="13.267674"><ele>42.5</ele></trkpt>
   <trkpt lat="52.299988" lon="13.267717"><ele>42.5</ele></trkpt>
   <trkpt lat="52.300097" lon="13.267744"><ele>42.5</ele></trkpt>
   <trkpt lat="52.301971" lon="13.268249"><ele>40.5</ele></trkpt>
   <trkpt lat="52.304681" lon="13.268979"><ele>43.75</ele></trkpt>
   <trkpt lat="52.305004" lon="13.269067"><ele>44</ele></trkpt>
   <trkpt lat="52.305272" lon="13.269155"><ele>44</ele></trkpt>
   <trkpt lat="52.305499" lon="13.269251"><ele>43.75</ele></trkpt>
   <trkpt lat="52.30576" lon="13.269343"><ele>43.5</ele></trkpt>
   <trkpt lat="52.306846" lon="13.269636"><ele>45.25</ele></trkpt>
   <trkpt lat="52.306964" lon="13.269668"><ele>45.25</ele></trkpt>
   <trkpt lat="52.307368" lon="13.269777"><ele>45</ele></trkpt>
   <trkpt lat="52.310629" lon="13.270652"><ele>43</ele></trkpt>
   <trkpt lat="52.311467" lon="13.270858"><ele>42.75</ele></trkpt>
   <trkpt lat="52.311903" lon="13.270963"><ele>42.75</ele></trkpt>
   <trkpt lat="52.313336" lon="13.271312"><ele>41.25</ele></trkpt>
   <trkpt lat="52.315023" lon="13.271753"><ele>41.75</ele></trkpt>
   <trkpt lat="52.316838" lon="13.272245"><ele>41.75</ele></trkpt>
   <trkpt lat="52.318592" lon="13.272719"><ele>45.25</ele></trkpt>
   <trkpt lat="52.32041" lon="13.273215"><ele>45.5</ele></trkpt>
   <trkpt lat="52.321793" lon="13.273618"><ele>44.25</ele></trkpt>
   <trkpt lat="52.322094" lon="13.273706"><ele>44.25</ele></trkpt>
   <trkpt lat="52.324681" lon="13.274464"><ele>44</ele></trkpt>
   <trkpt lat="52.325458" lon="13.274692"><ele>43.75</ele></trkpt>
   <trkpt lat="52.327443" lon="13.275275"><ele>42</ele></trkpt>
   <trkpt lat="52.328246" lon="13.275514"><ele>42.75</ele></trkpt>
   <trkpt lat="52.329212" lon="13.275835"><ele>43</ele></trkpt>
   <trkpt lat="52.329782" lon="13.276039"><ele>43</ele></trkpt>
   <trkpt lat="52.330347" lon="13.276255"><ele>44</ele></trkpt>
   <trkpt lat="52.331004" lon="13.276521"><ele>44.5</ele></trkpt>
   <trkpt lat="52.332723" lon="13.277226"><ele>44.5</ele></trkpt>
   <trkpt lat="52.333575" lon="13.277576"><ele>42</ele></trkpt>
   <trkpt lat="52.334638" lon="13.278016"><ele>43</ele></trkpt>
   <trkpt lat="52.336527" lon="13.278788"><ele>44</ele></trkpt>
   <trkpt lat="52.336961" lon="13.278971"><ele>43.5</ele></trkpt>
   <trkpt lat="52.337029" lon="13.278998"><ele>43.25</ele></trkpt>
   <trkpt lat="52.338047" lon="13.279414"><ele>40.5</ele></trkpt>
   <trkpt lat="52.339865" lon="13.280163"><ele>43.5</ele></trkpt>
   <trkpt lat="52.340303" lon="13.280343"><ele>43.75</ele></trkpt>
   <trkpt lat="52.341552" lon="13.280858"><ele>43</ele></trkpt>
   <trkpt lat="52.342341" lon="13.281181"><ele>41.5</ele></trkpt>
   <trkpt lat="52.343223" lon="13.281544"><ele>42</ele></trkpt>
   <trkpt lat="52.343607" lon="13.281701"><ele>42.5</ele></trkpt>
   <trkpt lat="52.344286" lon="13.28198"><ele>44</ele></trkpt>
   <trkpt lat="52.344942" lon="13.282246"><ele>44.25</ele></trkpt>
   <trkpt lat="52.346016" lon="13.282684"><ele>44.25</ele></trkpt>
   <trkpt lat="52.34684" lon="13.28302"><ele>43.5</ele></trkpt>
   <trkpt lat="52.347108" lon="13.28313"><ele>43.75</ele></trkpt>
   <trkpt lat="52.347316" lon="13.283213"><ele>43.75</ele></trkpt>
   <trkpt lat="52.348229" lon="13.283583"><ele>42.25</ele></trkpt>
   <trkpt lat="52.348544" lon="13.283711"><ele>42.25</ele></trkpt>
   <trkpt lat="52.348608" lon="13.283737"><ele>42.75</ele></trkpt>
  </trkseg>
 </trk>
</gpx>