<?xml version="1.0" encoding="UTF-8"?>
<!-- track-length = 12725 filtered ascend = 4 plain-ascend = 1 cost=12725 energy=0.2kwh time=16m 58s -->
<gpx 
 xmlns="http://www.topografix.com/GPX/1/1" 
 xmlns:xsi="http://www.w3.org/2001/XMLSchema-instance" 
 xsi:schemaLocation="http://www.topografix.com/GPX/1/1 http://www.topografix.com/GPX/1/1/gpx.xsd" 
 version="1.1" 
 creator="BRouter-Web 0.18.1">
 <trk>
  <name>Zinnowitz - Peenemünde</name>
  <trkseg>
   <trkpt lat="54.075944" lon="13.902351"><ele>1</ele></trkpt>
   <trkpt lat="54.076228" lon="13.901437"><ele>1</ele></trkpt>
   <trkpt lat="54.076439" lon="13.900768"><ele>1</ele></trkpt>
   <trkpt lat="54.0765" lon="13.900555"><ele>1.25</ele></trkpt>
   <trkpt lat="54.076705" lon="13.90002"><ele>2</ele></trkpt>
   <trkpt lat="54.076842" lon="13.899631"><ele>2</ele></trkpt>
   <trkpt lat="54.076935" lon="13.899322"><ele>2</ele></trkpt>
   <trkpt lat="54.077373" lon="13.897902"><ele>1</ele></trkpt>
   <trkpt lat="54.077551" lon="13.897273"><ele>1</ele></trkpt>
   <trkpt lat="54.077717" lon="13.896557"><ele>1</ele></trkpt>
   <trkpt lat="54.077858" lon="13.895776"><ele>1</ele></trkpt>
   <trkpt lat="54.078097" lon="13.89433"><ele>1</ele></trkpt>
   <trkpt lat="54.079066" lon="13.888431"><ele>1</ele></trkpt>
   <trkpt lat="54.079641" lon="13.884958"><ele>1</ele></trkpt>
   <trkpt lat="54.079763" lon="13.884361"><ele>1</ele></trkpt>
   <trkpt lat="54.079913" lon="13.883755"><ele>1</ele></trkpt>
   <trkpt lat="54.080242" lon="13.882767"><ele>1</ele></trkpt>
   <trkpt lat="54.080461" lon="13.882213"><ele>1</ele></trkpt>
   <trkpt lat="54.080714" lon="13.881687"><ele>1</ele></trkpt>
   <trkpt lat="54.080982" lon="13.881206"><ele>1</ele></trkpt>
   <trkpt lat="54.081299" lon="13.88071"><ele>1</ele></trkpt>
   <trkpt lat="54.081908" lon="13.879706"><ele>1</ele></trkpt>
   <trkpt lat="54.083149" lon="13.877701"><ele>1</ele></trkpt>
   <trkpt lat="54.085215" lon="13.874366"><ele>1</ele></trkpt>
   <trkpt lat="54.085815" lon="13.87346"><ele>1</ele></trkpt>
   <trkpt lat="54.08617" lon="13.873034"><ele>1</ele></trkpt>
   <trkpt lat="54.086584" lon="13.872629"><ele>1</ele></trkpt>
   <trkpt lat="54.086818" lon="13.872438"><ele>1</ele></trkpt>
   <trkpt lat="54.08733" lon="13.872085"><ele>1</ele></trkpt>
   <trkpt lat="54.089252" lon="13.870823"><ele>1</ele></trkpt>
   <trkpt lat="54.089427" lon="13.870689"><ele>1</ele></trkpt>
   <trkpt lat="54.089582" lon="13.870553"><ele>1</ele></trkpt>
   <trkpt lat="54.089807" lon="13.87033"><ele>1</ele></trkpt>
   <trkpt lat="54.090089" lon="13.869953"><ele>1</ele></trkpt>
   <trkpt lat="54.090369" lon="13.869456"><ele>1</ele></trkpt>
   <trkpt lat="54.090394" lon="13.869399"><ele>1</ele></trkpt>
   <trkpt lat="54.09082" lon="13.868473"><ele>1</ele></trkpt>
   <trkpt lat="54.094492" lon="13.860396"><ele>2</ele></trkpt>
   <trkpt lat="54.09554" lon="13.858095"><ele>2.75</ele></trkpt>
   <trkpt lat="54.095894" lon="13.857326"><ele>2.5</ele></trkpt>
   <trkpt lat="54.096242" lon="13.856731"><ele>2</ele></trkpt>
   <trkpt lat="54.09653" lon="13.8563"><ele>2</ele></trkpt>
   <trkpt lat="54.096882" lon="13.855896"><ele>2</ele></trkpt>
   <trkpt lat="54.098529" lon="13.854076"><ele>2</ele></trkpt>
   <trkpt lat="54.100245" lon="13.852205"><ele>2</ele></trkpt>
   <trkpt lat="54.107676" lon="13.844077"><ele>5</ele></trkpt>
   <trkpt lat="54.108688" lon="13.842848"><ele>5</ele></trkpt>
   <trkpt lat="54.109351" lon="13.841895"><ele>4</ele></trkpt>
   <trkpt lat="54.109456" lon="13.841745"><ele>4</ele></trkpt>
   <trkpt lat="54.110439" lon="13.840364"><ele>2.75</ele></trkpt>
   <trkpt lat="54.113619" lon="13.835839"><ele>2</ele></trkpt>
   <trkpt lat="54.114922" lon="13.833995"><ele>2</ele></trkpt>
   <trkpt lat="54.116503" lon="13.83175"><ele>2</ele></trkpt>
   <trkpt lat="54.116853" lon="13.831248"><ele>2</ele></trkpt>
   <trkpt lat="54.117069" lon="13.830937"><ele>2</ele></trkpt>
   <trkpt lat="54.117432" lon="13.830427"><ele>2</ele></trkpt>
   <trkpt lat="54.117472" lon="13.830376"><ele>2</ele></trkpt>
   <trkpt lat="54.117521" lon="13.830305"><ele>2</ele></trkpt>
   <trkpt lat="54.117562" lon="13.830249"><ele>2</ele></trkpt>
   <trkpt lat="54.118144" lon="13.829423"><ele>2</ele></trkpt>
   <trkpt lat="54.118268" lon="13.82927"><ele>2</ele></trkpt>
   <trkpt lat="54.118298" lon="13.829233"><ele>2</ele></trkpt>
   <trkpt lat="54.118934" lon="13.82845"><ele>2</ele></trkpt>
   <trkpt lat="54.119538" lon="13.82782"><ele>2</ele></trkpt>
   <trkpt lat="54.120213" lon="13.827212"><ele>2</ele></trkpt>
   <trkpt lat="54.120843" lon="13.82674"><ele>2</ele></trkpt>
   <trkpt lat="54.125202" lon="13.823759"><ele>3</ele></trkpt>
   <trkpt lat="54.128917" lon="13.821209"><ele>3</ele></trkpt>
   <trkpt lat="54.129867" lon="13.820558"><ele>3</ele></trkpt>
   <trkpt lat="54.130223" lon="13.820369"><ele>3</ele></trkpt>
   <trkpt lat="54.130537" lon="13.820272"><ele>3</ele></trkpt>
   <trkpt lat="54.131523" lon="13.820124"><ele>3</ele></trkpt>
   <trkpt lat="54.131861" lon="13.819986"><ele>3</ele></trkpt>
   <trkpt lat="54.134258" lon="13.818416"><ele>3</ele></trkpt>
   <trkpt lat="54.140242" lon="13.81447"><ele>2</ele></trkpt>
   <trkpt lat="54.140992" lon="13.813962"><ele>2</ele></trkpt>
   <trkpt lat="54.141357" lon="13.8137"><ele>2</ele></trkpt>
   <trkpt lat="54.142357" lon="13.812757"><ele>2</ele></trkpt>
   <trkpt lat="54.142989" lon="13.81213"><ele>3</ele></trkpt>
   <trkpt lat="54.1437" lon="13.811271"><ele>3</ele></trkpt>
   <trkpt lat="54.144376" lon="13.810434"><ele>3</ele></trkpt>
   <trkpt lat="54.144526" lon="13.810178"><ele>3</ele></trkpt>
   <trkpt lat="54.144654" lon="13.809904"><ele>2.5</ele></trkpt>
   <trkpt lat="54.144775" lon="13.80956"><ele>2</ele></trkpt>
   <trkpt lat="54.145186" lon="13.808167"><ele>2</ele></trkpt>
   <trkpt lat="54.145269" lon="13.807732"><ele>2</ele></trkpt>
   <trkpt lat="54.145315" lon="13.807308"><ele>2</ele></trkpt>
   <trkpt lat="54.145318" lon="13.806841"><ele>2</ele></trkpt>
   <trkpt lat="54.145296" lon="13.80636"><ele>2</ele></trkpt>
   <trkpt lat="54.145149" lon="13.804648"><ele>2</ele></trkpt>
   <trkpt lat="54.145015" lon="13.802922"><ele>1.75</ele></trkpt>
   <trkpt lat="54.144974" lon="13.80251"><ele>2</ele></trkpt>
   <trkpt lat="54.144925" lon="13.8021"><ele>2</ele></trkpt>
   <trkpt lat="54.144841" lon="13.801669"><ele>2</ele></trkpt>
   <trkpt lat="54.144642" lon="13.800938"><ele>2</ele></trkpt>
   <trkpt lat="54.144102" lon="13.799184"><ele>2</ele></trkpt>
   <trkpt lat="54.143854" lon="13.798114"><ele>2</ele></trkpt>
   <trkpt lat="54.143139" lon="13.794863"><ele>2</ele></trkpt>
   <trkpt lat="54.142966" lon="13.794159"><ele>2</ele></trkpt>
   <trkpt lat="54.142813" lon="13.793715"><ele>2</ele></trkpt>
   <trkpt lat="54.141639" lon="13.790803"><ele>1</ele></trkpt>
   <trkpt lat="54.1414" lon="13.7901"><ele>1</ele></trkpt>
   <trkpt lat="54.141294" lon="13.789731"><ele>1.25</ele></trkpt>
   <trkpt lat="54.141174" lon="13.789253"><ele>1.75</ele></trkpt>
   <trkpt lat="54.141097" lon="13.788859"><ele>2</ele></trkpt>
   <trkpt lat="54.140147" lon="13.782804"><ele>2</ele></trkpt>
   <trkpt lat="54.140055" lon="13.782271"><ele>2</ele></trkpt>
   <trkpt lat="54.139966" lon="13.781843"><ele>2</ele></trkpt>
   <trkpt lat="54.139782" lon="13.781137"><ele>2</ele></trkpt>
   <trkpt lat="54.138802" lon="13.778404"><ele>1.5</ele></trkpt>
   <trkpt lat="54.138672" lon="13.77802"><ele>2</ele></trkpt>
   <trkpt lat="54.138596" lon="13.777692"><ele>1.75</ele></trkpt>
   <trkpt lat="54.138583" lon="13.777635"><ele>1.75</ele></trkpt>
   <trkpt lat="54.138577" lon="13.777591"><ele>1.75</ele></trkpt>
   <trkpt lat="54.138573" lon="13.777555"><ele>1.75</ele></trkpt>
   <trkpt lat="54.138522" lon="13.77718"><ele>2</ele></trkpt>
   <trkpt lat="54.138502" lon="13.776917"><ele>2</ele></trkpt>
   <trkpt lat="54.138495" lon="13.776663"><ele>2</ele></trkpt>
   <trkpt lat="54.1385" lon="13.776443"><ele>2</ele></trkpt>
   <trkpt lat="54.138523" lon="13.776056"><ele>2</ele></trkpt>
   <trkpt lat="54.13863" lon="13.775125"><ele>2</ele></trkpt>
   <trkpt lat="54.138671" lon="13.774518"><ele>2</ele></trkpt>
   <trkpt lat="54.13871" lon="13.773901"><ele>2</ele></trkpt>
   <trkpt lat="54.138748" lon="13.773292"><ele>2</ele></trkpt>
  </trkseg>
 </trk>
</gpx>