<?xml version="1.0" encoding="UTF-8"?>
<!-- track-length = 52742 filtered ascend = 597 plain-ascend = 479 cost=52742 energy=.8kwh time=1h 10m 19s -->
<gpx 
 xmlns="http://www.topografix.com/GPX/1/1" 
 xmlns:xsi="http://www.w3.org/2001/XMLSchema-instance" 
 xsi:schemaLocation="http://www.topografix.com/GPX/1/1 http://www.topografix.com/GPX/1/1/gpx.xsd" 
 creator="BRouter-1.7.0" version="1.1">
 <trk>
  <name>Zwickau - Schneck - 52.7 km</name>
  <trkseg>
   <trkpt lon="12.476121" lat="50.715576"><ele>287.25</ele></trkpt>
   <trkpt lon="12.475416" lat="50.715255"><ele>287.25</ele></trkpt>
   <trkpt lon="12.475364" lat="50.715230"><ele>287.25</ele></trkpt>
   <trkpt lon="12.474645" lat="50.714902"><ele>286.75</ele></trkpt>
   <trkpt lon="12.474230" lat="50.714735"><ele>286.5</ele></trkpt>
   <trkpt lon="12.472232" lat="50.714018"><ele>287.0</ele></trkpt>
   <trkpt lon="12.472162" lat="50.713995"><ele>287.0</ele></trkpt>
   <trkpt lon="12.471100" lat="50.713627"><ele>287.5</ele></trkpt>
   <trkpt lon="12.470793" lat="50.713536"><ele>288.0</ele></trkpt>
   <trkpt lon="12.469654" lat="50.713231"><ele>288.5</ele></trkpt>
   <trkpt lon="12.469191" lat="50.713144"><ele>288.75</ele></trkpt>
   <trkpt lon="12.468672" lat="50.713042"><ele>289.25</ele></trkpt>
   <trkpt lon="12.468181" lat="50.712950"><ele>289.25</ele></trkpt>
   <trkpt lon="12.467270" lat="50.712707"><ele>289.0</ele></trkpt>
   <trkpt lon="12.467103" lat="50.712664"><ele>289.0</ele></trkpt>
   <trkpt lon="12.465903" lat="50.712361"><ele>290.5</ele></trkpt>
   <trkpt lon="12.464968" lat="50.712144"><ele>290.75</ele></trkpt>
   <trkpt lon="12.461969" lat="50.711483"><ele>293.5</ele></trkpt>
   <trkpt lon="12.461517" lat="50.711376"><ele>293.5</ele></trkpt>
   <trkpt lon="12.460477" lat="50.711108"><ele>293.75</ele></trkpt>
   <trkpt lon="12.458014" lat="50.710431"><ele>294.5</ele></trkpt>
   <trkpt lon="12.457559" lat="50.710306"><ele>295.25</ele></trkpt>
   <trkpt lon="12.451208" lat="50.708553"><ele>301.25</ele></trkpt>
   <trkpt lon="12.450575" lat="50.708386"><ele>301.75</ele></trkpt>
   <trkpt lon="12.450023" lat="50.708256"><ele>301.75</ele></trkpt>
   <trkpt lon="12.449273" lat="50.708121"><ele>301.75</ele></trkpt>
   <trkpt lon="12.448942" lat="50.708077"><ele>301.5</ele></trkpt>
   <trkpt lon="12.448563" lat="50.708034"><ele>301.25</ele></trkpt>
   <trkpt lon="12.448197" lat="50.708002"><ele>301.0</ele></trkpt>
   <trkpt lon="12.446553" lat="50.707886"><ele>303.0</ele></trkpt>
   <trkpt lon="12.446147" lat="50.707845"><ele>303.25</ele></trkpt>
   <trkpt lon="12.445488" lat="50.707755"><ele>303.75</ele></trkpt>
   <trkpt lon="12.444927" lat="50.707653"><ele>304.25</ele></trkpt>
   <trkpt lon="12.444453" lat="50.707547"><ele>304.5</ele></trkpt>
   <trkpt lon="12.443856" lat="50.707394"><ele>304.75</ele></trkpt>
   <trkpt lon="12.436835" lat="50.705568"><ele>310.75</ele></trkpt>
   <trkpt lon="12.434774" lat="50.705032"><ele>312.25</ele></trkpt>
   <trkpt lon="12.434084" lat="50.704845"><ele>313.25</ele></trkpt>
   <trkpt lon="12.433716" lat="50.704726"><ele>314.0</ele></trkpt>
   <trkpt lon="12.433409" lat="50.704602"><ele>314.75</ele></trkpt>
   <trkpt lon="12.433118" lat="50.704461"><ele>314.75</ele></trkpt>
   <trkpt lon="12.433112" lat="50.704458"><ele>314.75</ele></trkpt>
   <trkpt lon="12.433032" lat="50.704417"><ele>314.75</ele></trkpt>
   <trkpt lon="12.432814" lat="50.704288"><ele>314.75</ele></trkpt>
   <trkpt lon="12.432640" lat="50.704172"><ele>315.0</ele></trkpt>
   <trkpt lon="12.432427" lat="50.704013"><ele>315.0</ele></trkpt>
   <trkpt lon="12.432264" lat="50.703880"><ele>315.25</ele></trkpt>
   <trkpt lon="12.432083" lat="50.703714"><ele>315.5</ele></trkpt>
   <trkpt lon="12.431918" lat="50.703546"><ele>315.5</ele></trkpt>
   <trkpt lon="12.431779" lat="50.703378"><ele>315.75</ele></trkpt>
   <trkpt lon="12.431666" lat="50.703217"><ele>316.25</ele></trkpt>
   <trkpt lon="12.431610" lat="50.703126"><ele>316.75</ele></trkpt>
   <trkpt lon="12.431515" lat="50.702938"><ele>317.5</ele></trkpt>
   <trkpt lon="12.431435" lat="50.702730"><ele>318.5</ele></trkpt>
   <trkpt lon="12.431388" lat="50.702542"><ele>319.5</ele></trkpt>
   <trkpt lon="12.431361" lat="50.702341"><ele>320.25</ele></trkpt>
   <trkpt lon="12.431356" lat="50.702143"><ele>321.0</ele></trkpt>
   <trkpt lon="12.431375" lat="50.701952"><ele>321.5</ele></trkpt>
   <trkpt lon="12.431415" lat="50.701739"><ele>322.25</ele></trkpt>
   <trkpt lon="12.431512" lat="50.701408"><ele>323.5</ele></trkpt>
   <trkpt lon="12.431586" lat="50.701216"><ele>324.25</ele></trkpt>
   <trkpt lon="12.431652" lat="50.701080"><ele>324.75</ele></trkpt>
   <trkpt lon="12.431770" lat="50.700881"><ele>325.5</ele></trkpt>
   <trkpt lon="12.431911" lat="50.700689"><ele>326.25</ele></trkpt>
   <trkpt lon="12.432062" lat="50.700512"><ele>326.75</ele></trkpt>
   <trkpt lon="12.432220" lat="50.700356"><ele>327.0</ele></trkpt>
   <trkpt lon="12.432420" lat="50.700183"><ele>327.5</ele></trkpt>
   <trkpt lon="12.432601" lat="50.700047"><ele>327.5</ele></trkpt>
   <trkpt lon="12.432835" lat="50.699890"><ele>327.75</ele></trkpt>
   <trkpt lon="12.433075" lat="50.699751"><ele>328.25</ele></trkpt>
   <trkpt lon="12.433322" lat="50.699629"><ele>328.5</ele></trkpt>
   <trkpt lon="12.433614" lat="50.699502"><ele>329.25</ele></trkpt>
   <trkpt lon="12.433915" lat="50.699389"><ele>329.75</ele></trkpt>
   <trkpt lon="12.434574" lat="50.699174"><ele>329.75</ele></trkpt>
   <trkpt lon="12.436254" lat="50.698655"><ele>331.5</ele></trkpt>
   <trkpt lon="12.437682" lat="50.698216"><ele>329.75</ele></trkpt>
   <trkpt lon="12.438022" lat="50.698107"><ele>329.5</ele></trkpt>
   <trkpt lon="12.438381" lat="50.697983"><ele>329.0</ele></trkpt>
   <trkpt lon="12.438726" lat="50.697843"><ele>329.25</ele></trkpt>
   <trkpt lon="12.439080" lat="50.697684"><ele>329.25</ele></trkpt>
   <trkpt lon="12.439422" lat="50.697512"><ele>329.5</ele></trkpt>
   <trkpt lon="12.439788" lat="50.697311"><ele>330.0</ele></trkpt>
   <trkpt lon="12.440045" lat="50.697157"><ele>330.5</ele></trkpt>
   <trkpt lon="12.440353" lat="50.696955"><ele>331.5</ele></trkpt>
   <trkpt lon="12.440642" lat="50.696751"><ele>332.5</ele></trkpt>
   <trkpt lon="12.440894" lat="50.696555"><ele>333.25</ele></trkpt>
   <trkpt lon="12.441380" lat="50.696131"><ele>334.75</ele></trkpt>
   <trkpt lon="12.442811" lat="50.694831"><ele>334.5</ele></trkpt>
   <trkpt lon="12.443918" lat="50.693832"><ele>335.5</ele></trkpt>
   <trkpt lon="12.444100" lat="50.693675"><ele>335.75</ele></trkpt>
   <trkpt lon="12.444253" lat="50.693555"><ele>335.75</ele></trkpt>
   <trkpt lon="12.444575" lat="50.693319"><ele>336.0</ele></trkpt>
   <trkpt lon="12.445090" lat="50.692974"><ele>337.5</ele></trkpt>
   <trkpt lon="12.445796" lat="50.692523"><ele>339.75</ele></trkpt>
   <trkpt lon="12.446036" lat="50.692378"><ele>339.75</ele></trkpt>
   <trkpt lon="12.446264" lat="50.692256"><ele>339.75</ele></trkpt>
   <trkpt lon="12.446472" lat="50.692154"><ele>339.5</ele></trkpt>
   <trkpt lon="12.446709" lat="50.692056"><ele>339.5</ele></trkpt>
   <trkpt lon="12.446934" lat="50.691974"><ele>339.75</ele></trkpt>
   <trkpt lon="12.447175" lat="50.691898"><ele>340.0</ele></trkpt>
   <trkpt lon="12.447420" lat="50.691832"><ele>340.25</ele></trkpt>
   <trkpt lon="12.447849" lat="50.691744"><ele>340.5</ele></trkpt>
   <trkpt lon="12.448066" lat="50.691711"><ele>340.75</ele></trkpt>
   <trkpt lon="12.448509" lat="50.691669"><ele>340.75</ele></trkpt>
   <trkpt lon="12.448759" lat="50.691656"><ele>341.0</ele></trkpt>
   <trkpt lon="12.449265" lat="50.691661"><ele>341.0</ele></trkpt>
   <trkpt lon="12.449535" lat="50.691678"><ele>341.25</ele></trkpt>
   <trkpt lon="12.449856" lat="50.691709"><ele>341.5</ele></trkpt>
   <trkpt lon="12.451790" lat="50.691926"><ele>344.25</ele></trkpt>
   <trkpt lon="12.452090" lat="50.691955"><ele>344.75</ele></trkpt>
   <trkpt lon="12.452346" lat="50.691973"><ele>345.0</ele></trkpt>
   <trkpt lon="12.452600" lat="50.691983"><ele>345.5</ele></trkpt>
   <trkpt lon="12.452851" lat="50.691984"><ele>346.0</ele></trkpt>
   <trkpt lon="12.453119" lat="50.691975"><ele>346.5</ele></trkpt>
   <trkpt lon="12.453362" lat="50.691958"><ele>347.0</ele></trkpt>
   <trkpt lon="12.453613" lat="50.691929"><ele>347.0</ele></trkpt>
   <trkpt lon="12.453844" lat="50.691895"><ele>347.25</ele></trkpt>
   <trkpt lon="12.454128" lat="50.691840"><ele>347.5</ele></trkpt>
   <trkpt lon="12.454396" lat="50.691777"><ele>348.0</ele></trkpt>
   <trkpt lon="12.454634" lat="50.691708"><ele>348.5</ele></trkpt>
   <trkpt lon="12.454849" lat="50.691636"><ele>349.0</ele></trkpt>
   <trkpt lon="12.455235" lat="50.691480"><ele>349.5</ele></trkpt>
   <trkpt lon="12.455637" lat="50.691271"><ele>350.0</ele></trkpt>
   <trkpt lon="12.455848" lat="50.691138"><ele>350.5</ele></trkpt>
   <trkpt lon="12.456057" lat="50.690987"><ele>350.5</ele></trkpt>
   <trkpt lon="12.456255" lat="50.690820"><ele>351.0</ele></trkpt>
   <trkpt lon="12.456437" lat="50.690638"><ele>351.25</ele></trkpt>
   <trkpt lon="12.456602" lat="50.690444"><ele>351.5</ele></trkpt>
   <trkpt lon="12.456739" lat="50.690246"><ele>351.75</ele></trkpt>
   <trkpt lon="12.456884" lat="50.690012"><ele>352.25</ele></trkpt>
   <trkpt lon="12.457193" lat="50.689464"><ele>353.25</ele></trkpt>
   <trkpt lon="12.457431" lat="50.689019"><ele>353.75</ele></trkpt>
   <trkpt lon="12.457542" lat="50.688787"><ele>354.5</ele></trkpt>
   <trkpt lon="12.457631" lat="50.688559"><ele>355.25</ele></trkpt>
   <trkpt lon="12.457708" lat="50.688309"><ele>356.0</ele></trkpt>
   <trkpt lon="12.457758" lat="50.688053"><ele>356.75</ele></trkpt>
   <trkpt lon="12.457785" lat="50.687799"><ele>357.75</ele></trkpt>
   <trkpt lon="12.457784" lat="50.687566"><ele>358.5</ele></trkpt>
   <trkpt lon="12.457766" lat="50.687338"><ele>359.0</ele></trkpt>
   <trkpt lon="12.457719" lat="50.687091"><ele>359.0</ele></trkpt>
   <trkpt lon="12.457652" lat="50.686854"><ele>359.25</ele></trkpt>
   <trkpt lon="12.457587" lat="50.686674"><ele>359.5</ele></trkpt>
   <trkpt lon="12.457512" lat="50.686509"><ele>360.0</ele></trkpt>
   <trkpt lon="12.457418" lat="50.686331"><ele>360.5</ele></trkpt>
   <trkpt lon="12.457305" lat="50.686141"><ele>361.0</ele></trkpt>
   <trkpt lon="12.457179" lat="50.685959"><ele>361.5</ele></trkpt>
   <trkpt lon="12.456920" lat="50.685645"><ele>362.0</ele></trkpt>
   <trkpt lon="12.456605" lat="50.685339"><ele>362.5</ele></trkpt>
   <trkpt lon="12.456401" lat="50.685167"><ele>363.25</ele></trkpt>
   <trkpt lon="12.456046" lat="50.684912"><ele>364.0</ele></trkpt>
   <trkpt lon="12.455666" lat="50.684675"><ele>364.0</ele></trkpt>
   <trkpt lon="12.452037" lat="50.682649"><ele>368.75</ele></trkpt>
   <trkpt lon="12.451772" lat="50.682512"><ele>369.5</ele></trkpt>
   <trkpt lon="12.451493" lat="50.682391"><ele>369.75</ele></trkpt>
   <trkpt lon="12.451225" lat="50.682288"><ele>370.25</ele></trkpt>
   <trkpt lon="12.450943" lat="50.682197"><ele>371.0</ele></trkpt>
   <trkpt lon="12.450659" lat="50.682127"><ele>371.75</ele></trkpt>
   <trkpt lon="12.450383" lat="50.682072"><ele>372.75</ele></trkpt>
   <trkpt lon="12.450084" lat="50.682026"><ele>373.75</ele></trkpt>
   <trkpt lon="12.449774" lat="50.681988"><ele>375.0</ele></trkpt>
   <trkpt lon="12.447251" lat="50.681756"><ele>381.75</ele></trkpt>
   <trkpt lon="12.446865" lat="50.681717"><ele>381.75</ele></trkpt>
   <trkpt lon="12.446356" lat="50.681651"><ele>381.25</ele></trkpt>
   <trkpt lon="12.446112" lat="50.681605"><ele>380.5</ele></trkpt>
   <trkpt lon="12.445881" lat="50.681554"><ele>380.0</ele></trkpt>
   <trkpt lon="12.445624" lat="50.681487"><ele>380.0</ele></trkpt>
   <trkpt lon="12.445208" lat="50.681350"><ele>379.75</ele></trkpt>
   <trkpt lon="12.444853" lat="50.681203"><ele>379.5</ele></trkpt>
   <trkpt lon="12.444526" lat="50.681033"><ele>379.0</ele></trkpt>
   <trkpt lon="12.444362" lat="50.680932"><ele>379.0</ele></trkpt>
   <trkpt lon="12.444213" lat="50.680831"><ele>379.0</ele></trkpt>
   <trkpt lon="12.444095" lat="50.680741"><ele>379.0</ele></trkpt>
   <trkpt lon="12.443900" lat="50.680576"><ele>379.25</ele></trkpt>
   <trkpt lon="12.443281" lat="50.679995"><ele>379.75</ele></trkpt>
   <trkpt lon="12.443058" lat="50.679797"><ele>379.25</ele></trkpt>
   <trkpt lon="12.441592" lat="50.678536"><ele>379.5</ele></trkpt>
   <trkpt lon="12.440472" lat="50.677574"><ele>381.0</ele></trkpt>
   <trkpt lon="12.437884" lat="50.675343"><ele>381.75</ele></trkpt>
   <trkpt lon="12.437661" lat="50.675144"><ele>381.25</ele></trkpt>
   <trkpt lon="12.437445" lat="50.674933"><ele>381.25</ele></trkpt>
   <trkpt lon="12.437277" lat="50.674750"><ele>382.0</ele></trkpt>
   <trkpt lon="12.437115" lat="50.674551"><ele>383.0</ele></trkpt>
   <trkpt lon="12.436957" lat="50.674335"><ele>384.0</ele></trkpt>
   <trkpt lon="12.436831" lat="50.674129"><ele>385.25</ele></trkpt>
   <trkpt lon="12.436712" lat="50.673906"><ele>385.75</ele></trkpt>
   <trkpt lon="12.436615" lat="50.673685"><ele>386.75</ele></trkpt>
   <trkpt lon="12.436549" lat="50.673501"><ele>387.5</ele></trkpt>
   <trkpt lon="12.436491" lat="50.673297"><ele>388.0</ele></trkpt>
   <trkpt lon="12.436449" lat="50.673101"><ele>388.0</ele></trkpt>
   <trkpt lon="12.436420" lat="50.672906"><ele>388.0</ele></trkpt>
   <trkpt lon="12.436401" lat="50.672627"><ele>388.0</ele></trkpt>
   <trkpt lon="12.436411" lat="50.672354"><ele>387.75</ele></trkpt>
   <trkpt lon="12.436443" lat="50.672104"><ele>387.5</ele></trkpt>
   <trkpt lon="12.436495" lat="50.671866"><ele>387.5</ele></trkpt>
   <trkpt lon="12.436544" lat="50.671700"><ele>387.5</ele></trkpt>
   <trkpt lon="12.436611" lat="50.671509"><ele>387.75</ele></trkpt>
   <trkpt lon="12.436712" lat="50.671279"><ele>388.5</ele></trkpt>
   <trkpt lon="12.436838" lat="50.671046"><ele>389.5</ele></trkpt>
   <trkpt lon="12.436988" lat="50.670800"><ele>390.5</ele></trkpt>
   <trkpt lon="12.437156" lat="50.670571"><ele>390.75</ele></trkpt>
   <trkpt lon="12.439360" lat="50.667916"><ele>392.75</ele></trkpt>
   <trkpt lon="12.439747" lat="50.667462"><ele>394.0</ele></trkpt>
   <trkpt lon="12.439954" lat="50.667258"><ele>395.75</ele></trkpt>
   <trkpt lon="12.440178" lat="50.667072"><ele>396.75</ele></trkpt>
   <trkpt lon="12.440397" lat="50.666919"><ele>397.25</ele></trkpt>
   <trkpt lon="12.440665" lat="50.666760"><ele>397.75</ele></trkpt>
   <trkpt lon="12.440967" lat="50.666606"><ele>397.75</ele></trkpt>
   <trkpt lon="12.441303" lat="50.666471"><ele>397.5</ele></trkpt>
   <trkpt lon="12.441655" lat="50.666353"><ele>397.5</ele></trkpt>
   <trkpt lon="12.441967" lat="50.666267"><ele>397.25</ele></trkpt>
   <trkpt lon="12.443345" lat="50.665925"><ele>397.25</ele></trkpt>
   <trkpt lon="12.443687" lat="50.665832"><ele>397.75</ele></trkpt>
   <trkpt lon="12.444044" lat="50.665719"><ele>398.0</ele></trkpt>
   <trkpt lon="12.444400" lat="50.665560"><ele>398.5</ele></trkpt>
   <trkpt lon="12.444676" lat="50.665418"><ele>399.0</ele></trkpt>
   <trkpt lon="12.444961" lat="50.665241"><ele>399.5</ele></trkpt>
   <trkpt lon="12.445210" lat="50.665057"><ele>399.25</ele></trkpt>
   <trkpt lon="12.445391" lat="50.664899"><ele>399.25</ele></trkpt>
   <trkpt lon="12.445528" lat="50.664760"><ele>399.25</ele></trkpt>
   <trkpt lon="12.445655" lat="50.664612"><ele>399.25</ele></trkpt>
   <trkpt lon="12.445764" lat="50.664463"><ele>399.25</ele></trkpt>
   <trkpt lon="12.445858" lat="50.664317"><ele>399.0</ele></trkpt>
   <trkpt lon="12.445998" lat="50.664017"><ele>399.5</ele></trkpt>
   <trkpt lon="12.446048" lat="50.663861"><ele>399.75</ele></trkpt>
   <trkpt lon="12.446087" lat="50.663691"><ele>400.0</ele></trkpt>
   <trkpt lon="12.446108" lat="50.663521"><ele>400.0</ele></trkpt>
   <trkpt lon="12.446108" lat="50.663308"><ele>400.25</ele></trkpt>
   <trkpt lon="12.446080" lat="50.663077"><ele>401.0</ele></trkpt>
   <trkpt lon="12.446028" lat="50.662869"><ele>401.75</ele></trkpt>
   <trkpt lon="12.445959" lat="50.662661"><ele>402.5</ele></trkpt>
   <trkpt lon="12.444340" lat="50.658355"><ele>412.0</ele></trkpt>
   <trkpt lon="12.443614" lat="50.656436"><ele>413.75</ele></trkpt>
   <trkpt lon="12.442677" lat="50.653946"><ele>419.75</ele></trkpt>
   <trkpt lon="12.442616" lat="50.653772"><ele>420.0</ele></trkpt>
   <trkpt lon="12.442560" lat="50.653574"><ele>420.25</ele></trkpt>
   <trkpt lon="12.442527" lat="50.653402"><ele>420.75</ele></trkpt>
   <trkpt lon="12.442513" lat="50.653208"><ele>421.5</ele></trkpt>
   <trkpt lon="12.442516" lat="50.653026"><ele>422.0</ele></trkpt>
   <trkpt lon="12.442545" lat="50.652861"><ele>423.0</ele></trkpt>
   <trkpt lon="12.442586" lat="50.652703"><ele>423.75</ele></trkpt>
   <trkpt lon="12.442686" lat="50.652446"><ele>425.25</ele></trkpt>
   <trkpt lon="12.442798" lat="50.652193"><ele>426.0</ele></trkpt>
   <trkpt lon="12.443205" lat="50.651365"><ele>428.25</ele></trkpt>
   <trkpt lon="12.443396" lat="50.650980"><ele>428.5</ele></trkpt>
   <trkpt lon="12.443950" lat="50.649853"><ele>430.5</ele></trkpt>
   <trkpt lon="12.444078" lat="50.649530"><ele>431.25</ele></trkpt>
   <trkpt lon="12.444168" lat="50.649215"><ele>432.0</ele></trkpt>
   <trkpt lon="12.444202" lat="50.649050"><ele>432.0</ele></trkpt>
   <trkpt lon="12.444236" lat="50.648735"><ele>432.25</ele></trkpt>
   <trkpt lon="12.444235" lat="50.648413"><ele>432.25</ele></trkpt>
   <trkpt lon="12.444198" lat="50.648083"><ele>432.25</ele></trkpt>
   <trkpt lon="12.444127" lat="50.647761"><ele>432.25</ele></trkpt>
   <trkpt lon="12.444019" lat="50.647455"><ele>432.25</ele></trkpt>
   <trkpt lon="12.443949" lat="50.647293"><ele>433.25</ele></trkpt>
   <trkpt lon="12.443787" lat="50.646989"><ele>434.75</ele></trkpt>
   <trkpt lon="12.443688" lat="50.646826"><ele>435.75</ele></trkpt>
   <trkpt lon="12.443580" lat="50.646671"><ele>436.75</ele></trkpt>
   <trkpt lon="12.443333" lat="50.646364"><ele>440.25</ele></trkpt>
   <trkpt lon="12.443197" lat="50.646217"><ele>441.25</ele></trkpt>
   <trkpt lon="12.442876" lat="50.645915"><ele>442.5</ele></trkpt>
   <trkpt lon="12.442534" lat="50.645639"><ele>440.75</ele></trkpt>
   <trkpt lon="12.442352" lat="50.645511"><ele>440.0</ele></trkpt>
   <trkpt lon="12.442156" lat="50.645385"><ele>439.0</ele></trkpt>
   <trkpt lon="12.441928" lat="50.645259"><ele>438.0</ele></trkpt>
   <trkpt lon="12.441679" lat="50.645137"><ele>437.25</ele></trkpt>
   <trkpt lon="12.441516" lat="50.645070"><ele>437.75</ele></trkpt>
   <trkpt lon="12.441274" lat="50.644979"><ele>439.0</ele></trkpt>
   <trkpt lon="12.440991" lat="50.644889"><ele>440.0</ele></trkpt>
   <trkpt lon="12.440649" lat="50.644801"><ele>441.25</ele></trkpt>
   <trkpt lon="12.440300" lat="50.644734"><ele>442.25</ele></trkpt>
   <trkpt lon="12.439937" lat="50.644684"><ele>443.25</ele></trkpt>
   <trkpt lon="12.439588" lat="50.644647"><ele>443.5</ele></trkpt>
   <trkpt lon="12.438222" lat="50.644537"><ele>444.0</ele></trkpt>
   <trkpt lon="12.437640" lat="50.644466"><ele>443.5</ele></trkpt>
   <trkpt lon="12.437106" lat="50.644372"><ele>443.5</ele></trkpt>
   <trkpt lon="12.436842" lat="50.644317"><ele>443.75</ele></trkpt>
   <trkpt lon="12.436592" lat="50.644255"><ele>443.75</ele></trkpt>
   <trkpt lon="12.436140" lat="50.644127"><ele>444.0</ele></trkpt>
   <trkpt lon="12.435536" lat="50.643916"><ele>444.0</ele></trkpt>
   <trkpt lon="12.435168" lat="50.643759"><ele>444.5</ele></trkpt>
   <trkpt lon="12.434805" lat="50.643583"><ele>445.75</ele></trkpt>
   <trkpt lon="12.434471" lat="50.643399"><ele>446.75</ele></trkpt>
   <trkpt lon="12.434037" lat="50.643137"><ele>449.25</ele></trkpt>
   <trkpt lon="12.433906" lat="50.643055"><ele>450.25</ele></trkpt>
   <trkpt lon="12.433279" lat="50.642673"><ele>455.25</ele></trkpt>
   <trkpt lon="12.433043" lat="50.642515"><ele>457.0</ele></trkpt>
   <trkpt lon="12.432327" lat="50.642062"><ele>460.25</ele></trkpt>
   <trkpt lon="12.430611" lat="50.640998"><ele>464.0</ele></trkpt>
   <trkpt lon="12.430355" lat="50.640835"><ele>464.25</ele></trkpt>
   <trkpt lon="12.429974" lat="50.640553"><ele>464.75</ele></trkpt>
   <trkpt lon="12.429745" lat="50.640367"><ele>465.5</ele></trkpt>
   <trkpt lon="12.429591" lat="50.640223"><ele>465.75</ele></trkpt>
   <trkpt lon="12.429446" lat="50.640081"><ele>466.0</ele></trkpt>
   <trkpt lon="12.429296" lat="50.639919"><ele>466.0</ele></trkpt>
   <trkpt lon="12.429141" lat="50.639741"><ele>466.0</ele></trkpt>
   <trkpt lon="12.428919" lat="50.639450"><ele>465.75</ele></trkpt>
   <trkpt lon="12.428803" lat="50.639292"><ele>465.0</ele></trkpt>
   <trkpt lon="12.428631" lat="50.639022"><ele>463.25</ele></trkpt>
   <trkpt lon="12.428376" lat="50.638571"><ele>459.75</ele></trkpt>
   <trkpt lon="12.428226" lat="50.638251"><ele>458.25</ele></trkpt>
   <trkpt lon="12.427964" lat="50.637647"><ele>454.75</ele></trkpt>
   <trkpt lon="12.427269" lat="50.636042"><ele>451.5</ele></trkpt>
   <trkpt lon="12.426468" lat="50.634158"><ele>450.75</ele></trkpt>
   <trkpt lon="12.426343" lat="50.633872"><ele>450.75</ele></trkpt>
   <trkpt lon="12.426023" lat="50.633125"><ele>450.25</ele></trkpt>
   <trkpt lon="12.425845" lat="50.632637"><ele>450.5</ele></trkpt>
   <trkpt lon="12.425783" lat="50.632488"><ele>450.75</ele></trkpt>
   <trkpt lon="12.425720" lat="50.632356"><ele>450.75</ele></trkpt>
   <trkpt lon="12.425640" lat="50.632221"><ele>450.75</ele></trkpt>
   <trkpt lon="12.425534" lat="50.632060"><ele>450.75</ele></trkpt>
   <trkpt lon="12.425273" lat="50.631738"><ele>451.0</ele></trkpt>
   <trkpt lon="12.425045" lat="50.631500"><ele>451.0</ele></trkpt>
   <trkpt lon="12.424826" lat="50.631302"><ele>450.75</ele></trkpt>
   <trkpt lon="12.424635" lat="50.631144"><ele>451.0</ele></trkpt>
   <trkpt lon="12.418947" lat="50.626734"><ele>449.0</ele></trkpt>
   <trkpt lon="12.418748" lat="50.626571"><ele>449.5</ele></trkpt>
   <trkpt lon="12.418561" lat="50.626396"><ele>450.0</ele></trkpt>
   <trkpt lon="12.418391" lat="50.626211"><ele>450.25</ele></trkpt>
   <trkpt lon="12.418247" lat="50.626019"><ele>450.75</ele></trkpt>
   <trkpt lon="12.418124" lat="50.625819"><ele>451.0</ele></trkpt>
   <trkpt lon="12.418031" lat="50.625616"><ele>450.5</ele></trkpt>
   <trkpt lon="12.417972" lat="50.625441"><ele>449.75</ele></trkpt>
   <trkpt lon="12.417932" lat="50.625270"><ele>449.25</ele></trkpt>
   <trkpt lon="12.417904" lat="50.625058"><ele>448.75</ele></trkpt>
   <trkpt lon="12.417903" lat="50.624898"><ele>448.5</ele></trkpt>
   <trkpt lon="12.417956" lat="50.624376"><ele>449.25</ele></trkpt>
   <trkpt lon="12.418147" lat="50.622988"><ele>446.75</ele></trkpt>
   <trkpt lon="12.418165" lat="50.622792"><ele>445.75</ele></trkpt>
   <trkpt lon="12.418166" lat="50.622597"><ele>444.75</ele></trkpt>
   <trkpt lon="12.418144" lat="50.622405"><ele>444.25</ele></trkpt>
   <trkpt lon="12.418102" lat="50.622207"><ele>444.25</ele></trkpt>
   <trkpt lon="12.418037" lat="50.622010"><ele>444.25</ele></trkpt>
   <trkpt lon="12.417953" lat="50.621829"><ele>444.25</ele></trkpt>
   <trkpt lon="12.417847" lat="50.621646"><ele>444.5</ele></trkpt>
   <trkpt lon="12.417714" lat="50.621466"><ele>445.0</ele></trkpt>
   <trkpt lon="12.417548" lat="50.621282"><ele>445.5</ele></trkpt>
   <trkpt lon="12.417382" lat="50.621114"><ele>446.5</ele></trkpt>
   <trkpt lon="12.417207" lat="50.620969"><ele>447.75</ele></trkpt>
   <trkpt lon="12.417013" lat="50.620827"><ele>449.25</ele></trkpt>
   <trkpt lon="12.415564" lat="50.619852"><ele>450.0</ele></trkpt>
   <trkpt lon="12.415331" lat="50.619677"><ele>450.5</ele></trkpt>
   <trkpt lon="12.415119" lat="50.619493"><ele>450.5</ele></trkpt>
   <trkpt lon="12.414930" lat="50.619299"><ele>450.0</ele></trkpt>
   <trkpt lon="12.414786" lat="50.619125"><ele>449.5</ele></trkpt>
   <trkpt lon="12.414686" lat="50.618976"><ele>449.0</ele></trkpt>
   <trkpt lon="12.414601" lat="50.618830"><ele>448.75</ele></trkpt>
   <trkpt lon="12.414059" lat="50.617716"><ele>452.25</ele></trkpt>
   <trkpt lon="12.411921" lat="50.613258"><ele>453.0</ele></trkpt>
   <trkpt lon="12.411704" lat="50.612870"><ele>452.5</ele></trkpt>
   <trkpt lon="12.411453" lat="50.612490"><ele>452.0</ele></trkpt>
   <trkpt lon="12.410131" lat="50.610549"><ele>447.5</ele></trkpt>
   <trkpt lon="12.410008" lat="50.610351"><ele>447.75</ele></trkpt>
   <trkpt lon="12.409917" lat="50.610186"><ele>448.5</ele></trkpt>
   <trkpt lon="12.409841" lat="50.610023"><ele>449.0</ele></trkpt>
   <trkpt lon="12.409776" lat="50.609828"><ele>449.5</ele></trkpt>
   <trkpt lon="12.409731" lat="50.609627"><ele>449.75</ele></trkpt>
   <trkpt lon="12.409623" lat="50.608601"><ele>450.5</ele></trkpt>
   <trkpt lon="12.409575" lat="50.608168"><ele>450.75</ele></trkpt>
   <trkpt lon="12.409548" lat="50.607872"><ele>450.25</ele></trkpt>
   <trkpt lon="12.409466" lat="50.607295"><ele>449.75</ele></trkpt>
   <trkpt lon="12.409392" lat="50.607002"><ele>449.75</ele></trkpt>
   <trkpt lon="12.409295" lat="50.606726"><ele>449.75</ele></trkpt>
   <trkpt lon="12.407878" lat="50.603299"><ele>439.75</ele></trkpt>
   <trkpt lon="12.407738" lat="50.603026"><ele>439.25</ele></trkpt>
   <trkpt lon="12.407555" lat="50.602759"><ele>438.75</ele></trkpt>
   <trkpt lon="12.407324" lat="50.602499"><ele>438.0</ele></trkpt>
   <trkpt lon="12.407074" lat="50.602287"><ele>437.75</ele></trkpt>
   <trkpt lon="12.406795" lat="50.602081"><ele>437.25</ele></trkpt>
   <trkpt lon="12.406471" lat="50.601888"><ele>436.5</ele></trkpt>
   <trkpt lon="12.406155" lat="50.601726"><ele>435.5</ele></trkpt>
   <trkpt lon="12.405375" lat="50.601347"><ele>437.0</ele></trkpt>
   <trkpt lon="12.405033" lat="50.601163"><ele>437.25</ele></trkpt>
   <trkpt lon="12.404810" lat="50.601019"><ele>438.25</ele></trkpt>
   <trkpt lon="12.404596" lat="50.600860"><ele>438.75</ele></trkpt>
   <trkpt lon="12.404393" lat="50.600692"><ele>439.5</ele></trkpt>
   <trkpt lon="12.403382" lat="50.599808"><ele>434.25</ele></trkpt>
   <trkpt lon="12.403151" lat="50.599646"><ele>434.0</ele></trkpt>
   <trkpt lon="12.402887" lat="50.599489"><ele>434.5</ele></trkpt>
   <trkpt lon="12.402624" lat="50.599355"><ele>434.75</ele></trkpt>
   <trkpt lon="12.402128" lat="50.599144"><ele>435.0</ele></trkpt>
   <trkpt lon="12.400183" lat="50.598430"><ele>432.0</ele></trkpt>
   <trkpt lon="12.399640" lat="50.598223"><ele>430.25</ele></trkpt>
   <trkpt lon="12.399388" lat="50.598121"><ele>429.75</ele></trkpt>
   <trkpt lon="12.399081" lat="50.597983"><ele>429.0</ele></trkpt>
   <trkpt lon="12.398812" lat="50.597835"><ele>427.75</ele></trkpt>
   <trkpt lon="12.398589" lat="50.597695"><ele>426.75</ele></trkpt>
   <trkpt lon="12.398395" lat="50.597553"><ele>425.25</ele></trkpt>
   <trkpt lon="12.398205" lat="50.597394"><ele>425.0</ele></trkpt>
   <trkpt lon="12.398055" lat="50.597244"><ele>425.0</ele></trkpt>
   <trkpt lon="12.397893" lat="50.597057"><ele>425.25</ele></trkpt>
   <trkpt lon="12.397738" lat="50.596831"><ele>425.25</ele></trkpt>
   <trkpt lon="12.397620" lat="50.596610"><ele>426.0</ele></trkpt>
   <trkpt lon="12.397539" lat="50.596396"><ele>428.0</ele></trkpt>
   <trkpt lon="12.397485" lat="50.596182"><ele>430.0</ele></trkpt>
   <trkpt lon="12.397458" lat="50.595974"><ele>432.0</ele></trkpt>
   <trkpt lon="12.397454" lat="50.595772"><ele>433.75</ele></trkpt>
   <trkpt lon="12.397482" lat="50.595579"><ele>434.5</ele></trkpt>
   <trkpt lon="12.397526" lat="50.595380"><ele>435.25</ele></trkpt>
   <trkpt lon="12.397593" lat="50.595186"><ele>435.75</ele></trkpt>
   <trkpt lon="12.397683" lat="50.594991"><ele>435.5</ele></trkpt>
   <trkpt lon="12.397791" lat="50.594807"><ele>434.25</ele></trkpt>
   <trkpt lon="12.397932" lat="50.594619"><ele>433.25</ele></trkpt>
   <trkpt lon="12.398418" lat="50.594043"><ele>430.0</ele></trkpt>
   <trkpt lon="12.398591" lat="50.593793"><ele>428.25</ele></trkpt>
   <trkpt lon="12.398698" lat="50.593581"><ele>426.75</ele></trkpt>
   <trkpt lon="12.398777" lat="50.593375"><ele>425.5</ele></trkpt>
   <trkpt lon="12.398831" lat="50.593162"><ele>424.0</ele></trkpt>
   <trkpt lon="12.398857" lat="50.592949"><ele>423.0</ele></trkpt>
   <trkpt lon="12.398857" lat="50.592748"><ele>422.0</ele></trkpt>
   <trkpt lon="12.398838" lat="50.592577"><ele>421.5</ele></trkpt>
   <trkpt lon="12.398802" lat="50.592403"><ele>421.25</ele></trkpt>
   <trkpt lon="12.398745" lat="50.592221"><ele>421.5</ele></trkpt>
   <trkpt lon="12.398667" lat="50.592035"><ele>422.0</ele></trkpt>
   <trkpt lon="12.398573" lat="50.591867"><ele>423.0</ele></trkpt>
   <trkpt lon="12.398460" lat="50.591701"><ele>424.0</ele></trkpt>
   <trkpt lon="12.398336" lat="50.591540"><ele>423.75</ele></trkpt>
   <trkpt lon="12.398189" lat="50.591380"><ele>423.75</ele></trkpt>
   <trkpt lon="12.396671" lat="50.589821"><ele>421.75</ele></trkpt>
   <trkpt lon="12.396464" lat="50.589579"><ele>422.75</ele></trkpt>
   <trkpt lon="12.396370" lat="50.589454"><ele>423.25</ele></trkpt>
   <trkpt lon="12.396280" lat="50.589312"><ele>423.5</ele></trkpt>
   <trkpt lon="12.396170" lat="50.589104"><ele>423.5</ele></trkpt>
   <trkpt lon="12.396088" lat="50.588887"><ele>422.75</ele></trkpt>
   <trkpt lon="12.396031" lat="50.588671"><ele>422.0</ele></trkpt>
   <trkpt lon="12.395996" lat="50.588443"><ele>421.0</ele></trkpt>
   <trkpt lon="12.395772" lat="50.586276"><ele>415.0</ele></trkpt>
   <trkpt lon="12.395720" lat="50.586060"><ele>415.0</ele></trkpt>
   <trkpt lon="12.395650" lat="50.585845"><ele>415.25</ele></trkpt>
   <trkpt lon="12.395568" lat="50.585650"><ele>415.0</ele></trkpt>
   <trkpt lon="12.395473" lat="50.585474"><ele>414.75</ele></trkpt>
   <trkpt lon="12.395388" lat="50.585348"><ele>414.5</ele></trkpt>
   <trkpt lon="12.395179" lat="50.585095"><ele>414.0</ele></trkpt>
   <trkpt lon="12.395051" lat="50.584965"><ele>413.75</ele></trkpt>
   <trkpt lon="12.394889" lat="50.584824"><ele>414.25</ele></trkpt>
   <trkpt lon="12.394711" lat="50.584689"><ele>414.5</ele></trkpt>
   <trkpt lon="12.394523" lat="50.584559"><ele>414.75</ele></trkpt>
   <trkpt lon="12.394320" lat="50.584440"><ele>414.5</ele></trkpt>
   <trkpt lon="12.394063" lat="50.584315"><ele>414.25</ele></trkpt>
   <trkpt lon="12.393796" lat="50.584199"><ele>414.0</ele></trkpt>
   <trkpt lon="12.393521" lat="50.584097"><ele>413.5</ele></trkpt>
   <trkpt lon="12.393232" lat="50.584004"><ele>412.5</ele></trkpt>
   <trkpt lon="12.392949" lat="50.583924"><ele>411.25</ele></trkpt>
   <trkpt lon="12.391727" lat="50.583615"><ele>408.25</ele></trkpt>
   <trkpt lon="12.391382" lat="50.583510"><ele>406.25</ele></trkpt>
   <trkpt lon="12.391128" lat="50.583423"><ele>404.75</ele></trkpt>
   <trkpt lon="12.390891" lat="50.583324"><ele>403.25</ele></trkpt>
   <trkpt lon="12.390718" lat="50.583249"><ele>402.75</ele></trkpt>
   <trkpt lon="12.390444" lat="50.583103"><ele>402.0</ele></trkpt>
   <trkpt lon="12.390194" lat="50.582952"><ele>401.5</ele></trkpt>
   <trkpt lon="12.389955" lat="50.582785"><ele>401.25</ele></trkpt>
   <trkpt lon="12.388802" lat="50.581874"><ele>403.5</ele></trkpt>
   <trkpt lon="12.388582" lat="50.581721"><ele>404.0</ele></trkpt>
   <trkpt lon="12.388337" lat="50.581570"><ele>404.25</ele></trkpt>
   <trkpt lon="12.388076" lat="50.581433"><ele>404.0</ele></trkpt>
   <trkpt lon="12.387787" lat="50.581306"><ele>403.5</ele></trkpt>
   <trkpt lon="12.387474" lat="50.581192"><ele>403.0</ele></trkpt>
   <trkpt lon="12.387122" lat="50.581088"><ele>402.25</ele></trkpt>
   <trkpt lon="12.386780" lat="50.581009"><ele>401.5</ele></trkpt>
   <trkpt lon="12.386428" lat="50.580950"><ele>400.5</ele></trkpt>
   <trkpt lon="12.385722" lat="50.580875"><ele>398.25</ele></trkpt>
   <trkpt lon="12.384641" lat="50.580784"><ele>397.5</ele></trkpt>
   <trkpt lon="12.383996" lat="50.580722"><ele>398.25</ele></trkpt>
   <trkpt lon="12.383691" lat="50.580682"><ele>398.25</ele></trkpt>
   <trkpt lon="12.383393" lat="50.580633"><ele>398.25</ele></trkpt>
   <trkpt lon="12.383111" lat="50.580568"><ele>398.5</ele></trkpt>
   <trkpt lon="12.382856" lat="50.580497"><ele>399.0</ele></trkpt>
   <trkpt lon="12.382627" lat="50.580422"><ele>399.0</ele></trkpt>
   <trkpt lon="12.382395" lat="50.580337"><ele>398.75</ele></trkpt>
   <trkpt lon="12.382171" lat="50.580237"><ele>398.25</ele></trkpt>
   <trkpt lon="12.381955" lat="50.580129"><ele>397.25</ele></trkpt>
   <trkpt lon="12.381716" lat="50.579995"><ele>395.75</ele></trkpt>
   <trkpt lon="12.381084" lat="50.579623"><ele>400.25</ele></trkpt>
   <trkpt lon="12.380879" lat="50.579510"><ele>401.0</ele></trkpt>
   <trkpt lon="12.380653" lat="50.579402"><ele>401.5</ele></trkpt>
   <trkpt lon="12.380416" lat="50.579300"><ele>401.5</ele></trkpt>
   <trkpt lon="12.380186" lat="50.579219"><ele>401.25</ele></trkpt>
   <trkpt lon="12.379929" lat="50.579142"><ele>401.0</ele></trkpt>
   <trkpt lon="12.379650" lat="50.579072"><ele>401.0</ele></trkpt>
   <trkpt lon="12.379355" lat="50.579017"><ele>401.25</ele></trkpt>
   <trkpt lon="12.379056" lat="50.578977"><ele>401.25</ele></trkpt>
   <trkpt lon="12.378750" lat="50.578946"><ele>401.25</ele></trkpt>
   <trkpt lon="12.378433" lat="50.578922"><ele>401.25</ele></trkpt>
   <trkpt lon="12.377801" lat="50.578882"><ele>400.25</ele></trkpt>
   <trkpt lon="12.377195" lat="50.578851"><ele>399.75</ele></trkpt>
   <trkpt lon="12.376591" lat="50.578836"><ele>399.5</ele></trkpt>
   <trkpt lon="12.375398" lat="50.578841"><ele>396.0</ele></trkpt>
   <trkpt lon="12.374895" lat="50.578843"><ele>394.5</ele></trkpt>
   <trkpt lon="12.374690" lat="50.578844"><ele>394.0</ele></trkpt>
   <trkpt lon="12.374285" lat="50.578834"><ele>393.25</ele></trkpt>
   <trkpt lon="12.373872" lat="50.578802"><ele>392.25</ele></trkpt>
   <trkpt lon="12.373427" lat="50.578735"><ele>391.0</ele></trkpt>
   <trkpt lon="12.373189" lat="50.578686"><ele>389.5</ele></trkpt>
   <trkpt lon="12.372751" lat="50.578568"><ele>385.5</ele></trkpt>
   <trkpt lon="12.372539" lat="50.578496"><ele>383.75</ele></trkpt>
   <trkpt lon="12.372292" lat="50.578400"><ele>381.5</ele></trkpt>
   <trkpt lon="12.372070" lat="50.578300"><ele>379.5</ele></trkpt>
   <trkpt lon="12.371883" lat="50.578205"><ele>378.0</ele></trkpt>
   <trkpt lon="12.371710" lat="50.578105"><ele>376.25</ele></trkpt>
   <trkpt lon="12.371518" lat="50.577982"><ele>375.25</ele></trkpt>
   <trkpt lon="12.371338" lat="50.577849"><ele>374.75</ele></trkpt>
   <trkpt lon="12.371171" lat="50.577709"><ele>374.25</ele></trkpt>
   <trkpt lon="12.371007" lat="50.577550"><ele>374.0</ele></trkpt>
   <trkpt lon="12.370864" lat="50.577382"><ele>373.75</ele></trkpt>
   <trkpt lon="12.370725" lat="50.577189"><ele>373.5</ele></trkpt>
   <trkpt lon="12.370612" lat="50.576991"><ele>373.5</ele></trkpt>
   <trkpt lon="12.370512" lat="50.576764"><ele>373.25</ele></trkpt>
   <trkpt lon="12.370446" lat="50.576546"><ele>373.25</ele></trkpt>
   <trkpt lon="12.370411" lat="50.576322"><ele>373.0</ele></trkpt>
   <trkpt lon="12.370406" lat="50.576102"><ele>372.75</ele></trkpt>
   <trkpt lon="12.370421" lat="50.575921"><ele>372.75</ele></trkpt>
   <trkpt lon="12.370442" lat="50.575765"><ele>373.0</ele></trkpt>
   <trkpt lon="12.370482" lat="50.575613"><ele>373.25</ele></trkpt>
   <trkpt lon="12.370546" lat="50.575446"><ele>373.5</ele></trkpt>
   <trkpt lon="12.370616" lat="50.575311"><ele>373.5</ele></trkpt>
   <trkpt lon="12.370733" lat="50.575114"><ele>373.75</ele></trkpt>
   <trkpt lon="12.370894" lat="50.574899"><ele>374.5</ele></trkpt>
   <trkpt lon="12.371078" lat="50.574699"><ele>375.5</ele></trkpt>
   <trkpt lon="12.371277" lat="50.574521"><ele>376.25</ele></trkpt>
   <trkpt lon="12.371512" lat="50.574347"><ele>377.0</ele></trkpt>
   <trkpt lon="12.371753" lat="50.574182"><ele>377.75</ele></trkpt>
   <trkpt lon="12.372446" lat="50.573718"><ele>380.25</ele></trkpt>
   <trkpt lon="12.373306" lat="50.573173"><ele>384.75</ele></trkpt>
   <trkpt lon="12.374496" lat="50.572384"><ele>383.5</ele></trkpt>
   <trkpt lon="12.376170" lat="50.571277"><ele>386.75</ele></trkpt>
   <trkpt lon="12.376544" lat="50.571038"><ele>385.5</ele></trkpt>
   <trkpt lon="12.378654" lat="50.569788"><ele>393.75</ele></trkpt>
   <trkpt lon="12.379080" lat="50.569530"><ele>397.25</ele></trkpt>
   <trkpt lon="12.379280" lat="50.569401"><ele>397.75</ele></trkpt>
   <trkpt lon="12.379446" lat="50.569287"><ele>398.0</ele></trkpt>
   <trkpt lon="12.379724" lat="50.569077"><ele>397.25</ele></trkpt>
   <trkpt lon="12.379847" lat="50.568980"><ele>397.25</ele></trkpt>
   <trkpt lon="12.380194" lat="50.568669"><ele>397.75</ele></trkpt>
   <trkpt lon="12.380487" lat="50.568351"><ele>398.25</ele></trkpt>
   <trkpt lon="12.380610" lat="50.568208"><ele>397.25</ele></trkpt>
   <trkpt lon="12.380804" lat="50.567951"><ele>396.0</ele></trkpt>
   <trkpt lon="12.380976" lat="50.567684"><ele>395.25</ele></trkpt>
   <trkpt lon="12.381124" lat="50.567414"><ele>394.75</ele></trkpt>
   <trkpt lon="12.381238" lat="50.567161"><ele>394.5</ele></trkpt>
   <trkpt lon="12.381330" lat="50.566894"><ele>394.5</ele></trkpt>
   <trkpt lon="12.381362" lat="50.566755"><ele>394.5</ele></trkpt>
   <trkpt lon="12.381392" lat="50.566496"><ele>394.25</ele></trkpt>
   <trkpt lon="12.381393" lat="50.566437"><ele>394.25</ele></trkpt>
   <trkpt lon="12.381373" lat="50.566170"><ele>394.25</ele></trkpt>
   <trkpt lon="12.381349" lat="50.566037"><ele>394.5</ele></trkpt>
   <trkpt lon="12.381307" lat="50.565890"><ele>395.0</ele></trkpt>
   <trkpt lon="12.381251" lat="50.565738"><ele>395.75</ele></trkpt>
   <trkpt lon="12.381177" lat="50.565577"><ele>396.5</ele></trkpt>
   <trkpt lon="12.380964" lat="50.565219"><ele>398.75</ele></trkpt>
   <trkpt lon="12.379769" lat="50.563343"><ele>403.5</ele></trkpt>
   <trkpt lon="12.379623" lat="50.563004"><ele>405.5</ele></trkpt>
   <trkpt lon="12.379575" lat="50.562822"><ele>406.0</ele></trkpt>
   <trkpt lon="12.379539" lat="50.562641"><ele>406.5</ele></trkpt>
   <trkpt lon="12.379525" lat="50.562456"><ele>406.75</ele></trkpt>
   <trkpt lon="12.379498" lat="50.558506"><ele>408.5</ele></trkpt>
   <trkpt lon="12.379500" lat="50.558359"><ele>408.75</ele></trkpt>
   <trkpt lon="12.379526" lat="50.558082"><ele>410.5</ele></trkpt>
   <trkpt lon="12.379591" lat="50.557774"><ele>412.25</ele></trkpt>
   <trkpt lon="12.379692" lat="50.557475"><ele>413.5</ele></trkpt>
   <trkpt lon="12.379967" lat="50.556798"><ele>414.5</ele></trkpt>
   <trkpt lon="12.380060" lat="50.556513"><ele>415.5</ele></trkpt>
   <trkpt lon="12.380098" lat="50.556357"><ele>416.5</ele></trkpt>
   <trkpt lon="12.380115" lat="50.556195"><ele>417.5</ele></trkpt>
   <trkpt lon="12.380118" lat="50.556039"><ele>418.75</ele></trkpt>
   <trkpt lon="12.380095" lat="50.555735"><ele>421.0</ele></trkpt>
   <trkpt lon="12.380027" lat="50.555480"><ele>422.0</ele></trkpt>
   <trkpt lon="12.379923" lat="50.555197"><ele>423.25</ele></trkpt>
   <trkpt lon="12.379591" lat="50.554450"><ele>425.75</ele></trkpt>
   <trkpt lon="12.379517" lat="50.554267"><ele>426.75</ele></trkpt>
   <trkpt lon="12.379453" lat="50.554051"><ele>427.25</ele></trkpt>
   <trkpt lon="12.379417" lat="50.553882"><ele>427.25</ele></trkpt>
   <trkpt lon="12.379395" lat="50.553680"><ele>427.25</ele></trkpt>
   <trkpt lon="12.379402" lat="50.553484"><ele>427.25</ele></trkpt>
   <trkpt lon="12.379432" lat="50.553270"><ele>427.25</ele></trkpt>
   <trkpt lon="12.379488" lat="50.553065"><ele>427.75</ele></trkpt>
   <trkpt lon="12.379566" lat="50.552878"><ele>428.25</ele></trkpt>
   <trkpt lon="12.379663" lat="50.552688"><ele>428.5</ele></trkpt>
   <trkpt lon="12.379782" lat="50.552516"><ele>428.75</ele></trkpt>
   <trkpt lon="12.379915" lat="50.552353"><ele>430.0</ele></trkpt>
   <trkpt lon="12.380058" lat="50.552203"><ele>430.75</ele></trkpt>
   <trkpt lon="12.380225" lat="50.552048"><ele>431.25</ele></trkpt>
   <trkpt lon="12.380438" lat="50.551869"><ele>431.5</ele></trkpt>
   <trkpt lon="12.381079" lat="50.551361"><ele>432.75</ele></trkpt>
   <trkpt lon="12.381260" lat="50.551205"><ele>433.75</ele></trkpt>
   <trkpt lon="12.381426" lat="50.551044"><ele>435.0</ele></trkpt>
   <trkpt lon="12.381568" lat="50.550889"><ele>436.5</ele></trkpt>
   <trkpt lon="12.381688" lat="50.550732"><ele>437.0</ele></trkpt>
   <trkpt lon="12.381790" lat="50.550571"><ele>436.5</ele></trkpt>
   <trkpt lon="12.381894" lat="50.550370"><ele>436.0</ele></trkpt>
   <trkpt lon="12.381958" lat="50.550198"><ele>436.0</ele></trkpt>
   <trkpt lon="12.382011" lat="50.550010"><ele>436.0</ele></trkpt>
   <trkpt lon="12.382040" lat="50.549831"><ele>435.5</ele></trkpt>
   <trkpt lon="12.382050" lat="50.549660"><ele>434.75</ele></trkpt>
   <trkpt lon="12.382040" lat="50.549464"><ele>434.5</ele></trkpt>
   <trkpt lon="12.382007" lat="50.549266"><ele>434.0</ele></trkpt>
   <trkpt lon="12.381949" lat="50.549072"><ele>433.5</ele></trkpt>
   <trkpt lon="12.381894" lat="50.548926"><ele>433.0</ele></trkpt>
   <trkpt lon="12.381793" lat="50.548736"><ele>432.0</ele></trkpt>
   <trkpt lon="12.381677" lat="50.548552"><ele>430.75</ele></trkpt>
   <trkpt lon="12.381540" lat="50.548364"><ele>430.75</ele></trkpt>
   <trkpt lon="12.380818" lat="50.547482"><ele>435.0</ele></trkpt>
   <trkpt lon="12.380623" lat="50.547210"><ele>437.5</ele></trkpt>
   <trkpt lon="12.380543" lat="50.547078"><ele>438.75</ele></trkpt>
   <trkpt lon="12.380460" lat="50.546898"><ele>440.25</ele></trkpt>
   <trkpt lon="12.380394" lat="50.546717"><ele>441.5</ele></trkpt>
   <trkpt lon="12.380349" lat="50.546560"><ele>442.75</ele></trkpt>
   <trkpt lon="12.380315" lat="50.546371"><ele>443.5</ele></trkpt>
   <trkpt lon="12.380314" lat="50.546194"><ele>444.0</ele></trkpt>
   <trkpt lon="12.380327" lat="50.546016"><ele>444.0</ele></trkpt>
   <trkpt lon="12.380364" lat="50.545817"><ele>443.75</ele></trkpt>
   <trkpt lon="12.380414" lat="50.545630"><ele>443.75</ele></trkpt>
   <trkpt lon="12.380476" lat="50.545474"><ele>443.25</ele></trkpt>
   <trkpt lon="12.380563" lat="50.545309"><ele>443.0</ele></trkpt>
   <trkpt lon="12.380675" lat="50.545132"><ele>442.75</ele></trkpt>
   <trkpt lon="12.380874" lat="50.544886"><ele>442.25</ele></trkpt>
   <trkpt lon="12.381013" lat="50.544747"><ele>441.75</ele></trkpt>
   <trkpt lon="12.381156" lat="50.544619"><ele>441.5</ele></trkpt>
   <trkpt lon="12.381336" lat="50.544480"><ele>441.25</ele></trkpt>
   <trkpt lon="12.381541" lat="50.544336"><ele>441.0</ele></trkpt>
   <trkpt lon="12.381755" lat="50.544199"><ele>441.25</ele></trkpt>
   <trkpt lon="12.384278" lat="50.542668"><ele>443.75</ele></trkpt>
   <trkpt lon="12.387185" lat="50.540912"><ele>445.0</ele></trkpt>
   <trkpt lon="12.387383" lat="50.540803"><ele>445.0</ele></trkpt>
   <trkpt lon="12.387780" lat="50.540601"><ele>445.0</ele></trkpt>
   <trkpt lon="12.387884" lat="50.540550"><ele>445.25</ele></trkpt>
   <trkpt lon="12.388389" lat="50.540330"><ele>445.25</ele></trkpt>
   <trkpt lon="12.388871" lat="50.540117"><ele>445.75</ele></trkpt>
   <trkpt lon="12.389249" lat="50.539939"><ele>446.25</ele></trkpt>
   <trkpt lon="12.389612" lat="50.539733"><ele>446.75</ele></trkpt>
   <trkpt lon="12.389797" lat="50.539609"><ele>447.5</ele></trkpt>
   <trkpt lon="12.389949" lat="50.539494"><ele>448.5</ele></trkpt>
   <trkpt lon="12.390104" lat="50.539362"><ele>449.25</ele></trkpt>
   <trkpt lon="12.390250" lat="50.539220"><ele>449.75</ele></trkpt>
   <trkpt lon="12.390372" lat="50.539085"><ele>449.75</ele></trkpt>
   <trkpt lon="12.390483" lat="50.538945"><ele>449.5</ele></trkpt>
   <trkpt lon="12.390578" lat="50.538805"><ele>449.75</ele></trkpt>
   <trkpt lon="12.390760" lat="50.538473"><ele>450.5</ele></trkpt>
   <trkpt lon="12.392066" lat="50.535666"><ele>462.0</ele></trkpt>
   <trkpt lon="12.392232" lat="50.535376"><ele>461.5</ele></trkpt>
   <trkpt lon="12.392325" lat="50.535232"><ele>461.0</ele></trkpt>
   <trkpt lon="12.392534" lat="50.534981"><ele>459.75</ele></trkpt>
   <trkpt lon="12.392758" lat="50.534764"><ele>459.5</ele></trkpt>
   <trkpt lon="12.393142" lat="50.534442"><ele>458.75</ele></trkpt>
   <trkpt lon="12.393788" lat="50.533919"><ele>460.25</ele></trkpt>
   <trkpt lon="12.394080" lat="50.533646"><ele>461.5</ele></trkpt>
   <trkpt lon="12.394203" lat="50.533515"><ele>462.25</ele></trkpt>
   <trkpt lon="12.394315" lat="50.533372"><ele>462.75</ele></trkpt>
   <trkpt lon="12.394505" lat="50.533078"><ele>464.0</ele></trkpt>
   <trkpt lon="12.394571" lat="50.532939"><ele>464.5</ele></trkpt>
   <trkpt lon="12.394629" lat="50.532789"><ele>465.25</ele></trkpt>
   <trkpt lon="12.394673" lat="50.532642"><ele>465.75</ele></trkpt>
   <trkpt lon="12.394706" lat="50.532486"><ele>466.25</ele></trkpt>
   <trkpt lon="12.394725" lat="50.532172"><ele>466.0</ele></trkpt>
   <trkpt lon="12.394714" lat="50.532004"><ele>466.0</ele></trkpt>
   <trkpt lon="12.394692" lat="50.531851"><ele>466.0</ele></trkpt>
   <trkpt lon="12.394572" lat="50.531243"><ele>466.25</ele></trkpt>
   <trkpt lon="12.394546" lat="50.531076"><ele>466.0</ele></trkpt>
   <trkpt lon="12.394524" lat="50.530711"><ele>466.25</ele></trkpt>
   <trkpt lon="12.394533" lat="50.530540"><ele>467.25</ele></trkpt>
   <trkpt lon="12.394558" lat="50.530333"><ele>468.25</ele></trkpt>
   <trkpt lon="12.394606" lat="50.530111"><ele>469.25</ele></trkpt>
   <trkpt lon="12.394650" lat="50.529956"><ele>469.75</ele></trkpt>
   <trkpt lon="12.394709" lat="50.529807"><ele>469.75</ele></trkpt>
   <trkpt lon="12.394863" lat="50.529499"><ele>469.75</ele></trkpt>
   <trkpt lon="12.395345" lat="50.528691"><ele>471.5</ele></trkpt>
   <trkpt lon="12.396144" lat="50.527379"><ele>472.0</ele></trkpt>
   <trkpt lon="12.396236" lat="50.527220"><ele>471.75</ele></trkpt>
   <trkpt lon="12.396315" lat="50.527050"><ele>471.5</ele></trkpt>
   <trkpt lon="12.396371" lat="50.526903"><ele>471.5</ele></trkpt>
   <trkpt lon="12.396416" lat="50.526742"><ele>471.5</ele></trkpt>
   <trkpt lon="12.396441" lat="50.526582"><ele>471.75</ele></trkpt>
   <trkpt lon="12.396450" lat="50.526430"><ele>471.75</ele></trkpt>
   <trkpt lon="12.396441" lat="50.526281"><ele>472.0</ele></trkpt>
   <trkpt lon="12.396417" lat="50.526124"><ele>472.5</ele></trkpt>
   <trkpt lon="12.396371" lat="50.525963"><ele>473.25</ele></trkpt>
   <trkpt lon="12.396310" lat="50.525808"><ele>473.75</ele></trkpt>
   <trkpt lon="12.396225" lat="50.525644"><ele>474.0</ele></trkpt>
   <trkpt lon="12.396119" lat="50.525475"><ele>474.25</ele></trkpt>
   <trkpt lon="12.395994" lat="50.525313"><ele>474.75</ele></trkpt>
   <trkpt lon="12.395850" lat="50.525150"><ele>475.25</ele></trkpt>
   <trkpt lon="12.395717" lat="50.525021"><ele>475.75</ele></trkpt>
   <trkpt lon="12.395549" lat="50.524879"><ele>476.0</ele></trkpt>
   <trkpt lon="12.395375" lat="50.524748"><ele>476.25</ele></trkpt>
   <trkpt lon="12.395176" lat="50.524618"><ele>476.5</ele></trkpt>
   <trkpt lon="12.394990" lat="50.524511"><ele>476.75</ele></trkpt>
   <trkpt lon="12.394764" lat="50.524396"><ele>477.0</ele></trkpt>
   <trkpt lon="12.394528" lat="50.524294"><ele>477.25</ele></trkpt>
   <trkpt lon="12.394261" lat="50.524191"><ele>477.75</ele></trkpt>
   <trkpt lon="12.393984" lat="50.524093"><ele>477.75</ele></trkpt>
   <trkpt lon="12.392794" lat="50.523697"><ele>477.75</ele></trkpt>
   <trkpt lon="12.392359" lat="50.523535"><ele>477.5</ele></trkpt>
   <trkpt lon="12.392141" lat="50.523441"><ele>477.25</ele></trkpt>
   <trkpt lon="12.391934" lat="50.523339"><ele>477.0</ele></trkpt>
   <trkpt lon="12.391637" lat="50.523167"><ele>478.25</ele></trkpt>
   <trkpt lon="12.391447" lat="50.523037"><ele>479.0</ele></trkpt>
   <trkpt lon="12.391276" lat="50.522906"><ele>479.75</ele></trkpt>
   <trkpt lon="12.391108" lat="50.522755"><ele>480.5</ele></trkpt>
   <trkpt lon="12.390939" lat="50.522584"><ele>481.5</ele></trkpt>
   <trkpt lon="12.390801" lat="50.522413"><ele>482.25</ele></trkpt>
   <trkpt lon="12.390680" lat="50.522234"><ele>483.25</ele></trkpt>
   <trkpt lon="12.390580" lat="50.522048"><ele>484.25</ele></trkpt>
   <trkpt lon="12.390514" lat="50.521895"><ele>485.0</ele></trkpt>
   <trkpt lon="12.390463" lat="50.521744"><ele>486.0</ele></trkpt>
   <trkpt lon="12.390424" lat="50.521573"><ele>486.5</ele></trkpt>
   <trkpt lon="12.390398" lat="50.521392"><ele>486.5</ele></trkpt>
   <trkpt lon="12.390388" lat="50.521223"><ele>486.75</ele></trkpt>
   <trkpt lon="12.390421" lat="50.519448"><ele>492.0</ele></trkpt>
   <trkpt lon="12.390449" lat="50.518115"><ele>493.5</ele></trkpt>
   <trkpt lon="12.390466" lat="50.517883"><ele>494.25</ele></trkpt>
   <trkpt lon="12.390530" lat="50.517562"><ele>495.0</ele></trkpt>
   <trkpt lon="12.390569" lat="50.517440"><ele>495.0</ele></trkpt>
   <trkpt lon="12.390682" lat="50.517161"><ele>495.75</ele></trkpt>
   <trkpt lon="12.391269" lat="50.515892"><ele>498.25</ele></trkpt>
   <trkpt lon="12.391410" lat="50.515567"><ele>499.25</ele></trkpt>
   <trkpt lon="12.391509" lat="50.515271"><ele>500.25</ele></trkpt>
   <trkpt lon="12.391578" lat="50.514970"><ele>501.5</ele></trkpt>
   <trkpt lon="12.391598" lat="50.514821"><ele>501.0</ele></trkpt>
   <trkpt lon="12.391608" lat="50.514533"><ele>500.75</ele></trkpt>
   <trkpt lon="12.391538" lat="50.513145"><ele>501.25</ele></trkpt>
   <trkpt lon="12.391476" lat="50.512300"><ele>499.75</ele></trkpt>
   <trkpt lon="12.391447" lat="50.511738"><ele>498.75</ele></trkpt>
   <trkpt lon="12.391385" lat="50.510358"><ele>500.75</ele></trkpt>
   <trkpt lon="12.391322" lat="50.509248"><ele>505.25</ele></trkpt>
   <trkpt lon="12.391326" lat="50.509086"><ele>505.75</ele></trkpt>
   <trkpt lon="12.391342" lat="50.508935"><ele>506.0</ele></trkpt>
   <trkpt lon="12.391363" lat="50.508801"><ele>506.25</ele></trkpt>
   <trkpt lon="12.391397" lat="50.508665"><ele>506.5</ele></trkpt>
   <trkpt lon="12.391487" lat="50.508392"><ele>506.75</ele></trkpt>
   <trkpt lon="12.391962" lat="50.507278"><ele>506.25</ele></trkpt>
   <trkpt lon="12.392057" lat="50.507003"><ele>506.5</ele></trkpt>
   <trkpt lon="12.392112" lat="50.506734"><ele>507.0</ele></trkpt>
   <trkpt lon="12.392127" lat="50.506603"><ele>507.25</ele></trkpt>
   <trkpt lon="12.392146" lat="50.506031"><ele>508.75</ele></trkpt>
   <trkpt lon="12.392127" lat="50.505189"><ele>511.25</ele></trkpt>
   <trkpt lon="12.392067" lat="50.504732"><ele>512.5</ele></trkpt>
   <trkpt lon="12.391968" lat="50.504192"><ele>513.75</ele></trkpt>
   <trkpt lon="12.391472" lat="50.501557"><ele>518.5</ele></trkpt>
   <trkpt lon="12.391381" lat="50.501068"><ele>520.75</ele></trkpt>
   <trkpt lon="12.391339" lat="50.500895"><ele>521.75</ele></trkpt>
   <trkpt lon="12.391290" lat="50.500719"><ele>522.0</ele></trkpt>
   <trkpt lon="12.391219" lat="50.500538"><ele>522.0</ele></trkpt>
   <trkpt lon="12.391141" lat="50.500375"><ele>522.0</ele></trkpt>
   <trkpt lon="12.391042" lat="50.500203"><ele>522.5</ele></trkpt>
   <trkpt lon="12.390386" lat="50.499181"><ele>524.25</ele></trkpt>
   <trkpt lon="12.390254" lat="50.498968"><ele>524.5</ele></trkpt>
   <trkpt lon="12.390138" lat="50.498756"><ele>524.75</ele></trkpt>
   <trkpt lon="12.390034" lat="50.498540"><ele>524.5</ele></trkpt>
   <trkpt lon="12.389948" lat="50.498332"><ele>524.25</ele></trkpt>
   <trkpt lon="12.389877" lat="50.498130"><ele>524.75</ele></trkpt>
   <trkpt lon="12.389792" lat="50.497817"><ele>525.75</ele></trkpt>
   <trkpt lon="12.389757" lat="50.497644"><ele>526.25</ele></trkpt>
   <trkpt lon="12.389715" lat="50.497270"><ele>525.75</ele></trkpt>
   <trkpt lon="12.389707" lat="50.497083"><ele>525.0</ele></trkpt>
   <trkpt lon="12.389716" lat="50.496771"><ele>523.75</ele></trkpt>
   <trkpt lon="12.389766" lat="50.496405"><ele>523.25</ele></trkpt>
   <trkpt lon="12.389808" lat="50.496212"><ele>523.25</ele></trkpt>
   <trkpt lon="12.389860" lat="50.496018"><ele>523.0</ele></trkpt>
   <trkpt lon="12.390147" lat="50.495193"><ele>525.75</ele></trkpt>
   <trkpt lon="12.390195" lat="50.495033"><ele>526.5</ele></trkpt>
   <trkpt lon="12.390253" lat="50.494766"><ele>526.75</ele></trkpt>
   <trkpt lon="12.390268" lat="50.494632"><ele>527.0</ele></trkpt>
   <trkpt lon="12.390272" lat="50.494484"><ele>527.25</ele></trkpt>
   <trkpt lon="12.390262" lat="50.494327"><ele>527.75</ele></trkpt>
   <trkpt lon="12.390239" lat="50.494179"><ele>528.25</ele></trkpt>
   <trkpt lon="12.390200" lat="50.494017"><ele>528.5</ele></trkpt>
   <trkpt lon="12.390140" lat="50.493842"><ele>529.25</ele></trkpt>
   <trkpt lon="12.390062" lat="50.493674"><ele>530.0</ele></trkpt>
   <trkpt lon="12.389957" lat="50.493493"><ele>531.0</ele></trkpt>
   <trkpt lon="12.389829" lat="50.493312"><ele>532.0</ele></trkpt>
   <trkpt lon="12.389676" lat="50.493131"><ele>531.75</ele></trkpt>
   <trkpt lon="12.389481" lat="50.492942"><ele>531.75</ele></trkpt>
   <trkpt lon="12.389265" lat="50.492766"><ele>532.0</ele></trkpt>
   <trkpt lon="12.389025" lat="50.492600"><ele>532.5</ele></trkpt>
   <trkpt lon="12.388767" lat="50.492447"><ele>533.25</ele></trkpt>
   <trkpt lon="12.387749" lat="50.491917"><ele>536.0</ele></trkpt>
   <trkpt lon="12.387524" lat="50.491795"><ele>536.75</ele></trkpt>
   <trkpt lon="12.387306" lat="50.491665"><ele>537.25</ele></trkpt>
   <trkpt lon="12.387136" lat="50.491550"><ele>537.75</ele></trkpt>
   <trkpt lon="12.386962" lat="50.491417"><ele>538.25</ele></trkpt>
   <trkpt lon="12.386782" lat="50.491261"><ele>538.5</ele></trkpt>
   <trkpt lon="12.386613" lat="50.491088"><ele>538.75</ele></trkpt>
   <trkpt lon="12.386455" lat="50.490894"><ele>539.0</ele></trkpt>
   <trkpt lon="12.386332" lat="50.490708"><ele>538.75</ele></trkpt>
   <trkpt lon="12.385369" lat="50.488982"><ele>540.25</ele></trkpt>
   <trkpt lon="12.385277" lat="50.488845"><ele>541.0</ele></trkpt>
   <trkpt lon="12.385160" lat="50.488691"><ele>541.75</ele></trkpt>
   <trkpt lon="12.384951" lat="50.488467"><ele>543.25</ele></trkpt>
   <trkpt lon="12.384750" lat="50.488287"><ele>544.25</ele></trkpt>
   <trkpt lon="12.384565" lat="50.488142"><ele>544.75</ele></trkpt>
   <trkpt lon="12.380055" lat="50.484814"><ele>548.0</ele></trkpt>
   <trkpt lon="12.379829" lat="50.484648"><ele>547.75</ele></trkpt>
   <trkpt lon="12.379539" lat="50.484441"><ele>547.5</ele></trkpt>
   <trkpt lon="12.379132" lat="50.484188"><ele>547.25</ele></trkpt>
   <trkpt lon="12.378918" lat="50.484083"><ele>547.25</ele></trkpt>
   <trkpt lon="12.378694" lat="50.483983"><ele>547.5</ele></trkpt>
   <trkpt lon="12.378468" lat="50.483897"><ele>548.0</ele></trkpt>
   <trkpt lon="12.378237" lat="50.483819"><ele>548.5</ele></trkpt>
   <trkpt lon="12.378000" lat="50.483752"><ele>549.0</ele></trkpt>
   <trkpt lon="12.377788" lat="50.483701"><ele>549.5</ele></trkpt>
   <trkpt lon="12.377545" lat="50.483654"><ele>550.25</ele></trkpt>
   <trkpt lon="12.377302" lat="50.483617"><ele>551.0</ele></trkpt>
   <trkpt lon="12.377089" lat="50.483589"><ele>551.5</ele></trkpt>
   <trkpt lon="12.376911" lat="50.483571"><ele>552.0</ele></trkpt>
   <trkpt lon="12.376482" lat="50.483552"><ele>553.5</ele></trkpt>
   <trkpt lon="12.376001" lat="50.483563"><ele>556.0</ele></trkpt>
   <trkpt lon="12.375741" lat="50.483583"><ele>557.25</ele></trkpt>
   <trkpt lon="12.375496" lat="50.483613"><ele>558.5</ele></trkpt>
   <trkpt lon="12.375219" lat="50.483658"><ele>559.75</ele></trkpt>
   <trkpt lon="12.374968" lat="50.483709"><ele>561.25</ele></trkpt>
   <trkpt lon="12.374661" lat="50.483784"><ele>563.25</ele></trkpt>
   <trkpt lon="12.373062" lat="50.484220"><ele>569.25</ele></trkpt>
   <trkpt lon="12.372747" lat="50.484296"><ele>568.25</ele></trkpt>
   <trkpt lon="12.372458" lat="50.484353"><ele>567.5</ele></trkpt>
   <trkpt lon="12.372154" lat="50.484399"><ele>567.0</ele></trkpt>
   <trkpt lon="12.371890" lat="50.484426"><ele>566.5</ele></trkpt>
   <trkpt lon="12.371612" lat="50.484443"><ele>565.5</ele></trkpt>
   <trkpt lon="12.371347" lat="50.484450"><ele>564.0</ele></trkpt>
   <trkpt lon="12.371110" lat="50.484445"><ele>562.75</ele></trkpt>
   <trkpt lon="12.370860" lat="50.484432"><ele>561.5</ele></trkpt>
   <trkpt lon="12.370611" lat="50.484410"><ele>560.25</ele></trkpt>
   <trkpt lon="12.370350" lat="50.484375"><ele>559.0</ele></trkpt>
   <trkpt lon="12.370066" lat="50.484325"><ele>557.75</ele></trkpt>
   <trkpt lon="12.369790" lat="50.484263"><ele>557.25</ele></trkpt>
   <trkpt lon="12.369371" lat="50.484141"><ele>556.5</ele></trkpt>
   <trkpt lon="12.369153" lat="50.484061"><ele>556.25</ele></trkpt>
   <trkpt lon="12.368952" lat="50.483978"><ele>556.0</ele></trkpt>
   <trkpt lon="12.368757" lat="50.483888"><ele>556.0</ele></trkpt>
   <trkpt lon="12.368565" lat="50.483788"><ele>555.75</ele></trkpt>
   <trkpt lon="12.368383" lat="50.483681"><ele>555.75</ele></trkpt>
   <trkpt lon="12.368204" lat="50.483561"><ele>556.0</ele></trkpt>
   <trkpt lon="12.367866" lat="50.483292"><ele>556.25</ele></trkpt>
   <trkpt lon="12.367671" lat="50.483116"><ele>555.75</ele></trkpt>
   <trkpt lon="12.366366" lat="50.481833"><ele>553.5</ele></trkpt>
   <trkpt lon="12.365901" lat="50.481418"><ele>553.0</ele></trkpt>
   <trkpt lon="12.365655" lat="50.481214"><ele>553.0</ele></trkpt>
   <trkpt lon="12.365409" lat="50.481022"><ele>553.25</ele></trkpt>
   <trkpt lon="12.365149" lat="50.480837"><ele>553.25</ele></trkpt>
   <trkpt lon="12.364829" lat="50.480640"><ele>552.5</ele></trkpt>
   <trkpt lon="12.364226" lat="50.480294"><ele>551.0</ele></trkpt>
   <trkpt lon="12.364171" lat="50.480262"><ele>551.0</ele></trkpt>
   <trkpt lon="12.363674" lat="50.479978"><ele>550.75</ele></trkpt>
   <trkpt lon="12.363320" lat="50.479786"><ele>550.75</ele></trkpt>
   <trkpt lon="12.362976" lat="50.479622"><ele>550.75</ele></trkpt>
   <trkpt lon="12.362599" lat="50.479450"><ele>550.75</ele></trkpt>
   <trkpt lon="12.362222" lat="50.479305"><ele>550.5</ele></trkpt>
   <trkpt lon="12.361839" lat="50.479180"><ele>550.25</ele></trkpt>
   <trkpt lon="12.361663" lat="50.479132"><ele>550.0</ele></trkpt>
   <trkpt lon="12.360803" lat="50.478922"><ele>549.5</ele></trkpt>
   <trkpt lon="12.360624" lat="50.478879"><ele>549.25</ele></trkpt>
   <trkpt lon="12.359749" lat="50.478668"><ele>549.25</ele></trkpt>
   <trkpt lon="12.359063" lat="50.478511"><ele>549.75</ele></trkpt>
   <trkpt lon="12.358553" lat="50.478398"><ele>549.75</ele></trkpt>
   <trkpt lon="12.357591" lat="50.478200"><ele>549.25</ele></trkpt>
   <trkpt lon="12.357298" lat="50.478145"><ele>549.0</ele></trkpt>
   <trkpt lon="12.355370" lat="50.477837"><ele>549.5</ele></trkpt>
   <trkpt lon="12.354713" lat="50.477735"><ele>550.25</ele></trkpt>
   <trkpt lon="12.353737" lat="50.477578"><ele>552.25</ele></trkpt>
   <trkpt lon="12.353428" lat="50.477515"><ele>552.75</ele></trkpt>
   <trkpt lon="12.352954" lat="50.477396"><ele>553.75</ele></trkpt>
   <trkpt lon="12.350376" lat="50.476649"><ele>556.0</ele></trkpt>
   <trkpt lon="12.347659" lat="50.475847"><ele>558.75</ele></trkpt>
   <trkpt lon="12.347320" lat="50.475728"><ele>559.0</ele></trkpt>
   <trkpt lon="12.347149" lat="50.475659"><ele>559.25</ele></trkpt>
   <trkpt lon="12.346850" lat="50.475513"><ele>559.25</ele></trkpt>
   <trkpt lon="12.346591" lat="50.475357"><ele>559.25</ele></trkpt>
   <trkpt lon="12.346472" lat="50.475273"><ele>559.25</ele></trkpt>
   <trkpt lon="12.346247" lat="50.475088"><ele>559.5</ele></trkpt>
   <trkpt lon="12.346143" lat="50.474986"><ele>559.5</ele></trkpt>
   <trkpt lon="12.346046" lat="50.474879"><ele>559.75</ele></trkpt>
   <trkpt lon="12.345892" lat="50.474672"><ele>560.25</ele></trkpt>
   <trkpt lon="12.345769" lat="50.474452"><ele>560.5</ele></trkpt>
   <trkpt lon="12.345685" lat="50.474237"><ele>560.75</ele></trkpt>
   <trkpt lon="12.345633" lat="50.474011"><ele>560.75</ele></trkpt>
   <trkpt lon="12.345623" lat="50.473896"><ele>561.0</ele></trkpt>
   <trkpt lon="12.345625" lat="50.473683"><ele>561.25</ele></trkpt>
   <trkpt lon="12.345639" lat="50.473569"><ele>561.25</ele></trkpt>
   <trkpt lon="12.345661" lat="50.473461"><ele>561.5</ele></trkpt>
   <trkpt lon="12.345733" lat="50.473243"><ele>562.0</ele></trkpt>
   <trkpt lon="12.345835" lat="50.473038"><ele>562.5</ele></trkpt>
   <trkpt lon="12.345964" lat="50.472843"><ele>563.75</ele></trkpt>
   <trkpt lon="12.346044" lat="50.472740"><ele>564.5</ele></trkpt>
   <trkpt lon="12.346134" lat="50.472641"><ele>565.25</ele></trkpt>
   <trkpt lon="12.346254" lat="50.472524"><ele>565.25</ele></trkpt>
   <trkpt lon="12.346385" lat="50.472412"><ele>566.0</ele></trkpt>
   <trkpt lon="12.346513" lat="50.472315"><ele>566.5</ele></trkpt>
   <trkpt lon="12.346804" lat="50.472130"><ele>567.5</ele></trkpt>
   <trkpt lon="12.346942" lat="50.472056"><ele>567.75</ele></trkpt>
   <trkpt lon="12.347226" lat="50.471927"><ele>568.5</ele></trkpt>
   <trkpt lon="12.347525" lat="50.471816"><ele>569.5</ele></trkpt>
   <trkpt lon="12.347677" lat="50.471768"><ele>570.0</ele></trkpt>
   <trkpt lon="12.348020" lat="50.471683"><ele>571.75</ele></trkpt>
   <trkpt lon="12.348393" lat="50.471614"><ele>573.25</ele></trkpt>
   <trkpt lon="12.352982" lat="50.470928"><ele>581.25</ele></trkpt>
   <trkpt lon="12.353399" lat="50.470856"><ele>581.75</ele></trkpt>
   <trkpt lon="12.353798" lat="50.470762"><ele>581.75</ele></trkpt>
   <trkpt lon="12.353979" lat="50.470706"><ele>581.75</ele></trkpt>
   <trkpt lon="12.356579" lat="50.469858"><ele>584.5</ele></trkpt>
   <trkpt lon="12.356903" lat="50.469764"><ele>585.0</ele></trkpt>
   <trkpt lon="12.357252" lat="50.469683"><ele>585.5</ele></trkpt>
   <trkpt lon="12.357648" lat="50.469617"><ele>585.5</ele></trkpt>
   <trkpt lon="12.357859" lat="50.469591"><ele>585.5</ele></trkpt>
   <trkpt lon="12.358072" lat="50.469573"><ele>585.5</ele></trkpt>
   <trkpt lon="12.358520" lat="50.469557"><ele>585.75</ele></trkpt>
   <trkpt lon="12.358748" lat="50.469559"><ele>586.0</ele></trkpt>
   <trkpt lon="12.359142" lat="50.469584"><ele>586.25</ele></trkpt>
   <trkpt lon="12.359584" lat="50.469639"><ele>586.5</ele></trkpt>
   <trkpt lon="12.360864" lat="50.469839"><ele>589.0</ele></trkpt>
   <trkpt lon="12.361287" lat="50.469890"><ele>590.75</ele></trkpt>
   <trkpt lon="12.361687" lat="50.469917"><ele>592.25</ele></trkpt>
   <trkpt lon="12.361913" lat="50.469922"><ele>592.75</ele></trkpt>
   <trkpt lon="12.362477" lat="50.469911"><ele>594.25</ele></trkpt>
   <trkpt lon="12.363642" lat="50.469881"><ele>598.5</ele></trkpt>
   <trkpt lon="12.364440" lat="50.469858"><ele>601.5</ele></trkpt>
   <trkpt lon="12.364806" lat="50.469835"><ele>603.0</ele></trkpt>
   <trkpt lon="12.365003" lat="50.469814"><ele>603.75</ele></trkpt>
   <trkpt lon="12.365375" lat="50.469754"><ele>604.0</ele></trkpt>
   <trkpt lon="12.365554" lat="50.469716"><ele>604.25</ele></trkpt>
   <trkpt lon="12.365935" lat="50.469610"><ele>604.75</ele></trkpt>
   <trkpt lon="12.366124" lat="50.469542"><ele>605.0</ele></trkpt>
   <trkpt lon="12.366327" lat="50.469459"><ele>605.5</ele></trkpt>
   <trkpt lon="12.366557" lat="50.469345"><ele>606.0</ele></trkpt>
   <trkpt lon="12.366721" lat="50.469251"><ele>606.0</ele></trkpt>
   <trkpt lon="12.366891" lat="50.469142"><ele>605.25</ele></trkpt>
   <trkpt lon="12.367039" lat="50.469032"><ele>604.75</ele></trkpt>
   <trkpt lon="12.367175" lat="50.468919"><ele>604.25</ele></trkpt>
   <trkpt lon="12.367392" lat="50.468706"><ele>603.5</ele></trkpt>
   <trkpt lon="12.367478" lat="50.468606"><ele>603.0</ele></trkpt>
   <trkpt lon="12.367554" lat="50.468491"><ele>602.75</ele></trkpt>
   <trkpt lon="12.367673" lat="50.468283"><ele>602.5</ele></trkpt>
   <trkpt lon="12.367771" lat="50.468034"><ele>602.5</ele></trkpt>
   <trkpt lon="12.367806" lat="50.467887"><ele>603.0</ele></trkpt>
   <trkpt lon="12.367827" lat="50.467731"><ele>603.25</ele></trkpt>
   <trkpt lon="12.367833" lat="50.467563"><ele>604.0</ele></trkpt>
   <trkpt lon="12.367751" lat="50.466713"><ele>610.5</ele></trkpt>
   <trkpt lon="12.367742" lat="50.466550"><ele>611.5</ele></trkpt>
   <trkpt lon="12.367749" lat="50.466383"><ele>612.0</ele></trkpt>
   <trkpt lon="12.367771" lat="50.466237"><ele>612.5</ele></trkpt>
   <trkpt lon="12.367804" lat="50.466097"><ele>612.75</ele></trkpt>
   <trkpt lon="12.367861" lat="50.465939"><ele>613.0</ele></trkpt>
   <trkpt lon="12.367932" lat="50.465790"><ele>612.75</ele></trkpt>
   <trkpt lon="12.368025" lat="50.465638"><ele>612.25</ele></trkpt>
   <trkpt lon="12.368234" lat="50.465371"><ele>611.0</ele></trkpt>
   <trkpt lon="12.368355" lat="50.465252"><ele>610.25</ele></trkpt>
   <trkpt lon="12.368474" lat="50.465145"><ele>610.0</ele></trkpt>
   <trkpt lon="12.368590" lat="50.465054"><ele>609.75</ele></trkpt>
   <trkpt lon="12.368723" lat="50.464962"><ele>610.0</ele></trkpt>
   <trkpt lon="12.368870" lat="50.464870"><ele>610.5</ele></trkpt>
   <trkpt lon="12.369189" lat="50.464702"><ele>611.25</ele></trkpt>
   <trkpt lon="12.369330" lat="50.464641"><ele>611.5</ele></trkpt>
   <trkpt lon="12.369622" lat="50.464530"><ele>611.75</ele></trkpt>
   <trkpt lon="12.371192" lat="50.464042"><ele>621.0</ele></trkpt>
   <trkpt lon="12.371606" lat="50.463897"><ele>624.5</ele></trkpt>
   <trkpt lon="12.371811" lat="50.463811"><ele>626.5</ele></trkpt>
   <trkpt lon="12.371964" lat="50.463733"><ele>628.25</ele></trkpt>
   <trkpt lon="12.372093" lat="50.463654"><ele>629.5</ele></trkpt>
   <trkpt lon="12.372336" lat="50.463487"><ele>632.0</ele></trkpt>
   <trkpt lon="12.372555" lat="50.463305"><ele>634.25</ele></trkpt>
   <trkpt lon="12.372661" lat="50.463201"><ele>634.75</ele></trkpt>
   <trkpt lon="12.372768" lat="50.463090"><ele>635.25</ele></trkpt>
   <trkpt lon="12.372860" lat="50.462971"><ele>635.5</ele></trkpt>
   <trkpt lon="12.372942" lat="50.462851"><ele>635.75</ele></trkpt>
   <trkpt lon="12.373061" lat="50.462626"><ele>635.75</ele></trkpt>
   <trkpt lon="12.373141" lat="50.462385"><ele>635.25</ele></trkpt>
   <trkpt lon="12.373170" lat="50.462253"><ele>634.75</ele></trkpt>
   <trkpt lon="12.373184" lat="50.462128"><ele>634.25</ele></trkpt>
   <trkpt lon="12.373177" lat="50.461857"><ele>633.5</ele></trkpt>
   <trkpt lon="12.373153" lat="50.461717"><ele>633.25</ele></trkpt>
   <trkpt lon="12.373065" lat="50.461450"><ele>632.75</ele></trkpt>
   <trkpt lon="12.373007" lat="50.461319"><ele>632.5</ele></trkpt>
   <trkpt lon="12.372848" lat="50.461057"><ele>633.0</ele></trkpt>
   <trkpt lon="12.371827" lat="50.459762"><ele>639.75</ele></trkpt>
   <trkpt lon="12.371654" lat="50.459506"><ele>643.0</ele></trkpt>
   <trkpt lon="12.371573" lat="50.459366"><ele>643.75</ele></trkpt>
   <trkpt lon="12.371498" lat="50.459226"><ele>644.25</ele></trkpt>
   <trkpt lon="12.371361" lat="50.458917"><ele>645.0</ele></trkpt>
   <trkpt lon="12.371263" lat="50.458624"><ele>646.0</ele></trkpt>
   <trkpt lon="12.371194" lat="50.458309"><ele>646.75</ele></trkpt>
   <trkpt lon="12.371176" lat="50.458157"><ele>647.0</ele></trkpt>
   <trkpt lon="12.371158" lat="50.457812"><ele>647.5</ele></trkpt>
   <trkpt lon="12.371142" lat="50.456818"><ele>650.75</ele></trkpt>
   <trkpt lon="12.371153" lat="50.456639"><ele>651.25</ele></trkpt>
   <trkpt lon="12.371177" lat="50.456448"><ele>652.0</ele></trkpt>
   <trkpt lon="12.371211" lat="50.456277"><ele>652.25</ele></trkpt>
   <trkpt lon="12.371270" lat="50.456093"><ele>652.25</ele></trkpt>
   <trkpt lon="12.371689" lat="50.455109"><ele>653.0</ele></trkpt>
   <trkpt lon="12.371752" lat="50.454932"><ele>652.5</ele></trkpt>
   <trkpt lon="12.371805" lat="50.454739"><ele>651.25</ele></trkpt>
   <trkpt lon="12.371826" lat="50.454562"><ele>650.75</ele></trkpt>
   <trkpt lon="12.371825" lat="50.454391"><ele>650.75</ele></trkpt>
   <trkpt lon="12.371797" lat="50.454211"><ele>651.5</ele></trkpt>
   <trkpt lon="12.371757" lat="50.454033"><ele>651.0</ele></trkpt>
   <trkpt lon="12.371677" lat="50.453825"><ele>650.5</ele></trkpt>
   <trkpt lon="12.371588" lat="50.453663"><ele>650.25</ele></trkpt>
   <trkpt lon="12.371475" lat="50.453491"><ele>650.5</ele></trkpt>
   <trkpt lon="12.371026" lat="50.452901"><ele>651.25</ele></trkpt>
   <trkpt lon="12.370919" lat="50.452772"><ele>651.25</ele></trkpt>
   <trkpt lon="12.370808" lat="50.452651"><ele>651.5</ele></trkpt>
   <trkpt lon="12.370582" lat="50.452445"><ele>652.0</ele></trkpt>
   <trkpt lon="12.370467" lat="50.452352"><ele>652.75</ele></trkpt>
   <trkpt lon="12.370011" lat="50.452027"><ele>655.5</ele></trkpt>
   <trkpt lon="12.369652" lat="50.451754"><ele>654.0</ele></trkpt>
   <trkpt lon="12.369535" lat="50.451647"><ele>653.5</ele></trkpt>
   <trkpt lon="12.369428" lat="50.451541"><ele>653.5</ele></trkpt>
   <trkpt lon="12.369242" lat="50.451315"><ele>654.0</ele></trkpt>
   <trkpt lon="12.369166" lat="50.451198"><ele>654.25</ele></trkpt>
   <trkpt lon="12.369050" lat="50.450973"><ele>654.5</ele></trkpt>
   <trkpt lon="12.369003" lat="50.450849"><ele>654.75</ele></trkpt>
   <trkpt lon="12.368946" lat="50.450619"><ele>656.75</ele></trkpt>
   <trkpt lon="12.368922" lat="50.450392"><ele>658.75</ele></trkpt>
   <trkpt lon="12.368938" lat="50.450167"><ele>661.0</ele></trkpt>
   <trkpt lon="12.369001" lat="50.449892"><ele>661.0</ele></trkpt>
   <trkpt lon="12.369051" lat="50.449750"><ele>662.25</ele></trkpt>
   <trkpt lon="12.370051" lat="50.447623"><ele>663.5</ele></trkpt>
   <trkpt lon="12.370195" lat="50.447366"><ele>664.5</ele></trkpt>
   <trkpt lon="12.370292" lat="50.447229"><ele>666.5</ele></trkpt>
   <trkpt lon="12.370413" lat="50.447088"><ele>668.25</ele></trkpt>
   <trkpt lon="12.370731" lat="50.446807"><ele>672.25</ele></trkpt>
   <trkpt lon="12.370919" lat="50.446670"><ele>674.25</ele></trkpt>
   <trkpt lon="12.371148" lat="50.446525"><ele>675.5</ele></trkpt>
   <trkpt lon="12.373187" lat="50.445353"><ele>674.25</ele></trkpt>
   <trkpt lon="12.373369" lat="50.445236"><ele>674.5</ele></trkpt>
   <trkpt lon="12.373536" lat="50.445118"><ele>673.5</ele></trkpt>
   <trkpt lon="12.373711" lat="50.444982"><ele>673.0</ele></trkpt>
   <trkpt lon="12.374683" lat="50.444087"><ele>675.0</ele></trkpt>
   <trkpt lon="12.374896" lat="50.443872"><ele>675.5</ele></trkpt>
   <trkpt lon="12.374997" lat="50.443750"><ele>676.5</ele></trkpt>
   <trkpt lon="12.375077" lat="50.443634"><ele>676.75</ele></trkpt>
   <trkpt lon="12.375150" lat="50.443514"><ele>677.25</ele></trkpt>
   <trkpt lon="12.375216" lat="50.443381"><ele>678.25</ele></trkpt>
   <trkpt lon="12.375268" lat="50.443251"><ele>678.5</ele></trkpt>
   <trkpt lon="12.375304" lat="50.443127"><ele>678.75</ele></trkpt>
   <trkpt lon="12.375347" lat="50.442874"><ele>679.75</ele></trkpt>
   <trkpt lon="12.375345" lat="50.442639"><ele>681.5</ele></trkpt>
   <trkpt lon="12.375301" lat="50.442398"><ele>683.0</ele></trkpt>
   <trkpt lon="12.375262" lat="50.442267"><ele>683.25</ele></trkpt>
   <trkpt lon="12.375204" lat="50.442126"><ele>683.75</ele></trkpt>
   <trkpt lon="12.375136" lat="50.441994"><ele>684.0</ele></trkpt>
   <trkpt lon="12.375055" lat="50.441864"><ele>684.0</ele></trkpt>
   <trkpt lon="12.374968" lat="50.441747"><ele>684.0</ele></trkpt>
   <trkpt lon="12.374765" lat="50.441521"><ele>683.0</ele></trkpt>
   <trkpt lon="12.374640" lat="50.441411"><ele>682.5</ele></trkpt>
   <trkpt lon="12.374497" lat="50.441298"><ele>681.75</ele></trkpt>
   <trkpt lon="12.373927" lat="50.440900"><ele>679.0</ele></trkpt>
   <trkpt lon="12.373549" lat="50.440617"><ele>677.0</ele></trkpt>
   <trkpt lon="12.373313" lat="50.440401"><ele>676.0</ele></trkpt>
   <trkpt lon="12.373099" lat="50.440170"><ele>676.25</ele></trkpt>
   <trkpt lon="12.373012" lat="50.440058"><ele>676.5</ele></trkpt>
   <trkpt lon="12.372886" lat="50.439861"><ele>677.5</ele></trkpt>
   <trkpt lon="12.372798" lat="50.439681"><ele>678.75</ele></trkpt>
   <trkpt lon="12.372762" lat="50.439589"><ele>679.25</ele></trkpt>
   <trkpt lon="12.372690" lat="50.439264"><ele>680.5</ele></trkpt>
   <trkpt lon="12.372676" lat="50.439132"><ele>681.0</ele></trkpt>
   <trkpt lon="12.372670" lat="50.438881"><ele>682.25</ele></trkpt>
   <trkpt lon="12.372682" lat="50.438755"><ele>682.75</ele></trkpt>
   <trkpt lon="12.372706" lat="50.438628"><ele>683.5</ele></trkpt>
   <trkpt lon="12.372738" lat="50.438505"><ele>683.75</ele></trkpt>
   <trkpt lon="12.372831" lat="50.438268"><ele>684.75</ele></trkpt>
   <trkpt lon="12.372970" lat="50.438022"><ele>686.0</ele></trkpt>
   <trkpt lon="12.373135" lat="50.437804"><ele>687.25</ele></trkpt>
   <trkpt lon="12.373329" lat="50.437600"><ele>688.0</ele></trkpt>
   <trkpt lon="12.373436" lat="50.437499"><ele>688.75</ele></trkpt>
   <trkpt lon="12.376558" lat="50.434682"><ele>692.25</ele></trkpt>
   <trkpt lon="12.376839" lat="50.434446"><ele>692.0</ele></trkpt>
   <trkpt lon="12.376981" lat="50.434342"><ele>692.0</ele></trkpt>
   <trkpt lon="12.377144" lat="50.434236"><ele>691.75</ele></trkpt>
   <trkpt lon="12.377324" lat="50.434133"><ele>691.75</ele></trkpt>
   <trkpt lon="12.377507" lat="50.434038"><ele>691.5</ele></trkpt>
   <trkpt lon="12.377707" lat="50.433950"><ele>691.0</ele></trkpt>
   <trkpt lon="12.377933" lat="50.433870"><ele>690.25</ele></trkpt>
   <trkpt lon="12.378165" lat="50.433799"><ele>689.5</ele></trkpt>
   <trkpt lon="12.378371" lat="50.433746"><ele>689.0</ele></trkpt>
   <trkpt lon="12.378617" lat="50.433697"><ele>689.25</ele></trkpt>
   <trkpt lon="12.378879" lat="50.433659"><ele>689.75</ele></trkpt>
   <trkpt lon="12.379115" lat="50.433634"><ele>690.0</ele></trkpt>
   <trkpt lon="12.379382" lat="50.433618"><ele>690.5</ele></trkpt>
   <trkpt lon="12.379624" lat="50.433616"><ele>691.0</ele></trkpt>
   <trkpt lon="12.379867" lat="50.433625"><ele>691.5</ele></trkpt>
   <trkpt lon="12.380141" lat="50.433648"><ele>691.5</ele></trkpt>
   <trkpt lon="12.380389" lat="50.433681"><ele>691.0</ele></trkpt>
   <trkpt lon="12.380626" lat="50.433724"><ele>690.75</ele></trkpt>
   <trkpt lon="12.380853" lat="50.433774"><ele>690.25</ele></trkpt>
   <trkpt lon="12.382089" lat="50.434083"><ele>687.0</ele></trkpt>
   <trkpt lon="12.382616" lat="50.434205"><ele>684.25</ele></trkpt>
   <trkpt lon="12.383154" lat="50.434287"><ele>681.5</ele></trkpt>
   <trkpt lon="12.383412" lat="50.434305"><ele>680.75</ele></trkpt>
   <trkpt lon="12.383681" lat="50.434312"><ele>680.75</ele></trkpt>
   <trkpt lon="12.383942" lat="50.434307"><ele>681.25</ele></trkpt>
   <trkpt lon="12.384195" lat="50.434292"><ele>681.5</ele></trkpt>
   <trkpt lon="12.384465" lat="50.434260"><ele>682.25</ele></trkpt>
   <trkpt lon="12.384731" lat="50.434217"><ele>683.0</ele></trkpt>
   <trkpt lon="12.385006" lat="50.434162"><ele>684.0</ele></trkpt>
   <trkpt lon="12.386211" lat="50.433907"><ele>691.5</ele></trkpt>
   <trkpt lon="12.386584" lat="50.433842"><ele>693.75</ele></trkpt>
   <trkpt lon="12.386962" lat="50.433802"><ele>694.75</ele></trkpt>
   <trkpt lon="12.387162" lat="50.433789"><ele>695.25</ele></trkpt>
   <trkpt lon="12.387367" lat="50.433786"><ele>695.25</ele></trkpt>
   <trkpt lon="12.387774" lat="50.433799"><ele>695.25</ele></trkpt>
   <trkpt lon="12.387971" lat="50.433816"><ele>695.0</ele></trkpt>
   <trkpt lon="12.388178" lat="50.433843"><ele>694.75</ele></trkpt>
   <trkpt lon="12.388533" lat="50.433908"><ele>694.25</ele></trkpt>
   <trkpt lon="12.388647" lat="50.433935"><ele>694.0</ele></trkpt>
   <trkpt lon="12.388959" lat="50.434022"><ele>693.0</ele></trkpt>
   <trkpt lon="12.389142" lat="50.434083"><ele>692.5</ele></trkpt>
   <trkpt lon="12.389510" lat="50.434236"><ele>692.5</ele></trkpt>
   <trkpt lon="12.392036" lat="50.435419"><ele>691.5</ele></trkpt>
   <trkpt lon="12.392494" lat="50.435615"><ele>691.0</ele></trkpt>
   <trkpt lon="12.392674" lat="50.435680"><ele>690.5</ele></trkpt>
   <trkpt lon="12.392892" lat="50.435746"><ele>690.0</ele></trkpt>
   <trkpt lon="12.393112" lat="50.435805"><ele>689.5</ele></trkpt>
   <trkpt lon="12.393320" lat="50.435850"><ele>689.0</ele></trkpt>
   <trkpt lon="12.393524" lat="50.435886"><ele>689.5</ele></trkpt>
   <trkpt lon="12.393880" lat="50.435926"><ele>690.75</ele></trkpt>
   <trkpt lon="12.394092" lat="50.435939"><ele>691.5</ele></trkpt>
   <trkpt lon="12.394314" lat="50.435944"><ele>692.0</ele></trkpt>
   <trkpt lon="12.394515" lat="50.435940"><ele>692.75</ele></trkpt>
   <trkpt lon="12.394881" lat="50.435914"><ele>694.0</ele></trkpt>
   <trkpt lon="12.395078" lat="50.435891"><ele>694.75</ele></trkpt>
   <trkpt lon="12.395234" lat="50.435866"><ele>695.5</ele></trkpt>
   <trkpt lon="12.395617" lat="50.435785"><ele>697.25</ele></trkpt>
   <trkpt lon="12.395916" lat="50.435695"><ele>698.75</ele></trkpt>
   <trkpt lon="12.396214" lat="50.435589"><ele>700.5</ele></trkpt>
   <trkpt lon="12.396370" lat="50.435524"><ele>701.5</ele></trkpt>
   <trkpt lon="12.396676" lat="50.435364"><ele>703.75</ele></trkpt>
   <trkpt lon="12.396827" lat="50.435271"><ele>704.25</ele></trkpt>
   <trkpt lon="12.396969" lat="50.435173"><ele>704.75</ele></trkpt>
   <trkpt lon="12.397207" lat="50.434977"><ele>706.0</ele></trkpt>
   <trkpt lon="12.397321" lat="50.434866"><ele>706.0</ele></trkpt>
   <trkpt lon="12.397423" lat="50.434750"><ele>706.25</ele></trkpt>
   <trkpt lon="12.397530" lat="50.434608"><ele>706.25</ele></trkpt>
   <trkpt lon="12.397615" lat="50.434474"><ele>706.5</ele></trkpt>
   <trkpt lon="12.397682" lat="50.434344"><ele>706.5</ele></trkpt>
   <trkpt lon="12.397736" lat="50.434221"><ele>706.5</ele></trkpt>
   <trkpt lon="12.397783" lat="50.434069"><ele>706.5</ele></trkpt>
   <trkpt lon="12.397843" lat="50.433766"><ele>706.0</ele></trkpt>
   <trkpt lon="12.398006" lat="50.432557"><ele>703.0</ele></trkpt>
   <trkpt lon="12.398014" lat="50.432502"><ele>702.75</ele></trkpt>
   <trkpt lon="12.398052" lat="50.432292"><ele>702.75</ele></trkpt>
   <trkpt lon="12.398118" lat="50.432060"><ele>702.5</ele></trkpt>
   <trkpt lon="12.398164" lat="50.431946"><ele>702.25</ele></trkpt>
   <trkpt lon="12.398238" lat="50.431801"><ele>701.75</ele></trkpt>
   <trkpt lon="12.398239" lat="50.431801"><ele>701.75</ele></trkpt>
   <trkpt lon="12.398311" lat="50.431670"><ele>701.0</ele></trkpt>
   <trkpt lon="12.398403" lat="50.431533"><ele>702.0</ele></trkpt>
   <trkpt lon="12.399108" lat="50.430607"><ele>705.25</ele></trkpt>
   <trkpt lon="12.399256" lat="50.430391"><ele>704.75</ele></trkpt>
   <trkpt lon="12.399395" lat="50.430168"><ele>704.25</ele></trkpt>
   <trkpt lon="12.399568" lat="50.429829"><ele>702.75</ele></trkpt>
   <trkpt lon="12.399679" lat="50.429562"><ele>701.0</ele></trkpt>
   <trkpt lon="12.399794" lat="50.429166"><ele>699.0</ele></trkpt>
   <trkpt lon="12.399819" lat="50.429038"><ele>698.5</ele></trkpt>
   <trkpt lon="12.399832" lat="50.428902"><ele>698.25</ele></trkpt>
   <trkpt lon="12.399826" lat="50.428669"><ele>698.0</ele></trkpt>
   <trkpt lon="12.399772" lat="50.428337"><ele>697.75</ele></trkpt>
   <trkpt lon="12.399747" lat="50.428242"><ele>697.75</ele></trkpt>
   <trkpt lon="12.399639" lat="50.427883"><ele>697.0</ele></trkpt>
   <trkpt lon="12.399513" lat="50.427586"><ele>696.75</ele></trkpt>
   <trkpt lon="12.399360" lat="50.427302"><ele>696.5</ele></trkpt>
   <trkpt lon="12.399240" lat="50.427117"><ele>696.25</ele></trkpt>
   <trkpt lon="12.399107" lat="50.426942"><ele>695.75</ele></trkpt>
   <trkpt lon="12.398974" lat="50.426790"><ele>695.25</ele></trkpt>
   <trkpt lon="12.398814" lat="50.426637"><ele>694.5</ele></trkpt>
   <trkpt lon="12.398216" lat="50.426131"><ele>693.75</ele></trkpt>
   <trkpt lon="12.397837" lat="50.425784"><ele>693.0</ele></trkpt>
   <trkpt lon="12.397574" lat="50.425523"><ele>693.25</ele></trkpt>
   <trkpt lon="12.397434" lat="50.425366"><ele>693.5</ele></trkpt>
   <trkpt lon="12.397236" lat="50.425128"><ele>693.5</ele></trkpt>
   <trkpt lon="12.397103" lat="50.424942"><ele>693.5</ele></trkpt>
   <trkpt lon="12.396935" lat="50.424684"><ele>694.0</ele></trkpt>
   <trkpt lon="12.396667" lat="50.424166"><ele>695.0</ele></trkpt>
   <trkpt lon="12.396564" lat="50.423983"><ele>696.25</ele></trkpt>
   <trkpt lon="12.396495" lat="50.423870"><ele>697.0</ele></trkpt>
   <trkpt lon="12.396465" lat="50.423822"><ele>697.25</ele></trkpt>
   <trkpt lon="12.396423" lat="50.423758"><ele>697.75</ele></trkpt>
   <trkpt lon="12.396068" lat="50.423197"><ele>699.75</ele></trkpt>
   <trkpt lon="12.395958" lat="50.423055"><ele>700.0</ele></trkpt>
   <trkpt lon="12.395830" lat="50.422917"><ele>700.5</ele></trkpt>
   <trkpt lon="12.395721" lat="50.422804"><ele>700.75</ele></trkpt>
   <trkpt lon="12.395600" lat="50.422696"><ele>701.0</ele></trkpt>
   <trkpt lon="12.395351" lat="50.422509"><ele>701.5</ele></trkpt>
   <trkpt lon="12.395123" lat="50.422371"><ele>702.25</ele></trkpt>
   <trkpt lon="12.394896" lat="50.422255"><ele>703.0</ele></trkpt>
   <trkpt lon="12.394646" lat="50.422148"><ele>703.75</ele></trkpt>
   <trkpt lon="12.394379" lat="50.422055"><ele>704.5</ele></trkpt>
   <trkpt lon="12.393148" lat="50.421661"><ele>706.25</ele></trkpt>
   <trkpt lon="12.392854" lat="50.421564"><ele>707.0</ele></trkpt>
   <trkpt lon="12.392662" lat="50.421496"><ele>707.5</ele></trkpt>
   <trkpt lon="12.392434" lat="50.421401"><ele>708.0</ele></trkpt>
   <trkpt lon="12.392431" lat="50.421399"><ele>708.0</ele></trkpt>
   <trkpt lon="12.392427" lat="50.421397"><ele>708.0</ele></trkpt>
   <trkpt lon="12.392193" lat="50.421281"><ele>708.0</ele></trkpt>
   <trkpt lon="12.392004" lat="50.421170"><ele>708.0</ele></trkpt>
   <trkpt lon="12.391752" lat="50.420988"><ele>708.0</ele></trkpt>
   <trkpt lon="12.391587" lat="50.420838"><ele>708.0</ele></trkpt>
   <trkpt lon="12.391387" lat="50.420606"><ele>708.0</ele></trkpt>
   <trkpt lon="12.391270" lat="50.420437"><ele>708.25</ele></trkpt>
   <trkpt lon="12.391169" lat="50.420243"><ele>708.75</ele></trkpt>
   <trkpt lon="12.391111" lat="50.420066"><ele>709.0</ele></trkpt>
   <trkpt lon="12.391073" lat="50.419892"><ele>709.0</ele></trkpt>
   <trkpt lon="12.391058" lat="50.419717"><ele>708.5</ele></trkpt>
   <trkpt lon="12.391085" lat="50.419449"><ele>707.5</ele></trkpt>
   <trkpt lon="12.391131" lat="50.419280"><ele>707.0</ele></trkpt>
   <trkpt lon="12.391198" lat="50.419108"><ele>706.25</ele></trkpt>
   <trkpt lon="12.391330" lat="50.418881"><ele>705.0</ele></trkpt>
   <trkpt lon="12.391502" lat="50.418659"><ele>704.0</ele></trkpt>
   <trkpt lon="12.391638" lat="50.418524"><ele>703.5</ele></trkpt>
   <trkpt lon="12.391775" lat="50.418401"><ele>703.25</ele></trkpt>
   <trkpt lon="12.391852" lat="50.418343"><ele>703.25</ele></trkpt>
   <trkpt lon="12.392026" lat="50.418224"><ele>703.75</ele></trkpt>
   <trkpt lon="12.392161" lat="50.418144"><ele>704.25</ele></trkpt>
   <trkpt lon="12.392322" lat="50.418059"><ele>704.75</ele></trkpt>
   <trkpt lon="12.392488" lat="50.417982"><ele>705.25</ele></trkpt>
   <trkpt lon="12.392710" lat="50.417894"><ele>706.0</ele></trkpt>
   <trkpt lon="12.392945" lat="50.417817"><ele>706.5</ele></trkpt>
   <trkpt lon="12.393087" lat="50.417777"><ele>707.0</ele></trkpt>
   <trkpt lon="12.393337" lat="50.417719"><ele>707.5</ele></trkpt>
   <trkpt lon="12.393725" lat="50.417654"><ele>708.0</ele></trkpt>
   <trkpt lon="12.395761" lat="50.417411"><ele>711.0</ele></trkpt>
   <trkpt lon="12.396027" lat="50.417371"><ele>711.0</ele></trkpt>
   <trkpt lon="12.396167" lat="50.417343"><ele>710.75</ele></trkpt>
   <trkpt lon="12.396414" lat="50.417281"><ele>710.75</ele></trkpt>
   <trkpt lon="12.396537" lat="50.417244"><ele>710.75</ele></trkpt>
   <trkpt lon="12.396791" lat="50.417155"><ele>710.75</ele></trkpt>
   <trkpt lon="12.397013" lat="50.417056"><ele>710.75</ele></trkpt>
   <trkpt lon="12.397237" lat="50.416936"><ele>711.0</ele></trkpt>
   <trkpt lon="12.397238" lat="50.416935"><ele>711.0</ele></trkpt>
   <trkpt lon="12.397551" lat="50.416753"><ele>711.0</ele></trkpt>
   <trkpt lon="12.397766" lat="50.416602"><ele>710.75</ele></trkpt>
   <trkpt lon="12.398411" lat="50.416127"><ele>709.75</ele></trkpt>
   <trkpt lon="12.399224" lat="50.415531"><ele>708.0</ele></trkpt>
   <trkpt lon="12.399302" lat="50.415474"><ele>707.75</ele></trkpt>
   <trkpt lon="12.399366" lat="50.415426"><ele>707.75</ele></trkpt>
   <trkpt lon="12.399968" lat="50.414981"><ele>707.25</ele></trkpt>
   <trkpt lon="12.400208" lat="50.414776"><ele>707.75</ele></trkpt>
   <trkpt lon="12.400309" lat="50.414681"><ele>708.0</ele></trkpt>
   <trkpt lon="12.400498" lat="50.414476"><ele>708.25</ele></trkpt>
   <trkpt lon="12.400586" lat="50.414364"><ele>708.5</ele></trkpt>
   <trkpt lon="12.400660" lat="50.414250"><ele>708.75</ele></trkpt>
   <trkpt lon="12.400734" lat="50.414126"><ele>708.75</ele></trkpt>
   <trkpt lon="12.400854" lat="50.413874"><ele>708.5</ele></trkpt>
   <trkpt lon="12.400947" lat="50.413609"><ele>708.25</ele></trkpt>
   <trkpt lon="12.400978" lat="50.413483"><ele>708.5</ele></trkpt>
   <trkpt lon="12.401004" lat="50.413361"><ele>708.5</ele></trkpt>
   <trkpt lon="12.401029" lat="50.413127"><ele>708.75</ele></trkpt>
   <trkpt lon="12.401028" lat="50.412894"><ele>709.25</ele></trkpt>
   <trkpt lon="12.401016" lat="50.412779"><ele>709.5</ele></trkpt>
   <trkpt lon="12.400977" lat="50.412540"><ele>710.0</ele></trkpt>
   <trkpt lon="12.400949" lat="50.412432"><ele>710.5</ele></trkpt>
   <trkpt lon="12.400877" lat="50.412214"><ele>711.0</ele></trkpt>
   <trkpt lon="12.400792" lat="50.412016"><ele>711.75</ele></trkpt>
   <trkpt lon="12.400636" lat="50.411739"><ele>712.5</ele></trkpt>
   <trkpt lon="12.400520" lat="50.411575"><ele>713.0</ele></trkpt>
   <trkpt lon="12.400375" lat="50.411395"><ele>713.25</ele></trkpt>
   <trkpt lon="12.400193" lat="50.411201"><ele>713.25</ele></trkpt>
   <trkpt lon="12.400025" lat="50.411045"><ele>713.25</ele></trkpt>
   <trkpt lon="12.399847" lat="50.410897"><ele>714.0</ele></trkpt>
   <trkpt lon="12.399662" lat="50.410760"><ele>714.75</ele></trkpt>
   <trkpt lon="12.399474" lat="50.410634"><ele>715.5</ele></trkpt>
   <trkpt lon="12.399186" lat="50.410466"><ele>716.5</ele></trkpt>
   <trkpt lon="12.398969" lat="50.410354"><ele>717.0</ele></trkpt>
   <trkpt lon="12.398742" lat="50.410249"><ele>717.5</ele></trkpt>
   <trkpt lon="12.398520" lat="50.410157"><ele>718.0</ele></trkpt>
   <trkpt lon="12.398196" lat="50.410039"><ele>719.25</ele></trkpt>
   <trkpt lon="12.396011" lat="50.409355"><ele>721.25</ele></trkpt>
   <trkpt lon="12.395676" lat="50.409254"><ele>722.0</ele></trkpt>
   <trkpt lon="12.395340" lat="50.409164"><ele>723.5</ele></trkpt>
   <trkpt lon="12.395010" lat="50.409089"><ele>726.0</ele></trkpt>
   <trkpt lon="12.394837" lat="50.409055"><ele>726.25</ele></trkpt>
   <trkpt lon="12.394336" lat="50.408981"><ele>727.25</ele></trkpt>
   <trkpt lon="12.393894" lat="50.408940"><ele>728.5</ele></trkpt>
   <trkpt lon="12.393326" lat="50.408920"><ele>730.25</ele></trkpt>
   <trkpt lon="12.393033" lat="50.408924"><ele>730.5</ele></trkpt>
   <trkpt lon="12.392731" lat="50.408938"><ele>730.75</ele></trkpt>
   <trkpt lon="12.392435" lat="50.408965"><ele>731.25</ele></trkpt>
   <trkpt lon="12.392130" lat="50.409002"><ele>731.5</ele></trkpt>
   <trkpt lon="12.391820" lat="50.409050"><ele>732.25</ele></trkpt>
   <trkpt lon="12.391527" lat="50.409108"><ele>732.5</ele></trkpt>
   <trkpt lon="12.391232" lat="50.409176"><ele>732.5</ele></trkpt>
   <trkpt lon="12.391098" lat="50.409214"><ele>732.25</ele></trkpt>
   <trkpt lon="12.390532" lat="50.409392"><ele>732.0</ele></trkpt>
   <trkpt lon="12.390382" lat="50.409448"><ele>732.0</ele></trkpt>
   <trkpt lon="12.390106" lat="50.409559"><ele>732.0</ele></trkpt>
   <trkpt lon="12.389979" lat="50.409618"><ele>732.0</ele></trkpt>
   <trkpt lon="12.389660" lat="50.409784"><ele>732.5</ele></trkpt>
   <trkpt lon="12.388270" lat="50.410597"><ele>734.75</ele></trkpt>
   <trkpt lon="12.387943" lat="50.410774"><ele>734.0</ele></trkpt>
   <trkpt lon="12.387784" lat="50.410849"><ele>733.75</ele></trkpt>
   <trkpt lon="12.387619" lat="50.410917"><ele>733.0</ele></trkpt>
   <trkpt lon="12.387264" lat="50.411035"><ele>731.5</ele></trkpt>
   <trkpt lon="12.387074" lat="50.411085"><ele>730.75</ele></trkpt>
   <trkpt lon="12.386888" lat="50.411126"><ele>730.0</ele></trkpt>
   <trkpt lon="12.386717" lat="50.411155"><ele>729.25</ele></trkpt>
   <trkpt lon="12.386558" lat="50.411178"><ele>729.0</ele></trkpt>
   <trkpt lon="12.386230" lat="50.411207"><ele>728.5</ele></trkpt>
   <trkpt lon="12.385921" lat="50.411214"><ele>728.0</ele></trkpt>
   <trkpt lon="12.385755" lat="50.411212"><ele>727.75</ele></trkpt>
   <trkpt lon="12.385577" lat="50.411202"><ele>727.5</ele></trkpt>
   <trkpt lon="12.385244" lat="50.411165"><ele>727.5</ele></trkpt>
   <trkpt lon="12.385080" lat="50.411140"><ele>727.25</ele></trkpt>
   <trkpt lon="12.384930" lat="50.411111"><ele>727.5</ele></trkpt>
   <trkpt lon="12.384646" lat="50.411041"><ele>729.25</ele></trkpt>
   <trkpt lon="12.384344" lat="50.410945"><ele>730.75</ele></trkpt>
   <trkpt lon="12.384192" lat="50.410887"><ele>731.75</ele></trkpt>
   <trkpt lon="12.384042" lat="50.410821"><ele>732.5</ele></trkpt>
   <trkpt lon="12.383766" lat="50.410678"><ele>734.25</ele></trkpt>
   <trkpt lon="12.383559" lat="50.410544"><ele>735.5</ele></trkpt>
   <trkpt lon="12.383351" lat="50.410391"><ele>736.75</ele></trkpt>
   <trkpt lon="12.383179" lat="50.410230"><ele>738.25</ele></trkpt>
   <trkpt lon="12.382970" lat="50.409975"><ele>740.0</ele></trkpt>
   <trkpt lon="12.381639" lat="50.407973"><ele>741.25</ele></trkpt>
   <trkpt lon="12.381485" lat="50.407768"><ele>741.5</ele></trkpt>
   <trkpt lon="12.381305" lat="50.407577"><ele>741.75</ele></trkpt>
   <trkpt lon="12.381201" lat="50.407485"><ele>742.0</ele></trkpt>
   <trkpt lon="12.380977" lat="50.407318"><ele>742.5</ele></trkpt>
   <trkpt lon="12.380841" lat="50.407230"><ele>742.75</ele></trkpt>
   <trkpt lon="12.380671" lat="50.407136"><ele>743.25</ele></trkpt>
   <trkpt lon="12.380312" lat="50.406978"><ele>743.75</ele></trkpt>
   <trkpt lon="12.380138" lat="50.406914"><ele>744.0</ele></trkpt>
   <trkpt lon="12.379967" lat="50.406862"><ele>744.0</ele></trkpt>
   <trkpt lon="12.379776" lat="50.406813"><ele>743.75</ele></trkpt>
   <trkpt lon="12.379620" lat="50.406780"><ele>743.5</ele></trkpt>
   <trkpt lon="12.379270" lat="50.406723"><ele>743.25</ele></trkpt>
   <trkpt lon="12.379077" lat="50.406704"><ele>743.0</ele></trkpt>
   <trkpt lon="12.378885" lat="50.406687"><ele>743.0</ele></trkpt>
   <trkpt lon="12.378003" lat="50.406634"><ele>743.25</ele></trkpt>
   <trkpt lon="12.377516" lat="50.406599"><ele>743.5</ele></trkpt>
   <trkpt lon="12.377151" lat="50.406559"><ele>743.5</ele></trkpt>
   <trkpt lon="12.376822" lat="50.406503"><ele>743.0</ele></trkpt>
   <trkpt lon="12.376513" lat="50.406426"><ele>743.5</ele></trkpt>
   <trkpt lon="12.376223" lat="50.406332"><ele>744.75</ele></trkpt>
   <trkpt lon="12.375963" lat="50.406224"><ele>745.5</ele></trkpt>
   <trkpt lon="12.375728" lat="50.406107"><ele>746.0</ele></trkpt>
   <trkpt lon="12.375504" lat="50.405971"><ele>746.25</ele></trkpt>
   <trkpt lon="12.375400" lat="50.405898"><ele>746.5</ele></trkpt>
   <trkpt lon="12.375307" lat="50.405827"><ele>746.5</ele></trkpt>
   <trkpt lon="12.375154" lat="50.405691"><ele>748.5</ele></trkpt>
   <trkpt lon="12.374927" lat="50.405455"><ele>752.0</ele></trkpt>
   <trkpt lon="12.374329" lat="50.404739"><ele>758.0</ele></trkpt>
   <trkpt lon="12.374149" lat="50.404552"><ele>758.5</ele></trkpt>
   <trkpt lon="12.373963" lat="50.404397"><ele>758.75</ele></trkpt>
   <trkpt lon="12.373754" lat="50.404258"><ele>758.75</ele></trkpt>
   <trkpt lon="12.373471" lat="50.404108"><ele>759.0</ele></trkpt>
   <trkpt lon="12.373320" lat="50.404046"><ele>759.0</ele></trkpt>
   <trkpt lon="12.373163" lat="50.403986"><ele>758.75</ele></trkpt>
   <trkpt lon="12.373025" lat="50.403942"><ele>758.5</ele></trkpt>
   <trkpt lon="12.372723" lat="50.403865"><ele>757.75</ele></trkpt>
   <trkpt lon="12.372411" lat="50.403813"><ele>757.25</ele></trkpt>
   <trkpt lon="12.372110" lat="50.403785"><ele>756.75</ele></trkpt>
   <trkpt lon="12.371787" lat="50.403777"><ele>756.0</ele></trkpt>
   <trkpt lon="12.371487" lat="50.403789"><ele>755.5</ele></trkpt>
   <trkpt lon="12.371191" lat="50.403821"><ele>755.0</ele></trkpt>
   <trkpt lon="12.370917" lat="50.403860"><ele>754.5</ele></trkpt>
   <trkpt lon="12.369920" lat="50.404033"><ele>752.25</ele></trkpt>
   <trkpt lon="12.369372" lat="50.404111"><ele>751.25</ele></trkpt>
   <trkpt lon="12.369057" lat="50.404134"><ele>751.0</ele></trkpt>
   <trkpt lon="12.368765" lat="50.404139"><ele>751.0</ele></trkpt>
   <trkpt lon="12.368476" lat="50.404130"><ele>751.0</ele></trkpt>
   <trkpt lon="12.368178" lat="50.404105"><ele>752.25</ele></trkpt>
   <trkpt lon="12.368047" lat="50.404090"><ele>753.25</ele></trkpt>
   <trkpt lon="12.367775" lat="50.404044"><ele>755.25</ele></trkpt>
   <trkpt lon="12.367414" lat="50.403962"><ele>758.0</ele></trkpt>
   <trkpt lon="12.365559" lat="50.403449"><ele>764.75</ele></trkpt>
   <trkpt lon="12.365097" lat="50.403331"><ele>763.75</ele></trkpt>
   <trkpt lon="12.364784" lat="50.403262"><ele>763.75</ele></trkpt>
   <trkpt lon="12.364472" lat="50.403206"><ele>764.25</ele></trkpt>
   <trkpt lon="12.364160" lat="50.403160"><ele>764.75</ele></trkpt>
   <trkpt lon="12.361543" lat="50.402837"><ele>768.5</ele></trkpt>
   <trkpt lon="12.361209" lat="50.402787"><ele>768.0</ele></trkpt>
   <trkpt lon="12.360901" lat="50.402728"><ele>767.25</ele></trkpt>
   <trkpt lon="12.360578" lat="50.402649"><ele>766.75</ele></trkpt>
   <trkpt lon="12.360273" lat="50.402556"><ele>766.25</ele></trkpt>
   <trkpt lon="12.359872" lat="50.402400"><ele>766.5</ele></trkpt>
   <trkpt lon="12.359498" lat="50.402217"><ele>768.25</ele></trkpt>
   <trkpt lon="12.359282" lat="50.402089"><ele>769.25</ele></trkpt>
   <trkpt lon="12.358967" lat="50.401867"><ele>771.0</ele></trkpt>
   <trkpt lon="12.357872" lat="50.400965"><ele>776.5</ele></trkpt>
   <trkpt lon="12.357663" lat="50.400809"><ele>776.5</ele></trkpt>
   <trkpt lon="12.357555" lat="50.400738"><ele>776.0</ele></trkpt>
   <trkpt lon="12.357334" lat="50.400609"><ele>775.5</ele></trkpt>
   <trkpt lon="12.357046" lat="50.400466"><ele>774.5</ele></trkpt>
   <trkpt lon="12.356900" lat="50.400405"><ele>774.25</ele></trkpt>
   <trkpt lon="12.356640" lat="50.400309"><ele>773.5</ele></trkpt>
   <trkpt lon="12.356331" lat="50.400219"><ele>774.25</ele></trkpt>
   <trkpt lon="12.355811" lat="50.400107"><ele>776.25</ele></trkpt>
   <trkpt lon="12.353332" lat="50.399672"><ele>785.25</ele></trkpt>
   <trkpt lon="12.353009" lat="50.399625"><ele>784.0</ele></trkpt>
   <trkpt lon="12.352821" lat="50.399604"><ele>783.5</ele></trkpt>
   <trkpt lon="12.352455" lat="50.399575"><ele>782.25</ele></trkpt>
   <trkpt lon="12.352079" lat="50.399561"><ele>781.5</ele></trkpt>
   <trkpt lon="12.351521" lat="50.399567"><ele>781.25</ele></trkpt>
   <trkpt lon="12.347998" lat="50.399744"><ele>779.0</ele></trkpt>
   <trkpt lon="12.347480" lat="50.399738"><ele>775.5</ele></trkpt>
   <trkpt lon="12.347172" lat="50.399715"><ele>773.75</ele></trkpt>
   <trkpt lon="12.347035" lat="50.399698"><ele>772.75</ele></trkpt>
   <trkpt lon="12.346777" lat="50.399658"><ele>771.25</ele></trkpt>
   <trkpt lon="12.346639" lat="50.399630"><ele>770.5</ele></trkpt>
   <trkpt lon="12.346353" lat="50.399559"><ele>768.5</ele></trkpt>
   <trkpt lon="12.346208" lat="50.399518"><ele>767.75</ele></trkpt>
   <trkpt lon="12.345953" lat="50.399432"><ele>766.5</ele></trkpt>
   <trkpt lon="12.345706" lat="50.399327"><ele>765.25</ele></trkpt>
   <trkpt lon="12.345464" lat="50.399206"><ele>764.5</ele></trkpt>
   <trkpt lon="12.345152" lat="50.399016"><ele>763.75</ele></trkpt>
   <trkpt lon="12.344910" lat="50.398827"><ele>763.25</ele></trkpt>
   <trkpt lon="12.344699" lat="50.398619"><ele>762.75</ele></trkpt>
   <trkpt lon="12.344565" lat="50.398473"><ele>762.5</ele></trkpt>
   <trkpt lon="12.344464" lat="50.398351"><ele>762.25</ele></trkpt>
   <trkpt lon="12.344298" lat="50.398125"><ele>762.5</ele></trkpt>
   <trkpt lon="12.344192" lat="50.397958"><ele>762.75</ele></trkpt>
   <trkpt lon="12.344057" lat="50.397702"><ele>763.5</ele></trkpt>
   <trkpt lon="12.343911" lat="50.397367"><ele>764.25</ele></trkpt>
   <trkpt lon="12.343490" lat="50.396219"><ele>766.0</ele></trkpt>
   <trkpt lon="12.343327" lat="50.395775"><ele>765.75</ele></trkpt>
  </trkseg>
 </trk>
</gpx>
