<?xml version="1.0" encoding="UTF-8"?>
<!-- track-length = 3978 filtered ascend = 19 plain-ascend = 20 cost=3978 energy=.1kwh time=5m 18s -->
<gpx 
 xmlns="http://www.topografix.com/GPX/1/1" 
 xmlns:xsi="http://www.w3.org/2001/XMLSchema-instance" 
 xsi:schemaLocation="http://www.topografix.com/GPX/1/1 http://www.topografix.com/GPX/1/1/gpx.xsd" 
 creator="BRouter-1.7.0" version="1.1">
 <trk>
  <name>Zwickau Zentrum</name>
  <trkseg>
   <trkpt lon="12.496900" lat="50.715738"><ele>269.0</ele></trkpt>
   <trkpt lon="12.496893" lat="50.715715"><ele>269.0</ele></trkpt>
   <trkpt lon="12.496856" lat="50.715501"><ele>269.25</ele></trkpt>
   <trkpt lon="12.496809" lat="50.715206"><ele>269.5</ele></trkpt>
   <trkpt lon="12.496788" lat="50.715013"><ele>269.75</ele></trkpt>
   <trkpt lon="12.496781" lat="50.714847"><ele>269.0</ele></trkpt>
   <trkpt lon="12.496781" lat="50.714759"><ele>268.5</ele></trkpt>
   <trkpt lon="12.496785" lat="50.714695"><ele>268.25</ele></trkpt>
   <trkpt lon="12.496810" lat="50.714568"><ele>267.75</ele></trkpt>
   <trkpt lon="12.496860" lat="50.714443"><ele>267.0</ele></trkpt>
   <trkpt lon="12.496924" lat="50.714306"><ele>266.25</ele></trkpt>
   <trkpt lon="12.497060" lat="50.714021"><ele>265.5</ele></trkpt>
   <trkpt lon="12.497258" lat="50.713472"><ele>266.0</ele></trkpt>
   <trkpt lon="12.497607" lat="50.712389"><ele>267.75</ele></trkpt>
   <trkpt lon="12.498116" lat="50.710801"><ele>268.0</ele></trkpt>
   <trkpt lon="12.498183" lat="50.710610"><ele>268.0</ele></trkpt>
   <trkpt lon="12.498257" lat="50.710354"><ele>268.0</ele></trkpt>
   <trkpt lon="12.498629" lat="50.709205"><ele>267.0</ele></trkpt>
   <trkpt lon="12.499232" lat="50.707324"><ele>264.5</ele></trkpt>
   <trkpt lon="12.499350" lat="50.706979"><ele>264.0</ele></trkpt>
   <trkpt lon="12.499475" lat="50.706597"><ele>263.25</ele></trkpt>
   <trkpt lon="12.499597" lat="50.706226"><ele>262.5</ele></trkpt>
   <trkpt lon="12.499616" lat="50.706164"><ele>262.5</ele></trkpt>
   <trkpt lon="12.499685" lat="50.705872"><ele>262.0</ele></trkpt>
   <trkpt lon="12.499701" lat="50.705747"><ele>261.75</ele></trkpt>
   <trkpt lon="12.499697" lat="50.705628"><ele>261.5</ele></trkpt>
   <trkpt lon="12.499682" lat="50.705568"><ele>261.25</ele></trkpt>
   <trkpt lon="12.499633" lat="50.705447"><ele>261.25</ele></trkpt>
   <trkpt lon="12.499539" lat="50.705292"><ele>261.0</ele></trkpt>
   <trkpt lon="12.499408" lat="50.705146"><ele>260.75</ele></trkpt>
   <trkpt lon="12.499245" lat="50.705020"><ele>260.75</ele></trkpt>
   <trkpt lon="12.499039" lat="50.704885"><ele>260.75</ele></trkpt>
   <trkpt lon="12.498640" lat="50.704676"><ele>260.75</ele></trkpt>
   <trkpt lon="12.498510" lat="50.704605"><ele>260.5</ele></trkpt>
   <trkpt lon="12.498372" lat="50.704507"><ele>260.25</ele></trkpt>
   <trkpt lon="12.498147" lat="50.704332"><ele>260.5</ele></trkpt>
   <trkpt lon="12.497859" lat="50.704106"><ele>261.0</ele></trkpt>
   <trkpt lon="12.497526" lat="50.703853"><ele>262.25</ele></trkpt>
   <trkpt lon="12.497337" lat="50.703739"><ele>262.5</ele></trkpt>
   <trkpt lon="12.497222" lat="50.703685"><ele>262.75</ele></trkpt>
   <trkpt lon="12.496991" lat="50.703601"><ele>263.25</ele></trkpt>
   <trkpt lon="12.496859" lat="50.703566"><ele>263.25</ele></trkpt>
   <trkpt lon="12.496726" lat="50.703539"><ele>263.5</ele></trkpt>
   <trkpt lon="12.496437" lat="50.703504"><ele>264.0</ele></trkpt>
   <trkpt lon="12.496124" lat="50.703501"><ele>264.25</ele></trkpt>
   <trkpt lon="12.494759" lat="50.703635"><ele>264.75</ele></trkpt>
   <trkpt lon="12.494526" lat="50.703651"><ele>265.0</ele></trkpt>
   <trkpt lon="12.494126" lat="50.703664"><ele>265.5</ele></trkpt>
   <trkpt lon="12.493850" lat="50.703687"><ele>265.75</ele></trkpt>
   <trkpt lon="12.493489" lat="50.703726"><ele>265.75</ele></trkpt>
   <trkpt lon="12.493280" lat="50.703758"><ele>266.0</ele></trkpt>
   <trkpt lon="12.493088" lat="50.703798"><ele>266.5</ele></trkpt>
   <trkpt lon="12.492893" lat="50.703853"><ele>267.0</ele></trkpt>
   <trkpt lon="12.492835" lat="50.703872"><ele>267.25</ele></trkpt>
   <trkpt lon="12.492763" lat="50.703896"><ele>267.25</ele></trkpt>
   <trkpt lon="12.492325" lat="50.704067"><ele>268.5</ele></trkpt>
   <trkpt lon="12.492122" lat="50.704160"><ele>268.75</ele></trkpt>
   <trkpt lon="12.492055" lat="50.704194"><ele>269.0</ele></trkpt>
   <trkpt lon="12.491819" lat="50.704317"><ele>269.5</ele></trkpt>
   <trkpt lon="12.491604" lat="50.704448"><ele>270.0</ele></trkpt>
   <trkpt lon="12.491396" lat="50.704585"><ele>270.75</ele></trkpt>
   <trkpt lon="12.491206" lat="50.704727"><ele>271.25</ele></trkpt>
   <trkpt lon="12.490822" lat="50.705034"><ele>271.75</ele></trkpt>
   <trkpt lon="12.490291" lat="50.705491"><ele>271.5</ele></trkpt>
   <trkpt lon="12.489977" lat="50.705777"><ele>271.25</ele></trkpt>
   <trkpt lon="12.489593" lat="50.706156"><ele>271.25</ele></trkpt>
   <trkpt lon="12.489298" lat="50.706477"><ele>271.75</ele></trkpt>
   <trkpt lon="12.489105" lat="50.706695"><ele>272.25</ele></trkpt>
   <trkpt lon="12.488591" lat="50.707279"><ele>274.25</ele></trkpt>
   <trkpt lon="12.488293" lat="50.707597"><ele>274.75</ele></trkpt>
   <trkpt lon="12.487978" lat="50.707907"><ele>275.25</ele></trkpt>
   <trkpt lon="12.486678" lat="50.709140"><ele>275.0</ele></trkpt>
   <trkpt lon="12.486333" lat="50.709445"><ele>274.75</ele></trkpt>
   <trkpt lon="12.485993" lat="50.709707"><ele>274.75</ele></trkpt>
   <trkpt lon="12.485664" lat="50.709933"><ele>274.75</ele></trkpt>
   <trkpt lon="12.485493" lat="50.710041"><ele>275.0</ele></trkpt>
   <trkpt lon="12.485141" lat="50.710247"><ele>275.75</ele></trkpt>
   <trkpt lon="12.484959" lat="50.710344"><ele>276.25</ele></trkpt>
   <trkpt lon="12.484779" lat="50.710436"><ele>276.75</ele></trkpt>
   <trkpt lon="12.484424" lat="50.710603"><ele>277.5</ele></trkpt>
   <trkpt lon="12.483698" lat="50.710913"><ele>279.5</ele></trkpt>
   <trkpt lon="12.483361" lat="50.711068"><ele>280.75</ele></trkpt>
   <trkpt lon="12.483012" lat="50.711253"><ele>281.5</ele></trkpt>
   <trkpt lon="12.482823" lat="50.711364"><ele>281.75</ele></trkpt>
   <trkpt lon="12.482323" lat="50.711674"><ele>281.75</ele></trkpt>
   <trkpt lon="12.482074" lat="50.711847"><ele>282.0</ele></trkpt>
   <trkpt lon="12.481851" lat="50.712019"><ele>282.5</ele></trkpt>
   <trkpt lon="12.480954" lat="50.712809"><ele>284.5</ele></trkpt>
   <trkpt lon="12.480370" lat="50.713321"><ele>283.5</ele></trkpt>
   <trkpt lon="12.480203" lat="50.713447"><ele>283.25</ele></trkpt>
   <trkpt lon="12.479938" lat="50.713619"><ele>282.75</ele></trkpt>
   <trkpt lon="12.479700" lat="50.713749"><ele>282.5</ele></trkpt>
   <trkpt lon="12.479451" lat="50.713871"><ele>282.25</ele></trkpt>
   <trkpt lon="12.479081" lat="50.714035"><ele>282.25</ele></trkpt>
   <trkpt lon="12.478862" lat="50.714121"><ele>282.25</ele></trkpt>
   <trkpt lon="12.478610" lat="50.714204"><ele>282.75</ele></trkpt>
   <trkpt lon="12.478415" lat="50.714261"><ele>283.25</ele></trkpt>
   <trkpt lon="12.478068" lat="50.714349"><ele>284.0</ele></trkpt>
   <trkpt lon="12.477842" lat="50.714399"><ele>284.5</ele></trkpt>
   <trkpt lon="12.477361" lat="50.714482"><ele>285.5</ele></trkpt>
   <trkpt lon="12.476975" lat="50.714527"><ele>285.75</ele></trkpt>
   <trkpt lon="12.476622" lat="50.714555"><ele>286.25</ele></trkpt>
   <trkpt lon="12.476449" lat="50.714563"><ele>286.25</ele></trkpt>
   <trkpt lon="12.476278" lat="50.714568"><ele>286.25</ele></trkpt>
   <trkpt lon="12.475961" lat="50.714562"><ele>286.25</ele></trkpt>
   <trkpt lon="12.475668" lat="50.714541"><ele>286.25</ele></trkpt>
   <trkpt lon="12.475365" lat="50.714504"><ele>285.75</ele></trkpt>
   <trkpt lon="12.474838" lat="50.714409"><ele>285.5</ele></trkpt>
   <trkpt lon="12.472844" lat="50.714029"><ele>287.0</ele></trkpt>
   <trkpt lon="12.472554" lat="50.713967"><ele>287.0</ele></trkpt>
   <trkpt lon="12.471064" lat="50.713566"><ele>287.5</ele></trkpt>
   <trkpt lon="12.470957" lat="50.713537"><ele>287.75</ele></trkpt>
   <trkpt lon="12.470222" lat="50.713344"><ele>288.0</ele></trkpt>
   <trkpt lon="12.470088" lat="50.713313"><ele>288.0</ele></trkpt>
   <trkpt lon="12.469654" lat="50.713231"><ele>288.5</ele></trkpt>
   <trkpt lon="12.469345" lat="50.713173"><ele>288.75</ele></trkpt>
  </trkseg>
 </trk>
</gpx>
