<?xml version="1.0" encoding="UTF-8"?>
<!-- track-length = 75935 filtered ascend = 53 plain-ascend = 35 cost=75935 energy=0.9kwh time=1h 41m 15s -->
<gpx 
 xmlns="http://www.topografix.com/GPX/1/1" 
 xmlns:xsi="http://www.w3.org/2001/XMLSchema-instance" 
 xsi:schemaLocation="http://www.topografix.com/GPX/1/1 http://www.topografix.com/GPX/1/1/gpx.xsd" 
 version="1.1" 
 creator="BRouter-Web 0.18.1">
 <trk>
  <name>Zwolle - Arnhem</name>
  <trkseg>
   <trkpt lat="52.505345" lon="6.089924"><ele>2.5</ele></trkpt>
   <trkpt lat="52.505345" lon="6.089925"><ele>2.5</ele></trkpt>
   <trkpt lat="52.505201" lon="6.090341"><ele>2.25</ele></trkpt>
   <trkpt lat="52.504799" lon="6.091464"><ele>1.75</ele></trkpt>
   <trkpt lat="52.504609" lon="6.091996"><ele>1.5</ele></trkpt>
   <trkpt lat="52.504366" lon="6.092672"><ele>1</ele></trkpt>
   <trkpt lat="52.50432" lon="6.092802"><ele>1</ele></trkpt>
   <trkpt lat="52.504104" lon="6.093412"><ele>0.75</ele></trkpt>
   <trkpt lat="52.503859" lon="6.094085"><ele>0.5</ele></trkpt>
   <trkpt lat="52.503828" lon="6.094169"><ele>0.5</ele></trkpt>
   <trkpt lat="52.503808" lon="6.094226"><ele>0.5</ele></trkpt>
   <trkpt lat="52.50355" lon="6.094957"><ele>0.75</ele></trkpt>
   <trkpt lat="52.503388" lon="6.095465"><ele>1</ele></trkpt>
   <trkpt lat="52.503248" lon="6.095964"><ele>0.75</ele></trkpt>
   <trkpt lat="52.503157" lon="6.096265"><ele>0.5</ele></trkpt>
   <trkpt lat="52.502995" lon="6.096749"><ele>0.75</ele></trkpt>
   <trkpt lat="52.502805" lon="6.097255"><ele>1.25</ele></trkpt>
   <trkpt lat="52.502559" lon="6.097909"><ele>1.25</ele></trkpt>
   <trkpt lat="52.502328" lon="6.098394"><ele>1</ele></trkpt>
   <trkpt lat="52.502099" lon="6.098869"><ele>1</ele></trkpt>
   <trkpt lat="52.50194" lon="6.099286"><ele>1</ele></trkpt>
   <trkpt lat="52.501503" lon="6.100437"><ele>1</ele></trkpt>
   <trkpt lat="52.501501" lon="6.100443"><ele>1</ele></trkpt>
   <trkpt lat="52.501383" lon="6.100749"><ele>1.25</ele></trkpt>
   <trkpt lat="52.500766" lon="6.102351"><ele>2</ele></trkpt>
   <trkpt lat="52.50066" lon="6.102627"><ele>1.75</ele></trkpt>
   <trkpt lat="52.500004" lon="6.104335"><ele>0.75</ele></trkpt>
   <trkpt lat="52.499611" lon="6.105254"><ele>1.25</ele></trkpt>
   <trkpt lat="52.499287" lon="6.106045"><ele>1.75</ele></trkpt>
   <trkpt lat="52.499187" lon="6.106261"><ele>1.75</ele></trkpt>
   <trkpt lat="52.4989" lon="6.10679"><ele>2</ele></trkpt>
   <trkpt lat="52.498673" lon="6.107137"><ele>2</ele></trkpt>
   <trkpt lat="52.498456" lon="6.107411"><ele>2</ele></trkpt>
   <trkpt lat="52.498292" lon="6.107586"><ele>1.75</ele></trkpt>
   <trkpt lat="52.498152" lon="6.107716"><ele>1</ele></trkpt>
   <trkpt lat="52.497943" lon="6.107882"><ele>0.5</ele></trkpt>
   <trkpt lat="52.497797" lon="6.107979"><ele>0</ele></trkpt>
   <trkpt lat="52.497651" lon="6.108069"><ele>0</ele></trkpt>
   <trkpt lat="52.497539" lon="6.108131"><ele>0</ele></trkpt>
   <trkpt lat="52.497327" lon="6.108226"><ele>0.25</ele></trkpt>
   <trkpt lat="52.497067" lon="6.10832"><ele>0.5</ele></trkpt>
   <trkpt lat="52.496793" lon="6.108379"><ele>0.75</ele></trkpt>
   <trkpt lat="52.496473" lon="6.108414"><ele>1</ele></trkpt>
   <trkpt lat="52.496216" lon="6.10841"><ele>1</ele></trkpt>
   <trkpt lat="52.495971" lon="6.108381"><ele>1</ele></trkpt>
   <trkpt lat="52.495685" lon="6.108316"><ele>1</ele></trkpt>
   <trkpt lat="52.495395" lon="6.108224"><ele>1.5</ele></trkpt>
   <trkpt lat="52.494997" lon="6.108057"><ele>1.5</ele></trkpt>
   <trkpt lat="52.494752" lon="6.107931"><ele>1.75</ele></trkpt>
   <trkpt lat="52.494649" lon="6.107872"><ele>2</ele></trkpt>
   <trkpt lat="52.494162" lon="6.107573"><ele>2</ele></trkpt>
   <trkpt lat="52.492442" lon="6.106447"><ele>0.25</ele></trkpt>
   <trkpt lat="52.492346" lon="6.106385"><ele>0.25</ele></trkpt>
   <trkpt lat="52.491255" lon="6.105674"><ele>1</ele></trkpt>
   <trkpt lat="52.490836" lon="6.10542"><ele>1</ele></trkpt>
   <trkpt lat="52.49051" lon="6.105243"><ele>1.25</ele></trkpt>
   <trkpt lat="52.490288" lon="6.10514"><ele>1.5</ele></trkpt>
   <trkpt lat="52.489954" lon="6.105005"><ele>1.75</ele></trkpt>
   <trkpt lat="52.489798" lon="6.104952"><ele>1.5</ele></trkpt>
   <trkpt lat="52.489597" lon="6.104891"><ele>1</ele></trkpt>
   <trkpt lat="52.489218" lon="6.104805"><ele>0.5</ele></trkpt>
   <trkpt lat="52.488955" lon="6.104765"><ele>0.5</ele></trkpt>
   <trkpt lat="52.4886" lon="6.104734"><ele>1</ele></trkpt>
   <trkpt lat="52.488423" lon="6.10473"><ele>1.25</ele></trkpt>
   <trkpt lat="52.48806" lon="6.104745"><ele>1.5</ele></trkpt>
   <trkpt lat="52.487746" lon="6.104782"><ele>1.75</ele></trkpt>
   <trkpt lat="52.487394" lon="6.104852"><ele>1.75</ele></trkpt>
   <trkpt lat="52.487134" lon="6.104923"><ele>1.5</ele></trkpt>
   <trkpt lat="52.486751" lon="6.105054"><ele>1</ele></trkpt>
   <trkpt lat="52.486475" lon="6.105173"><ele>0.75</ele></trkpt>
   <trkpt lat="52.486183" lon="6.105314"><ele>0.5</ele></trkpt>
   <trkpt lat="52.485635" lon="6.105614"><ele>1</ele></trkpt>
   <trkpt lat="52.485584" lon="6.105643"><ele>1</ele></trkpt>
   <trkpt lat="52.485585" lon="6.105643"><ele>1</ele></trkpt>
   <trkpt lat="52.483047" lon="6.107065"><ele>2.25</ele></trkpt>
   <trkpt lat="52.482967" lon="6.107109"><ele>2.25</ele></trkpt>
   <trkpt lat="52.482913" lon="6.107139"><ele>2.5</ele></trkpt>
   <trkpt lat="52.482868" lon="6.107164"><ele>2.5</ele></trkpt>
   <trkpt lat="52.482837" lon="6.107181"><ele>2.5</ele></trkpt>
   <trkpt lat="52.482646" lon="6.107289"><ele>2.75</ele></trkpt>
   <trkpt lat="52.477181" lon="6.110353"><ele>2.25</ele></trkpt>
   <trkpt lat="52.477171" lon="6.110359"><ele>2.25</ele></trkpt>
   <trkpt lat="52.474972" lon="6.111593"><ele>1</ele></trkpt>
   <trkpt lat="52.474876" lon="6.111642"><ele>1.25</ele></trkpt>
   <trkpt lat="52.468498" lon="6.115217"><ele>1.75</ele></trkpt>
   <trkpt lat="52.463335" lon="6.118107"><ele>1</ele></trkpt>
   <trkpt lat="52.463107" lon="6.118235"><ele>1</ele></trkpt>
   <trkpt lat="52.451522" lon="6.124708"><ele>2.5</ele></trkpt>
   <trkpt lat="52.4503" lon="6.125389"><ele>6.25</ele></trkpt>
   <trkpt lat="52.445644" lon="6.127992"><ele>4.5</ele></trkpt>
   <trkpt lat="52.436952" lon="6.132842"><ele>0.75</ele></trkpt>
   <trkpt lat="52.436845" lon="6.132904"><ele>0.5</ele></trkpt>
   <trkpt lat="52.427596" lon="6.138316"><ele>0</ele></trkpt>
   <trkpt lat="52.422882" lon="6.141069"><ele>1</ele></trkpt>
   <trkpt lat="52.418081" lon="6.143876"><ele>3</ele></trkpt>
   <trkpt lat="52.417843" lon="6.144018"><ele>3</ele></trkpt>
   <trkpt lat="52.415284" lon="6.145513"><ele>1</ele></trkpt>
   <trkpt lat="52.41447" lon="6.145965"><ele>0.25</ele></trkpt>
   <trkpt lat="52.413912" lon="6.146229"><ele>0.25</ele></trkpt>
   <trkpt lat="52.413666" lon="6.146332"><ele>0.5</ele></trkpt>
   <trkpt lat="52.413348" lon="6.146452"><ele>0.5</ele></trkpt>
   <trkpt lat="52.412774" lon="6.146633"><ele>1</ele></trkpt>
   <trkpt lat="52.412507" lon="6.146703"><ele>1</ele></trkpt>
   <trkpt lat="52.411933" lon="6.146824"><ele>1</ele></trkpt>
   <trkpt lat="52.411394" lon="6.146897"><ele>1</ele></trkpt>
   <trkpt lat="52.410866" lon="6.146938"><ele>1</ele></trkpt>
   <trkpt lat="52.410447" lon="6.146944"><ele>1.25</ele></trkpt>
   <trkpt lat="52.410164" lon="6.146936"><ele>1.75</ele></trkpt>
   <trkpt lat="52.40955" lon="6.146898"><ele>1.25</ele></trkpt>
   <trkpt lat="52.408439" lon="6.14681"><ele>1.75</ele></trkpt>
   <trkpt lat="52.405085" lon="6.146541"><ele>0.25</ele></trkpt>
   <trkpt lat="52.401366" lon="6.146248"><ele>0.75</ele></trkpt>
   <trkpt lat="52.400098" lon="6.146146"><ele>1</ele></trkpt>
   <trkpt lat="52.399692" lon="6.146108"><ele>1</ele></trkpt>
   <trkpt lat="52.399327" lon="6.146061"><ele>1</ele></trkpt>
   <trkpt lat="52.398808" lon="6.145966"><ele>0.5</ele></trkpt>
   <trkpt lat="52.398301" lon="6.145838"><ele>0</ele></trkpt>
   <trkpt lat="52.397821" lon="6.145687"><ele>0</ele></trkpt>
   <trkpt lat="52.397567" lon="6.145593"><ele>0</ele></trkpt>
   <trkpt lat="52.397328" lon="6.145498"><ele>0</ele></trkpt>
   <trkpt lat="52.396875" lon="6.145293"><ele>0</ele></trkpt>
   <trkpt lat="52.39629" lon="6.144986"><ele>0.25</ele></trkpt>
   <trkpt lat="52.395929" lon="6.14477"><ele>0.5</ele></trkpt>
   <trkpt lat="52.395646" lon="6.144584"><ele>1</ele></trkpt>
   <trkpt lat="52.39517" lon="6.144251"><ele>3</ele></trkpt>
   <trkpt lat="52.394653" lon="6.143865"><ele>4</ele></trkpt>
   <trkpt lat="52.392997" lon="6.142566"><ele>4.75</ele></trkpt>
   <trkpt lat="52.391169" lon="6.14115"><ele>7.75</ele></trkpt>
   <trkpt lat="52.390494" lon="6.140621"><ele>7</ele></trkpt>
   <trkpt lat="52.390279" lon="6.140452"><ele>6.5</ele></trkpt>
   <trkpt lat="52.389976" lon="6.140216"><ele>6</ele></trkpt>
   <trkpt lat="52.389445" lon="6.1398"><ele>5.25</ele></trkpt>
   <trkpt lat="52.389069" lon="6.139506"><ele>5.25</ele></trkpt>
   <trkpt lat="52.388736" lon="6.139245"><ele>6</ele></trkpt>
   <trkpt lat="52.388719" lon="6.139232"><ele>6</ele></trkpt>
   <trkpt lat="52.386124" lon="6.137203"><ele>7.5</ele></trkpt>
   <trkpt lat="52.384443" lon="6.135892"><ele>3</ele></trkpt>
   <trkpt lat="52.384396" lon="6.135854"><ele>3</ele></trkpt>
   <trkpt lat="52.384336" lon="6.135811"><ele>3</ele></trkpt>
   <trkpt lat="52.384191" lon="6.135698"><ele>3</ele></trkpt>
   <trkpt lat="52.381095" lon="6.133279"><ele>3.5</ele></trkpt>
   <trkpt lat="52.378666" lon="6.131386"><ele>2.75</ele></trkpt>
   <trkpt lat="52.37854" lon="6.131287"><ele>2.5</ele></trkpt>
   <trkpt lat="52.374916" lon="6.12848"><ele>1</ele></trkpt>
   <trkpt lat="52.370307" lon="6.124911"><ele>1.75</ele></trkpt>
   <trkpt lat="52.36466" lon="6.120538"><ele>2</ele></trkpt>
   <trkpt lat="52.363002" lon="6.119255"><ele>2</ele></trkpt>
   <trkpt lat="52.362599" lon="6.118943"><ele>2</ele></trkpt>
   <trkpt lat="52.362154" lon="6.118614"><ele>2.25</ele></trkpt>
   <trkpt lat="52.361782" lon="6.118358"><ele>2.75</ele></trkpt>
   <trkpt lat="52.361514" lon="6.118187"><ele>2.5</ele></trkpt>
   <trkpt lat="52.361178" lon="6.117988"><ele>2</ele></trkpt>
   <trkpt lat="52.360784" lon="6.117774"><ele>2</ele></trkpt>
   <trkpt lat="52.360287" lon="6.117535"><ele>2.5</ele></trkpt>
   <trkpt lat="52.360009" lon="6.117415"><ele>2.75</ele></trkpt>
   <trkpt lat="52.359559" lon="6.117243"><ele>4.75</ele></trkpt>
   <trkpt lat="52.35914" lon="6.117108"><ele>6.5</ele></trkpt>
   <trkpt lat="52.358756" lon="6.117001"><ele>7</ele></trkpt>
   <trkpt lat="52.358415" lon="6.116923"><ele>7.75</ele></trkpt>
   <trkpt lat="52.358122" lon="6.116867"><ele>8.25</ele></trkpt>
   <trkpt lat="52.357628" lon="6.116796"><ele>8.5</ele></trkpt>
   <trkpt lat="52.357196" lon="6.116758"><ele>7.25</ele></trkpt>
   <trkpt lat="52.356913" lon="6.116746"><ele>6</ele></trkpt>
   <trkpt lat="52.356437" lon="6.116741"><ele>4.25</ele></trkpt>
   <trkpt lat="52.35538" lon="6.116751"><ele>3.25</ele></trkpt>
   <trkpt lat="52.350627" lon="6.116806"><ele>2.75</ele></trkpt>
   <trkpt lat="52.350433" lon="6.116808"><ele>2.75</ele></trkpt>
   <trkpt lat="52.342878" lon="6.116896"><ele>3.5</ele></trkpt>
   <trkpt lat="52.342693" lon="6.116898"><ele>3.5</ele></trkpt>
   <trkpt lat="52.342473" lon="6.116902"><ele>3.5</ele></trkpt>
   <trkpt lat="52.342267" lon="6.116904"><ele>3.25</ele></trkpt>
   <trkpt lat="52.341618" lon="6.116895"><ele>2.5</ele></trkpt>
   <trkpt lat="52.341162" lon="6.116857"><ele>2.25</ele></trkpt>
   <trkpt lat="52.340697" lon="6.116764"><ele>2</ele></trkpt>
   <trkpt lat="52.340287" lon="6.116634"><ele>2</ele></trkpt>
   <trkpt lat="52.340068" lon="6.116546"><ele>2</ele></trkpt>
   <trkpt lat="52.339705" lon="6.11637"><ele>2.5</ele></trkpt>
   <trkpt lat="52.339473" lon="6.116236"><ele>3</ele></trkpt>
   <trkpt lat="52.339148" lon="6.116021"><ele>3.75</ele></trkpt>
   <trkpt lat="52.33908" lon="6.115973"><ele>4</ele></trkpt>
   <trkpt lat="52.338663" lon="6.115657"><ele>5</ele></trkpt>
   <trkpt lat="52.337871" lon="6.115017"><ele>5.25</ele></trkpt>
   <trkpt lat="52.337737" lon="6.114909"><ele>5.25</ele></trkpt>
   <trkpt lat="52.337128" lon="6.114417"><ele>5.25</ele></trkpt>
   <trkpt lat="52.337" lon="6.114314"><ele>5.25</ele></trkpt>
   <trkpt lat="52.336944" lon="6.114271"><ele>5.25</ele></trkpt>
   <trkpt lat="52.33657" lon="6.113985"><ele>5</ele></trkpt>
   <trkpt lat="52.336318" lon="6.113812"><ele>5</ele></trkpt>
   <trkpt lat="52.336104" lon="6.113676"><ele>5</ele></trkpt>
   <trkpt lat="52.335751" lon="6.113489"><ele>4.75</ele></trkpt>
   <trkpt lat="52.335738" lon="6.113483"><ele>4.75</ele></trkpt>
   <trkpt lat="52.335704" lon="6.113467"><ele>4.75</ele></trkpt>
   <trkpt lat="52.335583" lon="6.113412"><ele>4.75</ele></trkpt>
   <trkpt lat="52.335183" lon="6.113261"><ele>5</ele></trkpt>
   <trkpt lat="52.334924" lon="6.113186"><ele>5</ele></trkpt>
   <trkpt lat="52.334721" lon="6.113144"><ele>5</ele></trkpt>
   <trkpt lat="52.334406" lon="6.113095"><ele>5</ele></trkpt>
   <trkpt lat="52.334161" lon="6.113075"><ele>4.75</ele></trkpt>
   <trkpt lat="52.333962" lon="6.113071"><ele>4.75</ele></trkpt>
   <trkpt lat="52.333714" lon="6.113081"><ele>4.75</ele></trkpt>
   <trkpt lat="52.333521" lon="6.1131"><ele>4.75</ele></trkpt>
   <trkpt lat="52.333318" lon="6.113129"><ele>4.5</ele></trkpt>
   <trkpt lat="52.333114" lon="6.113171"><ele>4.25</ele></trkpt>
   <trkpt lat="52.332741" lon="6.113278"><ele>3.5</ele></trkpt>
   <trkpt lat="52.332387" lon="6.113409"><ele>2.75</ele></trkpt>
   <trkpt lat="52.332111" lon="6.113533"><ele>2.5</ele></trkpt>
   <trkpt lat="52.33209" lon="6.113543"><ele>2.5</ele></trkpt>
   <trkpt lat="52.331086" lon="6.114058"><ele>2</ele></trkpt>
   <trkpt lat="52.330333" lon="6.114452"><ele>1.75</ele></trkpt>
   <trkpt lat="52.329271" lon="6.115026"><ele>0.75</ele></trkpt>
   <trkpt lat="52.328969" lon="6.115192"><ele>1.75</ele></trkpt>
   <trkpt lat="52.328699" lon="6.11534"><ele>2.75</ele></trkpt>
   <trkpt lat="52.328627" lon="6.11538"><ele>3</ele></trkpt>
   <trkpt lat="52.328401" lon="6.115504"><ele>4.25</ele></trkpt>
   <trkpt lat="52.325151" lon="6.117292"><ele>4.5</ele></trkpt>
   <trkpt lat="52.320288" lon="6.119961"><ele>4.5</ele></trkpt>
   <trkpt lat="52.319834" lon="6.120219"><ele>5</ele></trkpt>
   <trkpt lat="52.319715" lon="6.120276"><ele>5</ele></trkpt>
   <trkpt lat="52.317042" lon="6.121744"><ele>6.25</ele></trkpt>
   <trkpt lat="52.316695" lon="6.121935"><ele>6.5</ele></trkpt>
   <trkpt lat="52.312528" lon="6.124192"><ele>2</ele></trkpt>
   <trkpt lat="52.31186" lon="6.124552"><ele>3</ele></trkpt>
   <trkpt lat="52.310267" lon="6.125416"><ele>4</ele></trkpt>
   <trkpt lat="52.303011" lon="6.129328"><ele>3</ele></trkpt>
   <trkpt lat="52.302658" lon="6.129518"><ele>3</ele></trkpt>
   <trkpt lat="52.301554" lon="6.130116"><ele>3.75</ele></trkpt>
   <trkpt lat="52.294765" lon="6.133778"><ele>9</ele></trkpt>
   <trkpt lat="52.288982" lon="6.136896"><ele>7.25</ele></trkpt>
   <trkpt lat="52.287895" lon="6.137482"><ele>11</ele></trkpt>
   <trkpt lat="52.287555" lon="6.137664"><ele>10.5</ele></trkpt>
   <trkpt lat="52.285875" lon="6.138572"><ele>5</ele></trkpt>
   <trkpt lat="52.281862" lon="6.140737"><ele>5</ele></trkpt>
   <trkpt lat="52.281436" lon="6.140966"><ele>5</ele></trkpt>
   <trkpt lat="52.280756" lon="6.141329"><ele>5.25</ele></trkpt>
   <trkpt lat="52.280194" lon="6.141593"><ele>5.5</ele></trkpt>
   <trkpt lat="52.27986" lon="6.141723"><ele>5.75</ele></trkpt>
   <trkpt lat="52.279397" lon="6.141869"><ele>5.75</ele></trkpt>
   <trkpt lat="52.279002" lon="6.141959"><ele>6.25</ele></trkpt>
   <trkpt lat="52.27844" lon="6.142046"><ele>7.25</ele></trkpt>
   <trkpt lat="52.277038" lon="6.142183"><ele>8</ele></trkpt>
   <trkpt lat="52.274281" lon="6.14245"><ele>8.75</ele></trkpt>
   <trkpt lat="52.274227" lon="6.142454"><ele>8.75</ele></trkpt>
   <trkpt lat="52.274113" lon="6.142466"><ele>8.75</ele></trkpt>
   <trkpt lat="52.274062" lon="6.142473"><ele>8.75</ele></trkpt>
   <trkpt lat="52.273881" lon="6.142488"><ele>8.5</ele></trkpt>
   <trkpt lat="52.272858" lon="6.142591"><ele>8</ele></trkpt>
   <trkpt lat="52.272128" lon="6.142695"><ele>7.5</ele></trkpt>
   <trkpt lat="52.271545" lon="6.142806"><ele>7.25</ele></trkpt>
   <trkpt lat="52.271146" lon="6.142904"><ele>7.75</ele></trkpt>
   <trkpt lat="52.270775" lon="6.143008"><ele>8</ele></trkpt>
   <trkpt lat="52.270365" lon="6.14314"><ele>8.25</ele></trkpt>
   <trkpt lat="52.269955" lon="6.14329"><ele>8.75</ele></trkpt>
   <trkpt lat="52.269667" lon="6.143405"><ele>8.25</ele></trkpt>
   <trkpt lat="52.269254" lon="6.143585"><ele>8</ele></trkpt>
   <trkpt lat="52.26886" lon="6.143776"><ele>8</ele></trkpt>
   <trkpt lat="52.268577" lon="6.143925"><ele>8</ele></trkpt>
   <trkpt lat="52.268152" lon="6.144164"><ele>8.25</ele></trkpt>
   <trkpt lat="52.267799" lon="6.14438"><ele>9.5</ele></trkpt>
   <trkpt lat="52.267438" lon="6.144614"><ele>10.25</ele></trkpt>
   <trkpt lat="52.2674" lon="6.14464"><ele>10.25</ele></trkpt>
   <trkpt lat="52.267312" lon="6.144702"><ele>10.25</ele></trkpt>
   <trkpt lat="52.267257" lon="6.144737"><ele>10.25</ele></trkpt>
   <trkpt lat="52.267072" lon="6.144868"><ele>10.25</ele></trkpt>
   <trkpt lat="52.266672" lon="6.145164"><ele>10.75</ele></trkpt>
   <trkpt lat="52.266319" lon="6.145442"><ele>10.75</ele></trkpt>
   <trkpt lat="52.265705" lon="6.145964"><ele>11.25</ele></trkpt>
   <trkpt lat="52.26529" lon="6.146343"><ele>11.5</ele></trkpt>
   <trkpt lat="52.26502" lon="6.146602"><ele>10.75</ele></trkpt>
   <trkpt lat="52.264536" lon="6.147092"><ele>9.25</ele></trkpt>
   <trkpt lat="52.264016" lon="6.147662"><ele>8</ele></trkpt>
   <trkpt lat="52.263594" lon="6.148156"><ele>7.5</ele></trkpt>
   <trkpt lat="52.263079" lon="6.14881"><ele>7</ele></trkpt>
   <trkpt lat="52.262877" lon="6.14908"><ele>7</ele></trkpt>
   <trkpt lat="52.262447" lon="6.149682"><ele>7</ele></trkpt>
   <trkpt lat="52.262235" lon="6.149992"><ele>7.25</ele></trkpt>
   <trkpt lat="52.261916" lon="6.150481"><ele>7.5</ele></trkpt>
   <trkpt lat="52.26169" lon="6.150841"><ele>7.75</ele></trkpt>
   <trkpt lat="52.261503" lon="6.151155"><ele>8.5</ele></trkpt>
   <trkpt lat="52.26119" lon="6.151694"><ele>9</ele></trkpt>
   <trkpt lat="52.261099" lon="6.15186"><ele>9</ele></trkpt>
   <trkpt lat="52.261009" lon="6.15202"><ele>9</ele></trkpt>
   <trkpt lat="52.260709" lon="6.152586"><ele>9</ele></trkpt>
   <trkpt lat="52.260512" lon="6.152977"><ele>9.25</ele></trkpt>
   <trkpt lat="52.260322" lon="6.153378"><ele>9.25</ele></trkpt>
   <trkpt lat="52.259942" lon="6.154222"><ele>8.75</ele></trkpt>
   <trkpt lat="52.259941" lon="6.154225"><ele>8.75</ele></trkpt>
   <trkpt lat="52.25994" lon="6.154226"><ele>8.75</ele></trkpt>
   <trkpt lat="52.259835" lon="6.154464"><ele>8.75</ele></trkpt>
   <trkpt lat="52.259758" lon="6.154636"><ele>8.75</ele></trkpt>
   <trkpt lat="52.259556" lon="6.1551"><ele>9</ele></trkpt>
   <trkpt lat="52.259361" lon="6.155598"><ele>9.5</ele></trkpt>
   <trkpt lat="52.25936" lon="6.155601"><ele>9.5</ele></trkpt>
   <trkpt lat="52.258997" lon="6.156537"><ele>9.5</ele></trkpt>
   <trkpt lat="52.258944" lon="6.156668"><ele>9.25</ele></trkpt>
   <trkpt lat="52.25879" lon="6.157043"><ele>8.75</ele></trkpt>
   <trkpt lat="52.25858" lon="6.157684"><ele>8.25</ele></trkpt>
   <trkpt lat="52.258579" lon="6.157687"><ele>8.25</ele></trkpt>
   <trkpt lat="52.258505" lon="6.157888"><ele>8.25</ele></trkpt>
   <trkpt lat="52.258149" lon="6.158763"><ele>9</ele></trkpt>
   <trkpt lat="52.258146" lon="6.158771"><ele>9</ele></trkpt>
   <trkpt lat="52.257853" lon="6.159479"><ele>9.25</ele></trkpt>
   <trkpt lat="52.257514" lon="6.160303"><ele>9</ele></trkpt>
   <trkpt lat="52.257439" lon="6.160482"><ele>8.75</ele></trkpt>
   <trkpt lat="52.257352" lon="6.16069"><ele>9</ele></trkpt>
   <trkpt lat="52.257157" lon="6.161165"><ele>9</ele></trkpt>
   <trkpt lat="52.257119" lon="6.161257"><ele>9</ele></trkpt>
   <trkpt lat="52.257089" lon="6.16133"><ele>9.25</ele></trkpt>
   <trkpt lat="52.257017" lon="6.161505"><ele>9.25</ele></trkpt>
   <trkpt lat="52.256831" lon="6.161956"><ele>9.25</ele></trkpt>
   <trkpt lat="52.25681" lon="6.162007"><ele>9.25</ele></trkpt>
   <trkpt lat="52.256661" lon="6.162367"><ele>9</ele></trkpt>
   <trkpt lat="52.256656" lon="6.162378"><ele>9</ele></trkpt>
   <trkpt lat="52.25648" lon="6.162803"><ele>8.75</ele></trkpt>
   <trkpt lat="52.25626" lon="6.163342"><ele>8.25</ele></trkpt>
   <trkpt lat="52.256255" lon="6.163357"><ele>8.25</ele></trkpt>
   <trkpt lat="52.256221" lon="6.163449"><ele>8.5</ele></trkpt>
   <trkpt lat="52.2562" lon="6.163506"><ele>8.5</ele></trkpt>
   <trkpt lat="52.256164" lon="6.163612"><ele>8.5</ele></trkpt>
   <trkpt lat="52.256128" lon="6.163728"><ele>8.5</ele></trkpt>
   <trkpt lat="52.256052" lon="6.164014"><ele>8.5</ele></trkpt>
   <trkpt lat="52.25601" lon="6.164196"><ele>8.5</ele></trkpt>
   <trkpt lat="52.255962" lon="6.164446"><ele>8</ele></trkpt>
   <trkpt lat="52.255883" lon="6.164971"><ele>7</ele></trkpt>
   <trkpt lat="52.255836" lon="6.165341"><ele>7</ele></trkpt>
   <trkpt lat="52.255749" lon="6.166208"><ele>7.75</ele></trkpt>
   <trkpt lat="52.255693" lon="6.166799"><ele>8.5</ele></trkpt>
   <trkpt lat="52.255638" lon="6.167456"><ele>8.5</ele></trkpt>
   <trkpt lat="52.255622" lon="6.167889"><ele>8.25</ele></trkpt>
   <trkpt lat="52.255624" lon="6.168411"><ele>7.75</ele></trkpt>
   <trkpt lat="52.25564" lon="6.168747"><ele>7.5</ele></trkpt>
   <trkpt lat="52.255672" lon="6.169163"><ele>7.5</ele></trkpt>
   <trkpt lat="52.255705" lon="6.169453"><ele>7.25</ele></trkpt>
   <trkpt lat="52.255748" lon="6.169751"><ele>7</ele></trkpt>
   <trkpt lat="52.255755" lon="6.169799"><ele>7</ele></trkpt>
   <trkpt lat="52.255842" lon="6.170271"><ele>7</ele></trkpt>
   <trkpt lat="52.255975" lon="6.170851"><ele>7</ele></trkpt>
   <trkpt lat="52.255974" lon="6.170851"><ele>7</ele></trkpt>
   <trkpt lat="52.255983" lon="6.170888"><ele>7</ele></trkpt>
   <trkpt lat="52.257385" lon="6.176958"><ele>7.75</ele></trkpt>
   <trkpt lat="52.257474" lon="6.177369"><ele>7.75</ele></trkpt>
   <trkpt lat="52.257533" lon="6.177671"><ele>7.75</ele></trkpt>
   <trkpt lat="52.257612" lon="6.178135"><ele>7.75</ele></trkpt>
   <trkpt lat="52.257701" lon="6.178815"><ele>7.75</ele></trkpt>
   <trkpt lat="52.257754" lon="6.179417"><ele>7.75</ele></trkpt>
   <trkpt lat="52.257797" lon="6.180327"><ele>7.25</ele></trkpt>
   <trkpt lat="52.257806" lon="6.180547"><ele>7.25</ele></trkpt>
   <trkpt lat="52.257815" lon="6.180785"><ele>7.25</ele></trkpt>
   <trkpt lat="52.257854" lon="6.181786"><ele>7.25</ele></trkpt>
   <trkpt lat="52.257863" lon="6.182353"><ele>7.25</ele></trkpt>
   <trkpt lat="52.257864" lon="6.182401"><ele>7.25</ele></trkpt>
   <trkpt lat="52.257864" lon="6.182443"><ele>7.25</ele></trkpt>
   <trkpt lat="52.257861" lon="6.182823"><ele>7.25</ele></trkpt>
   <trkpt lat="52.25785" lon="6.18314"><ele>7.25</ele></trkpt>
   <trkpt lat="52.257829" lon="6.183535"><ele>7</ele></trkpt>
   <trkpt lat="52.2578" lon="6.183909"><ele>6.75</ele></trkpt>
   <trkpt lat="52.257737" lon="6.184478"><ele>6.25</ele></trkpt>
   <trkpt lat="52.257723" lon="6.184589"><ele>6.25</ele></trkpt>
   <trkpt lat="52.257683" lon="6.184856"><ele>6.25</ele></trkpt>
   <trkpt lat="52.257627" lon="6.185206"><ele>6.25</ele></trkpt>
   <trkpt lat="52.257515" lon="6.185785"><ele>6.75</ele></trkpt>
   <trkpt lat="52.257485" lon="6.185926"><ele>7</ele></trkpt>
   <trkpt lat="52.257346" lon="6.186533"><ele>7.75</ele></trkpt>
   <trkpt lat="52.257254" lon="6.186899"><ele>8</ele></trkpt>
   <trkpt lat="52.257013" lon="6.187759"><ele>8.25</ele></trkpt>
   <trkpt lat="52.256792" lon="6.188451"><ele>9</ele></trkpt>
   <trkpt lat="52.256617" lon="6.188942"><ele>8.75</ele></trkpt>
   <trkpt lat="52.256465" lon="6.189338"><ele>8.75</ele></trkpt>
   <trkpt lat="52.256203" lon="6.189958"><ele>8.75</ele></trkpt>
   <trkpt lat="52.255918" lon="6.190563"><ele>9</ele></trkpt>
   <trkpt lat="52.255732" lon="6.190924"><ele>8.5</ele></trkpt>
   <trkpt lat="52.255558" lon="6.191243"><ele>8</ele></trkpt>
   <trkpt lat="52.255295" lon="6.191692"><ele>8</ele></trkpt>
   <trkpt lat="52.255046" lon="6.192084"><ele>8</ele></trkpt>
   <trkpt lat="52.254842" lon="6.192383"><ele>8</ele></trkpt>
   <trkpt lat="52.254614" lon="6.192697"><ele>8</ele></trkpt>
   <trkpt lat="52.254238" lon="6.193182"><ele>8</ele></trkpt>
   <trkpt lat="52.253509" lon="6.194086"><ele>8</ele></trkpt>
   <trkpt lat="52.253219" lon="6.194441"><ele>8.25</ele></trkpt>
   <trkpt lat="52.253005" lon="6.194705"><ele>8</ele></trkpt>
   <trkpt lat="52.252935" lon="6.194794"><ele>8</ele></trkpt>
   <trkpt lat="52.252702" lon="6.195082"><ele>7.5</ele></trkpt>
   <trkpt lat="52.252426" lon="6.195422"><ele>6.5</ele></trkpt>
   <trkpt lat="52.251893" lon="6.196083"><ele>7.25</ele></trkpt>
   <trkpt lat="52.251257" lon="6.196867"><ele>7.75</ele></trkpt>
   <trkpt lat="52.251256" lon="6.196869"><ele>7.75</ele></trkpt>
   <trkpt lat="52.250338" lon="6.198003"><ele>8</ele></trkpt>
   <trkpt lat="52.250169" lon="6.198213"><ele>8</ele></trkpt>
   <trkpt lat="52.249782" lon="6.19869"><ele>8.25</ele></trkpt>
   <trkpt lat="52.249653" lon="6.198849"><ele>8.25</ele></trkpt>
   <trkpt lat="52.247869" lon="6.201052"><ele>6.5</ele></trkpt>
   <trkpt lat="52.247606" lon="6.201381"><ele>6.5</ele></trkpt>
   <trkpt lat="52.245973" lon="6.203396"><ele>6.75</ele></trkpt>
   <trkpt lat="52.244088" lon="6.205723"><ele>6.75</ele></trkpt>
   <trkpt lat="52.243776" lon="6.206095"><ele>6</ele></trkpt>
   <trkpt lat="52.243613" lon="6.206274"><ele>5.75</ele></trkpt>
   <trkpt lat="52.243348" lon="6.206566"><ele>5.75</ele></trkpt>
   <trkpt lat="52.243165" lon="6.206752"><ele>6</ele></trkpt>
   <trkpt lat="52.242889" lon="6.207013"><ele>6</ele></trkpt>
   <trkpt lat="52.242473" lon="6.207371"><ele>6.75</ele></trkpt>
   <trkpt lat="52.242083" lon="6.207666"><ele>7</ele></trkpt>
   <trkpt lat="52.241729" lon="6.207903"><ele>7.25</ele></trkpt>
   <trkpt lat="52.24137" lon="6.208126"><ele>7.75</ele></trkpt>
   <trkpt lat="52.24131" lon="6.208161"><ele>7.75</ele></trkpt>
   <trkpt lat="52.241172" lon="6.208243"><ele>7.75</ele></trkpt>
   <trkpt lat="52.240997" lon="6.208346"><ele>8</ele></trkpt>
   <trkpt lat="52.240765" lon="6.208482"><ele>8</ele></trkpt>
   <trkpt lat="52.240717" lon="6.208511"><ele>8</ele></trkpt>
   <trkpt lat="52.237703" lon="6.210277"><ele>7.25</ele></trkpt>
   <trkpt lat="52.237501" lon="6.210395"><ele>7.25</ele></trkpt>
   <trkpt lat="52.237309" lon="6.210509"><ele>8.5</ele></trkpt>
   <trkpt lat="52.234784" lon="6.211997"><ele>6</ele></trkpt>
   <trkpt lat="52.233305" lon="6.212869"><ele>6.25</ele></trkpt>
   <trkpt lat="52.233017" lon="6.213039"><ele>6.25</ele></trkpt>
   <trkpt lat="52.231624" lon="6.213861"><ele>6.25</ele></trkpt>
   <trkpt lat="52.231496" lon="6.21393"><ele>6.5</ele></trkpt>
   <trkpt lat="52.229616" lon="6.215043"><ele>6.25</ele></trkpt>
   <trkpt lat="52.22668" lon="6.216775"><ele>10.75</ele></trkpt>
   <trkpt lat="52.226578" lon="6.216836"><ele>11.25</ele></trkpt>
   <trkpt lat="52.223421" lon="6.218699"><ele>15</ele></trkpt>
   <trkpt lat="52.222865" lon="6.219029"><ele>16.25</ele></trkpt>
   <trkpt lat="52.221319" lon="6.219943"><ele>16.25</ele></trkpt>
   <trkpt lat="52.218673" lon="6.221507"><ele>15</ele></trkpt>
   <trkpt lat="52.215916" lon="6.223139"><ele>9.25</ele></trkpt>
   <trkpt lat="52.215646" lon="6.223306"><ele>8.5</ele></trkpt>
   <trkpt lat="52.215516" lon="6.223374"><ele>8</ele></trkpt>
   <trkpt lat="52.214147" lon="6.224188"><ele>7</ele></trkpt>
   <trkpt lat="52.214008" lon="6.224273"><ele>7.75</ele></trkpt>
   <trkpt lat="52.212347" lon="6.225254"><ele>9.25</ele></trkpt>
   <trkpt lat="52.207496" lon="6.228129"><ele>15</ele></trkpt>
   <trkpt lat="52.205506" lon="6.229311"><ele>14</ele></trkpt>
   <trkpt lat="52.20027" lon="6.232417"><ele>14.5</ele></trkpt>
   <trkpt lat="52.200189" lon="6.232463"><ele>14.25</ele></trkpt>
   <trkpt lat="52.195996" lon="6.234951"><ele>8.5</ele></trkpt>
   <trkpt lat="52.195164" lon="6.235444"><ele>8.5</ele></trkpt>
   <trkpt lat="52.194673" lon="6.235714"><ele>10.25</ele></trkpt>
   <trkpt lat="52.194162" lon="6.235949"><ele>13.25</ele></trkpt>
   <trkpt lat="52.193871" lon="6.236059"><ele>13.5</ele></trkpt>
   <trkpt lat="52.193648" lon="6.236132"><ele>13.75</ele></trkpt>
   <trkpt lat="52.193359" lon="6.236211"><ele>13.75</ele></trkpt>
   <trkpt lat="52.193088" lon="6.236272"><ele>12.5</ele></trkpt>
   <trkpt lat="52.19283" lon="6.236317"><ele>11.25</ele></trkpt>
   <trkpt lat="52.192555" lon="6.236352"><ele>9.75</ele></trkpt>
   <trkpt lat="52.192094" lon="6.236378"><ele>9.75</ele></trkpt>
   <trkpt lat="52.191751" lon="6.236371"><ele>9.75</ele></trkpt>
   <trkpt lat="52.191443" lon="6.236349"><ele>10</ele></trkpt>
   <trkpt lat="52.190938" lon="6.236272"><ele>10.25</ele></trkpt>
   <trkpt lat="52.190702" lon="6.23622"><ele>9.75</ele></trkpt>
   <trkpt lat="52.190438" lon="6.236148"><ele>8.25</ele></trkpt>
   <trkpt lat="52.189998" lon="6.236"><ele>6</ele></trkpt>
   <trkpt lat="52.189692" lon="6.235874"><ele>6.25</ele></trkpt>
   <trkpt lat="52.189479" lon="6.235776"><ele>6.5</ele></trkpt>
   <trkpt lat="52.189071" lon="6.235559"><ele>7</ele></trkpt>
   <trkpt lat="52.188573" lon="6.235247"><ele>7</ele></trkpt>
   <trkpt lat="52.188072" lon="6.234901"><ele>7</ele></trkpt>
   <trkpt lat="52.18705" lon="6.234174"><ele>10.5</ele></trkpt>
   <trkpt lat="52.186345" lon="6.233673"><ele>12.25</ele></trkpt>
   <trkpt lat="52.186259" lon="6.233611"><ele>12.25</ele></trkpt>
   <trkpt lat="52.181655" lon="6.230337"><ele>10</ele></trkpt>
   <trkpt lat="52.179693" lon="6.228942"><ele>9</ele></trkpt>
   <trkpt lat="52.178671" lon="6.228215"><ele>8</ele></trkpt>
   <trkpt lat="52.175051" lon="6.225641"><ele>8</ele></trkpt>
   <trkpt lat="52.17489" lon="6.225531"><ele>8.25</ele></trkpt>
   <trkpt lat="52.17322" lon="6.22434"><ele>9.5</ele></trkpt>
   <trkpt lat="52.173149" lon="6.224286"><ele>9.5</ele></trkpt>
   <trkpt lat="52.170719" lon="6.222561"><ele>8.75</ele></trkpt>
   <trkpt lat="52.170466" lon="6.222381"><ele>8.5</ele></trkpt>
   <trkpt lat="52.16885" lon="6.221231"><ele>8.25</ele></trkpt>
   <trkpt lat="52.167856" lon="6.220525"><ele>9.5</ele></trkpt>
   <trkpt lat="52.167622" lon="6.220355"><ele>9.75</ele></trkpt>
   <trkpt lat="52.167166" lon="6.220008"><ele>8.5</ele></trkpt>
   <trkpt lat="52.166779" lon="6.219689"><ele>8.25</ele></trkpt>
   <trkpt lat="52.166279" lon="6.219246"><ele>8.75</ele></trkpt>
   <trkpt lat="52.165509" lon="6.218534"><ele>9.25</ele></trkpt>
   <trkpt lat="52.165476" lon="6.218503"><ele>9.25</ele></trkpt>
   <trkpt lat="52.165473" lon="6.2185"><ele>9.25</ele></trkpt>
   <trkpt lat="52.16478" lon="6.217872"><ele>9.25</ele></trkpt>
   <trkpt lat="52.164373" lon="6.217535"><ele>9</ele></trkpt>
   <trkpt lat="52.16414" lon="6.217355"><ele>8.75</ele></trkpt>
   <trkpt lat="52.163935" lon="6.217204"><ele>8.5</ele></trkpt>
   <trkpt lat="52.163515" lon="6.216912"><ele>8</ele></trkpt>
   <trkpt lat="52.162542" lon="6.216294"><ele>7.5</ele></trkpt>
   <trkpt lat="52.162164" lon="6.216037"><ele>7</ele></trkpt>
   <trkpt lat="52.161964" lon="6.215889"><ele>7</ele></trkpt>
   <trkpt lat="52.161578" lon="6.215578"><ele>7.5</ele></trkpt>
   <trkpt lat="52.161339" lon="6.215364"><ele>8.5</ele></trkpt>
   <trkpt lat="52.160959" lon="6.214995"><ele>10.25</ele></trkpt>
   <trkpt lat="52.160619" lon="6.214642"><ele>10.5</ele></trkpt>
   <trkpt lat="52.159604" lon="6.21356"><ele>8.5</ele></trkpt>
   <trkpt lat="52.159513" lon="6.213464"><ele>8.25</ele></trkpt>
   <trkpt lat="52.158785" lon="6.212685"><ele>7.5</ele></trkpt>
   <trkpt lat="52.158592" lon="6.212478"><ele>7.5</ele></trkpt>
   <trkpt lat="52.158492" lon="6.212372"><ele>7.75</ele></trkpt>
   <trkpt lat="52.157461" lon="6.211271"><ele>7</ele></trkpt>
   <trkpt lat="52.156847" lon="6.210594"><ele>8.5</ele></trkpt>
   <trkpt lat="52.156784" lon="6.210518"><ele>8.5</ele></trkpt>
   <trkpt lat="52.156662" lon="6.210377"><ele>9</ele></trkpt>
   <trkpt lat="52.156661" lon="6.210376"><ele>9</ele></trkpt>
   <trkpt lat="52.156441" lon="6.210113"><ele>10</ele></trkpt>
   <trkpt lat="52.1564" lon="6.210064"><ele>10.25</ele></trkpt>
   <trkpt lat="52.156071" lon="6.209655"><ele>10.75</ele></trkpt>
   <trkpt lat="52.155228" lon="6.208595"><ele>9.25</ele></trkpt>
   <trkpt lat="52.154733" lon="6.20797"><ele>9</ele></trkpt>
   <trkpt lat="52.154297" lon="6.207421"><ele>7.75</ele></trkpt>
   <trkpt lat="52.154288" lon="6.207412"><ele>7.75</ele></trkpt>
   <trkpt lat="52.154137" lon="6.207221"><ele>7.25</ele></trkpt>
   <trkpt lat="52.154084" lon="6.207154"><ele>7.5</ele></trkpt>
   <trkpt lat="52.153826" lon="6.206827"><ele>7.75</ele></trkpt>
   <trkpt lat="52.153161" lon="6.205989"><ele>8.5</ele></trkpt>
   <trkpt lat="52.152485" lon="6.205136"><ele>9.75</ele></trkpt>
   <trkpt lat="52.152375" lon="6.204998"><ele>9.75</ele></trkpt>
   <trkpt lat="52.152309" lon="6.204915"><ele>9.5</ele></trkpt>
   <trkpt lat="52.149166" lon="6.200956"><ele>9</ele></trkpt>
   <trkpt lat="52.149161" lon="6.20095"><ele>9</ele></trkpt>
   <trkpt lat="52.148988" lon="6.200731"><ele>9</ele></trkpt>
   <trkpt lat="52.14891" lon="6.200633"><ele>9</ele></trkpt>
   <trkpt lat="52.147728" lon="6.199143"><ele>10.25</ele></trkpt>
   <trkpt lat="52.147569" lon="6.198943"><ele>10.75</ele></trkpt>
   <trkpt lat="52.147476" lon="6.198826"><ele>11</ele></trkpt>
   <trkpt lat="52.147323" lon="6.198633"><ele>11.25</ele></trkpt>
   <trkpt lat="52.146985" lon="6.198173"><ele>11.75</ele></trkpt>
   <trkpt lat="52.146475" lon="6.197469"><ele>11</ele></trkpt>
   <trkpt lat="52.146125" lon="6.196978"><ele>11</ele></trkpt>
   <trkpt lat="52.146103" lon="6.196944"><ele>11</ele></trkpt>
   <trkpt lat="52.146095" lon="6.196931"><ele>11</ele></trkpt>
   <trkpt lat="52.145953" lon="6.196708"><ele>10.75</ele></trkpt>
   <trkpt lat="52.145837" lon="6.196507"><ele>10.75</ele></trkpt>
   <trkpt lat="52.145743" lon="6.196336"><ele>10.5</ele></trkpt>
   <trkpt lat="52.145587" lon="6.196022"><ele>10.25</ele></trkpt>
   <trkpt lat="52.145471" lon="6.195765"><ele>10.25</ele></trkpt>
   <trkpt lat="52.145366" lon="6.19551"><ele>10.5</ele></trkpt>
   <trkpt lat="52.14527" lon="6.195256"><ele>10.5</ele></trkpt>
   <trkpt lat="52.145204" lon="6.19507"><ele>10.75</ele></trkpt>
   <trkpt lat="52.145082" lon="6.194677"><ele>10.5</ele></trkpt>
   <trkpt lat="52.145063" lon="6.194615"><ele>10.25</ele></trkpt>
   <trkpt lat="52.145057" lon="6.194594"><ele>10.25</ele></trkpt>
   <trkpt lat="52.145018" lon="6.194465"><ele>10.25</ele></trkpt>
   <trkpt lat="52.145012" lon="6.194447"><ele>10.25</ele></trkpt>
   <trkpt lat="52.144904" lon="6.194087"><ele>10</ele></trkpt>
   <trkpt lat="52.144842" lon="6.19388"><ele>10</ele></trkpt>
   <trkpt lat="52.144765" lon="6.193623"><ele>10</ele></trkpt>
   <trkpt lat="52.144753" lon="6.193582"><ele>10</ele></trkpt>
   <trkpt lat="52.144751" lon="6.193579"><ele>10</ele></trkpt>
   <trkpt lat="52.144626" lon="6.193163"><ele>10</ele></trkpt>
   <trkpt lat="52.144539" lon="6.192839"><ele>10.25</ele></trkpt>
   <trkpt lat="52.14449" lon="6.192649"><ele>10.25</ele></trkpt>
   <trkpt lat="52.144308" lon="6.191934"><ele>10</ele></trkpt>
   <trkpt lat="52.144235" lon="6.191649"><ele>10</ele></trkpt>
   <trkpt lat="52.144158" lon="6.191357"><ele>10.25</ele></trkpt>
   <trkpt lat="52.144151" lon="6.19133"><ele>10.25</ele></trkpt>
   <trkpt lat="52.144138" lon="6.191279"><ele>10.25</ele></trkpt>
   <trkpt lat="52.144058" lon="6.190976"><ele>10.75</ele></trkpt>
   <trkpt lat="52.143949" lon="6.190554"><ele>11</ele></trkpt>
   <trkpt lat="52.143915" lon="6.190427"><ele>11</ele></trkpt>
   <trkpt lat="52.143762" lon="6.189822"><ele>10.25</ele></trkpt>
   <trkpt lat="52.143748" lon="6.189765"><ele>10.25</ele></trkpt>
   <trkpt lat="52.143736" lon="6.189712"><ele>10</ele></trkpt>
   <trkpt lat="52.14372" lon="6.189639"><ele>9.75</ele></trkpt>
   <trkpt lat="52.143709" lon="6.189588"><ele>9.75</ele></trkpt>
   <trkpt lat="52.143658" lon="6.189368"><ele>9</ele></trkpt>
   <trkpt lat="52.143336" lon="6.187976"><ele>6.5</ele></trkpt>
   <trkpt lat="52.143279" lon="6.187737"><ele>6.5</ele></trkpt>
   <trkpt lat="52.143102" lon="6.186973"><ele>6.75</ele></trkpt>
   <trkpt lat="52.142583" lon="6.18473"><ele>7.5</ele></trkpt>
   <trkpt lat="52.142533" lon="6.184513"><ele>7.75</ele></trkpt>
   <trkpt lat="52.14248" lon="6.184292"><ele>8</ele></trkpt>
   <trkpt lat="52.142428" lon="6.18406"><ele>8</ele></trkpt>
   <trkpt lat="52.142408" lon="6.183978"><ele>8</ele></trkpt>
   <trkpt lat="52.142344" lon="6.183698"><ele>8.25</ele></trkpt>
   <trkpt lat="52.141642" lon="6.180667"><ele>7.5</ele></trkpt>
   <trkpt lat="52.141604" lon="6.180499"><ele>7.25</ele></trkpt>
   <trkpt lat="52.141124" lon="6.178449"><ele>7.25</ele></trkpt>
   <trkpt lat="52.14108" lon="6.178274"><ele>7.25</ele></trkpt>
   <trkpt lat="52.14107" lon="6.178233"><ele>7</ele></trkpt>
   <trkpt lat="52.140933" lon="6.177719"><ele>7</ele></trkpt>
   <trkpt lat="52.140743" lon="6.177072"><ele>6.75</ele></trkpt>
   <trkpt lat="52.140492" lon="6.176311"><ele>6.25</ele></trkpt>
   <trkpt lat="52.14028" lon="6.175733"><ele>6</ele></trkpt>
   <trkpt lat="52.140032" lon="6.175116"><ele>6</ele></trkpt>
   <trkpt lat="52.139788" lon="6.174565"><ele>5.25</ele></trkpt>
   <trkpt lat="52.139476" lon="6.17393"><ele>5.5</ele></trkpt>
   <trkpt lat="52.139328" lon="6.173658"><ele>5.75</ele></trkpt>
   <trkpt lat="52.139056" lon="6.173185"><ele>5.75</ele></trkpt>
   <trkpt lat="52.138895" lon="6.172923"><ele>5.75</ele></trkpt>
   <trkpt lat="52.138615" lon="6.172499"><ele>5.5</ele></trkpt>
   <trkpt lat="52.138413" lon="6.172216"><ele>5.5</ele></trkpt>
   <trkpt lat="52.138284" lon="6.172043"><ele>5.5</ele></trkpt>
   <trkpt lat="52.13788" lon="6.171542"><ele>6</ele></trkpt>
   <trkpt lat="52.137838" lon="6.171494"><ele>6</ele></trkpt>
   <trkpt lat="52.137471" lon="6.171091"><ele>6.25</ele></trkpt>
   <trkpt lat="52.137145" lon="6.170766"><ele>5.5</ele></trkpt>
   <trkpt lat="52.136854" lon="6.170499"><ele>5</ele></trkpt>
   <trkpt lat="52.136532" lon="6.170231"><ele>5</ele></trkpt>
   <trkpt lat="52.136271" lon="6.170033"><ele>5.25</ele></trkpt>
   <trkpt lat="52.135959" lon="6.169817"><ele>5.75</ele></trkpt>
   <trkpt lat="52.135361" lon="6.169455"><ele>6</ele></trkpt>
   <trkpt lat="52.131244" lon="6.167192"><ele>6.5</ele></trkpt>
   <trkpt lat="52.13123" lon="6.167185"><ele>6.5</ele></trkpt>
   <trkpt lat="52.126084" lon="6.164358"><ele>6.5</ele></trkpt>
   <trkpt lat="52.125938" lon="6.164278"><ele>6.75</ele></trkpt>
   <trkpt lat="52.125512" lon="6.164045"><ele>7</ele></trkpt>
   <trkpt lat="52.123273" lon="6.162816"><ele>7.5</ele></trkpt>
   <trkpt lat="52.117528" lon="6.159666"><ele>6</ele></trkpt>
   <trkpt lat="52.115359" lon="6.158477"><ele>7</ele></trkpt>
   <trkpt lat="52.113961" lon="6.157713"><ele>7</ele></trkpt>
   <trkpt lat="52.112159" lon="6.156727"><ele>8</ele></trkpt>
   <trkpt lat="52.105408" lon="6.153035"><ele>7.75</ele></trkpt>
   <trkpt lat="52.104003" lon="6.152265"><ele>8.75</ele></trkpt>
   <trkpt lat="52.102959" lon="6.151702"><ele>8</ele></trkpt>
   <trkpt lat="52.102603" lon="6.151519"><ele>8</ele></trkpt>
   <trkpt lat="52.102321" lon="6.151386"><ele>8</ele></trkpt>
   <trkpt lat="52.101965" lon="6.151224"><ele>8</ele></trkpt>
   <trkpt lat="52.101449" lon="6.151009"><ele>8.5</ele></trkpt>
   <trkpt lat="52.100531" lon="6.150655"><ele>9</ele></trkpt>
   <trkpt lat="52.099389" lon="6.150228"><ele>8.5</ele></trkpt>
   <trkpt lat="52.096788" lon="6.149249"><ele>10.5</ele></trkpt>
   <trkpt lat="52.094091" lon="6.148233"><ele>10</ele></trkpt>
   <trkpt lat="52.092017" lon="6.147451"><ele>11</ele></trkpt>
   <trkpt lat="52.091835" lon="6.147383"><ele>11.25</ele></trkpt>
   <trkpt lat="52.090954" lon="6.147052"><ele>14.25</ele></trkpt>
   <trkpt lat="52.090904" lon="6.147033"><ele>14.5</ele></trkpt>
   <trkpt lat="52.090782" lon="6.146987"><ele>14.75</ele></trkpt>
   <trkpt lat="52.090757" lon="6.146977"><ele>14.75</ele></trkpt>
   <trkpt lat="52.08908" lon="6.146345"><ele>14.25</ele></trkpt>
   <trkpt lat="52.088904" lon="6.146278"><ele>14</ele></trkpt>
   <trkpt lat="52.088862" lon="6.146262"><ele>13.75</ele></trkpt>
   <trkpt lat="52.088817" lon="6.146246"><ele>13.75</ele></trkpt>
   <trkpt lat="52.088774" lon="6.146229"><ele>13.75</ele></trkpt>
   <trkpt lat="52.088331" lon="6.14606"><ele>12.5</ele></trkpt>
   <trkpt lat="52.082827" lon="6.143942"><ele>8</ele></trkpt>
   <trkpt lat="52.082335" lon="6.143745"><ele>7.25</ele></trkpt>
   <trkpt lat="52.081883" lon="6.143548"><ele>7</ele></trkpt>
   <trkpt lat="52.081364" lon="6.143296"><ele>7.25</ele></trkpt>
   <trkpt lat="52.080978" lon="6.143092"><ele>7.75</ele></trkpt>
   <trkpt lat="52.080666" lon="6.142915"><ele>8</ele></trkpt>
   <trkpt lat="52.080218" lon="6.142642"><ele>8.5</ele></trkpt>
   <trkpt lat="52.07969" lon="6.142294"><ele>9.25</ele></trkpt>
   <trkpt lat="52.079241" lon="6.141975"><ele>9.75</ele></trkpt>
   <trkpt lat="52.078586" lon="6.141468"><ele>12</ele></trkpt>
   <trkpt lat="52.07799" lon="6.140959"><ele>13.75</ele></trkpt>
   <trkpt lat="52.077492" lon="6.140491"><ele>11.75</ele></trkpt>
   <trkpt lat="52.07709" lon="6.140084"><ele>11.25</ele></trkpt>
   <trkpt lat="52.076633" lon="6.139594"><ele>10.75</ele></trkpt>
   <trkpt lat="52.074582" lon="6.137268"><ele>10.25</ele></trkpt>
   <trkpt lat="52.074495" lon="6.137169"><ele>10.25</ele></trkpt>
   <trkpt lat="52.071586" lon="6.133861"><ele>9</ele></trkpt>
   <trkpt lat="52.070001" lon="6.13206"><ele>9</ele></trkpt>
   <trkpt lat="52.064629" lon="6.125959"><ele>8.25</ele></trkpt>
   <trkpt lat="52.064413" lon="6.125714"><ele>8.25</ele></trkpt>
   <trkpt lat="52.062918" lon="6.12401"><ele>7.75</ele></trkpt>
   <trkpt lat="52.058168" lon="6.118566"><ele>11.75</ele></trkpt>
   <trkpt lat="52.058073" lon="6.118457"><ele>11.5</ele></trkpt>
   <trkpt lat="52.05665" lon="6.116826"><ele>11.75</ele></trkpt>
   <trkpt lat="52.055818" lon="6.115871"><ele>10.75</ele></trkpt>
   <trkpt lat="52.053323" lon="6.113007"><ele>16.5</ele></trkpt>
   <trkpt lat="52.052043" lon="6.111543"><ele>14.75</ele></trkpt>
   <trkpt lat="52.0517" lon="6.111146"><ele>14.75</ele></trkpt>
   <trkpt lat="52.05161" lon="6.111045"><ele>15</ele></trkpt>
   <trkpt lat="52.051488" lon="6.110905"><ele>15</ele></trkpt>
   <trkpt lat="52.051394" lon="6.110798"><ele>15</ele></trkpt>
   <trkpt lat="52.049614" lon="6.108754"><ele>16.5</ele></trkpt>
   <trkpt lat="52.049498" lon="6.108621"><ele>16.5</ele></trkpt>
   <trkpt lat="52.049165" lon="6.108241"><ele>17</ele></trkpt>
   <trkpt lat="52.04888" lon="6.107912"><ele>17.25</ele></trkpt>
   <trkpt lat="52.048445" lon="6.107417"><ele>17</ele></trkpt>
   <trkpt lat="52.047216" lon="6.106004"><ele>17.5</ele></trkpt>
   <trkpt lat="52.047171" lon="6.105951"><ele>17.5</ele></trkpt>
   <trkpt lat="52.046945" lon="6.10565"><ele>17.25</ele></trkpt>
   <trkpt lat="52.046688" lon="6.105259"><ele>17</ele></trkpt>
   <trkpt lat="52.046328" lon="6.104816"><ele>16.25</ele></trkpt>
   <trkpt lat="52.046297" lon="6.104777"><ele>16.25</ele></trkpt>
   <trkpt lat="52.046241" lon="6.104707"><ele>16.25</ele></trkpt>
   <trkpt lat="52.046218" lon="6.104679"><ele>16.25</ele></trkpt>
   <trkpt lat="52.04617" lon="6.10462"><ele>16.25</ele></trkpt>
   <trkpt lat="52.046046" lon="6.104468"><ele>16</ele></trkpt>
   <trkpt lat="52.045981" lon="6.104387"><ele>16</ele></trkpt>
   <trkpt lat="52.045225" lon="6.103454"><ele>16</ele></trkpt>
   <trkpt lat="52.044917" lon="6.103076"><ele>16</ele></trkpt>
   <trkpt lat="52.044708" lon="6.102822"><ele>16</ele></trkpt>
   <trkpt lat="52.044638" lon="6.10274"><ele>16.25</ele></trkpt>
   <trkpt lat="52.044569" lon="6.102659"><ele>16.25</ele></trkpt>
   <trkpt lat="52.044063" lon="6.102073"><ele>16.75</ele></trkpt>
   <trkpt lat="52.043771" lon="6.101723"><ele>16.5</ele></trkpt>
   <trkpt lat="52.043419" lon="6.101255"><ele>17</ele></trkpt>
   <trkpt lat="52.043407" lon="6.101238"><ele>17</ele></trkpt>
   <trkpt lat="52.043331" lon="6.101132"><ele>17.25</ele></trkpt>
   <trkpt lat="52.043274" lon="6.101051"><ele>17.25</ele></trkpt>
   <trkpt lat="52.043222" lon="6.100972"><ele>17.25</ele></trkpt>
   <trkpt lat="52.043027" lon="6.100669"><ele>17.25</ele></trkpt>
   <trkpt lat="52.042767" lon="6.100241"><ele>16.75</ele></trkpt>
   <trkpt lat="52.042761" lon="6.100232"><ele>16.75</ele></trkpt>
   <trkpt lat="52.042558" lon="6.099894"><ele>16</ele></trkpt>
   <trkpt lat="52.042235" lon="6.099355"><ele>16.25</ele></trkpt>
   <trkpt lat="52.041838" lon="6.098777"><ele>16.25</ele></trkpt>
   <trkpt lat="52.041814" lon="6.098739"><ele>16.25</ele></trkpt>
   <trkpt lat="52.041428" lon="6.098094"><ele>16</ele></trkpt>
   <trkpt lat="52.041365" lon="6.097991"><ele>16</ele></trkpt>
   <trkpt lat="52.039816" lon="6.095405"><ele>17.25</ele></trkpt>
   <trkpt lat="52.039167" lon="6.09432"><ele>16.75</ele></trkpt>
   <trkpt lat="52.037958" lon="6.092302"><ele>22.5</ele></trkpt>
   <trkpt lat="52.037808" lon="6.092053"><ele>22.25</ele></trkpt>
   <trkpt lat="52.036674" lon="6.09016"><ele>20.5</ele></trkpt>
   <trkpt lat="52.036367" lon="6.089648"><ele>20.5</ele></trkpt>
   <trkpt lat="52.03423" lon="6.086078"><ele>20.25</ele></trkpt>
   <trkpt lat="52.033588" lon="6.084982"><ele>19.25</ele></trkpt>
   <trkpt lat="52.03306" lon="6.084062"><ele>20.25</ele></trkpt>
   <trkpt lat="52.032396" lon="6.082883"><ele>19.75</ele></trkpt>
   <trkpt lat="52.03149" lon="6.081233"><ele>20</ele></trkpt>
   <trkpt lat="52.030194" lon="6.078795"><ele>26.5</ele></trkpt>
   <trkpt lat="52.030034" lon="6.078489"><ele>26.5</ele></trkpt>
   <trkpt lat="52.029877" lon="6.07819"><ele>26.5</ele></trkpt>
   <trkpt lat="52.026545" lon="6.071866"><ele>25.25</ele></trkpt>
   <trkpt lat="52.024229" lon="6.067475"><ele>26.5</ele></trkpt>
   <trkpt lat="52.023756" lon="6.066577"><ele>28.25</ele></trkpt>
   <trkpt lat="52.021849" lon="6.06296"><ele>22.25</ele></trkpt>
   <trkpt lat="52.021655" lon="6.062589"><ele>21.75</ele></trkpt>
   <trkpt lat="52.020845" lon="6.061054"><ele>21.75</ele></trkpt>
   <trkpt lat="52.019779" lon="6.059029"><ele>20.25</ele></trkpt>
   <trkpt lat="52.019681" lon="6.058845"><ele>20</ele></trkpt>
   <trkpt lat="52.017897" lon="6.055471"><ele>18</ele></trkpt>
   <trkpt lat="52.017341" lon="6.054426"><ele>20</ele></trkpt>
   <trkpt lat="52.017097" lon="6.053942"><ele>21.25</ele></trkpt>
   <trkpt lat="52.016934" lon="6.053608"><ele>21.5</ele></trkpt>
   <trkpt lat="52.016516" lon="6.052731"><ele>20.25</ele></trkpt>
   <trkpt lat="52.016265" lon="6.052167"><ele>19</ele></trkpt>
   <trkpt lat="52.015965" lon="6.051445"><ele>18.25</ele></trkpt>
   <trkpt lat="52.015704" lon="6.050774"><ele>18</ele></trkpt>
   <trkpt lat="52.015464" lon="6.050117"><ele>17</ele></trkpt>
   <trkpt lat="52.015218" lon="6.0494"><ele>17.5</ele></trkpt>
   <trkpt lat="52.014951" lon="6.048554"><ele>18.5</ele></trkpt>
   <trkpt lat="52.014677" lon="6.047638"><ele>18.25</ele></trkpt>
   <trkpt lat="52.014661" lon="6.047585"><ele>18.25</ele></trkpt>
   <trkpt lat="52.013366" lon="6.043249"><ele>18.25</ele></trkpt>
   <trkpt lat="52.013284" lon="6.042972"><ele>18.25</ele></trkpt>
   <trkpt lat="52.013205" lon="6.042699"><ele>18.25</ele></trkpt>
   <trkpt lat="52.012857" lon="6.041459"><ele>18</ele></trkpt>
   <trkpt lat="52.012178" lon="6.038961"><ele>21.25</ele></trkpt>
   <trkpt lat="52.011581" lon="6.036734"><ele>21.5</ele></trkpt>
   <trkpt lat="52.011511" lon="6.036472"><ele>21</ele></trkpt>
   <trkpt lat="52.010805" lon="6.033822"><ele>20.25</ele></trkpt>
   <trkpt lat="52.010803" lon="6.033815"><ele>20.25</ele></trkpt>
   <trkpt lat="52.010581" lon="6.032984"><ele>20.75</ele></trkpt>
   <trkpt lat="52.010417" lon="6.032369"><ele>21</ele></trkpt>
   <trkpt lat="52.010126" lon="6.031279"><ele>22</ele></trkpt>
   <trkpt lat="52.010069" lon="6.031063"><ele>22.5</ele></trkpt>
   <trkpt lat="52.010006" lon="6.030845"><ele>22.75</ele></trkpt>
   <trkpt lat="52.009887" lon="6.030386"><ele>23.25</ele></trkpt>
   <trkpt lat="52.00866" lon="6.025789"><ele>21.25</ele></trkpt>
   <trkpt lat="52.008503" lon="6.025205"><ele>21</ele></trkpt>
   <trkpt lat="52.007427" lon="6.021172"><ele>19.25</ele></trkpt>
   <trkpt lat="52.006475" lon="6.017609"><ele>18.25</ele></trkpt>
   <trkpt lat="52.006414" lon="6.017379"><ele>18</ele></trkpt>
   <trkpt lat="52.006253" lon="6.016779"><ele>17.5</ele></trkpt>
   <trkpt lat="52.004232" lon="6.009227"><ele>16.5</ele></trkpt>
   <trkpt lat="52.003968" lon="6.008237"><ele>11.75</ele></trkpt>
   <trkpt lat="52.003822" lon="6.007657"><ele>12.25</ele></trkpt>
   <trkpt lat="52.003596" lon="6.006695"><ele>12.75</ele></trkpt>
   <trkpt lat="52.002917" lon="6.003685"><ele>14</ele></trkpt>
   <trkpt lat="52.002445" lon="6.001594"><ele>12.5</ele></trkpt>
   <trkpt lat="52.002151" lon="6.000287"><ele>11</ele></trkpt>
   <trkpt lat="52.001946" lon="5.999372"><ele>11.25</ele></trkpt>
   <trkpt lat="52.001498" lon="5.997399"><ele>12.75</ele></trkpt>
   <trkpt lat="52.001227" lon="5.996295"><ele>13</ele></trkpt>
   <trkpt lat="52.001078" lon="5.995739"><ele>12.25</ele></trkpt>
   <trkpt lat="52.0009" lon="5.99512"><ele>12</ele></trkpt>
   <trkpt lat="52.000743" lon="5.994611"><ele>13.75</ele></trkpt>
   <trkpt lat="52.000533" lon="5.993982"><ele>16.5</ele></trkpt>
   <trkpt lat="52.00032" lon="5.99339"><ele>18</ele></trkpt>
   <trkpt lat="52.000046" lon="5.992679"><ele>16.5</ele></trkpt>
   <trkpt lat="51.999648" lon="5.991663"><ele>14.75</ele></trkpt>
   <trkpt lat="51.999419" lon="5.991103"><ele>15</ele></trkpt>
   <trkpt lat="51.99925" lon="5.990701"><ele>15</ele></trkpt>
   <trkpt lat="51.998948" lon="5.99002"><ele>16</ele></trkpt>
   <trkpt lat="51.998387" lon="5.988738"><ele>17.5</ele></trkpt>
   <trkpt lat="51.997355" lon="5.986391"><ele>15</ele></trkpt>
   <trkpt lat="51.99625" lon="5.983878"><ele>16.75</ele></trkpt>
   <trkpt lat="51.996192" lon="5.983758"><ele>16.5</ele></trkpt>
   <trkpt lat="51.996062" lon="5.983452"><ele>16.25</ele></trkpt>
   <trkpt lat="51.995273" lon="5.981662"><ele>16.5</ele></trkpt>
   <trkpt lat="51.995239" lon="5.981584"><ele>16.5</ele></trkpt>
   <trkpt lat="51.994991" lon="5.981022"><ele>16.75</ele></trkpt>
   <trkpt lat="51.994917" lon="5.980852"><ele>17</ele></trkpt>
   <trkpt lat="51.994898" lon="5.980809"><ele>17</ele></trkpt>
   <trkpt lat="51.994894" lon="5.980801"><ele>17</ele></trkpt>
   <trkpt lat="51.994641" lon="5.980222"><ele>17.25</ele></trkpt>
   <trkpt lat="51.994489" lon="5.979849"><ele>17.5</ele></trkpt>
   <trkpt lat="51.994293" lon="5.979318"><ele>17.75</ele></trkpt>
   <trkpt lat="51.994167" lon="5.978931"><ele>17.75</ele></trkpt>
   <trkpt lat="51.99412" lon="5.97877"><ele>17.75</ele></trkpt>
   <trkpt lat="51.994067" lon="5.978587"><ele>17.5</ele></trkpt>
   <trkpt lat="51.993933" lon="5.978076"><ele>16.75</ele></trkpt>
   <trkpt lat="51.993825" lon="5.977601"><ele>15.75</ele></trkpt>
   <trkpt lat="51.993723" lon="5.977069"><ele>15</ele></trkpt>
   <trkpt lat="51.993634" lon="5.976487"><ele>14.75</ele></trkpt>
   <trkpt lat="51.993621" lon="5.976387"><ele>14.75</ele></trkpt>
   <trkpt lat="51.993555" lon="5.975798"><ele>14.75</ele></trkpt>
   <trkpt lat="51.993528" lon="5.97546"><ele>14.75</ele></trkpt>
   <trkpt lat="51.993492" lon="5.974715"><ele>15.25</ele></trkpt>
   <trkpt lat="51.993487" lon="5.974345"><ele>16</ele></trkpt>
   <trkpt lat="51.993487" lon="5.974268"><ele>16</ele></trkpt>
   <trkpt lat="51.993487" lon="5.974199"><ele>16.25</ele></trkpt>
   <trkpt lat="51.993497" lon="5.973713"><ele>16.75</ele></trkpt>
   <trkpt lat="51.993528" lon="5.973074"><ele>17.25</ele></trkpt>
   <trkpt lat="51.993772" lon="5.969018"><ele>16.75</ele></trkpt>
   <trkpt lat="51.993905" lon="5.966807"><ele>16.5</ele></trkpt>
   <trkpt lat="51.993921" lon="5.966542"><ele>16.5</ele></trkpt>
   <trkpt lat="51.994042" lon="5.964523"><ele>15.25</ele></trkpt>
   <trkpt lat="51.99408" lon="5.963887"><ele>14.5</ele></trkpt>
   <trkpt lat="51.994098" lon="5.963586"><ele>14.25</ele></trkpt>
   <trkpt lat="51.994203" lon="5.961831"><ele>14</ele></trkpt>
   <trkpt lat="51.994249" lon="5.960828"><ele>15.25</ele></trkpt>
   <trkpt lat="51.994254" lon="5.960183"><ele>16</ele></trkpt>
   <trkpt lat="51.994233" lon="5.959494"><ele>16.75</ele></trkpt>
   <trkpt lat="51.994204" lon="5.959013"><ele>17</ele></trkpt>
   <trkpt lat="51.994156" lon="5.958485"><ele>16.75</ele></trkpt>
   <trkpt lat="51.994096" lon="5.957977"><ele>17.5</ele></trkpt>
   <trkpt lat="51.994002" lon="5.957356"><ele>18.25</ele></trkpt>
   <trkpt lat="51.993906" lon="5.956835"><ele>18.25</ele></trkpt>
   <trkpt lat="51.993851" lon="5.956568"><ele>18.25</ele></trkpt>
   <trkpt lat="51.993737" lon="5.956073"><ele>18.25</ele></trkpt>
   <trkpt lat="51.993596" lon="5.955529"><ele>18.5</ele></trkpt>
   <trkpt lat="51.99346" lon="5.95507"><ele>18.25</ele></trkpt>
   <trkpt lat="51.993334" lon="5.954679"><ele>18.25</ele></trkpt>
   <trkpt lat="51.993128" lon="5.954121"><ele>18.75</ele></trkpt>
   <trkpt lat="51.992952" lon="5.953691"><ele>18.75</ele></trkpt>
   <trkpt lat="51.992782" lon="5.95331"><ele>18.5</ele></trkpt>
   <trkpt lat="51.99252" lon="5.95277"><ele>18</ele></trkpt>
   <trkpt lat="51.991432" lon="5.950628"><ele>15.75</ele></trkpt>
   <trkpt lat="51.990962" lon="5.949701"><ele>16.75</ele></trkpt>
   <trkpt lat="51.99091" lon="5.949604"><ele>17</ele></trkpt>
   <trkpt lat="51.99087" lon="5.949517"><ele>17</ele></trkpt>
   <trkpt lat="51.990809" lon="5.949397"><ele>17.25</ele></trkpt>
   <trkpt lat="51.989154" lon="5.94614"><ele>16.75</ele></trkpt>
   <trkpt lat="51.988677" lon="5.945198"><ele>14.5</ele></trkpt>
   <trkpt lat="51.988423" lon="5.944697"><ele>13.5</ele></trkpt>
   <trkpt lat="51.988127" lon="5.944112"><ele>14</ele></trkpt>
   <trkpt lat="51.987872" lon="5.943588"><ele>14</ele></trkpt>
   <trkpt lat="51.987745" lon="5.94331"><ele>14</ele></trkpt>
   <trkpt lat="51.987586" lon="5.942943"><ele>14</ele></trkpt>
   <trkpt lat="51.987388" lon="5.942456"><ele>14</ele></trkpt>
   <trkpt lat="51.987204" lon="5.941975"><ele>14.25</ele></trkpt>
   <trkpt lat="51.987062" lon="5.941596"><ele>14.5</ele></trkpt>
   <trkpt lat="51.987029" lon="5.941506"><ele>14.5</ele></trkpt>
   <trkpt lat="51.986911" lon="5.941184"><ele>14.25</ele></trkpt>
   <trkpt lat="51.986903" lon="5.941162"><ele>14.25</ele></trkpt>
   <trkpt lat="51.986329" lon="5.939616"><ele>13.5</ele></trkpt>
   <trkpt lat="51.986123" lon="5.939089"><ele>13.25</ele></trkpt>
   <trkpt lat="51.985879" lon="5.938487"><ele>13</ele></trkpt>
   <trkpt lat="51.985845" lon="5.938403"><ele>13</ele></trkpt>
   <trkpt lat="51.985519" lon="5.937626"><ele>13.75</ele></trkpt>
   <trkpt lat="51.984308" lon="5.934739"><ele>17</ele></trkpt>
   <trkpt lat="51.984094" lon="5.934174"><ele>15.75</ele></trkpt>
   <trkpt lat="51.983966" lon="5.933789"><ele>14.5</ele></trkpt>
   <trkpt lat="51.983849" lon="5.933392"><ele>13.5</ele></trkpt>
   <trkpt lat="51.983751" lon="5.933019"><ele>14.5</ele></trkpt>
   <trkpt lat="51.98367" lon="5.932673"><ele>15.75</ele></trkpt>
   <trkpt lat="51.983599" lon="5.932323"><ele>16.75</ele></trkpt>
   <trkpt lat="51.983519" lon="5.931871"><ele>18.25</ele></trkpt>
   <trkpt lat="51.983431" lon="5.931225"><ele>17.75</ele></trkpt>
   <trkpt lat="51.983391" lon="5.930847"><ele>16.75</ele></trkpt>
   <trkpt lat="51.983358" lon="5.930462"><ele>16.25</ele></trkpt>
   <trkpt lat="51.983357" lon="5.930451"><ele>16.25</ele></trkpt>
   <trkpt lat="51.983355" lon="5.930427"><ele>16.25</ele></trkpt>
   <trkpt lat="51.983339" lon="5.930192"><ele>16</ele></trkpt>
   <trkpt lat="51.983335" lon="5.930095"><ele>16</ele></trkpt>
   <trkpt lat="51.983332" lon="5.930022"><ele>16</ele></trkpt>
   <trkpt lat="51.983311" lon="5.929581"><ele>15.25</ele></trkpt>
   <trkpt lat="51.983297" lon="5.929076"><ele>14.75</ele></trkpt>
   <trkpt lat="51.983296" lon="5.928726"><ele>14.5</ele></trkpt>
   <trkpt lat="51.983311" lon="5.928254"><ele>14.75</ele></trkpt>
   <trkpt lat="51.983364" lon="5.92759"><ele>15.75</ele></trkpt>
   <trkpt lat="51.983404" lon="5.927265"><ele>16</ele></trkpt>
   <trkpt lat="51.98349" lon="5.926715"><ele>16.75</ele></trkpt>
   <trkpt lat="51.983515" lon="5.926569"><ele>16.5</ele></trkpt>
   <trkpt lat="51.983585" lon="5.926181"><ele>16</ele></trkpt>
   <trkpt lat="51.983725" lon="5.925532"><ele>15.75</ele></trkpt>
   <trkpt lat="51.983798" lon="5.925221"><ele>16</ele></trkpt>
   <trkpt lat="51.984102" lon="5.923995"><ele>17.75</ele></trkpt>
   <trkpt lat="51.984186" lon="5.923651"><ele>18</ele></trkpt>
   <trkpt lat="51.984493" lon="5.922398"><ele>18.5</ele></trkpt>
   <trkpt lat="51.984723" lon="5.921452"><ele>17.75</ele></trkpt>
   <trkpt lat="51.984831" lon="5.921004"><ele>17.25</ele></trkpt>
   <trkpt lat="51.984906" lon="5.920707"><ele>17</ele></trkpt>
   <trkpt lat="51.985092" lon="5.919946"><ele>17.25</ele></trkpt>
   <trkpt lat="51.985268" lon="5.919194"><ele>18.75</ele></trkpt>
   <trkpt lat="51.985388" lon="5.918618"><ele>20</ele></trkpt>
   <trkpt lat="51.985467" lon="5.918187"><ele>20.75</ele></trkpt>
   <trkpt lat="51.985539" lon="5.917739"><ele>21.75</ele></trkpt>
   <trkpt lat="51.985602" lon="5.917297"><ele>22.5</ele></trkpt>
   <trkpt lat="51.985671" lon="5.916724"><ele>23.5</ele></trkpt>
   <trkpt lat="51.985705" lon="5.916378"><ele>23.75</ele></trkpt>
   <trkpt lat="51.985734" lon="5.916042"><ele>24.25</ele></trkpt>
   <trkpt lat="51.985773" lon="5.915461"><ele>24.75</ele></trkpt>
   <trkpt lat="51.985794" lon="5.914915"><ele>24.75</ele></trkpt>
   <trkpt lat="51.985803" lon="5.914428"><ele>24.75</ele></trkpt>
   <trkpt lat="51.985804" lon="5.9143"><ele>24.75</ele></trkpt>
   <trkpt lat="51.985802" lon="5.914092"><ele>24.75</ele></trkpt>
   <trkpt lat="51.985781" lon="5.913318"><ele>24.75</ele></trkpt>
   <trkpt lat="51.985733" lon="5.912523"><ele>25.75</ele></trkpt>
   <trkpt lat="51.985694" lon="5.912064"><ele>25.75</ele></trkpt>
   <trkpt lat="51.985657" lon="5.911711"><ele>25.75</ele></trkpt>
   <trkpt lat="51.985558" lon="5.910884"><ele>26.25</ele></trkpt>
   <trkpt lat="51.98552" lon="5.910581"><ele>26</ele></trkpt>
   <trkpt lat="51.98547" lon="5.910207"><ele>25.75</ele></trkpt>
   <trkpt lat="51.985469" lon="5.910202"><ele>25.75</ele></trkpt>
   <trkpt lat="51.985422" lon="5.909846"><ele>25</ele></trkpt>
   <trkpt lat="51.985404" lon="5.909709"><ele>24.75</ele></trkpt>
   <trkpt lat="51.985404" lon="5.909703"><ele>24.75</ele></trkpt>
   <trkpt lat="51.985346" lon="5.90926"><ele>23.75</ele></trkpt>
   <trkpt lat="51.985112" lon="5.907481"><ele>22</ele></trkpt>
   <trkpt lat="51.985096" lon="5.907361"><ele>22</ele></trkpt>
   <trkpt lat="51.985015" lon="5.906741"><ele>22.75</ele></trkpt>
   <trkpt lat="51.984881" lon="5.90572"><ele>23.75</ele></trkpt>
   <trkpt lat="51.984842" lon="5.90542"><ele>24</ele></trkpt>
   <trkpt lat="51.984795" lon="5.904985"><ele>24.5</ele></trkpt>
   <trkpt lat="51.984775" lon="5.904728"><ele>25</ele></trkpt>
   <trkpt lat="51.984738" lon="5.90426"><ele>25</ele></trkpt>
   <trkpt lat="51.984715" lon="5.90396"><ele>25.5</ele></trkpt>
   <trkpt lat="51.984688" lon="5.903416"><ele>26.5</ele></trkpt>
   <trkpt lat="51.984676" lon="5.902982"><ele>26.5</ele></trkpt>
   <trkpt lat="51.984671" lon="5.902781"><ele>26.5</ele></trkpt>
   <trkpt lat="51.984671" lon="5.902772"><ele>26.5</ele></trkpt>
   <trkpt lat="51.984668" lon="5.90268"><ele>26.5</ele></trkpt>
   <trkpt lat="51.984666" lon="5.902534"><ele>26.5</ele></trkpt>
   <trkpt lat="51.984665" lon="5.902094"><ele>26.5</ele></trkpt>
   <trkpt lat="51.984672" lon="5.901873"><ele>26.75</ele></trkpt>
   <trkpt lat="51.984681" lon="5.901704"><ele>26.75</ele></trkpt>
   <trkpt lat="51.984697" lon="5.901483"><ele>26.75</ele></trkpt>
   <trkpt lat="51.984698" lon="5.901468"><ele>26.75</ele></trkpt>
   <trkpt lat="51.984713" lon="5.901314"><ele>26.75</ele></trkpt>
   <trkpt lat="51.984728" lon="5.901184"><ele>26.75</ele></trkpt>
   <trkpt lat="51.984761" lon="5.900928"><ele>27</ele></trkpt>
   <trkpt lat="51.984817" lon="5.900546"><ele>27.25</ele></trkpt>
   <trkpt lat="51.984824" lon="5.900505"><ele>27.25</ele></trkpt>
   <trkpt lat="51.984838" lon="5.900415"><ele>27.25</ele></trkpt>
   <trkpt lat="51.984847" lon="5.900354"><ele>27.25</ele></trkpt>
   <trkpt lat="51.984916" lon="5.8999"><ele>28.25</ele></trkpt>
   <trkpt lat="51.985045" lon="5.899038"><ele>31.5</ele></trkpt>
   <trkpt lat="51.985075" lon="5.898841"><ele>31.75</ele></trkpt>
   <trkpt lat="51.98508" lon="5.89881"><ele>32</ele></trkpt>
   <trkpt lat="51.985109" lon="5.898617"><ele>32.25</ele></trkpt>
   <trkpt lat="51.985135" lon="5.898443"><ele>32.75</ele></trkpt>
   <trkpt lat="51.985163" lon="5.898257"><ele>33.25</ele></trkpt>
   <trkpt lat="51.98522" lon="5.897878"><ele>34</ele></trkpt>
   <trkpt lat="51.98529" lon="5.897416"><ele>35</ele></trkpt>
   <trkpt lat="51.985336" lon="5.897112"><ele>35.25</ele></trkpt>
   <trkpt lat="51.985398" lon="5.896719"><ele>35.75</ele></trkpt>
   <trkpt lat="51.985475" lon="5.896287"><ele>35.25</ele></trkpt>
  </trkseg>
 </trk>
</gpx>