<?xml version="1.0" encoding="UTF-8"?>
<!-- track-length = 61136 filtered ascend = 82 plain-ascend = -27 cost=61136 energy=0.7kwh time=1h 21m 29s -->
<gpx 
 xmlns="http://www.topografix.com/GPX/1/1" 
 xmlns:xsi="http://www.w3.org/2001/XMLSchema-instance" 
 xsi:schemaLocation="http://www.topografix.com/GPX/1/1 http://www.topografix.com/GPX/1/1/gpx.xsd" 
 version="1.1" 
 creator="BRouter-Web 0.18.1">
 <trk>
  <name>Züssow - Swinoujscie</name>
  <trkseg>
   <trkpt lat="53.976988" lon="13.543536"><ele>35.25</ele></trkpt>
   <trkpt lat="53.976748" lon="13.543899"><ele>35</ele></trkpt>
   <trkpt lat="53.975266" lon="13.546107"><ele>32</ele></trkpt>
   <trkpt lat="53.975209" lon="13.546189"><ele>32</ele></trkpt>
   <trkpt lat="53.974986" lon="13.54652"><ele>32</ele></trkpt>
   <trkpt lat="53.973626" lon="13.548529"><ele>32</ele></trkpt>
   <trkpt lat="53.973603" lon="13.548562"><ele>32</ele></trkpt>
   <trkpt lat="53.973545" lon="13.548645"><ele>32</ele></trkpt>
   <trkpt lat="53.973409" lon="13.548846"><ele>32</ele></trkpt>
   <trkpt lat="53.972905" lon="13.549593"><ele>32</ele></trkpt>
   <trkpt lat="53.970904" lon="13.552574"><ele>32.5</ele></trkpt>
   <trkpt lat="53.970289" lon="13.553457"><ele>31</ele></trkpt>
   <trkpt lat="53.969055" lon="13.555295"><ele>30</ele></trkpt>
   <trkpt lat="53.968983" lon="13.555402"><ele>30</ele></trkpt>
   <trkpt lat="53.968966" lon="13.555429"><ele>30</ele></trkpt>
   <trkpt lat="53.968509" lon="13.556221"><ele>30</ele></trkpt>
   <trkpt lat="53.96815" lon="13.557045"><ele>30</ele></trkpt>
   <trkpt lat="53.967528" lon="13.558563"><ele>30</ele></trkpt>
   <trkpt lat="53.967262" lon="13.559372"><ele>30</ele></trkpt>
   <trkpt lat="53.967205" lon="13.559546"><ele>30</ele></trkpt>
   <trkpt lat="53.966996" lon="13.560262"><ele>30</ele></trkpt>
   <trkpt lat="53.966818" lon="13.560915"><ele>30</ele></trkpt>
   <trkpt lat="53.966784" lon="13.561064"><ele>30</ele></trkpt>
   <trkpt lat="53.966581" lon="13.561957"><ele>30</ele></trkpt>
   <trkpt lat="53.96641" lon="13.562868"><ele>30</ele></trkpt>
   <trkpt lat="53.966268" lon="13.563825"><ele>30</ele></trkpt>
   <trkpt lat="53.966173" lon="13.56468"><ele>30</ele></trkpt>
   <trkpt lat="53.966122" lon="13.565177"><ele>29.75</ele></trkpt>
   <trkpt lat="53.966061" lon="13.566046"><ele>30</ele></trkpt>
   <trkpt lat="53.966035" lon="13.566716"><ele>30</ele></trkpt>
   <trkpt lat="53.966023" lon="13.567221"><ele>31</ele></trkpt>
   <trkpt lat="53.966019" lon="13.567747"><ele>31.75</ele></trkpt>
   <trkpt lat="53.966038" lon="13.568662"><ele>32</ele></trkpt>
   <trkpt lat="53.966056" lon="13.569076"><ele>32</ele></trkpt>
   <trkpt lat="53.96608" lon="13.569626"><ele>32</ele></trkpt>
   <trkpt lat="53.966145" lon="13.570346"><ele>31.5</ele></trkpt>
   <trkpt lat="53.966213" lon="13.57099"><ele>30.75</ele></trkpt>
   <trkpt lat="53.96628" lon="13.571506"><ele>30</ele></trkpt>
   <trkpt lat="53.966378" lon="13.57217"><ele>29.75</ele></trkpt>
   <trkpt lat="53.966486" lon="13.572787"><ele>29.25</ele></trkpt>
   <trkpt lat="53.966585" lon="13.573302"><ele>29.5</ele></trkpt>
   <trkpt lat="53.966696" lon="13.573817"><ele>29.75</ele></trkpt>
   <trkpt lat="53.96696" lon="13.574859"><ele>30</ele></trkpt>
   <trkpt lat="53.967173" lon="13.575593"><ele>29.75</ele></trkpt>
   <trkpt lat="53.967367" lon="13.576197"><ele>30</ele></trkpt>
   <trkpt lat="53.967461" lon="13.576458"><ele>30</ele></trkpt>
   <trkpt lat="53.967651" lon="13.576982"><ele>30</ele></trkpt>
   <trkpt lat="53.967847" lon="13.577477"><ele>30</ele></trkpt>
   <trkpt lat="53.968607" lon="13.579262"><ele>31</ele></trkpt>
   <trkpt lat="53.969364" lon="13.581042"><ele>32</ele></trkpt>
   <trkpt lat="53.971125" lon="13.585131"><ele>32</ele></trkpt>
   <trkpt lat="53.972352" lon="13.588025"><ele>30</ele></trkpt>
   <trkpt lat="53.973109" lon="13.589762"><ele>30</ele></trkpt>
   <trkpt lat="53.974787" lon="13.5937"><ele>32.75</ele></trkpt>
   <trkpt lat="53.975346" lon="13.595011"><ele>33</ele></trkpt>
   <trkpt lat="53.976776" lon="13.598327"><ele>36.5</ele></trkpt>
   <trkpt lat="53.977415" lon="13.599777"><ele>37</ele></trkpt>
   <trkpt lat="53.977638" lon="13.600256"><ele>36</ele></trkpt>
   <trkpt lat="53.977837" lon="13.600661"><ele>35</ele></trkpt>
   <trkpt lat="53.981862" lon="13.608849"><ele>39.75</ele></trkpt>
   <trkpt lat="53.981884" lon="13.608892"><ele>40</ele></trkpt>
   <trkpt lat="53.981967" lon="13.609064"><ele>40</ele></trkpt>
   <trkpt lat="53.982022" lon="13.609177"><ele>40</ele></trkpt>
   <trkpt lat="53.982369" lon="13.609884"><ele>40</ele></trkpt>
   <trkpt lat="53.985923" lon="13.617106"><ele>44.5</ele></trkpt>
   <trkpt lat="53.987718" lon="13.620732"><ele>47</ele></trkpt>
   <trkpt lat="53.988212" lon="13.621809"><ele>47</ele></trkpt>
   <trkpt lat="53.988613" lon="13.622792"><ele>47</ele></trkpt>
   <trkpt lat="53.989135" lon="13.624228"><ele>48</ele></trkpt>
   <trkpt lat="53.989389" lon="13.625066"><ele>47.75</ele></trkpt>
   <trkpt lat="53.989638" lon="13.625931"><ele>47.25</ele></trkpt>
   <trkpt lat="53.98986" lon="13.626827"><ele>47</ele></trkpt>
   <trkpt lat="53.990084" lon="13.62781"><ele>47</ele></trkpt>
   <trkpt lat="53.990228" lon="13.628571"><ele>47</ele></trkpt>
   <trkpt lat="53.990687" lon="13.63121"><ele>45.75</ele></trkpt>
   <trkpt lat="53.99196" lon="13.638926"><ele>43</ele></trkpt>
   <trkpt lat="53.993386" lon="13.647297"><ele>42</ele></trkpt>
   <trkpt lat="53.994687" lon="13.655062"><ele>40</ele></trkpt>
   <trkpt lat="53.995964" lon="13.662623"><ele>28</ele></trkpt>
   <trkpt lat="53.997313" lon="13.670588"><ele>29</ele></trkpt>
   <trkpt lat="53.997587" lon="13.671928"><ele>29</ele></trkpt>
   <trkpt lat="53.997815" lon="13.672818"><ele>28.75</ele></trkpt>
   <trkpt lat="53.997871" lon="13.67304"><ele>29</ele></trkpt>
   <trkpt lat="53.998577" lon="13.675338"><ele>29.75</ele></trkpt>
   <trkpt lat="53.998825" lon="13.675989"><ele>30</ele></trkpt>
   <trkpt lat="53.99909" lon="13.676631"><ele>31</ele></trkpt>
   <trkpt lat="53.999516" lon="13.677632"><ele>32</ele></trkpt>
   <trkpt lat="54.000067" lon="13.67892"><ele>31</ele></trkpt>
   <trkpt lat="54.001388" lon="13.682"><ele>32</ele></trkpt>
   <trkpt lat="54.00156" lon="13.682402"><ele>32</ele></trkpt>
   <trkpt lat="54.001801" lon="13.682959"><ele>32</ele></trkpt>
   <trkpt lat="54.002179" lon="13.683835"><ele>32</ele></trkpt>
   <trkpt lat="54.002232" lon="13.68396"><ele>32</ele></trkpt>
   <trkpt lat="54.002257" lon="13.684023"><ele>32</ele></trkpt>
   <trkpt lat="54.003201" lon="13.686194"><ele>32.5</ele></trkpt>
   <trkpt lat="54.004261" lon="13.688677"><ele>32</ele></trkpt>
   <trkpt lat="54.005704" lon="13.692079"><ele>30</ele></trkpt>
   <trkpt lat="54.006203" lon="13.693275"><ele>28</ele></trkpt>
   <trkpt lat="54.008922" lon="13.699592"><ele>25</ele></trkpt>
   <trkpt lat="54.010577" lon="13.703514"><ele>22</ele></trkpt>
   <trkpt lat="54.011308" lon="13.705231"><ele>20.75</ele></trkpt>
   <trkpt lat="54.014402" lon="13.712442"><ele>17</ele></trkpt>
   <trkpt lat="54.015841" lon="13.715826"><ele>15</ele></trkpt>
   <trkpt lat="54.016516" lon="13.717259"><ele>15</ele></trkpt>
   <trkpt lat="54.0169" lon="13.717978"><ele>15</ele></trkpt>
   <trkpt lat="54.017099" lon="13.718318"><ele>15</ele></trkpt>
   <trkpt lat="54.017667" lon="13.719224"><ele>14</ele></trkpt>
   <trkpt lat="54.018068" lon="13.719809"><ele>14</ele></trkpt>
   <trkpt lat="54.018512" lon="13.720411"><ele>13</ele></trkpt>
   <trkpt lat="54.020013" lon="13.722123"><ele>12</ele></trkpt>
   <trkpt lat="54.020925" lon="13.723184"><ele>11.75</ele></trkpt>
   <trkpt lat="54.022194" lon="13.724621"><ele>7.25</ele></trkpt>
   <trkpt lat="54.023571" lon="13.726167"><ele>5</ele></trkpt>
   <trkpt lat="54.024434" lon="13.727158"><ele>4.75</ele></trkpt>
   <trkpt lat="54.025308" lon="13.728114"><ele>5</ele></trkpt>
   <trkpt lat="54.027256" lon="13.73034"><ele>6.75</ele></trkpt>
   <trkpt lat="54.027461" lon="13.730571"><ele>5.75</ele></trkpt>
   <trkpt lat="54.027632" lon="13.730758"><ele>5.25</ele></trkpt>
   <trkpt lat="54.028184" lon="13.731384"><ele>3.5</ele></trkpt>
   <trkpt lat="54.02847" lon="13.731693"><ele>2.75</ele></trkpt>
   <trkpt lat="54.029236" lon="13.732604"><ele>2</ele></trkpt>
   <trkpt lat="54.029701" lon="13.733215"><ele>1.25</ele></trkpt>
   <trkpt lat="54.03024" lon="13.733988"><ele>1</ele></trkpt>
   <trkpt lat="54.030576" lon="13.734515"><ele>1</ele></trkpt>
   <trkpt lat="54.03096" lon="13.735173"><ele>1</ele></trkpt>
   <trkpt lat="54.031477" lon="13.736118"><ele>1</ele></trkpt>
   <trkpt lat="54.031587" lon="13.736332"><ele>1</ele></trkpt>
   <trkpt lat="54.032084" lon="13.737388"><ele>1</ele></trkpt>
   <trkpt lat="54.032522" lon="13.738424"><ele>1</ele></trkpt>
   <trkpt lat="54.032846" lon="13.739265"><ele>1</ele></trkpt>
   <trkpt lat="54.033058" lon="13.739888"><ele>1</ele></trkpt>
   <trkpt lat="54.033322" lon="13.740742"><ele>1</ele></trkpt>
   <trkpt lat="54.03359" lon="13.741676"><ele>1</ele></trkpt>
   <trkpt lat="54.033887" lon="13.742881"><ele>1</ele></trkpt>
   <trkpt lat="54.034143" lon="13.74412"><ele>1</ele></trkpt>
   <trkpt lat="54.034326" lon="13.74523"><ele>1</ele></trkpt>
   <trkpt lat="54.034488" lon="13.746417"><ele>1</ele></trkpt>
   <trkpt lat="54.034719" lon="13.74858"><ele>1.75</ele></trkpt>
   <trkpt lat="54.035094" lon="13.75246"><ele>6</ele></trkpt>
   <trkpt lat="54.035169" lon="13.753183"><ele>5</ele></trkpt>
   <trkpt lat="54.03527" lon="13.754008"><ele>3.25</ele></trkpt>
   <trkpt lat="54.035473" lon="13.755297"><ele>3.25</ele></trkpt>
   <trkpt lat="54.03558" lon="13.755847"><ele>3.25</ele></trkpt>
   <trkpt lat="54.035657" lon="13.756232"><ele>3.5</ele></trkpt>
   <trkpt lat="54.035804" lon="13.75686"><ele>3</ele></trkpt>
   <trkpt lat="54.035962" lon="13.757477"><ele>2.75</ele></trkpt>
   <trkpt lat="54.036304" lon="13.758615"><ele>2.5</ele></trkpt>
   <trkpt lat="54.0366" lon="13.759461"><ele>2.5</ele></trkpt>
   <trkpt lat="54.036977" lon="13.760401"><ele>2.5</ele></trkpt>
   <trkpt lat="54.03736" lon="13.76123"><ele>2.25</ele></trkpt>
   <trkpt lat="54.037865" lon="13.762183"><ele>2.25</ele></trkpt>
   <trkpt lat="54.038516" lon="13.76323"><ele>2.75</ele></trkpt>
   <trkpt lat="54.038763" lon="13.763588"><ele>2.5</ele></trkpt>
   <trkpt lat="54.039167" lon="13.764123"><ele>2</ele></trkpt>
   <trkpt lat="54.03984" lon="13.76488"><ele>2.5</ele></trkpt>
   <trkpt lat="54.040528" lon="13.765553"><ele>2</ele></trkpt>
   <trkpt lat="54.04095" lon="13.765973"><ele>2</ele></trkpt>
   <trkpt lat="54.041544" lon="13.766535"><ele>2.5</ele></trkpt>
   <trkpt lat="54.043745" lon="13.768667"><ele>2</ele></trkpt>
   <trkpt lat="54.044188" lon="13.769097"><ele>2</ele></trkpt>
   <trkpt lat="54.044328" lon="13.769231"><ele>2</ele></trkpt>
   <trkpt lat="54.045088" lon="13.769971"><ele>2.25</ele></trkpt>
   <trkpt lat="54.04524" lon="13.770118"><ele>2.75</ele></trkpt>
   <trkpt lat="54.045616" lon="13.770573"><ele>3</ele></trkpt>
   <trkpt lat="54.04583" lon="13.770811"><ele>3</ele></trkpt>
   <trkpt lat="54.045946" lon="13.770922"><ele>3</ele></trkpt>
   <trkpt lat="54.046309" lon="13.771307"><ele>3</ele></trkpt>
   <trkpt lat="54.046662" lon="13.771742"><ele>3</ele></trkpt>
   <trkpt lat="54.047007" lon="13.772241"><ele>3</ele></trkpt>
   <trkpt lat="54.047282" lon="13.772723"><ele>3</ele></trkpt>
   <trkpt lat="54.047541" lon="13.773271"><ele>3</ele></trkpt>
   <trkpt lat="54.048997" lon="13.776996"><ele>2</ele></trkpt>
   <trkpt lat="54.049169" lon="13.77743"><ele>2</ele></trkpt>
   <trkpt lat="54.049278" lon="13.777684"><ele>2</ele></trkpt>
   <trkpt lat="54.049349" lon="13.777819"><ele>2</ele></trkpt>
   <trkpt lat="54.049478" lon="13.77803"><ele>2</ele></trkpt>
   <trkpt lat="54.049625" lon="13.778245"><ele>2</ele></trkpt>
   <trkpt lat="54.049808" lon="13.77847"><ele>2</ele></trkpt>
   <trkpt lat="54.050026" lon="13.778688"><ele>2</ele></trkpt>
   <trkpt lat="54.050228" lon="13.778838"><ele>2</ele></trkpt>
   <trkpt lat="54.050471" lon="13.778982"><ele>2</ele></trkpt>
   <trkpt lat="54.051524" lon="13.779442"><ele>2.25</ele></trkpt>
   <trkpt lat="54.051809" lon="13.779593"><ele>2.25</ele></trkpt>
   <trkpt lat="54.05205" lon="13.779771"><ele>2.25</ele></trkpt>
   <trkpt lat="54.052287" lon="13.77999"><ele>2</ele></trkpt>
   <trkpt lat="54.052896" lon="13.780657"><ele>1</ele></trkpt>
   <trkpt lat="54.053067" lon="13.780842"><ele>1</ele></trkpt>
   <trkpt lat="54.053169" lon="13.780935"><ele>1</ele></trkpt>
   <trkpt lat="54.05337" lon="13.781105"><ele>1</ele></trkpt>
   <trkpt lat="54.053635" lon="13.781283"><ele>1</ele></trkpt>
   <trkpt lat="54.053863" lon="13.781499"><ele>1</ele></trkpt>
   <trkpt lat="54.053896" lon="13.781536"><ele>1</ele></trkpt>
   <trkpt lat="54.053942" lon="13.781587"><ele>1</ele></trkpt>
   <trkpt lat="54.054014" lon="13.781665"><ele>1</ele></trkpt>
   <trkpt lat="54.054102" lon="13.781789"><ele>1</ele></trkpt>
   <trkpt lat="54.05424" lon="13.782032"><ele>1</ele></trkpt>
   <trkpt lat="54.054364" lon="13.782314"><ele>1</ele></trkpt>
   <trkpt lat="54.054462" lon="13.782582"><ele>1</ele></trkpt>
   <trkpt lat="54.054541" lon="13.782854"><ele>1</ele></trkpt>
   <trkpt lat="54.054599" lon="13.783156"><ele>1</ele></trkpt>
   <trkpt lat="54.054629" lon="13.783394"><ele>1</ele></trkpt>
   <trkpt lat="54.054652" lon="13.783646"><ele>1</ele></trkpt>
   <trkpt lat="54.054665" lon="13.784408"><ele>1</ele></trkpt>
   <trkpt lat="54.054676" lon="13.784718"><ele>1</ele></trkpt>
   <trkpt lat="54.054718" lon="13.78555"><ele>1</ele></trkpt>
   <trkpt lat="54.054778" lon="13.786313"><ele>1</ele></trkpt>
   <trkpt lat="54.054782" lon="13.786359"><ele>1</ele></trkpt>
   <trkpt lat="54.054849" lon="13.787059"><ele>1</ele></trkpt>
   <trkpt lat="54.054912" lon="13.787678"><ele>1</ele></trkpt>
   <trkpt lat="54.055037" lon="13.788623"><ele>1</ele></trkpt>
   <trkpt lat="54.055079" lon="13.788869"><ele>1</ele></trkpt>
   <trkpt lat="54.055143" lon="13.789135"><ele>1</ele></trkpt>
   <trkpt lat="54.055187" lon="13.789299"><ele>1</ele></trkpt>
   <trkpt lat="54.05527" lon="13.789532"><ele>1.25</ele></trkpt>
   <trkpt lat="54.055369" lon="13.789743"><ele>2</ele></trkpt>
   <trkpt lat="54.055441" lon="13.789878"><ele>2</ele></trkpt>
   <trkpt lat="54.055521" lon="13.790011"><ele>2</ele></trkpt>
   <trkpt lat="54.055602" lon="13.790124"><ele>2.25</ele></trkpt>
   <trkpt lat="54.055674" lon="13.790223"><ele>2.25</ele></trkpt>
   <trkpt lat="54.055751" lon="13.790301"><ele>2.25</ele></trkpt>
   <trkpt lat="54.056002" lon="13.790516"><ele>2</ele></trkpt>
   <trkpt lat="54.056353" lon="13.790775"><ele>3</ele></trkpt>
   <trkpt lat="54.05653" lon="13.790936"><ele>3</ele></trkpt>
   <trkpt lat="54.056599" lon="13.791003"><ele>3</ele></trkpt>
   <trkpt lat="54.056735" lon="13.79116"><ele>2.75</ele></trkpt>
   <trkpt lat="54.056857" lon="13.791321"><ele>2</ele></trkpt>
   <trkpt lat="54.056878" lon="13.791353"><ele>2</ele></trkpt>
   <trkpt lat="54.057027" lon="13.791573"><ele>2</ele></trkpt>
   <trkpt lat="54.057274" lon="13.792077"><ele>1.75</ele></trkpt>
   <trkpt lat="54.057397" lon="13.792321"><ele>2</ele></trkpt>
   <trkpt lat="54.057825" lon="13.793162"><ele>1.75</ele></trkpt>
   <trkpt lat="54.058258" lon="13.794058"><ele>2.25</ele></trkpt>
   <trkpt lat="54.059851" lon="13.797361"><ele>6</ele></trkpt>
   <trkpt lat="54.060005" lon="13.797731"><ele>5.75</ele></trkpt>
   <trkpt lat="54.060128" lon="13.79808"><ele>5.5</ele></trkpt>
   <trkpt lat="54.060163" lon="13.798203"><ele>5.75</ele></trkpt>
   <trkpt lat="54.060272" lon="13.79858"><ele>5.75</ele></trkpt>
   <trkpt lat="54.060353" lon="13.79901"><ele>5.75</ele></trkpt>
   <trkpt lat="54.060412" lon="13.799558"><ele>6.25</ele></trkpt>
   <trkpt lat="54.060437" lon="13.800029"><ele>6.75</ele></trkpt>
   <trkpt lat="54.060432" lon="13.800553"><ele>7.75</ele></trkpt>
   <trkpt lat="54.060393" lon="13.801068"><ele>8.5</ele></trkpt>
   <trkpt lat="54.060346" lon="13.801567"><ele>9</ele></trkpt>
   <trkpt lat="54.060245" lon="13.802452"><ele>9.25</ele></trkpt>
   <trkpt lat="54.05991" lon="13.80572"><ele>8.75</ele></trkpt>
   <trkpt lat="54.059899" lon="13.80585"><ele>8.5</ele></trkpt>
   <trkpt lat="54.059834" lon="13.806586"><ele>8.25</ele></trkpt>
   <trkpt lat="54.059817" lon="13.807353"><ele>7.5</ele></trkpt>
   <trkpt lat="54.059834" lon="13.807973"><ele>6.75</ele></trkpt>
   <trkpt lat="54.059904" lon="13.808779"><ele>6.25</ele></trkpt>
   <trkpt lat="54.059967" lon="13.809236"><ele>5.75</ele></trkpt>
   <trkpt lat="54.060106" lon="13.809967"><ele>4.5</ele></trkpt>
   <trkpt lat="54.06022" lon="13.81044"><ele>4.5</ele></trkpt>
   <trkpt lat="54.060363" lon="13.810932"><ele>5</ele></trkpt>
   <trkpt lat="54.060578" lon="13.811535"><ele>5</ele></trkpt>
   <trkpt lat="54.061222" lon="13.813072"><ele>4</ele></trkpt>
   <trkpt lat="54.068851" lon="13.830579"><ele>4</ele></trkpt>
   <trkpt lat="54.069022" lon="13.830986"><ele>3</ele></trkpt>
   <trkpt lat="54.069822" lon="13.832824"><ele>2.75</ele></trkpt>
   <trkpt lat="54.069868" lon="13.83293"><ele>3</ele></trkpt>
   <trkpt lat="54.071006" lon="13.835544"><ele>4</ele></trkpt>
   <trkpt lat="54.071049" lon="13.835642"><ele>4</ele></trkpt>
   <trkpt lat="54.07144" lon="13.836537"><ele>3</ele></trkpt>
   <trkpt lat="54.071954" lon="13.83772"><ele>2.75</ele></trkpt>
   <trkpt lat="54.073176" lon="13.840537"><ele>3</ele></trkpt>
   <trkpt lat="54.073505" lon="13.841296"><ele>3</ele></trkpt>
   <trkpt lat="54.075556" lon="13.846021"><ele>4</ele></trkpt>
   <trkpt lat="54.077697" lon="13.850933"><ele>2</ele></trkpt>
   <trkpt lat="54.077969" lon="13.851557"><ele>1</ele></trkpt>
   <trkpt lat="54.078358" lon="13.852505"><ele>1</ele></trkpt>
   <trkpt lat="54.079038" lon="13.854366"><ele>1</ele></trkpt>
   <trkpt lat="54.079319" lon="13.855244"><ele>1</ele></trkpt>
   <trkpt lat="54.079592" lon="13.856143"><ele>1</ele></trkpt>
   <trkpt lat="54.079842" lon="13.857034"><ele>1</ele></trkpt>
   <trkpt lat="54.080086" lon="13.857992"><ele>1</ele></trkpt>
   <trkpt lat="54.080296" lon="13.858927"><ele>1</ele></trkpt>
   <trkpt lat="54.080369" lon="13.859253"><ele>1</ele></trkpt>
   <trkpt lat="54.080674" lon="13.860847"><ele>1</ele></trkpt>
   <trkpt lat="54.080977" lon="13.862758"><ele>1</ele></trkpt>
   <trkpt lat="54.081201" lon="13.864703"><ele>1</ele></trkpt>
   <trkpt lat="54.081349" lon="13.866274"><ele>1</ele></trkpt>
   <trkpt lat="54.081412" lon="13.867029"><ele>1</ele></trkpt>
   <trkpt lat="54.081416" lon="13.867101"><ele>1</ele></trkpt>
   <trkpt lat="54.081423" lon="13.86719"><ele>1</ele></trkpt>
   <trkpt lat="54.081433" lon="13.867521"><ele>1</ele></trkpt>
   <trkpt lat="54.08143" lon="13.868264"><ele>1</ele></trkpt>
   <trkpt lat="54.081437" lon="13.868684"><ele>1</ele></trkpt>
   <trkpt lat="54.08144" lon="13.869688"><ele>1</ele></trkpt>
   <trkpt lat="54.081429" lon="13.870718"><ele>1</ele></trkpt>
   <trkpt lat="54.081415" lon="13.871294"><ele>1</ele></trkpt>
   <trkpt lat="54.081413" lon="13.871851"><ele>1</ele></trkpt>
   <trkpt lat="54.081398" lon="13.87231"><ele>0.75</ele></trkpt>
   <trkpt lat="54.081272" lon="13.873771"><ele>1</ele></trkpt>
   <trkpt lat="54.081157" lon="13.874862"><ele>1</ele></trkpt>
   <trkpt lat="54.08112" lon="13.87521"><ele>1</ele></trkpt>
   <trkpt lat="54.080943" lon="13.876649"><ele>1</ele></trkpt>
   <trkpt lat="54.080649" lon="13.878498"><ele>1</ele></trkpt>
   <trkpt lat="54.080278" lon="13.880757"><ele>1</ele></trkpt>
   <trkpt lat="54.07951" lon="13.885417"><ele>1</ele></trkpt>
   <trkpt lat="54.079024" lon="13.888412"><ele>1</ele></trkpt>
   <trkpt lat="54.078054" lon="13.894301"><ele>1</ele></trkpt>
   <trkpt lat="54.077812" lon="13.895755"><ele>1</ele></trkpt>
   <trkpt lat="54.07766" lon="13.896537"><ele>1</ele></trkpt>
   <trkpt lat="54.077498" lon="13.897242"><ele>1</ele></trkpt>
   <trkpt lat="54.077327" lon="13.897873"><ele>1</ele></trkpt>
   <trkpt lat="54.0765" lon="13.900555"><ele>1.25</ele></trkpt>
   <trkpt lat="54.076439" lon="13.900768"><ele>1</ele></trkpt>
   <trkpt lat="54.076228" lon="13.901437"><ele>1</ele></trkpt>
   <trkpt lat="54.075917" lon="13.902441"><ele>1</ele></trkpt>
   <trkpt lat="54.075785" lon="13.902867"><ele>1</ele></trkpt>
   <trkpt lat="54.075676" lon="13.903218"><ele>1</ele></trkpt>
   <trkpt lat="54.075649" lon="13.903302"><ele>1</ele></trkpt>
   <trkpt lat="54.074913" lon="13.905672"><ele>1</ele></trkpt>
   <trkpt lat="54.074791" lon="13.906067"><ele>1</ele></trkpt>
   <trkpt lat="54.074772" lon="13.906129"><ele>1</ele></trkpt>
   <trkpt lat="54.074756" lon="13.906181"><ele>1</ele></trkpt>
   <trkpt lat="54.074514" lon="13.906968"><ele>1</ele></trkpt>
   <trkpt lat="54.07408" lon="13.908331"><ele>1</ele></trkpt>
   <trkpt lat="54.073989" lon="13.908596"><ele>1</ele></trkpt>
   <trkpt lat="54.073828" lon="13.909074"><ele>1</ele></trkpt>
   <trkpt lat="54.073548" lon="13.909792"><ele>4</ele></trkpt>
   <trkpt lat="54.073006" lon="13.911024"><ele>4.5</ele></trkpt>
   <trkpt lat="54.072554" lon="13.912046"><ele>6</ele></trkpt>
   <trkpt lat="54.070824" lon="13.915945"><ele>5.25</ele></trkpt>
   <trkpt lat="54.0704" lon="13.916898"><ele>4.5</ele></trkpt>
   <trkpt lat="54.069492" lon="13.919253"><ele>5.25</ele></trkpt>
   <trkpt lat="54.069051" lon="13.920729"><ele>8.25</ele></trkpt>
   <trkpt lat="54.068927" lon="13.921221"><ele>9.5</ele></trkpt>
   <trkpt lat="54.068264" lon="13.924233"><ele>10.5</ele></trkpt>
   <trkpt lat="54.068174" lon="13.924781"><ele>9.25</ele></trkpt>
   <trkpt lat="54.067874" lon="13.927543"><ele>3</ele></trkpt>
   <trkpt lat="54.067831" lon="13.92805"><ele>3</ele></trkpt>
   <trkpt lat="54.066798" lon="13.938973"><ele>2.25</ele></trkpt>
   <trkpt lat="54.066079" lon="13.946613"><ele>6</ele></trkpt>
   <trkpt lat="54.065898" lon="13.948602"><ele>5.75</ele></trkpt>
   <trkpt lat="54.065858" lon="13.949242"><ele>5.75</ele></trkpt>
   <trkpt lat="54.065846" lon="13.949721"><ele>5.75</ele></trkpt>
   <trkpt lat="54.065874" lon="13.951775"><ele>4.5</ele></trkpt>
   <trkpt lat="54.065908" lon="13.954081"><ele>2</ele></trkpt>
   <trkpt lat="54.065932" lon="13.955018"><ele>2</ele></trkpt>
   <trkpt lat="54.065962" lon="13.956807"><ele>1.75</ele></trkpt>
   <trkpt lat="54.065975" lon="13.957347"><ele>2</ele></trkpt>
   <trkpt lat="54.065979" lon="13.957579"><ele>2</ele></trkpt>
   <trkpt lat="54.066004" lon="13.9588"><ele>2</ele></trkpt>
   <trkpt lat="54.066005" lon="13.958837"><ele>2</ele></trkpt>
   <trkpt lat="54.066014" lon="13.959383"><ele>1</ele></trkpt>
   <trkpt lat="54.066028" lon="13.96012"><ele>1</ele></trkpt>
   <trkpt lat="54.066048" lon="13.961363"><ele>1</ele></trkpt>
   <trkpt lat="54.066079" lon="13.963016"><ele>1</ele></trkpt>
   <trkpt lat="54.066149" lon="13.965898"><ele>0.75</ele></trkpt>
   <trkpt lat="54.066172" lon="13.96727"><ele>1</ele></trkpt>
   <trkpt lat="54.066201" lon="13.968922"><ele>1</ele></trkpt>
   <trkpt lat="54.066184" lon="13.970361"><ele>1</ele></trkpt>
   <trkpt lat="54.066152" lon="13.970816"><ele>1</ele></trkpt>
   <trkpt lat="54.066091" lon="13.97136"><ele>1</ele></trkpt>
   <trkpt lat="54.065954" lon="13.972142"><ele>1</ele></trkpt>
   <trkpt lat="54.06583" lon="13.972695"><ele>1</ele></trkpt>
   <trkpt lat="54.065704" lon="13.973173"><ele>1</ele></trkpt>
   <trkpt lat="54.065143" lon="13.975354"><ele>1</ele></trkpt>
   <trkpt lat="54.064949" lon="13.97611"><ele>1</ele></trkpt>
   <trkpt lat="54.064558" lon="13.977565"><ele>1</ele></trkpt>
   <trkpt lat="54.06448" lon="13.977821"><ele>1</ele></trkpt>
   <trkpt lat="54.064321" lon="13.978275"><ele>1</ele></trkpt>
   <trkpt lat="54.064183" lon="13.978611"><ele>1</ele></trkpt>
   <trkpt lat="54.064019" lon="13.978987"><ele>1</ele></trkpt>
   <trkpt lat="54.063799" lon="13.979396"><ele>1</ele></trkpt>
   <trkpt lat="54.063573" lon="13.979785"><ele>1</ele></trkpt>
   <trkpt lat="54.063303" lon="13.980167"><ele>1</ele></trkpt>
   <trkpt lat="54.063048" lon="13.980475"><ele>1</ele></trkpt>
   <trkpt lat="54.062683" lon="13.980882"><ele>1</ele></trkpt>
   <trkpt lat="54.061125" lon="13.98238"><ele>1</ele></trkpt>
   <trkpt lat="54.058967" lon="13.984516"><ele>2</ele></trkpt>
   <trkpt lat="54.053925" lon="13.989432"><ele>1</ele></trkpt>
   <trkpt lat="54.051274" lon="13.992015"><ele>1</ele></trkpt>
   <trkpt lat="54.048403" lon="13.994814"><ele>1</ele></trkpt>
   <trkpt lat="54.048157" lon="13.995046"><ele>1</ele></trkpt>
   <trkpt lat="54.047993" lon="13.995215"><ele>1</ele></trkpt>
   <trkpt lat="54.047522" lon="13.995733"><ele>1</ele></trkpt>
   <trkpt lat="54.047132" lon="13.996302"><ele>1</ele></trkpt>
   <trkpt lat="54.046875" lon="13.996692"><ele>1</ele></trkpt>
   <trkpt lat="54.046613" lon="13.997102"><ele>1</ele></trkpt>
   <trkpt lat="54.046536" lon="13.997221"><ele>1</ele></trkpt>
   <trkpt lat="54.046312" lon="13.997575"><ele>1</ele></trkpt>
   <trkpt lat="54.045673" lon="13.998563"><ele>1</ele></trkpt>
   <trkpt lat="54.04559" lon="13.99869"><ele>1</ele></trkpt>
   <trkpt lat="54.045435" lon="13.998919"><ele>1</ele></trkpt>
   <trkpt lat="54.045354" lon="13.999043"><ele>1</ele></trkpt>
   <trkpt lat="54.045133" lon="13.999389"><ele>1</ele></trkpt>
   <trkpt lat="54.044885" lon="13.999776"><ele>1</ele></trkpt>
   <trkpt lat="54.044873" lon="13.999796"><ele>1</ele></trkpt>
   <trkpt lat="54.044811" lon="13.999892"><ele>0.75</ele></trkpt>
   <trkpt lat="54.044156" lon="14.00089"><ele>2</ele></trkpt>
   <trkpt lat="54.0436" lon="14.001763"><ele>2</ele></trkpt>
   <trkpt lat="54.043459" lon="14.001963"><ele>2</ele></trkpt>
   <trkpt lat="54.043102" lon="14.002524"><ele>2</ele></trkpt>
   <trkpt lat="54.042461" lon="14.003495"><ele>2</ele></trkpt>
   <trkpt lat="54.042191" lon="14.003936"><ele>2</ele></trkpt>
   <trkpt lat="54.042115" lon="14.004082"><ele>2</ele></trkpt>
   <trkpt lat="54.042005" lon="14.00429"><ele>2</ele></trkpt>
   <trkpt lat="54.041941" lon="14.004414"><ele>2</ele></trkpt>
   <trkpt lat="54.041773" lon="14.004857"><ele>2</ele></trkpt>
   <trkpt lat="54.041664" lon="14.005194"><ele>2</ele></trkpt>
   <trkpt lat="54.041573" lon="14.005529"><ele>2</ele></trkpt>
   <trkpt lat="54.041522" lon="14.005758"><ele>2</ele></trkpt>
   <trkpt lat="54.041478" lon="14.006037"><ele>2</ele></trkpt>
   <trkpt lat="54.041429" lon="14.006413"><ele>2</ele></trkpt>
   <trkpt lat="54.041356" lon="14.007203"><ele>2</ele></trkpt>
   <trkpt lat="54.041263" lon="14.00832"><ele>2</ele></trkpt>
   <trkpt lat="54.041161" lon="14.009323"><ele>2</ele></trkpt>
   <trkpt lat="54.041065" lon="14.01043"><ele>3</ele></trkpt>
   <trkpt lat="54.041052" lon="14.010563"><ele>3</ele></trkpt>
   <trkpt lat="54.040976" lon="14.01142"><ele>4</ele></trkpt>
   <trkpt lat="54.040945" lon="14.01166"><ele>4</ele></trkpt>
   <trkpt lat="54.040882" lon="14.012031"><ele>4.25</ele></trkpt>
   <trkpt lat="54.040795" lon="14.012425"><ele>4.75</ele></trkpt>
   <trkpt lat="54.040681" lon="14.012842"><ele>5</ele></trkpt>
   <trkpt lat="54.040462" lon="14.013543"><ele>5</ele></trkpt>
   <trkpt lat="54.040212" lon="14.014144"><ele>5</ele></trkpt>
   <trkpt lat="54.039397" lon="14.015683"><ele>5</ele></trkpt>
   <trkpt lat="54.039283" lon="14.015885"><ele>5</ele></trkpt>
   <trkpt lat="54.038335" lon="14.017574"><ele>5</ele></trkpt>
   <trkpt lat="54.037305" lon="14.019382"><ele>7.75</ele></trkpt>
   <trkpt lat="54.036632" lon="14.020534"><ele>7</ele></trkpt>
   <trkpt lat="54.03639" lon="14.020953"><ele>6.5</ele></trkpt>
   <trkpt lat="54.035789" lon="14.022039"><ele>2</ele></trkpt>
   <trkpt lat="54.035698" lon="14.022202"><ele>2</ele></trkpt>
   <trkpt lat="54.035262" lon="14.022965"><ele>2</ele></trkpt>
   <trkpt lat="54.034237" lon="14.024734"><ele>2</ele></trkpt>
   <trkpt lat="54.03324" lon="14.026479"><ele>1</ele></trkpt>
   <trkpt lat="54.031521" lon="14.029489"><ele>1</ele></trkpt>
   <trkpt lat="54.031431" lon="14.029634"><ele>1</ele></trkpt>
   <trkpt lat="54.030759" lon="14.030716"><ele>2</ele></trkpt>
   <trkpt lat="54.030299" lon="14.031339"><ele>2.75</ele></trkpt>
   <trkpt lat="54.029702" lon="14.032059"><ele>4</ele></trkpt>
   <trkpt lat="54.029416" lon="14.032337"><ele>5</ele></trkpt>
   <trkpt lat="54.02913" lon="14.032591"><ele>5</ele></trkpt>
   <trkpt lat="54.028839" lon="14.03283"><ele>6</ele></trkpt>
   <trkpt lat="54.028602" lon="14.033027"><ele>6.75</ele></trkpt>
   <trkpt lat="54.028577" lon="14.033046"><ele>7</ele></trkpt>
   <trkpt lat="54.028484" lon="14.033126"><ele>7.25</ele></trkpt>
   <trkpt lat="54.028457" lon="14.033149"><ele>7.5</ele></trkpt>
   <trkpt lat="54.027197" lon="14.034106"><ele>10</ele></trkpt>
   <trkpt lat="54.025234" lon="14.035763"><ele>8.75</ele></trkpt>
   <trkpt lat="54.024178" lon="14.036654"><ele>5</ele></trkpt>
   <trkpt lat="54.023366" lon="14.037598"><ele>5</ele></trkpt>
   <trkpt lat="54.02117" lon="14.0401"><ele>4</ele></trkpt>
   <trkpt lat="54.019803" lon="14.041676"><ele>4.25</ele></trkpt>
   <trkpt lat="54.018759" lon="14.042877"><ele>4</ele></trkpt>
   <trkpt lat="54.01682" lon="14.045109"><ele>4.5</ele></trkpt>
   <trkpt lat="54.016441" lon="14.045562"><ele>6.75</ele></trkpt>
   <trkpt lat="54.016246" lon="14.045837"><ele>7</ele></trkpt>
   <trkpt lat="54.015782" lon="14.046535"><ele>9</ele></trkpt>
   <trkpt lat="54.015318" lon="14.047276"><ele>11</ele></trkpt>
   <trkpt lat="54.015284" lon="14.047334"><ele>11</ele></trkpt>
   <trkpt lat="54.015203" lon="14.04747"><ele>11.25</ele></trkpt>
   <trkpt lat="54.015108" lon="14.04764"><ele>11.5</ele></trkpt>
   <trkpt lat="54.014899" lon="14.048012"><ele>12.25</ele></trkpt>
   <trkpt lat="54.01427" lon="14.049065"><ele>12.5</ele></trkpt>
   <trkpt lat="54.013848" lon="14.049781"><ele>11.75</ele></trkpt>
   <trkpt lat="54.013834" lon="14.049805"><ele>12</ele></trkpt>
   <trkpt lat="54.01345" lon="14.050457"><ele>12</ele></trkpt>
   <trkpt lat="54.013206" lon="14.05087"><ele>12</ele></trkpt>
   <trkpt lat="54.01299" lon="14.051223"><ele>12</ele></trkpt>
   <trkpt lat="54.012282" lon="14.052426"><ele>11.5</ele></trkpt>
   <trkpt lat="54.011808" lon="14.053228"><ele>11.75</ele></trkpt>
   <trkpt lat="54.010855" lon="14.054778"><ele>11</ele></trkpt>
   <trkpt lat="54.010688" lon="14.055039"><ele>10.75</ele></trkpt>
   <trkpt lat="54.010495" lon="14.055321"><ele>10</ele></trkpt>
   <trkpt lat="54.010317" lon="14.05554"><ele>10</ele></trkpt>
   <trkpt lat="54.010124" lon="14.055791"><ele>8.5</ele></trkpt>
   <trkpt lat="54.009769" lon="14.056253"><ele>8</ele></trkpt>
   <trkpt lat="54.008904" lon="14.057218"><ele>2</ele></trkpt>
   <trkpt lat="54.00793" lon="14.058139"><ele>3</ele></trkpt>
   <trkpt lat="54.007182" lon="14.058847"><ele>4.25</ele></trkpt>
   <trkpt lat="54.004202" lon="14.061665"><ele>4</ele></trkpt>
   <trkpt lat="54.002223" lon="14.063537"><ele>2</ele></trkpt>
   <trkpt lat="54.000956" lon="14.064604"><ele>2</ele></trkpt>
   <trkpt lat="54.000882" lon="14.064674"><ele>2</ele></trkpt>
   <trkpt lat="54.000722" lon="14.064833"><ele>2</ele></trkpt>
   <trkpt lat="54.000607" lon="14.064948"><ele>2</ele></trkpt>
   <trkpt lat="54.000274" lon="14.065255"><ele>2</ele></trkpt>
   <trkpt lat="53.999651" lon="14.065837"><ele>2</ele></trkpt>
   <trkpt lat="53.997724" lon="14.067613"><ele>2</ele></trkpt>
   <trkpt lat="53.996595" lon="14.068629"><ele>2</ele></trkpt>
   <trkpt lat="53.996432" lon="14.068797"><ele>2</ele></trkpt>
   <trkpt lat="53.996184" lon="14.069005"><ele>2</ele></trkpt>
   <trkpt lat="53.995529" lon="14.069447"><ele>2</ele></trkpt>
   <trkpt lat="53.994676" lon="14.069872"><ele>2</ele></trkpt>
   <trkpt lat="53.990013" lon="14.071873"><ele>1</ele></trkpt>
   <trkpt lat="53.988905" lon="14.072406"><ele>1</ele></trkpt>
   <trkpt lat="53.988897" lon="14.07241"><ele>1</ele></trkpt>
   <trkpt lat="53.988281" lon="14.072707"><ele>1</ele></trkpt>
   <trkpt lat="53.986975" lon="14.073352"><ele>1</ele></trkpt>
   <trkpt lat="53.98696" lon="14.073359"><ele>1</ele></trkpt>
   <trkpt lat="53.985774" lon="14.073941"><ele>1</ele></trkpt>
   <trkpt lat="53.985111" lon="14.074364"><ele>1</ele></trkpt>
   <trkpt lat="53.984929" lon="14.074498"><ele>1</ele></trkpt>
   <trkpt lat="53.984734" lon="14.074684"><ele>1</ele></trkpt>
   <trkpt lat="53.984585" lon="14.074842"><ele>1</ele></trkpt>
   <trkpt lat="53.983719" lon="14.07601"><ele>1</ele></trkpt>
   <trkpt lat="53.983256" lon="14.076614"><ele>1</ele></trkpt>
   <trkpt lat="53.982779" lon="14.077242"><ele>1</ele></trkpt>
   <trkpt lat="53.982603" lon="14.077512"><ele>1</ele></trkpt>
   <trkpt lat="53.982439" lon="14.077794"><ele>1</ele></trkpt>
   <trkpt lat="53.98241" lon="14.077858"><ele>1</ele></trkpt>
   <trkpt lat="53.982347" lon="14.077973"><ele>1</ele></trkpt>
   <trkpt lat="53.982231" lon="14.078252"><ele>1</ele></trkpt>
   <trkpt lat="53.982123" lon="14.078547"><ele>1</ele></trkpt>
   <trkpt lat="53.982064" lon="14.078713"><ele>1</ele></trkpt>
   <trkpt lat="53.981972" lon="14.079027"><ele>1</ele></trkpt>
   <trkpt lat="53.981904" lon="14.07934"><ele>1</ele></trkpt>
   <trkpt lat="53.981815" lon="14.079834"><ele>1</ele></trkpt>
   <trkpt lat="53.981754" lon="14.080257"><ele>1</ele></trkpt>
   <trkpt lat="53.981588" lon="14.081395"><ele>1</ele></trkpt>
   <trkpt lat="53.98091" lon="14.086203"><ele>1</ele></trkpt>
   <trkpt lat="53.980227" lon="14.090996"><ele>1</ele></trkpt>
   <trkpt lat="53.979965" lon="14.092798"><ele>1</ele></trkpt>
   <trkpt lat="53.979743" lon="14.094374"><ele>1</ele></trkpt>
   <trkpt lat="53.97959" lon="14.095249"><ele>1</ele></trkpt>
   <trkpt lat="53.97943" lon="14.096017"><ele>1</ele></trkpt>
   <trkpt lat="53.979272" lon="14.0967"><ele>1</ele></trkpt>
   <trkpt lat="53.97872" lon="14.098459"><ele>1</ele></trkpt>
   <trkpt lat="53.978406" lon="14.099249"><ele>1</ele></trkpt>
   <trkpt lat="53.9779" lon="14.10039"><ele>1</ele></trkpt>
   <trkpt lat="53.977186" lon="14.1019"><ele>1</ele></trkpt>
   <trkpt lat="53.976684" lon="14.102931"><ele>1</ele></trkpt>
   <trkpt lat="53.968236" lon="14.120844"><ele>23.75</ele></trkpt>
   <trkpt lat="53.967" lon="14.123463"><ele>21.25</ele></trkpt>
   <trkpt lat="53.965681" lon="14.126267"><ele>24</ele></trkpt>
   <trkpt lat="53.965533" lon="14.126577"><ele>23.25</ele></trkpt>
   <trkpt lat="53.964878" lon="14.12795"><ele>25</ele></trkpt>
   <trkpt lat="53.964581" lon="14.128599"><ele>25.25</ele></trkpt>
   <trkpt lat="53.964415" lon="14.129056"><ele>24.75</ele></trkpt>
   <trkpt lat="53.964279" lon="14.129483"><ele>25</ele></trkpt>
   <trkpt lat="53.964046" lon="14.130301"><ele>25</ele></trkpt>
   <trkpt lat="53.963722" lon="14.131398"><ele>25.25</ele></trkpt>
   <trkpt lat="53.963552" lon="14.131942"><ele>24.75</ele></trkpt>
   <trkpt lat="53.961858" lon="14.137422"><ele>16.25</ele></trkpt>
   <trkpt lat="53.961727" lon="14.137866"><ele>14.75</ele></trkpt>
   <trkpt lat="53.961464" lon="14.138631"><ele>13</ele></trkpt>
   <trkpt lat="53.961354" lon="14.138892"><ele>11.75</ele></trkpt>
   <trkpt lat="53.961212" lon="14.1392"><ele>11.25</ele></trkpt>
   <trkpt lat="53.96105" lon="14.139515"><ele>10.5</ele></trkpt>
   <trkpt lat="53.960851" lon="14.139864"><ele>10</ele></trkpt>
   <trkpt lat="53.960609" lon="14.140232"><ele>10</ele></trkpt>
   <trkpt lat="53.960445" lon="14.140445"><ele>10</ele></trkpt>
   <trkpt lat="53.959179" lon="14.141752"><ele>6.25</ele></trkpt>
   <trkpt lat="53.95761" lon="14.143415"><ele>2.75</ele></trkpt>
   <trkpt lat="53.957219" lon="14.143796"><ele>6.25</ele></trkpt>
   <trkpt lat="53.956045" lon="14.144987"><ele>11.5</ele></trkpt>
   <trkpt lat="53.95286" lon="14.148231"><ele>15.5</ele></trkpt>
   <trkpt lat="53.952808" lon="14.148283"><ele>15.25</ele></trkpt>
   <trkpt lat="53.952336" lon="14.148767"><ele>15.5</ele></trkpt>
   <trkpt lat="53.951632" lon="14.149492"><ele>16</ele></trkpt>
   <trkpt lat="53.950707" lon="14.150473"><ele>14.5</ele></trkpt>
   <trkpt lat="53.9499" lon="14.151225"><ele>8.25</ele></trkpt>
   <trkpt lat="53.9498" lon="14.151327"><ele>5.75</ele></trkpt>
   <trkpt lat="53.947446" lon="14.153782"><ele>10.25</ele></trkpt>
   <trkpt lat="53.947284" lon="14.153953"><ele>12.25</ele></trkpt>
   <trkpt lat="53.946569" lon="14.154679"><ele>11</ele></trkpt>
   <trkpt lat="53.945865" lon="14.155428"><ele>7.75</ele></trkpt>
   <trkpt lat="53.945192" lon="14.156096"><ele>11</ele></trkpt>
   <trkpt lat="53.94416" lon="14.15714"><ele>10.75</ele></trkpt>
   <trkpt lat="53.943337" lon="14.158023"><ele>12.5</ele></trkpt>
   <trkpt lat="53.940683" lon="14.161392"><ele>17.5</ele></trkpt>
   <trkpt lat="53.940065" lon="14.162191"><ele>9</ele></trkpt>
   <trkpt lat="53.939749" lon="14.162673"><ele>5.25</ele></trkpt>
   <trkpt lat="53.939601" lon="14.162934"><ele>2.75</ele></trkpt>
   <trkpt lat="53.939463" lon="14.163219"><ele>1</ele></trkpt>
   <trkpt lat="53.93929" lon="14.163617"><ele>1</ele></trkpt>
   <trkpt lat="53.939138" lon="14.164027"><ele>1</ele></trkpt>
   <trkpt lat="53.938958" lon="14.164679"><ele>1</ele></trkpt>
   <trkpt lat="53.93882" lon="14.165363"><ele>1</ele></trkpt>
   <trkpt lat="53.938759" lon="14.165859"><ele>1</ele></trkpt>
   <trkpt lat="53.938725" lon="14.166358"><ele>1</ele></trkpt>
   <trkpt lat="53.938707" lon="14.166812"><ele>1</ele></trkpt>
   <trkpt lat="53.938716" lon="14.167261"><ele>1</ele></trkpt>
   <trkpt lat="53.938758" lon="14.167862"><ele>1</ele></trkpt>
   <trkpt lat="53.938833" lon="14.168461"><ele>1</ele></trkpt>
   <trkpt lat="53.939383" lon="14.171128"><ele>1</ele></trkpt>
   <trkpt lat="53.939534" lon="14.171762"><ele>1</ele></trkpt>
   <trkpt lat="53.939621" lon="14.172073"><ele>1</ele></trkpt>
   <trkpt lat="53.939716" lon="14.172382"><ele>1</ele></trkpt>
   <trkpt lat="53.939841" lon="14.172714"><ele>1</ele></trkpt>
   <trkpt lat="53.940046" lon="14.17319"><ele>1</ele></trkpt>
   <trkpt lat="53.940243" lon="14.17356"><ele>1.75</ele></trkpt>
   <trkpt lat="53.940351" lon="14.173745"><ele>1.5</ele></trkpt>
   <trkpt lat="53.940457" lon="14.173903"><ele>1.5</ele></trkpt>
   <trkpt lat="53.940571" lon="14.174064"><ele>1.25</ele></trkpt>
   <trkpt lat="53.940717" lon="14.174246"><ele>1.25</ele></trkpt>
   <trkpt lat="53.94086" lon="14.17441"><ele>1</ele></trkpt>
   <trkpt lat="53.941022" lon="14.174575"><ele>1.25</ele></trkpt>
   <trkpt lat="53.941186" lon="14.174725"><ele>1.25</ele></trkpt>
   <trkpt lat="53.941511" lon="14.174979"><ele>1.25</ele></trkpt>
   <trkpt lat="53.941891" lon="14.175241"><ele>1.75</ele></trkpt>
   <trkpt lat="53.941981" lon="14.175301"><ele>2</ele></trkpt>
   <trkpt lat="53.942071" lon="14.175361"><ele>2.25</ele></trkpt>
   <trkpt lat="53.942657" lon="14.175746"><ele>4.5</ele></trkpt>
   <trkpt lat="53.942704" lon="14.175777"><ele>4.5</ele></trkpt>
   <trkpt lat="53.943392" lon="14.176225"><ele>6</ele></trkpt>
   <trkpt lat="53.943563" lon="14.176327"><ele>5.5</ele></trkpt>
   <trkpt lat="53.943725" lon="14.17641"><ele>4.75</ele></trkpt>
   <trkpt lat="53.943893" lon="14.176478"><ele>4.5</ele></trkpt>
   <trkpt lat="53.944043" lon="14.176528"><ele>4.25</ele></trkpt>
   <trkpt lat="53.944193" lon="14.176563"><ele>4.25</ele></trkpt>
   <trkpt lat="53.944337" lon="14.176583"><ele>4.75</ele></trkpt>
   <trkpt lat="53.944486" lon="14.176595"><ele>5.5</ele></trkpt>
   <trkpt lat="53.94464" lon="14.176582"><ele>6.25</ele></trkpt>
   <trkpt lat="53.944767" lon="14.176559"><ele>7</ele></trkpt>
   <trkpt lat="53.944908" lon="14.176526"><ele>8</ele></trkpt>
   <trkpt lat="53.945062" lon="14.176473"><ele>8.75</ele></trkpt>
   <trkpt lat="53.945204" lon="14.176411"><ele>8.75</ele></trkpt>
   <trkpt lat="53.945365" lon="14.176325"><ele>9.25</ele></trkpt>
   <trkpt lat="53.945521" lon="14.176222"><ele>9.5</ele></trkpt>
   <trkpt lat="53.945781" lon="14.176022"><ele>9.75</ele></trkpt>
   <trkpt lat="53.94598" lon="14.175839"><ele>8.25</ele></trkpt>
   <trkpt lat="53.946107" lon="14.175703"><ele>7.75</ele></trkpt>
   <trkpt lat="53.946453" lon="14.175279"><ele>7.75</ele></trkpt>
   <trkpt lat="53.946517" lon="14.175194"><ele>8</ele></trkpt>
   <trkpt lat="53.946977" lon="14.174606"><ele>7.5</ele></trkpt>
   <trkpt lat="53.947134" lon="14.17439"><ele>7.75</ele></trkpt>
   <trkpt lat="53.947182" lon="14.174322"><ele>7.5</ele></trkpt>
   <trkpt lat="53.947298" lon="14.174162"><ele>7.75</ele></trkpt>
   <trkpt lat="53.947528" lon="14.173875"><ele>7</ele></trkpt>
   <trkpt lat="53.947665" lon="14.173673"><ele>7.5</ele></trkpt>
   <trkpt lat="53.947724" lon="14.173583"><ele>7.25</ele></trkpt>
   <trkpt lat="53.948034" lon="14.173098"><ele>7</ele></trkpt>
   <trkpt lat="53.948395" lon="14.172523"><ele>7</ele></trkpt>
   <trkpt lat="53.948516" lon="14.172305"><ele>7</ele></trkpt>
   <trkpt lat="53.949271" lon="14.170812"><ele>7</ele></trkpt>
   <trkpt lat="53.94933" lon="14.170697"><ele>7</ele></trkpt>
   <trkpt lat="53.94935" lon="14.170658"><ele>7</ele></trkpt>
   <trkpt lat="53.949646" lon="14.170076"><ele>7</ele></trkpt>
   <trkpt lat="53.949848" lon="14.169677"><ele>6.75</ele></trkpt>
   <trkpt lat="53.949646" lon="14.170076"><ele>7</ele></trkpt>
   <trkpt lat="53.94935" lon="14.170658"><ele>7</ele></trkpt>
   <trkpt lat="53.94933" lon="14.170697"><ele>7</ele></trkpt>
   <trkpt lat="53.949271" lon="14.170812"><ele>7</ele></trkpt>
   <trkpt lat="53.948516" lon="14.172305"><ele>7</ele></trkpt>
   <trkpt lat="53.948395" lon="14.172523"><ele>7</ele></trkpt>
   <trkpt lat="53.948034" lon="14.173098"><ele>7</ele></trkpt>
   <trkpt lat="53.947724" lon="14.173583"><ele>7.25</ele></trkpt>
   <trkpt lat="53.947665" lon="14.173673"><ele>7.5</ele></trkpt>
   <trkpt lat="53.947421" lon="14.174057"><ele>7.5</ele></trkpt>
   <trkpt lat="53.947173" lon="14.174426"><ele>7.25</ele></trkpt>
   <trkpt lat="53.947046" lon="14.174603"><ele>7.5</ele></trkpt>
   <trkpt lat="53.946693" lon="14.17505"><ele>7.5</ele></trkpt>
   <trkpt lat="53.945435" lon="14.176651"><ele>9</ele></trkpt>
   <trkpt lat="53.94448" lon="14.177777"><ele>4</ele></trkpt>
   <trkpt lat="53.944086" lon="14.17824"><ele>3.25</ele></trkpt>
   <trkpt lat="53.943463" lon="14.178966"><ele>4.25</ele></trkpt>
   <trkpt lat="53.943161" lon="14.179278"><ele>4.75</ele></trkpt>
   <trkpt lat="53.943043" lon="14.179396"><ele>5</ele></trkpt>
   <trkpt lat="53.942904" lon="14.179527"><ele>5</ele></trkpt>
   <trkpt lat="53.94261" lon="14.179774"><ele>5</ele></trkpt>
   <trkpt lat="53.94229" lon="14.18001"><ele>4</ele></trkpt>
   <trkpt lat="53.942112" lon="14.180141"><ele>3</ele></trkpt>
   <trkpt lat="53.942008" lon="14.180217"><ele>2.25</ele></trkpt>
   <trkpt lat="53.941906" lon="14.180292"><ele>2</ele></trkpt>
   <trkpt lat="53.941607" lon="14.180514"><ele>1.75</ele></trkpt>
   <trkpt lat="53.941245" lon="14.180781"><ele>1</ele></trkpt>
   <trkpt lat="53.941165" lon="14.180841"><ele>1</ele></trkpt>
   <trkpt lat="53.940885" lon="14.181044"><ele>1</ele></trkpt>
   <trkpt lat="53.940403" lon="14.181395"><ele>1</ele></trkpt>
   <trkpt lat="53.939964" lon="14.181716"><ele>1</ele></trkpt>
   <trkpt lat="53.93979" lon="14.181855"><ele>1</ele></trkpt>
   <trkpt lat="53.93943" lon="14.182173"><ele>1</ele></trkpt>
   <trkpt lat="53.93928" lon="14.182317"><ele>1</ele></trkpt>
   <trkpt lat="53.93888" lon="14.182747"><ele>1</ele></trkpt>
   <trkpt lat="53.93859" lon="14.183103"><ele>1</ele></trkpt>
   <trkpt lat="53.938337" lon="14.183445"><ele>1</ele></trkpt>
   <trkpt lat="53.938066" lon="14.183848"><ele>1</ele></trkpt>
   <trkpt lat="53.937936" lon="14.184051"><ele>2.5</ele></trkpt>
   <trkpt lat="53.937291" lon="14.185085"><ele>4.25</ele></trkpt>
   <trkpt lat="53.937138" lon="14.185315"><ele>4.25</ele></trkpt>
   <trkpt lat="53.936809" lon="14.185725"><ele>4</ele></trkpt>
   <trkpt lat="53.936603" lon="14.186029"><ele>4</ele></trkpt>
   <trkpt lat="53.936537" lon="14.186132"><ele>4.25</ele></trkpt>
   <trkpt lat="53.936497" lon="14.186196"><ele>4.5</ele></trkpt>
   <trkpt lat="53.936318" lon="14.186481"><ele>5</ele></trkpt>
   <trkpt lat="53.935505" lon="14.187783"><ele>4.25</ele></trkpt>
   <trkpt lat="53.934576" lon="14.189263"><ele>4.25</ele></trkpt>
   <trkpt lat="53.934331" lon="14.189678"><ele>4</ele></trkpt>
   <trkpt lat="53.93404" lon="14.190262"><ele>4</ele></trkpt>
   <trkpt lat="53.933893" lon="14.190513"><ele>4</ele></trkpt>
   <trkpt lat="53.933613" lon="14.190964"><ele>3.75</ele></trkpt>
   <trkpt lat="53.93347" lon="14.191193"><ele>4</ele></trkpt>
   <trkpt lat="53.933323" lon="14.191429"><ele>3.75</ele></trkpt>
   <trkpt lat="53.933289" lon="14.19148"><ele>3.75</ele></trkpt>
   <trkpt lat="53.933195" lon="14.191635"><ele>3.5</ele></trkpt>
   <trkpt lat="53.932919" lon="14.192079"><ele>3.25</ele></trkpt>
   <trkpt lat="53.930304" lon="14.196274"><ele>3</ele></trkpt>
   <trkpt lat="53.929744" lon="14.19717"><ele>3</ele></trkpt>
   <trkpt lat="53.929489" lon="14.197595"><ele>3</ele></trkpt>
   <trkpt lat="53.929236" lon="14.198065"><ele>3</ele></trkpt>
   <trkpt lat="53.92911" lon="14.198319"><ele>3</ele></trkpt>
   <trkpt lat="53.92888" lon="14.198821"><ele>3</ele></trkpt>
   <trkpt lat="53.92863" lon="14.199426"><ele>3</ele></trkpt>
   <trkpt lat="53.924676" lon="14.209434"><ele>3</ele></trkpt>
   <trkpt lat="53.923672" lon="14.211971"><ele>3.25</ele></trkpt>
   <trkpt lat="53.923426" lon="14.212593"><ele>3.5</ele></trkpt>
   <trkpt lat="53.922662" lon="14.214522"><ele>3</ele></trkpt>
   <trkpt lat="53.922659" lon="14.21453"><ele>3</ele></trkpt>
   <trkpt lat="53.922446" lon="14.215076"><ele>3</ele></trkpt>
   <trkpt lat="53.922396" lon="14.215203"><ele>3.25</ele></trkpt>
   <trkpt lat="53.922368" lon="14.215273"><ele>3.5</ele></trkpt>
   <trkpt lat="53.922118" lon="14.215902"><ele>3</ele></trkpt>
   <trkpt lat="53.921769" lon="14.216776"><ele>3.5</ele></trkpt>
   <trkpt lat="53.921645" lon="14.217063"><ele>3.75</ele></trkpt>
   <trkpt lat="53.92128" lon="14.217841"><ele>3.5</ele></trkpt>
   <trkpt lat="53.919764" lon="14.221066"><ele>3</ele></trkpt>
   <trkpt lat="53.919536" lon="14.221563"><ele>3.25</ele></trkpt>
   <trkpt lat="53.919305" lon="14.222099"><ele>3.25</ele></trkpt>
   <trkpt lat="53.918649" lon="14.223706"><ele>3.5</ele></trkpt>
   <trkpt lat="53.917207" lon="14.227241"><ele>3.5</ele></trkpt>
   <trkpt lat="53.916609" lon="14.22871"><ele>3.5</ele></trkpt>
   <trkpt lat="53.915748" lon="14.23083"><ele>3.5</ele></trkpt>
   <trkpt lat="53.915692" lon="14.230969"><ele>3.25</ele></trkpt>
   <trkpt lat="53.915566" lon="14.23128"><ele>3</ele></trkpt>
   <trkpt lat="53.915345" lon="14.231827"><ele>4</ele></trkpt>
   <trkpt lat="53.915025" lon="14.232621"><ele>3.25</ele></trkpt>
   <trkpt lat="53.914965" lon="14.232769"><ele>3.75</ele></trkpt>
   <trkpt lat="53.91445" lon="14.234038"><ele>4</ele></trkpt>
   <trkpt lat="53.914335" lon="14.234327"><ele>4</ele></trkpt>
   <trkpt lat="53.914332" lon="14.234332"><ele>4</ele></trkpt>
  </trkseg>
 </trk>
</gpx>